QIANFAN-1               
1 60379U 24140A   26264.53894230  .00000039  00000+0  41936-4 0  9998
2 60379  88.9664 269.9171 0019461 115.1823 245.1349 13.51026013105539
QIANFAN-2               
1 60380U 24140B   26264.56777227  .00000045  00000+0  51436-4 0  9992
2 60380  88.9651 269.7151 0014903  90.5884 269.6975 13.51020419105598
QIANFAN-3               
1 60381U 24140C   26264.35397496  .00000043  00000+0  47496-4 0  9995
2 60381  88.9643 269.8487 0016020 101.8998 258.3951 13.51023141105478
QIANFAN-4               
1 60382U 24140D   26264.55134766  .00000024  00000+0  18481-4 0  9998
2 60382  88.9668 269.7969 0015154  92.7687 267.5199 13.51021067105628
QIANFAN-5               
1 60383U 24140E   26264.52654764  .00000050  00000+0  57704-4 0  9991
2 60383  88.9643 269.8549 0017168 111.5239 248.7744 13.51031389105486
QIANFAN-6               
1 60384U 24140F   26264.54721869  .00000025  00000+0  20449-4 0  9993
2 60384  88.9670 269.6758 0015257  97.8453 262.4431 13.51024175105681
QIANFAN-7               
1 60385U 24140G   26264.52798362  .00000132  00000+0  47251-4 0  9993
2 60385  88.9722 260.4316 0014727 180.3695 179.7491 14.27893845110747
QIANFAN-8               
1 60386U 24140H   26264.55557474  .00000030  00000+0  27758-4 0  9991
2 60386  88.9671 269.9158 0018704  99.9363 260.3900 13.51026109105535
QIANFAN-9               
1 60387U 24140J   26264.53081317  .00000052  00000+0  61330-4 0  9996
2 60387  88.9669 269.9880 0018400  99.7815 260.5416 13.51021829105514
QIANFAN-10              
1 60388U 24140K   26264.53491616  .00000045  00000+0  49949-4 0  9998
2 60388  88.9681 269.3648 0016818  79.8659 280.4388 13.51021932105649
QIANFAN-11              
1 60389U 24140L   26264.57207497  .00000039  00000+0  41973-4 0  9997
2 60389  88.9605 269.7349 0016427  99.3349 260.9660 13.51021151105309
QIANFAN-12              
1 60390U 24140M   26264.51852528  .00000038  00000+0  39376-4 0  9997
2 60390  88.9648 269.9070 0015205 106.4932 253.7891 13.51023720105425
QIANFAN-13              
1 60391U 24140N   26264.56374437  .00000041  00000+0  44289-4 0  9994
2 60391  88.9908 270.1495 0015010 108.3378 251.9407 13.51023811105456
QIANFAN-14              
1 60392U 24140P   26264.51448044  .00000031  00000+0  29102-4 0  9992
2 60392  88.9639 269.8794 0018682 109.2616 251.0558 13.51025933105453
QIANFAN-15              
1 60393U 24140Q   26264.52257078  .00000051  00000+0  60334-4 0  9993
2 60393  88.9662 269.9023 0014563  96.8280 263.4528 13.51028240105445
QIANFAN-16              
1 60394U 24140R   26264.36208110  .00000027  00000+0  22705-4 0  9992
2 60394  88.9665 270.0470 0016566 112.7413 247.5491 13.51025293105334
QIANFAN-17              
1 60395U 24140S   26264.35811106  .00000036  00000+0  36361-4 0  9990
2 60395  88.9676 270.1243 0017024 107.2367 253.0649 13.51021654106293
QIANFAN-18              
1 60396U 24140T   26264.55973016  .00000037  00000+0  38646-4 0  9991
2 60396  88.9670 269.6186 0016437  91.5884 268.7151 13.51020981105712
QIANFAN-19              
1 61552U 24185A   26264.63343826  .00000262  00000+0  12935-3 0  9996
2 61552  88.9858  45.5317 0008868 111.3464 248.8670 14.14532427109651
QIANFAN-20              
1 61553U 24185B   26264.55305360  .00000364  00000+0  20216-3 0  9993
2 61553  88.9852  46.1436 0006793 144.1774 215.9867 14.09073595109314
QIANFAN-21              
1 61554U 24185C   26264.54382286  .00000367  00000+0  15652-3 0  9996
2 61554  88.9778  43.8650 0011643 152.1724 208.0093 14.22934341110189
QIANFAN-22              
1 61555U 24185D   26264.57237090  .00000151  00000+0  11929-3 0  9996
2 61555  88.9832  48.2626 0005931 192.5533 167.5492 13.86430026108125
QIANFAN-23              
1 61556U 24185E   26264.63078917  .00000229  00000+0  10791-3 0  9997
2 61556  88.9851  45.2100 0009342 118.2921 241.9211 14.16553896109792
QIANFAN-24              
1 61557U 24185F   26264.58723947  .00000407  00000+0  17058-3 0  9993
2 61557  88.9837  44.1594 0011747  95.9321 264.3211 14.24158573110275
QIANFAN-25              
1 61558U 24185G   26264.61002429  .00000299  00000+0  17362-3 0  9990
2 61558  88.9845  46.1841 0013202 167.2934 192.8583 14.06131775109251
QIANFAN-26              
1 61559U 24185H   26264.60017289  .00000170  00000+0  15692-3 0  9992
2 61559  88.9837  49.2229 0004412 220.0821 140.0021 13.77945691107621
QIANFAN-27              
1 61560U 24185J   26264.59350149  .00000465  00000+0  18283-3 0  9993
2 61560  88.9848  43.7955 0009425  84.3548 275.8721 14.27604763110510
QIANFAN-28              
1 61561U 24185K   26264.55566561  .00000503  00000+0  19507-3 0  9990
2 61561  88.9866  43.8149 0009372  82.6563 277.5697 14.28489196110542
QIANFAN-29              
1 61562U 24185L   26264.57426157  .00000135  00000+0  18983-3 0  9997
2 61562  88.9804  52.0759 0008488 320.6629  39.3904 13.51094784105986
QIANFAN-30              
1 61563U 24185M   26264.54082222  .00000131  00000+0  18764-3 0  9999
2 61563  88.9825  51.7133 0005993 306.2401  53.8196 13.50076519106225
QIANFAN-31              
1 61564U 24185N   26264.54237355  .00000152  00000+0  19371-3 0  9997
2 61564  88.9809  51.0663 0005280 286.1428  73.9146 13.58065400106541
QIANFAN-32              
1 61565U 24185P   26264.57681126  .00000095  00000+0  12845-3 0  9995
2 61565  88.9864  51.9262 0008715 340.6942  19.3877 13.50806580106224
QIANFAN-33              
1 61566U 24185Q   26264.61022469  .00000293  00000+0  20114-3 0  9998
2 61566  88.9834  47.2765 0008637 150.4124 209.7544 13.96754148108646
QIANFAN-34              
1 61567U 24185R   26264.55601501  .00000390  00000+0  24449-3 0  9995
2 61567  88.9815  46.4724 0006693 145.1504 215.0116 14.02522949108998
QIANFAN-35              
1 61568U 24185S   26264.54300026  .00000431  00000+0  16671-3 0  9997
2 61568  88.9847  43.6935 0008465  81.1309 279.0844 14.28359873110542
QIANFAN-36              
1 61569U 24185T   26264.58480394  .00000074  00000+0  88730-4 0  9998
2 61569  88.9801  51.5701 0004726 310.6079  49.4663 13.55647648106241
QIANFAN-37              
1 62238U 24232B   26264.54251748  .00000099  00000+0  13491-3 0  9998
2 62238  89.0158  12.9358 0001888  87.3990 272.7377 13.51030886137352
QIANFAN-38              
1 62239U 24232C   26264.56729381  .00000105  00000+0  14348-3 0  9994
2 62239  89.0165  12.8683 0016492  99.1535 261.1483 13.51029125137415
QIANFAN-39              
1 62240U 24232D   26264.59599304  .00000310  00000+0  12494-3 0  9997
2 62240  89.0143   5.1205 0014655 225.3375 134.6624 14.25562706141686
QIANFAN-40              
1 62241U 24232E   26264.60021396  .00000111  00000+0  15244-3 0  9996
2 62241  89.0193  12.5284 0015607 106.0722 254.2149 13.51029418137783
QIANFAN-41              
1 62242U 24232F   26264.60841422  .00000094  00000+0  12699-3 0  9998
2 62242  89.0163  12.8104 0015873  95.6204 264.6757 13.51030518137444
QIANFAN-42              
1 62243U 24232G   26264.56370123  .00000288  00000+0  11757-3 0  9998
2 62243  89.0141   5.2132 0013273 232.8948 127.1033 14.24649619141635
QIANFAN-43              
1 62244U 24232H   26264.60430687  .00000100  00000+0  13644-3 0  9996
2 62244  89.0168  12.8886 0017445 100.1500 260.1620 13.51030015106051
QIANFAN-44              
1 62245U 24232J   26264.59198704  .00000104  00000+0  14144-3 0  9996
2 62245  89.0166  12.6960 0015646  97.6693 262.6236 13.51030238137528
QIANFAN-45              
1 62246U 24232K   26264.55908966  .00000111  00000+0  15225-3 0  9991
2 62246  89.0170  12.8558 0016306  97.3621 262.9384 13.51028980137440
QIANFAN-46              
1 62247U 24232L   26264.58371142  .00000097  00000+0  13145-3 0  9997
2 62247  89.0166  12.9108 0016385 102.1790 258.1198 13.51030020137401
QIANFAN-47              
1 62248U 24232M   26264.58787125  .00000102  00000+0  13944-3 0  9994
2 62248  89.0162  12.8320 0016804 101.3932 258.9108 13.51029280137436
QIANFAN-48              
1 62249U 24232N   26264.55094176  .00000096  00000+0  12943-3 0  9999
2 62249  89.0165  12.8486 0019060 103.7772 256.5502 13.51023591137439
QIANFAN-49              
1 62250U 24232P   26264.53849511  .00000088  00000+0  11719-3 0  9991
2 62250  89.0164  12.8600 0016127  99.1147 261.1830 13.51030715106026
QIANFAN-50              
1 62251U 24232Q   26264.56314652  .00000108  00000+0  14863-3 0  9994
2 62251  89.0170  12.8812 0017789 100.1644 260.1515 13.51030259106054
QIANFAN-51              
1 62252U 24232R   26264.54672796  .00000102  00000+0  13839-3 0  9995
2 62252  89.0164  12.8593 0015268 103.6477 256.6376 13.51029196106048
QIANFAN-52              
1 62253U 24232S   26264.57550254  .00000091  00000+0  12194-3 0  9993
2 62253  89.0160  12.7189 0017274  96.4877 263.8242 13.51031246106138
QIANFAN-53              
1 62254U 24232T   26264.55500746  .00000103  00000+0  14069-3 0  9990
2 62254  89.0168  12.8469 0016157  97.6074 262.6913 13.51027954106098
QIANFAN-54              
1 62255U 24232U   26264.59608598  .00000103  00000+0  14138-3 0  9996
2 62255  89.0159  12.4964 0003929 123.1934 236.9594 13.51029830137603
QIANFAN-55              
1 62785U 25016A   26264.54813314  .00000056  00000+0  68916-4 0  9995
2 62785  88.9672  73.8476 0015647 248.9592 110.9886 13.51024994 85371
QIANFAN-56              
1 62786U 25016B   26264.56441805  .00000055  00000+0  66200-4 0  9993
2 62786  88.9647  73.6070 0014211 251.6484 108.3122 13.51028203 85426
QIANFAN-57              
1 62787U 25016C   26264.59750066  .00000051  00000+0  59848-4 0  9995
2 62787  88.9677  73.8452 0002395  81.0354 279.1068 13.51027919 85392
QIANFAN-58              
1 62788U 25016D   26264.56871338  .00000057  00000+0  70176-4 0  9992
2 62788  88.9647  73.5938 0012214 242.6401 117.3507 13.51027396 85430
QIANFAN-59              
1 62789U 25016E   26264.59323275  .00000049  00000+0  56647-4 0  9996
2 62789  88.9671  73.7315 0012530 246.9673 113.0158 13.51024699 85436
QIANFAN-60              
1 62790U 25016F   26264.55208665  .00000059  00000+0  72503-4 0  9999
2 62790  88.9652  73.6535 0014121 243.4204 116.5501 13.51028201 85411
QIANFAN-61              
1 62791U 25016G   26264.58504864  .00000062  00000+0  76781-4 0  9999
2 62791  88.9718  74.0042 0013094 242.5568 117.4252 13.51027705 85437
QIANFAN-62              
1 62792U 25016H   26264.58928206  .00000049  00000+0  56686-4 0  9997
2 62792  88.9666  73.7204 0014433 243.0570 116.9107 13.51027149 85427
QIANFAN-63              
1 62793U 25016J   26264.53984322  .00000057  00000+0  69966-4 0  9998
2 62793  88.9672  73.6962 0014427 249.2412 110.7193 13.51023099 85451
QIANFAN-64              
1 62794U 25016K   26264.58095931  .00000062  00000+0  77790-4 0  9993
2 62794  88.9659  73.6281 0012453 240.6844 119.3064 13.51027686 85450
QIANFAN-65              
1 62795U 25016L   26264.57674767  .00000066  00000+0  83149-4 0  9992
2 62795  88.9656  73.6444 0012290 242.6185 117.3716 13.51023816 85439
QIANFAN-66              
1 62796U 25016M   26264.53150939  .00000059  00000+0  72344-4 0  9996
2 62796  88.9675  73.6748 0013442 238.1659 121.8184 13.51019938 85477
QIANFAN-67              
1 62797U 25016N   26264.53558779  .00000057  00000+0  69777-4 0  9995
2 62797  88.9665  73.6721 0013333 245.7040 114.2719 13.51020031 85448
QIANFAN-68              
1 62798U 25016P   26264.52746691  .00000052  00000+0  62057-4 0  9996
2 62798  88.9669  73.7283 0013421 243.5193 116.4582 13.51022080 85426
QIANFAN-69              
1 62799U 25016Q   26264.54381944  .00000056  00000+0  67762-4 0  9997
2 62799  88.9648  73.5359 0014135 245.1641 114.8040 13.51024410 85469
QIANFAN-70              
1 62800U 25016R   26264.56041353  .00000051  00000+0  60252-4 0  9991
2 62800  88.9668  73.7315 0013876 234.3015 125.6846 13.51024026 85427
QIANFAN-71              
1 62801U 25016S   26264.55624347  .00000047  00000+0  54525-4 0  9992
2 62801  88.9662  73.6944 0013996 249.1286 110.8367 13.51026990 85422
QIANFAN-72              
1 62802U 25016T   26264.57280936  .00000065  00000+0  82688-4 0  9998
2 62802  88.9653  73.6784 0017210 257.4234 102.4992 13.51028740 85418
QIANFAN-73              
1 63159U 25046A   26264.45163792  .00000066  00000+0  82883-4 0  9992
2 63159  88.9642 290.6661 0015894  33.7033 326.5126 13.51025623 85588
QIANFAN-74              
1 63160U 25046B   26264.58335104  .00000012  00000+0 -53884-6 0  9999
2 63160  88.9640 290.5421 0001814  97.9544 262.1813 13.51018676 85664
QIANFAN-75              
1 63161U 25046C   26264.57101919  .00000092  00000+0  12366-3 0  9998
2 63161  88.9644 290.7811 0017105  36.3017 323.9291 13.51031256 85537
QIANFAN-76              
1 63162U 25046D   26264.56698581 -.00000073  00000+0 -13245-3 0  9992
2 63162  88.9642 290.7613 0014593  37.6339 322.5830 13.51021017 85544
QIANFAN-77              
1 63163U 25046E   26264.55994208  .00000131  00000+0  85191-4 0  9990
2 63163  88.9648 286.4370 0012549 278.7811  81.1944 13.96247306 87912
QIANFAN-78              
1 63164U 25046F   26264.53455127  .00000066  00000+0  83178-4 0  9991
2 63164  88.9643 290.6265 0016074  39.0976 321.1333 13.51012551 85612
QIANFAN-79              
1 63165U 25046G   26264.56274645  .00000031  00000+0  29591-4 0  9990
2 63165  88.9646 290.7407 0015756  37.7852 322.4402 13.51021203 85568
QIANFAN-80              
1 63166U 25046H   26264.57919906  .00000081  00000+0  10707-3 0  9991
2 63166  88.9643 290.4381 0014796  42.4364 317.7928 13.51030117 85720
QIANFAN-81              
1 63167U 25046J   26263.59579479  .00000097  00000+0  13145-3 0  9996
2 63167  88.9644 290.6083 0015753  34.7815 325.4363 13.51020966 85542
QIANFAN-82              
1 63168U 25046K   26264.59159853  .00000085  00000+0  11260-3 0  9991
2 63168  88.9643 290.5485 0013767  39.3855 320.8294 13.51020974 85669
QIANFAN-83              
1 63169U 25046L   26264.53510117  .00000051  00000+0  49491-4 0  9991
2 63169  88.9645 289.7731 0014048   9.6715 350.4711 13.62064982 86094
QIANFAN-84              
1 63170U 25046M   26264.54634374 -.00000052  00000+0 -98662-4 0  9993
2 63170  88.9641 290.6858 0016618  34.7874 325.4360 13.51016734 85588
QIANFAN-85              
1 63171U 25046N   26264.54217250  .00000088  00000+0  11727-3 0  9997
2 63171  88.9642 290.5558 0014281  38.1222 322.0936 13.51021155 85658
QIANFAN-86              
1 63172U 25046P   26264.55037047  .00000099  00000+0  13372-3 0  9993
2 63172  88.9645 290.4237 0012307  43.1689 317.0425 13.51026194 85739
QIANFAN-87              
1 63173U 25046Q   26264.52154750  .00000026  00000+0  21789-4 0  9994
2 63173  88.9641 290.5279 0012661  38.3522 321.8527 13.51032029 85660
QIANFAN-88              
1 63174U 25046R   26264.53802257  .00000090  00000+0  12089-3 0  9991
2 63174  88.9644 290.4877 0013349  46.0888 314.1363 13.51019642 85694
QIANFAN-89              
1 63175U 25046S   26264.57505757  .00000091  00000+0  12208-3 0  9995
2 63175  88.9644 290.6726 0017548  34.7822 325.4472 13.51020410 85597
QIANFAN-90              
1 63176U 25046T   26264.52986489  .00000024  00000+0  18469-4 0  9998
2 63176  88.9644 290.6507 0014450  34.8853 325.3242 13.51019942 85603
QIANFAN-91              
1 66033U 25233A   26264.11788814  .00000070  00000+0  89235-4 0  9998
2 66033  89.0056  33.4922 0001733  94.0496 266.0854 13.51029666 46131
QIANFAN-92              
1 66034U 25233B   26264.12645088  .00000034  00000+0  33386-4 0  9991
2 66034  89.0038  33.4474 0002239 102.7170 257.4232 13.50961675 46130
QIANFAN-93              
1 66035U 25233C   26264.28270759  .00000090  00000+0  12136-3 0  9999
2 66035  89.0066  33.5094 0001795  93.5914 266.5443 13.51012962 46154
QIANFAN-94              
1 66036U 25233D   26264.34424887  .00000073  00000+0  95118-4 0  9993
2 66036  89.0063  33.4034 0001764 100.6162 259.5187 13.51028090 46219
QIANFAN-95              
1 66037U 25233E   26264.42655762  .00000090  00000+0  12045-3 0  9997
2 66037  89.0061  32.9364 0001622  96.5763 263.5573 13.51028040 46478
QIANFAN-96              
1 66038U 25233F   26264.15493318  .00000074  00000+0  95949-4 0  9992
2 66038  89.0057  33.5045 0001702  92.4780 267.6566 13.51029204 46133
QIANFAN-97              
1 66039U 25233G   26264.36065285  .00000087  00000+0  11583-3 0  9999
2 66039  89.0060  33.4709 0001800  94.5655 265.5702 13.51039227 46165
QIANFAN-98              
1 66040U 25233H   26264.29486177  .00000071  00000+0  91569-4 0  9996
2 66040  89.0050  33.1982 0001671 113.8509 246.2817 13.51029506 46303
QIANFAN-99              
1 66041U 25233J   26264.59513495  .00000070  00000+0  89319-4 0  9993
2 66041  89.0062  33.4520 0001512 108.8240 251.3076 13.51036012 46201
QIANFAN-100             
1 66042U 25233K   26264.14266137  .00000077  00000+0  99977-4 0  9991
2 66042  89.0072  33.4354 0001788  94.8124 265.3232 13.51020515 46196
QIANFAN-101             
1 66043U 25233L   26264.58271660  .00000243  00000+0  94095-4 0  9998
2 66043  89.0063  29.5092 0015164 179.6299 180.4909 14.26862250 48373
QIANFAN-102             
1 66044U 25233M   26264.60755368  .00000075  00000+0  98119-4 0  9998
2 66044  89.0060  33.3583 0001724 101.6765 258.4580 13.51028786 46250
QIANFAN-103             
1 66045U 25233N   26264.31545848  .00000091  00000+0  12204-3 0  9995
2 66045  89.0062  33.4855 0001781  94.7118 265.4237 13.51028854 46166
QIANFAN-104             
1 66046U 25233P   26264.61573319  .00000079  00000+0  10370-3 0  9991
2 66046  89.0068  33.3619 0001810 103.1036 257.0317 13.51026803 46255
QIANFAN-105             
1 66047U 25233Q   26264.32783739  .00000071  00000+0  91573-4 0  9996
2 66047  89.0079  33.2466 0001808  99.1960 260.9396 13.51030067 46329
QIANFAN-106             
1 66048U 25233R   26264.32360491  .00000080  00000+0  10524-3 0  9999
2 66048  89.0049  33.4297 0001649 111.3667 248.7661 13.51030423 46162
QIANFAN-107             
1 66049U 25233S   26264.33185052  .00000069  00000+0  88132-4 0  9997
2 66049  89.0064  33.4766 0001797  95.9215 264.2141 13.51029653 46171
QIANFAN-108             
1 66050U 25233T   26264.63226948  .00000065  00000+0  82768-4 0  9997
2 66050  89.0058  33.4273 0001696 110.0052 250.1282 13.51029386 46213
QIANFAN-109             
1 68636U 26075A   26264.57208615  .00000058  00000+0  71060-4 0  9993
2 68636  88.9863 311.1768 0002003  83.5889 276.5490 13.51020996 22807
QIANFAN-110             
1 68637U 26075B   26264.58025528  .00000058  00000+0  70843-4 0  9993
2 68637  88.9863 311.1975 0002231  96.5917 263.5488 13.51021967 22809
QIANFAN-111             
1 68638U 26075C   26264.56817575  .00000057  00000+0  69780-4 0  9990
2 68638  88.9862 311.1576 0002209  96.3695 263.7708 13.51021402 22825
QIANFAN-112             
1 68639U 26075D   26264.53104372  .00000053  00000+0  63959-4 0  9990
2 68639  88.9861 311.1692 0002238  83.8631 276.2776 13.51023766 22815
QIANFAN-113             
1 68640U 26075E   26264.57615994  .00000055  00000+0  67099-4 0  9994
2 68640  88.9866 311.1637 0002269  93.6216 266.5195 13.51020396 22827
QIANFAN-114             
1 68641U 26075F   26264.58437748  .00000043  00000+0  47494-4 0  9999
2 68641  88.9861 311.1774 0002200  96.0633 264.0769 13.51028027 22818
QIANFAN-115             
1 68642U 26075G   26264.53920437  .00000055  00000+0  66481-4 0  9997
2 68642  88.9862 311.1892 0002063  93.8912 266.2476 13.51024703 22808
QIANFAN-116             
1 68643U 26075H   26264.45277113  .00000047  00000+0  54348-4 0  9995
2 68643  88.9855 311.1514 0002296  87.1406 273.0008 13.51025240 22808
QIANFAN-117             
1 68644U 26075J   26264.58864810  .00000033  00000+0  32926-4 0  9999
2 68644  88.9859 311.1577 0002114  89.6386 270.5008 13.51023072 22820
QIANFAN-118             
1 68645U 26075K   26264.54742199  .00000041  00000+0  45179-4 0  9994
2 68645  88.9864 311.1745 0002305  98.1133 262.0279 13.51024850 22811
QIANFAN-119             
1 68646U 26075L   26264.52265967  .00000047  00000+0  54175-4 0  9998
2 68646  88.9864 311.1728 0001937  87.0468 273.0905 13.51020568 22811
QIANFAN-120             
1 68647U 26075M   26264.53504539  .00000061  00000+0  75527-4 0  9991
2 68647  88.9866 311.1580 0001868  86.8945 273.2420 13.51020441 22825
QIANFAN-121             
1 68648U 26075N   26264.55985070  .00000044  00000+0  50174-4 0  9999
2 68648  88.9863 311.1583 0002219  97.7907 262.3496 13.51023912 22824
QIANFAN-122             
1 68649U 26075P   26264.55156334  .00000046  00000+0  52287-4 0  9992
2 68649  88.9862 311.1561 0002093  87.3071 272.8320 13.51027499 22812
QIANFAN-123             
1 68650U 26075Q   26264.59261623  .00000046  00000+0  52165-4 0  9991
2 68650  88.9859 311.1388 0002035  81.1938 278.9444 13.51020432 22800
QIANFAN-124             
1 68651U 26075R   26264.54335956  .00000049  00000+0  57718-4 0  9990
2 68651  88.9862 311.1554 0002105  85.6980 274.4412 13.51027025 22827
QIANFAN-125             
1 68652U 26075S   26264.55573642  .00000048  00000+0  55126-4 0  9998
2 68652  88.9861 311.1561 0002243  97.2403 262.9003 13.51024057 22827
QIANFAN-126             
1 68653U 26075T   26264.48972692  .00000052  00000+0  61347-4 0  9996
2 68653  88.9866 311.1323 0002017  82.1280 278.0100 13.51019521 22831
QIANFAN-127             
1 69073U 26104A   26264.56923772  .00000051  00000+0  60779-4 0  9997
2 69073  88.9921 331.6453 0002541 101.7262 258.4175 13.51028301 18173
QIANFAN-128             
1 69074U 26104B   26264.57734999  .00000054  00000+0  65415-4 0  9995
2 69074  88.9899 331.6680 0002293 112.2681 247.8713 13.51023827 18152
QIANFAN-129             
1 69075U 26104C   26264.52790707  .00000066  00000+0  84254-4 0  9995
2 69075  88.9902 331.6073 0002348 107.3298 252.8110 13.51023807 18182
QIANFAN-130             
1 69076U 26104D   26264.56492361  .00000062  00000+0  77868-4 0  9994
2 69076  88.9904 331.6694 0002496  96.1467 263.9968 13.51021958 18157
QIANFAN-131             
1 69077U 26104E   26264.58566848  .00000064  00000+0  81167-4 0  9998
2 69077  88.9897 331.6277 0002087 106.8467 253.2914 13.51025977 18171
QIANFAN-132             
1 69078U 26104F   26264.57317235  .00000053  00000+0  64003-4 0  9990
2 69078  88.9899 331.6857 0002382  99.1800 260.9621 13.51022191 18143
QIANFAN-133             
1 69079U 26104G   26264.58149827  .00000063  00000+0  78459-4 0  9993
2 69079  88.9903 331.6351 0002043 112.9571 247.1796 13.51031017 18161
QIANFAN-134             
1 69080U 26104H   26264.53621501  .00000062  00000+0  77163-4 0  9994
2 69080  88.9907 331.6661 0002236 111.6981 248.4408 13.51029349 18154
QIANFAN-135             
1 69081U 26104J   26264.51556723  .00000072  00000+0  93354-4 0  9997
2 69081  88.9901 331.6589 0002479 111.2619 248.8797 13.51022486 18151
QIANFAN-136             
1 69082U 26104K   26264.52381827  .00000069  00000+0  88390-4 0  9990
2 69082  88.9903 331.6611 0002096 112.9151 247.2222 13.51032460 18153
QIANFAN-137             
1 69083U 26104L   26264.59381653  .00000068  00000+0  86285-4 0  9995
2 69083  88.9912 331.5308 0002253  99.8289 260.3116 13.51022173 18233
QIANFAN-138             
1 69084U 26104M   26264.54436474  .00000063  00000+0  79240-4 0  9991
2 69084  88.9896 331.6587 0002539 105.2680 254.8752 13.51021935 18159
QIANFAN-139             
1 69085U 26104N   26264.53218849  .00000060  00000+0  73727-4 0  9996
2 69085  88.9899 331.6418 0002481  99.9043 260.2388 13.51030704 18165
QIANFAN-140             
1 69086U 26104P   26264.54026315  .00000059  00000+0  72658-4 0  9993
2 69086  88.9899 331.6445 0002553 109.9494 250.1933 13.51023051 18169
QIANFAN-141             
1 69087U 26104Q   26264.54856295  .00000066  00000+0  83993-4 0  9994
2 69087  88.9896 331.6079 0002359 111.6262 248.5141 13.51020847 18181
QIANFAN-142             
1 69088U 26104R   26264.55670158  .00000069  00000+0  87818-4 0  9991
2 69088  88.9895 331.6063 0002500 106.0826 254.0601 13.51020062 18188
QIANFAN-143             
1 69089U 26104S   26264.55269145  .00000069  00000+0  87703-4 0  9995
2 69089  88.9906 331.6136 0002020 106.3617 253.7756 13.51027534 18189
QIANFAN-144             
1 69090U 26104T   26264.56081638  .00000057  00000+0  69475-4 0  9990
2 69090  88.9904 331.6309 0002540 102.4759 257.6676 13.51020942 18171
QIANFAN-145             
1 69104U 26108A   26264.56510160  .00000021  00000+0  13963-4 0  9999
2 69104  89.0195  12.4286 0001609 105.4022 254.7307 13.51021792 17453
QIANFAN-146             
1 69105U 26108B   26264.59805287  .00000112  00000+0  15539-3 0  9991
2 69105  89.0197  12.2625 0001946 100.1210 260.0161 13.51040437 17552
QIANFAN-147             
1 69106U 26108C   26264.57352773  .00000103  00000+0  14152-3 0  9997
2 69106  89.0197  12.4323 0002086 103.1528 256.9856 13.51025407 17444
QIANFAN-148             
1 69107U 26108D   26264.56111810  .00000115  00000+0  15961-3 0  9994
2 69107  89.0191  12.4234 0002036 109.6345 250.5026 13.51024971 17447
QIANFAN-149             
1 69108U 26108E   26264.56928176  .00000108  00000+0  14812-3 0  9992
2 69108  89.0191  12.4438 0002319 108.0892 252.0512 13.51024476 17445
QIANFAN-150             
1 69109U 26108F   26264.57747972  .00000101  00000+0  13775-3 0  9997
2 69109  89.0196  12.3963 0002330 106.8340 253.3067 13.51024900 17463
QIANFAN-151             
1 69110U 26108G   26264.60645091  .00000100  00000+0  13671-3 0  9996
2 69110  89.0195  12.4171 0001819 104.3290 255.8063 13.51028120 17454
QIANFAN-152             
1 69111U 26108H   26264.58568666  .00000020  00000+0  11895-4 0  9994
2 69111  89.0191  12.4109 0002182  96.7173 263.4227 13.51024180 17460
QIANFAN-153             
1 69112U 26108J   26264.58158299  .00000105  00000+0  14404-3 0  9994
2 69112  89.0188  12.3876 0002233 103.3648 256.7752 13.51025250 17463
QIANFAN-154             
1 69113U 26108K   26264.58994455  .00000109  00000+0  15025-3 0  9991
2 69113  89.0198  12.4358 0002156 105.6590 254.4799 13.51027240 17452
QIANFAN-155             
1 69114U 26108L   26264.59394879  .00000108  00000+0  14909-3 0  9996
2 69114  89.0196  12.3999 0002284 104.7176 255.4229 13.51024102 17467
QIANFAN-156             
1 69115U 26108M   26264.54042866  .00000101  00000+0  13757-3 0  9991
2 69115  89.0210  12.4068 0001932 108.5692 251.5669 13.51024046 17470
QIANFAN-157             
1 69116U 26108N   26264.60231393  .00000109  00000+0  15000-3 0  9995
2 69116  89.0192  12.3237 0002127 110.9859 249.1520 13.51028824 17518
QIANFAN-158             
1 69117U 26108P   26264.54452153  .00000111  00000+0  15390-3 0  9993
2 69117  89.0193  12.3707 0001881 106.8935 253.2423 13.51024310 17487
QIANFAN-159             
1 69118U 26108Q   26264.61040736  .00000098  00000+0  13399-3 0  9993
2 69118  89.0185  12.3703 0001895 104.5024 255.6337 13.51024080 17488
QIANFAN-160             
1 69119U 26108R   26264.55293852  .00000113  00000+0  15638-3 0  9992
2 69119  89.0200  12.4137 0002405 104.8434 255.2984 13.51024197 17466
QIANFAN-161             
1 69120U 26108S   26264.55689587  .00000114  00000+0  15869-3 0  9995
2 69120  89.0207  12.3302 0001860 105.5931 254.5426 13.51022564 17517
QIANFAN-162             
1 69121U 26108T   26264.54869200  .00000109  00000+0  15001-3 0  9999
2 69121  89.0196  12.3561 0002121  99.0726 261.0666 13.51023410 17488
QIANFAN-163             
1 69325U 26121A   26264.06895885  .00000020  00000+0  12951-4 0  9999
2 69325  89.0101 290.9689 0002521 118.6016 241.5389 13.51022014 15111
QIANFAN-164             
1 69326U 26121B   26264.33229901  .00000055  00000+0  67300-4 0  9996
2 69326  89.0098 290.9329 0002113 110.5921 249.5457 13.51021592 15159
QIANFAN-165             
1 69382U 26124A   26264.56417255  .00000103  00000+0  14036-3 0  9998
2 69382  89.0070 351.9163 0001989 120.9457 239.1890 13.51022461 15055
QIANFAN-166             
1 69383U 26124B   26264.56831997  .00000109  00000+0  15004-3 0  9994
2 69383  89.0089 351.9270 0001833 105.1565 254.9789 13.51023074 15051
QIANFAN-167             
1 69384U 26124C   26264.57230338  .00000108  00000+0  14825-3 0  9997
2 69384  89.0063 351.9318 0002226 106.6070 253.5325 13.51032063 15049
QIANFAN-168             
1 69385U 26124D   26264.57637720  .00000107  00000+0  14640-3 0  9998
2 69385  89.0059 351.9112 0001668 109.6414 250.4918 13.51020694 15053
QIANFAN-169             
1 69386U 26124E   26264.58063110  .00000102  00000+0  13965-3 0  9990
2 69386  89.0058 351.9106 0001832 101.0704 259.0653 13.51023955 15051
QIANFAN-170             
1 69387U 26124F   26264.58469432  .00000098  00000+0  13329-3 0  9996
2 69387  89.0075 351.8828 0001773  99.3868 260.7484 13.51026408 15074
QIANFAN-171             
1 69388U 26124G   26264.59299226  .00000087  00000+0  11652-3 0  9995
2 69388  89.0090 351.8947 0002122 103.4240 256.7148 13.51029413 15075
QIANFAN-172             
1 69389U 26124H   26264.58879468  .00000088  00000+0  11698-3 0  9998
2 69389  89.0073 351.8846 0001885 117.8115 242.3228 13.51029947 15072
QIANFAN-173             
1 69390U 26124J   26264.59692340  .00000090  00000+0  12022-3 0  9998
2 69390  89.0062 351.8801 0001624 104.8617 255.2714 13.51022906 15078
QIANFAN-174             
1 69391U 26124K   26264.60930846  .00000107  00000+0  14753-3 0  9999
2 69391  89.0042 351.8360 0002250 108.4650 251.6746 13.51030848 15080
QIANFAN-175             
1 69392U 26124L   26264.53950030  .00000101  00000+0  13823-3 0  9990
2 69392  89.0094 351.8888 0001818 103.3934 256.7420 13.51020862 15070
QIANFAN-176             
1 69393U 26124M   26264.54359425  .00000096  00000+0  12988-3 0  9997
2 69393  89.0056 351.8677 0001832 103.4691 256.6665 13.51021627 15061
QIANFAN-177             
1 69394U 26124N   26264.55179505  .00000089  00000+0  11866-3 0  9994
2 69394  89.0066 351.8556 0002153 109.2165 250.9219 13.51030678 15086
QIANFAN-178             
1 69395U 26124P   26264.54762599  .00000088  00000+0  11817-3 0  9990
2 69395  89.0012 351.8110 0001842 102.5966 257.5392 13.51026604 15093
QIANFAN-179             
1 69396U 26124Q   26264.55591682  .00000089  00000+0  11906-3 0  9995
2 69396  89.0044 351.8287 0001821 102.1196 258.0159 13.51030239 15098
QIANFAN-180             
1 69397U 26124R   26264.56005065  .00000087  00000+0  11580-3 0  9998
2 69397  89.0050 351.8494 0001787  98.0414 262.0940 13.51022453 15084
QIANFAN-181             
1 69398U 26124S   26264.60118025  .00000097  00000+0  13112-3 0  9999
2 69398  89.0073 351.9391 0002177 105.4915 254.6477 13.51024274 15041
QIANFAN-182             
1 69399U 26124T   26264.53115979  .00000100  00000+0  13693-3 0  9996
2 69399  89.0047 351.9161 0001834 105.1782 254.9573 13.51028799 15031
QIANFAN-183             
1 69401U 26125A   26264.56578416  .00000046  00000+0  52630-4 0  9997
2 69401  88.9832 270.1941 0002074 101.3515 258.7869 13.51027572 14950
QIANFAN-184             
1 69402U 26125B   26264.57402795  .00000054  00000+0  65215-4 0  9997
2 69402  88.9883 270.2213 0002001  97.6861 262.4518 13.51028881 14958
QIANFAN-185             
1 69403U 26125C   26264.59878249  .00000045  00000+0  51505-4 0  9998
2 69403  88.9897 270.1590 0001947 100.2223 259.9148 13.51028605 14990
QIANFAN-186             
1 69404U 26125D   26264.27375837  .00000041  00000+0  44144-4 0  9996
2 69404  88.9885 270.2521 0002035  95.8632 264.2751 13.51008288 14911
QIANFAN-187             
1 69405U 26125E   26264.50412795  .00000035  00000+0  35471-4 0  9994
2 69405  88.9885 270.2113 0002202  98.9598 261.1803 13.51007399 14950
QIANFAN-188             
1 69406U 26125F   26264.51222599  .00000036  00000+0  36997-4 0  9992
2 69406  88.9883 270.2102 0002103 102.3496 257.7891 13.51029472 14958
QIANFAN-189             
1 69407U 26125G   26264.52041347  .00000040  00000+0  43880-4 0  9998
2 69407  88.9866 270.2037 0002175 107.3078 252.8311 13.51019094 14948
QIANFAN-190             
1 69408U 26125H   26264.58212516  .00000031  00000+0  29711-4 0  9990
2 69408  88.9867 270.1952 0001940  96.8030 263.3342 13.51018976 14965
QIANFAN-191             
1 69409U 26125J   26264.53279889  .00000044  00000+0  49716-4 0  9993
2 69409  88.9881 270.2126 0002067 102.2598 257.8784 13.51033008 14958
QIANFAN-192             
1 69410U 26125K   26264.51630494  .00000030  00000+0  27413-4 0  9991
2 69410  88.9888 270.2149 0002201 104.8973 255.2422 13.51019646 14950
QIANFAN-193             
1 69411U 26125L   26264.54112099  .00000035  00000+0  35630-4 0  9996
2 69411  88.9866 270.1883 0001982 103.3946 256.7426 13.51027557 14961
QIANFAN-194             
1 69412U 26125M   26264.53699475  .00000035  00000+0  35660-4 0  9997
2 69412  88.9899 270.2038 0002097 101.8035 258.3352 13.51026171 14957
QIANFAN-195             
1 69413U 26125N   26264.54528697  .00000030  00000+0  27884-4 0  9990
2 69413  88.9900 270.1879 0001924  89.3969 270.7403 13.51011877 14971
QIANFAN-196             
1 69414U 26125P   26264.55336658  .00000026  00000+0  21395-4 0  9992
2 69414  88.9905 270.1911 0001876  94.0058 266.1308 13.51035293 14973
QIANFAN-197             
1 69415U 26125Q   26264.56172878  .00000038  00000+0  40480-4 0  9995
2 69415  88.9879 270.1613 0002054 100.2112 259.9271 13.51023776 14975
QIANFAN-198             
1 69416U 26125R   26264.54933306  .00000031  00000+0  29249-4 0  9998
2 69416  88.9873 270.1751 0002103 102.5690 257.5697 13.51028239 14979
QIANFAN-199             
1 69417U 26125S   26264.55761494  .00000038  00000+0  40223-4 0  9999
2 69417  88.9877 270.1245 0002283 100.1985 259.9424 13.51025796 15006
QIANFAN-200             
1 69418U 26125T   26264.52875704  .00000045  00000+0  51029-4 0  9991
2 69418  88.9884 270.2131 0002121 105.2681 254.8704 13.51026297 14955
QIANFAN-201             
1 69800U 26153A   26264.23341183  .00000054  00000+0  27398-4 0  9996
2 69800  88.9976 351.3815 0004911   6.0598 354.0640 14.00291179 11155
QIANFAN-202             
1 69801U 26153B   26264.23052257 -.01809203  00000+0 -12937+1 0  9993
2 69801  88.9973 351.3440 0006639 287.6621  72.3834 14.01533659 11169
QIANFAN-203             
1 69802U 26153C   26264.58086300 -.01782540  00000+0 -12309+1 0  9995
2 69802  88.9973 351.3412 0008834 312.2581  47.7850 14.03420595 11203
QIANFAN-204             
1 69803U 26153D   26264.54549553 -.01873703  00000+0 -13563+1 0  9991
2 69803  88.9978 351.3366 0006783 312.0947  47.9654 14.00321342 11203
QIANFAN-205             
1 69804U 26153E   26264.57740113 -.01872160  00000+0 -14176+1 0  9997
2 69804  88.9972 351.3584 0005420  82.0961 278.0832 13.97770607 11197
QIANFAN-206             
1 69805U 26153F   26264.57863376 -.01966219  00000+0 -13704+1 0  9990
2 69805  88.9970 351.3037 0005220 255.8720 104.1881 14.02643565 11226
QIANFAN-207             
1 69806U 26153G   26264.57875171 -.01873108  00000+0 -13835+1 0  9996
2 69806  88.9973 351.3406 0005404  20.3068 339.8324 13.99184250 11207
QIANFAN-208             
1 69807U 26153H   26264.56684938 -.01835907  00000+0 -13940+1 0  9997
2 69807  88.9967 351.3388 0008185  63.7396 296.4622 13.98194172 11217
QIANFAN-209             
1 69808U 26153J   26264.60734043  .00000248  00000+0  15110-3 0  9999
2 69808  88.9981 351.3456 0006487 334.8246  25.2617 14.02904230 11200
QIANFAN-210             
1 69809U 26153K   26264.57646515 -.01875434  00000+0 -14063+1 0  9995
2 69809  88.9973 351.3408 0004825  19.4355 340.7006 13.98335554 11208
QIANFAN-211             
1 69810U 26153L   26264.56502195  .00000300  00000+0  14910-3 0  9994
2 69810  88.9979 351.3017 0006537 341.4531  18.6417 14.14541625 11224
QIANFAN-212             
1 69811U 26153M   26264.55679204 -.01856379  00000+0 -12689+1 0  9996
2 69811  88.9970 351.3185 0012629 327.5017  32.5385 14.03478438 11212
QIANFAN-213             
1 69812U 26153N   26263.79949576 -.01819876  00000+0 -13054+1 0  9992
2 69812  88.9973 351.4092 0008666 319.8356  40.2182 14.01372689 11108
QIANFAN-214             
1 69813U 26153P   26264.53734927 -.01859075  00000+0 -12685+1 0  9992
2 69813  88.9970 351.2785 0005467 255.0718 104.9857 14.03615669 11233
QIANFAN-215             
1 69814U 26153Q   26264.55215823 -.01800482  00000+0 -10944+1 0  9998
2 69814  88.9971 351.2237 0008810  43.4212 316.7665 14.10537578 11263
QIANFAN-216             
1 69815U 26153R   26263.90696248  .00000050  00000+0  19974-4 0  9997
2 69815  88.9978 351.3324 0006286 359.2589   0.8586 14.10942132 11156
QIANFAN-217             
1 69816U 26153S   26264.58029927  .00000365  00000+0  15646-3 0  9997
2 69816  88.9977 351.1715 0007117 353.9952   6.1153 14.22765331 11298
QIANFAN-218             
1 69817U 26153T   26264.57959142  .00000369  00000+0  15949-3 0  9998
2 69817  88.9980 351.1741 0005711 356.2441   3.8707 14.22321229 11292
QIANFAN-219             
1 69848U 26155A   26264.49504730 -.01771598  00000+0 -29930+1 0  9998
2 69848  89.0083  53.5992 0039138   3.6722 356.4708 13.49390513 10879
QIANFAN-220             
1 69849U 26155B   26264.43946346 -.01857510  00000+0 -32413+1 0  9995
2 69849  89.0092  53.6340 0032997   3.6616 356.4769 13.47607718 10857
QIANFAN-221             
1 69850U 26155C   26264.49665579 -.01813200  00000+0 -22046+1 0  9998
2 69850  89.0089  53.3850 0031340  19.1568 341.0764 13.70171829 10992
QIANFAN-222             
1 69851U 26155D   26264.53285129 -.01812954  00000+0 -30882+1 0  9995
2 69851  89.0085  53.6432 0033647   2.7570 357.3760 13.49040808 10850
QIANFAN-223             
1 69852U 26155E   26264.55753692  .00000076  00000+0  99859-4 0  9997
2 69852  89.0093  53.6476 0034581   8.5852 351.5882 13.49929412 10851
QIANFAN-224             
1 69853U 26155F   26264.53793291 -.01767324  00000+0 -29730+1 0  9991
2 69853  89.0069  53.5936 0035634   8.9688 351.2091 13.49706056 10874
QIANFAN-225             
1 69854U 26155G   26264.46608778 -.01846151  00000+0 -31644+1 0  9992
2 69854  89.0083  53.6475 0034560   0.4445 359.6730 13.48708710 10842
QIANFAN-226             
1 69855U 26155H   26264.54705307 -.01843202  00000+0 -30971+1 0  9994
2 69855  89.0083  53.6224 0036401   6.2221 353.9374 13.49949657 10868
QIANFAN-227             
1 69856U 26155J   26264.54761868  .00000070  00000+0  90847-4 0  9996
2 69856  89.0087  53.6252 0035517  11.7177 348.4792 13.49925575 10868
QIANFAN-228             
1 69857U 26155K   26264.49220770 -.01793594  00000+0 -28737+1 0  9991
2 69857  89.0087  53.6194 0039391  10.3610 349.8345 13.52820954 10863
QIANFAN-229             
1 69858U 26155L   26264.48992215 -.01822649  00000+0 -32039+1 0  9995
2 69858  89.0091  53.5999 0031486   5.5848 354.5646 13.47070156 10870
QIANFAN-230             
1 69859U 26155M   26264.23219543  .00000044  00000+0  49917-4 0  9996
2 69859  89.0088  53.6710 0028856  11.1275 349.0508 13.50972797 10819
QIANFAN-231             
1 69860U 26155N   26264.44957125 -.01768839  00000+0 -28212+1 0  9993
2 69860  89.0087  53.5945 0038470  10.2923 349.9008 13.53063023 10878
QIANFAN-232             
1 69861U 26155P   26264.54766175  .00000067  00000+0  86020-4 0  9992
2 69861  89.0084  53.5867 0026081   7.3438 352.8090 13.50452039 10883
QIANFAN-233             
1 69862U 26155Q   26264.50777796 -.01846494  00000+0 -30947+1 0  9998
2 69862  89.0086  53.5847 0036781   4.6944 355.4545 13.50116105 10889
QIANFAN-234             
1 69863U 26155R   26264.57721729 -.01777988  00000+0 -27130+1 0  9992
2 69863  89.0081  53.5219 0034624  11.3545 348.8382 13.55944826 10928
QIANFAN-235             
1 69864U 26155S   26264.56760960 -.01800874  00000+0 -17695+1 0  9998
2 69864  89.0093  53.3251 0034112  16.2961 343.9296 13.82903989 11032
QIANFAN-236             
1 69865U 26155T   26264.52769175 -.01815055  00000+0 -29255+1 0  9994
2 69865  89.0089  53.6073 0038070  11.0698 349.1283 13.52511498 10872
QIANFAN-237             
1 69866U 26155U   26263.85712530 -.02064954  00000+0 -33316+1 0  9991
2 69866  89.0088  53.6386 0037256  14.0484 346.1695 13.52319035 10798
QIANFAN-238             
1 69867U 26155V   26264.52686861 -.01812959  00000+0 -30192+1 0  9998
2 69867  89.0090  53.5882 0026921   2.0936 358.0323 13.50567372 10885
