ORBCOMM FM06            
1 25118U 97084G   26280.29889405  .00000758  00000+0  24216-3 0  9995
2 25118  45.0133 232.8987 0001676 321.4381 191.5105 14.47784681510633
ORBCOMM FM04            
1 25159U 98007C   26280.28503064  .00000538  00000+0  22924-3 0  9999
2 25159 107.9620  40.1330 0039062 132.5608 227.8840 14.35893180492687
ORBCOMM FM19            
1 25415U 98046C   26280.50224270  .00000535  00000+0  21467-3 0  9999
2 25415  44.9936  69.6058 0004755 158.8439 249.4798 14.39666046472963
ORBCOMM FM20            
1 25416U 98046D   26280.41084008  .00000428  00000+0  18623-3 0  9994
2 25416  44.9935  79.2195 0001851 157.5384 202.5545 14.38194544472947
ORBCOMM FM27            
1 25481U 98053G   26279.38929442  .00000521  00000+0  21197-3 0  9992
2 25481  45.0045 167.1044 0001589  31.2675 328.8268 14.39306269466253
ORBCOMM FM32            
1 25982U 99065C   26280.27490088  .00000432  00000+0  19083-3 0  9993
2 25982  45.0167   2.6256 0007948 249.8502 110.1491 14.37264219403216
ORBCOMM FM109           
1 40086U 14040A   26281.03065164  .00000222  00000+0  83172-4 0  9991
2 40086  47.0028 277.9325 0001682 338.8526  21.2291 14.58935382650824
ORBCOMM FM110           
1 41182U 15081D   26281.16888306  .00000336  00000+0  10716-3 0  9999
2 41182  47.0011 187.1739 0003085 245.7933 114.2630 14.58986607574126
ORBCOMM FM118           
1 41183U 15081E   26281.13688135  .00000337  00000+0  10759-3 0  9993
2 41183  47.0034 187.7025 0003287 200.3413 159.7343 14.58834433574225
ORBCOMM FM112           
1 41184U 15081F   26280.45427143  .00000190  00000+0  76356-4 0  9991
2 41184  46.9975  99.3240 0002541 357.5196   2.5677 14.58976883575345
ORBCOMM FM113           
1 41185U 15081G   26280.70822507  .00000146  00000+0  66965-4 0  9999
2 41185  46.9996  98.5532 0001426 350.0603  10.0254 14.58947702575361
ORBCOMM FM108           
1 41187U 15081J   26281.21572297  .00000296  00000+0  98564-4 0  9992
2 41187  47.0061   7.7410 0002154 331.0841  28.9925 14.58997855576589
ORBCOMM FM117           
1 41188U 15081K   26280.83996113  .00000315  00000+0  10255-3 0  9999
2 41188  47.0028   8.1279 0002468 340.2111  19.8679 14.58980268576575
ORBCOMM FM116           
1 41189U 15081L   26280.54644238  .00000150  00000+0  67890-4 0  9991
2 41189  47.0009  99.3147 0001789 221.0222 139.0530 14.58979025575349
