KUIPER-00008            
1 63724U 25088A   26276.18768524  .00000014  00000+0  30861-4 0  9995
2 63724  51.9009 250.4519 0000586  62.7291 297.3731 14.79929520 78779
KUIPER-00009            
1 63725U 25088B   26275.98811608  .00002498  00000+0  17808-3 0  9998
2 63725  51.9022 256.1847 0000961  25.7139 334.3884 15.08159067 78673
KUIPER-00010            
1 63726U 25088C   26276.29438622  .00000761  00000+0  12876-3 0  9996
2 63726  51.9029 245.0930 0000772  55.6078 304.4957 14.79933876 78477
KUIPER-00011            
1 63727U 25088D   26275.98242231 -.00000835  00000+0 -80502-4 0  9997
2 63727  51.9004 254.0136 0000806  53.1792 306.9245 14.79927972 78458
KUIPER-00012            
1 63728U 25088E   26276.16741911 -.00000979  00000+0 -99435-4 0  9992
2 63728  51.9018 238.1371 0000950  74.5765 285.5302 14.79925450 78641
KUIPER-00013            
1 63729U 25088F   26276.03106296  .00001157  00000+0  18085-3 0  9998
2 63729  51.9016 271.2580 0000898  96.5576 263.5488 14.79914842 78278
KUIPER-00014            
1 63730U 25088G   26275.99728426  .00000655  00000+0  11497-3 0  9991
2 63730  51.9026 271.3536 0000671  38.7150 321.3860 14.79934683 78089
KUIPER-00015            
1 63731U 25088H   26276.29040313  .00000438  00000+0  86510-4 0  9996
2 63731  51.8997 280.0993 0000705  53.3793 306.7235 14.79922846 78445
KUIPER-00016            
1 63732U 25088J   26276.26472824  .00001618  00000+0  24112-3 0  9990
2 63732  51.9008 272.6738 0000599  39.3117 320.7889 14.79933914 78088
KUIPER-00018            
1 63733U 25088K   26276.24174796 -.00001039  00000+0 -10727-3 0  9992
2 63733  51.9044 262.8272 0000673  59.0068 301.0960 14.79927219 78229
KUIPER-00019            
1 63734U 25088L   26276.26834735 -.00002200  00000+0 -25966-3 0  9993
2 63734  51.9005 261.4496 0000846  18.4544 341.6449 14.79928316 78243
KUIPER-00020            
1 63735U 25088M   26276.23905773  .00000514  00000+0  96443-4 0  9995
2 63735  51.9020 265.3301 0000639  52.0993 308.0027 14.79929725 78391
KUIPER-00021            
1 63736U 25088N   26276.27279425  .00000323  00000+0  71331-4 0  9995
2 63736  51.9013 265.1294 0000496  54.6077 305.4932 14.79933352 78235
KUIPER-00023            
1 63737U 25088P   26276.23634183  .00000471  00000+0  90829-4 0  9995
2 63737  51.9011 267.7808 0000630  56.2352 303.8671 14.79930579 78495
KUIPER-00024            
1 63738U 25088Q   26276.24984417  .00000601  00000+0  10783-3 0  9990
2 63738  51.9050 255.3395 0000693  51.6193 308.4831 14.79927325 78791
KUIPER-00025            
1 63739U 25088R   26276.27551716  .00000759  00000+0  12863-3 0  9991
2 63739  51.9046 262.7075 0000608  53.7431 306.3587 14.79928640 78558
KUIPER-00027            
1 63740U 25088S   26276.24714439  .00000874  00000+0  14363-3 0  9998
2 63740  51.9022 257.7878 0000591  70.7979 289.3047 14.79923331 78357
KUIPER-00028            
1 63741U 25088T   26276.21605616  .00000459  00000+0  89160-4 0  9999
2 63741  51.8995 255.3629 0000634  33.6704 326.4299 14.79935830 78793
KUIPER-00029            
1 63742U 25088U   26275.98948245  .00000737  00000+0  12568-3 0  9997
2 63742  51.9004 255.0644 0000869  27.9865 332.1144 14.79933235 78301
KUIPER-00030            
1 63743U 25088V   26276.29847381  .00000498  00000+0  94310-4 0  9992
2 63743  51.9015 272.5203 0000630  43.5078 316.5934 14.79937108 78378
KUIPER-00031            
1 63744U 25088W   26275.94325375 -.00000491  00000+0 -35384-4 0  9999
2 63744  51.9009 259.1127 0000747  44.1888 315.9134 14.79929076 78249
KUIPER-00032            
1 63745U 25088X   26276.22834047  .00009030  00000+0  21133-3 0  9995
2 63745  51.8665  96.1481 0004968 136.5605 223.5777 15.42891717 81535
KUIPER-00033            
1 63746U 25088Y   26276.31607381  .00001570  00000+0  23485-3 0  9998
2 63746  51.9020 287.4635 0000585  33.2875 326.8124 14.79936405 78364
KUIPER-00034            
1 63747U 25088Z   26275.68121820 -.00000069  00000+0  19938-4 0  9999
2 63747  51.9021 252.8071 0000611  59.7975 300.3048 14.79931678 78471
KUIPER-00035            
1 63748U 25088AA  26276.26202559 -.00000772  00000+0 -72224-4 0  9993
2 63748  51.9001 275.2017 0000602  52.7278 307.3739 14.79926789 78266
KUIPER-00037            
1 63749U 25088AB  26276.25494145  .00000504  00000+0  95160-4 0  9992
2 63749  51.9009 274.0950 0000573  50.1310 309.9703 14.79935353 79069
KUIPER-00038            
1 63750U 25088AC  26276.24444362 -.00000430  00000+0 -27435-4 0  9999
2 63750  51.9026 260.3169 0000733  80.4890 279.6155 14.79923951 78252
KUIPER-00039            
1 64500U 25134A   26275.60924510  .00001114  00000+0  17514-3 0  9996
2 64500  51.9042  38.1208 0000369 124.8543 235.2454 14.79927026 70712
KUIPER-00040            
1 64501U 25134B   26276.10493333  .00001848  00000+0  27132-3 0  9998
2 64501  51.9005  45.9829 0000743 144.4908 215.6104 14.79939316 70647
KUIPER-00041            
1 64502U 25134C   26276.06845755  .00001032  00000+0  16436-3 0  9993
2 64502  51.9013  48.5381 0000330 130.0233 230.0758 14.79936824 70606
KUIPER-00042            
1 64503U 25134D   26275.63491106  .00001740  00000+0  25721-3 0  9996
2 64503  51.9012  45.4326 0000406 119.2871 240.8132 14.79937101 70617
KUIPER-00043            
1 64504U 25134E   26276.04817770  .00001800  00000+0  26501-3 0  9996
2 64504  51.9057  36.1244 0000347 126.8171 233.2823 14.79938913 70787
KUIPER-00044            
1 64505U 25134F   26276.10222555  .00001060  00000+0  16807-3 0  9991
2 64505  51.9016  48.3694 0000573 134.7751 225.3258 14.79930887 70618
KUIPER-00046            
1 64506U 25134G   26276.07115006  .00000482  00000+0  92258-4 0  9992
2 64506  51.8995  45.9770 0000518 104.2779 255.8241 14.79929144 70640
KUIPER-00047            
1 64507U 25134H   26276.26964128  .00001935  00000+0  28271-3 0  9998
2 64507  51.9024  17.6310 0000268 115.5638 244.5352 14.79933153 71051
KUIPER-00048            
1 64508U 25134J   26276.30340935  .00000385  00000+0  79550-4 0  9993
2 64508  51.8996  17.4921 0000194 104.3557 255.7427 14.79930484 71061
KUIPER-00049            
1 64509U 25134K   26276.05356304  .00001707  00000+0  25291-3 0  9994
2 64509  51.9022  31.0723 0000480 117.6267 242.4744 14.79928580 70853
KUIPER-00050            
1 64510U 25134L   26276.27498667  .00000608  00000+0  10873-3 0  9998
2 64510  51.9036  12.6137 0000251  77.8996 282.1995 14.79911470 71137
KUIPER-00051            
1 64511U 25134M   26276.02957113 -.00000792  00000+0 -74859-4 0  9999
2 64511  51.9037  29.8770 0000370 128.6837 231.4158 14.79929048 70860
KUIPER-00053            
1 64513U 25134P   26276.29126990  .00001534  00000+0  22128-3 0  9995
2 64513  51.9041  22.9662 0002116 170.1693 189.9312 14.81669161 70985
KUIPER-00054            
1 64514U 25134Q   26276.30071090  .00000499  00000+0  94455-4 0  9990
2 64514  51.9020  19.9800 0000398 134.1317 225.9678 14.79931067 71022
KUIPER-00055            
1 64515U 25134R   26276.18310664 -.00002698  00000+0 -32504-3 0  9991
2 64515  51.9069 333.1591 0000765  79.5132 280.5916 14.79925519 71677
KUIPER-00056            
1 64516U 25134S   26275.58626125  .00001716  00000+0  25401-3 0  9993
2 64516  51.9051  28.2621 0000254 148.4937 211.6041 14.79940245 70853
KUIPER-00057            
1 64517U 25134T   26276.11838412  .00001846  00000+0  27106-3 0  9996
2 64517  51.9012  33.3176 0000344 128.3148 231.7846 14.79944440 70828
KUIPER-00058            
1 64518U 25134U   26276.29261805  .00001893  00000+0  27726-3 0  9992
2 64518  51.9032  27.5280 0000320 121.0828 239.0166 14.79937034 70929
KUIPER-00059            
1 64519U 25134V   26276.02789716  .00001378  00000+0  20964-3 0  9995
2 64519  51.9021  23.7335 0000263  95.6977 264.4015 14.79935590 70957
KUIPER-00060            
1 64520U 25134W   26276.26426049  .00001956  00000+0  28548-3 0  9998
2 64520  51.9051  22.7708 0000315 109.3802 250.7195 14.79937566 70977
KUIPER-00061            
1 64521U 25134X   26276.01980961  .00000491  00000+0  93478-4 0  9998
2 64521  51.9046  31.2897 0000558 120.6040 239.4978 14.79925547 70839
KUIPER-00062            
1 64522U 25134Y   26276.01710315  .00000738  00000+0  12584-3 0  9995
2 64522  51.8977  33.7402 0000491 116.4788 243.6225 14.79930674 70816
KUIPER-00063            
1 64523U 25134Z   26276.07656383  .00000970  00000+0  15630-3 0  9999
2 64523  51.9045  41.0837 0000689 103.9401 256.1638 14.79929018 70716
KUIPER-00064            
1 64524U 25134AA  26276.07925051  .00001905  00000+0  27889-3 0  9999
2 64524  51.9058  38.4994 0000531 139.8207 220.2795 14.79931136 70757
KUIPER-00065            
1 64525U 25134AB  26276.07387049  .00001078  00000+0  17032-3 0  9999
2 64525  51.9044  43.7000 0000406 110.2521 249.8485 14.79936082 70661
KUIPER-00066            
1 64526U 25134AC  26276.17502610  .00000379  00000+0  78666-4 0  9998
2 64526  51.9042 340.5184 0000353  79.4289 280.6713 14.79929158 71573
KUIPER-00069            
1 64816U 25151A   26276.16577435  .00001014  00000+0  16204-3 0  9991
2 64816  51.9025  83.1956 0000684 116.4477 243.6556 14.79928844 67481
KUIPER-00070            
1 64817U 25151B   26276.24010412  .00001496  00000+0  22528-3 0  9998
2 64817  51.8991 107.7637 0001115 115.5623 244.5455 14.79931362 67156
KUIPER-00071            
1 64818U 25151C   26275.90515218  .00001545  00000+0  23169-3 0  9992
2 64818  51.9014 106.7930 0000680 110.6273 249.4762 14.79929249 65954
KUIPER-00072            
1 64819U 25151D   26276.16307088  .00001540  00000+0  23103-3 0  9999
2 64819  51.8977  85.5704 0000824 112.0407 248.0643 14.79934780 66275
KUIPER-00073            
1 64820U 25151E   26275.80386023  .00001423  00000+0  21560-3 0  9992
2 64820  51.9000 107.2166 0001175 110.3793 249.7296 14.79934086 67124
KUIPER-00075            
1 64822U 25151G   26276.03426182  .00021344  00000+0  55396-3 0  9999
2 64822  51.8656 291.2261 0002534 306.0456  54.0297 15.38925724 68407
KUIPER-00076            
1 64823U 25151H   26276.21981659  .00000052  00000+0  35803-4 0  9990
2 64823  51.9041  95.4026 0000812 121.5781 238.5260 14.79931857 66144
KUIPER-00077            
1 64824U 25151J   26276.21443474  .00001522  00000+0  22860-3 0  9990
2 64824  51.9005 100.4499 0001061 116.1073 243.9999 14.79933889 66075
KUIPER-00078            
1 64825U 25151K   26276.25088617  .00001563  00000+0  23395-3 0  9998
2 64825  51.9002  97.7579 0000970 117.6543 242.4518 14.79933154 66117
KUIPER-00079            
1 64826U 25151L   26276.21173082  .00001502  00000+0  22600-3 0  9997
2 64826  51.8994 102.8844 0001040 110.0485 250.0589 14.79933657 67236
KUIPER-00080            
1 64827U 25151M   26275.97537096  .00001565  00000+0  23429-3 0  9998
2 64827  51.9013 103.9428 0000754 112.1216 247.9827 14.79933522 66001
KUIPER-00082            
1 64828U 25151N   26276.22521806  .00001538  00000+0  23077-3 0  9999
2 64828  51.9030  90.4022 0000870 119.2191 240.8859 14.79929329 66210
KUIPER-00083            
1 64829U 25151P   26276.21712753  .00000431  00000+0  85579-4 0  9999
2 64829  51.8979  97.9186 0001241 114.2625 245.8467 14.79928156 67291
KUIPER-00084            
1 64830U 25151Q   26276.27386676  .00001537  00000+0  23053-3 0  9994
2 64830  51.9005 107.6548 0000732 110.9340 249.1701 14.79931052 65976
KUIPER-00085            
1 64831U 25151R   26276.19145347  .00000794  00000+0  13310-3 0  9993
2 64831  51.9034  90.6120 0000779 117.8037 242.3005 14.79936265 66206
KUIPER-00086            
1 64832U 25151S   26276.24819422  .00000762  00000+0  12900-3 0  9991
2 64832  51.9001 100.2904 0000989 112.6363 247.4704 14.79929555 66078
KUIPER-00087            
1 64833U 25151T   26276.19954304  .00001605  00000+0  23953-3 0  9992
2 64833  51.9002  82.9586 0000671 115.8351 244.2681 14.79933576 66305
KUIPER-00089            
1 64834U 25151U   26276.19414210  .00001548  00000+0  23203-3 0  9994
2 64834  51.9021  88.0108 0000670 126.5599 233.5426 14.79934429 66245
KUIPER-00090            
1 64835U 25151V   26276.20223148  .00001268  00000+0  19533-3 0  9995
2 64835  51.8994  80.4657 0000748 134.5608 225.5416 14.79936588 66344
KUIPER-00091            
1 64836U 25151W   26276.19684227 -.00000006  00000+0  28288-4 0  9991
2 64836  51.9012  85.5227 0000930 120.0120 240.0935 14.79930760 66274
KUIPER-00092            
1 64837U 25151X   26276.18876019  .00001563  00000+0  23393-3 0  9992
2 64837  51.9001  93.0440 0000761 119.5862 240.5176 14.79935636 67384
KUIPER-00093            
1 64838U 25151Y   26276.18605721  .00001457  00000+0  22007-3 0  9996
2 64838  51.9001  95.5253 0000802 118.8668 241.2375 14.79934793 66130
KUIPER-00094            
1 64839U 25151Z   26276.09954444  .00001821  00000+0  26785-3 0  9998
2 64839  51.9056  51.0284 0000761 138.8064 221.2956 14.79930080 66754
KUIPER-00081            
1 65132U 25171A   26275.83597501  .00001469  00000+0  22163-3 0  9999
2 65132  51.9013 312.0725 0000407  51.2225 308.8774 14.79933971 63713
KUIPER-00088            
1 65133U 25171B   26275.88462741  .00001566  00000+0  23434-3 0  9992
2 65133  51.9023 329.3569 0000306  60.0116 300.0876 14.79928216 63473
KUIPER-00095            
1 65134U 25171C   26276.10878592  .00001613  00000+0  24054-3 0  9996
2 65134  51.8997 308.3997 0000490  87.8756 272.2263 14.79926664 63785
KUIPER-00096            
1 65135U 25171D   26275.85894961  .00000022  00000+0  31903-4 0  9991
2 65135  51.9014 321.9655 0000406  31.0295 329.0691 14.79930186 63572
KUIPER-00097            
1 65136U 25171E   26276.12639203  .00001707  00000+0  25288-3 0  9998
2 65136  51.9029 323.4541 0000368  74.0018 286.0985 14.79936057 63567
KUIPER-00098            
1 65137U 25171F   26275.85356170  .00001425  00000+0  21590-3 0  9996
2 65137  51.9024 327.0187 0000546  73.0332 287.0690 14.79927658 62846
KUIPER-00099            
1 65138U 25171G   26276.10070475  .00001636  00000+0  24355-3 0  9993
2 65138  51.9038 315.9429 0000292  41.8837 318.2148 14.79937740 63678
KUIPER-00100            
1 65139U 25171H   26276.13716811  .00001545  00000+0  23157-3 0  9996
2 65139  51.9032 313.2452 0000357  61.7647 298.3351 14.79933179 63713
KUIPER-00102            
1 65140U 25171J   26276.13446117  .00001606  00000+0  23959-3 0  9995
2 65140  51.9005 315.7214 0000272  23.8853 336.2122 14.79934271 63679
KUIPER-00103            
1 65141U 25171K   26276.14935908  .00001514  00000+0  22760-3 0  9995
2 65141  51.9009 333.1594 0000279  54.4590 305.6398 14.79926409 63437
KUIPER-00104            
1 65142U 25171L   26275.82519233  .00001494  00000+0  22486-3 0  9991
2 65142  51.9030 322.1146 0000350  56.1644 303.9352 14.79933586 63561
KUIPER-00105            
1 65143U 25171M   26276.12100021  .00001530  00000+0  22964-3 0  9999
2 65143  51.9022 328.3975 0000332  66.0961 294.0037 14.79927652 63504
KUIPER-00106            
1 65144U 25171N   26275.83159735  .00001514  00000+0  22756-3 0  9994
2 65144  51.9028 308.4471 0000426  54.2224 305.8777 14.79934066 63763
KUIPER-00107            
1 65145U 25171P   26276.07233950  .00001507  00000+0  22659-3 0  9998
2 65145  51.9015 311.0546 0000471  65.8204 294.2807 14.79932877 63740
KUIPER-00108            
1 65146U 25171Q   26276.16015603  .00000065  00000+0  37580-4 0  9990
2 65146  51.9050 323.2165 0000342  64.8679 295.2318 14.79930365 63584
KUIPER-00109            
1 65147U 25171R   26275.86165436  .00000076  00000+0  38968-4 0  9990
2 65147  51.9041 319.4794 0000427  39.6193 320.4801 14.79929601 63607
KUIPER-00110            
1 65148U 25171S   26276.15205960  .00000146  00000+0  48173-4 0  9998
2 65148  51.9015 330.7359 0000300  67.1353 292.9641 14.79930591 63465
KUIPER-00111            
1 65149U 25171T   26276.18040203 -.00002300  00000+0 -27273-3 0  9992
2 65149  51.9003 335.4672 0000256  35.4970 324.6009 14.79938884 63404
KUIPER-00112            
1 65150U 25171U   26275.82788582  .00001469  00000+0  22159-3 0  9994
2 65150  51.9023 319.6706 0000316  60.3285 299.7708 14.79935804 63590
KUIPER-00114            
1 65151U 25171V   26276.17772462  .00001568  00000+0  23455-3 0  9994
2 65151  51.9018 338.0785 0000271  41.9512 318.1471 14.79937083 63364
KUIPER-00115            
1 65152U 25171W   26276.18582566 -.00000036  00000+0  24295-4 0  9994
2 65152  51.9045 330.5538 0000328  65.6174 294.4823 14.79929698 63470
KUIPER-00116            
1 65153U 25171X   26275.87654964 -.00000023  00000+0  25982-4 0  9992
2 65153  51.9021 336.9523 0000335  81.9599 278.1401 14.79929817 63350
KUIPER-00118            
1 65154U 25171Y   26276.21148325  .00001546  00000+0  23174-3 0  9991
2 65154  51.9022 337.9181 0000322  75.2432 284.8567 14.79929895 63376
KUIPER-00119            
1 65155U 25171Z   26276.15746397  .00001616  00000+0  24091-3 0  9995
2 65155  51.9037 325.7626 0000380  77.3642 282.7363 14.79926106 63533
KUIPER-00120            
1 65762U 25217A   26276.12415085  .00000300  00000+0  68326-4 0  9993
2 65762  51.8986 215.7701 0000928  74.5195 285.5869 14.79928292 55453
KUIPER-00132            
1 65763U 25217B   26276.17551388  .00018919  00000+0  47997-3 0  9991
2 65763  51.8516  73.9151 0005439 347.9569  12.1288 15.39697904 57428
KUIPER-00133            
1 65764U 25217C   26276.22546162  .00001922  00000+0  28100-3 0  9993
2 65764  51.9032 215.4674 0000888  80.2803 279.8259 14.79935755 55472
KUIPER-00139            
1 65765U 25217D   26276.12543923  .00001831  00000+0  26911-3 0  9992
2 65765  51.8993 183.3268 0001197  84.2623 275.8476 14.79938766 55919
KUIPER-00142            
1 65766U 25217E   26276.07550481  .00000405  00000+0  82159-4 0  9997
2 65766  51.9007 198.5174 0000985  83.0175 277.0899 14.79929984 55694
KUIPER-00145            
1 65767U 25217F   26276.20786120  .00001904  00000+0  27870-3 0  9997
2 65767  51.9010 200.4577 0000957  73.0174 287.0893 14.79941085 55675
KUIPER-00147            
1 65768U 25217G   26276.17136448  .00001903  00000+0  27867-3 0  9991
2 65768  51.8989 203.0897 0001145  73.3714 286.7374 14.79912256 55631
KUIPER-00148            
1 65769U 25217H   26276.12274582  .00001888  00000+0  27657-3 0  9998
2 65769  51.9060 185.8648 0000833  98.2487 261.8570 14.79939359 55871
KUIPER-00150            
1 65770U 25217J   26276.22814909  .00001981  00000+0  28874-3 0  9990
2 65770  51.9011 212.8908 0000851  84.0054 276.1006 14.79936176 55509
KUIPER-00151            
1 65771U 25217K   26276.23622252 -.00001820  00000+0 -20981-3 0  9995
2 65771  51.9021 205.3542 0000737  89.4222 270.6825 14.79934902 55616
KUIPER-00152            
1 65772U 25217L   26276.14842445  .00001959  00000+0  28595-3 0  9994
2 65772  51.9019 193.2206 0001065  79.6558 280.4524 14.79933720 55773
KUIPER-00153            
1 65773U 25217M   26276.15383077  .00001807  00000+0  26597-3 0  9999
2 65773  51.9029 188.2876 0000992  95.9037 264.2038 14.79927144 55844
KUIPER-00155            
1 65774U 25217N   26276.11595777  .00000155  00000+0  49367-4 0  9994
2 65774  51.9023 160.9186 0000996  97.2119 262.8957 14.79928508 56222
KUIPER-00156            
1 65775U 25217P   26276.18759721  .00000577  00000+0  10477-3 0  9990
2 65775  51.9029 188.1224 0001018  87.9969 272.1110 14.79930470 55842
KUIPER-00165            
1 65778U 25217S   26276.04173923  .00001801  00000+0  26519-3 0  9997
2 65778  51.9015 198.6953 0000717  99.3057 260.7986 14.79927653 55680
KUIPER-00166            
1 65779U 25217T   26276.15652355  .00000009  00000+0  30223-4 0  9998
2 65779  51.9028 185.7527 0000879  95.1517 264.9545 14.79927590 55871
KUIPER-00167            
1 65780U 25217U   26276.23352180  .00001939  00000+0  28326-3 0  9995
2 65780  51.8967 207.7209 0001076  70.9149 289.1930 14.79928639 55577
KUIPER-00168            
1 65781U 25217V   26276.18488631  .00001471  00000+0  22192-3 0  9997
2 65781  51.9021 190.5673 0000867  86.6504 273.4558 14.79925796 55810
KUIPER-00169            
1 65782U 25217W   26276.17949311  .00001903  00000+0  27857-3 0  9997
2 65782  51.9029 195.6053 0000847  92.1864 267.9195 14.79935587 55742
KUIPER-00170            
1 65783U 25217X   26276.17409031  .00001912  00000+0  27967-3 0  9990
2 65783  51.8994 200.5688 0000944  79.4024 280.7045 14.79938872 55676
KUIPER-00172            
1 65785U 25217Z   26276.15921138  .00000637  00000+0  11254-3 0  9992
2 65785  51.8995 183.1683 0001290  77.3650 282.7456 14.79932095 55913
KUIPER-00173            
1 65786U 25217AA  26276.14572060  .00002116  00000+0  30646-3 0  9998
2 65786  51.9010 195.7448 0001048  72.7560 287.3517 14.79937470 55732
KUIPER-00174            
1 65787U 25217AB  26276.15112088  .00001675  00000+0  24863-3 0  9993
2 65787  51.9015 190.7882 0001036  96.9617 263.1464 14.79934020 55802
KUIPER-00176            
1 65788U 25217AC  26276.06740968 -.00000082  00000+0  18229-4 0  9990
2 65788  51.8992 206.0699 0001151  79.2382 280.8710 14.79929825 55586
KUIPER-00101            
1 65947U 25228A   26276.14698066  .00001664  00000+0  24720-3 0  9997
2 65947  51.8980 163.1613 0001183  78.7137 281.3958 14.79932796 53956
KUIPER-00113            
1 65948U 25228B   26276.05110877  .00000523  00000+0  97580-4 0  9995
2 65948  51.8978 158.6076 0001152  99.3703 260.7390 14.79926835 54005
KUIPER-00117            
1 65949U 25228C   26276.08218256 -.00000041  00000+0  23702-4 0  9990
2 65949  51.8996 160.9683 0001113  91.0714 269.0376 14.79926959 53972
KUIPER-00121            
1 65950U 25228D   26276.05380828  .00001581  00000+0  23632-3 0  9994
2 65950  51.9005 156.1189 0001081  95.9704 264.1382 14.79933174 54049
KUIPER-00122            
1 65951U 25228E   26276.11055225  .00000036  00000+0  33729-4 0  9995
2 65951  51.8999 165.8362 0001061  94.2952 265.8131 14.79929365 53918
KUIPER-00123            
1 65952U 25228F   26276.07678982  .00001654  00000+0  24591-3 0  9995
2 65952  51.8990 165.9919 0001055  92.6906 267.4177 14.79931524 53900
KUIPER-00124            
1 65953U 25228G   26276.08487507 -.00000032  00000+0  24794-4 0  9994
2 65953  51.9000 158.4469 0001270  89.1137 270.9971 14.79928168 54011
KUIPER-00125            
1 65954U 25228H   26276.03352843  .00001546  00000+0  23180-3 0  9991
2 65954  51.9007 143.7302 0001166 105.2888 254.8204 14.79921554 54213
KUIPER-00126            
1 65955U 25228J   26276.04572263 -.00000073  00000+0  19409-4 0  9998
2 65955  51.8988 163.6540 0000927  96.3626 263.7442 14.79928742 53937
KUIPER-00127            
1 65956U 25228K   26276.10445423  .00001622  00000+0  24175-3 0  9998
2 65956  51.9009 155.8782 0001110  92.5130 267.5959 14.79929343 54054
KUIPER-00128            
1 65957U 25228L   26276.08758564  .00000117  00000+0  44318-4 0  9999
2 65957  51.9019 156.0193 0001009  98.2839 261.8238 14.79928992 54046
KUIPER-00129            
1 65958U 25228M   26275.92414879  .00001338  00000+0  20455-3 0  9991
2 65958  51.9017 151.7196 0000989  93.7611 266.3464 14.79925185 54091
KUIPER-00130            
1 65959U 25228N   26275.95521566  .00001437  00000+0  21751-3 0  9997
2 65959  51.9027 154.1333 0000956 100.6135 259.4936 14.79937638 44357
KUIPER-00134            
1 65960U 25228P   26275.68177308  .00018149  00000+0  48623-3 0  9995
2 65960  51.8697  35.6765 0004692 321.0325  39.0323 15.38052676 55680
KUIPER-00135            
1 65961U 25228Q   26276.05652300 -.00000534  00000+0 -41096-4 0  9997
2 65961  51.9009 153.7356 0001049  97.4423 262.6659 14.79927191 54078
KUIPER-00136            
1 65962U 25228R   26276.09296762  .00000278  00000+0  65456-4 0  9997
2 65962  51.8990 151.0177 0001260  92.4256 267.6850 14.79923805 54114
KUIPER-00137            
1 65963U 25228S   26276.09567637  .00001595  00000+0  23818-3 0  9998
2 65963  51.9038 148.5202 0001211  92.1303 267.9798 14.79928790 54151
KUIPER-00138            
1 65964U 25228T   26275.92953490  .00001358  00000+0  20717-3 0  9998
2 65964  51.8983 146.6458 0001055 100.0630 260.0451 14.79935114 54169
KUIPER-00140            
1 65965U 25228U   26276.06191197  .00000060  00000+0  36863-4 0  9992
2 65965  51.8987 148.6540 0001313 103.2605 256.8504 14.79928411 54144
KUIPER-00141            
1 65966U 25228V   26275.93224988  .00001397  00000+0  21220-3 0  9997
2 65966  51.9028 144.3107 0000707 111.0410 249.0628 14.79929812 54193
KUIPER-00146            
1 65967U 25228W   26276.03080713  .00001515  00000+0  22765-3 0  9993
2 65967  51.9028 146.3873 0001254  98.4926 261.6179 14.79949996 54178
KUIPER-00149            
1 65968U 25228X   26276.00246113  .00001534  00000+0  23023-3 0  9998
2 65968  51.9004 141.3826 0001011 103.8543 256.2532 14.79928537 54242
KUIPER-00154            
1 65969U 25228Y   26276.03892255  .00001482  00000+0  22340-3 0  9999
2 65969  51.8998 138.7035 0001024 102.1531 257.9546 14.79928455 54285
KUIPER-00157            
1 65970U 25228Z   26275.88997240 -.00013345  00000+0 -19032-2 0  9999
2 65970  51.9014 141.9048 0000595  56.7995 303.3023 14.75789515 54225
KUIPER-00144            
1 67133U 25301A   26276.22275559  .00001911  00000+0  27958-3 0  9996
2 67133  51.9022 217.9169 0000980  66.6162 293.4903 14.79937311 44609
KUIPER-00164            
1 67134U 25301B   26276.27680591  .00009924  00000+0  13301-2 0  9996
2 67134  51.9022 230.1982 0001019 102.9517 257.1559 14.79892652 44615
KUIPER-00175            
1 67135U 25301C   26276.26190917  .00001940  00000+0  28340-3 0  9994
2 67135  51.9010 212.6928 0000939  59.3193 300.7862 14.79935746 44752
KUIPER-00179            
1 67136U 25301D   26276.27949754  .00001945  00000+0  28408-3 0  9997
2 67136  51.8982 227.6108 0000867  70.5713 289.5343 14.79930325 44654
KUIPER-00181            
1 67137U 25301E   26276.19849040  .00001838  00000+0  27001-3 0  9995
2 67137  51.9039 240.5416 0000900  50.5895 309.5147 14.79936331 44447
KUIPER-00183            
1 67138U 25301F   26276.19708495  .00001891  00000+0  27702-3 0  9991
2 67138  51.9026 210.5520 0000967  72.7377 287.3691 14.79929243 44879
KUIPER-00184            
1 67139U 25301G   26276.25112672  .00001906  00000+0  27894-3 0  9994
2 67139  51.8994 222.7482 0000804  71.4373 288.6677 14.79929936 44818
KUIPER-00186            
1 67140U 25301H   26276.16471908  .00001721  00000+0  25466-3 0  9994
2 67140  51.9027 240.6985 0000799  69.7861 290.3188 14.79929658 44289
KUIPER-00187            
1 67141U 25301J   26275.62176807  .00000936  00000+0  15184-3 0  9998
2 67141  51.9029 245.6285 0000849  82.1601 277.9458 14.79927610 44161
KUIPER-00188            
1 67142U 25301K   26276.23086139  .00001995  00000+0  29064-3 0  9993
2 67142  51.9030 210.5195 0001046  70.8374 289.2702 14.79936962 44704
KUIPER-00191            
1 67143U 25301L   26276.27141679  .00001889  00000+0  27679-3 0  9991
2 67143  51.9010 235.2265 0000815  60.9486 299.1558 14.79930407 44394
KUIPER-00196            
1 67144U 25301M   26276.04712382  .00001648  00000+0  24515-3 0  9991
2 67144  51.8985 193.6663 0000946  85.0556 275.0514 14.79928445 44928
KUIPER-00204            
1 67145U 25301N   26276.19976621 -.00000068  00000+0  20019-4 0  9998
2 67145  51.9000 208.0320 0000417  76.5212 283.5796 14.79927425 44851
KUIPER-00210            
1 67146U 25301P   26276.16983159 -.00005328  00000+0 -67045-3 0  9994
2 67146  51.9026 235.6176 0000588 351.8617   8.2336 14.79932815 44527
KUIPER-00221            
1 67147U 25301Q   26276.19579253  .00000369  00000+0  77417-4 0  9997
2 67147  51.9028 243.0459 0000734  87.8206 272.2841 14.79928148 44258
KUIPER-00232            
1 67148U 25301R   26276.24575134  .00008618  00000+0  11591-2 0  9992
2 67148  51.8992 227.8301 0001032  84.5504 275.5576 14.79893676 44462
KUIPER-00241            
1 67149U 25301S   26276.26871075  .00001313  00000+0  20113-3 0  9994
2 67149  51.9038 237.7564 0000967  67.8386 292.2679 14.79941794 44661
KUIPER-00245            
1 67150U 25301T   26276.19310448  .00001701  00000+0  25215-3 0  9999
2 67150  51.9030 245.6006 0000667  71.4945 288.6090 14.79929153 44215
KUIPER-00246            
1 67151U 25301U   26276.24303527  .00002154  00000+0  31154-3 0  9998
2 67151  51.9016 230.3113 0000783  63.2701 296.8341 14.79931179 44455
KUIPER-00247            
1 67152U 25301V   26276.25382031  .00000257  00000+0  62773-4 0  9991
2 67152  51.8977 220.2040 0000885  69.3745 290.7312 14.79929364 44573
KUIPER-00248            
1 67153U 25301W   26276.07012054  .00001805  00000+0  26574-3 0  9995
2 67153  51.8998 203.6641 0000889  81.1321 278.9742 14.79933891 44952
KUIPER-00249            
1 67154U 25301X   26276.25652649  .00000519  00000+0  97148-4 0  9993
2 67154  51.9001 217.7753 0000993  66.6577 293.4490 14.79928080 44604
KUIPER-00250            
1 67155U 25301Y   26275.59880697  .00001852  00000+0  27190-3 0  9996
2 67155  51.8995 235.6344 0000926  66.5547 293.5512 14.79932628 44332
KUIPER-00251            
1 67156U 25301Z   26276.22006361  .00002123  00000+0  30741-3 0  9994
2 67156  51.9016 220.4666 0000942  67.4521 292.6541 14.79936305 44751
KUIPER-00252            
1 67157U 25301AA  26276.21736093  .00001936  00000+0  28293-3 0  9996
2 67157  51.9014 222.9291 0000780  80.9280 279.1770 14.79931338 44534
KUIPER-00261            
1 67158U 25301AB  26276.17281042  .00001823  00000+0  26804-3 0  9992
2 67158  51.9028 233.1937 0000660  62.2003 297.9026 14.79936930 44382
KUIPER-00265            
1 67159U 25301AC  26276.19037574  .00004809  00000+0  65889-3 0  9997
2 67159  51.9029 248.0923 0000623  66.5725 293.5303 14.79962311 44215
KUIPER-00159            
1 67764U 26030A   26275.86066412 -.00001781  00000+0 -20468-3 0  9997
2 67764  51.9030 328.2875 0001460 348.8008  11.2922 14.79938587 36532
KUIPER-00160            
1 67765U 26030B   26276.05814674  .00001516  00000+0  22780-3 0  9994
2 67765  51.8992 308.6614 0000176 116.6980 243.4000 14.79938577 36822
KUIPER-00177            
1 67766U 26030C   26276.27234900  .00000892  00000+0  14594-3 0  9997
2 67766  51.9025  15.1987 0000415 105.7682 254.3326 14.79930605 35913
KUIPER-00178            
1 67767U 26030D   26276.30611383  .00000898  00000+0  14678-3 0  9995
2 67767  51.9037  15.0285 0000469 102.0727 258.0288 14.79926562 35922
KUIPER-00180            
1 67768U 26030E   26275.56868125  .00000332  00000+0  72517-4 0  9991
2 67768  51.9023  13.2801 0000186 135.7746 224.3231 14.79934189 35885
KUIPER-00197            
1 67769U 26030F   26276.19801834  .00001840  00000+0  27034-3 0  9994
2 67769  51.9011 350.5149 0000177 100.3858 259.7124 14.79927333 36255
KUIPER-00198            
1 67770U 26030G   26276.21830022  .00001863  00000+0  27331-3 0  9995
2 67770  51.9001   2.8960 0000211 105.3424 254.7562 14.79928188 36088
KUIPER-00199            
1 67771U 26030H   26276.25002315 -.00074261  00000+0 -78664-2 0  9994
2 67771  51.8997 301.8900 0011864  88.5228 296.2114 14.88982443  5734
KUIPER-00200            
1 67772U 26030J   26276.16694998  .00001663  00000+0  24701-3 0  9997
2 67772  51.9006 348.1689 0000221  93.4501 266.6486 14.79935878 36286
KUIPER-00203            
1 67773U 26030K   26276.26695918  .00001906  00000+0  27894-3 0  9998
2 67773  51.9078  20.3099 0000366 121.7510 238.3488 14.79935222 35847
KUIPER-00205            
1 67774U 26030L   26276.23717722  .00001603  00000+0  23920-3 0  9994
2 67774  51.9026 345.3271 0000295  71.3481 288.7513 14.79927454 36332
KUIPER-00208            
1 67775U 26030M   26275.56597473  .00001821  00000+0  26781-3 0  9999
2 67775  51.9002  15.7870 0000509 153.3569 206.7420 14.79930783 35847
KUIPER-00209            
1 67776U 26030N   26276.27774823  .00000389  00000+0  80032-4 0  9993
2 67776  51.9020  10.2436 0000356 133.4076 226.6917 14.79929612 35984
KUIPER-00213            
1 67777U 26030P   26276.24667374  .00001842  00000+0  27052-3 0  9990
2 67777  51.8982   7.8325 0000285  98.0847 262.0148 14.79930530 36019
KUIPER-00214            
1 67778U 26030Q   26276.28314111  .00000046  00000+0  35066-4 0  9993
2 67778  51.9045   5.2151 0000545 112.4461 247.6559 14.79931203 36059
KUIPER-00215            
1 67779U 26030R   26275.92519355  .00000835  00000+0  13856-3 0  9999
2 67779  51.9002 354.1482 0000204  78.3686 281.7299 14.79929844 36189
KUIPER-00218            
1 67780U 26030S   26276.28041819  .00001221  00000+0  18906-3 0  9997
2 67780  51.9016   7.6163 0000245  80.3237 279.7753 14.79933869 36029
KUIPER-00220            
1 67781U 26030T   26275.90222037  .00001599  00000+0  23864-3 0  9996
2 67781  51.8969 344.3085 0000323  66.4263 293.6734 14.79933035 36312
KUIPER-00222            
1 67782U 26030U   26276.25207902  .00000403  00000+0  81849-4 0  9991
2 67782  51.9017   2.9042 0000166 104.4711 255.6270 14.79928211 36081
KUIPER-00223            
1 67783U 26030V   26276.22637209  .00001870  00000+0  27425-3 0  9994
2 67783  51.9044 355.3320 0000312  69.7560 290.3436 14.79928002 36194
KUIPER-00225            
1 67784U 26030W   26276.22100992  .00001865  00000+0  27365-3 0  9996
2 67784  51.9015   0.4975 0000301  87.8696 272.2301 14.79927446 36119
KUIPER-00226            
1 67785U 26030X   26275.93057777  .00001650  00000+0  24545-3 0  9995
2 67785  51.9013 349.1671 0000875  51.0050 309.0990 14.79928107 36250
KUIPER-00259            
1 67786U 26030Y   26275.51193177 -.00000197  00000+0  31421-5 0  9994
2 67786  51.9012   3.5359 0000219  75.2371 284.8616 14.79930407 36015
KUIPER-00260            
1 67787U 26030Z   26276.18994218  .00001656  00000+0  24616-3 0  9990
2 67787  51.9041 358.1509 0000183 117.7951 242.3030 14.79929124 36057
KUIPER-00262            
1 67788U 26030AA  26276.22368909  .00001655  00000+0  24613-3 0  9994
2 67788  51.9026 357.9177 0000113 112.1683 247.9292 14.79922399 36152
KUIPER-00266            
1 67789U 26030AB  26276.26015754  .00000063  00000+0  37255-4 0  9995
2 67789  51.9032 355.2480 0000258 104.5144 255.5847 14.79929979 36191
KUIPER-00268            
1 67790U 26030AC  26276.22908952  .00001643  00000+0  24439-3 0  9998
2 67790  51.9066 352.9339 0000094 140.4667 219.6302 14.79936545 36222
KUIPER-00270            
1 67791U 26030AD  26276.20610875  .00001718  00000+0  25427-3 0  9992
2 67791  51.9015 342.9766 0000290  74.7637 285.3357 14.79932440 36369
KUIPER-00274            
1 67792U 26030AE  26276.24937370  .00000751  00000+0  12750-3 0  9990
2 67792  51.9035   5.3062 0000347  96.7487 263.3515 14.79932697 36053
KUIPER-00275            
1 67793U 26030AF  26276.20341123  .00001524  00000+0  22892-3 0  9999
2 67793  51.9025 345.5006 0000122  80.3238 279.7738 14.79931454 36322
KUIPER-00276            
1 67794U 26030AG  26276.16425440  .00000990  00000+0  15891-3 0  9997
2 67794  51.9010 350.6503 0000381  64.8088 295.2914 14.79927237 36258
KUIPER-00279            
1 67795U 26030AH  26276.20881054  .00000011  00000+0  30500-4 0  9999
2 67795  51.9048 340.5081 0000273  64.4764 295.6227 14.79928817 36397
KUIPER-00131            
1 68573U 26072A   26275.73222347  .00001465  00000+0  22107-3 0  9998
2 68573  51.9014  80.0889 0000658 124.0501 236.0524 14.79937792 27049
KUIPER-00189            
1 68574U 26072B   26276.16846256  .00000652  00000+0  11456-3 0  9990
2 68574  51.9003  80.6324 0000568 102.2839 257.8187 14.79930446 27078
KUIPER-00192            
1 68575U 26072C   26275.86998447 -.00000099  00000+0  16004-4 0  9998
2 68575  51.9005  76.9722 0000880 123.5076 236.5970 14.79928803 27109
KUIPER-00193            
1 68576U 26072D   26276.15088581 -.00000614  00000+0 -51530-4 0  9998
2 68576  51.9069  65.7846 0000804 147.3623 212.7389 14.79931924 27288
KUIPER-00194            
1 68577U 26072E   26276.17657399  .00001676  00000+0  24875-3 0  9998
2 68577  51.9038  73.1449 0000751 127.6238 232.4792 14.79935356 27180
KUIPER-00229            
1 68578U 26072F   26276.17117247  .00000677  00000+0  11787-3 0  9990
2 68578  51.9012  78.1488 0000683 121.7354 238.3675 14.79932679 27112
KUIPER-00230            
1 68579U 26072G   26276.02099459  .00001031  00000+0  17687-3 0  9999
2 68579  51.9062  26.2643 0000856 110.6976 249.4077 14.76578527 27826
KUIPER-00231            
1 68580U 26072H   26276.06577738  .00001721  00000+0  25467-3 0  9997
2 68580  51.8995  51.1821 0001588 154.2315 205.8727 14.79938341 27477
KUIPER-00234            
1 68581U 26072J   26276.14279722  .00001583  00000+0  23665-3 0  9993
2 68581  51.9003  73.2561 0001069 123.0134 237.0931 14.79930394 27173
KUIPER-00236            
1 68582U 26072K   26276.05628235  .00001789  00000+0  26375-3 0  9990
2 68582  51.9074  28.6544 0000899 125.5619 234.5428 14.79921370 27797
KUIPER-00244            
1 68583U 26072L   26276.11982484  .00001661  00000+0  24689-3 0  9992
2 68583  51.9012  63.3814 0000758 125.8470 234.2563 14.79932577 27314
KUIPER-00253            
1 68584U 26072M   26276.11712801  .00001642  00000+0  24431-3 0  9991
2 68584  51.9049  65.9248 0000705 128.6734 231.4292 14.79937819 27277
KUIPER-00254            
1 68585U 26072N   26276.14818697  .00001667  00000+0  24763-3 0  9990
2 68585  51.9054  68.2843 0000834 118.8579 241.2468 14.79928587 27245
KUIPER-00263            
1 68586U 26072P   26276.09684635  .00001091  00000+0  17204-3 0  9991
2 68586  51.9031  53.5776 0000330 128.4330 231.6662 14.79935577 27444
KUIPER-00269            
1 68587U 26072Q   26276.09414419  .00000517  00000+0  96789-4 0  9991
2 68587  51.8998  55.9919 0000764 125.0404 235.0631 14.79929793 27411
KUIPER-00272            
1 68588U 26072R   26276.17386113  .00001563  00000+0  23393-3 0  9992
2 68588  51.8993  75.6039 0000843 127.5828 232.5211 14.79937947 27140
KUIPER-00285            
1 68589U 26072S   26276.12791916  .00001684  00000+0  24990-3 0  9997
2 68589  51.9064  55.9319 0001185 119.3725 240.7356 14.79929236 27411
KUIPER-00286            
1 68590U 26072T   26275.65789904  .00001837  00000+0  26992-3 0  9994
2 68590  51.9036  55.4343 0000473  99.7962 260.3054 14.79934398 27381
KUIPER-00289            
1 68591U 26072U   26276.12251802  .00001681  00000+0  24942-3 0  9999
2 68591  51.9005  60.8523 0000786 132.4136 227.6893 14.79932819 27342
KUIPER-00290            
1 68592U 26072V   26275.68358071  .00001604  00000+0  23935-3 0  9992
2 68592  51.9030  62.8075 0000546 137.0836 223.0169 14.79926440 27289
KUIPER-00293            
1 68593U 26072W   26275.84161692  .00001441  00000+0  21807-3 0  9997
2 68593  51.8986  72.0730 0001652  94.4175 265.6977 14.79932584 27163
KUIPER-00294            
1 68594U 26072X   26276.12520713  .00001663  00000+0  24709-3 0  9993
2 68594  51.9010  58.3433 0000512 121.2706 238.8306 14.79935015 27387
KUIPER-00296            
1 68595U 26072Y   26276.31291469  .00001948  00000+0  28446-3 0  9996
2 68595  51.9034  40.0351 0000423 123.0122 237.0881 14.79935476 27654
KUIPER-00297            
1 68596U 26072Z   26276.14548754  .00001594  00000+0  23808-3 0  9994
2 68596  51.9003  70.7318 0001068 135.3017 224.8031 14.79938279 27216
KUIPER-00300            
1 68597U 26072AA  26276.11442816  .00000591  00000+0  10647-3 0  9997
2 68597  51.9021  68.4090 0000745 119.6489 240.4548 14.79931141 27248
KUIPER-00301            
1 68598U 26072AB  26276.02896271  .00001021  00000+0  17571-3 0  9998
2 68598  51.9048  38.6262 0001801 246.2187 113.8586 14.76522083 27641
KUIPER-00304            
1 68599U 26072AC  26276.05777046  .00001109  00000+0  18775-3 0  9994
2 68599  51.9028  40.4385 0000735  49.0318 311.0707 14.76636541 27627
KUIPER-00317            
1 68600U 26072AD  26275.68626201  .00001420  00000+0  21524-3 0  9993
2 68600  51.9003  60.2869 0000368 123.6813 236.4184 14.79932479 27318
KUIPER-00320            
1 68601U 26072AE  26276.15358605 -.00000168  00000+0  69775-5 0  9998
2 68601  51.9042  63.2447 0000625 108.4156 251.6874 14.79927053 27311
KUIPER-00299            
1 68864U 26095A   26276.04431835  .00001400  00000+0  21255-3 0  9997
2 68864  51.8991 133.6863 0000930 119.0183 241.0872 14.79934600 23587
KUIPER-00353            
1 68865U 26095B   26276.29685079  .00001635  00000+0  24338-3 0  9991
2 68865  51.9002 117.5988 0000827 111.2279 248.8772 14.79937791 23832
KUIPER-00357            
1 68866U 26095C   26275.98488539  .00001439  00000+0  21783-3 0  9992
2 68866  51.9010 126.4894 0001344  97.0671 263.0445 14.79928706 23684
KUIPER-00364            
1 68867U 26095D   26276.28607665  .00001477  00000+0  22274-3 0  9998
2 68867  51.9035 127.6845 0001191  96.5602 263.5496 14.79930908 23698
KUIPER-00375            
1 68868U 26095E   26276.26039589  .00000192  00000+0  54223-4 0  9994
2 68868  51.9001 120.2666 0001110 108.1743 251.9341 14.79927860 23793
KUIPER-00433            
1 68869U 26095F   26276.04162076  .00001537  00000+0  23058-3 0  9994
2 68869  51.9005 136.2272 0001313  95.0142 265.0970 14.79937910 23555
KUIPER-00437            
1 68870U 26095G   26276.25002315  .00001321  00000+0  21787-3 0  9996
2 68870  51.9014  87.2569 0000701 100.7634 297.8181 14.76621740  4319
KUIPER-00448            
1 68871U 26095H   26276.28876107  .00000752  00000+0  12758-3 0  9993
2 68871  51.9037 125.1444 0000989 123.4231 236.6827 14.79936683 23724
KUIPER-00459            
1 68872U 26095J   26276.26849178  .00001539  00000+0  23089-3 0  9993
2 68872  51.9022 112.7951 0000903 114.1992 245.9065 14.79936298 23898
KUIPER-00468            
1 68873U 26095K   26276.23161877  .00001133  00000+0  19102-3 0  9995
2 68873  51.8968 110.7862 0000373 192.0934 168.0018 14.76639382 23926
KUIPER-00476            
1 68874U 26095L   26276.22251589  .00001540  00000+0  23101-3 0  9991
2 68874  51.9014  92.8479 0000900 126.2905 233.8140 14.79929294 24179
KUIPER-00478            
1 68875U 26095M   26276.26578442  .00001476  00000+0  22258-3 0  9996
2 68875  51.8988 115.2379 0001031 111.1032 249.0041 14.79937345 23868
KUIPER-00480            
1 68876U 26095N   26275.82954421  .00001437  00000+0  21747-3 0  9992
2 68876  51.9035 114.6883 0000765 108.9760 251.1285 14.79932827 23832
KUIPER-00482            
1 68877U 26095P   26276.29143145  .00001568  00000+0  23470-3 0  9998
2 68877  51.9008 122.6280 0001336  98.5182 261.5931 14.79925778 23762
KUIPER-00483            
1 68878U 26095Q   26275.87279673  .00001382  00000+0  21033-3 0  9995
2 68878  51.8993 136.9402 0001555  63.6199 296.4923 14.79928321 23522
KUIPER-00488            
1 68879U 26095R   26276.26309579  .00001447  00000+0  21884-3 0  9995
2 68879  51.8994 117.7588 0001214 109.0349 251.0745 14.79930688 23821
KUIPER-00489            
1 68880U 26095S   26276.27118153  .00001487  00000+0  22399-3 0  9990
2 68880  51.8969 110.1985 0001301 117.1794 242.9301 14.79935404 23934
KUIPER-00499            
1 68881U 26095T   26275.96189392  .00001345  00000+0  20545-3 0  9993
2 68881  51.8992 116.6305 0000747 111.2145 248.8897 14.79934977 23812
KUIPER-00500            
1 68882U 26095U   26275.87548808  .00001412  00000+0  21427-3 0  9990
2 68882  51.9008 134.4667 0000933 108.4851 251.6213 14.79930329 23563
KUIPER-00502            
1 68883U 26095V   26276.23029452 -.00003805  00000+0 -47021-3 0  9999
2 68883  51.8998 109.1483 0001239 108.7426 251.3671 14.79946438 23942
KUIPER-00503            
1 68884U 26095W   26275.97948237  .00000251  00000+0  61954-4 0  9993
2 68884  51.8973 131.4731 0001244 107.0338 253.0761 14.79926174 23618
KUIPER-00504            
1 68885U 26095X   26276.07269467  .00001546  00000+0  23173-3 0  9995
2 68885  51.9020 138.6011 0000792 101.5243 258.5809 14.79927596 23526
KUIPER-00505            
1 68886U 26095Y   26275.98217922  .00001447  00000+0  21873-3 0  9999
2 68886  51.9010 129.0023 0000818 103.2378 256.8676 14.79937572 23641
KUIPER-00507            
1 68887U 26095Z   26275.97608039  .00000374  00000+0  78063-4 0  9994
2 68887  51.8997 119.0115 0000967 108.0700 252.0368 14.79930600 23789
KUIPER-00511            
1 68888U 26095AA  26275.96730319  .00000112  00000+0  43710-4 0  9992
2 68888  51.8987 111.6607 0001065 107.2391 252.8688 14.79930145 23888
KUIPER-00512            
1 68889U 26095AB  26276.28335397 -.00000116  00000+0  13802-4 0  9990
2 68889  51.9012 130.1727 0001080 123.4944 236.6121 14.79932245 23659
KUIPER-00519            
1 68890U 26095AC  26276.29416686  .00000734  00000+0  12525-3 0  9999
2 68890  51.9000 120.1886 0001004 107.0764 253.0308 14.79928144 23795
KUIPER-00521            
1 68891U 26095AD  26276.29245739  .00001060  00000+0  16800-3 0  9992
2 68891  51.9016 113.8920 0000856  91.3279 268.7781 14.79931120 23887
KUIPER-00524            
1 68892U 26095AE  26275.92004387  .00001525  00000+0  22896-3 0  9992
2 68892  51.8973 124.2458 0001135 101.8286 258.2803 14.79936708 23704
KUIPER-00370            
1 68919U 26098A   26276.08310623  .00001513  00000+0  22740-3 0  9991
2 68919  51.9000 300.9076 0000446  35.6320 324.4672 14.79935502 23466
KUIPER-00380            
1 68920U 26098B   26276.09121734  .00001447  00000+0  21877-3 0  9993
2 68920  51.8985 293.5068 0000474  50.4438 309.6567 14.79925383 23568
KUIPER-00386            
1 68921U 26098C   26276.30798703  .00000120  00000+0  44682-4 0  9991
2 68921  51.8996 295.0451 0000420  43.6142 316.4854 14.79930591 23563
KUIPER-00388            
1 68922U 26098D   26276.07774610  .00001501  00000+0  22585-3 0  9998
2 68922  51.9022 306.2278 0000394  41.2850 318.8143 14.79935836 23381
KUIPER-00405            
1 68923U 26098E   26276.09731146  .00001560  00000+0  23356-3 0  9990
2 68923  51.9035 303.4961 0000834 306.3468  53.7417 14.79933087 23423
KUIPER-00408            
1 68924U 26098F   26276.08850795  .00000045  00000+0  34957-4 0  9999
2 68924  51.9019 295.9437 0000711  95.4708 264.6335 14.79934001 23537
KUIPER-00409            
1 68925U 26098G   26276.06624250  .00001617  00000+0  24101-3 0  9998
2 68925  51.9045 301.1346 0000369  56.2787 303.8211 14.79935961 23453
KUIPER-00410            
1 68926U 26098H   26275.79881940  .00001402  00000+0  21287-3 0  9993
2 68926  51.8986 299.7845 0000033 292.5547  67.5412 14.79932001 23459
KUIPER-00412            
1 68927U 26098J   26275.79003996  .00000677  00000+0  11776-3 0  9996
2 68927  51.9031 292.3664 0000486  40.4992 319.6007 14.79930653 23559
KUIPER-00413            
1 68928U 26098K   26275.81030710  .00001523  00000+0  22868-3 0  9999
2 68928  51.9005 304.7440 0000317 338.5464  21.5485 14.79929352 23383
KUIPER-00414            
1 68929U 26098L   26276.10341037  .00001616  00000+0  24089-3 0  9990
2 68929  51.8984 313.5275 0000262 190.3111 169.7846 14.79929996 23284
KUIPER-00415            
1 68930U 26098M   26276.32487021  .00000044  00000+0  34708-4 0  9994
2 68930  51.9024 294.9873 0000461  56.5437 303.5570 14.79931273 23567
KUIPER-00416            
1 68931U 26098N   26275.73479639 -.00004990  00000+0 -62600-3 0  9992
2 68931  51.9030 288.9478 0000891  50.7367 309.3675 14.79932591 23591
KUIPER-00420            
1 68932U 26098P   26276.06283730  .00001560  00000+0  23356-3 0  9998
2 68932  51.9012 288.6056 0000448  57.3852 302.7154 14.79937351 23634
KUIPER-00421            
1 68933U 26098Q   26275.78731078  .00001431  00000+0  21667-3 0  9990
2 68933  51.9033 294.8114 0000568  67.9222 292.1800 14.79933288 23526
KUIPER-00425            
1 68934U 26098R   26276.11686680  .00001487  00000+0  22407-3 0  9991
2 68934  51.8995 300.8940 0000393  78.3550 281.7457 14.79932644 23464
KUIPER-00430            
1 68935U 26098S   26276.11418169  .00000033  00000+0  33356-4 0  9999
2 68935  51.9042 303.3127 0000390  54.9297 305.1702 14.79930688 23436
KUIPER-00431            
1 68936U 26098T   26276.11148776  .00001540  00000+0  23096-3 0  9997
2 68936  51.9010 305.9063 0000330  19.0092 341.0883 14.79937602 23395
KUIPER-00432            
1 68937U 26098U   26276.32215579  .00000151  00000+0  48754-4 0  9993
2 68937  51.8998 297.3735 0000403  50.3091 309.7907 14.79931360 23537
KUIPER-00434            
1 68938U 26098V   26276.06611429  .00001049  00000+0  18011-3 0  9998
2 68938  51.9012 302.8969 0000802 177.6213 182.4752 14.76403304 23431
KUIPER-00436            
1 68939U 26098W   26276.09999377  .00001488  00000+0  22413-3 0  9991
2 68939  51.9013 300.9697 0000359  88.6694 271.4309 14.79926363 23469
KUIPER-00438            
1 68940U 26098X   26275.76505932  .00000100  00000+0  42155-4 0  9992
2 68940  51.9033 299.9798 0000433  56.1208 303.9795 14.79930195 23442
KUIPER-00439            
1 68941U 26098Y   26275.27546966  .00001310  00000+0  20076-3 0  9992
2 68941  51.9034 302.1359 0000530  71.5662 288.5358 14.79927970 23379
KUIPER-00440            
1 68942U 26098Z   26276.31338811  .00001554  00000+0  23280-3 0  9997
2 68942  51.9032 290.0445 0000922  22.8889 337.2114 14.79936090 23638
KUIPER-00442            
1 68943U 26098AA  26276.31062767 -.00020008  00000+0 -25985-2 0  9992
2 68943  51.9008 292.5721 0001069   0.6108 359.4856 14.80010793 23596
KUIPER-00446            
1 68944U 26098AB  26276.00410711  .00000019  00000+0  31559-4 0  9999
2 68944  51.9008 296.4101 0001286 337.6832  22.4075 14.79927350 23516
KUIPER-00451            
1 68945U 26098AC  26276.12837204  .00001499  00000+0  22559-3 0  9995
2 68945  51.9006 305.8403 0000336  29.6831 330.4150 14.79938047 23394
KUIPER-00452            
1 68946U 26098AD  26276.07433912  .00001588  00000+0  23727-3 0  9995
2 68946  51.9024 293.5990 0000452  60.4006 299.7002 14.79928639 23563
KUIPER-00453            
1 68947U 26098AE  26276.29648348  .00001528  00000+0  22938-3 0  9998
2 68947  51.8994 290.0310 0000711 187.9695 172.1256 14.79939699 23635
KUIPER-00454            
1 68948U 26098AF  26275.80489275  .00001342  00000+0  20507-3 0  9991
2 68948  51.9008 309.7626 0000808  62.1974 297.9071 14.79924680 23312
KUIPER-00455            
1 68949U 26098AG  26275.82449331  .00001477  00000+0  22275-3 0  9996
2 68949  51.9011 307.1893 0000520 182.9861 177.1099 14.79927739 23353
KUIPER-00458            
1 68950U 26098AH  26276.07702891  .00001538  00000+0  23066-3 0  9996
2 68950  51.9020 291.0970 0000782  64.8331 295.2712 14.79932335 23590
KUIPER-00282            
1 69267U 26118A   26276.28768627  .00001566  00000+0  23434-3 0  9993
2 69267  51.8967 282.6151 0000543  10.6872 349.4102 14.79941982 20165
KUIPER-00383            
1 69268U 26118B   26276.30728948  .00001636  00000+0  24349-3 0  9993
2 69268  51.8998 280.0521 0000535  38.8186 321.2815 14.79933764 20207
KUIPER-00527            
1 69269U 26118C   26276.27354211  .00001565  00000+0  23419-3 0  9996
2 69269  51.8981 280.3320 0000529  52.9516 307.1495 14.79933891 20193
KUIPER-00562            
1 69270U 26118D   26276.24783996 -.00000379  00000+0 -20700-4 0  9996
2 69270  51.9038 272.7662 0000968  71.0964 289.0103 14.79928761 20306
KUIPER-00570            
1 69271U 26118E   26276.06554797  .00001531  00000+0  22975-3 0  9996
2 69271  51.9012 286.2268 0000497  47.5545 312.5460 14.79936329 20083
KUIPER-00572            
1 69272U 26118F   26276.32417373  .00001604  00000+0  23931-3 0  9998
2 69272  51.9006 279.9756 0000584  48.3759 311.7253 14.79932829 20207
KUIPER-00581            
1 69273U 26118G   26276.31877572  .00001610  00000+0  24017-3 0  9992
2 69273  51.9025 285.0108 0000523 316.3090  43.7831 14.79935982 20226
KUIPER-00584            
1 69274U 26118H   26276.29918345  .00001587  00000+0  23720-3 0  9997
2 69274  51.9004 287.7050 0000495  42.9412 317.1589 14.79926509 20095
KUIPER-00587            
1 69275U 26118J   26276.25933048  .00001544  00000+0  23151-3 0  9992
2 69275  51.9010 277.7714 0000593  60.5529 299.5493 14.79933253 20230
KUIPER-00590            
1 69276U 26118K   26276.32146524  .00001611  00000+0  24021-3 0  9998
2 69276  51.9035 282.5097 0000437  26.5582 333.5403 14.79941549 20174
KUIPER-00592            
1 69277U 26118L   26276.30458458  .00001520  00000+0  22831-3 0  9995
2 69277  51.9036 282.4653 0000543  42.6321 317.4684 14.79927477 20177
KUIPER-00593            
1 69278U 26118M   26276.25593673  .00001573  00000+0  23522-3 0  9995
2 69278  51.8994 265.2916 0000461 238.2512 121.8406 14.79935887 20460
KUIPER-00594            
1 69279U 26118N   26276.25054976  .00000110  00000+0  43508-4 0  9997
2 69279  51.9027 270.3288 0000879  78.3111 281.7950 14.79929832 20338
KUIPER-00595            
1 69280U 26118P   26275.68192909  .00001544  00000+0  23153-3 0  9999
2 69280  51.8983 267.7842 0000583 262.7229  97.3667 14.79936193 20353
KUIPER-00596            
1 69281U 26118Q   26275.74207933  .00001435  00000+0  21715-3 0  9992
2 69281  51.9016 290.0642 0000492  46.3530 313.7473 14.79933072 20015
KUIPER-00597            
1 69282U 26118R   26276.28700752  .00001642  00000+0  24443-3 0  9991
2 69282  51.8985 267.6498 0001536  76.2713 283.8420 14.79933691 20379
KUIPER-00599            
1 69283U 26118S   26276.30995627 -.00000608  00000+0 -50779-4 0  9997
2 69283  51.9040 277.4644 0000643  43.1361 316.9652 14.79933654 20245
KUIPER-00600            
1 69284U 26118T   26275.98311405  .00001691  00000+0  25079-3 0  9992
2 69284  51.8986 268.9066 0001649  66.5607 293.5529 14.79934342 20334
KUIPER-00601            
1 69285U 26118U   26276.00066258 -.00003461  00000+0 -42509-3 0  9996
2 69285  51.9004 283.9193 0000613  62.4028 297.6996 14.79945075 20122
KUIPER-00602            
1 69286U 26118V   26276.27890155  .00001496  00000+0  22525-3 0  9997
2 69286  51.9032 275.1027 0000802 342.3312  17.7623 14.79930494 20272
KUIPER-00603            
1 69287U 26118W   26276.29309571  .00001631  00000+0  24289-3 0  9997
2 69287  51.9039 277.6327 0000659  55.9910 304.1115 14.79935844 20230
KUIPER-00605            
1 69288U 26118X   26276.28501479  .00001550  00000+0  23223-3 0  9995
2 69288  51.8988 285.1405 0000535  49.7299 310.3710 14.79934524 20131
KUIPER-00606            
1 69289U 26118Y   26276.27622162  .00000046  00000+0  34979-4 0  9998
2 69289  51.9027 277.7004 0000560  44.4745 315.6262 14.79930250 20238
KUIPER-00607            
1 69290U 26118Z   26276.27013283  .00001638  00000+0  24387-3 0  9997
2 69290  51.9016 267.7333 0001742  41.6782 318.4313 14.79928640 20378
KUIPER-00608            
1 69291U 26118AA  26276.28429666  .00001639  00000+0  24402-3 0  9994
2 69291  51.9030 270.0303 0000746  65.3983 294.7057 14.79929906 20342
KUIPER-00610            
1 69292U 26118AB  26276.04256017  .00001538  00000+0  23065-3 0  9999
2 69292  51.9025 276.2338 0000593  41.7896 318.3112 14.79937712 20231
KUIPER-00613            
1 69293U 26118AC  26276.30189750  .00001626  00000+0  24229-3 0  9999
2 69293  51.9008 285.0844 0000520  45.9680 314.1326 14.79925365 20131
KUIPER-00618            
1 69294U 26118AD  26276.28160798  .00001636  00000+0  24359-3 0  9993
2 69294  51.9035 272.6847 0001019 268.3130  91.7716 14.79934747 20306
KUIPER-00620            
1 69295U 26118AE  26276.29580158  .00001578  00000+0  23587-3 0  9998
2 69295  51.9039 275.1275 0000627  34.7890 325.3113 14.79936062 20271
KUIPER-00423            
1 69592U 26140A   26275.97087424  .00001649  00000+0  24529-3 0  9991
2 69592  51.9011 249.0454 0000818  81.3850 278.7205 14.79922612 17653
KUIPER-00428            
1 69593U 26140B   26276.25002315  .00025548  00000+0  74234-3 0  9992
2 69593  51.8800 236.3931 0004980 331.2649  93.5739 15.35299012  2366
KUIPER-00481            
1 69594U 26140C   26276.28632113  .00001849  00000+0  27139-3 0  9991
2 69594  51.9007 252.6593 0001489  13.4990 346.6012 14.79951591 17637
KUIPER-00490            
1 69595U 26140D   26275.99390579  .00001685  00000+0  24996-3 0  9992
2 69595  51.9038 258.9049 0000766  52.0123 308.0908 14.79930177 17522
KUIPER-00493            
1 69596U 26140E   26276.22486645  .00000125  00000+0  45379-4 0  9997
2 69596  51.9024 262.9341 0001253   2.3162 357.7806 14.79931034 17487
KUIPER-00496            
1 69597U 26140F   26276.18329537 -.00001479  00000+0 -16496-3 0  9991
2 69597  51.9029 246.8676 0001645  77.2484 282.8662 14.79944617 17702
KUIPER-00513            
1 69598U 26140G   26276.23026268 -.00000149  00000+0  93957-5 0  9994
2 69598  51.9006 257.9016 0000638  58.1408 301.9617 14.79927615 17559
KUIPER-00516            
1 69599U 26140H   26276.25002315 -.00068064  00000+0 -94797-2 0  9995
2 69599  51.8960 242.2711 0004446  35.7439  89.5932 14.77687790  5688
KUIPER-00517            
1 69600U 26140J   26276.25002315 -.00016481  00000+0 -12655-2 0  9997
2 69600  51.8928 238.6805 0008197 216.4891 208.1196 15.00773372  5472
KUIPER-00520            
1 69601U 26140K   26276.24006580  .00001175  00000+0  19716-3 0  9993
2 69601  51.9013 260.1356 0000638 303.9789  56.1111 14.76618235 17525
KUIPER-00522            
1 69602U 26140L   26276.29168596  .00001867  00000+0  27387-3 0  9996
2 69602  51.9044 247.6351 0001217  88.3315 271.7787 14.79932487 17703
KUIPER-00528            
1 69603U 26140M   26275.94057126  .00001565  00000+0  23423-3 0  9996
2 69603  51.9027 261.7030 0000631  48.9212 311.1805 14.79933010 17470
KUIPER-00532            
1 69604U 26140N   26276.17619957 -.00000867  00000+0 -84730-4 0  9994
2 69604  51.9017 245.6515 0000808  60.6788 299.4255 14.79929501 17729
KUIPER-00533            
1 69605U 26140P   26276.26672566  .00001097  00000+0  17296-3 0  9996
2 69605  51.9007 255.2501 0000757  52.3580 307.7451 14.79927169 17596
KUIPER-00534            
1 69606U 26140Q   26276.19233910  .00008137  00000+0  30149-3 0  9999
2 69606  51.8789 238.3626 0012345 178.2378 181.8650 15.28451770 17825
KUIPER-00537            
1 69607U 26140R   26276.25861860  .00001676  00000+0  24877-3 0  9990
2 69607  51.9017 262.6997 0001342  24.4621 335.6405 14.79940268 17490
KUIPER-00538            
1 69608U 26140S   26276.22755921  .00001705  00000+0  25265-3 0  9993
2 69608  51.9028 260.3631 0000976  45.3280 314.7762 14.79936786 17526
KUIPER-00540            
1 69609U 26140T   26276.15491213  .00014611  00000+0  38759-3 0  9999
2 69609  51.8805 236.6663 0004563 325.1407  34.9281 15.38533989 17842
KUIPER-00541            
1 69610U 26140U   26276.25002315 -.00043269  00000+0 -52820-2 0  9990
2 69610  51.8985 240.1642 0004868 195.0318  72.9968 14.82969972  5588
KUIPER-00542            
1 69611U 26140V   26276.25002315 -.01130472  00000+0 -10035+0 0  9994
2 69611  51.9022 238.5968 0007744 191.7397 152.1708 14.98935764  3816
KUIPER-00543            
1 69612U 26140W   26276.20998052  .00001730  00000+0  25583-3 0  9991
2 69612  51.9049 245.4988 0000350 110.7571 249.3429 14.79942827 17727
KUIPER-00544            
1 69613U 26140X   26276.25002315 -.00030926  00000+0 -32980-2 0  9994
2 69613  51.8970 240.4989 0009055 237.8797  29.0429 14.88300360  4109
KUIPER-00546            
1 69614U 26140Y   26275.66691253 -.00005406  00000+0 -68078-3 0  9997
2 69614  51.9015 250.3952 0000101 248.2866 111.8085 14.79929314 17611
KUIPER-00547            
1 69615U 26140Z   26276.25002315 -.01183653  00000+0 -76230-1 0  9998
2 69615  51.8959 237.0032 0009950 192.8086 248.9610 15.10926493  5498
KUIPER-00549            
1 69616U 26140AA  26276.25002315 -.00032673  00000+0 -42634-2 0  9995
2 69616  51.9008 242.8289 0000540 357.4107  21.5569 14.80073637  5310
KUIPER-00550            
1 69617U 26140AB  26276.25002315 -.00051580  00000+0 -64588-2 0  9996
2 69617  51.9010 246.5409 0001891 120.3573  46.2595 14.82010917  3914
KUIPER-00551            
1 69618U 26140AC  26276.25002315 -.00356303  00000+0 -15287-1 0  9999
2 69618  51.8804 235.7434 0012064 187.0484 159.6975 15.23732589  5676
KUIPER-00554            
1 69619U 26140AD  26276.25002315 -.01130351  00000+0 -54854-1 0  9997
2 69619  51.8856 236.2102 0008982 199.6707 277.1268 15.20684287  4402
KUIPER-00555            
1 69620U 26140AE  26276.25002315  .00022111  00000+0  82741-3 0  9998
2 69620  51.8846 236.0380 0009600 194.1493  69.1554 15.27195674  5490
KUIPER-00556            
1 69621U 26140AF  26276.23834895  .00001016  00000+0  16225-3 0  9998
2 69621  51.8984 250.3647 0000576  87.2127 272.8901 14.79922406 17666
KUIPER-00557            
1 69622U 26140AG  26276.25002315 -.01977613  00000+0 -12781+0 0  9992
2 69622  51.8866 237.0000 0009958 218.0123 309.1233 15.11442859  5366
KUIPER-00560            
1 69623U 26140AH  26276.29178299  .00014520  00000+0  40077-3 0  9991
2 69623  51.8781 236.0497 0007620 236.6323 123.3935 15.37293390 17869
KUIPER-00561            
1 69624U 26140AJ  26276.23295434  .00000104  00000+0  42602-4 0  9997
2 69624  51.9025 255.3687 0000684  72.8652 287.2386 14.79930276 17591
KUIPER-00564            
1 69625U 26140AK  26276.20189710  .00001789  00000+0  26368-3 0  9994
2 69625  51.8982 253.0083 0000690  98.0063 262.0977 14.79931502 17625
KUIPER-00567            
1 69626U 26140AL  26275.93445655  .00001565  00000+0  23424-3 0  9999
2 69626  51.8975 251.7087 0000941 176.9211 183.1757 14.79931938 17618
KUIPER-00573            
1 69627U 26140AM  26276.23565263  .00001741  00000+0  25723-3 0  9992
2 69627  51.9021 252.8924 0000598  61.1886 298.9136 14.79940872 17629
KUIPER-00258            
1 69763U 26151A   26276.25002315 -.00014190  00000+0 -18322-2 0  9991
2 69763  51.8957 162.8056 0000834  53.0601 226.5879 14.80026165  4956
KUIPER-00526            
1 69764U 26151B   26276.02954788  .00000290  00000+0  67033-4 0  9996
2 69764  51.8995 178.8599 0001152  99.2415 260.8678 14.79925556 13955
KUIPER-00558            
1 69765U 26151C   26276.13080459  .00000310  00000+0  69700-4 0  9990
2 69765  51.8981 178.3295 0000931 117.4479 242.6578 14.79928601 13979
KUIPER-00569            
1 69766U 26151D   26276.01536269  .00000018  00000+0  31378-4 0  9998
2 69766  51.9026 176.3409 0000969  96.2586 263.8486 14.79928736 13994
KUIPER-00589            
1 69767U 26151E   26276.15654925  .00000928  00000+0  16238-3 0  9991
2 69767  51.9009 179.0853 0003207  95.6103 264.5224 14.76550468 13960
KUIPER-00598            
1 69768U 26151F   26276.10517384  .00001673  00000+0  24846-3 0  9996
2 69768  51.9001 170.9570 0000786 101.4716 258.6335 14.79928816 14073
KUIPER-00604            
1 69769U 26151G   26276.01806155  .00000309  00000+0  69608-4 0  9995
2 69769  51.9030 173.8422 0000849  92.0565 268.0495 14.79930496 14025
KUIPER-00609            
1 69770U 26151H   26276.12203107 -.00001678  00000+0 -19115-3 0  9996
2 69770  51.9004 170.8785 0001214  62.3891 297.7194 14.79927541 14073
KUIPER-00611            
1 69771U 26151J   26276.11935373 -.00000313  00000+0 -12044-4 0  9993
2 69771  51.8986 173.3728 0001095  89.4512 270.6576 14.79927190 14045
KUIPER-00612            
1 69772U 26151K   26276.09977592  .00001858  00000+0  27265-3 0  9993
2 69772  51.9022 175.9843 0001151 129.4482 230.6582 14.79929264 14001
KUIPER-00614            
1 69773U 26151L   26276.10246441  .00001716  00000+0  25415-3 0  9996
2 69773  51.8985 173.5160 0000950  97.1565 262.9505 14.79927137 14037
KUIPER-00615            
1 69774U 26151M   26276.11395459  .00000568  00000+0  10353-3 0  9991
2 69774  51.9026 178.3531 0000895 120.5591 239.5460 14.79929689 13974
KUIPER-00616            
1 69775U 26151N   26276.09644106  .00005298  00000+0  72242-3 0  9995
2 69775  51.9006 163.5004 0001301 103.9425 256.1682 14.79994630 14170
KUIPER-00617            
1 69776U 26151P   26275.95592794  .00001633  00000+0  24319-3 0  9996
2 69776  51.9006 169.1174 0000718  94.7785 265.3259 14.79929361 14089
KUIPER-00619            
1 69777U 26151Q   26274.92061067  .00011029  00000+0  15902-2 0  9994
2 69777  51.9014 176.2197 0001242 119.8436 240.2649 14.76680312 13898
KUIPER-00621            
1 69778U 26151R   26276.13623821 -.00000069  00000+0  19936-4 0  9998
2 69778  51.9014 173.3166 0000782 104.5931 255.5118 14.79928934 14048
KUIPER-00622            
1 69779U 26151S   26276.14564148  .00001014  00000+0  17477-3 0  9993
2 69779  51.9017 177.5424 0001704  99.1138 261.0016 14.76520042 13984
KUIPER-00623            
1 69780U 26151T   26276.13354273  .00000599  00000+0  10762-3 0  9997
2 69780  51.8981 175.8360 0001242 113.4647 246.6446 14.79928777 14007
KUIPER-00626            
1 69781U 26151U   26276.08828611  .00001748  00000+0  25821-3 0  9993
2 69781  51.8985 171.0045 0000887 106.9795 253.1264 14.79930445 14078
KUIPER-00627            
1 69782U 26151V   26275.99238914  .00000290  00000+0  67004-4 0  9995
2 69782  51.9014 166.4592 0001110 114.9694 245.1384 14.79931311 14128
KUIPER-00629            
1 69783U 26151W   26276.14501929  .00000497  00000+0  94190-4 0  9998
2 69783  51.9020 180.7193 0000979  97.1612 262.9462 14.79929687 13942
KUIPER-00631            
1 69784U 26151X   26276.09437992  .00000413  00000+0  83169-4 0  9993
2 69784  51.9009 181.0019 0000742  97.2503 262.8544 14.79927979 13930
KUIPER-00634            
1 69785U 26151Y   26275.98159298  .00001634  00000+0  24329-3 0  9999
2 69785  51.9011 176.5044 0000916 103.1363 256.9702 14.79938742 13980
KUIPER-00639            
1 69786U 26151Z   26276.09368414  .00001726  00000+0  25468-3 0  9992
2 69786  51.9020 165.9934 0000870  82.5311 277.5750 14.80050895 14140
KUIPER-00641            
1 69787U 26151AA  26276.14162821  .00001808  00000+0  26614-3 0  9998
2 69787  51.9001 168.3030 0001779 148.2526 211.8544 14.79926635 14112
KUIPER-00644            
1 69788U 26151AB  26276.25002315 -.00072765  00000+0 -92387-2 0  9993
2 69788  51.8971 160.3339 0003096  85.9770 352.7480 14.81614587  5009
KUIPER-00646            
1 69789U 26151AC  26276.10787620 -.00000212  00000+0  11586-5 0  9999
2 69789  51.8995 168.5335 0000784  97.0038 263.1014 14.79927079 14103
KUIPER-00647            
1 69790U 26151AD  26276.11451439  .00001001  00000+0  17285-3 0  9994
2 69790  51.9005 168.2565 0002474   4.7673 355.3311 14.76546544 14114
KUIPER-00662            
1 69791U 26151AE  26276.12814096  .00001807  00000+0  26596-3 0  9997
2 69791  51.9018 180.8502 0000962  81.1990 278.9081 14.79932246 13935
