QIANFAN-1               
1 60379U 24140A   26258.53992498  .00000017  00000+0  74436-5 0  9994
2 60379  88.9664 270.5431 0019143 131.0073 229.2737 13.51025831104728
QIANFAN-2               
1 60380U 24140B   26258.56873607  .00000006  00000+0 -90754-5 0  9999
2 60380  88.9651 270.3420 0014833 105.6221 254.6568 13.51020255104780
QIANFAN-3               
1 60381U 24140C   26258.57713483  .00000016  00000+0  60028-5 0  9997
2 60381  88.9643 270.4527 0015847 116.6326 243.6451 13.51022971104691
QIANFAN-4               
1 60382U 24140D   26258.55231442  .00000011  00000+0 -16004-5 0  9997
2 60382  88.9668 270.4227 0015055 107.8316 252.4479 13.51021052104819
QIANFAN-5               
1 60383U 24140E   26258.52755565  .00000011  00000+0 -17829-5 0  9998
2 60383  88.9643 270.4822 0016890 127.0778 233.1920 13.51031204104679
QIANFAN-6               
1 60384U 24140F   26258.54819817  .00000022  00000+0  15179-4 0  9998
2 60384  88.9670 270.3015 0015111 112.9808 247.2940 13.51024105104877
QIANFAN-7               
1 60385U 24140G   26258.57133487  .00000124  00000+0  43945-4 0  9999
2 60385  88.9718 261.1348 0013935 200.6312 159.4322 14.27892645109896
QIANFAN-8               
1 60386U 24140H   26258.55656160  .00000013  00000+0  14139-5 0  9997
2 60386  88.9671 270.5415 0018534 115.4953 244.8117 13.51026060104722
QIANFAN-9               
1 60387U 24140J   26258.53178065  .00000013  00000+0  17071-5 0  9997
2 60387  88.9668 270.6138 0018238 115.3272 244.9771 13.51021655104706
QIANFAN-10              
1 60388U 24140K   26258.53588858  .00000019  00000+0  10026-4 0  9991
2 60388  88.9680 269.9899 0016850  95.1546 265.1529 13.51021714104839
QIANFAN-11              
1 60389U 24140L   26258.57304031  .00000004  00000+0 -13117-4 0  9994
2 60389  88.9605 270.3646 0016265 114.6385 245.6462 13.51021038104491
QIANFAN-12              
1 60390U 24140M   26258.59356317  .00000012  00000+0  82800-8 0  9999
2 60390  88.9648 270.5263 0014976 121.5189 238.7428 13.51023605104625
QIANFAN-13              
1 60391U 24140N   26258.56471991  .00000000  00000+0 -18228-4 0  9990
2 60391  88.9908 270.7608 0014767 123.5672 236.6891 13.51023644104643
QIANFAN-14              
1 60392U 24140P   26258.58951011  .00000007  00000+0 -84558-5 0  9996
2 60392  88.9639 270.4992 0018423 124.7308 235.5582 13.51018782104653
QIANFAN-15              
1 60393U 24140Q   26258.59762989  .00000021  00000+0  13361-4 0  9990
2 60393  88.9662 270.5207 0014431 111.6376 248.6314 13.51027997104640
QIANFAN-16              
1 60394U 24140R   26258.58524848  .00000007  00000+0 -75762-5 0  9999
2 60394  88.9665 270.6498 0016289 127.6766 232.5866 13.51025205104554
QIANFAN-17              
1 60395U 24140S   26258.58126347  .00000018  00000+0  84861-5 0  9993
2 60395  88.9675 270.7264 0016796 122.1439 238.1344 13.51021526105510
QIANFAN-18              
1 60396U 24140T   26258.56069635 -.00000006  00000+0 -28432-4 0  9998
2 60396  88.9670 270.2442 0016357 106.8167 253.4780 13.51020888104905
QIANFAN-19              
1 61552U 24185A   26258.62057638  .00000326  00000+0  16258-3 0  9994
2 61552  88.9850  46.2177 0008608 125.8312 234.3676 14.14529309108806
QIANFAN-20              
1 61553U 24185B   26258.65894057  .00000281  00000+0  15386-3 0  9993
2 61553  88.9844  46.8103 0006245 158.2989 201.8460 14.09069943108481
QIANFAN-21              
1 61554U 24185C   26258.63674966  .00000431  00000+0  18530-3 0  9998
2 61554  88.9770  44.5537 0010930 169.7098 190.4320 14.22930164109341
QIANFAN-22              
1 61555U 24185D   26258.65425235  .00000239  00000+0  19530-3 0  9991
2 61555  88.9824  48.9086 0005258 212.3629 147.7221 13.86428885107301
QIANFAN-23              
1 61556U 24185E   26258.62650045  .00000314  00000+0  15049-3 0  9993
2 61556  88.9843  45.8978 0008993 133.1900 227.0041 14.16551233108941
QIANFAN-24              
1 61557U 24185F   26258.61498260  .00000451  00000+0  18941-3 0  9998
2 61557  88.9828  44.8532 0011594 111.6399 248.6030 14.24153874109423
QIANFAN-25              
1 61558U 24185G   26258.56126270  .00000385  00000+0  22575-3 0  9996
2 61558  88.9835  46.8656 0012540 184.6314 175.4754 14.06128040108404
QIANFAN-26              
1 61559U 24185H   26258.57302961  .00000213  00000+0  20014-3 0  9997
2 61559  88.9828  49.8711 0003928 244.9103 115.1656 13.77943612106797
QIANFAN-27              
1 61560U 24185J   26258.56555858  .00000348  00000+0  13536-3 0  9993
2 61560  88.9840  44.4989 0009540  99.1765 261.0509 14.27600626109658
QIANFAN-28              
1 61561U 24185K   26258.60149833  .00000578  00000+0  22487-3 0  9991
2 61561  88.9858  44.5095 0009445  97.4742 262.7526 14.28482961109699
QIANFAN-29              
1 61562U 24185L   26258.57555930  .00000129  00000+0  18085-3 0  9998
2 61562  88.9795  52.6943 0008972 340.3414  19.7390 13.51093145105177
QIANFAN-30              
1 61563U 24185M   26258.61171128  .00000133  00000+0  19001-3 0  9991
2 61563  88.9816  52.3221 0006385 327.5982  32.4776 13.50075063105427
QIANFAN-31              
1 61564U 24185N   26258.57443244  .00000153  00000+0  19494-3 0  9996
2 61564  88.9801  51.6885 0005470 309.8507  50.2166 13.58063300105734
QIANFAN-32              
1 61565U 24185P   26258.57683230  .00000113  00000+0  15692-3 0  9990
2 61565  88.9855  52.5407 0009310 359.0419   1.0712 13.50805619105415
QIANFAN-33              
1 61566U 24185Q   26258.66416906  .00000253  00000+0  17282-3 0  9997
2 61566  88.9826  47.9367 0008008 166.5414 193.5978 13.96751328107810
QIANFAN-34              
1 61567U 24185R   26258.56305064  .00000441  00000+0  27785-3 0  9997
2 61567  88.9805  47.1455 0006249 157.7643 202.3810 14.02518211108151
QIANFAN-35              
1 61568U 24185S   26258.58829685  .00000497  00000+0  19315-3 0  9991
2 61568  88.9838  44.3892 0008568  95.3570 264.8602 14.28354910109698
QIANFAN-36              
1 61569U 24185T   26258.60623141  .00000070  00000+0  83832-4 0  9997
2 61569  88.9793  52.1913 0005157 333.4194  26.6695 13.55646917105433
QIANFAN-37              
1 62238U 24232B   26258.61758910  .00000106  00000+0  14519-3 0  9993
2 62238  89.0153  13.5253 0002058  87.3456 272.7931 13.51029784136557
QIANFAN-38              
1 62239U 24232C   26258.56829239  .00000099  00000+0  13424-3 0  9996
2 62239  89.0160  13.4648 0016460 114.3420 245.9452 13.51027955136601
QIANFAN-39              
1 62240U 24232D   26258.55941931  .00000364  00000+0  14758-3 0  9997
2 62240  89.0140   5.8021 0014093 247.4635 112.5067 14.25559041140825
QIANFAN-40              
1 62241U 24232E   26258.60121243  .00000125  00000+0  17537-3 0  9993
2 62241  89.0188  13.1233 0015488 121.1681 239.0991 13.51028285136974
QIANFAN-41              
1 62242U 24232F   26258.60941997  .00000105  00000+0  14329-3 0  9994
2 62242  89.0158  13.4070 0015875 110.7194 249.5661 13.51029378136634
QIANFAN-42              
1 62243U 24232G   26258.59350178  .00000350  00000+0  14444-3 0  9998
2 62243  89.0138   5.8864 0012803 255.3047 104.6727 14.24646217140783
QIANFAN-43              
1 62244U 24232H   26258.60530899  .00000091  00000+0  12163-3 0  9999
2 62244  89.0163  13.4850 0017398 115.4469 244.8485 13.51028827105240
QIANFAN-44              
1 62245U 24232J   26258.59299104  .00000090  00000+0  12117-3 0  9997
2 62245  89.0161  13.2924 0015627 112.7367 247.5437 13.51029141136712
QIANFAN-45              
1 62246U 24232K   26258.56008793  .00000085  00000+0  11276-3 0  9996
2 62246  89.0164  13.4521 0016291 112.5343 247.7535 13.51027868136637
QIANFAN-46              
1 62247U 24232L   26258.58471363  .00000103  00000+0  13997-3 0  9999
2 62247  89.0160  13.5073 0016312 117.3496 242.9318 13.51028996136597
QIANFAN-47              
1 62248U 24232M   26258.58887012  .00000094  00000+0  12667-3 0  9994
2 62248  89.0156  13.4287 0016736 116.6277 243.6591 13.51028213136625
QIANFAN-48              
1 62249U 24232N   26258.62597651  .00000091  00000+0  12204-3 0  9991
2 62249  89.0160  13.4377 0018986 119.0768 241.2287 13.51022556136633
QIANFAN-49              
1 62250U 24232P   26258.61356292  .00000099  00000+0  13397-3 0  9998
2 62250  89.0160  13.4492 0016094 114.0520 246.2317 13.51029690105228
QIANFAN-50              
1 62251U 24232Q   26258.56414963  .00000101  00000+0  13678-3 0  9999
2 62251  89.0165  13.4773 0017750 115.4972 244.8018 13.51029150105247
QIANFAN-51              
1 62252U 24232R   26258.62178830  .00000091  00000+0  12166-3 0  9996
2 62252  89.0159  13.4485 0015186 118.4919 241.7764 13.51028158105247
QIANFAN-52              
1 62253U 24232S   26258.57651130  .00000104  00000+0  14238-3 0  9997
2 62253  89.0155  13.3158 0017261 111.7764 248.5226 13.51030166105329
QIANFAN-53              
1 62254U 24232T   26258.55600131  .00000083  00000+0  10912-3 0  9992
2 62254  89.0162  13.4433 0016139 112.7465 247.5394 13.51026909105287
QIANFAN-54              
1 62255U 24232U   26258.59708938  .00000089  00000+0  11956-3 0  9996
2 62255  89.0153  13.0933 0003667 132.0390 228.1073 13.51028686136796
QIANFAN-55              
1 62785U 25016A   26258.62317808  .00000031  00000+0  30150-4 0  9996
2 62785  88.9669  74.4658 0015491 268.2083  91.7294 13.51024622 84571
QIANFAN-56              
1 62786U 25016B   26258.56541608  .00000036  00000+0  37468-4 0  9991
2 62786  88.9644  74.2344 0014092 271.3869  88.5668 13.51027841 84618
QIANFAN-57              
1 62787U 25016C   26258.59849926  .00000043  00000+0  47564-4 0  9995
2 62787  88.9674  74.4707 0002508  84.2842 275.8595 13.51027566 84588
QIANFAN-58              
1 62788U 25016D   26258.56969345  .00000033  00000+0  32814-4 0  9992
2 62788  88.9644  74.2211 0012004 262.6722  97.3065 13.51019950 84627
QIANFAN-59              
1 62789U 25016E   26258.59421477  .00000039  00000+0  41747-4 0  9996
2 62789  88.9667  74.3575 0012365 266.9652  93.0085 13.51024286 84629
QIANFAN-60              
1 62790U 25016F   26258.62714483  .00000040  00000+0  43947-4 0  9990
2 62790  88.9649  74.2728 0013921 262.8406  97.1163 13.51027714 84611
QIANFAN-61              
1 62791U 25016G   26258.58604283  .00000039  00000+0  41318-4 0  9990
2 62791  88.9715  74.6273 0012891 262.3768  97.5919 13.51027284 84622
QIANFAN-62              
1 62792U 25016H   26258.59025242  .00000039  00000+0  41699-4 0  9996
2 62792  88.9662  74.3467 0014230 262.6869  97.2664 13.51019701 84618
QIANFAN-63              
1 62793U 25016J   26258.61488010  .00000018  00000+0  91596-5 0  9995
2 62793  88.9669  74.3143 0014274 268.7088  91.2428 13.51022734 84651
QIANFAN-64              
1 62794U 25016K   26258.58195341  .00000037  00000+0  38120-4 0  9998
2 62794  88.9656  74.2547 0012220 260.6512  99.3257 13.51027295 84642
QIANFAN-65              
1 62795U 25016L   26258.57772490  .00000033  00000+0  32816-4 0  9996
2 62795  88.9653  74.2713 0012075 262.6135  97.3644 13.51023443 84623
QIANFAN-66              
1 62796U 25016M   26258.60653085  .00000031  00000+0  30137-4 0  9991
2 62796  88.9672  74.2928 0013182 257.6172 102.3504 13.51019569 84679
QIANFAN-67              
1 62797U 25016N   26258.61064630  .00000029  00000+0  25682-4 0  9991
2 62797  88.9662  74.2907 0013131 265.4816  94.4835 13.51028952 84643
QIANFAN-68              
1 62798U 25016P   26258.60249870  .00000032  00000+0  31323-4 0  9995
2 62798  88.9666  74.3466 0013215 263.0938  96.8710 13.51021695 84624
QIANFAN-69              
1 62799U 25016Q   26258.61886141  .00000026  00000+0  21942-4 0  9994
2 62799  88.9645  74.1555 0013951 264.6372  95.3187 13.51024059 84668
QIANFAN-70              
1 62800U 25016R   26258.56139018  .00000049  00000+0  57498-4 0  9995
2 62800  88.9665  74.3576 0013588 253.8771 106.0884 13.51023589 84613
QIANFAN-71              
1 62801U 25016S   26258.55723579  .00000041  00000+0  45691-4 0  9990
2 62801  88.9659  74.3208 0013851 268.8753  91.0811 13.51026625 84615
QIANFAN-72              
1 62802U 25016T   26258.57379102  .00000039  00000+0  41784-4 0  9998
2 62802  88.9650  74.3055 0017149 276.7885  83.1315 13.51020607 84609
QIANFAN-73              
1 63159U 25046A   26258.60075812  .00000022  00000+0  15958-4 0  9998
2 63159  88.9649 291.2782 0016401  49.4666 310.7911 13.51025032 84790
QIANFAN-74              
1 63160U 25046B   26258.58430939  .00000003  00000+0 -14385-4 0  9995
2 63160  88.9651 291.1695 0001824  96.7037 263.4322 13.51018709 84857
QIANFAN-75              
1 63161U 25046C   26258.57204039  .00000082  00000+0  10741-3 0  9992
2 63161  88.9651 291.4084 0017607  52.4636 307.8112 13.51030430 84724
QIANFAN-76              
1 63162U 25046D   26258.56796503  .00000151  00000+0  21502-3 0  9998
2 63162  88.9651 291.3888 0015112  53.8033 306.4513 13.51022101 84738
QIANFAN-77              
1 63163U 25046E   26258.61174300  .00000088  00000+0  53844-4 0  9994
2 63163  88.9654 287.1083 0012681 300.5168  59.4756 13.96246335 87082
QIANFAN-78              
1 63164U 25046F   26258.60955172  .00000070  00000+0  89836-4 0  9999
2 63164  88.9650 291.2461 0016570  54.9276 305.3426 13.51012032 84817
QIANFAN-79              
1 63165U 25046G   26258.56372369  .00000022  00000+0  15074-4 0  9996
2 63165  88.9653 291.3679 0016236  53.8210 306.4440 13.51021124 84751
QIANFAN-80              
1 63166U 25046H   26258.58021356  .00000058  00000+0  70325-4 0  9995
2 63166  88.9650 291.0655 0015254  58.2117 302.0518 13.51029535 84914
QIANFAN-81              
1 63167U 25046J   26258.55957646  .00000092  00000+0  12411-3 0  9992
2 63167  88.9650 291.1349 0016181  48.3628 311.8906 13.51020227 84865
QIANFAN-82              
1 63168U 25046K   26258.59257217  .00000062  00000+0  76995-4 0  9999
2 63168  88.9650 291.1758 0014239  55.1762 305.0726 13.51020337 84853
QIANFAN-83              
1 63169U 25046L   26258.58468192  .00000037  00000+0  31466-4 0  9991
2 63169  88.9652 290.4072 0014666  26.7593 333.4318 13.62064687 85285
QIANFAN-84              
1 63170U 25046M   26258.62136622 -.00000052  00000+0 -98872-4 0  9991
2 63170  88.9652 291.3053 0017100  50.7834 309.4832 13.51017431 84788
QIANFAN-85              
1 63171U 25046N   26258.61720941  .00000059  00000+0  72640-4 0  9994
2 63171  88.9650 291.1754 0014764  53.7739 306.4774 13.51020474 84854
QIANFAN-86              
1 63172U 25046P   26258.55136581  .00000067  00000+0  85487-4 0  9991
2 63172  88.9652 291.0510 0012759  58.6078 301.6320 13.51025415 84920
QIANFAN-87              
1 63173U 25046Q   26258.59663274  .00000013  00000+0  20755-5 0  9999
2 63173  88.9648 291.1476 0013141  53.8334 306.4030 13.51031979 84862
QIANFAN-88              
1 63174U 25046R   26258.61306898  .00000072  00000+0  92205-4 0  9992
2 63174  88.9651 291.1072 0013780  61.1805 299.0728 13.51029565 84895
QIANFAN-89              
1 63175U 25046S   26258.57603602  .00000070  00000+0  89276-4 0  9993
2 63175  88.9651 291.2999 0018057  51.0933 309.1825 13.51024859 84787
QIANFAN-90              
1 63176U 25046T   26258.60489845  .00000027  00000+0  22606-4 0  9995
2 63176  88.9651 291.2702 0014953  50.6819 309.5655 13.51019837 84807
QIANFAN-91              
1 66033U 25233A   26258.63732518  .00000084  00000+0  11115-3 0  9994
2 66033  89.0048  34.0431 0001828  92.1198 268.0162 13.51028953 45396
QIANFAN-92              
1 66034U 25233B   26258.64579309  .00000072  00000+0  92641-4 0  9994
2 66034  89.0032  33.9988 0001940  99.2246 260.9124 13.51026042 45398
QIANFAN-93              
1 66035U 25233C   26258.13553468  .00000063  00000+0  79339-4 0  9996
2 66035  89.0038  34.1253 0002315  98.7054 261.4360 13.51024160 45321
QIANFAN-94              
1 66036U 25233D   26258.64149397  .00000080  00000+0  10602-3 0  9991
2 66036  89.0055  33.9762 0001804  98.2207 261.9149 13.51027339 45444
QIANFAN-95              
1 66037U 25233E   26258.64974058  .00000073  00000+0  93702-4 0  9997
2 66037  89.0054  33.5169 0001690  93.1033 267.0312 13.51021814 45693
QIANFAN-96              
1 66038U 25233F   26258.37812146  .00000080  00000+0  10561-3 0  9996
2 66038  89.0049  34.0851 0001820  90.1672 269.9688 13.51028479 45357
QIANFAN-97              
1 66039U 25233G   26258.65793550  .00000078  00000+0  10156-3 0  9992
2 66039  89.0053  34.0441 0001842  92.6424 267.4939 13.51028517 45393
QIANFAN-98              
1 66040U 25233H   26257.85149551  .00000078  00000+0  10225-3 0  9998
2 66040  89.0040  33.8463 0001536 109.6018 250.5300 13.51028648 45435
QIANFAN-99              
1 66041U 25233J   26257.33712505  .00000085  00000+0  11364-3 0  9990
2 66041  89.0052  34.1814 0001458 100.8097 259.3219 13.51035031 45223
QIANFAN-100             
1 66042U 25233K   26258.14362573  .00000073  00000+0  94236-4 0  9994
2 66042  89.0064  34.0375 0001864  92.8935 267.2430 13.51019714 45380
QIANFAN-101             
1 66043U 25233L   26258.62176152  .00000325  00000+0  12772-3 0  9998
2 66043  89.0055  30.1893 0014378 199.5306 160.5339 14.26859565 47524
QIANFAN-102             
1 66044U 25233M   26257.34950523  .00000065  00000+0  82755-4 0  9999
2 66044  89.0049  34.0878 0001742  98.0452 262.0897 13.51027871 45271
QIANFAN-103             
1 66045U 25233N   26258.61270976  .00000070  00000+0  89826-4 0  9990
2 66045  89.0055  34.0584 0001879  92.6967 267.4399 13.51020962 45398
QIANFAN-104             
1 66046U 25233P   26258.61672529  .00000069  00000+0  88562-4 0  9995
2 66046  89.0059  33.9642 0001817 100.8406 259.2950 13.51026035 45443
QIANFAN-105             
1 66047U 25233Q   26258.10665010  .00000076  00000+0  99741-4 0  9996
2 66047  89.0072  33.8706 0001854  97.4807 262.6555 13.50988421 45484
QIANFAN-106             
1 66048U 25233R   26258.62085953  .00000070  00000+0  89762-4 0  9992
2 66048  89.0041  34.0034 0001570 106.9304 253.2020 13.51029618 45399
QIANFAN-107             
1 66049U 25233S   26258.33285569  .00000081  00000+0  10719-3 0  9993
2 66049  89.0056  34.0792 0001890  93.9170 266.2198 13.51028841 45362
QIANFAN-108             
1 66050U 25233T   26258.63327324  .00000082  00000+0  10896-3 0  9991
2 66050  89.0050  34.0303 0001622 106.1391 253.9939 13.51028640 45409
QIANFAN-109             
1 68636U 26075A   26258.57305381  .00000064  00000+0  80074-4 0  9996
2 68636  88.9872 311.7909 0002186  84.7107 275.4293 13.51020551 21993
QIANFAN-110             
1 68637U 26075B   26258.58124460  .00000065  00000+0  81913-4 0  9999
2 68637  88.9872 311.8117 0002270  98.3999 261.7410 13.51031587 21990
QIANFAN-111             
1 68638U 26075C   26258.56914491  .00000063  00000+0  79148-4 0  9994
2 68638  88.9871 311.7718 0002252  97.9560 262.1847 13.51021001 22018
QIANFAN-112             
1 68639U 26075D   26258.60608580  .00000048  00000+0  55613-4 0  9993
2 68639  88.9870 311.7760 0002409  86.5673 273.5753 13.51023379 22010
QIANFAN-113             
1 68640U 26075E   26258.57712463  .00000025  00000+0  20498-4 0  9995
2 68640  88.9875 311.7776 0002337  95.7943 264.3474 13.51019803 22011
QIANFAN-114             
1 68641U 26075F   26258.58537628  .00000064  00000+0  80573-4 0  9998
2 68641  88.9871 311.7917 0002251  97.6641 262.4766 13.51027590 22000
QIANFAN-115             
1 68642U 26075G   26258.61425021  .00000060  00000+0  74203-4 0  9995
2 68642  88.9871 311.7960 0002135  94.5072 265.6323 13.51024260 22009
QIANFAN-116             
1 68643U 26075H   26258.60188164  .00000051  00000+0  60930-4 0  9991
2 68643  88.9864 311.7509 0002427  89.8844 270.2586 13.51024901 22015
QIANFAN-117             
1 68644U 26075J   26258.58962528  .00000064  00000+0  80138-4 0  9999
2 68644  88.9868 311.7721 0002228  91.0294 269.1112 13.51022691 22015
QIANFAN-118             
1 68645U 26075K   26258.62246864  .00000066  00000+0  83636-4 0  9991
2 68645  88.9873 311.7811 0002328 100.3458 259.7956 13.51024482 22010
QIANFAN-119             
1 68646U 26075L   26257.93112836  .00000032  00000+0  30869-4 0  9999
2 68646  88.9874 311.8474 0002099  87.4040 272.7352 13.51020081 21920
QIANFAN-120             
1 68647U 26075M   26258.61007266  .00000054  00000+0  65575-4 0  9992
2 68647  88.9875 311.7645 0002020  86.7219 273.4163 13.51019996 22028
QIANFAN-121             
1 68648U 26075N   26258.56083130  .00000061  00000+0  76333-4 0  9993
2 68648  88.9872 311.7724 0002247  99.3054 260.8352 13.51023558 22010
QIANFAN-122             
1 68649U 26075P   26258.62662183  .00000072  00000+0  92916-4 0  9999
2 68649  88.9871 311.7628 0002230  88.8316 271.3091 13.51027091 22012
QIANFAN-123             
1 68650U 26075Q   26258.59358179  .00000030  00000+0  27056-4 0  9991
2 68650  88.9868 311.7532 0002234  83.0382 277.1023 13.51019910 21994
QIANFAN-124             
1 68651U 26075R   26258.61841591  .00000060  00000+0  74260-4 0  9992
2 68651  88.9871 311.7621 0002258  87.5483 272.5927 13.51026605 22021
QIANFAN-125             
1 68652U 26075S   26258.63077959  .00000068  00000+0  85966-4 0  9997
2 68652  88.9870 311.7628 0002275  98.9672 261.1737 13.51023686 22022
QIANFAN-126             
1 68653U 26075T   26258.56478269  .00000065  00000+0  81597-4 0  9992
2 68653  88.9875 311.7388 0002209  83.4600 276.6803 13.51029071 22038
QIANFAN-127             
1 69073U 26104A   26258.57023716  .00000040  00000+0  43929-4 0  9996
2 69073  88.9929 332.2563 0002545 105.1669 254.9764 13.51027449 17360
QIANFAN-128             
1 69074U 26104B   26258.57832942  .00000117  00000+0  16285-3 0  9995
2 69074  88.9906 332.2802 0002189 113.8770 246.2611 13.51023245 17348
QIANFAN-129             
1 69075U 26104C   26258.60294823  .00000116  00000+0  16131-3 0  9999
2 69075  88.9909 332.2118 0002298 109.5623 250.5777 13.51023093 17388
QIANFAN-130             
1 69076U 26104D   26258.56589484  .00000121  00000+0  16840-3 0  9998
2 69076  88.9911 332.2812 0002563  99.5818 260.5623 13.51021537 17340
QIANFAN-131             
1 69077U 26104E   26258.58665742  .00000099  00000+0  13537-3 0  9997
2 69077  88.9904 332.2400 0002045 107.2407 252.8968 13.51025349 17365
QIANFAN-132             
1 69078U 26104F   26258.57414481  .00000119  00000+0  16555-3 0  9995
2 69078  88.9907 332.2979 0002418 101.7482 258.3941 13.51021540 17334
QIANFAN-133             
1 69079U 26104G   26258.58250947  .00000111  00000+0  15370-3 0  9998
2 69079  88.9910 332.2470 0001937 112.7740 247.3616 13.51030389 17359
QIANFAN-134             
1 69080U 26104H   26258.61128057  .00000117  00000+0  16292-3 0  9990
2 69080  88.9914 332.2703 0002139 112.9514 247.1863 13.51028673 17355
QIANFAN-135             
1 69081U 26104J   26258.59060240  .00000101  00000+0  13840-3 0  9996
2 69081  88.9908 332.2634 0002373 114.2009 245.9390 13.51021827 17351
QIANFAN-136             
1 69082U 26104K   26258.59889725  .00000113  00000+0  15565-3 0  9993
2 69082  88.9910 332.2655 0001989 113.2159 246.9202 13.51031767 17352
QIANFAN-137             
1 69083U 26104L   26258.59478856  .00000106  00000+0  14552-3 0  9990
2 69083  88.9918 332.1422 0002277 101.7546 258.3861 13.51021544 17423
QIANFAN-138             
1 69084U 26104M   26258.61939782  .00000114  00000+0  15836-3 0  9999
2 69084  88.9903 332.2635 0002500 108.6449 251.4974 13.51021325 17350
QIANFAN-139             
1 69085U 26104N   26258.60726025  .00000125  00000+0  17503-3 0  9998
2 69085  88.9906 332.2465 0002502 103.1329 257.0101 13.51030068 17363
QIANFAN-140             
1 69086U 26104P   26258.61530108  .00000121  00000+0  16941-3 0  9996
2 69086  88.9906 332.2492 0002468 113.3256 246.8155 13.51022426 17361
QIANFAN-141             
1 69087U 26104Q   26258.62359114  .00000024  00000+0  18709-4 0  9991
2 69087  88.9903 332.2127 0002255 113.6441 246.4947 13.51020008 17388
QIANFAN-142             
1 69088U 26104R   26258.63173541  .00000115  00000+0  15888-3 0  9996
2 69088  88.9902 332.2113 0002452 109.2303 250.9114 13.51030971 17386
QIANFAN-143             
1 69089U 26104S   26258.62774903  .00000101  00000+0  13803-3 0  9995
2 69089  88.9913 332.2179 0001982 106.2564 253.8806 13.51026889 17387
QIANFAN-144             
1 69090U 26104T   26258.56178299  .00000109  00000+0  15017-3 0  9993
2 69090  88.9911 332.2429 0002530 106.0376 254.1054 13.51020374 17364
QIANFAN-145             
1 69104U 26108A   26258.56609982  .00000101  00000+0  13801-3 0  9992
2 69104  89.0190  13.0233 0001613 100.7160 259.4173 13.51033553 16644
QIANFAN-146             
1 69105U 26108B   26258.59910443  .00000105  00000+0  14394-3 0  9995
2 69105  89.0192  12.8571 0001980  99.5120 260.6255 13.51039130 16740
QIANFAN-147             
1 69106U 26108C   26258.57451281  .00000110  00000+0  15250-3 0  9992
2 69106  89.0192  13.0268 0002081 103.5477 256.5907 13.51024172 16637
QIANFAN-148             
1 69107U 26108D   26258.56210076  .00000104  00000+0  14241-3 0  9999
2 69107  89.0185  13.0183 0001962 109.5031 250.6333 13.51023697 16634
QIANFAN-149             
1 69108U 26108E   26258.57026241  .00000112  00000+0  15425-3 0  9994
2 69108  89.0186  13.0388 0002255 109.9627 250.1768 13.51023219 16631
QIANFAN-150             
1 69109U 26108F   26258.57846250  .00000110  00000+0  15220-3 0  9996
2 69109  89.0191  12.9910 0002273 108.8238 251.3159 13.51023747 16658
QIANFAN-151             
1 69110U 26108G   26258.60744803  .00000115  00000+0  15896-3 0  9997
2 69110  89.0190  13.0118 0001818 102.1747 257.9608 13.51026877 16644
QIANFAN-152             
1 69111U 26108H   26258.58668160  .00000104  00000+0  14299-3 0  9990
2 69111  89.0186  13.0058 0002262  98.5266 261.6142 13.51028116 16655
QIANFAN-153             
1 69112U 26108J   26258.58256732  .00000107  00000+0  14768-3 0  9993
2 69112  89.0183  12.9828 0002221 104.7243 255.4155 13.51024068 16653
QIANFAN-154             
1 69113U 26108K   26258.59093751  .00000098  00000+0  13391-3 0  9995
2 69113  89.0193  13.0303 0002120 106.5021 253.6363 13.51026038 16646
QIANFAN-155             
1 69114U 26108L   26258.59492783  .00000098  00000+0  13345-3 0  9993
2 69114  89.0190  12.9946 0002252 106.4780 253.6619 13.51022903 16654
QIANFAN-156             
1 69115U 26108M   26258.61546965  .00000109  00000+0  15024-3 0  9998
2 69115  89.0205  12.9932 0001878 107.4287 252.7070 13.51022862 16670
QIANFAN-157             
1 69116U 26108N   26258.60331373  .00000106  00000+0  14529-3 0  9999
2 69116  89.0187  12.9186 0002036 111.5527 248.5842 13.51027520 16701
QIANFAN-158             
1 69117U 26108P   26258.61956359  .00000103  00000+0  14108-3 0  9998
2 69117  89.0188  12.9581 0001844 105.1842 254.9513 13.51023113 16684
QIANFAN-159             
1 69118U 26108Q   26258.61138656  .00000115  00000+0  16021-3 0  9990
2 69118  89.0180  12.9657 0001889 103.1574 256.9788 13.51022842 16673
QIANFAN-160             
1 69119U 26108R   26258.55391788  .00000096  00000+0  12951-3 0  9997
2 69119  89.0195  13.0081 0002370 107.2893 252.8518 13.51022984 16659
QIANFAN-161             
1 69120U 26108S   26257.44601178 -.01984377  00000+0 -34398+1 0  9995
2 69120  89.0198  13.0345 0004641 168.6165 191.5091 13.47836241 16551
QIANFAN-162             
1 69121U 26108T   26258.62373025  .00000097  00000+0  13122-3 0  9994
2 69121  89.0191  12.9433 0002157  99.8926 260.2469 13.51022239 16687
QIANFAN-163             
1 69325U 26121A   26258.06993063 -.00000002  00000+0 -22372-4 0  9999
2 69325  89.0108 291.5685 0002280 122.5520 237.5852 13.51022097 14308
QIANFAN-164             
1 69326U 26121B   26258.55545472  .00000028  00000+0  24409-4 0  9990
2 69326  89.0105 291.5105 0001971 111.5467 248.5894 13.51021290 14376
QIANFAN-165             
1 69382U 26124A   26258.56514449  .00000132  00000+0  18530-3 0  9999
2 69382  89.0072 352.5183 0001806 120.1604 239.9726 13.51021323 14242
QIANFAN-166             
1 69383U 26124B   26258.56929478  .00000131  00000+0  18496-3 0  9992
2 69383  89.0090 352.5279 0001832 102.9058 257.2298 13.51021871 14244
QIANFAN-167             
1 69384U 26124C   26258.57331798  .00000132  00000+0  18579-3 0  9999
2 69384  89.0064 352.5343 0002192 107.9238 252.2153 13.51030900 14230
QIANFAN-168             
1 69385U 26124D   26258.57734150  .00000127  00000+0  17798-3 0  9995
2 69385  89.0060 352.5140 0001626 105.3039 254.8292 13.51019515 14246
QIANFAN-169             
1 69386U 26124E   26258.58161007  .00000131  00000+0  18389-3 0  9994
2 69386  89.0059 352.5134 0001871  99.1809 260.9554 13.51022772 14243
QIANFAN-170             
1 69387U 26124F   26258.58568430  .00000135  00000+0  19100-3 0  9992
2 69387  89.0077 352.4845 0001832  96.8994 263.2366 13.51025226 14264
QIANFAN-171             
1 69388U 26124G   26258.59399263  .00000135  00000+0  19092-3 0  9990
2 69388  89.0091 352.4955 0002119 103.9492 256.1895 13.51018247 14268
QIANFAN-172             
1 69389U 26124H   26258.58980018  .00000138  00000+0  19585-3 0  9994
2 69389  89.0074 352.4866 0001736 115.9924 244.1406 13.51028820 14261
QIANFAN-173             
1 69390U 26124J   26258.59789802  .00000133  00000+0  18773-3 0  9998
2 69390  89.0063 352.4827 0001637 100.5310 259.6026 13.51021812 14260
QIANFAN-174             
1 69391U 26124K   26258.61031764  .00000133  00000+0  18692-3 0  9999
2 69391  89.0044 352.4398 0002192 109.8630 250.2758 13.51029678 14275
QIANFAN-175             
1 69392U 26124L   26258.61452764  .00000126  00000+0  17639-3 0  9999
2 69392  89.0096 352.4821 0001830 101.2149 258.9208 13.51019701 14274
QIANFAN-176             
1 69393U 26124M   26258.61862507  .00000132  00000+0  18622-3 0  9990
2 69393  89.0057 352.4632 0001846 101.4817 258.6542 13.51020496 14263
QIANFAN-177             
1 69394U 26124N   26258.55280385  .00000134  00000+0  18855-3 0  9992
2 69394  89.0068 352.4579 0002085 109.7447 250.3929 13.51029539 14278
QIANFAN-178             
1 69395U 26124P   26258.62267884  .00000129  00000+0  18076-3 0  9999
2 69395  89.0013 352.4091 0001861 100.7075 259.4286 13.51025468 14292
QIANFAN-179             
1 69396U 26124Q   26258.55692399  .00000131  00000+0  18390-3 0  9997
2 69396  89.0045 352.4324 0001846 100.1120 260.0239 13.51029115 14283
QIANFAN-180             
1 69397U 26124R   26258.56102346  .00000129  00000+0  18100-3 0  9993
2 69397  89.0052 352.4527 0001860  95.8959 264.2404 13.51021420 14273
QIANFAN-181             
1 69398U 26124S   26258.60216057  .00000136  00000+0  19239-3 0  9996
2 69398  89.0074 352.5410 0002154 106.4017 253.7372 13.51023155 14231
QIANFAN-182             
1 69399U 26124T   26258.60622201  .00000127  00000+0  17754-3 0  9999
2 69399  89.0049 352.5122 0001834 103.0760 257.0596 13.51027675 14232
QIANFAN-183             
1 69401U 26125A   26258.56678072 -.00000002  00000+0 -22007-4 0  9998
2 69401  88.9832 270.8101 0001972 101.9184 258.2188 13.51027429 14140
QIANFAN-184             
1 69402U 26125B   26258.57503006  .00000022  00000+0  15869-4 0  9992
2 69402  88.9882 270.8342 0001936  97.7082 262.4289 13.51028622 14147
QIANFAN-185             
1 69403U 26125C   26258.59977446  .00000012  00000+0 -67190-8 0  9996
2 69403  88.9897 270.7709 0001860  99.4008 260.7353 13.51017638 14185
QIANFAN-186             
1 69404U 26125D   26258.57092088  .00000000  00000+0 -19018-4 0  9994
2 69404  88.9885 270.8344 0001991  96.4441 263.6937 13.51008209 14142
QIANFAN-187             
1 69405U 26125E   26258.57909804  .00000007  00000+0 -81840-5 0  9998
2 69405  88.9885 270.8163 0002119 100.5309 259.6081 13.51007256 14152
QIANFAN-188             
1 69406U 26125F   26258.58729274  .00000016  00000+0  57244-5 0  9991
2 69406  88.9883 270.8154 0001990 103.2848 256.8526 13.51029268 14155
QIANFAN-189             
1 69407U 26125G   26258.59545461  .00000014  00000+0  37509-5 0  9997
2 69407  88.9866 270.8100 0002002 108.7763 251.3605 13.51028482 14143
QIANFAN-190             
1 69408U 26125H   26258.58312744  .00000018  00000+0  95749-5 0  9997
2 69408  88.9867 270.8090 0001880  96.3774 263.7591 13.51033257 14158
QIANFAN-191             
1 69409U 26125J   26258.60788094  .00000014  00000+0  30109-5 0  9991
2 69409  88.9881 270.8179 0001952 102.7508 257.3862 13.51032897 14159
QIANFAN-192             
1 69410U 26125K   26257.92476578  .00000024  00000+0  18278-4 0  9991
2 69410  88.9888 270.8878 0002040 106.5198 253.6177 13.51030140 14067
QIANFAN-193             
1 69411U 26125L   26258.61617933  .00000017  00000+0  77884-5 0  9992
2 69411  88.9866 270.7944 0001858 103.0634 257.0724 13.51027403 14165
QIANFAN-194             
1 69412U 26125M   26258.61204700  .00000009  00000+0 -43522-5 0  9991
2 69412  88.9898 270.8081 0001985 102.6242 257.5131 13.51026053 14151
QIANFAN-195             
1 69413U 26125N   26258.62027691  .00000042  00000+0  46803-4 0  9995
2 69413  88.9900 270.7922 0001947  88.8539 271.2836 13.51011686 14174
QIANFAN-196             
1 69414U 26125P   26258.55439797  .00000012  00000+0 -12651-6 0  9996
2 69414  88.9905 270.8026 0001854  92.6568 267.4796 13.51035264 14167
QIANFAN-197             
1 69415U 26125Q   26258.56270865  .00000002  00000+0 -15819-4 0  9993
2 69415  88.9879 270.7743 0001963 100.5048 259.6324 13.51023704 14162
QIANFAN-198             
1 69416U 26125R   26258.55033276  .00000022  00000+0  15404-4 0  9997
2 69416  88.9873 270.7885 0001981 103.3175 256.8198 13.51028105 14164
QIANFAN-199             
1 69417U 26125S   26258.55860373  .00000012  00000+0 -66117-6 0  9993
2 69417  88.9877 270.7377 0002179 102.0213 258.1183 13.51025697 14199
QIANFAN-200             
1 69418U 26125T   26258.60380964  .00000009  00000+0 -42575-5 0  9990
2 69418  88.9884 270.8183 0001972 106.1339 254.0030 13.51026177 14154
QIANFAN-201             
1 69800U 26153A   26258.51511636 -.01801807  00000+0 -14168+1 0  9997
2 69800  88.9973 352.0110 0005957 100.3899 259.7949 13.96125862 10354
QIANFAN-202             
1 69801U 26153B   26258.53900996 -.01903091  00000+0 -12836+1 0  9999
2 69801  88.9973 351.9772 0008922 307.2976  52.7392 14.04337836 10366
QIANFAN-203             
1 69802U 26153C   26258.53930890 -.01760653  00000+0 -12124+1 0  9991
2 69802  88.9974 352.0148 0006927 298.3943  61.6539 14.03531563 10357
QIANFAN-204             
1 69803U 26153D   26258.49320469 -.01870780  00000+0 -12812+1 0  9999
2 69803  88.9971 352.0085 0010718 332.7401  27.3216 14.03410456 10358
QIANFAN-205             
1 69804U 26153E   26258.51572125 -.01858797  00000+0 -13356+1 0  9999
2 69804  88.9973 352.0293 0006828 356.2267   3.8859 14.00710379 10345
QIANFAN-206             
1 69805U 26153F   26258.53643801 -.01858802  00000+0 -12246+1 0  9996
2 69805  88.9976 351.9773 0008427 335.9653  24.1135 14.05558957 10373
QIANFAN-207             
1 69806U 26153G   26258.59572092  .00000054  00000+0  24744-4 0  9991
2 69806  88.9978 352.0042 0007182 359.8672   0.2507 14.05531111 10360
QIANFAN-208             
1 69807U 26153H   26258.50602357 -.01876821  00000+0 -13858+1 0  9997
2 69807  88.9966 352.0093 0010255  47.9477 312.2572 13.99189734 10367
QIANFAN-209             
1 69808U 26153J   26258.54419874 -.01908624  00000+0 -13684+1 0  9996
2 69808  88.9974 352.0158 0005237 287.0966  72.9640 14.00939879 10354
QIANFAN-210             
1 69809U 26153K   26258.51753572 -.01851989  00000+0 -13122+1 0  9998
2 69809  88.9972 352.0123 0009533 342.5863  17.4989 14.01472074 10351
QIANFAN-211             
1 69810U 26153L   26258.62294583  .00000246  00000+0  12098-3 0  9997
2 69810  88.9981 351.9715 0007280   2.4692 357.6530 14.14538688 10389
QIANFAN-212             
1 69811U 26153M   26258.51819548 -.01805887  00000+0 -12131+1 0  9992
2 69811  88.9973 351.9925 0008659 329.4291  30.6385 14.05019052 10365
QIANFAN-213             
1 69812U 26153N   26258.53385630 -.01879972  00000+0 -12973+1 0  9995
2 69812  88.9972 351.9948 0005748 298.1622  61.8978 14.03024534 10369
QIANFAN-214             
1 69813U 26153P   26258.50105971 -.01857418  00000+0 -12007+1 0  9990
2 69813  88.9973 351.9526 0008452 350.4681   9.6340 14.06608204 10385
QIANFAN-215             
1 69814U 26153Q   26258.61461920  .00000081  00000+0  33561-4 0  9997
2 69814  88.9977 351.8939 0007440  14.2167 345.9229 14.16491551 10420
QIANFAN-216             
1 69815U 26153R   26258.51660601 -.01864181  00000+0 -11628+1 0  9992
2 69815  88.9974 351.9365 0010184  32.3447 327.8359 14.08588517 10392
QIANFAN-217             
1 69816U 26153S   26258.53012737 -.01774191  00000+0 -93270+0 0  9999
2 69816  88.9973 351.8625 0009739 337.9223  22.1546 14.18346369 10436
QIANFAN-218             
1 69817U 26153T   26258.52777937 -.01850320  00000+0 -96876+0 0  9993
2 69817  88.9974 351.8646 0006482 288.7830  71.2656 14.18093547 10434
QIANFAN-219             
1 69848U 26155A   26258.51186323 -.01784028  00000+0 -28271+1 0  9997
2 69848  89.0076  54.2023 0035525  29.6105 330.7049 13.53554218 10066
QIANFAN-220             
1 69849U 26155B   26258.53006351 -.01898052  00000+0 -29720+1 0  9995
2 69849  89.0083  54.2289 0039617  24.0408 336.2584 13.54523280 10050
QIANFAN-221             
1 69850U 26155C   26258.46559196  .00000035  00000+0  21154-4 0  9999
2 69850  89.0081  54.0160 0031372  30.8294 329.4708 13.80939578 10168
QIANFAN-222             
1 69851U 26155D   26258.47595291 -.01883279  00000+0 -30218+1 0  9996
2 69851  89.0078  54.2530 0037918  29.2073 331.1188 13.52965294 10038
QIANFAN-223             
1 69852U 26155E   26258.47838729 -.01858462  00000+0 -32878+1 0  9993
2 69852  89.0079  54.2550 0032287  20.2516 339.9905 13.46734449 10031
QIANFAN-224             
1 69853U 26155F   26258.48457292  .00000013  00000+0  64272-6 0  9994
2 69853  89.0064  54.2057 0035917  28.3766 331.9335 13.57098092 10057
QIANFAN-225             
1 69854U 26155G   26258.48140456 -.01832172  00000+0 -29447+1 0  9997
2 69854  89.0074  54.2508 0038185  25.7006 334.6033 13.52732998 10036
QIANFAN-226             
1 69855U 26155H   26258.49419617 -.01773105  00000+0 -28000+1 0  9991
2 69855  89.0073  54.2343 0035672  31.4557 328.8719 13.53748116 10043
QIANFAN-227             
1 69856U 26155J   26258.54343480 -.01831604  00000+0 -31508+1 0  9998
2 69856  89.0074  54.2255 0032897  26.2307 334.0500 13.48464469 10056
QIANFAN-228             
1 69857U 26155K   26258.59652503  .00000010  00000+0 -24481-5 0  9997
2 69857  89.0082  54.2164 0036212  25.5128 334.7804 13.57843842 10064
QIANFAN-229             
1 69858U 26155L   26258.50029639 -.01802122  00000+0 -29465+1 0  9995
2 69858  89.0080  54.2023 0036438  28.5046 331.8088 13.51594484 10060
QIANFAN-230             
1 69859U 26155M   26258.53331121 -.01805227  00000+0 -29807+1 0  9990
2 69859  89.0077  54.2406 0036359  23.9739 336.3095 13.50978324 10046
QIANFAN-231             
1 69860U 26155N   26258.40614131 -.01779577  00000+0 -28025+1 0  9992
2 69860  89.0078  54.2069 0038266  28.6284 331.6959 13.53898456 10058
QIANFAN-232             
1 69861U 26155P   26258.54564564 -.01880432  00000+0 -32275+1 0  9997
2 69861  89.0070  54.1877 0023904  22.7035 337.5167 13.48827617 10072
QIANFAN-233             
1 69862U 26155Q   26258.60463552 -.00000118  00000+0 -17964-3 0  9995
2 69862  89.0081  54.1808 0036891  23.2797 337.0019 13.57848002 10082
QIANFAN-234             
1 69863U 26155R   26258.47780505 -.01902691  00000+0 -27207+1 0  9997
2 69863  89.0073  54.1445 0030179  19.5677 340.6630 13.60382062 10092
QIANFAN-235             
1 69864U 26155S   26258.51591373 -.01840638  00000+0 -16773+1 0  9994
2 69864  89.0079  53.9711 0030115  22.4472 337.8010 13.87488389 10197
QIANFAN-236             
1 69865U 26155T   26258.55805377  .00000032  00000+0  27110-4 0  9995
2 69865  89.0086  54.2117 0035020  24.2358 336.0435 13.57842897 10066
QIANFAN-237             
1 69866U 26155U   26258.54612780 -.01800768  00000+0 -28363+1 0  9993
2 69866  89.0082  54.1742 0041344  24.6670 335.6448 13.53889640 10076
QIANFAN-238             
1 69867U 26155V   26258.62603128  .00000026  00000+0  18422-4 0  9994
2 69867  89.0087  54.1844 0025894  20.1563 340.0609 13.57852735 10088
