IRIDIUM 106             
1 41917U 17003A   26253.77122627  .00000014  00000+0 -21095-5 0  9992
2 41917  86.3933  52.7450 0001918  82.5780 277.5633 14.34217242505472
IRIDIUM 103             
1 41918U 17003B   26253.82831025  .00000061  00000+0  14619-4 0  9992
2 41918  86.3934  52.6204 0002330  90.6779 269.4684 14.34217110505501
IRIDIUM 109             
1 41919U 17003C   26253.83465214  .00000028  00000+0  29295-5 0  9997
2 41919  86.3935  52.6786 0002187  90.8969 269.2478 14.34218201505478
IRIDIUM 102             
1 41920U 17003D   26253.80294338  .00000028  00000+0  30065-5 0  9990
2 41920  86.3933  52.6135 0002087  90.5103 269.6332 14.34217622505550
IRIDIUM 105             
1 41921U 17003E   26253.62200470  .00000162  00000+0  50668-4 0  9994
2 41921  86.4002  21.1388 0002286  99.2323 260.9131 14.34218632507387
IRIDIUM 104             
1 41922U 17003F   26253.81564650  .00000154  00000+0  47982-4 0  9995
2 41922  86.3935  52.6521 0002420  95.8615 264.2857 14.34217664505548
IRIDIUM 114             
1 41923U 17003G   26253.82197028  .00000031  00000+0  39683-5 0  9992
2 41923  86.3934  52.6324 0002254  91.1783 268.9671 14.34217630505525
IRIDIUM 108             
1 41924U 17003H   26253.78049010  .00000053  00000+0  11789-4 0  9995
2 41924  86.3996  20.9574 0002125  95.2733 264.8705 14.34217193507378
IRIDIUM 112             
1 41925U 17003J   26253.80928821  .00000021  00000+0  39014-6 0  9993
2 41925  86.3930  52.4757 0002174  92.8304 267.3140 14.34217141505542
IRIDIUM 111             
1 41926U 17003K   26253.79659840 -.00000041  00000+0 -21694-4 0  9991
2 41926  86.3931  52.5540 0002052  89.8555 270.2876 14.34216750505526
IRIDIUM 113             
1 42803U 17039A   26253.63702747  .00000052  00000+0  11339-4 0  9998
2 42803  86.3929 286.4633 0002335  94.2691 265.8772 14.34217948483434
IRIDIUM 123             
1 42804U 17039B   26253.67850455  .00000015  00000+0 -17758-5 0  9995
2 42804  86.3985 317.9214 0002207  90.8520 269.2928 14.34217058482200
IRIDIUM 120             
1 42805U 17039C   26253.83999017  .00000041  00000+0  75290-5 0  9995
2 42805  86.3918 286.1496 0002168  89.9401 270.2044 14.34217748483454
IRIDIUM 115             
1 42806U 17039D   26253.81149432  .00000211  00000+0  56772-4 0  9994
2 42806  86.4455 286.3019 0002403  87.4901 272.6575 14.43280344486613
IRIDIUM 118             
1 42807U 17039E   26253.64044813  .00000146  00000+0  45219-4 0  9994
2 42807  86.3989 317.9353 0002245  95.8576 264.2876 14.34217063482190
IRIDIUM 117             
1 42808U 17039F   26253.65947589  .00000160  00000+0  49993-4 0  9997
2 42808  86.3988 317.8841 0002286  92.8329 267.3128 14.34217778482220
IRIDIUM 126             
1 42809U 17039G   26253.61507808  .00000157  00000+0  48871-4 0  9990
2 42809  86.3990 317.9553 0002377  94.6832 265.4635 14.34217432482190
IRIDIUM 124             
1 42810U 17039H   26253.53731293  .00000184  00000+0  48572-4 0  9998
2 42810  86.4428 254.6565 0002414  88.7627 271.3850 14.43278807487426
IRIDIUM 128             
1 42811U 17039J   26253.67558528  .00000079  00000+0  21058-4 0  9995
2 42811  86.4026 349.4246 0002137  93.0019 267.1421 14.34217373482238
IRIDIUM 121             
1 42812U 17039K   26253.63410448  .00000150  00000+0  46662-4 0  9998
2 42812  86.3990 317.9757 0002212  94.3604 265.7844 14.34217461482076
IRIDIUM 133             
1 42955U 17061A   26253.63753014  .00000119  00000+0  35407-4 0  9990
2 42955  86.4029 349.5603 0002191  93.6465 266.4981 14.34217776467029
IRIDIUM 100             
1 42956U 17061B   26253.63118666  .00000100  00000+0  28784-4 0  9999
2 42956  86.4027 349.4797 0002188  95.0084 265.1361 14.34217650467029
IRIDIUM 122             
1 42957U 17061C   26253.66924024  .00000167  00000+0  52477-4 0  9995
2 42957  86.4028 349.4643 0002253  93.7986 266.3468 14.34217256467034
IRIDIUM 129             
1 42958U 17061D   26253.62484481  .00000154  00000+0  47907-4 0  9998
2 42958  86.4030 349.5507 0002309 100.7105 259.4351 14.34217238467047
IRIDIUM 119             
1 42959U 17061E   26253.66290203  .00000167  00000+0  52540-4 0  9993
2 42959  86.4028 349.5309 0002284  94.4818 265.6639 14.34217225467063
IRIDIUM 107             
1 42960U 17061F   26253.68192898  .00000157  00000+0  48944-4 0  9990
2 42960  86.4029 349.5447 0002307  88.9775 271.1686 14.34217760467074
IRIDIUM 132             
1 42961U 17061G   26253.68827149  .00000126  00000+0  37796-4 0  9994
2 42961  86.4028 349.5209 0002220  95.0359 265.1090 14.34217744467075
IRIDIUM 136             
1 42962U 17061H   26253.78975235  .00000121  00000+0  36227-4 0  9999
2 42962  86.4029 349.4857 0002164  94.6985 265.4457 14.34217816467106
IRIDIUM 139             
1 42963U 17061J   26253.65655809  .00000155  00000+0  48124-4 0  9994
2 42963  86.4030 349.6046 0002192  93.3152 266.8295 14.34217564467097
IRIDIUM 125             
1 42964U 17061K   26253.78341219  .00000143  00000+0  43889-4 0  9996
2 42964  86.4032 349.6143 0002688  91.0954 269.0549 14.34217652467122
IRIDIUM 135             
1 43070U 17083A   26253.82730517  .00000141  00000+0  43390-4 0  9992
2 43070  86.3919 286.2155 0002234  91.8578 268.2873 14.34217664456425
IRIDIUM 138             
1 43071U 17083B   26253.64336980  .00000056  00000+0  12775-4 0  9997
2 43071  86.3936 286.0001 0002390  93.4393 266.7076 14.34218079456383
IRIDIUM 116             
1 43072U 17083C   26253.61165671  .00000111  00000+0  32437-4 0  9991
2 43072  86.3923 286.2900 0002029  86.9393 273.2034 14.34217892456419
IRIDIUM 130             
1 43073U 17083D   26253.57994426  .00000072  00000+0  18591-4 0  9996
2 43073  86.3933 286.5871 0002221  87.2093 272.9357 14.34217983456354
IRIDIUM 151             
1 43074U 17083E   26253.62434172  .00000005  00000+0 -53372-5 0  9994
2 43074  86.3923 286.3439 0002067  91.3302 268.8131 14.34217593456383
IRIDIUM 134             
1 43075U 17083F   26253.59262938  .00000037  00000+0  60998-5 0  9996
2 43075  86.3926 286.3670 0002255  90.7074 269.4380 14.34217750456346
IRIDIUM 137             
1 43076U 17083G   26253.60531348  .00000017  00000+0 -87210-6 0  9999
2 43076  86.3927 286.4560 0001781  94.9247 265.2152 14.34217646456411
IRIDIUM 141             
1 43077U 17083H   26253.52920238  .00000138  00000+0  42256-4 0  9993
2 43077  86.3924 286.3137 0002304  93.4563 266.6897 14.34218692456407
IRIDIUM 153             
1 43078U 17083J   26253.62091573  .00000047  00000+0  95602-5 0  9999
2 43078  86.3908 254.7363 0002448  90.1894 269.9582 14.34217453457525
IRIDIUM 131             
1 43079U 17083K   26253.58628579  .00000154  00000+0  47808-4 0  9990
2 43079  86.3929 286.4816 0002260  93.9553 266.1901 14.34218786456342
IRIDIUM 144             
1 43249U 18030A   26253.48772470  .00000095  00000+0  26791-4 0  9993
2 43249  86.3908 254.7190 0002195  87.9731 272.1716 14.34217467442362
IRIDIUM 149             
1 43250U 18030B   26253.84290874  .00000048  00000+0  10129-4 0  9994
2 43250  86.3906 254.5365 0002348  90.4640 269.6825 14.34217707442439
IRIDIUM 157             
1 43251U 18030C   26253.58286047 -.00000126  00000+0 -51962-4 0  9992
2 43251  86.3910 254.7004 0002203  89.2752 270.8696 14.34216442442375
IRIDIUM 140             
1 43252U 18030D   26253.53211911  .00000106  00000+0  30806-4 0  9996
2 43252  86.3907 254.7340 0002325  89.0463 271.0999 14.34218106442421
IRIDIUM 145             
1 43253U 18030E   26253.79850963  .00000055  00000+0  12652-4 0  9993
2 43253  86.3907 254.5945 0002098  84.5450 275.5985 14.34217570442398
IRIDIUM 146             
1 43254U 18030F   26253.84924809  .00000037  00000+0  61973-5 0  9992
2 43254  86.3907 254.5852 0002204  88.1870 271.9578 14.34217222442416
IRIDIUM 148             
1 43255U 18030G   26253.53846345  .00000076  00000+0  20150-4 0  9991
2 43255  86.3909 254.7597 0002233  91.6948 268.4504 14.34217809442404
IRIDIUM 142             
1 43256U 18030H   26253.57651743  .00000019  00000+0 -18371-6 0  9994
2 43256  86.3907 254.6298 0002032  87.7704 272.3725 14.34217341442379
IRIDIUM 150             
1 43257U 18030J   26253.61457399  .00000008  00000+0 -42323-5 0  9992
2 43257  86.3910 254.7330 0002171  87.9321 272.2123 14.34217479442400
IRIDIUM 143             
1 43258U 18030K   26253.52577550  .00000028  00000+0  27867-5 0  9992
2 43258  86.3912 254.8660 0002243  87.1745 272.9707 14.34217615442320
IRIDIUM 161             
1 43478U 18047C   26253.51525355  .00000037  00000+0  50996-5 0  9998
2 43478  86.4453  52.7610 0002242  95.8848 264.2608 14.43280405437442
IRIDIUM 152             
1 43479U 18047D   26253.84734112  .00000025  00000+0  17797-5 0  9997
2 43479  86.3929  52.4841 0002182  91.6184 268.5261 14.34217752434762
IRIDIUM 147             
1 43480U 18047E   26253.78391286  .00000027  00000+0  26108-5 0  9991
2 43480  86.3931  52.5173 0002043  88.8912 271.2518 14.34217808434756
IRIDIUM 110             
1 43481U 18047F   26253.79025889  .00000036  00000+0  56932-5 0  9994
2 43481  86.3934  52.6088 0002282  97.1028 263.0427 14.34217331434740
IRIDIUM 162             
1 43482U 18047G   26253.50894411  .00000251  00000+0  68693-4 0  9994
2 43482  86.4452  52.6536 0002159  89.7091 270.4357 14.43286840437439
IRIDIUM 160             
1 43569U 18061A   26253.45701601  .00000084  00000+0  23029-4 0  9996
2 43569  86.3999  21.1326 0002140  94.6951 265.4489 14.34217145425594
IRIDIUM 166             
1 43570U 18061B   26253.76145919  .00000153  00000+0  47477-4 0  9996
2 43570  86.3997  20.9548 0002063  92.9190 267.2242 14.34217169425668
IRIDIUM 158             
1 43571U 18061C   26253.38090736  .00000149  00000+0  46315-4 0  9996
2 43571  86.3997  21.1237 0002228  92.9820 267.1631 14.34217638425572
IRIDIUM 165             
1 43572U 18061D   26253.75512002  .00000128  00000+0  38708-4 0  9997
2 43572  86.4000  21.0154 0002087  91.5441 268.5994 14.34217637425658
IRIDIUM 155             
1 43573U 18061E   26253.78683274  .00000073  00000+0  18851-4 0  9997
2 43573  86.3996  20.8670 0002159  91.4331 268.7112 14.34217554425628
IRIDIUM 154             
1 43574U 18061F   26253.76780469  .00000126  00000+0  37909-4 0  9994
2 43574  86.4000  21.0128 0002061  92.0993 268.0438 14.34217766425674
IRIDIUM 163             
1 43575U 18061G   26253.74877731  .00000165  00000+0  51766-4 0  9992
2 43575  86.3997  20.9333 0002191  94.4142 265.7304 14.34217649425644
IRIDIUM 156             
1 43576U 18061H   26253.79316939  .00000126  00000+0  38048-4 0  9991
2 43576  86.4000  20.9221 0002186  91.3875 268.7572 14.34217187425647
IRIDIUM 164             
1 43577U 18061J   26253.77414756  .00000160  00000+0  50060-4 0  9992
2 43577  86.3998  20.9717 0002009  92.7656 267.3770 14.34217892425681
IRIDIUM 159             
1 43578U 18061K   26253.39359137  .00000106  00000+0  30900-4 0  9993
2 43578  86.3996  21.0659 0002201  95.0128 265.1319 14.34217768425598
IRIDIUM 180             
1 43922U 19002A   26253.74193279  .00000156  00000+0  48582-4 0  9994
2 43922  86.3989 317.8549 0002231  95.4738 264.6712 14.34218510401255
IRIDIUM 176             
1 43923U 19002B   26253.73032191  .00000450  00000+0  67410-4 0  9997
2 43923  86.6109 317.7914 0002401  94.2244 265.9248 14.72256686411837
IRIDIUM 168             
1 43924U 19002C   26253.59604597  .00000153  00000+0  47452-4 0  9991
2 43924  86.3990 317.9955 0002243  95.9173 264.2278 14.34217048401216
IRIDIUM 173             
1 43925U 19002D   26253.79267065  .00000151  00000+0  46863-4 0  9992
2 43925  86.3987 317.7985 0002288  94.2184 265.9273 14.34217638401226
IRIDIUM 169             
1 43926U 19002E   26253.66673277  .00000195  00000+0  57340-4 0  9995
2 43926  86.4284 349.4721 0002488  86.1925 273.9557 14.38609285402517
IRIDIUM 172             
1 43927U 19002F   26253.78633036  .00000155  00000+0  48194-4 0  9991
2 43927  86.3987 317.8096 0002277  95.5172 264.6283 14.34217497401232
IRIDIUM 175             
1 43928U 19002G   26253.53200123  .00000109  00000+0  26079-4 0  9999
2 43928  86.4462 254.8296 0001722 344.8405  15.2744 14.43644813411292
IRIDIUM 171             
1 43929U 19002H   26253.69753323  .00000153  00000+0  47560-4 0  9999
2 43929  86.3998 318.1625 0002199  92.7187 267.4260 14.34218107401219
IRIDIUM 170             
1 43930U 19002J   26253.66855227  .00000456  00000+0  68456-4 0  9997
2 43930  86.6109 317.8189 0002476  95.0628 265.0871 14.72254083411839
IRIDIUM 167             
1 43931U 19002K   26253.55165027  .00000107  00000+0  31310-4 0  9990
2 43931  86.3989 317.9308 0002172  88.8285 271.3160 14.34217199401193
IRIDIUM 181             
1 56726U 23068S   26253.45093667  .00000197  00000+0  52532-4 0  9990
2 56726  86.4535  21.1370 0002081  97.1875 262.9563 14.43310408174734
IRIDIUM 177             
1 56727U 23068T   26253.59315431  .00000572  00000+0  77233-4 0  9994
2 56727  86.1930 288.2636 0002577  92.9856 267.1658 14.77160043178993
IRIDIUM 174             
1 56728U 23068U   26253.65619321  .00000482  00000+0  72485-4 0  9991
2 56728  86.6118 317.9802 0002700  94.1210 266.0315 14.72254622178594
IRIDIUM 178             
1 56729U 23068V   26253.29687126  .00001006  00000+0  12959-3 0  9992
2 56729  86.6599 349.8169 0002514  93.3519 266.7990 14.80036638178954
IRIDIUM 179             
1 56730U 23068W   26253.56196499  .00000756  00000+0  96457-4 0  9999
2 56730  86.6837 358.9330 0002375  90.8658 269.2836 14.80044447178991
