EUTELSAT 174A           
1 28924U 05052A   26252.83387603 -.00000010  00000+0  00000+0 0  9992
2 28924   4.4273  75.4320 0005941  93.8957 293.7145  1.00271748 53186
EUTELSAT 33F            
1 29270U 06032A   26252.94853103  .00000136  00000+0  00000+0 0  9999
2 29270   1.8746  81.1774 0003317  89.0802 193.2869  1.00272664 48151
EUTELSAT HOTBIRD 13C    
1 33459U 08065A   26252.93206429 -.00000302  00000+0  00000+0 0  9999
2 33459   3.1624  78.1186 0003559  99.0405  97.0767  1.00271640 48191
EUTELSAT 36B            
1 36101U 09065A   26252.95199771  .00000091  00000+0  00000+0 0  9994
2 36101   0.6992  81.1850 0005704  90.1892 210.8644  1.00274712 61553
EUTELSAT KA-SAT 9A      
1 37258U 10069A   26252.23092538  .00000040  00000+0  00000+0 0  9992
2 37258   0.0742 346.8917 0005423 184.2919 269.2345  1.00271724 44852
EUTELSAT 7 WEST A       
1 37816U 11051A   26252.94055766 -.00000081  00000+0  00000+0 0  9990
2 37816   0.0647 342.4070 0005973 190.4457 147.4129  1.00271354 54727
EUTELSAT 16A            
1 37836U 11057A   26252.87391071  .00000084  00000+0  00000+0 0  9994
2 37836   0.0821  60.3090 0005558 108.7762 150.4651  1.00274572  8189
EUTELSAT 21B            
1 38992U 12062B   26252.87503738  .00000110  00000+0  00000+0 0  9990
2 38992   0.0709 341.5529 0002978 185.8840 158.1248  1.00275147 50672
EUTELSAT 70B            
1 39020U 12069A   26252.95997558 -.00000064  00000+0  00000+0 0  9995
2 39020   0.0645 356.4315 0003673 173.3912 235.2685  1.00272014 50354
EUTELSAT 117 WEST A     
1 39122U 13012A   26252.91889091 -.00000034  00000+0  00000+0 0  9992
2 39122   0.0485 300.6712 0002810 232.5073  29.7842  1.00271844 49280
EUTELSAT 7B             
1 39163U 13022A   26252.87356404  .00000096  00000+0  00000+0 0  9997
2 39163   0.0718 334.6447 0002159  42.2456 300.7991  1.00454613 48792
EXPRESS-AT1             
1 39612U 14010A   26252.95997558 -.00000111  00000+0  00000+0 0  9993
2 39612   0.4699  84.5917 0004904  82.0401 242.3384  1.00314716 45667
EXPRESS-AT2             
1 39613U 14010B   26252.95312439  .00000058  00000+0  00000+0 0  9992
2 39613   0.0317 262.6114 0000700  27.7848  97.7121  1.00272793 45344
EUTELSAT 3B             
1 39773U 14030A   26252.94263767 -.00000001  00000+0  00000+0 0  9998
2 39773   0.0653 352.9176 0004094 177.1117 161.3922  1.00271750 44915
EUTELSAT 115 WEST B     
1 40425U 15010B   26252.91906425 -.00000046  00000+0  00000+0 0  9994
2 40425   0.0418 353.7287 0000245  88.2180 122.9803  1.00272898 42236
EUTELSAT 8 WEST B       
1 40875U 15039B   26252.94038433 -.00000086  00000+0  00000+0 0  9996
2 40875   0.0684 342.3425 0003523 184.4731 152.7523  1.00272822 40506
EUTELSAT 9B             
1 41310U 16005A   26252.23092539  .00000040  00000+0  00000+0 0  9993
2 41310   0.0439  68.9769 0002403 139.3106 232.1154  1.00271676 38957
EUTELSAT 65 WEST A      
1 41382U 16014A   26252.92911762 -.00000297  00000+0  00000+0 0  9991
2 41382   0.0803 307.9797 0002360 219.3826  90.8824  1.00270909 38375
EUTELSAT 117 WEST B     
1 41589U 16038B   26252.91880425 -.00000032  00000+0  00000+0 0  9993
2 41589   0.0394   0.3801 0000091 214.1469 348.2107  1.00271458 37513
EUTELSAT 172B           
1 42741U 17029B   26252.90476418 -.00000027  00000+0  00000+0 0  9991
2 42741   0.0205 146.8184 0000046 282.8017  57.0570  1.00269824 34606
EUTELSAT 7C             
1 44334U 19034B   26252.94341767  .00000027  00000+0  00000+0 0  9990
2 44334   0.0713 179.1640 0003114 337.1455 179.2930  1.00270825  7683
EUTELSAT 5 WEST B       
1 44624U 19067A   26252.79842921 -.00000063  00000+0  00000+0 0  9990
2 44624   0.0846 316.7534 0003167 216.1745  98.3566  1.00272492 25272
EUTELSAT KONNECT        
1 45027U 20005B   26252.94341767  .00000028  00000+0  00000+0 0  9991
2 45027   0.0650  99.8313 0001043  70.8686 165.1211  1.00267803 25187
EUTELSAT QUANTUM        
1 49056U 21069B   26252.95147771  .00000000  00000+0  00000+0 0  9998
2 49056   0.0219 124.1320 0002278  52.4702 202.6242  1.00270294 18776
EUTELSAT KONNECT VHTS   
1 53765U 22110A   26252.65742194 -.00000003  00000+0  00000+0 0  9999
2 53765   0.0549 104.2913 0003141  42.0154  81.7724  1.00274480  7687
EUTELSAT HOTBIRD 13F    
1 54048U 22134A   26252.87330404  .00000066  00000+0  00000+0 0  9999
2 54048   0.0685 291.2603 0001972  69.3303 315.7202  1.00270197 14224
EUTELSAT HOTBIRD 13G    
1 54225U 22146A   26251.80408637  .00000066  00000+0  00000+0 0  9995
2 54225   0.0527 234.8688 0002109 306.5958 108.8745  1.00271457  8302
EUTELSAT 10B            
1 54259U 22157A   26251.80347969  .00000047  00000+0  00000+0 0  9993
2 54259   0.0563 101.6460 0001284 357.6708 187.8311  1.00268968 13867
EUTELSAT 36D            
1 59346U 24059A   26252.52141542  .00000135  00000+0  00000+0 0  9995
2 59346   0.0184 146.3741 0000218 133.0086 292.7691  1.00271602  8991
