ORBCOMM FM06            
1 25118U 97084G   26278.89488374  .00000766  00000+0  24428-3 0  9992
2 25118  45.0133 239.6601 0001774 315.5269  72.5343 14.47782521510430
ORBCOMM FM04            
1 25159U 98007C   26279.17036052  .00000546  00000+0  23179-3 0  9995
2 25159 107.9618  37.8387 0039122 134.5775 225.8569 14.35891839492521
ORBCOMM FM19            
1 25415U 98046C   26279.20719067  .00000583  00000+0  22991-3 0  9993
2 25415  44.9934  75.7636 0004641 151.4158  18.3922 14.39664524472772
ORBCOMM FM20            
1 25416U 98046D   26279.16048468  .00000417  00000+0  18259-3 0  9997
2 25416  44.9932  85.1506 0001752 149.0725 211.0226 14.38193169472764
ORBCOMM FM27            
1 25481U 98053G   26279.04224172  .00000509  00000+0  20802-3 0  9991
2 25481  45.0043 168.7532 0001604  28.9157 331.1781 14.39305749466200
ORBCOMM FM32            
1 25982U 99065C   26278.67618713  .00000445  00000+0  19512-3 0  9992
2 25982  45.0168  10.1945 0007850 242.5089 117.4961 14.37262566402986
ORBCOMM FM109           
1 40086U 14040A   26279.04463455  .00000224  00000+0  83431-4 0  9994
2 40086  47.0029 287.3240 0001767 330.9287  29.1500 14.58933902650531
ORBCOMM FM110           
1 41182U 15081D   26279.11445588  .00000321  00000+0  10402-3 0  9998
2 41182  47.0013 196.8894 0003054 238.5128 121.5459 14.58984294573825
ORBCOMM FM118           
1 41183U 15081E   26278.80828739  .00000324  00000+0  10481-3 0  9997
2 41183  47.0036 198.7113 0003161 190.7645 169.3174 14.58831927573882
ORBCOMM FM112           
1 41184U 15081F   26278.94768054  .00000205  00000+0  79441-4 0  9996
2 41184  46.9975 106.4496 0002627 350.8895   9.1942 14.58976227575121
ORBCOMM FM113           
1 41185U 15081G   26279.13312212  .00000166  00000+0  71301-4 0  9993
2 41185  46.9994 106.0021 0001530 343.8237  16.2600 14.58946796575136
ORBCOMM FM108           
1 41187U 15081J   26278.54498574  .00000258  00000+0  90522-4 0  9993
2 41187  47.0062  20.3703 0002261 321.1748  38.8975 14.58995017576191
ORBCOMM FM117           
1 41188U 15081K   26278.58007979  .00000282  00000+0  95639-4 0  9994
2 41188  47.0028  18.8147 0002572 331.5463  28.5282 14.58977767576247
ORBCOMM FM116           
1 41189U 15081L   26278.97137362  .00000213  00000+0  81177-4 0  9994
2 41189  47.0007 106.7637 0001675 217.0655 143.0116 14.58978487575114
