QIANFAN-1               
1 60379U 24140A   26255.28119825  .00000025  00000+0  19460-4 0  9992
2 60379  88.9666 270.8831 0018921 139.6835 220.5723 13.51025752104282
QIANFAN-2               
1 60380U 24140B   26255.16186830  .00000020  00000+0  12658-4 0  9998
2 60380  88.9653 270.6978 0014720 114.1674 246.1017 13.51034495104321
QIANFAN-3               
1 60381U 24140C   26255.24434128  .00000027  00000+0  22848-4 0  9993
2 60381  88.9645 270.8011 0015687 125.1630 235.0994 13.51022898104246
QIANFAN-4               
1 60382U 24140D   26255.21951720  .00000028  00000+0  24053-4 0  9994
2 60382  88.9670 270.7702 0014948 116.2312 244.0378 13.51021016104368
QIANFAN-5               
1 60383U 24140E   26255.34290461  .00000035  00000+0  35653-4 0  9993
2 60383  88.9645 270.8151 0016687 135.4023 224.8474 13.51031125104246
QIANFAN-6               
1 60384U 24140F   26255.28946986  .00000026  00000+0  21884-4 0  9998
2 60384  88.9672 270.6412 0014971 121.2369 239.0251 13.51024018104430
QIANFAN-7               
1 60385U 24140G   26255.27765722  .00000128  00000+0  45897-4 0  9998
2 60385  88.9718 261.5236 0013535 212.2940 147.7427 14.27891897109421
QIANFAN-8               
1 60386U 24140H   26255.22377530  .00000031  00000+0  29760-4 0  9994
2 60386  88.9673 270.8889 0018381 124.1916 236.0981 13.51025972104271
QIANFAN-9               
1 60387U 24140J   26255.27304573  .00000031  00000+0  29237-4 0  9996
2 60387  88.9671 270.9536 0018086 123.7847 236.5030 13.51021578104267
QIANFAN-10              
1 60388U 24140K   26255.27715611  .00000026  00000+0  21021-4 0  9993
2 60388  88.9682 270.3293 0016820 103.4686 256.8341 13.51021636104393
QIANFAN-11              
1 60389U 24140L   26255.31430443  .00000018  00000+0  89331-5 0  9996
2 60389  88.9607 270.7065 0016121 122.9981 237.2722 13.51021007104051
QIANFAN-12              
1 60390U 24140M   26255.26077101  .00000035  00000+0  35069-4 0  9997
2 60390  88.9650 270.8745 0014796 130.0632 230.1820 13.51023513104174
QIANFAN-13              
1 60391U 24140N   26255.23192770  .00000040  00000+0  42749-4 0  9994
2 60391  88.9910 271.1003 0014568 132.1006 228.1386 13.51023598104199
QIANFAN-14              
1 60392U 24140P   26255.33076731  .00000030  00000+0  27710-4 0  9994
2 60392  88.9641 270.8400 0018227 133.3160 226.9515 13.51018754104219
QIANFAN-15              
1 60393U 24140Q   26255.26484945  .00000052  00000+0  61967-4 0  9993
2 60393  88.9664 270.8685 0014297 120.0346 240.2225 13.51027854104197
QIANFAN-16              
1 60394U 24140R   26255.32652140  .00000023  00000+0  16294-4 0  9996
2 60394  88.9667 270.9897 0016081 136.1796 224.0634 13.51025175104117
QIANFAN-17              
1 60395U 24140S   26255.32252778  .00000025  00000+0  19435-4 0  9992
2 60395  88.9678 271.0660 0016618 130.6104 229.6496 13.51021453105076
QIANFAN-18              
1 60396U 24140T   26255.22789879  .00000034  00000+0  33345-4 0  9995
2 60396  88.9672 270.5917 0016252 115.3170 244.9667 13.51020898104450
QIANFAN-19              
1 61552U 24185A   26255.22507069  .00000289  00000+0  14341-3 0  9994
2 61552  88.9843  46.6054 0008325 134.4026 225.7844 14.14527328108327
QIANFAN-20              
1 61553U 24185B   26255.25029037  .00000240  00000+0  13021-3 0  9993
2 61553  88.9838  47.1963 0005829 168.4685 191.6634 14.09068131108000
QIANFAN-21              
1 61554U 24185C   26255.26127084  .00000401  00000+0  17197-3 0  9993
2 61554  88.9764  44.9475 0010488 180.2706 179.8482 14.22927252108861
QIANFAN-22              
1 61555U 24185D   26255.26215745  .00000154  00000+0  12134-3 0  9997
2 61555  88.9817  49.2792 0004913 225.0230 135.0544 13.86427268106836
QIANFAN-23              
1 61556U 24185E   26255.23583693  .00000286  00000+0  13654-3 0  9999
2 61556  88.9837  46.2865 0008682 142.1013 218.0788 14.16549299108468
QIANFAN-24              
1 61557U 24185F   26255.24240393  .00000385  00000+0  16079-3 0  9992
2 61557  88.9822  45.2453 0011441 120.5562 239.6761 14.24150980108948
QIANFAN-25              
1 61558U 24185G   26255.21664608  .00000353  00000+0  20620-3 0  9991
2 61558  88.9828  47.2428 0012105 194.3832 165.7008 14.06125636107937
QIANFAN-26              
1 61559U 24185H   26255.23268117  .00000180  00000+0  16656-3 0  9991
2 61559  88.9822  50.2307 0003772 260.0718 100.0023 13.77942113106332
QIANFAN-27              
1 61560U 24185J   26255.34130284  .00000402  00000+0  15740-3 0  9998
2 61560  88.9834  44.8754 0009473 107.1381 253.0851 14.27598618109191
QIANFAN-28              
1 61561U 24185K   26255.23913197  .00000512  00000+0  19851-3 0  9998
2 61561  88.9851  44.9020 0009370 105.7867 254.4362 14.28479210109219
QIANFAN-29              
1 61562U 24185L   26255.24294436  .00000111  00000+0  15386-3 0  9992
2 61562  88.9789  53.0380 0009287 350.7129   9.3849 13.51092353104722
QIANFAN-30              
1 61563U 24185M   26255.27658399  .00000112  00000+0  15733-3 0  9995
2 61563  88.9810  52.6648 0006671 338.7852  21.3021 13.50074209104975
QIANFAN-31              
1 61564U 24185N   26255.25890630  .00000127  00000+0  15833-3 0  9997
2 61564  88.9795  52.0344 0005677 322.5465  37.5294 13.58062368105288
QIANFAN-32              
1 61565U 24185P   26255.24350894  .00000101  00000+0  13750-3 0  9998
2 61565  88.9849  52.8823 0009663   8.7354 351.3964 13.50804939104963
QIANFAN-33              
1 61566U 24185Q   26255.22548117  .00000266  00000+0  18181-3 0  9999
2 61566  88.9820  48.3188 0007594 176.7179 183.4049 13.96749550107338
QIANFAN-34              
1 61567U 24185R   26255.28117987  .00000392  00000+0  24561-3 0  9992
2 61567  88.9798  47.5144 0005970 165.5532 194.5820 14.02515480107691
QIANFAN-35              
1 61568U 24185S   26255.22563027  .00000446  00000+0  17266-3 0  9991
2 61568  88.9832  44.7824 0008535 103.3284 256.8863 14.28351720109211
QIANFAN-36              
1 61569U 24185T   26255.28480127  .00000068  00000+0  80387-4 0  9992
2 61569  88.9786  52.5367 0005454 344.9538  15.1452 13.55646539104984
QIANFAN-37              
1 62238U 24232B   26255.28481464  .00000085  00000+0  11265-3 0  9991
2 62238  89.0149  13.8571 0002151  87.9030 272.2367 13.51029208136106
QIANFAN-38              
1 62239U 24232C   26255.30957213  .00000063  00000+0  78043-4 0  9999
2 62239  89.0156  13.7890 0016372 122.6063 237.6671 13.51027461136169
QIANFAN-39              
1 62240U 24232D   26255.26035611  .00000335  00000+0  13536-3 0  9992
2 62240  89.0137   6.1748 0013892 259.9316 100.0310 14.25556792140352
QIANFAN-40              
1 62241U 24232E   26255.26843067  .00000056  00000+0  67611-4 0  9999
2 62241  89.0183  13.4539 0015351 129.5033 230.7478 13.51027592136522
QIANFAN-41              
1 62242U 24232F   26255.27664179  .00000077  00000+0  10050-3 0  9993
2 62242  89.0154  13.7387 0015805 119.1180 241.1555 13.51028867136187
QIANFAN-42              
1 62243U 24232G   26255.29232754  .00000316  00000+0  12971-3 0  9996
2 62243  89.0136   6.2587 0012666 267.9931  91.9811 14.24644059140319
QIANFAN-43              
1 62244U 24232H   26255.27252883  .00000070  00000+0  89575-4 0  9992
2 62244  89.0158  13.8165 0017304 123.9753 236.3046 13.51028365104799
QIANFAN-44              
1 62245U 24232J   26255.33427406  .00000079  00000+0  10383-3 0  9994
2 62245  89.0157  13.6166 0015547 120.9353 239.3329 13.51028697136271
QIANFAN-45              
1 62246U 24232K   26255.30136780  .00000074  00000+0  95185-4 0  9993
2 62246  89.0160  13.7761 0016209 120.7711 239.5038 13.51027465136192
QIANFAN-46              
1 62247U 24232L   26255.32599560  .00000071  00000+0  91389-4 0  9994
2 62247  89.0156  13.8315 0016202 125.6464 234.6199 13.51028464136156
QIANFAN-47              
1 62248U 24232M   26255.33015030  .00000083  00000+0  11038-3 0  9996
2 62248  89.0152  13.7530 0016639 124.9359 235.3359 13.51027747136182
QIANFAN-48              
1 62249U 24232N   26255.29318022  .00000081  00000+0  10627-3 0  9990
2 62249  89.0156  13.7692 0018873 127.7043 232.5823 13.51022014136186
QIANFAN-49              
1 62250U 24232P   26255.28078522  .00000079  00000+0  10416-3 0  9992
2 62250  89.0155  13.7808 0016010 122.4839 237.7863 13.51029172104775
QIANFAN-50              
1 62251U 24232Q   26255.30543189  .00000067  00000+0  84720-4 0  9999
2 62251  89.0161  13.8014 0017651 123.8298 236.4536 13.51028621104804
QIANFAN-51              
1 62252U 24232R   26255.28900674  .00000078  00000+0  10162-3 0  9993
2 62252  89.0155  13.7801 0015073 126.8541 233.3995 13.51027642104796
QIANFAN-52              
1 62253U 24232S   26255.31779647  .00000079  00000+0  10337-3 0  9997
2 62253  89.0151  13.6402 0017182 120.0721 240.2137 13.51029681104888
QIANFAN-53              
1 62254U 24232T   26255.29727894  .00000068  00000+0  87220-4 0  9996
2 62254  89.0158  13.7674 0016052 120.9630 239.3101 13.51026453104841
QIANFAN-54              
1 62255U 24232U   26255.33837308  .00000066  00000+0  83318-4 0  9996
2 62255  89.0149  13.4177 0003497 136.6796 223.4630 13.51028215136353
QIANFAN-55              
1 62785U 25016A   26255.29039204  .00000030  00000+0  27972-4 0  9994
2 62785  88.9667  74.8135 0015501 279.1342  80.8056 13.51024451 84120
QIANFAN-56              
1 62786U 25016B   26255.23263822  .00000046  00000+0  53157-4 0  9995
2 62786  88.9641  74.5831 0014131 282.3862  77.5707 13.51027629 84164
QIANFAN-57              
1 62787U 25016C   26255.26572006  .00000043  00000+0  47228-4 0  9995
2 62787  88.9671  74.8184 0002546  86.2063 273.9380 13.51027353 84133
QIANFAN-58              
1 62788U 25016D   26255.23689536  .00000040  00000+0  43470-4 0  9992
2 62788  88.9642  74.5697 0011985 273.9206  86.0575 13.51019735 84177
QIANFAN-59              
1 62789U 25016E   26255.18736567  .00000036  00000+0  36832-4 0  9993
2 62789  88.9665  74.7130 0012378 278.4241  81.5507 13.51024088 84164
QIANFAN-60              
1 62790U 25016F   26255.22030398  .00000044  00000+0  50359-4 0  9998
2 62790  88.9647  74.6290 0013906 274.1066  85.8496 13.51027503 84156
QIANFAN-61              
1 62791U 25016G   26255.25326262  .00000036  00000+0  37146-4 0  9990
2 62791  88.9712  74.9736 0012871 273.5353  86.4326 13.51027102 84176
QIANFAN-62              
1 62792U 25016H   26255.25745355  .00000029  00000+0  26577-4 0  9997
2 62792  88.9660  74.6947 0014209 273.6982  86.2544 13.51019499 84165
QIANFAN-63              
1 62793U 25016J   26255.28208957  .00000036  00000+0  37565-4 0  9990
2 62793  88.9667  74.6621 0014288 279.7039  80.2498 13.51022590 84202
QIANFAN-64              
1 62794U 25016K   26255.24917311  .00000035  00000+0  36303-4 0  9996
2 62794  88.9654  74.6030 0012204 271.8667  88.1087 13.51027112 84193
QIANFAN-65              
1 62795U 25016L   26255.24493537  .00000040  00000+0  44001-4 0  9996
2 62795  88.9650  74.6196 0012065 273.8408  86.1364 13.51023266 84173
QIANFAN-66              
1 62796U 25016M   26255.27373131  .00000023  00000+0  17865-4 0  9996
2 62796  88.9670  74.6405 0013144 268.6657  91.2988 13.51019337 84225
QIANFAN-67              
1 62797U 25016N   26255.27787063  .00000044  00000+0  48952-4 0  9994
2 62797  88.9660  74.6387 0013138 276.5488  83.4167 13.51028766 84191
QIANFAN-68              
1 62798U 25016P   26255.26970493  .00000041  00000+0  44273-4 0  9994
2 62798  88.9663  74.6945 0013187 274.1812  85.7832 13.51021473 84174
QIANFAN-69              
1 62799U 25016Q   26255.28607367  .00000032  00000+0  31469-4 0  9997
2 62799  88.9643  74.5041 0013929 275.6752  84.2810 13.51023904 84218
QIANFAN-70              
1 62800U 25016R   26255.22860007  .00000045  00000+0  51038-4 0  9994
2 62800  88.9663  74.7055 0013511 264.8983  95.0626 13.51023265 84162
QIANFAN-71              
1 62801U 25016S   26255.22445453  .00000042  00000+0  46883-4 0  9998
2 62801  88.9657  74.6689 0013885 279.8900  80.0684 13.51026452 84166
QIANFAN-72              
1 62802U 25016T   26255.24099605  .00000048  00000+0  55508-4 0  9995
2 62802  88.9648  74.6539 0017212 287.5390  72.3880 13.51020374 84156
QIANFAN-73              
1 63159U 25046A   26255.34203853  .00000037  00000+0  38968-4 0  9996
2 63159  88.9654 291.6187 0016629  58.0535 302.2230 13.51024935 84355
QIANFAN-74              
1 63160U 25046B   26255.25150893  .00000026  00000+0  22242-4 0  9999
2 63160  88.9656 291.5180 0001907  95.9246 264.2123 13.51018888 84407
QIANFAN-75              
1 63161U 25046C   26255.23927182  .00000091  00000+0  12207-3 0  9992
2 63161  88.9657 291.7566 0017837  61.2692 299.0249 13.51029923 84271
QIANFAN-76              
1 63162U 25046D   26255.23517448 -.00000081  00000+0 -14417-3 0  9999
2 63162  88.9657 291.7367 0015277  62.2397 298.0301 13.51021196 84283
QIANFAN-77              
1 63163U 25046E   26255.24348569  .00000119  00000+0  76846-4 0  9992
2 63163  88.9659 287.4881 0012908 312.5879  47.4208 13.96245731 86616
QIANFAN-78              
1 63164U 25046F   26255.27673752  .00000057  00000+0  68753-4 0  9990
2 63164  88.9656 291.5943 0016804  63.6442 296.6432 13.51011599 84369
QIANFAN-79              
1 63165U 25046G   26255.23093222  .00000030  00000+0  26987-4 0  9999
2 63165  88.9659 291.7160 0016459  62.5571 297.7252 13.51021044 84305
QIANFAN-80              
1 63166U 25046H   26255.24744201  .00000085  00000+0  11287-3 0  9997
2 63166  88.9657 291.4137 0015457  66.8200 293.4578 13.51029185 84463
QIANFAN-81              
1 63167U 25046J   26255.22678269  .00000094  00000+0  12623-3 0  9991
2 63167  88.9656 291.4831 0016428  57.1765 303.0966 13.51019667 84410
QIANFAN-82              
1 63168U 25046K   26255.25977796  .00000068  00000+0  86490-4 0  9997
2 63168  88.9656 291.5240 0014464  63.7267 296.5368 13.51019994 84408
QIANFAN-83              
1 63169U 25046L   26255.27889270  .00000096  00000+0  10776-3 0  9993
2 63169  88.9658 290.7591 0014991  35.9880 324.2284 13.62064484 84837
QIANFAN-84              
1 63170U 25046M   26255.28856679 -.00000043  00000+0 -85478-4 0  9999
2 63170  88.9656 291.6535 0017331  59.6070 300.6792 13.51017883 84336
QIANFAN-85              
1 63171U 25046N   26255.28441584  .00000081  00000+0  10686-3 0  9993
2 63171  88.9656 291.5237 0014990  62.4423 297.8249 13.51020026 84402
QIANFAN-86              
1 63172U 25046P   26255.21858353  .00000089  00000+0  11871-3 0  9998
2 63172  88.9658 291.3991 0012962  67.0184 293.2333 13.51024977 84472
QIANFAN-87              
1 63173U 25046Q   26255.33792892  .00000026  00000+0  21682-4 0  9990
2 63173  88.9654 291.4882 0013357  62.1490 298.1013 13.51031941 84427
QIANFAN-88              
1 63174U 25046R   26255.28029687  .00000090  00000+0  12054-3 0  9993
2 63174  88.9657 291.4554 0013971  69.6376 290.6275 13.51029109 84446
QIANFAN-89              
1 63175U 25046S   26255.24325408  .00000092  00000+0  12269-3 0  9990
2 63175  88.9657 291.6482 0018296  59.9498 300.3465 13.51024438 84339
QIANFAN-90              
1 63176U 25046T   26255.27210383  .00000040  00000+0  42405-4 0  9998
2 63176  88.9657 291.6184 0015193  59.3728 300.8920 13.51019718 84350
QIANFAN-91              
1 66033U 25233A   26255.15642538  .00000061  00000+0  75302-4 0  9994
2 66033  89.0041  34.3934 0001886  91.2596 268.8771 13.51028517 44924
QIANFAN-92              
1 66034U 25233B   26255.09079193  .00000061  00000+0  76066-4 0  9997
2 66034  89.0025  34.3576 0001967  99.1354 261.0020 13.50998365 44915
QIANFAN-93              
1 66035U 25233C   26254.95083578  .00000048  00000+0  56385-4 0  9991
2 66035  89.0051  34.4470 0002022  92.0820 268.0563 13.51000187 44895
QIANFAN-94              
1 66036U 25233D   26255.08652820  .00000061  00000+0  75868-4 0  9991
2 66036  89.0048  34.3337 0001823  97.0461 263.0898 13.51026868 44965
QIANFAN-95              
1 66037U 25233E   26254.94663628  .00000058  00000+0  71640-4 0  9994
2 66037  89.0047  33.8894 0001758  91.1574 268.9779 13.51021389 45195
QIANFAN-96              
1 66038U 25233F   26254.89722048  .00000058  00000+0  71782-4 0  9998
2 66038  89.0042  34.4353 0001885  89.0050 271.1317 13.51028038 44881
QIANFAN-97              
1 66039U 25233G   26254.95484943  .00000049  00000+0  57410-4 0  9997
2 66039  89.0046  34.4164 0001898  91.6746 268.4622 13.51028084 44891
QIANFAN-98              
1 66040U 25233H   26254.88902690  .00000045  00000+0  51420-4 0  9996
2 66040  89.0035  34.1446 0001502 106.2209 253.9108 13.51028264 45035
QIANFAN-99              
1 66041U 25233J   26255.33746823  .00000069  00000+0  87920-4 0  9992
2 66041  89.0047  34.3825 0001463  98.3500 261.7817 13.51034763 44958
QIANFAN-100             
1 66042U 25233K   26255.32926209  .00000049  00000+0  57493-4 0  9990
2 66042  89.0058  34.3201 0001919  92.1495 267.9876 13.51019421 45004
QIANFAN-101             
1 66043U 25233L   26255.11531205  .00000308  00000+0  12084-3 0  9990
2 66043  89.0049  30.5897 0013939 211.7246 148.3110 14.26857620 47023
QIANFAN-102             
1 66044U 25233M   26255.12765274  .00000061  00000+0  75177-4 0  9996
2 66044  89.0045  34.3112 0001767  96.8151 263.3201 13.51027619 44979
QIANFAN-103             
1 66045U 25233N   26254.90960305  .00000056  00000+0  67558-4 0  9992
2 66045  89.0047  34.4307 0001922  92.1721 267.9651 13.51020533 44892
QIANFAN-104             
1 66046U 25233P   26254.91363242  .00000047  00000+0  53924-4 0  9993
2 66046  89.0051  34.3364 0001820  99.3553 260.7804 13.51025628 44946
QIANFAN-105             
1 66047U 25233Q   26254.92190220  .00000048  00000+0  56113-4 0  9993
2 66047  89.0066  34.1903 0001769  91.6030 268.5324 13.51025502 45054
QIANFAN-106             
1 66048U 25233R   26255.13996141  .00000048  00000+0  56052-4 0  9996
2 66048  89.0034  34.3540 0001551 103.7293 256.4031 13.51029284 44921
QIANFAN-107             
1 66049U 25233S   26254.92601720  .00000047  00000+0  54043-4 0  9996
2 66049  89.0049  34.4217 0001916  93.0681 267.0690 13.51028451 44909
QIANFAN-108             
1 66050U 25233T   26254.93018333  .00000056  00000+0  68001-4 0  9990
2 66050  89.0042  34.4029 0001586 103.3168 256.8160 13.51020726 44908
QIANFAN-109             
1 68636U 26075A   26255.24025717  .00000071  00000+0  91302-4 0  9993
2 68636  88.9879 312.1319 0002281  85.9517 274.1895 13.51020169 21544
QIANFAN-110             
1 68637U 26075B   26255.24847491  .00000076  00000+0  98616-4 0  9995
2 68637  88.9879 312.1526 0002285  99.4986 260.6423 13.51031233 21540
QIANFAN-111             
1 68638U 26075C   26255.23634922  .00000081  00000+0  10608-3 0  9998
2 68638  88.9878 312.1128 0002271  98.9164 261.2244 13.51020618 21560
QIANFAN-112             
1 68639U 26075D   26255.27329629  .00000077  00000+0  99905-4 0  9991
2 68639  88.9877 312.1169 0002490  88.4139 271.7297 13.51023028 21566
QIANFAN-113             
1 68640U 26075E   26255.24433432  .00000074  00000+0  96660-4 0  9990
2 68640  88.9882 312.1185 0002365  97.2287 262.9133 13.51029147 21564
QIANFAN-114             
1 68641U 26075F   26255.25259677  .00000073  00000+0  93659-4 0  9993
2 68641  88.9877 312.1326 0002263  98.5254 261.6154 13.51027221 21550
QIANFAN-115             
1 68642U 26075G   26255.28146258  .00000079  00000+0  10341-3 0  9999
2 68642  88.9878 312.1369 0002177  95.0378 265.1022 13.51023927 21554
QIANFAN-116             
1 68643U 26075H   26255.26909581  .00000084  00000+0  11129-3 0  9995
2 68643  88.9871 312.0921 0002491  91.6026 268.5410 13.51024547 21560
QIANFAN-117             
1 68644U 26075J   26255.25683384  .00000072  00000+0  93443-4 0  9992
2 68644  88.9875 312.1132 0002284  92.0127 268.1285 13.51022300 21568
QIANFAN-118             
1 68645U 26075K   26255.28968140  .00000071  00000+0  91862-4 0  9994
2 68645  88.9880 312.1219 0002331 101.5100 258.6314 13.51024121 21561
QIANFAN-119             
1 68646U 26075L   26255.26490789  .00000089  00000+0  11969-3 0  9990
2 68646  88.9880 312.1201 0002160  88.1048 272.0351 13.51037209 21566
QIANFAN-120             
1 68647U 26075M   26255.27727473  .00000075  00000+0  97611-4 0  9999
2 68647  88.9882 312.1052 0002110  87.0488 273.0905 13.51019638 21577
QIANFAN-121             
1 68648U 26075N   26255.22804190  .00000084  00000+0  11149-3 0  9998
2 68648  88.9879 312.1133 0002259 100.4047 259.7359 13.51023202 21564
QIANFAN-122             
1 68649U 26075P   26255.21977934  .00000075  00000+0  98044-4 0  9995
2 68649  88.9878 312.1113 0002303  90.1276 270.0139 13.51026689 21554
QIANFAN-123             
1 68650U 26075Q   26255.26078962  .00000075  00000+0  97196-4 0  9992
2 68650  88.9875 312.0942 0002336  84.3187 275.8230 13.51031902 21542
QIANFAN-124             
1 68651U 26075R   26255.28563413  .00000080  00000+0  10450-3 0  9998
2 68651  88.9878 312.1031 0002333  88.8832 271.2586 13.51026297 21577
QIANFAN-125             
1 68652U 26075S   26255.22392843  .00000083  00000+0  11008-3 0  9993
2 68652  88.9878 312.1113 0002282  99.9898 260.1510 13.51023295 21565
QIANFAN-126             
1 68653U 26075T   26255.23200712  .00000087  00000+0  11629-3 0  9991
2 68653  88.9882 312.0796 0002313  84.7705 275.3710 13.51028666 21580
QIANFAN-127             
1 69073U 26104A   26255.23739726  .00000120  00000+0  16679-3 0  9991
2 69073  88.9933 332.5953 0002517 106.9640 253.1787 13.50993380 16919
QIANFAN-128             
1 69074U 26104B   26255.24553857  .00000125  00000+0  17497-3 0  9996
2 69074  88.9911 332.6200 0002117 114.5655 245.5717 13.51022544 16890
QIANFAN-129             
1 69075U 26104C   26255.27015696  .00000114  00000+0  15831-3 0  9992
2 69075  88.9913 332.5516 0002256 110.5940 249.5453 13.51022446 16936
QIANFAN-130             
1 69076U 26104D   26255.23312315  .00000113  00000+0  15563-3 0  9998
2 69076  88.9915 332.6211 0002568 101.5021 258.6419 13.51033089 16891
QIANFAN-131             
1 69077U 26104E   26255.25387203  .00000115  00000+0  16010-3 0  9999
2 69077  88.9909 332.5800 0002017 107.0164 253.1209 13.51024724 16912
QIANFAN-132             
1 69078U 26104F   26255.24134986  .00000129  00000+0  18107-3 0  9991
2 69078  88.9911 332.6377 0002418 103.1023 257.0398 13.51020875 16883
QIANFAN-133             
1 69079U 26104G   26255.24973635  .00000129  00000+0  18098-3 0  9993
2 69079  88.9915 332.5868 0001880 112.2300 247.9051 13.51029704 16900
QIANFAN-134             
1 69080U 26104H   26255.27850304  .00000123  00000+0  17247-3 0  9994
2 69080  88.9919 332.6099 0002081 113.5325 246.6045 13.51028027 16904
QIANFAN-135             
1 69081U 26104J   26255.25780813  .00000122  00000+0  16963-3 0  9993
2 69081  88.9913 332.6032 0002297 115.4135 244.7254 13.51021222 16906
QIANFAN-136             
1 69082U 26104K   26255.26612739  .00000123  00000+0  17207-3 0  9999
2 69082  88.9915 332.6052 0001917 112.8488 247.2866 13.51031153 16902
QIANFAN-137             
1 69083U 26104L   26255.26200459  .00000109  00000+0  15051-3 0  9991
2 69083  88.9924 332.4817 0002328 102.4551 257.6861 13.51030852 16975
QIANFAN-138             
1 69084U 26104M   26255.28660226  .00000121  00000+0  16871-3 0  9991
2 69084  88.9908 332.6035 0002460 110.4127 249.7289 13.51020651 16902
QIANFAN-139             
1 69085U 26104N   26255.27448619  .00000118  00000+0  16395-3 0  9998
2 69085  88.9910 332.5864 0002492 104.8953 255.2474 13.51029384 16915
QIANFAN-140             
1 69086U 26104P   26255.28250811  .00000130  00000+0  18250-3 0  9991
2 69086  88.9911 332.5891 0002399 114.8997 245.2404 13.51021723 16913
QIANFAN-141             
1 69087U 26104Q   26255.29079857  .00000121  00000+0  16885-3 0  9994
2 69087  88.9908 332.5527 0002205 113.8408 246.2974 13.51027778 16939
QIANFAN-142             
1 69088U 26104R   26255.22490200  .00000112  00000+0  15550-3 0  9995
2 69088  88.9906 332.5589 0002410 110.8053 249.3357 13.51030261 16926
QIANFAN-143             
1 69089U 26104S   26255.22090558  .00000109  00000+0  14957-3 0  9994
2 69089  88.9917 332.5651 0001963 105.9420 254.1948 13.51026271 16920
QIANFAN-144             
1 69090U 26104T   26255.22900658  .00000101  00000+0  13733-3 0  9990
2 69090  88.9915 332.5825 0002503 107.8501 252.2924 13.51030484 16918
QIANFAN-145             
1 69104U 26108A   26255.30739593  .00000078  00000+0  10196-3 0  9990
2 69104  89.0186  13.3465 0001635  97.8250 262.3087 13.51033061 16202
QIANFAN-146             
1 69105U 26108B   26255.26635282  .00000079  00000+0  10402-3 0  9997
2 69105  89.0188  13.1876 0002011  99.0172 261.1207 13.51038580 16296
QIANFAN-147             
1 69106U 26108C   26255.31578615  .00000078  00000+0  10279-3 0  9991
2 69106  89.0188  13.3500 0002077 103.5621 256.5762 13.51023619 16195
QIANFAN-148             
1 69107U 26108D   26255.30337298  .00000078  00000+0  10224-3 0  9991
2 69107  89.0182  13.3417 0001924 108.6932 251.4429 13.51023174 16198
QIANFAN-149             
1 69108U 26108E   26255.31153330  .00000085  00000+0  11379-3 0  9996
2 69108  89.0181  13.3621 0002212 110.7397 249.3992 13.51022700 16190
QIANFAN-150             
1 69109U 26108F   26255.31973476  .00000079  00000+0  10391-3 0  9994
2 69109  89.0187  13.3142 0002237 109.5691 250.5702 13.51023196 16211
QIANFAN-151             
1 69110U 26108G   26255.27466610  .00000087  00000+0  11545-3 0  9999
2 69110  89.0186  13.3423 0001831 100.7004 259.4354 13.51026303 16195
QIANFAN-152             
1 69111U 26108H   26255.32796462  .00000090  00000+0  12025-3 0  9995
2 69111  89.0182  13.3291 0002287  99.4002 260.7408 13.51027584 16213
QIANFAN-153             
1 69112U 26108J   26255.32384047  .00000089  00000+0  11961-3 0  9994
2 69112  89.0179  13.3062 0002210 105.1685 254.9710 13.51023533 16215
QIANFAN-154             
1 69113U 26108K   26255.33221545  .00000087  00000+0  11569-3 0  9991
2 69113  89.0189  13.3534 0002098 106.5451 253.5931 13.51025544 16204
QIANFAN-155             
1 69114U 26108L   26255.33619821  .00000079  00000+0  10412-3 0  9997
2 69114  89.0186  13.3177 0002235 107.1289 253.0107 13.51022397 16218
QIANFAN-156             
1 69115U 26108M   26255.28267782  .00000092  00000+0  12409-3 0  9990
2 69115  89.0201  13.3232 0001856 106.2743 253.8613 13.51022298 16223
QIANFAN-157             
1 69116U 26108N   26255.27053331  .00000076  00000+0  99689-4 0  9991
2 69116  89.0182  13.2492 0001988 111.2849 248.8514 13.51026964 16259
QIANFAN-158             
1 69117U 26108P   26255.28676394 -.00000010  00000+0 -33736-4 0  9994
2 69117  89.0184  13.2887 0001880 103.3381 256.7980 13.51033598 16238
QIANFAN-159             
1 69118U 26108Q   26255.27859466  .00000084  00000+0  11201-3 0  9998
2 69118  89.0176  13.2966 0001887 102.2534 257.8829 13.51022223 16229
QIANFAN-160             
1 69119U 26108R   26255.29518846  .00000088  00000+0  11780-3 0  9991
2 69119  89.0191  13.3312 0002340 108.3367 251.8039 13.51022463 16211
QIANFAN-161             
1 69120U 26108S   26255.29913700  .00000082  00000+0  10816-3 0  9994
2 69120  89.0198  13.2469 0001831 102.5865 257.5491 13.51037385 16264
QIANFAN-162             
1 69121U 26108T   26255.29093708  .00000095  00000+0  12861-3 0  9998
2 69121  89.0187  13.2738 0002174 100.1893 259.9504 13.51021715 16236
QIANFAN-163             
1 69325U 26121A   26255.32963419  .00000025  00000+0  20079-4 0  9992
2 69325  89.0113 291.8422 0002163 123.8758 236.2599 13.51022117 13938
QIANFAN-164             
1 69326U 26121B   26255.14859761  .00000044  00000+0  49146-4 0  9994
2 69326  89.0111 291.8507 0001891 111.0661 249.0692 13.51021076 13917
QIANFAN-165             
1 69382U 26124A   26255.23234870  .00000132  00000+0  18590-3 0  9993
2 69382  89.0072 352.8528 0001711 118.8302 241.3022 13.51020549 13796
QIANFAN-166             
1 69383U 26124B   26255.23650051  .00000130  00000+0  18330-3 0  9997
2 69383  89.0091 352.8618 0001839 101.4934 258.6424 13.51021068 13792
QIANFAN-167             
1 69384U 26124C   26255.24054586  .00000128  00000+0  18001-3 0  9992
2 69384  89.0064 352.8691 0002165 108.1284 252.0103 13.51030149 13780
QIANFAN-168             
1 69385U 26124D   26255.24454142  .00000119  00000+0  16622-3 0  9992
2 69385  89.0061 352.8488 0001623 102.5207 257.6125 13.51018809 13798
QIANFAN-169             
1 69386U 26124E   26255.24881801  .00000114  00000+0  15742-3 0  9996
2 69386  89.0059 352.8483 0001900  98.1125 262.0242 13.51022049 13799
QIANFAN-170             
1 69387U 26124F   26255.25289826  .00000112  00000+0  15500-3 0  9997
2 69387  89.0077 352.8188 0001877  95.7601 264.3764 13.51024491 13817
QIANFAN-171             
1 69388U 26124G   26255.26118925  .00000129  00000+0  18145-3 0  9996
2 69388  89.0092 352.8293 0002111 104.3384 255.8002 13.51017540 13816
QIANFAN-172             
1 69389U 26124H   26255.25702278  .00000108  00000+0  14839-3 0  9999
2 69389  89.0075 352.8209 0001667 114.0644 246.0681 13.51028045 13814
QIANFAN-173             
1 69390U 26124J   26255.26510362  .00000126  00000+0  17599-3 0  9999
2 69390  89.0064 352.8174 0001663  97.9827 262.1513 13.51021067 13813
QIANFAN-174             
1 69391U 26124K   26255.27754244  .00000127  00000+0  17763-3 0  9994
2 69391  89.0044 352.7752 0002155 110.3715 249.7668 13.51028951 13828
QIANFAN-175             
1 69392U 26124L   26255.28172804  .00000112  00000+0  15414-3 0  9997
2 69392  89.0096 352.8157 0001852  99.9595 260.1766 13.51018980 13824
QIANFAN-176             
1 69393U 26124M   26255.28582738  .00000113  00000+0  15582-3 0  9996
2 69393  89.0057 352.7982 0001869 100.1059 260.0303 13.51019777 13815
QIANFAN-177             
1 69394U 26124N   26255.29409001  .00000110  00000+0  15199-3 0  9990
2 69394  89.0067 352.7851 0002048 109.6513 250.4860 13.51028796 13835
QIANFAN-178             
1 69395U 26124P   26255.28989344  .00000114  00000+0  15732-3 0  9990
2 69395  89.0013 352.7456 0001881  99.6119 260.5245 13.51024742 13849
QIANFAN-179             
1 69396U 26124Q   26255.29820933  .00000126  00000+0  17682-3 0  9999
2 69396  89.0045 352.7603 0001871  98.8752 261.2611 13.51028414 13847
QIANFAN-180             
1 69397U 26124R   26255.22822820  .00000123  00000+0  17179-3 0  9998
2 69397  89.0052 352.7878 0001909  95.0412 265.0957 13.51020673 13826
QIANFAN-181             
1 69398U 26124S   26255.26936934  .00000131  00000+0  18456-3 0  9993
2 69398  89.0074 352.8754 0002143 106.6886 253.4501 13.51022384 13782
QIANFAN-182             
1 69399U 26124T   26255.27344211  .00000120  00000+0  16712-3 0  9997
2 69399  89.0049 352.8475 0001842 101.6011 258.5347 13.51026920 13789
QIANFAN-183             
1 69401U 26125A   26255.30806306  .00000033  00000+0  32487-4 0  9995
2 69401  88.9834 271.1445 0001920 101.6032 258.5335 13.51027410 13707
QIANFAN-184             
1 69402U 26125B   26255.24225334  .00000037  00000+0  38582-4 0  9991
2 69402  88.9885 271.1745 0001909  97.1814 262.9554 13.51028518 13691
QIANFAN-185             
1 69403U 26125C   26255.26697079  .00000037  00000+0  38740-4 0  9999
2 69403  88.9900 271.1107 0001824  98.5393 261.5965 13.51017571 13738
QIANFAN-186             
1 69404U 26125D   26255.23809410  .00000025  00000+0  19667-4 0  9995
2 69404  88.9888 271.1747 0001971  96.1000 264.0376 13.51008205 13699
QIANFAN-187             
1 69405U 26125E   26255.24626872  .00000018  00000+0  94760-5 0  9996
2 69405  88.9888 271.1566 0002073 101.0311 259.1074 13.51007212 13703
QIANFAN-188             
1 69406U 26125F   26255.25451759  .00000036  00000+0  37222-4 0  9997
2 69406  88.9886 271.1557 0001923 103.1575 256.9791 13.51029191 13701
QIANFAN-189             
1 69407U 26125G   26255.26267752  .00000030  00000+0  27068-4 0  9998
2 69407  88.9868 271.1508 0001905 108.7710 251.3648 13.51028407 13697
QIANFAN-190             
1 69408U 26125H   26255.32442368  .00000025  00000+0  19508-4 0  9998
2 69408  88.9870 271.1422 0001863  95.5775 264.5589 13.51033155 13712
QIANFAN-191             
1 69409U 26125J   26255.27511479  .00000026  00000+0  21850-4 0  9997
2 69409  88.9883 271.1583 0001895 102.3944 257.7419 13.51032848 13708
QIANFAN-192             
1 69410U 26125K   26255.33260895  .00000040  00000+0  42866-4 0  9995
2 69410  88.9890 271.1524 0001972 106.6307 253.5061 13.51030081 13714
QIANFAN-193             
1 69411U 26125L   26255.28339960  .00000027  00000+0  22548-4 0  9990
2 69411  88.9868 271.1354 0001799 102.1862 257.9491 13.51027350 13715
QIANFAN-194             
1 69412U 26125M   26255.27926399  .00000019  00000+0  11282-4 0  9992
2 69412  88.9901 271.1479 0001930 102.3941 257.7426 13.51026044 13703
QIANFAN-195             
1 69413U 26125N   26253.65634574 -.01624247  00000+0 -28896+1 0  9997
2 69413  88.9872 271.3035 0003803  20.5485 339.5816 13.46014320 13504
QIANFAN-196             
1 69414U 26125P   26255.22163781  .00000028  00000+0  25023-4 0  9995
2 69414  88.9907 271.1422 0001861  91.8470 268.2894 13.51035202 13714
QIANFAN-197             
1 69415U 26125Q   26255.22992002  .00000033  00000+0  32522-4 0  9990
2 69415  88.9882 271.1147 0001919 100.2566 259.8801 13.51023662 13717
QIANFAN-198             
1 69416U 26125R   26255.21755472  .00000026  00000+0  21080-4 0  9997
2 69416  88.9875 271.1291 0001918 103.1619 256.9746 13.51027993 13717
QIANFAN-199             
1 69417U 26125S   26255.22581988  .00000038  00000+0  40956-4 0  9994
2 69417  88.9879 271.0782 0002123 102.8231 257.3158 13.51025621 13742
QIANFAN-200             
1 69418U 26125T   26255.27102694  .00000026  00000+0  21504-4 0  9998
2 69418  88.9886 271.1586 0001896 105.9047 254.2313 13.51026120 13709
QIANFAN-201             
1 69800U 26153A   26255.08545429 -.01774356  00000+0 -13910+1 0  9995
2 69800  88.9976 352.3886 0008052  79.5989 280.6095 13.96226177  9877
QIANFAN-202             
1 69801U 26153B   26255.05983429 -.01871249  00000+0 -12051+1 0  9993
2 69801  88.9976 352.3661 0010313  12.0192 348.1235 14.06839490  9876
QIANFAN-203             
1 69802U 26153C   26255.05723120 -.01849707  00000+0 -12282+1 0  9994
2 69802  88.9977 352.4033 0008914 341.3553  18.7301 14.05101750  9868
QIANFAN-204             
1 69803U 26153D   26255.01242992 -.01898017  00000+0 -12416+1 0  9991
2 69803  88.9976 352.3966 0009448  22.8053 337.3547 14.06028012  9863
QIANFAN-205             
1 69804U 26153E   26255.09953713 -.01867040  00000+0 -12775+1 0  9990
2 69804  88.9973 352.4086 0005898 107.1201 253.0626 14.03472187  9867
QIANFAN-206             
1 69805U 26153F   26255.06098759 -.01864400  00000+0 -11646+1 0  9991
2 69805  88.9975 352.3663 0008502  49.6214 310.5711 14.08518989  9881
QIANFAN-207             
1 69806U 26153G   26255.18171333  .00000053  00000+0  22948-4 0  9999
2 69806  88.9975 352.3849 0007019  10.6375 349.4955 14.08325580  9880
QIANFAN-208             
1 69807U 26153H   26255.08364899 -.01770997  00000+0 -13151+1 0  9996
2 69807  88.9974 352.3885 0006765  84.4779 275.7171 13.99308751  9885
QIANFAN-209             
1 69808U 26153J   26255.12751127 -.01806223  00000+0 -12437+1 0  9994
2 69808  88.9976 352.3952 0008305 318.2242  41.8304 14.03639709  9873
QIANFAN-210             
1 69809U 26153K   26255.10297627 -.01824222  00000+0 -12450+1 0  9997
2 69809  88.9975 352.3919 0010094 338.0134  22.0612 14.04171207  9872
QIANFAN-211             
1 69810U 26153L   26255.22746876  .00000213  00000+0  10375-3 0  9997
2 69810  88.9981 352.3541 0007705  13.0473 347.0912 14.14537022  9902
QIANFAN-212             
1 69811U 26153M   26255.11257906 -.01869419  00000+0 -11890+1 0  9991
2 69811  88.9975 352.3741 0010757  16.1312 344.0211 14.07521934  9888
QIANFAN-213             
1 69812U 26153N   26255.05205679 -.01870448  00000+0 -12407+1 0  9994
2 69812  88.9977 352.3836 0009253 349.0344  11.0635 14.05201144  9874
QIANFAN-214             
1 69813U 26153P   26255.09903374 -.01854962  00000+0 -11400+1 0  9991
2 69813  88.9973 352.3343 0012233  22.3437 337.8277 14.09374988  9906
QIANFAN-215             
1 69814U 26153Q   26255.08386531 -.01828035  00000+0 -10005+1 0  9993
2 69814  88.9972 352.2935 0007503 356.2231   3.8899 14.15661032  9925
QIANFAN-216             
1 69815U 26153R   26255.04901187 -.01874735  00000+0 -11137+1 0  9995
2 69815  88.9977 352.3269 0009382  70.4517 289.7680 14.11294407  9906
QIANFAN-217             
1 69816U 26153S   26254.87470241 -.01878671  00000+0 -94297+0 0  9998
2 69816  88.9973 352.2808 0009426  18.8170 341.3367 14.20391829  9915
QIANFAN-218             
1 69817U 26153T   26255.08279613 -.01835997  00000+0 -91398+0 0  9996
2 69817  88.9977 352.2586 0005463  39.5456 320.6132 14.20758865  9947
QIANFAN-219             
1 69848U 26155A   26255.19729049  .00000010  00000+0 -36677-5 0  9990
2 69848  89.0073  54.5387 0037698  33.2786 327.0728 13.57836564  9611
QIANFAN-220             
1 69849U 26155B   26255.07177538 -.01887648  00000+0 -27982+1 0  9994
2 69849  89.0076  54.5801 0033718  35.7289 324.6113 13.58041752  9585
QIANFAN-221             
1 69850U 26155C   26255.20848020  .00000030  00000+0  14677-4 0  9992
2 69850  89.0076  54.3605 0031630  39.6581 320.6894 13.84456616  9711
QIANFAN-222             
1 69851U 26155D   26255.16035988 -.00000002  00000+0 -20336-4 0  9999
2 69851  89.0078  54.5895 0035040  32.9107 327.4220 13.57843997  9581
QIANFAN-223             
1 69852U 26155E   26255.07363891 -.01817370  00000+0 -30338+1 0  9991
2 69852  89.0076  54.5967 0035798  32.5329 327.8017 13.50315900  9570
QIANFAN-224             
1 69853U 26155F   26255.24132442  .00000012  00000+0 -53546-6 0  9994
2 69853  89.0051  54.5361 0036174  36.7557 323.6068 13.57972875  9612
QIANFAN-225             
1 69854U 26155G   26255.09161180  .00000008  00000+0 -62076-5 0  9991
2 69854  89.0072  54.5947 0035205  31.8126 328.5145 13.57849445  9579
QIANFAN-226             
1 69855U 26155H   26255.25352215  .00000026  00000+0  19505-4 0  9998
2 69855  89.0071  54.5633 0036492  33.8012 326.5458 13.57849836  9609
QIANFAN-227             
1 69856U 26155J   26255.14336639 -.01917916  00000+0 -31176+1 0  9991
2 69856  89.0064  54.5682 0034824  44.1352 316.2569 13.52266088  9599
QIANFAN-228             
1 69857U 26155K   26255.20678530  .00000015  00000+0  42975-5 0  9992
2 69857  89.0076  54.5601 0036539  35.2026 325.1532 13.57843827  9606
QIANFAN-229             
1 69858U 26155L   26255.10712045 -.01793252  00000+0 -28186+1 0  9990
2 69858  89.0076  54.5451 0035240  40.5602 319.8167 13.54098758  9603
QIANFAN-230             
1 69859U 26155M   26255.13838786 -.01829246  00000+0 -28763+1 0  9999
2 69859  89.0071  54.5837 0035257  41.2413 319.1393 13.54159373  9585
QIANFAN-231             
1 69860U 26155N   26254.94320755 -.01858970  00000+0 -29112+1 0  9996
2 69860  89.0070  54.5580 0039396  38.5756 321.8200 13.54425569  9588
QIANFAN-232             
1 69861U 26155P   26255.07329160 -.01807884  00000+0 -29035+1 0  9993
2 69861  89.0066  54.5379 0026164  41.1765 319.1355 13.52877916  9608
QIANFAN-233             
1 69862U 26155Q   26255.06639420 -.01823169  00000+0 -28269+1 0  9998
2 69862  89.0072  54.5394 0039577  38.3663 322.0294 13.54966167  9604
QIANFAN-234             
1 69863U 26155R   26255.10788558 -.01815535  00000+0 -24179+1 0  9995
2 69863  89.0069  54.4909 0035344  29.8253 330.4911 13.64524337  9632
QIANFAN-235             
1 69864U 26155S   26255.06708050 -.01804096  00000+0 -15556+1 0  9999
2 69864  89.0075  54.3416 0034163  31.3372 328.9828 13.90555578  9718
QIANFAN-236             
1 69865U 26155T   26255.09277238 -.01734995  00000+0 -27419+1 0  9993
2 69865  89.0075  54.5625 0034154  42.2698 318.1078 13.53628151  9596
QIANFAN-237             
1 69866U 26155U   26255.01180719 -.01871620  00000+0 -28313+1 0  9994
2 69866  89.0075  54.5329 0036036  34.5677 325.7810 13.56693294  9591
QIANFAN-238             
1 69867U 26155V   26255.23457370 -.01766387  00000+0 -27922+1 0  9997
2 69867  89.0077  54.5280 0029701  36.0491 324.2657 13.53745113  9624
