IRIDIUM 106             
1 41917U 17003A   26282.30655294  .00000173  00000+0  54695-4 0  9990
2 41917  86.3985  40.8125 0001871 101.2051 258.9355 14.34217979509569
IRIDIUM 103             
1 41918U 17003B   26282.29387351  .00000160  00000+0  50060-4 0  9993
2 41918  86.3983  40.7174 0002075  89.5500 270.5934 14.34217021509588
IRIDIUM 109             
1 41919U 17003C   26282.30023068  .00000063  00000+0  15299-4 0  9995
2 41919  86.3987  40.7763 0002087  94.3539 265.7896 14.34217926509550
IRIDIUM 102             
1 41920U 17003D   26282.75687824 -.00000049  00000+0 -24434-4 0  9999
2 41920  86.3984  40.5071 0001988  96.2865 263.8557 14.34217010509705
IRIDIUM 105             
1 41921U 17003E   26282.15732816 -.00000131  00000+0 -53887-4 0  9992
2 41921  86.4019   9.2252 0002239  91.7223 268.4229 14.34216118511479
IRIDIUM 104             
1 41922U 17003F   26282.76956311  .00000046  00000+0  94881-5 0  9991
2 41922  86.3986  40.5453 0002259  87.4099 272.7356 14.34217906509694
IRIDIUM 114             
1 41923U 17003G   26282.28752602 -.00000022  00000+0 -14996-4 0  9990
2 41923  86.3984  40.7303 0001982  91.9170 268.2253 14.34217305509601
IRIDIUM 108             
1 41924U 17003H   26282.73442641  .00000129  00000+0  39064-4 0  9999
2 41924  86.4021   8.8672 0002214  96.2697 263.8751 14.34217179511527
IRIDIUM 112             
1 41925U 17003J   26282.27484019  .00000150  00000+0  46452-4 0  9997
2 41925  86.3981  40.5720 0002164  93.3084 266.8360 14.34217910509621
IRIDIUM 111             
1 41926U 17003K   26282.82030373 -.00000054  00000+0 -26284-4 0  9995
2 41926  86.3982  40.4177 0001963  93.8430 266.2990 14.34217148509686
IRIDIUM 113             
1 42803U 17039A   26281.47466517 -.00000016  00000+0 -12780-4 0  9996
2 42803  86.3911 274.8105 0002210  87.9765 272.1684 14.34217416487429
IRIDIUM 123             
1 42804U 17039B   26282.56267228  .00000175  00000+0  55527-4 0  9996
2 42804  86.3937 305.8449 0002095  91.3885 268.7551 14.34217761486344
IRIDIUM 120             
1 42805U 17039C   26282.79391988  .00000115  00000+0  34141-4 0  9996
2 42805  86.3901 274.0255 0002174  91.3086 268.8359 14.34218958487605
IRIDIUM 115             
1 42806U 17039D   26282.79177762  .00000131  00000+0  32893-4 0  9999
2 42806  86.4438 274.1707 0002102  87.8578 272.2864 14.43280725490797
IRIDIUM 118             
1 42807U 17039E   26282.31531043  .00000078  00000+0  20708-4 0  9996
2 42807  86.3938 305.9460 0002239  92.6672 267.4780 14.34218428486307
IRIDIUM 117             
1 42808U 17039F   26282.47387324  .00000239  00000+0  78310-4 0  9996
2 42808  86.3938 305.8363 0002180  91.9808 268.1637 14.34217532486356
IRIDIUM 126             
1 42809U 17039G   26282.28994024  .00000006  00000+0 -49711-5 0  9994
2 42809  86.3936 305.9660 0002106  89.9955 270.1483 14.34217768486302
IRIDIUM 124             
1 42810U 17039H   26282.65626630  .00000208  00000+0  55765-4 0  9990
2 42810  86.4471 242.4697 0002197  86.3058 273.8394 14.43278477491625
IRIDIUM 128             
1 42811U 17039J   26282.14114319  .00000119  00000+0  35510-4 0  9998
2 42811  86.3997 337.5396 0002076  94.2034 265.9399 14.34217572486314
IRIDIUM 121             
1 42812U 17039K   26282.79734832 -.00000014  00000+0 -12222-4 0  9999
2 42812  86.3935 305.7822 0002103  94.0932 266.0505 14.34217499486256
IRIDIUM 133             
1 42955U 17061A   26282.10308636  .00000114  00000+0  33591-4 0  9997
2 42955  86.4000 337.6764 0002175  95.6145 264.5299 14.34218126471108
IRIDIUM 100             
1 42956U 17061B   26282.23628141  .00000062  00000+0  15238-4 0  9998
2 42956  86.3998 337.5367 0002198  94.9309 265.2138 14.34218086471128
IRIDIUM 122             
1 42957U 17061C   26282.83248578 -.00000110  00000+0 -46216-4 0  9993
2 42957  86.3993 337.2878 0002057  92.7114 267.4317 14.34216860471213
IRIDIUM 129             
1 42958U 17061D   26282.85785630 -.00000011  00000+0 -11163-4 0  9994
2 42958  86.3993 337.3454 0002283  92.0881 268.0576 14.34217423471232
IRIDIUM 119             
1 42959U 17061E   26281.91914855  .00000170  00000+0  53781-4 0  9990
2 42959  86.4002 337.7342 0002171  92.6315 267.5129 14.34217031471119
IRIDIUM 107             
1 42960U 17061F   26282.70563294  .00000180  00000+0  57323-4 0  9994
2 42960  86.3999 337.4275 0001999  92.4524 267.6901 14.34218270471232
IRIDIUM 132             
1 42961U 17061G   26282.15382796 -.00000034  00000+0 -19049-4 0  9993
2 42961  86.3996 337.6365 0002094  94.2456 265.8979 14.34217256471152
IRIDIUM 136             
1 42962U 17061H   26282.11577236  .00000136  00000+0  41666-4 0  9996
2 42962  86.4001 337.6600 0002194  96.0898 264.0548 14.34218036471165
IRIDIUM 139             
1 42963U 17061J   26280.65697489  .00000061  00000+0  14858-4 0  9997
2 42963  86.4004 338.3330 0002165  94.9824 265.1619 14.34218212470965
IRIDIUM 125             
1 42964U 17061K   26282.24896686  .00000002  00000+0 -64410-5 0  9991
2 42964  86.4004 337.7311 0002103  82.3058 277.8377 14.34217480471205
IRIDIUM 135             
1 43070U 17083A   26281.52540623 -.00000038  00000+0 -20682-4 0  9993
2 43070  86.3906 274.6186 0002135  89.0282 271.1159 14.34217057460394
IRIDIUM 138             
1 43071U 17083B   26281.96938732 -.00000003  00000+0 -82196-5 0  9995
2 43071  86.3918 274.1454 0002174  86.1802 273.9642 14.34217408460443
IRIDIUM 116             
1 43072U 17083C   26281.51906299  .00000169  00000+0  53221-4 0  9997
2 43072  86.3904 274.6059 0002066  94.6984 265.4448 14.34217800460413
IRIDIUM 130             
1 43073U 17083D   26281.97573013  .00000044  00000+0  85151-5 0  9992
2 43073  86.3913 274.7012 0002050  90.2217 269.9214 14.34217714460423
IRIDIUM 151             
1 43074U 17083E   26281.95035956  .00000058  00000+0  13752-4 0  9992
2 43074  86.3907 274.4856 0002226  90.6731 269.4720 14.34217603460446
IRIDIUM 134             
1 43075U 17083F   26281.91864714  .00000065  00000+0  16289-4 0  9997
2 43075  86.3908 274.5084 0002178  89.3695 270.7750 14.34217977460400
IRIDIUM 137             
1 43076U 17083G   26281.93133259  .00000160  00000+0  49904-4 0  9999
2 43076  86.3909 274.5982 0002328  97.2550 262.8910 14.34217597460479
IRIDIUM 141             
1 43077U 17083H   26282.41336792  .00000042  00000+0  78493-5 0  9996
2 43077  86.3905 274.2205 0002280  87.9442 272.2015 14.34217397460541
IRIDIUM 153             
1 43078U 17083J   26281.87716870  .00000198  00000+0  63679-4 0  9996
2 43078  86.3945 242.9126 0002282  82.5513 277.5943 14.34217629461572
IRIDIUM 131             
1 43079U 17083K   26281.98207233 -.00000050  00000+0 -25021-4 0  9995
2 43079  86.3910 274.5949 0002166  89.2539 270.8905 14.34217099460419
IRIDIUM 144             
1 43249U 18030A   26280.76721348  .00000149  00000+0  46213-4 0  9993
2 43249  86.3942 243.3031 0002171  88.3887 271.7558 14.34219033446273
IRIDIUM 149             
1 43250U 18030B   26282.86661352  .00000022  00000+0  74193-6 0  9996
2 43250  86.3943 242.3909 0002245  83.6272 276.5179 14.34217590446590
IRIDIUM 157             
1 43251U 18030C   26282.60656767  .00000031  00000+0  38379-5 0  9998
2 43251  86.3944 242.5554 0002236  83.4862 276.6588 14.34217214446535
IRIDIUM 140             
1 43252U 18030D   26282.13721533 -.00000007  00000+0 -94172-5 0  9999
2 43252  86.3946 242.7643 0002089  84.8156 275.3278 14.34217354446522
IRIDIUM 145             
1 43253U 18030E   26282.75244588  .00000080  00000+0  21485-4 0  9993
2 43253  86.3944 242.4788 0002065  91.3714 268.7719 14.34217458446548
IRIDIUM 146             
1 43254U 18030F   26281.82642714  .00000013  00000+0 -25068-5 0  9993
2 43254  86.3944 242.8778 0002179  87.7719 272.3726 14.34218071446420
IRIDIUM 148             
1 43255U 18030G   26282.14355824  .00000003  00000+0 -59168-5 0  9990
2 43255  86.3946 242.7904 0002180  87.1933 272.9512 14.34217245446507
IRIDIUM 142             
1 43256U 18030H   26281.83277065 -.00000013  00000+0 -11539-4 0  9997
2 43256  86.3942 242.8052 0002053  89.0082 271.1349 14.34217606446425
IRIDIUM 150             
1 43257U 18030J   26281.38244687 -.00000138  00000+0 -56271-4 0  9992
2 43257  86.3943 243.1131 0002178  86.3757 273.7688 14.34217041446388
IRIDIUM 143             
1 43258U 18030K   26282.20064080  .00000096  00000+0  27209-4 0  9992
2 43258  86.3947 242.8679 0002133  86.4452 273.6988 14.34217787446435
IRIDIUM 161             
1 43478U 18047C   26280.83160657  .00000189  00000+0  50058-4 0  9999
2 43478  86.4502  41.3364 0002315  93.1684 266.9782 14.43280888441382
IRIDIUM 152             
1 43479U 18047D   26281.82451603  .00000104  00000+0  29914-4 0  9998
2 43479  86.3979  40.7839 0002121  95.2971 264.8467 14.34216738438776
IRIDIUM 147             
1 43480U 18047E   26281.83085891  .00000094  00000+0  26656-4 0  9991
2 43480  86.3981  40.7884 0002051  97.7986 262.3443 14.34219985438770
IRIDIUM 110             
1 43481U 18047F   26281.83720200 -.00000013  00000+0 -11652-4 0  9995
2 43481  86.3981  40.8811 0002195  91.5258 268.6189 14.34217672438761
IRIDIUM 162             
1 43482U 18047G   26282.28125158  .00000196  00000+0  52244-4 0  9999
2 43482  86.4504  40.6204 0002115  93.1118 267.0325 14.43280027441586
IRIDIUM 160             
1 43569U 18061A   26282.27141424  .00000132  00000+0  40187-4 0  9997
2 43569  86.4024   9.1018 0002238  96.3480 263.7971 14.34219258429725
IRIDIUM 166             
1 43570U 18061B   26282.78516875 -.00000058  00000+0 -27643-4 0  9992
2 43570  86.4017   8.8362 0002047  97.6971 262.4457 14.34216937429821
IRIDIUM 158             
1 43571U 18061C   26282.75345470 -.00000025  00000+0 -16057-4 0  9992
2 43571  86.4018   8.8595 0002023  94.0873 266.0554 14.34217242429780
IRIDIUM 165             
1 43572U 18061D   26282.22067724 -.00000011  00000+0 -10976-4 0  9997
2 43572  86.4019   9.1306 0002000  97.1455 262.9968 14.34217470429733
IRIDIUM 155             
1 43573U 18061E   26282.18262756  .00000171  00000+0  54147-4 0  9998
2 43573  86.4020   9.0099 0002097  95.2787 264.8649 14.34217898429693
IRIDIUM 154             
1 43574U 18061F   26282.79150988  .00000000  00000+0 -69752-5 0  9990
2 43574  86.4020   8.8949 0002025  98.0160 262.1265 14.34217627429833
IRIDIUM 163             
1 43575U 18061G   26282.77248238 -.00000009  00000+0 -10106-4 0  9993
2 43575  86.4016   8.8144 0002066  94.3944 265.7488 14.34217607429801
IRIDIUM 156             
1 43576U 18061H   26282.74711191  .00000013  00000+0 -23148-5 0  9999
2 43576  86.4017   8.8326 0001933  95.7001 264.4416 14.34217594429796
IRIDIUM 164             
1 43577U 18061J   26282.72808440  .00000003  00000+0 -61106-5 0  9997
2 43577  86.4017   8.8825 0002057  99.1004 261.0425 14.34217513429839
IRIDIUM 159             
1 43578U 18061K   26282.20799135  .00000008  00000+0 -43169-5 0  9995
2 43578  86.4015   9.0341 0002103  94.4009 265.7427 14.34217757429720
IRIDIUM 180             
1 43922U 19002A   26281.99818196 -.00000007  00000+0 -97392-5 0  9995
2 43922  86.3936 306.0405 0002139  92.6980 267.4461 14.34217599405301
IRIDIUM 176             
1 43923U 19002B   26282.82050737  .00000500  00000+0  75322-4 0  9992
2 43923  86.6058 305.6236 0002331  91.1346 269.0138 14.72249837416113
IRIDIUM 168             
1 43924U 19002C   26281.57322770  .00000084  00000+0  23026-4 0  9994
2 43924  86.3940 306.2988 0002234  92.6412 267.5040 14.34218296405222
IRIDIUM 173             
1 43925U 19002D   26282.18845939  .00000006  00000+0 -49534-5 0  9998
2 43925  86.3933 305.9253 0002094  92.3302 267.8134 14.34217662405295
IRIDIUM 169             
1 43926U 19002E   26282.11503858  .00000273  00000+0  82647-4 0  9999
2 43926  86.4253 337.5946 0001887  89.8097 270.3317 14.38608257406609
IRIDIUM 172             
1 43927U 19002F   26281.41466102  .00000153  00000+0  47709-4 0  9999
2 43927  86.3938 306.2578 0002268  92.0476 268.0979 14.34219054405194
IRIDIUM 175             
1 43928U 19002G   26282.85147903  .00000242  00000+0  65343-4 0  9997
2 43928  86.4499 242.5630 0002948 161.1212 199.0099 14.43652785415526
IRIDIUM 171             
1 43929U 19002H   26282.79100550 -.00000029  00000+0 -17595-4 0  9999
2 43929  86.3944 306.0007 0002047  94.7341 265.4089 14.34217445405389
IRIDIUM 170             
1 43930U 19002J   26281.60327912  .00000475  00000+0  71463-4 0  9990
2 43930  86.6060 306.1346 0002389  91.0049 269.1442 14.72253757415949
IRIDIUM 167             
1 43931U 19002K   26282.78466206  .00000001  00000+0 -67112-5 0  9994
2 43931  86.3933 305.7075 0001933  95.3782 264.7634 14.34217781405381
IRIDIUM 181             
1 56726U 23068S   26282.77728068  .00000248  00000+0  67642-4 0  9992
2 56726  86.4560   8.8957 0002337  96.8930 263.2536 14.43310085178961
IRIDIUM 177             
1 56727U 23068T   26280.01235837  .00000280  00000+0  35922-4 0  9997
2 56727  86.1909 275.7619 0002463  86.3827 273.7674 14.77173851182896
IRIDIUM 174             
1 56728U 23068U   26281.59091338  .00000527  00000+0  79615-4 0  9999
2 56728  86.6069 306.2987 0002365  88.3655 271.7833 14.72255551182707
IRIDIUM 178             
1 56729U 23068V   26282.16649383  .00000634  00000+0  80414-4 0  9991
2 56729  86.6568 337.7723 0002389  89.6316 270.5180 14.80042969183229
IRIDIUM 179             
1 56730U 23068W   26282.16110542  .00000557  00000+0  70159-4 0  9992
2 56730  86.6822 347.0893 0002248  93.4864 266.6615 14.80035318183220
