KUIPER-00008            
1 63724U 25088A   26251.60680502 -.00001536  00000+0 -17255-3 0  9997
2 63724  51.9029 359.1475 0000585 160.6458 199.4527 14.79920494 75134
KUIPER-00009            
1 63725U 25088B   26251.73370246  .00007371  00000+0  49217-3 0  9997
2 63725  51.9031   8.2464 0000793 110.4418 249.6642 15.07940134 75016
KUIPER-00010            
1 63726U 25088C   26251.57845049  .00001220  00000+0  18908-3 0  9998
2 63726  51.9033 354.3836 0000462  93.0240 267.0775 14.79923330 74814
KUIPER-00011            
1 63727U 25088D   26251.60413610 -.00000089  00000+0  17324-4 0  9993
2 63727  51.9017   1.8117 0000468 102.5257 257.5757 14.79928314 74847
KUIPER-00012            
1 63728U 25088E   26251.51900012 -.00000017  00000+0  26815-4 0  9997
2 63728  51.9021 347.1284 0000273  77.1835 282.9158 14.79927494 74998
KUIPER-00013            
1 63729U 25088F   26251.78783439 -.00000093  00000+0  16770-4 0  9992
2 63729  51.9032  18.4592 0000573 110.4771 249.6254 14.79923496 74685
KUIPER-00014            
1 63730U 25088G   26251.75404177 -.00000092  00000+0  16873-4 0  9993
2 63730  51.9029  18.5519 0000466 108.6956 251.4057 14.79918904 74497
KUIPER-00015            
1 63731U 25088H   26251.57446361  .00000794  00000+0  13314-3 0  9999
2 63731  51.9002  29.3939 0000487 126.1201 233.9806 14.79923996 74782
KUIPER-00016            
1 63732U 25088J   26251.75136748  .00003077  00000+0  43244-3 0  9997
2 63732  51.9013  21.0705 0000439 112.6821 247.4188 14.79935886 74458
KUIPER-00018            
1 63733U 25088K   26251.72839107 -.00000410  00000+0 -24757-4 0  9993
2 63733  51.9050  11.2158 0000338  74.4381 285.6618 14.79924048 74592
KUIPER-00019            
1 63734U 25088L   26251.75505465  .00001205  00000+0  18700-3 0  9995
2 63734  51.9023   9.8465 0000394 140.6493 219.4498 14.79933402 74617
KUIPER-00020            
1 63735U 25088M   26251.72569841  .00001228  00000+0  19009-3 0  9999
2 63735  51.9032  13.7252 0000516 104.2344 255.8676 14.79926634 74760
KUIPER-00021            
1 63736U 25088N   26251.75944661  .00000897  00000+0  14667-3 0  9996
2 63736  51.9012  13.5253 0000483 137.4577 222.6422 14.79933490 74609
KUIPER-00023            
1 63737U 25088P   26251.65546442  .00001106  00000+0  17403-3 0  9996
2 63737  51.9027  16.4758 0000467 107.0121 253.0893 14.79926414 74853
KUIPER-00024            
1 63738U 25088Q   26251.53390138 -.00000317  00000+0 -12620-4 0  9995
2 63738  51.9046   4.6270 0000563  84.4825 275.6202 14.79923826 75139
KUIPER-00025            
1 63739U 25088R   26251.76216561  .00000673  00000+0  11721-3 0  9991
2 63739  51.9057  11.0974 0000559 115.2181 244.8840 14.79932812 74925
KUIPER-00027            
1 63740U 25088S   26251.73379346  .00000317  00000+0  70654-4 0  9997
2 63740  51.9030   6.1797 0000807 115.9282 244.1763 14.79923038 74726
KUIPER-00028            
1 63741U 25088T   26251.56765370  .00001082  00000+0  17095-3 0  9994
2 63741  51.9010   4.3583 0000320 141.3489 218.7496 14.79935595 75148
KUIPER-00029            
1 63742U 25088U   26251.74619788  .00001269  00000+0  19557-3 0  9998
2 63742  51.9036   2.2645 0000293 137.4892 222.6093 14.79902967 74712
KUIPER-00030            
1 63743U 25088V   26251.58254513  .00001024  00000+0  16327-3 0  9993
2 63743  51.9029  21.8105 0000330  67.2101 292.8896 14.79927787 74715
KUIPER-00031            
1 63744U 25088W   26251.76755620  .00001421  00000+0  21542-3 0  9995
2 63744  51.9024   6.0147 0000356 106.6768 253.4234 14.79924063 74664
KUIPER-00032            
1 63745U 25088X   26251.28677184  .00015063  00000+0  35289-3 0  9991
2 63745  51.8651 217.7331 0005242  53.5147 306.6324 15.42296267 77681
KUIPER-00033            
1 63746U 25088Y   26251.80271307  .00002882  00000+0  40702-3 0  9998
2 63746  51.9012  35.8576 0000438 103.6541 256.4470 14.79921829 74736
KUIPER-00034            
1 63747U 25088Z   26251.57305671  .00001096  00000+0  17279-3 0  9994
2 63747  51.9035 359.4113 0000557 103.5609 256.5416 14.79925958 74907
KUIPER-00035            
1 63748U 25088AA  26251.81616262 -.00001105  00000+0 -11601-3 0  9999
2 63748  51.9018  23.3009 0000953 100.2634 259.8436 14.79918249 74646
KUIPER-00037            
1 63749U 25088AB  26251.74159883  .00001138  00000+0  17826-3 0  9992
2 63749  51.9028  22.4908 0000539 116.5825 243.5193 14.79927975 75432
KUIPER-00038            
1 63750U 25088AC  26251.73107063  .00001348  00000+0  20589-3 0  9999
2 63750  51.9037   8.7105 0000694 108.7648 251.3390 14.79923521 74627
KUIPER-00039            
1 64500U 25134A   26250.75824319  .00002206  00000+0  31842-3 0  9994
2 64500  51.9006 148.0107 0000800 104.8869 255.2182 14.79922735 67033
KUIPER-00040            
1 64501U 25134B   26251.45653608  .00002473  00000+0  35331-3 0  9997
2 64501  51.8991 154.9848 0001149  87.9833 272.1261 14.79933465 66995
KUIPER-00041            
1 64502U 25134C   26251.75769265  .00000749  00000+0  12731-3 0  9991
2 64502  51.8979 156.0433 0001120  94.3501 265.7590 14.79929176 67008
KUIPER-00042            
1 64503U 25134D   26251.72932115  .00001628  00000+0  24252-3 0  9993
2 64503  51.8987 151.1486 0000941 103.8127 256.2940 14.79929579 67070
KUIPER-00043            
1 64504U 25134E   26251.39974804  .00002276  00000+0  32745-3 0  9994
2 64504  51.9018 145.1168 0000697  98.5299 261.5742 14.79933435 67137
KUIPER-00044            
1 64505U 25134F   26251.45382140  .00000714  00000+0  12265-3 0  9998
2 64505  51.8985 157.3686 0001043  94.2246 265.8836 14.79929358 66961
KUIPER-00046            
1 64506U 25134G   26251.76039850  .00002805  00000+0  39684-3 0  9997
2 64506  51.8981 153.4848 0001063  89.0715 271.0369 14.79930789 67040
KUIPER-00047            
1 64507U 25134H   26251.82380983  .00002757  00000+0  39051-3 0  9995
2 64507  51.8980 125.7323 0000796  95.4259 264.6794 14.79932145 67437
KUIPER-00048            
1 64508U 25134J   26251.04714721  .00001894  00000+0  27742-3 0  9996
2 64508  51.8989 129.1793 0000587 142.9497 217.1506 14.79923228 67320
KUIPER-00049            
1 64509U 25134K   26251.40515325  .00001853  00000+0  27199-3 0  9997
2 64509  51.9032 140.0661 0000669 110.7304 249.3731 14.79925572 67206
KUIPER-00050            
1 64510U 25134L   26251.82916978 -.00008367  00000+0 -10697-2 0  9997
2 64510  51.8992 120.7126 0000414  83.7179 276.3830 14.79939666 67513
KUIPER-00051            
1 64511U 25134M   26250.43576893  .00000335  00000+0  72975-4 0  9996
2 64511  51.9006 143.0525 0000955 105.9586 254.1482 14.79927533 67079
KUIPER-00053            
1 64513U 25134P   26251.40238217  .00001931  00000+0  27098-3 0  9999
2 64513  51.9008 133.3299 0002503  87.3677 272.7573 14.81705537 67290
KUIPER-00054            
1 64514U 25134Q   26251.38217797  .00002814  00000+0  39799-3 0  9999
2 64514  51.8959 130.1731 0000994 100.3243 259.7831 14.79931066 67330
KUIPER-00055            
1 64515U 25134R   26251.93990618  .00002665  00000+0  37840-3 0  9990
2 64515  51.9011  80.3555 0000661 105.5972 254.5063 14.79935667 68082
KUIPER-00056            
1 64516U 25134S   26250.39762411  .00000721  00000+0  12357-3 0  9995
2 64516  51.9023 139.6417 0001022  89.1442 270.9638 14.79926992 67127
KUIPER-00057            
1 64517U 25134T   26250.99728284  .00007542  00000+0  10170-2 0  9990
2 64517  51.8947 144.4049 0001014  92.2337 267.8741 14.79941289 67100
KUIPER-00058            
1 64518U 25134U   26250.96891292  .00002190  00000+0  31626-3 0  9992
2 64518  51.9005 139.5097 0000791 107.6718 252.4331 14.79929270 67178
KUIPER-00059            
1 64519U 25134V   26251.37948022  .00002363  00000+0  33879-3 0  9997
2 64519  51.9001 132.7316 0000786  89.3110 270.7943 14.79945017 67304
KUIPER-00060            
1 64520U 25134W   26251.81844447  .00002756  00000+0  39030-3 0  9995
2 64520  51.9017 130.8660 0000712 102.0463 258.0579 14.79935627 67352
KUIPER-00061            
1 64521U 25134X   26251.84411878  .00002881  00000+0  40684-3 0  9993
2 64521  51.8999 138.1946 0000941  97.3439 262.7631 14.79930681 67257
KUIPER-00062            
1 64522U 25134Y   26251.84139903  .00002561  00000+0  36490-3 0  9995
2 64522  51.8963 140.6566 0000860 104.1002 256.0056 14.79925527 67236
KUIPER-00063            
1 64523U 25134Z   26250.75284505  .00002622  00000+0  37289-3 0  9999
2 64523  51.8993 153.0607 0001394  95.0823 265.0298 14.79931970 66962
KUIPER-00064            
1 64524U 25134AA  26251.97108241  .00002910  00000+0  41049-3 0  9996
2 64524  51.9025 145.1001 0001199  90.4049 269.7051 14.79936943 67180
KUIPER-00065            
1 64525U 25134AB  26251.15534069  .00002560  00000+0  36470-3 0  9991
2 64525  51.9038 153.8820 0000773 101.5072 258.5977 14.79937397 66970
KUIPER-00066            
1 64526U 25134AC  26251.79670902 -.00001912  00000+0 -22188-3 0  9992
2 64526  51.9015  88.3129 0000585  98.1462 261.9566 14.79936265 67960
KUIPER-00069            
1 64816U 25151A   26251.24725946  .00002380  00000+0  34119-3 0  9997
2 64816  51.9007 193.3848 0000991  63.4574 296.6490 14.79929143 63793
KUIPER-00070            
1 64817U 25151B   26251.92934302  .00002575  00000+0  36667-3 0  9997
2 64817  51.8990 215.2675 0001042  63.9345 296.1725 14.79928744 63551
KUIPER-00071            
1 64818U 25151C   26251.32427104  .00002550  00000+0  36335-3 0  9994
2 64818  51.8994 215.4886 0000701  90.0179 270.0863 14.79931118 62315
KUIPER-00072            
1 64819U 25151D   26251.24454412  .00000775  00000+0  13074-3 0  9990
2 64819  51.9002 195.7676 0001004  67.5803 292.5266 14.79927012 62587
KUIPER-00073            
1 64820U 25151E   26250.88532161  .00002392  00000+0  34261-3 0  9997
2 64820  51.8988 217.4072 0000856  50.5214 309.5824 14.79937563 63431
KUIPER-00075            
1 64822U 25151G   26251.74488444  .00023630  00000+0  61836-3 0  9995
2 64822  51.8645  48.9489 0003115 192.8418 167.2490 15.38607741 64661
KUIPER-00076            
1 64823U 25151H   26250.62598628  .00001129  00000+0  17715-3 0  9994
2 64823  51.9010 208.5790 0000942  61.9446 298.1611 14.79927926 62357
KUIPER-00077            
1 64824U 25151J   26251.90366513  .00001596  00000+0  23825-3 0  9990
2 64824  51.9015 207.9491 0000821  59.0145 301.0898 14.79940039 62478
KUIPER-00078            
1 64825U 25151K   26251.26483006  .00002803  00000+0  39665-3 0  9998
2 64825  51.8984 208.2463 0000821  67.4255 292.6794 14.79925234 62415
KUIPER-00079            
1 64826U 25151L   26251.56332363  .00000756  00000+0  12817-3 0  9996
2 64826  51.8997 211.8819 0000779  53.9227 306.1807 14.79928313 63582
KUIPER-00080            
1 64827U 25151M   26251.25943374  .00002320  00000+0  33323-3 0  9997
2 64827  51.8992 213.2382 0000667  90.0373 270.0665 14.79934020 62345
KUIPER-00082            
1 64828U 25151N   26251.23916285  .00002722  00000+0  38590-3 0  9994
2 64828  51.8999 200.8892 0000819  67.5174 292.5875 14.79928266 62514
KUIPER-00083            
1 64829U 25151P   26251.23107187  .00000837  00000+0  13875-3 0  9992
2 64829  51.9007 208.4069 0000761  53.9596 306.1437 14.79930000 63593
KUIPER-00084            
1 64830U 25151Q   26251.28780183  .00000358  00000+0  75952-4 0  9995
2 64830  51.8987 218.1424 0000743  94.9927 265.1120 14.79931010 62276
KUIPER-00085            
1 64831U 25151R   26251.81316016  .00001835  00000+0  26965-3 0  9995
2 64831  51.9029 198.4067 0000791  63.8413 296.2631 14.79940222 62598
KUIPER-00086            
1 64832U 25151S   26251.26210670 -.00002685  00000+0 -32344-3 0  9998
2 64832  51.8998 210.7787 0000759  74.2153 285.8892 14.79926542 62379
KUIPER-00087            
1 64833U 25151T   26251.82116849  .00003025  00000+0  42530-3 0  9999
2 64833  51.8987 190.7617 0001070  58.2938 301.8129 14.79964203 62690
KUIPER-00089            
1 64834U 25151U   26251.54573481  .00002222  00000+0  32044-3 0  9995
2 64834  51.8998 197.0061 0000689  89.9853 270.1189 14.79925182 62594
KUIPER-00090            
1 64835U 25151V   26251.21616628  .00002687  00000+0  38143-3 0  9992
2 64835  51.8976 190.9586 0000944  89.9284 270.1787 14.79925777 62647
KUIPER-00091            
1 64836U 25151W   26251.21077835  .00000668  00000+0  11656-3 0  9991
2 64836  51.9013 196.0085 0000774  62.5559 297.5482 14.79934052 62578
KUIPER-00092            
1 64837U 25151X   26251.27022274  .00000360  00000+0  76272-4 0  9990
2 64837  51.9012 203.2320 0000794  87.3264 272.7789 14.79924332 63690
KUIPER-00093            
1 64838U 25151Y   26250.86233915  .00002527  00000+0  36037-3 0  9992
2 64838  51.8983 207.5065 0000801  78.0996 282.0056 14.79938738 62389
KUIPER-00094            
1 64839U 25151Z   26251.18102382  .00003022  00000+0  42523-3 0  9990
2 64839  51.9030 161.2111 0001100  78.8964 281.2122 14.79932405 63064
KUIPER-00081            
1 65132U 25171A   26251.66027394  .00000688  00000+0  11925-3 0  9998
2 65132  51.8996  58.9758 0000619 110.4041 249.6988 14.79927328 60134
KUIPER-00088            
1 65133U 25171B   26251.91152004  .00000398  00000+0  81172-4 0  9994
2 65133  51.8970  75.3657 0000774  92.9663 267.1388 14.79923367 59927
KUIPER-00095            
1 65134U 25171C   26251.66297654  .00002529  00000+0  36068-3 0  9999
2 65134  51.8980  56.5021 0000792 108.4722 251.6326 14.79922838 60164
KUIPER-00096            
1 65135U 25171D   26251.88584857  .00002577  00000+0  36698-3 0  9990
2 65135  51.8982  67.9726 0000631 109.5801 250.5230 14.79928655 60027
KUIPER-00097            
1 65136U 25171E   26251.74810583  .00001410  00000+0  21390-3 0  9992
2 65136  51.9005  71.2502 0000582 115.4784 244.6238 14.79925536 59953
KUIPER-00098            
1 65137U 25171F   26251.88045523 -.00000071  00000+0  19657-4 0  9999
2 65137  51.8993  73.0246 0000840 112.7358 247.3693 14.79925912 59298
KUIPER-00099            
1 65138U 25171G   26251.85748737  .00002646  00000+0  37606-3 0  9996
2 65138  51.9018  63.1399 0000658 122.6427 237.4599 14.79926911 60085
KUIPER-00100            
1 65139U 25171H   26251.89392856  .00002679  00000+0  38036-3 0  9992
2 65139  51.9015  60.4441 0000521  86.9781 273.1241 14.79926333 60129
KUIPER-00102            
1 65140U 25171J   26251.68864934  .00002609  00000+0  37118-3 0  9995
2 65140  51.8984  63.8236 0000793 119.4582 240.6459 14.79927768 60051
KUIPER-00103            
1 65141U 25171K   26251.90611754  .00000337  00000+0  73166-4 0  9991
2 65141  51.8978  80.3642 0000739  99.3812 260.7234 14.79932082 59846
KUIPER-00104            
1 65142U 25171L   26251.78454535  .00002431  00000+0  34787-3 0  9992
2 65142  51.9015  68.4173 0000555 100.0166 260.0859 14.79927605 60005
KUIPER-00105            
1 65143U 25171M   26251.81023262  .00001456  00000+0  21999-3 0  9993
2 65143  51.8994  75.8967 0000681 107.9061 252.1976 14.79930619 59902
KUIPER-00106            
1 65144U 25171N   26251.65585440  .00025538  00000+0  33721-2 0  9999
2 65144  51.9017  55.3468 0001554 123.5468 236.5643 14.79859133 60184
KUIPER-00107            
1 65145U 25171P   26251.76156600  .00000314  00000+0  70254-4 0  9993
2 65145  51.8994  58.5527 0000679 118.1624 241.9407 14.79933182 60141
KUIPER-00108            
1 65146U 25171Q   26251.71432987  .00000494  00000+0  93784-4 0  9996
2 65146  51.9018  71.3107 0000688  94.8524 265.2517 14.79926132 59962
KUIPER-00109            
1 65147U 25171R   26251.68592791  .00000009  00000+0  30149-4 0  9991
2 65147  51.8997  66.3758 0000648 102.4856 257.6179 14.79921723 60023
KUIPER-00110            
1 65148U 25171S   26251.90882922  .00002449  00000+0  35015-3 0  9991
2 65148  51.8986  77.9379 0000646 108.7510 251.3522 14.79925427 59872
KUIPER-00111            
1 65149U 25171T   26251.73459738  .00000326  00000+0  71760-4 0  9998
2 65149  51.8952  83.5725 0000924 114.8905 245.2153 14.79927246 59782
KUIPER-00112            
1 65150U 25171U   26251.85476341  .00002581  00000+0  36733-3 0  9997
2 65150  51.9007  65.6747 0000789 115.7444 244.3600 14.79938956 60046
KUIPER-00114            
1 65151U 25171V   26251.73190794  .00002599  00000+0  36983-3 0  9996
2 65151  51.8982  86.1784 0000747 111.3588 248.7454 14.79931039 59747
KUIPER-00115            
1 65152U 25171W   26251.74000108  .00002446  00000+0  34974-3 0  9996
2 65152  51.8999  78.6505 0000742 104.3539 255.7506 14.79931061 59859
KUIPER-00116            
1 65153U 25171X   26251.83590776  .00002487  00000+0  35504-3 0  9997
2 65153  51.8993  83.2585 0000673 106.6730 253.4306 14.79934552 59799
KUIPER-00118            
1 65154U 25171Y   26251.83319843  .00000621  00000+0  11048-3 0  9997
2 65154  51.8984  85.7186 0000814 120.5963 239.5080 14.79934710 59761
KUIPER-00119            
1 65155U 25171Z   26251.91421260  .00002506  00000+0  35753-3 0  9997
2 65155  51.9001  72.9616 0000850 106.5005 253.6051 14.79936085 59942
KUIPER-00120            
1 65762U 25217A   26251.47573540  .00002557  00000+0  36421-3 0  9991
2 65762  51.9000 324.7693 0000398  91.5109 268.5899 14.79934370 51800
KUIPER-00132            
1 65763U 25217B   26251.83198187  .00029034  00000+0  74127-3 0  9996
2 65763  51.8536 192.0572 0006281 263.2749  96.7524 15.39234687 53675
KUIPER-00133            
1 65764U 25217C   26252.18482288  .00000556  00000+0  10189-3 0  9990
2 65764  51.9046 321.7703 0000596  82.6856 277.4174 14.79928018 51910
KUIPER-00139            
1 65765U 25217D   26251.40947557  .00001742  00000+0  25751-3 0  9999
2 65765  51.8990 292.6265 0000446  63.1977 296.9031 14.79931278 52257
KUIPER-00142            
1 65766U 25217E   26252.16990206  .00000258  00000+0  62801-4 0  9992
2 65766  51.9003 304.2301 0000490  80.0020 280.0998 14.79923004 52154
KUIPER-00145            
1 65767U 25217F   26252.16720079  .00000638  00000+0  11266-3 0  9992
2 65767  51.9005 306.7663 0000270 341.2807  18.8146 14.79933518 52115
KUIPER-00147            
1 65768U 25217G   26252.13074198 -.00000027  00000+0  25469-4 0  9998
2 65768  51.8994 309.4030 0000436  43.3164 316.7833 14.79924652 52077
KUIPER-00148            
1 65769U 25217H   26250.39386829  .00000067  00000+0  37869-4 0  9992
2 65769  51.9050 299.6275 0000688  76.8613 283.2426 14.79921039 52063
KUIPER-00150            
1 65770U 25217J   26251.91739330  .00002641  00000+0  37522-3 0  9997
2 65770  51.9024 320.3936 0000547  97.1104 262.9921 14.79936550 51907
KUIPER-00151            
1 65771U 25217K   26252.19559543  .00000456  00000+0  88861-4 0  9990
2 65771  51.9024 311.6621 0000389  69.5044 290.5960 14.79928583 52056
KUIPER-00152            
1 65772U 25217L   26252.10776745  .00000338  00000+0  73381-4 0  9997
2 65772  51.8985 299.5305 0000385  66.0219 294.0784 14.79932441 52216
KUIPER-00153            
1 65773U 25217M   26252.11317944  .00002089  00000+0  30291-3 0  9998
2 65773  51.9034 294.5924 0000540  88.0826 272.0198 14.79934437 52285
KUIPER-00155            
1 65774U 25217N   26252.07529492  .00001203  00000+0  18670-3 0  9991
2 65774  51.9032 267.2221 0000650  70.9872 289.1161 14.79938301 52669
KUIPER-00156            
1 65775U 25217P   26252.14694271  .00000371  00000+0  77683-4 0  9993
2 65775  51.9032 294.4249 0000520  89.0334 271.0688 14.79927661 52281
KUIPER-00165            
1 65778U 25217S   26252.13614881 -.00000018  00000+0  26665-4 0  9997
2 65778  51.9024 304.4087 0000475  75.9051 284.1964 14.79931027 52144
KUIPER-00166            
1 65779U 25217T   26250.83278015  .00001692  00000+0  25093-3 0  9999
2 65779  51.9031 297.7295 0000417 100.6815 259.4194 14.79932566 52125
KUIPER-00167            
1 65780U 25217U   26252.19288014  .00002316  00000+0  33274-3 0  9996
2 65780  51.8977 314.0410 0000453  70.8397 289.2614 14.79927584 52010
KUIPER-00168            
1 65781U 25217V   26252.14423372 -.00000053  00000+0  22030-4 0  9996
2 65781  51.9017 296.8758 0000498  72.3764 287.7252 14.79927608 52257
KUIPER-00169            
1 65782U 25217W   26251.46353419  .00001943  00000+0  28385-3 0  9991
2 65782  51.9018 304.8982 0000584  98.9600 261.1429 14.79932171 52081
KUIPER-00170            
1 65783U 25217X   26252.13343422  .00000409  00000+0  82691-4 0  9997
2 65783  51.8980 306.8811 0000620  89.2242 270.8792 14.79928072 52117
KUIPER-00172            
1 65785U 25217Z   26251.84842548  .00001259  00000+0  19417-3 0  9998
2 65785  51.9008 290.6745 0000716  16.9507 343.1479 14.79922394 52313
KUIPER-00173            
1 65786U 25217AA  26252.17260987  .00000384  00000+0  79322-4 0  9997
2 65786  51.9014 301.7549 0000314  61.9822 298.1172 14.79932438 52185
KUIPER-00174            
1 65787U 25217AB  26251.43515334  .00001643  00000+0  24464-3 0  9990
2 65787  51.9030 300.0781 0000811  70.6576 289.4474 14.79915281 52140
KUIPER-00176            
1 65788U 25217AC  26252.16181894  .00002258  00000+0  32523-3 0  9990
2 65788  51.9007 311.7824 0000526  60.1618 299.9396 14.79921406 52040
KUIPER-00101            
1 65947U 25228A   26252.03881778 -.00000785  00000+0 -74040-4 0  9999
2 65947  51.8993 269.7743 0000537  72.1040 287.9981 14.79926752 50387
KUIPER-00113            
1 65948U 25228B   26252.07798853  .00001305  00000+0  20009-3 0  9997
2 65948  51.8981 264.6211 0000496  62.0042 298.0971 14.79936037 50450
KUIPER-00117            
1 65949U 25228C   26251.56882658  .00001756  00000+0  25929-3 0  9994
2 65949  51.8989 269.3720 0000504  50.7741 309.3266 14.79927414 50346
KUIPER-00121            
1 65950U 25228D   26251.40538896  .00001789  00000+0  26364-3 0  9991
2 65950  51.9003 265.1165 0000611  43.0428 317.0582 14.79937063 50392
KUIPER-00122            
1 65951U 25228E   26252.06990844  .00001872  00000+0  27454-3 0  9994
2 65951  51.8993 272.1471 0000819  72.7695 287.3357 14.79925859 50358
KUIPER-00123            
1 65952U 25228F   26252.03612977  .00001268  00000+0  19531-3 0  9996
2 65952  51.8980 272.3048 0000501  48.8469 311.2537 14.79935690 50348
KUIPER-00124            
1 65953U 25228G   26252.04423502  .00002093  00000+0  30351-3 0  9992
2 65953  51.8973 264.7585 0000580  38.1001 322.0002 14.79928375 50454
KUIPER-00125            
1 65954U 25228H   26251.38510710  .00000723  00000+0  12381-3 0  9998
2 65954  51.8998 252.7254 0000691  59.9313 300.1717 14.79932992 50564
KUIPER-00126            
1 65955U 25228J   26252.07260628  .00000752  00000+0  12759-3 0  9997
2 65955  51.8987 269.6660 0000444  76.2361 283.8650 14.79932287 50382
KUIPER-00127            
1 65956U 25228K   26252.06379573  .00000882  00000+0  14473-3 0  9996
2 65956  51.9007 262.1849 0000482  51.6927 308.4078 14.79936787 50490
KUIPER-00128            
1 65957U 25228L   26252.04694237  .00001846  00000+0  27104-3 0  9998
2 65957  51.9021 262.3266 0000515  76.1224 283.9796 14.79929707 50488
KUIPER-00129            
1 65958U 25228M   26252.01854111  .00002273  00000+0  32713-3 0  9992
2 65958  51.8989 257.4297 0000565  73.9730 286.1295 14.79925185 50555
KUIPER-00130            
1 65959U 25228N   26252.04962514  .00002180  00000+0  31475-3 0  9994
2 65959  51.9008 259.8371 0000561  81.0612 279.0414 14.79940824 40812
KUIPER-00134            
1 65960U 25228P   26252.09326128  .00011120  00000+0  30522-3 0  9992
2 65960  51.8709 149.8409 0003931 228.1231 131.9421 15.37746509 52058
KUIPER-00135            
1 65961U 25228Q   26252.01585828  .00000629  00000+0  11143-3 0  9999
2 65961  51.9006 260.0376 0000509  54.7906 305.3104 14.79935009 50513
KUIPER-00136            
1 65962U 25228R   26250.29655035  .00001434  00000+0  21701-3 0  9992
2 65962  51.9013 265.0890 0000428  43.3655 316.7342 14.79934133 50295
KUIPER-00137            
1 65963U 25228S   26251.04207331  .00001711  00000+0  25338-3 0  9997
2 65963  51.9031 259.2999 0000493  22.8135 337.2849 14.79937100 50442
KUIPER-00138            
1 65964U 25228T   26252.02393816  .00002234  00000+0  32189-3 0  9994
2 65964  51.8968 252.3599 0000572  49.4798 310.6214 14.79939560 50622
KUIPER-00140            
1 65965U 25228U   26252.02125970  .00002255  00000+0  32470-3 0  9995
2 65965  51.8975 254.9651 0000800  60.3803 299.7239 14.79926398 50585
KUIPER-00141            
1 65966U 25228V   26252.02664037  .00000914  00000+0  14890-3 0  9994
2 65966  51.9017 250.0143 0000643  73.0021 287.1011 14.79939117 50655
KUIPER-00146            
1 65967U 25228W   26251.31489477  .00002504  00000+0  35738-3 0  9990
2 65967  51.9053 255.6756 0000627 328.6204  31.4721 14.79931466 50513
KUIPER-00149            
1 65968U 25228X   26252.09687624  .00003464  00000+0  48317-3 0  9994
2 65968  51.9013 247.0890 0000441  67.5710 292.5299 14.79925621 50706
KUIPER-00154            
1 65969U 25228Y   26251.39045155  .00002468  00000+0  35328-3 0  9995
2 65969  51.8992 247.6985 0001133  84.1664 275.9427 14.79852374 50639
KUIPER-00157            
1 65970U 25228Z   26251.39805545  .00002026  00000+0  28567-3 0  9991
2 65970  51.9028 249.7281 0000219 238.3326 121.7616 14.81283563 50602
KUIPER-00144            
1 67133U 25301A   26251.91199253  .00002789  00000+0  39469-3 0  9995
2 67133  51.9023 325.4162 0000385  88.8549 271.2457 14.79935469 41003
KUIPER-00164            
1 67134U 25301B   26252.23616463  .00002614  00000+0  37174-3 0  9997
2 67134  51.9047 336.5005 0000396  86.1489 273.9519 14.79935938 41059
KUIPER-00175            
1 67135U 25301C   26252.22126719  .00002247  00000+0  32357-3 0  9997
2 67135  51.9003 319.0022 0000268  68.8141 291.2850 14.79936744 41199
KUIPER-00179            
1 67136U 25301D   26251.49601471  .00002290  00000+0  32931-3 0  9995
2 67136  51.8998 337.2091 0000543  93.0117 267.0907 14.79925769 40984
KUIPER-00181            
1 67137U 25301E   26252.22537944  .00002781  00000+0  39357-3 0  9995
2 67137  51.9031 346.5442 0000267 100.7340 259.3652 14.79933370 40892
KUIPER-00183            
1 67138U 25301F   26252.15644363  .00001534  00000+0  23014-3 0  9990
2 67138  51.9009 316.8570 0000533  88.5775 271.5248 14.79933276 41311
KUIPER-00184            
1 67139U 25301G   26252.21047889  .00002750  00000+0  38963-3 0  9998
2 67139  51.9012 329.0610 0000479  88.4967 271.6050 14.79933951 41253
KUIPER-00186            
1 67140U 25301H   26251.98900250  .00001941  00000+0  28347-3 0  9999
2 67140  51.9045 347.6000 0000584  93.3222 266.7807 14.79939549 40709
KUIPER-00187            
1 67141U 25301J   26251.98632314  .00000917  00000+0  14923-3 0  9990
2 67141  51.9059 350.1386 0000416 117.2275 242.8729 14.79931754 40662
KUIPER-00188            
1 67142U 25301K   26252.19019500  .00002228  00000+0  32121-3 0  9998
2 67142  51.9029 316.8216 0000343  94.5730 265.5271 14.79930976 41146
KUIPER-00191            
1 67143U 25301L   26251.55547471  .00000462  00000+0  89634-4 0  9991
2 67143  51.9014 344.5187 0000381  91.8313 268.2693 14.79930374 40739
KUIPER-00196            
1 67144U 25301M   26251.39870639 -.00000047  00000+0  22763-4 0  9999
2 67144  51.8971 302.6656 0000260 331.5263  28.5685 14.79938993 41274
KUIPER-00204            
1 67145U 25301N   26252.15912985  .00001021  00000+0  16297-3 0  9992
2 67145  51.9013 314.3416 0000966  93.6129 266.4943 14.79933065 41294
KUIPER-00210            
1 67146U 25301P   26251.99441225  .00003167  00000+0  44424-3 0  9994
2 67146  51.9012 342.5252 0000415  95.2833 264.8177 14.79933927 40943
KUIPER-00221            
1 67147U 25301Q   26251.54736054 -.00002652  00000+0 -31900-3 0  9998
2 67147  51.9033 352.0365 0000538  68.9969 291.1051 14.79931021 40601
KUIPER-00232            
1 67148U 25301R   26251.93497194  .00002113  00000+0  30607-3 0  9994
2 67148  51.8992 335.3353 0000244  70.6698 289.4291 14.79938455 40861
KUIPER-00241            
1 67149U 25301S   26251.48523536  .00003829  00000+0  53093-3 0  9994
2 67149  51.9034 347.3420 0000453  93.8776 266.2239 14.79941252 40992
KUIPER-00245            
1 67150U 25301T   26252.01740308  .00002081  00000+0  30185-3 0  9990
2 67150  51.9040 352.4987 0000391 102.1810 257.9196 14.79934332 40631
KUIPER-00246            
1 67151U 25301U   26251.93227727  .00002909  00000+0  41045-3 0  9992
2 67151  51.9015 337.8143 0000475  98.7098 261.3918 14.79935529 40850
KUIPER-00247            
1 67152U 25301V   26252.21316640 -.00000347  00000+0 -16487-4 0  9997
2 67152  51.8969 326.5207 0000502  84.1709 275.9311 14.79931919 41019
KUIPER-00248            
1 67153U 25301W   26252.16452124  .00000849  00000+0  14035-3 0  9991
2 67153  51.8989 309.3796 0000505  84.7966 275.3054 14.79934729 41412
KUIPER-00249            
1 67154U 25301X   26252.21588697  .00000277  00000+0  65355-4 0  9990
2 67154  51.9004 324.0853 0000370  81.2401 278.8603 14.79929525 41041
KUIPER-00250            
1 67155U 25301Y   26252.23345631  .00002351  00000+0  33729-3 0  9996
2 67155  51.9003 338.9590 0000473  97.3179 262.7837 14.79930035 40876
KUIPER-00251            
1 67156U 25301Z   26252.17942464  .00000308  00000+0  69408-4 0  9991
2 67156  51.8996 326.7748 0000639  91.8736 268.2299 14.79930796 41192
KUIPER-00252            
1 67157U 25301AA  26252.17672269  .00002534  00000+0  36123-3 0  9995
2 67157  51.9003 329.2361 0000390  97.9137 262.1869 14.79933397 40979
KUIPER-00261            
1 67158U 25301AB  26251.45688039  .00000324  00000+0  71517-4 0  9990
2 67158  51.9031 342.4831 0000373  99.5621 260.5383 14.79925352 40725
KUIPER-00265            
1 67159U 25301AC  26252.01470095  .00003315  00000+0  46358-3 0  9992
2 67159  51.9034 354.9922 0000292  96.3304 263.7691 14.79932431 40634
KUIPER-00159            
1 67764U 26030A   26251.92511730  .00001925  00000+0  30388-3 0  9996
2 67764  51.9004  73.8185 0000254 108.1512 251.9476 14.76565989 32999
KUIPER-00160            
1 67765U 26030B   26251.91667824 -.00025660  00000+0 -22318-2 0  9999
2 67765  51.8940  56.0262 0011618 332.3174 278.7899 14.96240729  5202
KUIPER-00177            
1 67766U 26030C   26251.82647683 -.00004679  00000+0 -58506-3 0  9997
2 67766  51.8980 123.2995 0001040  87.7496 272.3586 14.79935520 32296
KUIPER-00178            
1 67767U 26030D   26251.79276410  .00002555  00000+0  36409-3 0  9997
2 67767  51.8996 123.4273 0000702 103.6608 256.4433 14.79931523 32295
KUIPER-00180            
1 67768U 26030E   26251.79815308  .00000348  00000+0  74688-4 0  9993
2 67768  51.8973 118.3959 0000925 118.0231 242.0825 14.79927368 32360
KUIPER-00197            
1 67769U 26030F   26251.81970645 -.00013788  00000+0 -17821-2 0  9991
2 67769  51.8985  98.3160 0000656  92.5527 267.5511 14.79961168 32641
KUIPER-00198            
1 67770U 26030G   26251.90753882  .00000420  00000+0  84141-4 0  9993
2 67770  51.8973 110.4043 0000934 105.1453 254.9613 14.79929357 32483
KUIPER-00199            
1 67771U 26030H   26249.70780976  .00013717  00000+0  37643-3 0  9990
2 67771  51.8777  65.8959 0009951 338.8475  21.2099 15.37507695 32915
KUIPER-00200            
1 67772U 26030J   26251.85618328  .00000552  00000+0  10147-3 0  9994
2 67772  51.8966  95.6753 0000718 112.3105 247.7934 14.79931697 32681
KUIPER-00203            
1 67773U 26030K   26251.82112631  .00002805  00000+0  39687-3 0  9991
2 67773  51.9062 128.3965 0001006  89.1259 270.9819 14.79923898 32225
KUIPER-00205            
1 67774U 26030L   26251.79133942  .00002502  00000+0  35717-3 0  9990
2 67774  51.8994  93.4254 0000756  88.5329 271.5720 14.79930477 32717
KUIPER-00208            
1 67775U 26030M   26251.79545484  .00002318  00000+0  33297-3 0  9995
2 67775  51.8974 120.9060 0001355  94.8404 265.2713 14.79928303 32321
KUIPER-00209            
1 67776U 26030N   26251.83193477  .00002600  00000+0  37001-3 0  9993
2 67776  51.8988 118.3437 0000930 114.2051 245.9008 14.79931159 32368
KUIPER-00213            
1 67777U 26030P   26251.93591565  .00002679  00000+0  38024-3 0  9997
2 67777  51.8954 115.3458 0000895 109.6939 250.4120 14.79935214 32413
KUIPER-00214            
1 67778U 26030Q   26251.83732264  .00002660  00000+0  37775-3 0  9992
2 67778  51.8995 113.3133 0000740 107.6940 252.4103 14.79933998 32438
KUIPER-00215            
1 67779U 26030R   26251.95206506  .00002896  00000+0  40865-3 0  9996
2 67779  51.8972 100.1604 0000774 119.8477 240.2562 14.79939027 32633
KUIPER-00218            
1 67780U 26030S   26251.90213847 -.00001173  00000+0 -12495-3 0  9996
2 67780  51.8944 115.4193 0000713 116.4164 243.6872 14.79928078 32416
KUIPER-00220            
1 67781U 26030T   26251.92909876  .00003135  00000+0  43993-3 0  9998
2 67781  51.8963  90.3282 0000844 113.9922 246.1129 14.79939222 32761
KUIPER-00222            
1 67782U 26030U   26251.87377566  .00002645  00000+0  37594-3 0  9993
2 67782  51.8981 110.7074 0001064 101.2879 258.8203 14.79924864 32471
KUIPER-00223            
1 67783U 26030V   26251.78050438  .00002498  00000+0  35681-3 0  9991
2 67783  51.9007 103.4274 0000823 104.3458 255.7596 14.79908742 32571
KUIPER-00225            
1 67784U 26030W   26251.91024421  .00001053  00000+0  16718-3 0  9996
2 67784  51.8977 108.0036 0000818  95.9788 264.1268 14.79927756 32519
KUIPER-00226            
1 67785U 26030X   26250.87353906  .00005407  00000+0  79996-3 0  9998
2 67785  51.9003  99.9329 0003148 358.0738   2.0210 14.76456168 32541
KUIPER-00259            
1 67786U 26030Y   26251.80893643 -.00000327  00000+0 -13851-4 0  9997
2 67786  51.8968 108.3539 0000985 104.4647 255.6424 14.79926596 32506
KUIPER-00260            
1 67787U 26030Z   26251.81164478  .00002766  00000+0  39169-3 0  9992
2 67787  51.8998 105.9508 0000997 106.0003 254.1070 14.79936608 32445
KUIPER-00262            
1 67788U 26030AA  26251.77787418  .00002623  00000+0  37295-3 0  9993
2 67788  51.8992 106.0168 0001358  93.4324 266.6794 14.79933491 32539
KUIPER-00266            
1 67789U 26030AB  26251.94939647  .00002721  00000+0  38583-3 0  9996
2 67789  51.8981 102.7502 0001104  91.8137 268.2951 14.79935454 32596
KUIPER-00268            
1 67790U 26030AC  26251.85080259  .00002483  00000+0  35462-3 0  9992
2 67790  51.9030 100.7247 0001029 108.9979 251.1095 14.79925554 32611
KUIPER-00270            
1 67791U 26030AD  26251.76028109 -.00000716  00000+0 -65003-4 0  9993
2 67791  51.8980  91.0786 0000724 108.5005 251.6036 14.79923481 32743
KUIPER-00274            
1 67792U 26030AE  26251.87108712  .00002806  00000+0  39690-3 0  9997
2 67792  51.9022 113.1021 0000947  98.3209 261.7861 14.79932732 32443
KUIPER-00275            
1 67793U 26030AF  26251.75757849  .00002455  00000+0  35102-3 0  9990
2 67793  51.8990  93.6000 0000944 111.8693 248.2370 14.79920286 32706
KUIPER-00276            
1 67794U 26030AG  26251.78595310  .00002572  00000+0  36623-3 0  9996
2 67794  51.8969  98.4527 0001117  63.9616 296.1462 14.79934124 32648
KUIPER-00279            
1 67795U 26030AH  26251.76298180  .00002581  00000+0  36740-3 0  9990
2 67795  51.9017  88.6004 0000913 103.1116 256.9949 14.79934069 32776
KUIPER-00131            
1 68573U 26072A   26252.09677672  .00002679  00000+0  38029-3 0  9995
2 68573  51.9003 184.6040 0000784  78.8845 281.2206 14.79933817 23548
KUIPER-00189            
1 68574U 26072B   26252.19535081  .00002660  00000+0  37773-3 0  9999
2 68574  51.8981 186.6448 0000832  88.7911 271.3147 14.79937877 23527
KUIPER-00192            
1 68575U 26072C   26251.82935115  .00003073  00000+0  43189-3 0  9998
2 68575  51.8990 183.2814 0000991  81.4016 278.7059 14.79934483 23545
KUIPER-00193            
1 68576U 26072D   26252.17778909  .00002691  00000+0  38182-3 0  9996
2 68576  51.9042 171.7844 0001169  91.1757 268.9340 14.79937203 23736
KUIPER-00194            
1 68577U 26072E   26252.20346297  .00002859  00000+0  40392-3 0  9994
2 68577  51.9038 179.1526 0000995  72.5218 287.5853 14.79935179 23637
KUIPER-00229            
1 68578U 26072F   26252.19806703  .00001086  00000+0  17145-3 0  9997
2 68578  51.8995 184.1579 0000789 109.3857 250.7190 14.79931767 23569
KUIPER-00230            
1 68579U 26072G   26252.16670139 -.01933692  00000+0 -15148+0 0  9994
2 68579  51.8894 132.3422 0004010 328.7687 312.8319 15.04427283  1302
KUIPER-00231            
1 68580U 26072H   26250.47196610  .00001589  00000+0  23751-3 0  9996
2 68580  51.8975 164.3644 0002190  85.2694 274.8519 14.79928908 23680
KUIPER-00234            
1 68581U 26072J   26251.83203077  .00002589  00000+0  36866-3 0  9996
2 68581  51.8987 180.7592 0001070  66.7913 293.3162 14.79920486 23573
KUIPER-00236            
1 68582U 26072K   26252.16670139  .00032084  00000+0  32185-2 0  9993
2 68582  51.8937 134.3394 0005478 300.9535 102.6871 14.91032348  5555
KUIPER-00244            
1 68583U 26072L   26252.14671963  .00003022  00000+0  42531-3 0  9995
2 68583  51.8993 169.3922 0001004  78.0022 282.1053 14.79932343 23767
KUIPER-00253            
1 68584U 26072M   26252.21154873  .00002862  00000+0  40429-3 0  9995
2 68584  51.9032 171.6281 0000960  82.2250 277.8822 14.79934503 23739
KUIPER-00254            
1 68585U 26072N   26252.17508102  .00002855  00000+0  40333-3 0  9995
2 68585  51.9024 174.2874 0001238  42.3075 317.7982 14.79938501 23697
KUIPER-00263            
1 68586U 26072P   26252.12374102  .00000387  00000+0  79740-4 0  9995
2 68586  51.9010 159.5816 0000786 108.5942 251.5106 14.79930172 23891
KUIPER-00269            
1 68587U 26072Q   26252.18856593  .00002801  00000+0  39620-3 0  9996
2 68587  51.8997 161.7036 0001047  85.0281 275.0800 14.79936779 23879
KUIPER-00272            
1 68588U 26072R   26252.20074726  .00002701  00000+0  38317-3 0  9991
2 68588  51.8973 181.6186 0000964  77.5386 282.5684 14.79936796 23591
KUIPER-00285            
1 68589U 26072S   26252.15480911  .00001332  00000+0  20380-3 0  9993
2 68589  51.9023 161.9310 0001561  57.0205 303.0907 14.79925029 23860
KUIPER-00286            
1 68590U 26072T   26252.15749674  .00000995  00000+0  15950-3 0  9990
2 68590  51.8998 159.3519 0000874  98.8336 261.2725 14.79927373 23900
KUIPER-00289            
1 68591U 26072U   26252.14940553  .00002901  00000+0  40936-3 0  9990
2 68591  51.8976 166.8667 0001056  81.5230 278.5852 14.79934372 23795
KUIPER-00290            
1 68592U 26072V   26252.03440932  .00000934  00000+0  16374-3 0  9998
2 68592  51.9030 167.2395 0001412  23.2480 336.8544 14.76417102 23786
KUIPER-00293            
1 68593U 26072W   26252.20615209  .00002837  00000+0  40099-3 0  9994
2 68593  51.8963 176.5951 0001604  22.2664 337.8368 14.79929672 23663
KUIPER-00294            
1 68594U 26072X   26251.47680122  .00002810  00000+0  39746-3 0  9997
2 68594  51.8969 167.3396 0000518  85.4823 274.6199 14.79935835 23738
KUIPER-00296            
1 68595U 26072Y   26252.13720346  .00002881  00000+0  40677-3 0  9998
2 68595  51.9012 146.9388 0000775  92.7796 267.3255 14.79930115 24074
KUIPER-00297            
1 68596U 26072Z   26252.17238126  .00002693  00000+0  38208-3 0  9991
2 68596  51.8990 176.7426 0001381  91.0142 269.0979 14.79936982 23668
KUIPER-00300            
1 68597U 26072AA  26252.20884889  .00002791  00000+0  39494-3 0  9996
2 68597  51.9015 174.1144 0000773 102.2697 257.8352 14.79936199 23706
KUIPER-00301            
1 68598U 26072AB  26252.00019139  .00001510  00000+0  24539-3 0  9995
2 68598  51.9018 144.3050 0002153 160.4422 199.6622 14.76490242 24098
KUIPER-00304            
1 68599U 26072AC  26252.09855409  .00001579  00000+0  25454-3 0  9995
2 68599  51.9001 145.8347 0000465 345.3225  14.7723 14.76606332 24082
KUIPER-00317            
1 68600U 26072AD  26251.51056285  .00000866  00000+0  14258-3 0  9997
2 68600  51.8979 167.1981 0000575 104.2463 255.8563 14.79927481 23732
KUIPER-00320            
1 68601U 26072AE  26252.18047990  .00002984  00000+0  42029-3 0  9995
2 68601  51.9019 169.2498 0000856  94.4402 265.6658 14.79935435 23765
KUIPER-00299            
1 68864U 26095A   26251.92986678  .00001396  00000+0  22918-3 0  9998
2 68864  51.8995 240.2566 0002455  75.0125 285.1107 14.76489969 20012
KUIPER-00353            
1 68865U 26095B   26251.44584859  .00002325  00000+0  33386-3 0  9995
2 68865  51.8983 227.4895 0000672  62.2574 297.8457 14.79931702 20150
KUIPER-00357            
1 68866U 26095C   26251.40398667  .00001967  00000+0  28696-3 0  9991
2 68866  51.9054 235.1831 0000779  13.4119 346.6864 14.79932892 20042
KUIPER-00364            
1 68867U 26095D   26251.97529718  .00002362  00000+0  33871-3 0  9998
2 68867  51.9026 235.1773 0001125  24.1486 335.9529 14.79937290 20090
KUIPER-00375            
1 68868U 26095E   26252.01716630  .00002570  00000+0  36607-3 0  9997
2 68868  51.8993 227.4674 0000697  73.5780 286.5258 14.79927951 20201
KUIPER-00433            
1 68869U 26095F   26251.93344449  .00001968  00000+0  28707-3 0  9995
2 68869  51.8998 242.8327 0000715  31.1970 328.9035 14.79938799 19984
KUIPER-00437            
1 68870U 26095G   26252.16670139 -.01212134  00000+0 -57193-1 0  9992
2 68870  51.8838 196.6883 0006179 252.3651 142.3743 15.21865840  4628
KUIPER-00448            
1 68871U 26095H   26251.47175534  .00001685  00000+0  27141-3 0  9991
2 68871  51.9035 234.5319 0002937  19.0844 341.0226 14.76319260 20053
KUIPER-00459            
1 68872U 26095J   26251.28242443  .00002250  00000+0  32400-3 0  9998
2 68872  51.9021 223.2781 0000662  81.8988 278.2050 14.79936769 20199
KUIPER-00468            
1 68873U 26095K   26252.20483525  .00001466  00000+0  23850-3 0  9997
2 68873  51.8967 216.4854 0001073 154.6186 205.4828 14.76613059 20375
KUIPER-00476            
1 68874U 26095L   26252.16670139 -.02103690  00000+0 -13184+0 0  9993
2 68874  51.8831 200.7277 0010106 233.3892 296.9128 15.12774081  4663
KUIPER-00478            
1 68875U 26095M   26251.95501821  .00001333  00000+0  20386-3 0  9994
2 68875  51.8958 222.7405 0000992  49.5107 310.5942 14.79930625 20260
KUIPER-00480            
1 68876U 26095N   26252.19407792  .00000213  00000+0  56996-4 0  9997
2 68876  51.9038 219.1962 0000564  86.1092 273.9934 14.79929408 20332
KUIPER-00482            
1 68877U 26095P   26250.69762592  .00001973  00000+0  28772-3 0  9997
2 68877  51.9007 235.8019 0001063 349.8736  10.2205 14.79927125 19971
KUIPER-00483            
1 68878U 26095Q   26251.96712549  .00002492  00000+0  35558-3 0  9993
2 68878  51.8977 242.6525 0001574 305.8447  54.2369 14.79957357 19983
KUIPER-00488            
1 68879U 26095R   26251.95232766  .00002079  00000+0  30167-3 0  9993
2 68879  51.9004 225.2609 0000873  54.9029 305.2016 14.79935120 20226
KUIPER-00489            
1 68880U 26095S   26252.16300610  .00000872  00000+0  14336-3 0  9992
2 68880  51.8947 216.8133 0001205  62.3818 297.7267 14.79932446 20366
KUIPER-00499            
1 68881U 26095T   26252.19139013  .00002177  00000+0  31451-3 0  9990
2 68881  51.8981 221.7452 0000784  46.4983 313.6044 14.79927081 20293
KUIPER-00500            
1 68882U 26095U   26252.24002391 -.00000227  00000+0 -81492-6 0  9994
2 68882  51.8962 238.9796 0001226  81.5285 278.5816 14.79926472 20065
KUIPER-00502            
1 68883U 26095V   26252.18966632  .00001411  00000+0  21414-3 0  9994
2 68883  51.9010 215.4558 0001071  44.9344 315.1705 14.79921532 20386
KUIPER-00503            
1 68884U 26095W   26250.04800164  .00001517  00000+0  22801-3 0  9993
2 68884  51.8981 246.1491 0000552  54.1758 305.9255 14.79925080 19775
KUIPER-00504            
1 68885U 26095X   26252.23462867 -.00000109  00000+0  14753-4 0  9996
2 68885  51.8987 244.0089 0001056  77.9749 282.1332 14.79927395 19992
KUIPER-00505            
1 68886U 26095Y   26251.94152874  .00002333  00000+0  33497-3 0  9993
2 68886  51.9001 235.3076 0000511 352.4467   7.6487 14.79930312 20089
KUIPER-00507            
1 68887U 26095Z   26251.32766312  .00001120  00000+0  17593-3 0  9996
2 68887  51.9005 228.0057 0000489  71.5414 288.5601 14.79935042 20136
KUIPER-00511            
1 68888U 26095AA  26252.19678300  .00000865  00000+0  14250-3 0  9994
2 68888  51.8968 216.7765 0000972  24.6536 335.4473 14.79931180 20368
KUIPER-00512            
1 68889U 26095AB  26251.97260561  .00000904  00000+0  14763-3 0  9999
2 68889  51.9005 237.6703 0000940  69.8634 290.2430 14.79930005 20053
KUIPER-00519            
1 68890U 26095AC  26251.30808657  .00003398  00000+0  47435-3 0  9994
2 68890  51.9010 230.6710 0000674 100.9910 259.1128 14.79946549 20092
KUIPER-00521            
1 68891U 26095AD  26252.18428970  .00002244  00000+0  32332-3 0  9997
2 68891  51.9020 220.4920 0000895  85.1562 274.9502 14.79921211 20311
KUIPER-00524            
1 68892U 26095AE  26251.94695032  .00001161  00000+0  18124-3 0  9996
2 68892  51.8970 230.2599 0000630  18.6006 341.4979 14.79928526 20153
KUIPER-00370            
1 68919U 26098A   26251.63727767  .00002697  00000+0  38265-3 0  9999
2 68919  51.8992  49.0078 0000659 108.9583 251.1451 14.79924083 19849
KUIPER-00380            
1 68920U 26098B   26252.11809955  .00000635  00000+0  11230-3 0  9998
2 68920  51.8979  39.5183 0000480  84.5631 275.5386 14.79928254 20014
KUIPER-00386            
1 68921U 26098C   26251.72711794  .00002712  00000+0  38457-3 0  9996
2 68921  51.8993  43.7421 0000561 110.5290 249.5733 14.79931771 19927
KUIPER-00388            
1 68922U 26098D   26251.83451056  .00002821  00000+0  39885-3 0  9998
2 68922  51.9011  53.4274 0000616 129.0103 231.0914 14.79938881 19794
KUIPER-00405            
1 68923U 26098E   26251.65149359  .00000344  00000+0  74186-4 0  9991
2 68923  51.9008  51.5903 0001313 157.0643 203.0378 14.79927964 19809
KUIPER-00408            
1 68924U 26098F   26252.11538995  .00002591  00000+0  36868-3 0  9992
2 68924  51.9004  41.9555 0000492  90.2807 269.8211 14.79938666 19985
KUIPER-00409            
1 68925U 26098G   26251.95805287  .00004627  00000+0  63541-3 0  9995
2 68925  51.9010  47.7350 0000649 131.4224 228.6794 14.79942560 19881
KUIPER-00410            
1 68926U 26098H   26252.16335652  .00002757  00000+0  39064-3 0  9999
2 68926  51.8980  44.3048 0001404 117.9725 242.1379 14.79927046 19959
KUIPER-00412            
1 68927U 26098J   26251.88445573  .00002976  00000+0  41929-3 0  9998
2 68927  51.9035  38.0679 0000924 109.9878 250.1184 14.79930996 20018
KUIPER-00413            
1 68928U 26098K   26252.17484625 -.00002384  00000+0 -28381-3 0  9995
2 68928  51.8992  49.2575 0001183 146.1903 213.9135 14.79932420 19889
KUIPER-00414            
1 68929U 26098L   26251.72512846  .00002405  00000+0  34447-3 0  9995
2 68929  51.8963  61.3334 0001831 111.3168 248.7990 14.79924471 19672
KUIPER-00415            
1 68930U 26098M   26252.14917378  .00002468  00000+0  35271-3 0  9998
2 68930  51.9019  41.8872 0000672 111.3037 248.7997 14.79929451 19988
KUIPER-00416            
1 68931U 26098N   26252.09945310  .00002747  00000+0  39142-3 0  9991
2 68931  51.9021  33.4579 0001070 108.9017 251.2061 14.79688711 20092
KUIPER-00420            
1 68932U 26098P   26252.08971985  .00003155  00000+0  44252-3 0  9990
2 68932  51.9005  34.6121 0000562 108.2430 251.8594 14.79940793 20085
KUIPER-00421            
1 68933U 26098Q   26252.15186304  .00002448  00000+0  35002-3 0  9999
2 68933  51.9028  39.3201 0000561 116.3747 243.7273 14.79934094 20027
KUIPER-00425            
1 68934U 26098R   26252.14378152  .00002501  00000+0  35700-3 0  9998
2 68934  51.8997  46.9037 0000552 117.4916 242.6103 14.79927619 19914
KUIPER-00430            
1 68935U 26098S   26252.00599753  .00003749  00000+0  52048-3 0  9995
2 68935  51.9032  49.9096 0001377 127.4543 232.6545 14.79941431 19868
KUIPER-00431            
1 68936U 26098T   26252.13838280  .00002346  00000+0  33668-3 0  9990
2 68936  51.8985  51.9163 0000786 134.8533 225.2493 14.79929350 19841
KUIPER-00432            
1 68937U 26098U   26251.94388167  .00002946  00000+0  41527-3 0  9992
2 68937  51.9001  45.1740 0000512 104.7702 255.3317 14.79931277 19928
KUIPER-00434            
1 68938U 26098V   26251.83297153  .00002027  00000+0  31884-3 0  9990
2 68938  51.9001  49.4624 0001859 103.2923 256.8246 14.76492161 19851
KUIPER-00436            
1 68939U 26098W   26251.65418009  .00003979  00000+0  55051-3 0  9995
2 68939  51.8996  49.0695 0000574 113.1860 246.9163 14.79942582 19848
KUIPER-00438            
1 68940U 26098X   26252.12959193  .00002863  00000+0  40425-3 0  9994
2 68940  51.9054  44.4878 0000409 115.3703 244.7302 14.79943361 19943
KUIPER-00439            
1 68941U 26098Y   26251.84291118  .00033202  00000+0  43572-2 0  9995
2 68941  51.9022  45.7497 0001135  64.8617 295.2463 14.79986341 19909
KUIPER-00440            
1 68942U 26098Z   26251.80003695  .00002611  00000+0  37133-3 0  9990
2 68942  51.9033  38.4348 0000165 347.8074  12.2885 14.79933623 20002
KUIPER-00442            
1 68943U 26098AA  26251.71844352  .00001769  00000+0  28198-3 0  9998
2 68943  51.9020  41.1982 0001768 107.7558 252.3596 14.76527796 19959
KUIPER-00446            
1 68944U 26098AB  26251.89593770  .00007487  00000+0  10104-2 0  9993
2 68944  51.8986  43.0145 0000903 192.0629 168.0312 14.79917433 19940
KUIPER-00451            
1 68945U 26098AC  26251.75007687  .00002948  00000+0  41547-3 0  9999
2 68945  51.8990  53.6407 0000792 127.3108 232.7927 14.79939614 19781
KUIPER-00452            
1 68946U 26098AD  26251.62851759  .00002861  00000+0  40415-3 0  9990
2 68946  51.9024  41.6920 0000771  90.6509 269.4542 14.79929712 19948
KUIPER-00453            
1 68947U 26098AE  26252.12079015  .00003609  00000+0  50219-3 0  9998
2 68947  51.8995  36.9376 0002628 111.2506 248.8737 14.79935170 20053
KUIPER-00454            
1 68948U 26098AF  26251.75521680  .00002243  00000+0  34951-3 0  9995
2 68948  51.9002  56.0145 0002190 326.0602  34.0218 14.76508357 19752
KUIPER-00455            
1 68949U 26098AG  26251.91891916  .00002679  00000+0  38042-3 0  9994
2 68949  51.8999  52.8982 0002237 107.6697 252.4510 14.79926893 19819
KUIPER-00458            
1 68950U 26098AH  26252.10389575  .00003034  00000+0  42683-3 0  9993
2 68950  51.9020  37.1021 0000436  91.5685 268.5327 14.79925051 20040
KUIPER-00282            
1 69267U 26118A   26251.97694601  .00002981  00000+0  41983-3 0  9993
2 69267  51.8972  30.1236 0000756 139.1530 220.9489 14.79930279 16562
KUIPER-00383            
1 69268U 26118B   26251.59135540  .00002866  00000+0  40475-3 0  9991
2 69268  51.8984  29.3485 0000583 124.4155 235.6863 14.79929987 16541
KUIPER-00527            
1 69269U 26118C   26251.76018545  .00003096  00000+0  43496-3 0  9998
2 69269  51.8989  28.7343 0000526 106.1663 253.9357 14.79932748 16563
KUIPER-00562            
1 69270U 26118D   26251.80196450  .00003979  00000+0  55018-3 0  9990
2 69270  51.9035  20.8575 0000661 128.7154 231.3868 14.79964978 16683
KUIPER-00570            
1 69271U 26118E   26252.09243759  .00002134  00000+0  30885-3 0  9995
2 69271  51.9007  32.2340 0000496  97.9299 262.1720 14.79926883 16539
KUIPER-00572            
1 69272U 26118F   26251.67574796  .00003095  00000+0  43481-3 0  9990
2 69272  51.9011  28.9680 0000457 113.3610 246.7401 14.79925390 16559
KUIPER-00581            
1 69273U 26118G   26251.80541445  .00000178  00000+0  52340-4 0  9995
2 69273  51.9019  33.4026 0001793 146.9787 213.1287 14.79923124 16591
KUIPER-00584            
1 69274U 26118H   26251.85340316  .00011328  00000+0  15134-2 0  9992
2 69274  51.9006  35.8016 0000848 123.0786 237.0257 14.79905904 16473
KUIPER-00587            
1 69275U 26118J   26251.81350459  .00003075  00000+0  43221-3 0  9997
2 69275  51.9012  25.8678 0000948  75.2713 284.8354 14.79930339 16617
KUIPER-00590            
1 69276U 26118K   26252.07823917  .00000158  00000+0  49723-4 0  9994
2 69276  51.9034  29.7065 0001087 129.5446 230.5612 14.79931920 16584
KUIPER-00592            
1 69277U 26118L   26251.79129541  .00002594  00000+0  36943-3 0  9990
2 69277  51.9032  30.8547 0000691  96.2317 263.8724 14.79899946 16548
KUIPER-00593            
1 69278U 26118M   26252.16670139  .00008956  00000+0  10827-2 0  9997
2 69278  51.9005  11.8884 0003058   8.8688  54.2407 14.84329460  5130
KUIPER-00594            
1 69279U 26118N   26251.66960931  .00002755  00000+0  39047-3 0  9991
2 69279  51.9046  19.0172 0001539  61.9303 298.1815 14.79909155 16696
KUIPER-00595            
1 69280U 26118P   26252.16670139  .00023478  00000+0  26107-2 0  9994
2 69280  51.8969  11.9010 0004116  98.2674 107.6213 14.87030998  5683
KUIPER-00596            
1 69281U 26118Q   26251.70144513  .00002894  00000+0  40853-3 0  9990
2 69281  51.9016  36.3669 0000556 108.7769 251.3254 14.79928110 16457
KUIPER-00597            
1 69282U 26118R   26252.16670139  .00090192  00000+0  12598-1 0  9991
2 69282  51.8985  14.2756 0001573  75.7577 238.3417 14.76804578  4028
KUIPER-00599            
1 69283U 26118S   26251.79662897  .00001128  00000+0  17694-3 0  9997
2 69283  51.9008  25.8586 0000619 133.5286 226.5728 14.79927048 16618
KUIPER-00600            
1 69284U 26118T   26252.16670139 -.00004454  00000+0 -53861-3 0  9991
2 69284  51.8996  14.2343 0001876  36.8360  73.8104 14.81209837  1304
KUIPER-00601            
1 69285U 26118U   26251.68994761  .00002848  00000+0  40252-3 0  9991
2 69285  51.9023  31.4147 0000609 102.5133 257.5898 14.79925727 16523
KUIPER-00602            
1 69286U 26118V   26252.10320742  .00003238  00000+0  45348-3 0  9997
2 69286  51.9018  22.0023 0000902 171.2776 188.8202 14.79934388 16695
KUIPER-00603            
1 69287U 26118W   26251.57715668 -.00000514  00000+0 -38407-4 0  9998
2 69287  51.9036  26.9167 0000615  97.0290 263.0742 14.79924912 16579
KUIPER-00605            
1 69288U 26118X   26251.90671898  .00003030  00000+0  42636-3 0  9994
2 69288  51.8996  32.9416 0000635 111.8298 248.2732 14.79926060 16528
KUIPER-00606            
1 69289U 26118Y   26251.89792935  .00001398  00000+0  21241-3 0  9993
2 69289  51.9024  25.4976 0000649 124.8595 235.2429 14.79932141 16626
KUIPER-00607            
1 69290U 26118Z   26252.16670139  .00031595  00000+0  41580-2 0  9996
2 69290  51.9015  14.3153 0001145 348.1533  37.0495 14.79892478  5680
KUIPER-00608            
1 69291U 26118AA  26252.16670139  .00027891  00000+0  36777-2 0  9993
2 69291  51.9013  16.6749 0001301  52.9242 256.6448 14.79871219  5638
KUIPER-00610            
1 69292U 26118AB  26252.06944610  .00001289  00000+0  19804-3 0  9997
2 69292  51.9041  22.2380 0000482 100.2887 259.8130 14.79925889 16688
KUIPER-00613            
1 69293U 26118AC  26252.12619509  .00002967  00000+0  41810-3 0  9997
2 69293  51.9008  31.9861 0000455 106.4366 253.6646 14.79926487 16558
KUIPER-00618            
1 69294U 26118AD  26252.03836477 -.00001285  00000+0 -13954-3 0  9995
2 69294  51.9038  19.8806 0002312 150.2480 209.8614 14.79926356 16715
KUIPER-00620            
1 69295U 26118AE  26252.05257478  .00003373  00000+0  47134-3 0  9991
2 69295  51.9034  22.3217 0000367 120.5778 239.5221 14.79927850 16685
KUIPER-00423            
1 69592U 26140A   26252.16670139  .00030091  00000+0  25010-2 0  9996
2 69592  51.8973 354.6776 0013902  92.4987 279.7653 14.98406968  5603
KUIPER-00428            
1 69593U 26140B   26251.54302284  .00018757  00000+0  50825-3 0  9999
2 69593  51.8820 355.9295 0007046 216.2783 143.7727 15.37666990 14055
KUIPER-00481            
1 69594U 26140C   26252.16670139  .00031853  00000+0  45434-2 0  9997
2 69594  51.9070 358.8738 0001352 289.4413 237.3078 14.76469793  3257
KUIPER-00490            
1 69595U 26140D   26252.02074715  .00001621  00000+0  24164-3 0  9999
2 69595  51.9031   4.9059 0000684  79.7365 280.3675 14.79918021 13970
KUIPER-00493            
1 69596U 26140E   26251.71151358  .00003130  00000+0  43932-3 0  9995
2 69596  51.9045  11.3242 0000631 221.0094 139.0821 14.79933198 13857
KUIPER-00496            
1 69597U 26140F   26252.16670139  .00024861  00000+0  12692-2 0  9991
2 69597  51.8832 355.7317 0008973 239.5552   6.1310 15.16532354  4633
KUIPER-00513            
1 69598U 26140G   26252.05450057 -.00001725  00000+0 -19736-3 0  9998
2 69598  51.9012   4.8050 0000613  95.8725 264.2307 14.79933135 13979
KUIPER-00516            
1 69599U 26140H   26252.16670139  .00054193  00000+0  19615-2 0  9996
2 69599  51.8812 352.8166 0007554 180.5387  91.6398 15.27858732  5536
KUIPER-00517            
1 69600U 26140J   26251.56885397  .00038462  00000+0  10485-2 0  9993
2 69600  51.8776 355.3314 0009216 123.8621 236.3244 15.37054373 14065
KUIPER-00520            
1 69601U 26140K   26252.00987760  .00001530  00000+0  24766-3 0  9995
2 69601  51.9012   6.7180 0001257 154.4671 205.6352 14.76595114 13940
KUIPER-00522            
1 69602U 26140L   26252.16670139 -.00036236  00000+0 -29543-2 0  9992
2 69602  51.8930 355.0716 0013924  94.0848 141.4416 14.98882205  5430
KUIPER-00528            
1 69603U 26140M   26251.62979916  .00002935  00000+0  41396-3 0  9996
2 69603  51.9038   9.1978 0000498  99.4606 260.6413 14.79923864 13875
KUIPER-00532            
1 69604U 26140N   26252.16670139 -.01908640  00000+0 -10874+0 0  9996
2 69604  51.8904 354.1092 0003583 201.3640 176.0303 15.15840443  5700
KUIPER-00533            
1 69605U 26140P   26252.16670139  .00040540  00000+0  53129-2 0  9993
2 69605  51.9020   1.8183 0000539 132.3724 270.5298 14.79947258  5537
KUIPER-00534            
1 69606U 26140Q   26251.56845057 -.00008770  00000+0 -26425-3 0  9991
2 69606  51.8855 356.0996 0013601  95.1320 265.1217 15.32351438 14059
KUIPER-00537            
1 69607U 26140R   26251.74529973  .00003200  00000+0  44804-3 0  9990
2 69607  51.9016  11.0957 0000615 317.9907  42.1008 14.79977677 13860
KUIPER-00538            
1 69608U 26140S   26252.05152139 -.00003196  00000+0 -38983-3 0  9999
2 69608  51.9026   7.2609 0000880  69.1086 290.9971 14.79988458 13941
KUIPER-00540            
1 69609U 26140T   26251.59851496  .00027053  00000+0  71787-3 0  9995
2 69609  51.8821 355.5634 0005112 219.6926 140.3688 15.38093865 14061
KUIPER-00541            
1 69610U 26140U   26252.16670139  .00046806  00000+0  13901-2 0  9994
2 69610  51.8849 352.3281 0007490 156.6726 345.8478 15.34296427  5395
KUIPER-00542            
1 69611U 26140V   26252.00875963  .00028401  00000+0  76507-3 0  9993
2 69611  51.8794 353.0459 0007967 135.5134 224.6494 15.37584422 14130
KUIPER-00543            
1 69612U 26140W   26252.16670139  .00040656  00000+0  22411-2 0  9999
2 69612  51.8938 353.9868 0005923 229.6398 132.6786 15.13583569  5802
KUIPER-00544            
1 69613U 26140X   26252.16670139 -.01001850  00000+0 -31330-1 0  9995
2 69613  51.8812 352.3433 0005309 142.1680 347.5205 15.35126962  5678
KUIPER-00546            
1 69614U 26140Y   26252.16670139 -.00009785  00000+0 -76877-3 0  9997
2 69614  51.8955 355.0604 0019172  90.2952 212.6446 14.99297387  4908
KUIPER-00547            
1 69615U 26140Z   26252.19348975 -.00436782  00000+0 -12335-1 0  9999
2 69615  51.8841 352.0644 0009660 118.6564 241.5395 15.37501645 14160
KUIPER-00549            
1 69616U 26140AA  26252.16670139 -.01080023  00000+0 -42691-1 0  9999
2 69616  51.8849 352.9874 0005973 217.1289 297.5814 15.27871386  5927
KUIPER-00550            
1 69617U 26140AB  26252.16670139 -.01936789  00000+0 -86828-1 0  9999
2 69617  51.8808 356.6193 0007447 260.8547 288.5835 15.24012624  4862
KUIPER-00551            
1 69618U 26140AC  26251.98880316  .00022795  00000+0  60271-3 0  9995
2 69618  51.8790 352.9151 0012034 110.6342 249.5937 15.38250384 14132
KUIPER-00554            
1 69619U 26140AD  26251.80411633  .00032754  00000+0  88999-3 0  9992
2 69619  51.8799 353.9269 0010041 121.5715 238.6254 15.37225748 14107
KUIPER-00555            
1 69620U 26140AE  26251.99388160  .00035337  00000+0  91021-3 0  9992
2 69620  51.8830 352.9780 0011364 110.2188 250.0022 15.38821197 14135
KUIPER-00556            
1 69621U 26140AF  26252.16670139  .00019158  00000+0  20423-2 0  9993
2 69621  51.8977 356.9998 0018200 100.4807 347.0681 14.88758231  5813
KUIPER-00557            
1 69622U 26140AG  26252.01394632  .00028069  00000+0  73532-3 0  9990
2 69622  51.8826 353.0979 0009275 127.1317 233.0519 15.38441966 14137
KUIPER-00560            
1 69623U 26140AH  26251.52078915  .00026269  00000+0  72321-3 0  9994
2 69623  51.8796 355.7667 0008180 146.3352 213.8156 15.36951664 14056
KUIPER-00561            
1 69624U 26140AJ  26252.16670139  .00034100  00000+0  44858-2 0  9998
2 69624  51.9022   1.7855 0001125 107.6435 115.8128 14.79872062  5703
KUIPER-00564            
1 69625U 26140AK  26252.16670139  .00003131  00000+0  46404-3 0  9999
2 69625  51.8987 359.0615 0004432 127.8994  23.7250 14.77587355  5916
KUIPER-00567            
1 69626U 26140AL  26252.16670139  .00020186  00000+0  23532-2 0  9995
2 69626  51.8997 356.9160 0014044  83.8545 240.3108 14.85120994  5439
KUIPER-00573            
1 69627U 26140AM  26252.16670139  .00006603  00000+0  89025-3 0  9994
2 69627  51.9020 359.3227 0001144  74.5477 134.2592 14.80127660  5493
KUIPER-00258            
1 69763U 26151A   26252.16670139 -.00571677  00000+0 -28772-1 0  9997
2 69763  51.8767 271.8737 0011429  14.3337  90.9793 15.18923820  5023
KUIPER-00526            
1 69764U 26151B   26252.12395230  .00001906  00000+0  27895-3 0  9998
2 69764  51.8991 284.5739 0000564  79.0418 281.0607 14.79922906 10418
KUIPER-00558            
1 69765U 26151C   26251.82007687  .00001820  00000+0  26765-3 0  9991
2 69765  51.8976 285.8384 0000448  93.5956 266.5057 14.79929177 10370
KUIPER-00569            
1 69766U 26151D   26252.10978606  .00001894  00000+0  27739-3 0  9995
2 69766  51.9019 282.0469 0000540  47.2025 312.8983 14.79927692 10451
KUIPER-00589            
1 69767U 26151E   26251.38373862  .00001325  00000+0  21898-3 0  9997
2 69767  51.9006 288.0458 0002455  36.7918 323.3211 14.76519045 10304
KUIPER-00598            
1 69768U 26151F   26252.16670139 -.00054632  00000+0 -68895-2 0  9990
2 69768  51.8984 276.8310 0003269  63.3295 113.6159 14.81742859  3871
KUIPER-00604            
1 69769U 26151G   26252.10480992  .00001294  00000+0  21450-3 0  9992
2 69769  51.9019 279.5040 0002862 339.6669  20.4177 14.76539570 10482
KUIPER-00609            
1 69770U 26151H   26252.16670139 -.00022051  00000+0 -31079-2 0  9997
2 69770  51.9005 276.3690 0001670   5.5527 316.3425 14.76617788  5893
KUIPER-00611            
1 69771U 26151J   26252.07875000  .00001795  00000+0  26402-3 0  9997
2 69771  51.8983 279.6858 0000475  42.6124 317.4875 14.79990203 10488
KUIPER-00612            
1 69772U 26151K   26252.10646354  .00001336  00000+0  21987-3 0  9994
2 69772  51.9011 281.8744 0000516  59.2499 300.8513 14.76630057 10453
KUIPER-00614            
1 69773U 26151L   26251.38658937  .00001784  00000+0  26302-3 0  9997
2 69773  51.8982 282.8170 0000880  60.0000 300.1049 14.79930649 10377
KUIPER-00615            
1 69774U 26151M   26252.13071468  .00001173  00000+0  19688-3 0  9991
2 69774  51.9011 284.3014 0000549 213.3836 146.7091 14.76608355 10428
KUIPER-00616            
1 69775U 26151N   26252.16670139 -.01581216  00000+0 -11010+0 0  9996
2 69775  51.8918 270.9626 0003472  85.6344  66.3603 15.08610477  5688
KUIPER-00617            
1 69776U 26151P   26252.16670139 -.00052234  00000+0 -61829-2 0  9995
2 69776  51.8988 274.3901 0004804  40.9007 181.0407 14.84332888  4934
KUIPER-00619            
1 69777U 26151Q   26252.16670139 -.00063293  00000+0 -86274-2 0  9994
2 69777  51.8984 276.3209 0000946 238.8368  49.3266 14.78567051  5479
KUIPER-00621            
1 69778U 26151R   26252.23052840  .00127497  00000+0  16877-1 0  9992
2 69778  51.8994 279.0269 0001613  60.7602 299.3521 14.78819857 10507
KUIPER-00622            
1 69779U 26151S   26252.18528243  .00001559  00000+0  25201-3 0  9995
2 69779  51.8996 282.9326 0001038  77.6446 282.4631 14.76552618 10446
KUIPER-00623            
1 69780U 26151T   26252.16670139  .00053796  00000+0  72029-2 0  9996
2 69780  51.8965 281.8205 0001801 156.7375 239.5663 14.78903471  5425
KUIPER-00626            
1 69781U 26151U   26252.16670139 -.00044427  00000+0 -53908-2 0  9995
2 69781  51.8972 276.8339 0007756  62.6781 192.7300 14.83216784  5717
KUIPER-00627            
1 69782U 26151V   26252.16670139 -.01782657  00000+0 -13450+0 0  9996
2 69782  51.8855 273.1299 0006461  42.0882 105.8058 15.05489704  5724
KUIPER-00629            
1 69783U 26151W   26251.83425989  .00001922  00000+0  28108-3 0  9997
2 69783  51.9022 288.2192 0000562  67.3280 292.7742 14.79935467 10341
KUIPER-00631            
1 69784U 26151X   26252.12124733  .00006466  00000+0  87572-3 0  9992
2 69784  51.9004 287.0108 0000556  73.2405 286.8618 14.79961180 10385
KUIPER-00634            
1 69785U 26151Y   26252.07600829  .00001002  00000+0  16040-3 0  9995
2 69785  51.9004 282.2175 0001307  94.8568 265.2544 14.79935782 10446
KUIPER-00639            
1 69786U 26151Z   26252.16670139 -.01871318  00000+0 -14582+0 0  9990
2 69786  51.8861 272.8577 0010668  13.3435   4.0182 15.04419432  4366
KUIPER-00641            
1 69787U 26151AA  26252.16670139 -.00045568  00000+0 -44789-2 0  9995
2 69787  51.8940 274.6307 0011100  17.8287 164.9638 14.91732118  5910
KUIPER-00644            
1 69788U 26151AB  26252.16670139 -.01159353  00000+0 -50950-1 0  9991
2 69788  51.8798 270.4250 0009889  17.6531  97.3637 15.24075124  4421
KUIPER-00646            
1 69789U 26151AC  26252.16670139 -.00043785  00000+0 -44556-2 0  9998
2 69789  51.8969 274.7198 0009211  38.5141 347.1560 14.90347503  5773
KUIPER-00647            
1 69790U 26151AD  26252.16670139 -.00041986  00000+0 -38797-2 0  9991
2 69790  51.8904 274.6947 0009798  23.1705 172.5038 14.94140845  5113
KUIPER-00662            
1 69791U 26151AE  26249.50589784  .00000849  00000+0  15146-3 0  9996
2 69791  51.9019 298.4125 0001499 329.9088  30.1787 14.76436793  9995
