ORBCOMM FM06            
1 25118U 97084G   26278.20221697  .00000858  00000+0  26898-3 0  9995
2 25118  45.0132 242.9958 0001806 312.8638  61.4776 14.47781924510339
ORBCOMM FM04            
1 25159U 98007C   26278.26469023  .00000567  00000+0  23922-3 0  9991
2 25159 107.9617  35.9746 0039173 136.2148 224.2109 14.35890864492392
ORBCOMM FM19            
1 25415U 98046C   26278.08340578  .00000569  00000+0  22559-3 0  9999
2 25415  44.9932  81.1069 0004556 144.8538 314.9518 14.39663070472618
ORBCOMM FM20            
1 25416U 98046D   26277.91012807  .00000426  00000+0  18533-3 0  9991
2 25416  44.9929  91.0817 0001662 140.2553 219.8417 14.38191906472588
ORBCOMM FM27            
1 25481U 98053G   26278.00108298  .00000543  00000+0  21868-3 0  9997
2 25481  45.0045 173.6996 0001681  21.4021 338.6898 14.39304674466054
ORBCOMM FM32            
1 25982U 99065C   26277.98109375  .00000488  00000+0  20960-3 0  9990
2 25982  45.0168  13.4852 0007813 239.3595 120.6483 14.37262005402886
ORBCOMM FM109           
1 40086U 14040A   26278.01738342  .00000253  00000+0  89696-4 0  9991
2 40086  47.0030 292.1817 0001814 327.0623  33.0150 14.58933363650380
ORBCOMM FM110           
1 41182U 15081D   26278.08724111  .00000328  00000+0  10540-3 0  9995
2 41182  47.0013 201.7471 0003031 234.9887 125.0715 14.58983280573670
ORBCOMM FM118           
1 41183U 15081E   26278.05491790  .00000356  00000+0  11155-3 0  9991
2 41183  47.0037 202.2730 0003122 187.6113 172.4726 14.58831331573776
ORBCOMM FM112           
1 41184U 15081F   26277.92045929  .00000223  00000+0  83354-4 0  9990
2 41184  46.9974 111.3079 0002705 346.4273  13.6540 14.58975721574974
ORBCOMM FM113           
1 41185U 15081G   26278.17436314  .00000189  00000+0  76100-4 0  9993
2 41185  46.9993 110.5362 0001594 340.2384  19.8440 14.58946377574996
ORBCOMM FM108           
1 41187U 15081J   26277.99714169  .00000262  00000+0  91505-4 0  9999
2 41187  47.0060  22.9608 0002270 320.2880  39.7840 14.58994525576114
ORBCOMM FM117           
1 41188U 15081K   26277.89526639  .00000312  00000+0  10205-3 0  9995
2 41188  47.0027  22.0532 0002603 329.0995  30.9737 14.58977325576149
ORBCOMM FM116           
1 41189U 15081L   26278.21807956  .00000251  00000+0  89203-4 0  9994
2 41189  47.0003 110.3262 0001631 215.1302 144.9476 14.58978242575001
