KUIPER-00008            
1 63724U 25088A   26263.82972907 -.00000244  00000+0 -30330-5 0  9993
2 63724  51.9016 305.1001 0000385  74.4283 285.6721 14.79926795 76946
KUIPER-00009            
1 63725U 25088B   26264.39148611  .00004477  00000+0  30513-3 0  9995
2 63725  51.9021 309.7701 0000312  60.9357 299.1648 15.08077948 76928
KUIPER-00010            
1 63726U 25088C   26264.40914235  .00000439  00000+0  86648-4 0  9996
2 63726  51.9026 297.6498 0000378  61.8745 298.2255 14.79926358 76711
KUIPER-00011            
1 63727U 25088D   26263.82704657  .00000358  00000+0  76003-4 0  9991
2 63727  51.9016 307.7646 0000379  67.9893 292.1110 14.79930655 76652
KUIPER-00012            
1 63728U 25088E   26265.09250405 -.00000503  00000+0 -37015-4 0  9994
2 63728  51.9028 287.1099 0000515 342.4935  17.6009 14.79927144 77005
KUIPER-00013            
1 63729U 25088F   26264.68605627  .00000577  00000+0  10464-3 0  9996
2 63729  51.9027 321.4265 0000343  83.1028 276.9974 14.79928966 76590
KUIPER-00014            
1 63730U 25088G   26264.38212057 -.00002092  00000+0 -24558-3 0  9991
2 63730  51.9073 322.7162 0000992  96.7588 263.3488 14.79919098 76365
KUIPER-00015            
1 63731U 25088H   26264.40514143 -.00000733  00000+0 -67194-4 0  9990
2 63731  51.9015 332.6579 0000213  95.3917 264.7070 14.79927171 76689
KUIPER-00016            
1 63732U 25088J   26264.37946854  .00001710  00000+0  25326-3 0  9999
2 63732  51.9015 325.2307 0000367  81.8391 278.2613 14.79928736 76325
KUIPER-00018            
1 63733U 25088K   26265.16684037  .00000712  00000+0  12233-3 0  9994
2 63733  51.9028 311.7955 0000189 323.3852  36.7097 14.79934470 76580
KUIPER-00019            
1 63734U 25088L   26264.45068628  .00000644  00000+0  11346-3 0  9996
2 63734  51.9016 313.7080 0000174  12.1785 347.9181 14.79936426 76495
KUIPER-00020            
1 63735U 25088M   26265.16414282  .00000585  00000+0  10571-3 0  9990
2 63735  51.9038 314.3043 0000321  58.7025 301.3969 14.79934965 76756
KUIPER-00021            
1 63736U 25088N   26264.38754777  .00000552  00000+0  10138-3 0  9993
2 63736  51.9005 317.6856 0000497  87.0625 273.0394 14.79935017 76479
KUIPER-00023            
1 63737U 25088P   26264.82379155  .00000628  00000+0  11140-3 0  9994
2 63737  51.9020 318.2478 0000406  65.9089 294.1916 14.79936063 76806
KUIPER-00024            
1 63738U 25088Q   26264.76977446  .00000458  00000+0  89144-4 0  9996
2 63738  51.9039 306.1020 0000391  58.9554 301.1447 14.79927607 77092
KUIPER-00025            
1 63739U 25088R   26265.13309383  .00001143  00000+0  17890-3 0  9998
2 63739  51.9056 311.9769 0000442  66.7232 293.3777 14.79928571 76901
KUIPER-00027            
1 63740U 25088S   26265.17224035  .00000823  00000+0  13700-3 0  9994
2 63740  51.9028 306.7605 0000352  63.6193 296.4805 14.79934171 76713
KUIPER-00028            
1 63741U 25088T   26263.85810338 -.00000142  00000+0  10371-4 0  9992
2 63741  51.9011 310.0125 0000262  61.0707 299.0282 14.79927191 76963
KUIPER-00029            
1 63742U 25088U   26264.64446559  .00000719  00000+0  12329-3 0  9994
2 63742  51.9033 305.2313 0000362 359.8953   0.2009 14.79928765 76625
KUIPER-00030            
1 63743U 25088V   26264.81840365 -.00000304  00000+0 -10902-4 0  9995
2 63743  51.9022 323.2838 0000098 169.4154 190.6810 14.79930682 76670
KUIPER-00031            
1 63744U 25088W   26264.39564917  .00000759  00000+0  12856-3 0  9996
2 63744  51.9035 310.1764 0000210  45.2600 314.8380 14.79931738 76531
KUIPER-00032            
1 63745U 25088X   26263.98550860  .00010844  00000+0  25408-3 0  9996
2 63745  51.8657 155.8439 0005265  96.5611 263.5977 15.42625309 79642
KUIPER-00033            
1 63746U 25088Y   26264.49834896  .00000755  00000+0  12804-3 0  9994
2 63746  51.9016 339.7232 0001045 101.3318 258.7762 14.79929638 76611
KUIPER-00034            
1 63747U 25088Z   26264.40370244  .00000474  00000+0  91198-4 0  9990
2 63747  51.9043 302.6771 0000502  86.0144 274.0876 14.79913896 76809
KUIPER-00035            
1 63748U 25088AA  26265.18712482  .00000879  00000+0  14432-3 0  9995
2 63748  51.9025 324.1764 0000386  87.1905 272.9102 14.79917148 76621
KUIPER-00037            
1 63749U 25088AB  26264.84239844 -.00001224  00000+0 -13167-3 0  9995
2 63749  51.9035 324.5624 0000467  43.4189 316.6811 14.79926518 77378
KUIPER-00038            
1 63750U 25088AC  26264.42672007  .00000801  00000+0  13403-3 0  9994
2 63750  51.9033 312.5744 0000452  83.3202 276.7812 14.79932738 76503
KUIPER-00039            
1 64500U 25134A   26264.93951436  .00001780  00000+0  26234-3 0  9995
2 64500  51.9016  85.3021 0000801 115.5384 244.5661 14.79941948 69137
KUIPER-00040            
1 64501U 25134B   26264.89497266  .00001791  00000+0  26379-3 0  9999
2 64501  51.8980  95.5563 0001089 116.8606 243.2468 14.79938064 68989
KUIPER-00041            
1 64502U 25134C   26264.92603053 -.00000337  00000+0 -15138-4 0  9996
2 64502  51.8999  97.8120 0000830 111.1317 248.9734 14.79930559 68950
KUIPER-00042            
1 64503U 25134D   26265.23529507  .00001892  00000+0  27700-3 0  9995
2 64503  51.8981  91.4219 0000661 110.2283 249.8750 14.79943705 69074
KUIPER-00043            
1 64504U 25134E   26264.90575354  .00001663  00000+0  24709-3 0  9992
2 64504  51.9019  85.3943 0000752 116.5664 243.5375 14.79931465 69138
KUIPER-00044            
1 64505U 25134F   26264.95980594  .00001778  00000+0  26218-3 0  9998
2 64505  51.8996  97.6436 0000769 117.5927 242.5114 14.79931377 68968
KUIPER-00046            
1 64506U 25134G   26264.72611054  .00001344  00000+0  20525-3 0  9990
2 64506  51.8993  96.1471 0000933 120.8653 239.2402 14.79926458 68962
KUIPER-00047            
1 64507U 25134H   26265.19474887  .00000103  00000+0  42547-4 0  9995
2 64507  51.8999  66.6041 0000682 116.0907 244.0125 14.79932963 69419
KUIPER-00048            
1 64508U 25134J   26264.82332862  .00002058  00000+0  29884-3 0  9990
2 64508  51.8987  68.2584 0000649 101.0369 259.0666 14.79935706 69364
KUIPER-00049            
1 64509U 25134K   26264.91111936 -.00000090  00000+0  17146-4 0  9992
2 64509  51.9006  80.3429 0000644 102.9728 257.1306 14.79931137 69202
KUIPER-00050            
1 64510U 25134L   26265.13261734  .00002207  00000+0  31838-3 0  9995
2 64510  51.8999  61.8838 0000514 118.6358 241.4656 14.79931654 69489
KUIPER-00051            
1 64511U 25134M   26265.22480841  .00000311  00000+0  69743-4 0  9999
2 64511  51.9006  77.6550 0000827 116.7162 243.3885 14.79933005 69268
KUIPER-00053            
1 64513U 25134P   26264.89212578  .00001582  00000+0  22712-3 0  9998
2 64513  51.9002  73.5098 0002485 125.1256 234.9940 14.81718311 69293
KUIPER-00054            
1 64514U 25134Q   26265.15828456  .00000499  00000+0  94413-4 0  9991
2 64514  51.8980  69.2517 0000917 119.6768 240.4286 14.79933243 69374
KUIPER-00055            
1 64515U 25134R   26264.70298337 -.00004058  00000+0 -50361-3 0  9991
2 64515  51.9035  23.9165 0000254 151.2832 208.8144 14.79935521 69979
KUIPER-00056            
1 64516U 25134S   26265.18666649  .00001911  00000+0  27953-3 0  9994
2 64516  51.9023  74.2452 0000875 125.2070 234.8975 14.79937783 69310
KUIPER-00057            
1 64517U 25134T   26264.90844313  .00001900  00000+0  27814-3 0  9994
2 64517  51.9007  82.8884 0000659 118.6839 241.4190 14.79938340 69162
KUIPER-00058            
1 64518U 25134U   26265.21772352  .00000387  00000+0  79754-4 0  9992
2 64518  51.9007  76.5005 0000731 118.0405 242.0631 14.79933465 69285
KUIPER-00059            
1 64519U 25134V   26264.88546905  .00001658  00000+0  24650-3 0  9994
2 64519  51.9012  73.0053 0000495 117.6053 242.4960 14.79927867 69309
KUIPER-00060            
1 64520U 25134W   26265.18936828  .00000255  00000+0  62447-4 0  9996
2 64520  51.9036  71.7405 0000618 117.2106 242.8920 14.79932190 69333
KUIPER-00061            
1 64521U 25134X   26264.87737309  .00001672  00000+0  24823-3 0  9994
2 64521  51.8996  80.5602 0000893 122.6553 237.4496 14.79940648 69184
KUIPER-00062            
1 64522U 25134Y   26264.87467428  .00001821  00000+0  26777-3 0  9993
2 64522  51.8966  83.0161 0000829 123.9822 236.1219 14.79941222 69168
KUIPER-00063            
1 64523U 25134Z   26265.20425075  .00001297  00000+0  19914-3 0  9996
2 64523  51.9024  89.1586 0000625 108.4162 251.6868 14.79938698 69101
KUIPER-00064            
1 64524U 25134AA  26264.93682376  .00001348  00000+0  20579-3 0  9991
2 64524  51.9027  87.7681 0001096 114.7022 245.4054 14.79927561 69108
KUIPER-00065            
1 64525U 25134AB  26264.72885592  .00001596  00000+0  23822-3 0  9993
2 64525  51.9035  93.8636 0000697 113.0502 247.0534 14.79939265 68987
KUIPER-00066            
1 64526U 25134AC  26264.89752377  .00002077  00000+0  30124-3 0  9994
2 64526  51.9027  30.3833 0000494 124.0230 236.0779 14.79941854 69908
KUIPER-00069            
1 64816U 25151A   26265.02335788  .00001033  00000+0  16445-3 0  9995
2 64816  51.9023 132.4676 0000860 105.3368 254.7689 14.79929377 65837
KUIPER-00070            
1 64817U 25151B   26265.09766547  .00001895  00000+0  27749-3 0  9999
2 64817  51.9008 157.0366 0001196  90.0601 270.0498 14.79939138 65502
KUIPER-00071            
1 64818U 25151C   26264.89778117  .00000251  00000+0  61910-4 0  9997
2 64818  51.9024 155.4672 0000957 101.4276 258.6794 14.79931984 64323
KUIPER-00072            
1 64819U 25151D   26265.02064511  .00001615  00000+0  24077-3 0  9997
2 64819  51.8983 134.8432 0001148  99.6174 260.4918 14.79930075 64622
KUIPER-00073            
1 64820U 25151E   26264.99908043  .00001960  00000+0  28601-3 0  9991
2 64820  51.8994 154.9965 0001146  87.5696 272.5398 14.79930820 65527
KUIPER-00075            
1 64822U 25151G   26265.25382313  .00017644  00000+0  46095-3 0  9992
2 64822  51.8668 343.4789 0002185 253.2590 106.8158 15.38856518 66740
KUIPER-00076            
1 64823U 25151H   26264.87480113  .00001874  00000+0  27475-3 0  9996
2 64823  51.9019 145.5712 0001000  91.3307 268.7770 14.79937494 64463
KUIPER-00077            
1 64824U 25151J   26264.86942057  .00001878  00000+0  27533-3 0  9995
2 64824  51.9013 150.6174 0001114  94.4132 265.6958 14.79929292 64396
KUIPER-00078            
1 64825U 25151K   26264.97339773  .00000489  00000+0  93122-4 0  9998
2 64825  51.8985 147.6269 0001141 101.1364 258.9727 14.79931275 64447
KUIPER-00079            
1 64826U 25151L   26265.13683329  .00002089  00000+0  30296-3 0  9997
2 64826  51.8995 151.8598 0001173  89.2719 270.8378 14.79931978 65598
KUIPER-00080            
1 64827U 25151M   26265.10306545 -.00000125  00000+0  12627-4 0  9996
2 64827  51.8999 152.0210 0000923 103.0058 257.1007 14.79930366 64394
KUIPER-00082            
1 64828U 25151N   26264.94773044  .00001149  00000+0  17977-3 0  9998
2 64828  51.9017 140.2720 0000953  97.0873 263.0198 14.79928495 64546
KUIPER-00083            
1 64829U 25151P   26264.87210257  .00001801  00000+0  26523-3 0  9995
2 64829  51.9013 148.0876 0001185  92.7300 267.3798 14.79938544 65614
KUIPER-00084            
1 64830U 25151Q   26264.99636143 -.00003045  00000+0 -37039-3 0  9994
2 64830  51.8998 157.5200 0001159  91.9153 268.1943 14.79946708 64308
KUIPER-00085            
1 64831U 25151R   26264.91397879  .00000047  00000+0  35124-4 0  9998
2 64831  51.9051 140.4791 0001034  97.0686 263.0394 14.79929212 64536
KUIPER-00086            
1 64832U 25151S   26264.97070975  .00000317  00000+0  70645-4 0  9997
2 64832  51.9005 150.1610 0000969  98.9946 261.1126 14.79931926 64402
KUIPER-00087            
1 64833U 25151T   26264.85458774  .00001611  00000+0  24012-3 0  9996
2 64833  51.8993 133.1299 0000855  92.9049 267.2011 14.79960030 64626
KUIPER-00089            
1 64834U 25151U   26264.91665918  .00001700  00000+0  25199-3 0  9990
2 64834  51.9014 137.8805 0000685 105.1134 254.9904 14.79930101 64573
KUIPER-00090            
1 64835U 25151V   26264.85721010  .00001756  00000+0  25935-3 0  9999
2 64835  51.8987 130.6365 0000913 104.2548 255.8516 14.79923122 64661
KUIPER-00091            
1 64836U 25151W   26264.85182113  .00001588  00000+0  23720-3 0  9998
2 64836  51.9012 135.6903 0001081 103.3593 256.7490 14.79938635 64590
KUIPER-00092            
1 64837U 25151X   26264.84373591  .00000987  00000+0  15843-3 0  9999
2 64837  51.9006 143.2127 0000834  99.2678 260.8378 14.79937337 65702
KUIPER-00093            
1 64838U 25151Y   26265.11115796  .00001985  00000+0  28930-3 0  9992
2 64838  51.9011 144.4995 0000926 107.2072 252.8992 14.79935799 64493
KUIPER-00094            
1 64839U 25151Z   26265.22724935  .00001913  00000+0  27990-3 0  9992
2 64839  51.9040  99.1025 0001124 113.4230 246.6851 14.79932841 65145
KUIPER-00081            
1 65132U 25171A   26265.23377772  .00000206  00000+0  56024-4 0  9990
2 65132  51.9017 358.9566 0000353  52.4829 307.6166 14.79935085 62148
KUIPER-00088            
1 65133U 25171B   26264.80972900  .00002251  00000+0  32417-3 0  9998
2 65133  51.9006  18.3285 0000437 107.2335 252.8676 14.79938086 61832
KUIPER-00095            
1 65134U 25171C   26264.56119268  .00002075  00000+0  30105-3 0  9998
2 65134  51.8998 359.4643 0000348 105.2311 254.8690 14.79936269 62078
KUIPER-00096            
1 65135U 25171D   26264.58146562  .00000249  00000+0  61689-4 0  9991
2 65135  51.9011  11.8324 0000196 112.1041 247.9942 14.79932951 61907
KUIPER-00097            
1 65136U 25171E   26265.25409164  .00002253  00000+0  32439-3 0  9994
2 65136  51.9030  11.5287 0000477  95.4476 264.6541 14.79934725 61958
KUIPER-00098            
1 65137U 25171F   26264.57605494  .00003974  00000+0  54975-3 0  9993
2 65137  51.9030  16.8851 0000513  83.1464 276.9557 14.79953134 61178
KUIPER-00099            
1 65138U 25171G   26264.75569458  .00002047  00000+0  29737-3 0  9991
2 65138  51.9034   6.1066 0000354 112.1810 247.9190 14.79932427 61997
KUIPER-00100            
1 65139U 25171H   26265.26485665  .00002180  00000+0  31490-3 0  9993
2 65139  51.9028   1.3205 0000402  90.1234 269.9775 14.79936186 62105
KUIPER-00102            
1 65140U 25171J   26264.78944735  .00002119  00000+0  30681-3 0  9992
2 65140  51.8993   5.8894 0000348 126.6702 233.4293 14.79935164 61996
KUIPER-00103            
1 65141U 25171K   26264.66926225  .00000485  00000+0  92671-4 0  9996
2 65141  51.9007  23.9232 0000322 120.0280 240.0715 14.79931769 61734
KUIPER-00104            
1 65142U 25171L   26265.29053413  .00002326  00000+0  33393-3 0  9998
2 65142  51.9036   8.6965 0000304 106.7410 253.3585 14.79935054 62000
KUIPER-00105            
1 65143U 25171M   26264.57338317  .00002069  00000+0  30034-3 0  9991
2 65143  51.9020  19.4594 0000489 108.0026 252.0990 14.79936246 61799
KUIPER-00106            
1 65144U 25171N   26264.55410309  .00002156  00000+0  31171-3 0  9992
2 65144  51.9029 358.3136 0000435  94.9317 265.1695 14.79937810 62092
KUIPER-00107            
1 65145U 25171P   26265.26753950  .00000439  00000+0  86624-4 0  9990
2 65145  51.9026 358.8327 0000810  85.7410 274.3645 14.79925673 62143
KUIPER-00108            
1 65146U 25171Q   26265.28783988  .00001013  00000+0  16186-3 0  9991
2 65146  51.9029  11.2909 0000444  52.5671 307.5332 14.79933927 61970
KUIPER-00109            
1 65147U 25171R   26264.98934325  .00000760  00000+0  12862-3 0  9996
2 65147  51.9050   7.5509 0000266  89.8169 270.2824 14.79932993 61992
KUIPER-00110            
1 65148U 25171S   26264.53692688  .00000670  00000+0  11690-3 0  9999
2 65148  51.9019  22.0968 0000405 122.2682 237.8320 14.79932255 61740
KUIPER-00111            
1 65149U 25171T   26264.63280999  .00002210  00000+0  31873-3 0  9996
2 65149  51.8976  26.5318 0000262 113.6286 246.4704 14.79935843 61697
KUIPER-00112            
1 65150U 25171U   26265.29321051  .00006022  00000+0  81771-3 0  9993
2 65150  51.9027   6.2500 0000195 103.1977 256.9007 14.79960393 62030
KUIPER-00114            
1 65151U 25171V   26264.63011692  .00002071  00000+0  30058-3 0  9990
2 65151  51.9016  29.1416 0000211 110.9101 249.1884 14.79930368 61656
KUIPER-00115            
1 65152U 25171W   26264.63822118  .00002133  00000+0  30868-3 0  9992
2 65152  51.9015  21.6151 0000463 110.6931 249.4081 14.79932329 61769
KUIPER-00116            
1 65153U 25171X   26264.53153082  .00000219  00000+0  57733-4 0  9993
2 65153  51.9012  27.1178 0000476 104.2052 255.8963 14.79934164 61673
KUIPER-00118            
1 65154U 25171Y   26264.52882201 -.00000367  00000+0 -19160-4 0  9993
2 65154  51.8997  29.5766 0000537 104.1240 255.9782 14.79930225 61641
KUIPER-00119            
1 65155U 25171Z   26265.28513980 -.00000472  00000+0 -32945-4 0  9996
2 65155  51.9039  13.8386 0000559  77.1581 282.9444 14.79930063 61921
KUIPER-00120            
1 65762U 25217A   26264.71160455  .00001653  00000+0  24573-3 0  9990
2 65762  51.9004 266.2388 0000549  62.5949 297.5069 14.79933610 53767
KUIPER-00132            
1 65763U 25217B   26265.01086911  .00014286  00000+0  36761-3 0  9997
2 65763  51.8520 128.1095 0004941 305.6264  54.4263 15.39489547 55706
KUIPER-00133            
1 65764U 25217C   26264.54279566  .00000186  00000+0  53441-4 0  9994
2 65764  51.9045 267.1259 0000555  46.2230 313.8778 14.79932866 53749
KUIPER-00139            
1 65765U 25217D   26265.11806186  .00001950  00000+0  28470-3 0  9996
2 65765  51.8974 232.0036 0000886  56.7735 303.3312 14.79934694 54286
KUIPER-00142            
1 65766U 25217E   26265.00060510  .00001763  00000+0  26030-3 0  9990
2 65766  51.8983 247.4911 0000667  64.1636 295.9395 14.79926767 54053
KUIPER-00145            
1 65767U 25217F   26265.13296892  .00001898  00000+0  27787-3 0  9998
2 65767  51.9007 249.4312 0000643  63.5497 296.5532 14.79931697 54037
KUIPER-00147            
1 65768U 25217G   26264.69121491  .00001694  00000+0  25101-3 0  9993
2 65768  51.8982 253.8561 0000781  32.1998 327.9012 14.79960239 53939
KUIPER-00148            
1 65769U 25217H   26265.18290981 -.00001756  00000+0 -20140-3 0  9999
2 65769  51.9035 234.2357 0000422  82.6044 277.4966 14.79923918 54256
KUIPER-00150            
1 65770U 25217J   26265.01819645  .00000328  00000+0  71963-4 0  9999
2 65770  51.9016 262.4610 0000529  75.8162 284.2859 14.79931680 53841
KUIPER-00151            
1 65771U 25217K   26265.22887707  .00001848  00000+0  27137-3 0  9998
2 65771  51.9026 254.0288 0000649  61.1519 298.9508 14.79933103 53988
KUIPER-00152            
1 65772U 25217L   26264.66834693  .00001457  00000+0  22007-3 0  9999
2 65772  51.9001 243.9862 0000774  48.2435 311.8594 14.79937470 54071
KUIPER-00153            
1 65773U 25217M   26265.07892686  .00001884  00000+0  27612-3 0  9993
2 65773  51.9010 237.2588 0000919  80.3841 279.7226 14.79931547 54200
KUIPER-00155            
1 65774U 25217N   26265.24365138  .00002124  00000+0  30753-3 0  9998
2 65774  51.9009 208.9928 0000804  87.1939 272.9115 14.79926666 54611
KUIPER-00156            
1 65775U 25217P   26265.11269163  .00000446  00000+0  87534-4 0  9991
2 65775  51.9052 237.0940 0000789  71.7193 288.3855 14.79934826 54204
KUIPER-00165            
1 65778U 25217S   26265.10190946  .00000020  00000+0  31633-4 0  9992
2 65778  51.9011 247.0735 0000646  99.0084 261.0952 14.79940208 54060
KUIPER-00166            
1 65779U 25217T   26265.08159501  .00002079  00000+0  30163-3 0  9994
2 65779  51.9042 234.7232 0000716  90.6332 269.4712 14.79924267 54233
KUIPER-00167            
1 65780U 25217U   26264.68590447  .00000576  00000+0  10455-3 0  9991
2 65780  51.8951 258.7868 0000716  40.6954 319.4062 14.79934159 53862
KUIPER-00168            
1 65781U 25217V   26265.10998961  .00001992  00000+0  29022-3 0  9996
2 65781  51.8996 239.5413 0000793  58.2467 301.8572 14.79931949 54174
KUIPER-00169            
1 65782U 25217W   26265.10460215  .00000296  00000+0  67897-4 0  9992
2 65782  51.9011 244.5759 0000647  85.2985 274.8051 14.79932186 54104
KUIPER-00170            
1 65783U 25217X   26265.23425664  .00001805  00000+0  26566-3 0  9990
2 65783  51.8994 248.9465 0000663  61.6748 298.4281 14.79940328 54057
KUIPER-00172            
1 65785U 25217Z   26265.21937156  .00001950  00000+0  28472-3 0  9993
2 65785  51.8984 231.5442 0000978  55.3897 304.7158 14.79929137 54290
KUIPER-00173            
1 65786U 25217AA  26264.93577497  .00000675  00000+0  11761-3 0  9996
2 65786  51.8993 245.3167 0000865  43.7885 316.3146 14.79932533 54077
KUIPER-00174            
1 65787U 25217AB  26264.94116554  .00002165  00000+0  31295-3 0  9991
2 65787  51.9009 240.3582 0000318  82.4359 277.6639 14.79917061 54145
KUIPER-00176            
1 65788U 25217AC  26265.12756991  .00003110  00000+0  43679-3 0  9998
2 65788  51.8958 254.4446 0001060  61.9656 298.1413 14.79937887 53965
KUIPER-00101            
1 65947U 25228A   26265.07194284 -.00014534  00000+0 -18812-2 0  9996
2 65947  51.8969 212.1352 0000709  51.5048 308.5978 14.79940807 52316
KUIPER-00113            
1 65948U 25228B   26265.04370754  .00002201  00000+0  31758-3 0  9993
2 65948  51.8981 207.2847 0000933  81.2301 278.8767 14.79937789 52372
KUIPER-00117            
1 65949U 25228C   26265.20984591  .00000773  00000+0  13039-3 0  9996
2 65949  51.8967 209.0474 0000952  72.6831 287.4235 14.79927036 52365
KUIPER-00121            
1 65950U 25228D   26265.24903202  .00002186  00000+0  31563-3 0  9994
2 65950  51.8985 203.8977 0000873  72.7083 287.3975 14.79931736 52440
KUIPER-00122            
1 65951U 25228E   26265.10317526  .00001958  00000+0  28589-3 0  9998
2 65951  51.8993 214.5107 0000708  71.5957 288.5082 14.79922800 52284
KUIPER-00123            
1 65952U 25228F   26265.06938781  .00001452  00000+0  21934-3 0  9992
2 65952  51.8965 214.6669 0000643 267.7303  92.3585 14.79939530 52276
KUIPER-00124            
1 65953U 25228G   26265.21256048  .00002091  00000+0  30318-3 0  9995
2 65953  51.8974 206.5242 0001075  66.4335 293.6740 14.79939288 52407
KUIPER-00125            
1 65954U 25228H   26265.16113799 -.00003882  00000+0 -48043-3 0  9990
2 65954  51.8996 191.8074 0000959 155.2453 204.8555 14.79937443 52600
KUIPER-00126            
1 65955U 25228J   26265.24094260  .00001997  00000+0  29079-3 0  9992
2 65955  51.8990 211.4321 0000804  78.7790 281.3263 14.79937239 52330
KUIPER-00127            
1 65956U 25228K   26265.02956106  .00001945  00000+0  28413-3 0  9999
2 65956  51.9005 204.8489 0000893  69.5557 290.5501 14.79929953 52417
KUIPER-00128            
1 65957U 25228L   26265.21527115  .00002226  00000+0  32088-3 0  9991
2 65957  51.8998 204.0954 0000891  79.6654 280.4409 14.79938426 52437
KUIPER-00129            
1 65958U 25228M   26265.18687484 -.00000957  00000+0 -96478-4 0  9999
2 65958  51.8998 199.1993 0000875  69.2390 290.8666 14.79935370 52502
KUIPER-00130            
1 65959U 25228N   26265.21797697  .00002338  00000+0  33560-3 0  9997
2 65959  51.9025 201.6095 0000827  85.1840 274.9217 14.79934820 42762
KUIPER-00134            
1 65960U 25228P   26264.89509418  .00012828  00000+0  34788-3 0  9992
2 65960  51.8703  87.8853 0004111 277.4097  82.6423 15.37973105 54021
KUIPER-00135            
1 65961U 25228Q   26265.25173745  .00002241  00000+0  32285-3 0  9992
2 65961  51.9008 201.5111 0000875  80.4110 279.6951 14.79939199 52475
KUIPER-00136            
1 65962U 25228R   26265.22056638 -.00000402  00000+0 -23739-4 0  9995
2 65962  51.9011 199.0916 0001247  72.7766 287.3333 14.79907075 52501
KUIPER-00137            
1 65963U 25228S   26265.22336964  .00002255  00000+0  32469-3 0  9994
2 65963  51.9020 196.5943 0001076  63.7523 296.3550 14.79937323 52549
KUIPER-00138            
1 65964U 25228T   26265.19226980 -.00001966  00000+0 -22889-3 0  9992
2 65964  51.8991 194.1293 0001073  87.4098 272.6987 14.79937215 52579
KUIPER-00140            
1 65965U 25228U   26265.12206276  .00002366  00000+0  33918-3 0  9990
2 65965  51.8984 197.0310 0001122  73.8952 286.2134 14.79941098 52521
KUIPER-00141            
1 65966U 25228V   26265.19500432  .00002137  00000+0  30932-3 0  9998
2 65966  51.9020 191.7874 0000704 102.6485 257.4556 14.79928914 52606
KUIPER-00146            
1 65967U 25228W   26264.55077370  .00001528  00000+0  22951-3 0  9993
2 65967  51.9033 197.1521 0001540  60.1780 299.9335 14.79929443 52474
KUIPER-00149            
1 65968U 25228X   26264.99509652  .00000737  00000+0  12566-3 0  9997
2 65968  51.9013 190.0552 0000971  83.4143 276.6929 14.79932687 52618
KUIPER-00154            
1 65969U 25228Y   26265.09908938  .00002125  00000+0  30767-3 0  9996
2 65969  51.8994 187.0791 0000959  86.5234 273.5838 14.79936442 52661
KUIPER-00157            
1 65970U 25228Z   26265.19298099  .00002020  00000+0  31666-3 0  9992
2 65970  51.9021 188.9239 0001671 135.8444 224.2651 14.76663245 52644
KUIPER-00144            
1 67133U 25301A   26264.74266849  .00001601  00000+0  23891-3 0  9990
2 67133  51.9016 268.6791 0000678  63.2017 296.9015 14.79937264 42902
KUIPER-00164            
1 67134U 25301B   26264.99932724  .00001512  00000+0  22734-3 0  9996
2 67134  51.9046 280.0665 0000479  53.8344 306.2663 14.79929532 42948
KUIPER-00175            
1 67135U 25301C   26264.37665222  .00001649  00000+0  24527-3 0  9998
2 67135  51.8998 265.2501 0000606  46.4580 313.6433 14.79939245 42994
KUIPER-00179            
1 67136U 25301D   26263.24621816  .00001666  00000+0  24748-3 0  9999
2 67136  51.8990 285.2476 0000435  58.3647 301.7358 14.79935525 42728
KUIPER-00181            
1 67137U 25301E   26265.05606929  .00001588  00000+0  23731-3 0  9993
2 67137  51.9042 289.8111 0000343  35.9450 324.1535 14.79930159 42796
KUIPER-00183            
1 67138U 25301F   26264.71700939  .00000373  00000+0  77905-4 0  9996
2 67138  51.9014 261.3159 0000588  54.3300 305.7717 14.79932579 43171
KUIPER-00184            
1 67139U 25301G   26264.02821612  .00001537  00000+0  23047-3 0  9993
2 67139  51.8995 276.8007 0000472  62.8631 297.2379 14.79939507 43004
KUIPER-00186            
1 67140U 25301H   26264.34699121  .00001528  00000+0  22937-3 0  9995
2 67140  51.9041 292.9559 0000363  65.0111 295.0889 14.79933234 42537
KUIPER-00187            
1 67141U 25301J   26264.34424222  .00001463  00000+0  22086-3 0  9997
2 67141  51.9036 295.4952 0000557  99.6675 260.4350 14.79942628 42491
KUIPER-00188            
1 67142U 25301K   26265.02089718  .00001708  00000+0  25300-3 0  9995
2 67142  51.9026 260.0878 0000619  50.0747 310.0270 14.79940617 43047
KUIPER-00191            
1 67143U 25301L   26264.79134088  .00000052  00000+0  35868-4 0  9992
2 67143  51.9034 285.9925 0000401  31.9262 328.1725 14.79930293 42699
KUIPER-00196            
1 67144U 25301M   26265.10728856  .00002023  00000+0  29418-3 0  9994
2 67144  51.8966 242.0439 0000640  69.4910 290.6121 14.79941731 43309
KUIPER-00204            
1 67145U 25301N   26264.71966594  .00001613  00000+0  24042-3 0  9996
2 67145  51.9014 258.7962 0000614  67.4413 292.6614 14.79947859 43156
KUIPER-00210            
1 67146U 25301P   26264.75753724  .00001519  00000+0  22812-3 0  9998
2 67146  51.9005 286.0859 0000437  47.4328 312.6671 14.79947594 42838
KUIPER-00221            
1 67147U 25301Q   26264.78323816  .00000786  00000+0  13212-3 0  9996
2 67147  51.9016 293.5099 0000590  53.4394 306.6623 14.79935743 42563
KUIPER-00232            
1 67148U 25301R   26265.03578307  .00001437  00000+0  21751-3 0  9994
2 67148  51.8959 277.3989 0000670  79.5654 280.5384 14.79936325 42802
KUIPER-00241            
1 67149U 25301S   26264.38345180  .00001626  00000+0  24228-3 0  9995
2 67149  51.9034 290.3113 0000770  61.8802 298.2238 14.79932850 42906
KUIPER-00245            
1 67150U 25301T   26264.37537857 -.00000093  00000+0  16802-4 0  9998
2 67150  51.9017 297.8556 0000595  87.1819 272.9211 14.79930189 42460
KUIPER-00246            
1 67151U 25301U   26265.03308330  .00000187  00000+0  53519-4 0  9994
2 67151  51.9016 279.8829 0000479  75.5561 284.5454 14.79930154 42795
KUIPER-00247            
1 67152U 25301V   26265.04385840  .00001634  00000+0  24329-3 0  9991
2 67152  51.8962 269.7781 0000531  57.5521 302.5492 14.79935686 42917
KUIPER-00248            
1 67153U 25301W   26265.13027655  .00001897  00000+0  27779-3 0  9992
2 67153  51.8985 252.0416 0000641  62.8681 297.2346 14.79939964 43339
KUIPER-00249            
1 67154U 25301X   26264.30374337  .00000345  00000+0  74280-4 0  9990
2 67154  51.8988 270.6311 0000542  46.0481 314.0526 14.79932447 42836
KUIPER-00250            
1 67155U 25301Y   26264.05120344  .00001522  00000+0  22856-3 0  9999
2 67155  51.9006 286.7008 0000639  62.0882 298.0145 14.79929577 42625
KUIPER-00251            
1 67156U 25301Z   26264.73998924  .00001736  00000+0  25665-3 0  9990
2 67156  51.9007 271.2319 0000367  63.1810 296.9190 14.79933526 43056
KUIPER-00252            
1 67157U 25301AA  26264.06197157  .00001553  00000+0  23258-3 0  9999
2 67157  51.9007 276.6800 0000520  80.5064 279.5957 14.79937659 42739
KUIPER-00261            
1 67158U 25301AB  26265.03038267  .00001018  00000+0  16244-3 0  9997
2 67158  51.9030 282.4642 0000403  42.9197 317.1796 14.79939811 42736
KUIPER-00265            
1 67159U 25301AC  26263.83243302  .00001604  00000+0  23932-3 0  9995
2 67159  51.9066 302.7392 0000247  92.1674 267.9317 14.79931693 42389
KUIPER-00159            
1 67764U 26030A   26262.82193820  .00030410  00000+0  43058-2 0  9991
2 67764  51.9029  25.8853 0000841 130.3121 229.7914 14.76806610 34609
KUIPER-00160            
1 67765U 26030B   26265.25002315  .00032441  00000+0  42675-2 0  9990
2 67765  51.8990 356.4561 0001221 150.4015 191.8071 14.79897951  5245
KUIPER-00177            
1 67766U 26030C   26265.06238951  .00001887  00000+0  27645-3 0  9998
2 67766  51.9009  64.7659 0000791 105.8233 254.2817 14.79939967 34251
KUIPER-00178            
1 67767U 26030D   26264.75851226  .00001973  00000+0  28777-3 0  9993
2 67767  51.9014  66.0903 0000535 120.7743 239.3272 14.79930997 34212
KUIPER-00180            
1 67768U 26030E   26264.62884360  .00001919  00000+0  28062-3 0  9992
2 67768  51.8984  61.6559 0000630 124.2491 235.8531 14.79931334 34261
KUIPER-00197            
1 67769U 26030F   26264.92052211  .00001914  00000+0  27994-3 0  9996
2 67769  51.8990  40.3832 0000474 128.1617 231.9388 14.79940118 34588
KUIPER-00198            
1 67770U 26030G   26264.60316633  .00001981  00000+0  28877-3 0  9999
2 67770  51.8979  54.2600 0000591 123.8425 236.2594 14.79927632 34362
KUIPER-00199            
1 67771U 26030H   26265.25002315 -.00045441  00000+0 -28782-2 0  9996
2 67771  51.8906 352.1257 0013597  45.2557 330.9781 15.08429388  4044
KUIPER-00200            
1 67772U 26030J   26264.61935099  .00002000  00000+0  29134-3 0  9995
2 67772  51.8989  39.2331 0000487 120.2292 239.8719 14.79930586 34579
KUIPER-00203            
1 67773U 26030K   26264.78688585  .00001982  00000+0  28890-3 0  9995
2 67773  51.9067  71.0675 0000858 121.8057 238.2989 14.79938258 34140
KUIPER-00205            
1 67774U 26030L   26264.55450865  .00000740  00000+0  12610-3 0  9993
2 67774  51.9022  36.9862 0000363 117.6703 242.4296 14.79932310 34604
KUIPER-00208            
1 67775U 26030M   26264.69367037  .00001167  00000+0  18213-3 0  9996
2 67775  51.8983  63.8657 0001352 120.8647 239.2449 14.79936588 34237
KUIPER-00209            
1 67776U 26030N   26265.13531375  .00000978  00000+0  15732-3 0  9997
2 67776  51.8994  59.5141 0000697 132.8004 227.3017 14.79938430 34339
KUIPER-00213            
1 67777U 26030P   26265.10421378  .00002034  00000+0  29555-3 0  9999
2 67777  51.8959  57.1083 0000602 120.5310 239.5712 14.79951074 34369
KUIPER-00214            
1 67778U 26030Q   26264.93812749  .00001663  00000+0  24717-3 0  9998
2 67778  51.9010  55.3780 0000596 127.5353 232.5663 14.79927425 34371
KUIPER-00215            
1 67779U 26030R   26264.64770258 -.00001052  00000+0 -10899-3 0  9995
2 67779  51.8999  44.0188 0000561 112.2223 247.8799 14.79929981 34517
KUIPER-00218            
1 67780U 26030S   26264.93541684  .00002232  00000+0  32171-3 0  9994
2 67780  51.8975  57.7847 0000535 120.2400 239.8616 14.79934173 34342
KUIPER-00220            
1 67781U 26030T   26264.69227030  .00002060  00000+0  29912-3 0  9992
2 67781  51.8960  33.8826 0000476 108.2931 251.8083 14.79929601 34654
KUIPER-00222            
1 67782U 26030U   26264.90706902  .00002048  00000+0  29756-3 0  9999
2 67782  51.8985  53.0717 0000762 129.0995 231.0035 14.79934083 34404
KUIPER-00223            
1 67783U 26030V   26264.67876714  .00002103  00000+0  30477-3 0  9997
2 67783  51.9018  46.3924 0000596 126.6380 233.4638 14.79941405 34483
KUIPER-00225            
1 67784U 26030W   26265.14611447  .00002107  00000+0  30529-3 0  9993
2 67784  51.8983  49.4707 0000567 108.6788 251.4236 14.79933489 34473
KUIPER-00226            
1 67785U 26030X   26264.45052361  .00004423  00000+0  60881-3 0  9998
2 67785  51.9006  39.9298 0001371  18.7387 341.3626 14.79936792 34551
KUIPER-00259            
1 67786U 26030Y   26264.77468762  .00002181  00000+0  31496-3 0  9999
2 67786  51.8991  51.0151 0000607 117.9222 242.1802 14.79930818 34421
KUIPER-00260            
1 67787U 26030Z   26264.70986689  .00001177  00000+0  18336-3 0  9998
2 67787  51.9023  48.9137 0000613 128.4096 231.6922 14.79931562 34356
KUIPER-00262            
1 67788U 26030AA  26264.87867871  .00000236  00000+0  59988-4 0  9992
2 67788  51.9046  48.0817 0000736 119.3679 240.7357 14.79929683 34477
KUIPER-00266            
1 67789U 26030AB  26264.64501098 -.00000591  00000+0 -48482-4 0  9997
2 67789  51.8991  46.6075 0000728 120.8875 239.2159 14.79930172 34470
KUIPER-00268            
1 67790U 26030AC  26264.81654682  .00001923  00000+0  28112-3 0  9991
2 67790  51.9045  43.3943 0000732 133.7177 226.3846 14.79935757 34535
KUIPER-00270            
1 67791U 26030AD  26264.72603293  .00002239  00000+0  32263-3 0  9997
2 67791  51.8991  33.7411 0000534 106.9083 253.1938 14.79933673 34665
KUIPER-00274            
1 67792U 26030AE  26264.76928126  .00002055  00000+0  29842-3 0  9992
2 67792  51.9014  56.0670 0000525 112.9555 247.1463 14.79938637 34356
KUIPER-00275            
1 67793U 26030AF  26264.85839376  .00002218  00000+0  31980-3 0  9998
2 67793  51.9003  35.6672 0000572 131.0147 229.0865 14.79931413 34643
KUIPER-00276            
1 67794U 26030AG  26264.75171175  .00006317  00000+0  85723-3 0  9992
2 67794  51.8986  41.1143 0001282 102.7858 257.3248 14.79915456 34560
KUIPER-00279            
1 67795U 26030AH  26264.86379100  .00000314  00000+0  70211-4 0  9991
2 67795  51.9028  30.6710 0000579 118.1646 241.9375 14.79931050 34711
KUIPER-00131            
1 68573U 26072A   26264.99497770  .00001875  00000+0  27491-3 0  9994
2 68573  51.9006 127.5686 0000918 107.7793 252.3269 14.79938763 25451
KUIPER-00189            
1 68574U 26072B   26265.02604121  .00001846  00000+0  27114-3 0  9990
2 68574  51.8993 129.9054 0000880 103.7569 256.3491 14.79935868 25427
KUIPER-00192            
1 68575U 26072C   26264.86261794  .00000108  00000+0  43157-4 0  9993
2 68575  51.9008 125.6479 0001127 104.6830 255.4257 14.79931572 25479
KUIPER-00193            
1 68576U 26072D   26265.00845861  .00001816  00000+0  26711-3 0  9997
2 68576  51.9047 115.0531 0001048 112.7572 247.3501 14.79942158 25632
KUIPER-00194            
1 68577U 26072E   26265.03413921  .00001767  00000+0  26080-3 0  9993
2 68577  51.9018 122.4166 0000979 106.6109 253.4961 14.79933946 25539
KUIPER-00229            
1 68578U 26072F   26265.02875355  .00001667  00000+0  24766-3 0  9994
2 68578  51.9009 127.4217 0000774 105.9085 254.1963 14.79931210 25464
KUIPER-00230            
1 68579U 26072G   26265.25002315 -.00055467  00000+0 -75369-2 0  9991
2 68579  51.9018  73.6498 0001052 188.3082 117.0352 14.78629876  1688
KUIPER-00231            
1 68580U 26072H   26264.99088190  .00001728  00000+0  25569-3 0  9995
2 68580  51.8986 100.1580 0002061 123.0995 237.0165 14.79936879 25834
KUIPER-00234            
1 68581U 26072J   26264.79778880  .00001703  00000+0  25233-3 0  9997
2 68581  51.8999 123.4249 0001245  99.9461 260.1642 14.79927306 25495
KUIPER-00236            
1 68582U 26072K   26263.89707122  .00001382  00000+0  22677-3 0  9991
2 68582  51.9031  82.3782 0001548 200.0920 159.9980 14.76567290 25994
KUIPER-00244            
1 68583U 26072L   26264.77481410  .00001654  00000+0  24591-3 0  9998
2 68583  51.8996 113.5504 0001039 102.7557 257.3522 14.79932612 25635
KUIPER-00253            
1 68584U 26072M   26264.97469718  .00001711  00000+0  25340-3 0  9995
2 68584  51.9037 115.1948 0000989 107.0595 253.0475 14.79938134 25620
KUIPER-00254            
1 68585U 26072N   26265.00576009  .00001895  00000+0  27744-3 0  9996
2 68585  51.9029 117.5544 0001398  85.0695 275.0427 14.79940070 25590
KUIPER-00263            
1 68586U 26072P   26264.95441949  .00001765  00000+0  26039-3 0  9996
2 68586  51.9015 102.8470 0000739 114.6736 245.4303 14.79938663 25795
KUIPER-00269            
1 68587U 26072Q   26264.95172228  .00000285  00000+0  66410-4 0  9992
2 68587  51.8985 105.2639 0001035 108.5232 251.5843 14.79929704 25768
KUIPER-00272            
1 68588U 26072R   26265.03142693  .00001763  00000+0  26018-3 0  9997
2 68588  51.8981 124.8798 0001046 103.8722 256.2357 14.79939907 25490
KUIPER-00285            
1 68589U 26072S   26264.91796539  .00001281  00000+0  19704-3 0  9997
2 68589  51.9045 105.4988 0001461  88.5029 271.6101 14.79927204 25753
KUIPER-00286            
1 68590U 26072T   26264.98818636  .00001678  00000+0  24908-3 0  9991
2 68590  51.9015 102.6149 0000790 115.4479 244.6565 14.79932945 25801
KUIPER-00289            
1 68591U 26072U   26264.98008145  .00001530  00000+0  22965-3 0  9996
2 68591  51.8983 110.1268 0001073 112.6901 247.4175 14.79938476 25695
KUIPER-00290            
1 68592U 26072V   26264.94629955  .00001707  00000+0  25297-3 0  9998
2 68592  51.9031 110.2854 0000856 124.3743 235.7301 14.79923123 25699
KUIPER-00293            
1 68593U 26072W   26264.83423431  .00001628  00000+0  24251-3 0  9999
2 68593  51.8980 120.7501 0001803  62.4590 297.6556 14.79937549 25531
KUIPER-00294            
1 68594U 26072X   26264.91526405  .00001765  00000+0  26050-3 0  9995
2 68594  51.8993 107.9154 0000803 114.3164 245.7882 14.79932369 25722
KUIPER-00296            
1 68595U 26072Y   26265.23801740  .00001985  00000+0  28934-3 0  9997
2 68595  51.9011  89.0077 0000719 114.3836 245.7202 14.79929473 26012
KUIPER-00297            
1 68596U 26072Z   26264.80047454 -.00000007  00000+0  28063-4 0  9993
2 68596  51.8992 120.9011 0001430 112.8332 247.2782 14.79930008 25530
KUIPER-00300            
1 68597U 26072AA  26264.97200317  .00001268  00000+0  19537-3 0  9995
2 68597  51.9027 117.6793 0000784 114.6052 245.4992 14.79927748 25597
KUIPER-00301            
1 68598U 26072AB  26265.19916601  .00001458  00000+0  23790-3 0  9998
2 68598  51.9026  86.2561 0001794 199.4719 160.6174 14.76506265 26049
KUIPER-00304            
1 68599U 26072AC  26264.95808986  .00001275  00000+0  21135-3 0  9996
2 68599  51.9003  89.2656 0000652  41.8688 318.2323 14.76619833 25985
KUIPER-00317            
1 68600U 26072AD  26265.01654509  .00003910  00000+0  54142-3 0  9999
2 68600  51.8987 107.4725 0000589 105.2299 254.8728 14.79944003 25730
KUIPER-00320            
1 68601U 26072AE  26264.94361377  .00002217  00000+0  31982-3 0  9995
2 68601  51.9025 112.8134 0000696  91.4202 268.6841 14.79925052 25651
KUIPER-00299            
1 68864U 26095A   26264.49671343  .00003437  00000+0  47973-3 0  9990
2 68864  51.8999 184.7505 0001209 103.3845 256.7252 14.79929712 21879
KUIPER-00353            
1 68865U 26095B   26264.88431299  .00001943  00000+0  28389-3 0  9998
2 68865  51.8997 168.0650 0000868  99.2292 260.8769 14.79929015 22149
KUIPER-00357            
1 68866U 26095C   26265.04504034  .00000653  00000+0  11467-3 0  9992
2 68866  51.9023 174.8638 0001180  69.1489 290.9599 14.79934210 22063
KUIPER-00364            
1 68867U 26095D   26264.46834209  .00001915  00000+0  28011-3 0  9993
2 68867  51.9025 179.9388 0001313  73.3561 286.7545 14.79937612 21949
KUIPER-00375            
1 68868U 26095E   26265.11796260  .00001405  00000+0  21320-3 0  9991
2 68868  51.9015 169.5371 0000649  99.1576 260.9460 14.79939339 22140
KUIPER-00433            
1 68869U 26095F   26265.03425157  .00002163  00000+0  31256-3 0  9998
2 68869  51.8997 184.9012 0001234  64.9535 295.1555 14.79939413 21921
KUIPER-00437            
1 68870U 26095G   26265.25002315 -.00504428  00000+0 -45623-1 0  9995
2 68870  51.8925 136.2582 0008814 300.4968 283.8258 14.97325199  2647
KUIPER-00448            
1 68871U 26095H   26264.06275823  .00037685  00000+0  53478-2 0  9992
2 68871  51.9050 179.1708 0003921  46.4431 313.6855 14.76603995 21916
KUIPER-00459            
1 68872U 26095J   26264.45076566 -.00000134  00000+0  11481-4 0  9999
2 68872  51.9010 165.0511 0000896  99.6631 260.4433 14.79937560 22147
KUIPER-00468            
1 68873U 26095K   26265.13196967  .00001255  00000+0  20843-3 0  9999
2 68873  51.8985 159.6169 0000707 165.8087 194.2894 14.76626801 22288
KUIPER-00476            
1 68874U 26095L   26265.25002315 -.00062168  00000+0 -74549-2 0  9999
2 68874  51.8987 141.4283 0012174 284.6776 232.2553 14.83836675  4525
KUIPER-00478            
1 68875U 26095M   26264.44806106 -.00000206  00000+0  19817-5 0  9994
2 68875  51.8979 167.4988 0000902  90.0425 270.0641 14.79935551 22114
KUIPER-00480            
1 68876U 26095N   26264.88969787  .00000556  00000+0  10198-3 0  9996
2 68876  51.9050 163.0613 0000846 104.3362 255.7694 14.79928227 22210
KUIPER-00482            
1 68877U 26095P   26264.94644218  .00001960  00000+0  28603-3 0  9993
2 68877  51.9013 172.7947 0001510  47.8838 312.2252 14.79936795 22088
KUIPER-00483            
1 68878U 26095Q   26265.00050987  .00002158  00000+0  31248-3 0  9995
2 68878  51.8984 185.0190 0001763  15.0991 345.0023 14.79869897 21918
KUIPER-00488            
1 68879U 26095R   26264.98560555 -.00000186  00000+0  45963-5 0  9990
2 68879  51.9002 167.6299 0001291  84.0459 276.0650 14.79929717 22152
KUIPER-00489            
1 68880U 26095S   26265.12874897  .00001412  00000+0  21428-3 0  9996
2 68880  51.8965 159.4744 0001295  90.3150 269.7960 14.79929575 22286
KUIPER-00499            
1 68881U 26095T   26265.02205462  .00000758  00000+0  12848-3 0  9990
2 68881  51.9013 165.0091 0000879  84.4051 275.7011 14.79930786 22191
KUIPER-00500            
1 68882U 26095U   26265.13825077  .00002402  00000+0  34391-3 0  9998
2 68882  51.9018 181.9457 0000891  83.7676 276.3388 14.79937025 21971
KUIPER-00502            
1 68883U 26095V   26265.02035175  .00002341  00000+0  33587-3 0  9997
2 68883  51.9002 158.7194 0001404  76.8850 283.2269 14.79947464 22281
KUIPER-00503            
1 68884U 26095W   26264.97211854  .00002050  00000+0  29782-3 0  9990
2 68884  51.8977 180.1519 0001023  80.5920 279.5158 14.79935025 21980
KUIPER-00504            
1 68885U 26095X   26265.20036236 -.00003339  00000+0 -40920-3 0  9997
2 68885  51.9012 186.6755 0000702  92.4543 267.6500 14.79938163 21919
KUIPER-00505            
1 68886U 26095Y   26265.17740718  .00001437  00000+0  21744-3 0  9999
2 68886  51.9021 176.7792 0000878  91.2847 268.8216 14.79930208 22043
KUIPER-00507            
1 68887U 26095Z   26265.10378007  .00002042  00000+0  29674-3 0  9994
2 68887  51.9003 167.0884 0001003  93.6729 266.4348 14.79936140 22170
KUIPER-00511            
1 68888U 26095AA  26264.89240636  .00001924  00000+0  28137-3 0  9997
2 68888  51.8997 160.6356 0001089  83.4257 276.6829 14.79933967 22241
KUIPER-00512            
1 68889U 26095AB  26265.20847602  .00002189  00000+0  31600-3 0  9993
2 68889  51.9012 179.1439 0001019  85.2557 274.8522 14.79934869 22011
KUIPER-00519            
1 68890U 26095AC  26265.01667789  .00001991  00000+0  29006-3 0  9997
2 68890  51.9015 170.0564 0000774 101.5175 258.5875 14.79930054 22124
KUIPER-00521            
1 68891U 26095AD  26265.01494999  .00002141  00000+0  30976-3 0  9995
2 68891  51.9025 163.7583 0000801  89.9686 270.1368 14.79938404 22217
KUIPER-00524            
1 68892U 26095AE  26265.11527214  .00002352  00000+0  33747-3 0  9997
2 68892  51.8976 172.0259 0000902  83.6996 276.4069 14.79932591 22108
KUIPER-00370            
1 68919U 26098A   26265.27831922  .00000681  00000+0  11833-3 0  9996
2 68919  51.9018 348.6859 0000635 133.1014 227.0002 14.79928986 21862
KUIPER-00380            
1 68920U 26098B   26264.40855166  .00001981  00000+0  28880-3 0  9992
2 68920  51.9002 345.1706 0000301  96.9755 263.1242 14.79935089 21834
KUIPER-00386            
1 68921U 26098C   26264.42273912  .00002040  00000+0  29655-3 0  9996
2 68921  51.9014 347.6016 0000365 102.4532 257.6472 14.79928470 21801
KUIPER-00388            
1 68922U 26098D   26265.27296873 -.00000048  00000+0  22737-4 0  9994
2 68922  51.9006 354.0020 0000478 111.5903 248.5110 14.79933104 21783
KUIPER-00405            
1 68923U 26098E   26264.61723525  .00002062  00000+0  29938-3 0  9997
2 68923  51.9027 354.2582 0000749 223.3628 136.7276 14.79933234 21728
KUIPER-00408            
1 68924U 26098F   26265.21619827  .00000457  00000+0  88984-4 0  9997
2 68924  51.9007 344.0225 0000448  53.6491 306.4513 14.79932853 21924
KUIPER-00409            
1 68925U 26098G   26264.51862592  .00002991  00000+0  42119-3 0  9993
2 68925  51.9048 352.1936 0000401 115.0982 245.0022 14.79932227 21744
KUIPER-00410            
1 68926U 26098H   26265.26414068 -.00001237  00000+0 -13320-3 0  9994
2 68926  51.8965 346.3623 0000955 165.7707 194.3282 14.79944657 21891
KUIPER-00412            
1 68927U 26098J   26264.64760026 -.00000113  00000+0  14164-4 0  9993
2 68927  51.9040 341.6342 0000340 103.3663 256.7338 14.79932790 21902
KUIPER-00413            
1 68928U 26098K   26265.27564813  .00002090  00000+0  30303-3 0  9997
2 68928  51.9005 351.3278 0000409 181.9603 178.1358 14.79935100 21820
KUIPER-00414            
1 68929U 26098L   26264.62334021  .00002077  00000+0  30140-3 0  9996
2 68929  51.8980   4.2946 0001108 144.6333 215.4703 14.79932152 21587
KUIPER-00415            
1 68930U 26098M   26265.24998354  .00001941  00000+0  28351-3 0  9992
2 68930  51.9030 343.9594 0000373  94.2922 265.8083 14.79931989 21920
KUIPER-00416            
1 68931U 26098N   26264.45751213  .00001764  00000+0  26035-3 0  9996
2 68931  51.9039 338.8159 0000539 102.9894 257.1129 14.79934947 21921
KUIPER-00420            
1 68932U 26098P   26264.58274593 -.00001378  00000+0 -15180-3 0  9994
2 68932  51.9030 339.3705 0000983 124.2924 235.8132 14.79938370 21932
KUIPER-00421            
1 68933U 26098Q   26265.25265746  .00002266  00000+0  32605-3 0  9996
2 68933  51.9038 341.3928 0000380  85.8637 274.2368 14.79942070 21968
KUIPER-00425            
1 68934U 26098R   26264.56928063  .00001982  00000+0  28888-3 0  9990
2 68934  51.9011 351.9583 0000480 106.1398 253.9618 14.79938930 21755
KUIPER-00430            
1 68935U 26098S   26265.24187106  .00002000  00000+0  29129-3 0  9993
2 68935  51.9054 351.3859 0000475  97.0097 263.0919 14.79927449 21828
KUIPER-00431            
1 68936U 26098T   26265.23918447 -.00000125  00000+0  12551-4 0  9992
2 68936  51.8997 353.9837 0000230 128.9454 231.1529 14.79932941 21789
KUIPER-00432            
1 68937U 26098U   26265.24726911  .00001945  00000+0  28405-3 0  9991
2 68937  51.9016 346.3474 0000314  96.1928 263.9070 14.79933313 21891
KUIPER-00434            
1 68938U 26098V   26265.23546758  .00001193  00000+0  20063-3 0  9997
2 68938  51.9021 350.5231 0001213 140.0592 220.0459 14.76393393 21835
KUIPER-00436            
1 68939U 26098W   26265.22769143  .00000872  00000+0  14331-3 0  9996
2 68939  51.9014 349.0485 0000279  87.2367 272.8627 14.79932949 21858
KUIPER-00438            
1 68940U 26098X   26265.23040456  .00002027  00000+0  29478-3 0  9990
2 68940  51.9046 346.5611 0000421  97.3647 262.7363 14.79929824 21886
KUIPER-00439            
1 68941U 26098Y   26264.67325012  .00004579  00000+0  62899-3 0  9990
2 68941  51.9041 349.0164 0000409  51.2963 308.8036 14.79947342 21805
KUIPER-00440            
1 68942U 26098Z   26265.23848529  .00000339  00000+0  73434-4 0  9995
2 68942  51.9045 339.0147 0000541 356.6975   3.3983 14.79931581 21998
KUIPER-00442            
1 68943U 26098AA  26265.23567794  .00001829  00000+0  26901-3 0  9999
2 68943  51.9035 341.5443 0000189 144.7455 215.3520 14.79906558 21956
KUIPER-00446            
1 68944U 26098AB  26264.65909155  .00001878  00000+0  27526-3 0  9994
2 68944  51.9012 346.5770 0000810 282.3678  77.7194 14.79931118 21831
KUIPER-00451            
1 68945U 26098AC  26264.98594582  .00000975  00000+0  15682-3 0  9992
2 68945  51.9000 355.1113 0000154 126.4027 233.6950 14.79935085 21743
KUIPER-00452            
1 68946U 26098AD  26265.20202956  .00000863  00000+0  14217-3 0  9999
2 68946  51.9032 341.6743 0000491  94.3032 265.7986 14.79932251 21951
KUIPER-00453            
1 68947U 26098AE  26264.47876484  .00001763  00000+0  26024-3 0  9990
2 68947  51.9009 342.2909 0001544 150.2222 209.8828 14.79926847 21880
KUIPER-00454            
1 68948U 26098AF  26264.59493194  .00001853  00000+0  27208-3 0  9992
2 68948  51.9008 359.3314 0000761 102.7802 257.3246 14.79916823 21655
KUIPER-00455            
1 68949U 26098AG  26265.22230503  .00002234  00000+0  32195-3 0  9992
2 68949  51.9013 354.0715 0001413 146.7150 213.3901 14.79935122 21785
KUIPER-00458            
1 68950U 26098AH  26264.73200101  .00001926  00000+0  28145-3 0  9997
2 68950  51.9032 341.2635 0000355  84.8602 275.2401 14.79940519 21918
KUIPER-00282            
1 69267U 26118A   26265.21281345  .00001912  00000+0  27970-3 0  9995
2 69267  51.8983 331.5924 0000032 180.9200 179.1762 14.79931618 18526
KUIPER-00383            
1 69268U 26118B   26264.48956589  .00000507  00000+0  95485-4 0  9999
2 69268  51.9000 332.3120 0000304  92.0285 268.0713 14.79931953 18451
KUIPER-00527            
1 69269U 26118C   26264.45581604  .00001670  00000+0  24796-3 0  9997
2 69269  51.9010 332.5941 0000290  84.0417 276.0579 14.79928903 18447
KUIPER-00562            
1 69270U 26118D   26265.17294344  .00000956  00000+0  15432-3 0  9994
2 69270  51.9050 321.7373 0000771  61.7693 298.3348 14.79935964 18664
KUIPER-00570            
1 69271U 26118E   26264.72053647  .00001861  00000+0  27303-3 0  9990
2 69271  51.9021 336.3955 0000331  79.9345 280.1655 14.79931098 18404
KUIPER-00572            
1 69272U 26118F   26265.18172353  .00000190  00000+0  53867-4 0  9997
2 69272  51.9029 329.2468 0000775 124.9384 235.1652 14.79935764 18556
KUIPER-00581            
1 69273U 26118G   26264.50103963  .00001240  00000+0  19172-3 0  9991
2 69273  51.9031 337.2663 0000763 201.9260 158.1670 14.79928589 18474
KUIPER-00584            
1 69274U 26118H   26265.22430983  .00000872  00000+0  14341-3 0  9990
2 69274  51.9038 336.6799 0000144  61.2229 298.8748 14.79934097 18457
KUIPER-00587            
1 69275U 26118J   26265.18444055  .00000686  00000+0  11894-3 0  9994
2 69275  51.9017 326.7445 0000302  63.4161 296.6832 14.79930849 18594
KUIPER-00590            
1 69276U 26118K   26265.17905055  .00001741  00000+0  25736-3 0  9999
2 69276  51.9041 331.7794 0000181 114.5744 245.5238 14.79934057 18526
KUIPER-00592            
1 69277U 26118L   26264.68944982 -.00002802  00000+0 -33847-3 0  9990
2 69277  51.9049 333.8235 0000229  81.6852 278.4136 14.79969705 18457
KUIPER-00593            
1 69278U 26118M   26265.18103432  .00001226  00000+0  18978-3 0  9999
2 69278  51.9015 314.2681 0001270 172.7097 187.3884 14.79934184 18821
KUIPER-00594            
1 69279U 26118N   26264.43281429 -.00000818  00000+0 -78251-4 0  9999
2 69279  51.9054 322.5861 0001094  78.2316 281.8769 14.79928451 18580
KUIPER-00595            
1 69280U 26118P   26265.14735106  .00001663  00000+0  24710-3 0  9993
2 69280  51.8999 314.3725 0001047 190.1139 169.9803 14.79929941 18795
KUIPER-00596            
1 69281U 26118Q   26265.20741661  .00000553  00000+0  10157-3 0  9991
2 69281  51.9025 336.6474 0000399  84.2958 275.8049 14.79935584 18458
KUIPER-00597            
1 69282U 26118R   26264.40170988 -.00017201  00000+0 -22293-2 0  9994
2 69282  51.8991 320.2083 0001627  67.5525 292.5610 14.80002084 18614
KUIPER-00599            
1 69283U 26118S   26265.16754424  .00000852  00000+0  14079-3 0  9998
2 69283  51.9014 326.7354 0000118 341.2979  18.7979 14.79931359 18590
KUIPER-00600            
1 69284U 26118T   26263.89527109 -.00000494  00000+0 -35767-4 0  9997
2 69284  51.9012 322.3638 0001803  49.4093 310.7026 14.79942077 18544
KUIPER-00601            
1 69285U 26118U   26264.72322323  .00001758  00000+0  25958-3 0  9994
2 69285  51.9033 333.7858 0000430  69.9361 290.1648 14.79933313 18452
KUIPER-00602            
1 69286U 26118V   26265.20400033  .00000405  00000+0  82100-4 0  9995
2 69286  51.9027 324.0737 0000461 224.9940 135.0985 14.79931686 18637
KUIPER-00603            
1 69287U 26118W   26265.21821125  .00001714  00000+0  25384-3 0  9990
2 69287  51.9048 326.6029 0000400  93.5161 266.5847 14.79927089 18595
KUIPER-00605            
1 69288U 26118X   26264.93999739  .00001835  00000+0  26959-3 0  9999
2 69288  51.9017 335.3097 0000281  81.0392 279.0602 14.79931566 18457
KUIPER-00606            
1 69289U 26118Y   26265.20132603  .00001791  00000+0  26386-3 0  9995
2 69289  51.9034 326.6728 0000264  82.7486 277.3507 14.79936806 18596
KUIPER-00607            
1 69290U 26118Z   26265.19522591  .00000313  00000+0  70065-4 0  9997
2 69290  51.9010 316.7050 0001290  16.5528 343.5477 14.79932744 18737
KUIPER-00608            
1 69291U 26118AA  26265.14187106  .00001842  00000+0  27058-3 0  9993
2 69291  51.9032 319.3020 0000679  72.2568 287.8468 14.79930420 18695
KUIPER-00610            
1 69292U 26118AB  26264.42742697  .00000357  00000+0  75867-4 0  9998
2 69292  51.9038 327.5953 0000241  70.2295 289.8693 14.79932089 18514
KUIPER-00613            
1 69293U 26118AC  26265.22700147  .00001852  00000+0  27184-3 0  9991
2 69293  51.9028 334.0574 0000303  90.4360 269.6637 14.79937134 18499
KUIPER-00618            
1 69294U 26118AD  26264.46388188 -.00000017  00000+0  26800-4 0  9992
2 69294  51.9042 324.9405 0001834 183.3397 176.7554 14.79931331 18555
KUIPER-00620            
1 69295U 26118AE  26264.47807735  .00001683  00000+0  24967-3 0  9998
2 69295  51.9053 327.3825 0000355  77.3402 282.7600 14.79931308 18528
KUIPER-00423            
1 69592U 26140A   26265.00002315  .00032191  00000+0  45826-2 0  9998
2 69592  51.9006 297.4762 0001365 136.4953 100.9470 14.76549545  5542
KUIPER-00428            
1 69593U 26140B   26263.37054134  .00018940  00000+0  50842-3 0  9994
2 69593  51.8799 298.7081 0004997 271.5565  88.4850 15.37961017 15872
KUIPER-00481            
1 69594U 26140C   26265.13129721  .00001099  00000+0  18688-3 0  9995
2 69594  51.9020 301.8582 0002092 345.7948  14.2954 14.76500397 15982
KUIPER-00490            
1 69595U 26140D   26264.37875155  .00001416  00000+0  21474-3 0  9990
2 69595  51.9039 310.2643 0000433  66.6758 293.4250 14.79938468 15808
KUIPER-00493            
1 69596U 26140E   26265.14996994  .00000267  00000+0  64089-4 0  9995
2 69596  51.9054 311.9071 0000852 317.6746  42.4150 14.79930180 15848
KUIPER-00496            
1 69597U 26140F   26265.25002315 -.00066920  00000+0 -66765-2 0  9994
2 69597  51.8965 295.5418 0008525 269.2015 326.1308 14.91351519  4669
KUIPER-00513            
1 69598U 26140G   26265.15535458  .00000985  00000+0  15821-3 0  9998
2 69598  51.9010 306.8754 0000353  80.5130 279.5872 14.79935470 15911
KUIPER-00516            
1 69599U 26140H   26265.25002315 -.00056097  00000+0 -44711-2 0  9997
2 69599  51.8919 291.5894 0008607 216.2947 280.0226 15.00007875  5393
KUIPER-00517            
1 69600U 26140J   26265.25002315 -.01870042  00000+0 -88070-1 0  9990
2 69600  51.8854 289.7287 0009199 167.4057 118.1067 15.22225048  4891
KUIPER-00520            
1 69601U 26140K   26265.14025131  .00001056  00000+0  18033-3 0  9992
2 69601  51.9022 308.9622 0000769 208.4870 151.6049 14.76604181 15880
KUIPER-00522            
1 69602U 26140L   26265.25002315 -.00073197  00000+0 -97256-2 0  9994
2 69602  51.9020 296.4514 0002098 109.0764  73.0252 14.79721927  4056
KUIPER-00528            
1 69603U 26140M   26265.13577982  .00001673  00000+0  24836-3 0  9992
2 69603  51.9046 309.4800 0000304  83.1605 276.9392 14.79930526 15870
KUIPER-00532            
1 69604U 26140N   26265.25002315 -.00069760  00000+0 -68491-2 0  9996
2 69604  51.8973 294.1816 0003947 244.4831  61.4408 14.92036285  5480
KUIPER-00533            
1 69605U 26140P   26265.12430672  .00001776  00000+0  26196-3 0  9992
2 69605  51.9044 304.5225 0000324  89.8342 270.2658 14.79930088 15943
KUIPER-00534            
1 69606U 26140Q   26265.25002315 -.00026175  00000+0 -88931-3 0  9993
2 69606  51.8817 290.5949 0012828 137.5867  74.6478 15.29542555  5302
KUIPER-00537            
1 69607U 26140R   26264.44089734  .00001811  00000+0  26644-3 0  9995
2 69607  51.9034 314.9581 0000764 352.1109   7.9841 14.79934094 15747
KUIPER-00538            
1 69608U 26140S   26265.15275047  .00001705  00000+0  25247-3 0  9999
2 69608  51.9057 309.3374 0000762  21.0391 339.0603 14.79954749 15883
KUIPER-00540            
1 69609U 26140T   26264.78703967  .00014243  00000+0  38012-3 0  9990
2 69609  51.8814 291.7170 0004942 273.9598  86.0824 15.38367841 16098
KUIPER-00541            
1 69610U 26140U   26265.25002315 -.00098771  00000+0 -60794-2 0  9995
2 69610  51.8900 290.2216 0007187 171.2114 184.5492 15.09929325  5181
KUIPER-00542            
1 69611U 26140V   26265.25002315 -.00023244  00000+0 -10651-2 0  9996
2 69611  51.8866 289.6023 0007410 167.6692 132.9531 15.19596721  4888
KUIPER-00543            
1 69612U 26140W   26265.25002315 -.00072219  00000+0 -79011-2 0  9998
2 69612  51.9009 294.1362 0003400 300.9841 228.6778 14.87719787  4888
KUIPER-00544            
1 69613U 26140X   26265.25002315 -.00097163  00000+0 -62226-2 0  9994
2 69613  51.8867 290.5635 0003379 169.0260  95.4103 15.08496143  4588
KUIPER-00546            
1 69614U 26140Y   26265.25002315 -.00049742  00000+0 -64940-2 0  9990
2 69614  51.8992 296.4619 0007438 141.7800 125.1515 14.80231409  3018
KUIPER-00547            
1 69615U 26140Z   26265.25002315 -.00408513  00000+0 -13795-1 0  9997
2 69615  51.8832 289.0561 0011623 166.3826  75.3838 15.31775299  5853
KUIPER-00549            
1 69616U 26140AA  26265.25002315 -.00060979  00000+0 -53914-2 0  9996
2 69616  51.8978 292.0689 0003604 230.1582 258.7578 14.96082696  5455
KUIPER-00550            
1 69617U 26140AB  26265.25002315 -.00054534  00000+0 -44398-2 0  9993
2 69617  51.8893 295.9048 0004210 294.7225 223.0507 14.99209640  2241
KUIPER-00551            
1 69618U 26140AC  26264.65646181  .00020757  00000+0  54609-3 0  9997
2 69618  51.8767 291.5743 0009797 147.6512 212.5078 15.38487568 16080
KUIPER-00554            
1 69619U 26140AD  26264.67652661  .00017159  00000+0  47255-3 0  9991
2 69619  51.8773 291.7051 0009542 165.3829 194.7436 15.37210058 16084
KUIPER-00555            
1 69620U 26140AE  26265.06016723  .00019636  00000+0  54004-3 0  9992
2 69620  51.8795 289.8105 0010956 154.5555 205.5973 15.37140061 16145
KUIPER-00556            
1 69621U 26140AF  26263.40783069  .00032263  00000+0  42658-2 0  9995
2 69621  51.8986 307.1072 0001232 346.5435  13.5495 14.79684580 15769
KUIPER-00557            
1 69622U 26140AG  26265.25002315 -.00500044  00000+0 -16299-1 0  9999
2 69622  51.8829 289.0730 0008317 170.2416  75.7352 15.33320905  3664
KUIPER-00560            
1 69623U 26140AH  26265.00002315  .00045801  00000+0  12462-2 0  9995
2 69623  51.8776 290.6291 0008091 194.4388 279.0860 15.37042433  5601
KUIPER-00561            
1 69624U 26140AJ  26264.41521099  .00001582  00000+0  23650-3 0  9995
2 69624  51.9033 307.6266 0000609  87.6085 272.4947 14.79921829 15844
KUIPER-00564            
1 69625U 26140AK  26265.25002315 -.00036638  00000+0 -47983-2 0  9990
2 69625  51.8973 301.4417 0000993 123.5984 172.7089 14.79974552  5356
KUIPER-00567            
1 69626U 26140AL  26265.12966285  .00000608  00000+0  10875-3 0  9999
2 69626  51.8984 299.4923 0002206 136.8636 223.2499 14.79928853 16012
KUIPER-00573            
1 69627U 26140AM  26264.75557391 -.00000110  00000+0  14575-4 0  9993
2 69627  51.9038 303.6579 0000515  58.4794 301.6219 14.79923845 15920
KUIPER-00258            
1 69763U 26151A   26265.25002315 -.00002718  00000+0 -23814-3 0  9995
2 69763  51.8933 211.7826 0010719  62.7870  62.9497 14.92432333  3281
KUIPER-00526            
1 69764U 26151B   26265.08972288  .00002005  00000+0  29195-3 0  9997
2 69764  51.8970 227.2361 0000780  76.6148 283.4901 14.79927730 12339
KUIPER-00558            
1 69765U 26151C   26265.25851562 -.00001663  00000+0 -18920-3 0  9993
2 69765  51.8973 226.4092 0000702  89.7272 270.3771 14.79936656 12362
KUIPER-00569            
1 69766U 26151D   26265.07552429  .00000823  00000+0  13701-3 0  9991
2 69766  51.9012 224.7119 0001031  48.6991 311.4060 14.79934815 12371
KUIPER-00589            
1 69767U 26151E   26265.12392911  .00001384  00000+0  22730-3 0  9991
2 69767  51.9005 227.6109 0002957  67.8446 292.2829 14.76538505 12339
KUIPER-00598            
1 69768U 26151F   26265.16533939  .00002090  00000+0  30307-3 0  9997
2 69768  51.8988 219.3336 0000581  90.7897 269.3132 14.79929441 12456
KUIPER-00604            
1 69769U 26151G   26265.07830250  .00001976  00000+0  28792-3 0  9991
2 69769  51.9013 222.2164 0000584  61.5477 298.5544 14.79957707 12404
KUIPER-00609            
1 69770U 26151H   26265.23645263  .00001403  00000+0  22955-3 0  9999
2 69770  51.9014 218.8758 0002455  41.6648 318.4499 14.76624696 12467
KUIPER-00611            
1 69771U 26151J   26265.24705241  .00002045  00000+0  29719-3 0  9992
2 69771  51.8969 221.4525 0000898  69.5171 290.5888 14.79932116 12438
KUIPER-00612            
1 69772U 26151K   26265.25002315  .00014808  00000+0  19681-2 0  9992
2 69772  51.8991 223.9629 0001315 112.4752   7.8315 14.79911834  4905
KUIPER-00614            
1 69773U 26151L   26265.09511373  .00002089  00000+0  30299-3 0  9991
2 69773  51.8970 222.1930 0001111  72.9874 287.1210 14.79931544 12409
KUIPER-00615            
1 69774U 26151M   26265.17411265  .00000360  00000+0  76296-4 0  9998
2 69774  51.9022 226.7283 0001029 126.7179 233.3878 14.79936222 12359
KUIPER-00616            
1 69775U 26151N   26265.25002315 -.00101633  00000+0 -12174-1 0  9999
2 69775  51.9008 211.5326 0003638 155.8481 307.8375 14.84236014  3044
KUIPER-00617            
1 69776U 26151P   26265.08363852  .00002051  00000+0  29780-3 0  9992
2 69776  51.8990 217.1948 0000411 177.5204 182.5760 14.79963260 12473
KUIPER-00619            
1 69777U 26151Q   26265.17441343  .00001276  00000+0  21164-3 0  9991
2 69777  51.9009 219.0913 0001526 153.6429 206.4610 14.76587414 12459
KUIPER-00621            
1 69778U 26151R   26265.26393529  .00002153  00000+0  31129-3 0  9991
2 69778  51.8991 221.3931 0000783  99.0198 261.0853 14.79932043 12434
KUIPER-00622            
1 69779U 26151S   26265.11294283  .00001411  00000+0  23090-3 0  9997
2 69779  51.9010 226.0686 0001193  75.5603 284.5490 14.76571291 12352
KUIPER-00623            
1 69780U 26151T   26265.26119317  .00001930  00000+0  28219-3 0  9993
2 69780  51.8963 223.9168 0001200 103.6484 256.4612 14.79921925 12394
KUIPER-00626            
1 69781U 26151U   26265.14845379  .00001987  00000+0  28966-3 0  9996
2 69781  51.8987 219.3826 0000890 109.0757 251.0302 14.79927947 12452
KUIPER-00627            
1 69782U 26151V   26265.25002315 -.00013486  00000+0 -16554-2 0  9992
2 69782  51.8995 213.9819 0003441 100.7361 221.9923 14.82081473  3799
KUIPER-00629            
1 69783U 26151W   26265.27271033  .00002223  00000+0  32058-3 0  9993
2 69783  51.9011 228.7947 0000625  87.9520 272.1514 14.79928749 12336
KUIPER-00631            
1 69784U 26151X   26265.08700763  .00001861  00000+0  27307-3 0  9998
2 69784  51.9001 229.6762 0000555  95.3286 264.7740 14.79932469 12304
KUIPER-00634            
1 69785U 26151Y   26265.10928966  .00001950  00000+0  28473-3 0  9993
2 69785  51.8996 224.5823 0000837 101.2871 258.8185 14.79937968 12372
KUIPER-00639            
1 69786U 26151Z   26265.25002315 -.00025446  00000+0 -31562-2 0  9991
2 69786  51.9009 213.9634 0003815  43.5889  99.3001 14.82052078  5132
KUIPER-00641            
1 69787U 26151AA  26265.26931686  .00002202  00000+0  31783-3 0  9994
2 69787  51.8991 216.3801 0002305 132.2542 227.8617 14.79923991 12507
KUIPER-00644            
1 69788U 26151AB  26265.25002315  .00007640  00000+0  64427-3 0  9994
2 69788  51.8899 209.6877 0008397  62.7839  23.7992 14.98995093  5230
KUIPER-00646            
1 69789U 26151AC  26265.16801788  .00001938  00000+0  28317-3 0  9998
2 69789  51.8973 216.9102 0000650  99.0515 261.0521 14.79923308 12483
KUIPER-00647            
1 69790U 26151AD  26265.25002315 -.00022545  00000+0 -29431-2 0  9995
2 69790  51.9004 216.0660 0002820  11.1983 151.0757 14.79859259  4827
KUIPER-00662            
1 69791U 26151AE  26265.12086873  .00001867  00000+0  27385-3 0  9992
2 69791  51.9008 229.5236 0000231  41.4815 318.6165 14.79919231 12307
