EUTELSAT 174A           
1 28924U 05052A   26266.56497287  .00000011  00000+0  00000+0 0  9997
2 28924   4.4604  75.2518 0006152 104.0429 200.5629  1.00270422 53311
EUTELSAT 33F            
1 29270U 06032A   26266.56266696  .00000155  00000+0  00000+0 0  9998
2 29270   1.9078  80.9921 0003390  98.2749  58.8083  1.00272825 48292
EUTELSAT HOTBIRD 13C    
1 33459U 08065A   26266.33239260 -.00000282  00000+0  00000+0 0  9994
2 33459   3.1953  77.9403 0003611 107.3186 246.3082  1.00273071 48327
EUTELSAT 36B            
1 36101U 09065A   26266.56613363  .00000111  00000+0  00000+0 0  9997
2 36101   0.7319  81.0812 0005825 100.8247  74.8469  1.00274564 61694
EUTELSAT KA-SAT 9A      
1 37258U 10069A   26266.55790027  .00000060  00000+0  00000+0 0  9992
2 37258   0.0760 355.3475 0005168 167.6343  49.2732  1.00273872 44995
EUTELSAT 7 WEST A       
1 37816U 11051A   26266.26955900 -.00000062  00000+0  00000+0 0  9998
2 37816   0.0686  10.4364 0006115 169.3751 272.0597  1.00272772 54863
EUTELSAT 16A            
1 37836U 11057A   26266.27423903  .00000102  00000+0  00000+0 0  9994
2 37836   0.1138  66.6453 0005489 115.8946 294.3317  1.00274177  8323
EUTELSAT 21B            
1 38992U 12062B   26266.27527904  .00000128  00000+0  00000+0 0  9999
2 38992   0.0715 345.0346 0002861 195.5381 302.2791  1.00274547 50818
EUTELSAT 70B            
1 39020U 12069A   26266.03308381 -.00000046  00000+0  00000+0 0  9999
2 39020   0.0658   1.8579 0003689 181.1534 261.2925  1.00271458 50497
EUTELSAT 117 WEST A     
1 39122U 13012A   26266.56186727  .00000000  00000+0  00000+0 0  9996
2 39122   0.0129 159.8050 0002997  26.5233 261.5532  1.00269834 49412
EUTELSAT 7B             
1 39163U 13022A   26266.27423903  .00000102  00000+0  00000+0 0  9993
2 39163   0.0693 346.2916 0004085 122.4722   8.1350  1.00268937 48937
EXPRESS-AT1             
1 39612U 14010A   26266.58312412 -.00000113  00000+0  00000+0 0  9999
2 39612   0.5036  84.3460 0004951  85.1983 119.3384  1.00315427 45804
EXPRESS-AT2             
1 39613U 14010B   26266.49593332  .00000077  00000+0  00000+0 0  9990
2 39613   0.0169 240.1599 0000372 227.0974 129.6331  1.00272454 45484
EUTELSAT 3B             
1 39773U 14030A   26266.05783144  .00000018  00000+0  00000+0 0  9998
2 39773   0.0641 359.0737 0004213 180.1912 206.5796  1.00271866 45047
EUTELSAT 115 WEST B     
1 40425U 15010B   26266.29014334 -.00000027  00000+0  00000+0 0  9998
2 40425   0.0398  13.2770 0000204 259.9103  78.5165  1.00272600 42367
EUTELSAT 8 WEST B       
1 40875U 15039B   26266.26947234 -.00000068  00000+0  00000+0 0  9994
2 40875   0.0692 344.7136 0003597 197.5305 268.9015  1.00271271 40641
EUTELSAT 9B             
1 41310U 16005A   26266.55790027  .00000060  00000+0  00000+0 0  9992
2 41310   0.0545  66.4922 0002691 151.3553 354.4083  1.00272135 39106
EUTELSAT 65 WEST A      
1 41382U 16014A   26266.32935926 -.00000278  00000+0  00000+0 0  9997
2 41382   0.1023 296.4513 0002406 257.6595 221.4199  1.00267838 38506
EUTELSAT 117 WEST B     
1 41589U 16038B   26266.28249118 -.00000014  00000+0  00000+0 0  9996
2 41589   0.0397  14.2413 0000169 289.6776  42.9251  1.00271758 37648
EUTELSAT 172B           
1 42741U 17029B   26266.54418271 -.00000007  00000+0  00000+0 0  9997
2 42741   0.0208 150.4856 0000299 308.0521 271.7849  1.00271284 34738
EUTELSAT 7C             
1 44334U 19034B   26266.27241903  .00000047  00000+0  00000+0 0  9994
2 44334   0.0680 182.9714 0003435 342.6188 301.6254  1.00273126  7812
EUTELSAT 5 WEST B       
1 44624U 19067A   26266.27007902 -.00000044  00000+0  00000+0 0  9999
2 44624   0.0684 340.1954 0003234 200.3886 273.7941  1.00273250 25410
EUTELSAT KONNECT        
1 45027U 20005B   26266.55746693  .00000048  00000+0  00000+0 0  9992
2 45027   0.0635  98.7017 0001942 119.0523 352.5741  1.00270905 25326
EUTELSAT QUANTUM        
1 49056U 21069B   26266.58818712  .00000000  00000+0  00000+0 0  9992
2 49056   0.0150 160.8647 0002359  24.8735  76.1464  1.00270520 18916
EUTELSAT KONNECT VHTS   
1 53765U 22110A   26266.12898508  .00000015  00000+0  00000+0 0  9999
2 53765   0.0549 104.7839 0002732  48.5510 257.8351  1.00270214  7819
EUTELSAT HOTBIRD 13F    
1 54048U 22134A   26266.27683431  .00000085  00000+0  00000+0 0  9990
2 54048   0.0691 286.7100 0001879  80.4740 107.6273  1.00272455 14367
EUTELSAT HOTBIRD 13G    
1 54225U 22146A   26266.27683431  .00000085  00000+0  00000+0 0  9990
2 54225   0.0564 240.7603 0002175 292.9116 301.1457  1.00272250  8448
EUTELSAT 10B            
1 54259U 22157A   26266.27302569  .00000066  00000+0  00000+0 0  9998
2 54259   0.0555 101.4657 0001429   2.5341   6.4172  1.00271915 14019
EUTELSAT 36D            
1 59346U 24059A   26266.20689875  .00000154  00000+0  00000+0 0  9992
2 59346   0.0159 178.3805 0000072 259.7902  34.2532  1.00271926  9139
