KUIPER-00008            
1 63724U 25088A   26268.42175420 -.00000455  00000+0 -30741-4 0  9998
2 63724  51.9017 284.7945 0000399  71.8743 288.2263 14.79928707 77624
KUIPER-00009            
1 63725U 25088B   26268.50008265  .00005624  00000+0  37819-3 0  9993
2 63725  51.9016 290.7858 0000469  20.3439 339.7554 15.08115170 77544
KUIPER-00010            
1 63726U 25088C   26267.31291687  .00000705  00000+0  12146-3 0  9995
2 63726  51.9022 284.8085 0000457  59.4967 300.6041 14.79937263 77140
KUIPER-00011            
1 63727U 25088D   26268.75672251  .00000772  00000+0  13027-3 0  9998
2 63727  51.9016 285.9662 0000463  52.4076 307.6929 14.79930184 77381
KUIPER-00012            
1 63728U 25088E   26268.73911319  .00000375  00000+0  78179-4 0  9997
2 63728  51.9017 270.9844 0000865  72.2791 287.8266 14.79931676 77547
KUIPER-00013            
1 63729U 25088F   26268.80537232  .00000694  00000+0  11998-3 0  9993
2 63729  51.9031 303.2115 0000444  63.5850 296.5158 14.79931112 77202
KUIPER-00014            
1 63730U 25088G   26267.48851232  .00001043  00000+0  16578-3 0  9995
2 63730  51.9036 308.9785 0000345  54.8582 305.2413 14.79922750 76826
KUIPER-00015            
1 63731U 25088H   26267.51149935 -.00000048  00000+0  22761-4 0  9997
2 63731  51.9012 318.9240 0000668  34.1661 325.9344 14.79939829 77148
KUIPER-00016            
1 63732U 25088J   26267.41831080  .00000703  00000+0  12121-3 0  9991
2 63732  51.8997 311.7917 0000408  74.7595 285.3413 14.79931714 76779
KUIPER-00018            
1 63733U 25088K   26267.53038344  .00000656  00000+0  11499-3 0  9991
2 63733  51.9051 301.3463 0000306  67.5920 292.5074 14.79930719 76937
KUIPER-00019            
1 63734U 25088L   26268.77259563  .00000944  00000+0  15286-3 0  9995
2 63734  51.9011 294.5964 0000436  11.5022 348.5950 14.79935265 77138
KUIPER-00020            
1 63735U 25088M   26267.12251630 -.00000601  00000+0 -49849-4 0  9996
2 63735  51.9028 305.6455 0000504  34.5317 325.5678 14.79926860 77047
KUIPER-00021            
1 63736U 25088N   26267.42640042  .00000465  00000+0  90040-4 0  9994
2 63736  51.9016 304.2484 0000381  44.9109 315.1885 14.79927119 76928
KUIPER-00023            
1 63737U 25088P   26268.40287263  .00000168  00000+0  50976-4 0  9990
2 63737  51.9014 302.4213 0000478  56.4795 303.6213 14.79933129 77334
KUIPER-00024            
1 63738U 25088Q   26268.75402919 -.00000171  00000+0  65606-5 0  9998
2 63738  51.9002 288.4815 0000489  15.8919 344.2058 14.79930708 77688
KUIPER-00025            
1 63739U 25088R   26267.49662830  .00001377  00000+0  20951-3 0  9999
2 63739  51.9035 301.5248 0000376  62.8257 297.2744 14.79939834 77255
KUIPER-00027            
1 63740U 25088S   26268.75130656 -.00000460  00000+0 -31413-4 0  9997
2 63740  51.9029 290.9346 0000133 178.0314 182.0649 14.79932934 77243
KUIPER-00028            
1 63741U 25088T   26268.78777565 -.00000138  00000+0  10822-4 0  9999
2 63741  51.9005 288.2114 0000240   6.7266 353.3699 14.79930681 77697
KUIPER-00029            
1 63742U 25088U   26268.76378200  .00001099  00000+0  17313-3 0  9998
2 63742  51.9028 287.0172 0000443  15.9641 344.1336 14.79926368 77231
KUIPER-00030            
1 63743U 25088V   26267.51960359  .00000490  00000+0  93303-4 0  9991
2 63743  51.9023 311.3397 0000344  53.8865 306.2129 14.79929346 77076
KUIPER-00031            
1 63744U 25088W   26268.78508636  .00000387  00000+0  79769-4 0  9993
2 63744  51.9019 290.7658 0000368  42.1432 317.9559 14.79933665 77186
KUIPER-00032            
1 63745U 25088X   26268.77927040  .00015210  00000+0  35098-3 0  9994
2 63745  51.8651 132.4735 0005162 112.7869 247.3666 15.42743604 80385
KUIPER-00033            
1 63746U 25088Y   26268.88778553  .00000679  00000+0  11807-3 0  9995
2 63746  51.9024 320.3112 0000348  52.3135 307.7859 14.79934351 77262
KUIPER-00034            
1 63747U 25088Z   26268.32045012  .00000954  00000+0  15410-3 0  9992
2 63747  51.9015 285.3562 0000493  81.2393 278.8625 14.79927125 77383
KUIPER-00035            
1 63748U 25088AA  26268.42856246  .00001373  00000+0  20909-3 0  9998
2 63748  51.9008 309.8420 0000388  55.5131 304.5868 14.79933404 77101
KUIPER-00037            
1 63749U 25088AB  26268.42147941  .00000823  00000+0  13693-3 0  9995
2 63749  51.9019 308.7349 0000315  70.7987 289.3010 14.79930390 77908
KUIPER-00038            
1 63750U 25088AC  26267.46556410  .00000739  00000+0  12599-3 0  9995
2 63750  51.9033 299.1368 0000435  75.8795 284.2216 14.79926842 76959
KUIPER-00039            
1 64500U 25134A   26268.85625032  .00002722  00000+0  38591-3 0  9996
2 64500  51.9009  67.9819 0000670 119.9576 240.1453 14.79937329 69718
KUIPER-00040            
1 64501U 25134B   26268.87924021  .00002720  00000+0  38561-3 0  9994
2 64501  51.8979  77.9372 0000938 121.0755 239.0299 14.79935708 69577
KUIPER-00041            
1 64502U 25134C   26268.77522485  .00002456  00000+0  35105-3 0  9999
2 64502  51.8978  80.7892 0000686 113.0846 247.0188 14.79939089 69525
KUIPER-00042            
1 64503U 25134D   26268.88192033  .00002539  00000+0  36191-3 0  9992
2 64503  51.8979  75.2947 0000629 115.8593 244.2434 14.79932913 69615
KUIPER-00043            
1 64504U 25134E   26268.75495262  .00001633  00000+0  24316-3 0  9999
2 64504  51.8992  68.3708 0000730 133.3467 226.7556 14.79931818 69700
KUIPER-00044            
1 64505U 25134F   26268.74146908 -.00001270  00000+0 -13765-3 0  9994
2 64505  51.8972  80.9204 0000770 111.0711 249.0333 14.79928483 69524
KUIPER-00046            
1 64506U 25134G   26268.84544328  .00001258  00000+0  19403-3 0  9993
2 64506  51.8978  77.9296 0000652 107.9879 252.1155 14.79921746 69573
KUIPER-00047            
1 64507U 25134H   26268.70629241  .00003168  00000+0  44428-3 0  9994
2 64507  51.8990  51.0753 0000418 121.8457 238.2546 14.79942907 69937
KUIPER-00048            
1 64508U 25134J   26268.60500170  .00002906  00000+0  41007-3 0  9992
2 64508  51.9001  51.5357 0000482 119.8467 240.2544 14.79932840 69921
KUIPER-00049            
1 64509U 25134K   26268.62526752  .00000280  00000+0  65766-4 0  9991
2 64509  51.8991  63.9205 0000821 101.1688 258.9367 14.79927687 69757
KUIPER-00050            
1 64510U 25134L   26268.57661658  .00002962  00000+0  41725-3 0  9999
2 64510  51.9002  46.6536 0000351 125.6800 234.4196 14.79950037 69993
KUIPER-00051            
1 64511U 25134M   26268.73636091  .00000384  00000+0  79413-4 0  9993
2 64511  51.9006  62.1262 0000628 134.1349 225.9665 14.79929484 69782
KUIPER-00053            
1 64513U 25134P   26268.60188032  .00002083  00000+0  29037-3 0  9992
2 64513  51.9014  57.0601 0002333 142.6986 217.4140 14.81661318 69842
KUIPER-00054            
1 64514U 25134Q   26268.66983083  .00000060  00000+0  36830-4 0  9991
2 64514  51.8992  53.7236 0000659 121.2848 238.8179 14.79933051 69890
KUIPER-00055            
1 64515U 25134R   26268.55222911  .00001056  00000+0  16762-3 0  9993
2 64515  51.9030   6.8976 0000448 105.1812 254.9200 14.79916632 70547
KUIPER-00056            
1 64516U 25134S   26268.63068966  .00002844  00000+0  40193-3 0  9992
2 64516  51.9022  59.0160 0000726 124.0146 236.0885 14.79933630 69829
KUIPER-00057            
1 64517U 25134T   26268.69011703  .00002608  00000+0  37093-3 0  9999
2 64517  51.8992  66.1651 0000560 113.7176 246.3845 14.79931104 69726
KUIPER-00058            
1 64518U 25134U   26268.86433666  .00000169  00000+0  51133-4 0  9997
2 64518  51.8986  60.3744 0000413 103.7772 256.3236 14.79928794 69824
KUIPER-00059            
1 64519U 25134V   26268.59961004  .00000327  00000+0  71825-4 0  9996
2 64519  51.8998  56.5808 0000313 113.8140 246.2855 14.79931832 69851
KUIPER-00060            
1 64520U 25134W   26268.70092072  .00000853  00000+0  14093-3 0  9998
2 64520  51.9018  56.2122 0000463 106.8891 253.2122 14.79932030 69850
KUIPER-00061            
1 64521U 25134X   26268.86161011 -.00003061  00000+0 -37274-3 0  9998
2 64521  51.9005  62.9419 0000692 125.7210 234.3817 14.79926912 69773
KUIPER-00062            
1 64522U 25134Y   26268.85893673  .00002968  00000+0  41805-3 0  9992
2 64522  51.8960  65.3966 0000661 123.5342 236.5684 14.79938648 69758
KUIPER-00063            
1 64523U 25134Z   26268.71580424  .00002674  00000+0  37952-3 0  9997
2 64523  51.9024  73.6311 0000476 107.2187 252.8827 14.79937177 69629
KUIPER-00064            
1 64524U 25134AA  26268.65096519  .00000151  00000+0  48804-4 0  9995
2 64524  51.9017  71.3442 0000987 121.8340 238.2719 14.79930254 69652
KUIPER-00065            
1 64525U 25134AB  26268.84817457  .00002905  00000+0  40992-3 0  9997
2 64525  51.9032  75.6485 0000615 119.1604 240.9420 14.79932717 69593
KUIPER-00066            
1 64526U 25134AC  26268.47661418  .00000673  00000+0  11725-3 0  9993
2 64526  51.9025  14.5569 0000610 109.7237 250.3791 14.79929293 70439
KUIPER-00069            
1 64816U 25151A   26268.73749652  .00000829  00000+0  13768-3 0  9992
2 64816  51.9003 116.0432 0000753 117.5360 242.5679 14.79933552 66386
KUIPER-00070            
1 64817U 25151B   26267.86638988  .00002346  00000+0  33662-3 0  9996
2 64817  51.8983 144.7933 0001160 104.5796 255.5296 14.79935423 65915
KUIPER-00071            
1 64818U 25151C   26267.86908783  .00002206  00000+0  31824-3 0  9993
2 64818  51.9012 142.3290 0000732 104.1822 255.9222 14.79938784 64768
KUIPER-00072            
1 64819U 25151D   26268.73476422  .00002286  00000+0  32875-3 0  9996
2 64819  51.8967 118.4204 0000868  98.1916 261.9145 14.79930650 65173
KUIPER-00073            
1 64820U 25151E   26268.37556506 -.00000864  00000+0 -84287-4 0  9997
2 64820  51.8971 140.0659 0001018  96.0015 264.1063 14.79935541 66023
KUIPER-00075            
1 64822U 25151G   26268.89070293  .00035202  00000+0  90765-3 0  9999
2 64822  51.8664 325.8518 0002292 267.2820  92.7905 15.38849221 67309
KUIPER-00076            
1 64823U 25151H   26267.84611296  .00002275  00000+0  32732-3 0  9992
2 64823  51.9007 132.4314 0000941 104.7679 255.3388 14.79936044 64903
KUIPER-00077            
1 64824U 25151J   26267.84073171  .00000259  00000+0  62969-4 0  9993
2 64824  51.8998 137.4773 0001316 102.1099 258.0011 14.79934307 64836
KUIPER-00078            
1 64825U 25151K   26268.55248352  .00001107  00000+0  17415-3 0  9996
2 64825  51.8993 131.8023 0001049 102.4093 257.6987 14.79931332 64975
KUIPER-00079            
1 64826U 25151L   26268.78343962 -.00000162  00000+0  77624-5 0  9996
2 64826  51.8977 135.7331 0001378  91.5812 268.5308 14.79930950 66138
KUIPER-00080            
1 64827U 25151M   26267.93930088  .00001362  00000+0  20769-3 0  9992
2 64827  51.9007 139.4790 0000703 114.6345 245.4691 14.79928952 64814
KUIPER-00082            
1 64828U 25151N   26267.91903672  .00002680  00000+0  38032-3 0  9996
2 64828  51.9002 127.1330 0000974  97.5914 262.5159 14.79941288 64989
KUIPER-00083            
1 64829U 25151P   26268.92389527  .00000274  00000+0  64941-4 0  9992
2 64829  51.9011 130.1706 0001121  98.8666 261.2423 14.79932504 66213
KUIPER-00084            
1 64830U 25151Q   26267.96768836  .00001118  00000+0  17560-3 0  9993
2 64830  51.9001 144.3874 0000677  96.1695 263.9345 14.79926418 64740
KUIPER-00085            
1 64831U 25151R   26268.89822826  .00002304  00000+0  33111-3 0  9995
2 64831  51.9017 122.8620 0000915 110.0973 250.0088 14.79941497 65126
KUIPER-00086            
1 64832U 25151S   26267.94201746  .00002641  00000+0  37530-3 0  9996
2 64832  51.9008 137.0218 0001021 103.5548 256.5529 14.79940012 64843
KUIPER-00087            
1 64833U 25151T   26268.77125575 -.00002825  00000+0 -34154-3 0  9999
2 64833  51.8996 115.8096 0000923  94.0638 266.0430 14.79945232 65208
KUIPER-00089            
1 64834U 25151U   26268.90089993  .00009320  00000+0  12492-2 0  9993
2 64834  51.8960 120.2624 0001000 115.3187 244.7879 14.79952361 65166
KUIPER-00090            
1 64835U 25151V   26268.77394647 -.00000720  00000+0 -65427-4 0  9999
2 64835  51.8973 113.3156 0000938 111.2057 248.9005 14.79925002 65242
KUIPER-00091            
1 64836U 25151W   26268.76855710  .00000566  00000+0  10324-3 0  9993
2 64836  51.8987 118.3712 0001125 104.2381 255.8706 14.79929120 65174
KUIPER-00092            
1 64837U 25151X   26268.76046849  .00002524  00000+0  35991-3 0  9992
2 64837  51.8991 125.8935 0000873 107.3395 252.7663 14.79932259 66286
KUIPER-00093            
1 64838U 25151Y   26267.94740989  .00001926  00000+0  28158-3 0  9990
2 64838  51.8987 131.9587 0000885 116.1451 243.9603 14.79930634 64916
KUIPER-00094            
1 64839U 25151Z   26268.87385324 -.00000488  00000+0 -34969-4 0  9994
2 64839  51.9029  82.9787 0001166 117.7570 242.3511 14.79931402 65684
KUIPER-00081            
1 65132U 25171A   26268.47521376  .00000572  00000+0  10404-3 0  9997
2 65132  51.9022 344.6228 0000267  22.0553 338.0421 14.79929880 62623
KUIPER-00088            
1 65133U 25171B   26268.45634555  .00001089  00000+0  17177-3 0  9998
2 65133  51.9016   2.2051 0000518  55.8852 304.2160 14.79934049 62373
KUIPER-00095            
1 65134U 25171C   26268.41039487  .00000921  00000+0  14975-3 0  9995
2 65134  51.8987 342.4430 0000207  84.6544 275.4442 14.79931964 62648
KUIPER-00096            
1 65135U 25171D   26268.49819436  .00001405  00000+0  21328-3 0  9992
2 65135  51.8995 354.5134 0000284  96.8052 263.2943 14.79932883 62481
KUIPER-00097            
1 65136U 25171E   26268.49552275  .00003301  00000+0  46178-3 0  9995
2 65136  51.9031 357.1960 0000414  82.0903 278.0106 14.79937472 62436
KUIPER-00098            
1 65137U 25171F   26268.56031524  .00000951  00000+0  15379-3 0  9990
2 65137  51.9020 359.2680 0000618  67.7016 292.4012 14.79919347 61760
KUIPER-00099            
1 65138U 25171G   26268.53736091  .00003344  00000+0  46731-3 0  9994
2 65138  51.9039 349.3858 0000223 102.6620 257.4367 14.79939165 62552
KUIPER-00100            
1 65139U 25171H   26268.43875567  .00003151  00000+0  44204-3 0  9995
2 65139  51.9035 347.2869 0000383  73.2259 286.8746 14.79939089 62570
KUIPER-00102            
1 65140U 25171J   26268.90876274  .00002008  00000+0  29231-3 0  9998
2 65140  51.8996 347.6734 0000123  68.7875 291.3101 14.79935521 62604
KUIPER-00103            
1 65141U 25171K   26268.58600476  .00003573  00000+0  49736-3 0  9992
2 65141  51.9006   6.6048 0000280  52.9554 307.1434 14.79933104 62319
KUIPER-00104            
1 65142U 25171L   26268.53196406  .00003331  00000+0  46571-3 0  9997
2 65142  51.9039 354.3644 0000293  89.6085 270.4911 14.79938194 62485
KUIPER-00105            
1 65143U 25171M   26268.55765046  .00001050  00000+0  16668-3 0  9992
2 65143  51.9020   1.8417 0000321  84.1264 275.9735 14.79930926 62387
KUIPER-00106            
1 65144U 25171N   26268.47083845  .00000778  00000+0  13109-3 0  9997
2 65144  51.9036 340.9956 0000352  80.0395 280.0607 14.79931417 62677
KUIPER-00107            
1 65145U 25171P   26268.91417253  .00002090  00000+0  30305-3 0  9997
2 65145  51.9013 342.7073 0000574  78.9215 281.1812 14.79926319 62682
KUIPER-00108            
1 65146U 25171Q   26268.52927351  .00001380  00000+0  21002-3 0  9995
2 65146  51.9041 356.9584 0000315  87.5303 272.5696 14.79933614 62450
KUIPER-00109            
1 65147U 25171R   26268.43336392  .00000822  00000+0  13674-3 0  9991
2 65147  51.9034 352.3240 0000418  86.4227 273.6783 14.79936545 62500
KUIPER-00110            
1 65148U 25171S   26268.45365439  .00001111  00000+0  17466-3 0  9993
2 65148  51.9003   4.7769 0000278  61.5326 298.5665 14.79933682 62323
KUIPER-00111            
1 65149U 25171T   26268.48200443  .00003372  00000+0  47100-3 0  9999
2 65149  51.8998   9.5107 0000092  62.5602 297.5369 14.79937787 62260
KUIPER-00112            
1 65150U 25171U   26268.53465607  .00000812  00000+0  13548-3 0  9997
2 65150  51.9025 351.9199 0000295  87.7893 272.3103 14.79928267 62513
KUIPER-00114            
1 65151U 25171V   26268.47931938  .00003377  00000+0  47165-3 0  9997
2 65151  51.9006  12.1195 0000214  75.7357 284.3629 14.79936104 62221
KUIPER-00115            
1 65152U 25171W   26268.55494442  .00000915  00000+0  14898-3 0  9993
2 65152  51.9024   4.2959 0000360 103.0151 257.0851 14.79933186 62345
KUIPER-00116            
1 65153U 25171X   26268.51579138  .00001961  00000+0  28621-3 0  9997
2 65153  51.9015   9.4979 0000611 109.3479 250.7549 14.79931515 62265
KUIPER-00118            
1 65154U 25171Y   26268.58061635  .00002008  00000+0  29236-3 0  9999
2 65154  51.9010  11.6605 0000576  93.3537 266.7491 14.79934915 62247
KUIPER-00119            
1 65155U 25171Z   26268.52657326  .00003325  00000+0  46485-3 0  9990
2 65155  51.9025 359.5037 0000415  88.8310 271.2700 14.79939888 62403
KUIPER-00120            
1 65762U 25217A   26268.89845045  .00002656  00000+0  37724-3 0  9994
2 65762  51.8975 247.7240 0000718  59.4002 300.7031 14.79934916 54382
KUIPER-00132            
1 65763U 25217B   26268.77588163  .00028253  00000+0  71380-3 0  9994
2 65763  51.8513 109.8373 0006111 330.1914  29.8725 15.39571335 56289
KUIPER-00133            
1 65764U 25217C   26268.93223224 -.00001187  00000+0 -12671-3 0  9994
2 65764  51.9065 247.7197 0001281  75.3560 284.7544 14.79945607 54398
KUIPER-00139            
1 65765U 25217D   26268.02185143  .00002107  00000+0  30525-3 0  9991
2 65765  51.8967 219.1616 0000878  69.4525 290.6532 14.79933582 54712
KUIPER-00142            
1 65766U 25217E   26268.91733523  .00000293  00000+0  67495-4 0  9992
2 65766  51.8977 230.1703 0000911  65.0472 295.0585 14.79931626 54630
KUIPER-00145            
1 65767U 25217F   26268.91463656 -.00000028  00000+0  25372-4 0  9995
2 65767  51.8992 232.7082 0000818  56.3395 303.7646 14.79930494 54591
KUIPER-00147            
1 65768U 25217G   26268.20267760  .00002588  00000+0  36797-3 0  9990
2 65768  51.8975 238.3269 0000897  37.4157 322.6868 14.79976175 54452
KUIPER-00148            
1 65769U 25217H   26268.89705060  .00001078  00000+0  17044-3 0  9993
2 65769  51.9046 217.8139 0000650  80.3405 279.7631 14.79933106 54807
KUIPER-00150            
1 65770U 25217J   26268.93492292  .00001422  00000+0  21550-3 0  9990
2 65770  51.9005 245.1408 0000757  77.5306 282.5741 14.79936654 54426
KUIPER-00151            
1 65771U 25217K   26268.87546943 -.00001227  00000+0 -13194-3 0  9997
2 65771  51.9017 237.9025 0001645 296.8695  63.2099 14.79931449 54526
KUIPER-00152            
1 65772U 25217L   26267.30201021  .00001090  00000+0  17193-3 0  9999
2 65772  51.9003 232.3399 0000810  54.4602 305.6436 14.79937836 54461
KUIPER-00153            
1 65773U 25217M   26268.92811497  .00002597  00000+0  36947-3 0  9994
2 65773  51.9013 220.2380 0002448  81.9351 278.1890 14.79939236 54772
KUIPER-00155            
1 65774U 25217N   26268.48508446  .00001023  00000+0  16319-3 0  9997
2 65774  51.9025 194.6603 0000802  92.0543 268.0512 14.79932508 55096
KUIPER-00156            
1 65775U 25217P   26268.89436559  .00000120  00000+0  44738-4 0  9992
2 65775  51.9023 220.3710 0000812  70.0051 290.0999 14.79929060 54768
KUIPER-00165            
1 65778U 25217S   26268.88357053  .00001968  00000+0  28710-3 0  9997
2 65778  51.8994 230.3486 0000686 105.6920 254.4118 14.79938263 54624
KUIPER-00166            
1 65779U 25217T   26267.24256229 -.00000073  00000+0  19407-4 0  9991
2 65779  51.8995 225.1675 0000767  84.3200 275.7850 14.79920848 54553
KUIPER-00167            
1 65780U 25217U   26268.67016497  .00001572  00000+0  23511-3 0  9996
2 65780  51.8954 241.1688 0000788  49.2783 310.8248 14.79936511 54456
KUIPER-00168            
1 65781U 25217V   26268.89163947  .00003415  00000+0  47655-3 0  9997
2 65781  51.8998 222.8179 0002223  82.5278 277.5937 14.79952229 54730
KUIPER-00169            
1 65782U 25217W   26268.88626818  .00000672  00000+0  11721-3 0  9995
2 65782  51.8993 227.8570 0000684  80.8664 279.2376 14.79933536 54663
KUIPER-00170            
1 65783U 25217X   26268.88086648  .00001872  00000+0  27451-3 0  9997
2 65783  51.8977 232.8198 0000691  66.1783 293.9252 14.79936674 54599
KUIPER-00172            
1 65785U 25217Z   26268.86599163  .00001608  00000+0  23986-3 0  9994
2 65785  51.8984 215.4185 0001092  62.5295 297.5778 14.79930615 54835
KUIPER-00173            
1 65786U 25217AA  26268.92002630  .00002853  00000+0  40300-3 0  9992
2 65786  51.8995 227.6966 0000925  53.6444 306.4603 14.79943598 54663
KUIPER-00174            
1 65787U 25217AB  26268.58777466  .00002429  00000+0  34747-3 0  9998
2 65787  51.9012 224.2321 0000927  78.4861 281.6206 14.79941431 54682
KUIPER-00176            
1 65788U 25217AC  26267.35605154  .00002366  00000+0  33924-3 0  9993
2 65788  51.8988 244.5918 0000738  58.0665 302.0370 14.79938100 54293
KUIPER-00101            
1 65947U 25228A   26267.97576115 -.00014530  00000+0 -18807-2 0  9994
2 65947  51.8991 199.2928 0000778  57.9168 302.1870 14.79941620 52746
KUIPER-00113            
1 65948U 25228B   26268.48774612  .00003411  00000+0  47637-3 0  9992
2 65948  51.8985 192.0532 0000991  82.1133 277.9942 14.79923573 52882
KUIPER-00117            
1 65949U 25228C   26268.51881866  .00000114  00000+0  44019-4 0  9996
2 65949  51.8984 194.4151 0000949  81.5123 278.5947 14.79923945 52852
KUIPER-00121            
1 65950U 25228D   26267.95022579  .00001074  00000+0  16983-3 0  9997
2 65950  51.8985 191.9537 0001042  82.0656 278.0424 14.79933761 52848
KUIPER-00122            
1 65951U 25228E   26267.19659972  .00002596  00000+0  36938-3 0  9999
2 65951  51.8997 205.2523 0000693  96.3917 263.7125 14.79934979 52598
KUIPER-00123            
1 65952U 25228F   26268.51341834  .00002342  00000+0  33603-3 0  9997
2 65952  51.8989 199.4376 0000546  73.8773 286.2250 14.79934656 52789
KUIPER-00124            
1 65953U 25228G   26268.52152010  .00002375  00000+0  34041-3 0  9998
2 65953  51.8976 191.8925 0001163  71.7474 288.3614 14.79939285 52895
KUIPER-00125            
1 65954U 25228H   26268.47014471  .00000097  00000+0  41827-4 0  9991
2 65954  51.8982 177.1763 0001203  90.7262 269.3838 14.79912359 53094
KUIPER-00126            
1 65955U 25228J   26267.19930986  .00001789  00000+0  26356-3 0  9996
2 65955  51.8992 202.7699 0000991  94.3743 265.7332 14.79934630 52629
KUIPER-00127            
1 65956U 25228K   26267.25804786 -.00000086  00000+0  17742-4 0  9992
2 65956  51.9008 194.9956 0001155  67.7061 292.4024 14.79928564 52744
KUIPER-00128            
1 65957U 25228L   26268.52423199  .00002379  00000+0  34085-3 0  9993
2 65957  51.8996 189.4638 0000923  86.8747 273.2321 14.79938804 52926
KUIPER-00129            
1 65958U 25228M   26267.95560875  .00000872  00000+0  14344-3 0  9995
2 65958  51.8987 186.9558 0000807  75.8956 284.2096 14.79929009 52918
KUIPER-00130            
1 65959U 25228N   26267.17633955 -.00000049  00000+0  22541-4 0  9996
2 65959  51.9035 192.9500 0000882  84.2561 275.8502 14.79932389 43055
KUIPER-00134            
1 65960U 25228P   26268.85904599  .00033439  00000+0  88849-3 0  9999
2 65960  51.8707  68.7031 0005064 287.8103  72.2331 15.37942265 54635
KUIPER-00135            
1 65961U 25228Q   26267.95292765  .00001600  00000+0  23875-3 0  9998
2 65961  51.9016 189.5665 0000859  85.9106 274.1954 14.79941247 52874
KUIPER-00136            
1 65962U 25228R   26268.46204371  .00002454  00000+0  35094-3 0  9996
2 65962  51.9011 184.7602 0001057  78.8807 281.2274 14.79917313 52981
KUIPER-00137            
1 65963U 25228S   26268.46479469  .00001902  00000+0  27844-3 0  9990
2 65963  51.9025 182.2615 0001108  68.3852 291.7229 14.79938847 53022
KUIPER-00138            
1 65964U 25228T   26267.96099936 -.00000810  00000+0 -77228-4 0  9993
2 65964  51.8997 181.8838 0001182  85.2253 274.8845 14.79923284 52986
KUIPER-00140            
1 65965U 25228U   26268.49855588  .00001683  00000+0  24973-3 0  9991
2 65965  51.8999 182.1004 0001175  84.1569 275.9527 14.79935213 53028
KUIPER-00141            
1 65966U 25228V   26268.43643092  .00000660  00000+0  11556-3 0  9998
2 65966  51.9026 177.4548 0000686 103.4091 256.6948 14.79933881 53080
KUIPER-00146            
1 65967U 25228W   26267.18443836 -.00000269  00000+0 -62963-5 0  9991
2 65967  51.9032 185.5036 0001299  79.3542 280.7567 14.79927578 52869
KUIPER-00149            
1 65968U 25228X   26268.43912185  .00002061  00000+0  29930-3 0  9994
2 65968  51.8999 174.8277 0001244  84.0379 276.0725 14.79933537 53126
KUIPER-00154            
1 65969U 25228Y   26268.13792449  .00001404  00000+0  21318-3 0  9993
2 65969  51.8998 173.6412 0000955  92.2236 267.8836 14.79937130 53118
KUIPER-00157            
1 65970U 25228Z   26268.84792466 -.00009605  00000+0 -13387-2 0  9991
2 65970  51.9008 172.8437 0001160 144.7661 215.3377 14.76467527 53185
KUIPER-00144            
1 67133U 25301A   26268.92952337  .00002733  00000+0  38736-3 0  9999
2 67133  51.8999 250.1659 0000739  61.7081 298.3956 14.79935199 43526
KUIPER-00164            
1 67134U 25301B   26267.43039748  .00001943  00000+0  28373-3 0  9995
2 67134  51.9041 269.3163 0000547  50.5948 309.5063 14.79938568 43306
KUIPER-00175            
1 67135U 25301C   26268.90115384  .00000495  00000+0  93978-4 0  9995
2 67135  51.9005 245.2431 0000721  46.7960 313.3063 14.79933675 43669
KUIPER-00179            
1 67136U 25301D   26268.10837477  .00001603  00000+0  23923-3 0  9996
2 67136  51.8982 263.7453 0000571  53.6007 306.5008 14.79937689 43442
KUIPER-00181            
1 67137U 25301E   26267.48713518  .00001820  00000+0  26767-3 0  9996
2 67137  51.9033 279.0611 0000551  33.8132 326.2865 14.79940853 43159
KUIPER-00183            
1 67138U 25301F   26268.63373332  .00001138  00000+0  17830-3 0  9994
2 67138  51.9007 243.9962 0000749  48.5281 311.5745 14.79936728 43753
KUIPER-00184            
1 67139U 25301G   26267.67483155  .00002233  00000+0  32184-3 0  9999
2 67139  51.8998 260.6749 0000580  65.5768 294.5255 14.79933741 43548
KUIPER-00186            
1 67140U 25301H   26268.73641017 -.00011577  00000+0 -14913-2 0  9994
2 67140  51.9000 273.5466 0001450  69.5565 290.5553 14.79957365 43185
KUIPER-00187            
1 67141U 25301J   26268.39602113 -.00002603  00000+0 -31274-3 0  9991
2 67141  51.9013 277.5775 0000712  69.4534 290.6505 14.79917431 43090
KUIPER-00188            
1 67142U 25301K   26268.93763017  .00002825  00000+0  39933-3 0  9997
2 67142  51.9011 242.7682 0000836  55.0386 305.0655 14.79937319 43626
KUIPER-00191            
1 67143U 25301L   26267.96524081  .00002148  00000+0  31062-3 0  9999
2 67143  51.9009 271.9560 0000527  56.4838 303.6174 14.79937993 43164
KUIPER-00196            
1 67144U 25301M   26268.88895523  .00001385  00000+0  21066-3 0  9999
2 67144  51.8979 225.3206 0000891  77.4314 282.6748 14.79941383 43864
KUIPER-00204            
1 67145U 25301N   26268.90653297  .00002319  00000+0  33316-3 0  9992
2 67145  51.9005 240.2825 0000754  71.8693 288.2352 14.79932120 43777
KUIPER-00210            
1 67146U 25301P   26267.05351771  .00001971  00000+0  28734-3 0  9991
2 67146  51.9001 275.9322 0000497  48.7766 311.3239 14.79957720 43178
KUIPER-00221            
1 67147U 25301Q   26267.48443304  .00001962  00000+0  28633-3 0  9991
2 67147  51.9029 281.5655 0000559  65.9198 294.1823 14.79934214 42966
KUIPER-00232            
1 67148U 25301R   26268.68239112  .00000940  00000+0  15232-3 0  9991
2 67148  51.8989 261.2755 0000570  66.1073 293.9949 14.79937050 43345
KUIPER-00241            
1 67149U 25301S   26267.42229637  .00000500  00000+0  94618-4 0  9992
2 67149  51.9074 276.8764 0000979  67.6415 292.4652 14.79928087 43359
KUIPER-00245            
1 67150U 25301T   26268.76481442  .00001872  00000+0  27444-3 0  9991
2 67150  51.9027 278.4463 0000447  69.9122 290.1889 14.79940818 43110
KUIPER-00246            
1 67151U 25301U   26268.47710113  .00002297  00000+0  33011-3 0  9999
2 67151  51.9003 264.6525 0000587  73.4233 286.6794 14.79941761 43303
KUIPER-00247            
1 67152U 25301V   26267.40740341  .00000049  00000+0  35373-4 0  9995
2 67152  51.8966 259.3252 0000701  79.0458 281.0583 14.79930645 43267
KUIPER-00248            
1 67153U 25301W   26268.64183074  .00002778  00000+0  39319-3 0  9991
2 67153  51.8975 236.5132 0000775  69.7042 290.4004 14.79936573 43851
KUIPER-00249            
1 67154U 25301X   26267.95035169  .00001032  00000+0  16436-3 0  9993
2 67154  51.8969 254.5025 0000609  42.5388 317.5621 14.79935788 43374
KUIPER-00250            
1 67155U 25301Y   26268.50816628  .00000005  00000+0  29703-4 0  9994
2 67155  51.8983 266.9915 0000391 355.5542   4.5416 14.79930428 43284
KUIPER-00251            
1 67156U 25301Z   26268.92682595  .00000412  00000+0  83035-4 0  9995
2 67156  51.9075 252.7258 0001490 344.5208  15.5709 14.79946967 43674
KUIPER-00252            
1 67157U 25301AA  26268.11376552  .00001151  00000+0  17988-3 0  9994
2 67157  51.9005 258.7627 0000589  76.1957 283.9070 14.79936833 43337
KUIPER-00261            
1 67158U 25301AB  26267.39393193  .00001991  00000+0  29006-3 0  9990
2 67158  51.9022 272.0121 0000543  50.2912 309.8098 14.79932177 43086
KUIPER-00265            
1 67159U 25301AC  26268.76210923  .00001603  00000+0  23920-3 0  9991
2 67159  51.9074 280.9409 0000175 326.1492  33.9460 14.79939824 43118
KUIPER-00159            
1 67764U 26030A   26268.91670139 -.00026453  00000+0 -34636-2 0  9996
2 67764  51.9019 358.9936 0001675 325.7668  96.1343 14.79821478  4478
KUIPER-00160            
1 67765U 26030B   26268.49479903 -.00000930  00000+0 -92991-4 0  9998
2 67765  51.8992 342.1080 0000604 138.4902 221.6107 14.79937301 35700
KUIPER-00177            
1 67766U 26030C   26268.64147722  .00001088  00000+0  17165-3 0  9999
2 67766  51.9006  48.9398 0000644 107.7106 252.3927 14.79930602 34785
KUIPER-00178            
1 67767U 26030D   26268.67523587  .00001315  00000+0  20150-3 0  9991
2 67767  51.9017  48.7715 0000530 108.3441 251.7579 14.79936578 34797
KUIPER-00180            
1 67768U 26030E   26268.68062697  .00003000  00000+0  42233-3 0  9992
2 67768  51.8982  43.7373 0000496 140.3226 219.7773 14.79933430 34863
KUIPER-00197            
1 67769U 26030F   26268.63466829  .00000911  00000+0  14844-3 0  9998
2 67769  51.9019  23.9611 0000364 124.6686 235.4311 14.79932030 35139
KUIPER-00198            
1 67770U 26030G   26268.65495374  .00001757  00000+0  25934-3 0  9990
2 67770  51.8990  36.3423 0000366 124.8269 235.2728 14.79935965 34968
KUIPER-00199            
1 67771U 26030H   26268.91670139 -.00588271  00000+0 -46306-1 0  9991
2 67771  51.9063 335.2061 0013053  52.6694  54.6588 15.02535987  4609
KUIPER-00200            
1 67772U 26030J   26268.46854790  .00003286  00000+0  45980-3 0  9994
2 67772  51.8998  22.2116 0000369 100.9520 259.1484 14.79937029 35147
KUIPER-00203            
1 67773U 26030K   26268.70361682  .00003016  00000+0  42437-3 0  9990
2 67773  51.9060  53.7499 0000634 113.1041 246.9989 14.79940404 34729
KUIPER-00205            
1 67774U 26030L   26268.60629742  .00001459  00000+0  22037-3 0  9997
2 67774  51.9018  19.0702 0000327  85.3231 274.7769 14.79934115 35206
KUIPER-00208            
1 67775U 26030M   26268.67793075  .00003398  00000+0  47453-3 0  9999
2 67775  51.8979  46.2460 0000904 133.0971 227.0068 14.79936763 34829
KUIPER-00209            
1 67776U 26030N   26268.64687357  .00000498  00000+0  94333-4 0  9990
2 67776  51.8985  43.9854 0000489 129.1841 230.9164 14.79927507 34857
KUIPER-00213            
1 67777U 26030P   26268.75083729  .00003385  00000+0  47281-3 0  9993
2 67777  51.8966  40.9808 0000503 119.6725 240.4287 14.79932271 34907
KUIPER-00214            
1 67778U 26030Q   26268.65226340  .00000338  00000+0  73322-4 0  9992
2 67778  51.9012  38.9575 0000309 120.0403 240.0590 14.79933802 34928
KUIPER-00215            
1 67779U 26030R   26268.63196513  .00001761  00000+0  25996-3 0  9993
2 67779  51.9007  26.3992 0000287 119.4903 240.6088 14.79933816 35103
KUIPER-00218            
1 67780U 26030S   26268.58202707  .00003089  00000+0  43397-3 0  9992
2 67780  51.8990  41.6589 0000422 122.7847 237.3156 14.79935997 34887
KUIPER-00220            
1 67781U 26030T   26268.60899470  .00001610  00000+0  24014-3 0  9998
2 67781  51.8959  16.5619 0000318  51.5303 308.5688 14.79935422 35232
KUIPER-00222            
1 67782U 26030U   26268.62120072  .00000707  00000+0  12173-3 0  9995
2 67782  51.9016  36.6466 0000580 149.2982 210.8015 14.79934496 34957
KUIPER-00223            
1 67783U 26030V   26268.52797178  .00000580  00000+0  10512-3 0  9996
2 67783  51.9023  29.3720 0000314 109.8883 250.2114 14.79930481 35055
KUIPER-00225            
1 67784U 26030W   26268.65766182  .00002229  00000+0  32127-3 0  9990
2 67784  51.8989  33.9425 0000417  98.6642 261.4368 14.79933216 34997
KUIPER-00226            
1 67785U 26030X   26268.56983119  .00001971  00000+0  28745-3 0  9996
2 67785  51.9035  21.7133 0001017  34.6338 325.4691 14.79935093 35166
KUIPER-00259            
1 67786U 26030Y   26268.55635475  .00002031  00000+0  29536-3 0  9992
2 67786  51.8992  34.2906 0000335 120.5344 239.5651 14.79932536 34988
KUIPER-00260            
1 67787U 26030Z   26268.62659359  .00001546  00000+0  23172-3 0  9998
2 67787  51.9026  31.5942 0000535 127.0160 233.0852 14.79934142 34930
KUIPER-00262            
1 67788U 26030AA  26268.52528523  .00000572  00000+0  10398-3 0  9990
2 67788  51.8998  31.9570 0000870 125.4573 234.6470 14.79933496 35015
KUIPER-00266            
1 67789U 26030AB  26268.62927723  .00001697  00000+0  25155-3 0  9993
2 67789  51.8997  28.9891 0000517 109.3520 250.7499 14.79932866 35063
KUIPER-00268            
1 67790U 26030AC  26268.59821403  .00003512  00000+0  48935-3 0  9998
2 67790  51.9064  26.6741 0000370 144.2064 215.8924 14.79937902 35092
KUIPER-00270            
1 67791U 26030AD  26268.50769919  .00003394  00000+0  47386-3 0  9990
2 67791  51.9005  17.0183 0000354  90.9707 269.1296 14.79938285 35229
KUIPER-00274            
1 67792U 26030AE  26268.61849036  .00000728  00000+0  12454-3 0  9998
2 67792  51.9027  39.0465 0000451 104.2550 255.8463 14.79928675 34920
KUIPER-00275            
1 67793U 26030AF  26268.50499970  .00001052  00000+0  16696-3 0  9998
2 67793  51.9012  19.5416 0000420 142.2869 217.8122 14.79934878 35186
KUIPER-00276            
1 67794U 26030AG  26268.53337384  .00000598  00000+0  10739-3 0  9998
2 67794  51.9008  24.3931 0000554 118.0357 242.0661 14.79933105 35123
KUIPER-00279            
1 67795U 26030AH  26268.57792867  .00000782  00000+0  13160-3 0  9990
2 67795  51.9037  14.2473 0000367 106.8813 253.2190 14.79935652 35264
KUIPER-00131            
1 68573U 26072A   26268.77664963  .00002238  00000+0  32249-3 0  9995
2 68573  51.8989 110.8465 0000838 111.8867 248.2185 14.79936699 26019
KUIPER-00189            
1 68574U 26072B   26268.74018846  .00002397  00000+0  34329-3 0  9993
2 68574  51.8971 113.4832 0000720 110.5318 249.5722 14.79928294 25972
KUIPER-00192            
1 68575U 26072C   26268.84687678 -.00000007  00000+0  28057-4 0  9999
2 68575  51.8991 108.0293 0000972 113.1675 246.9390 14.79930977 26064
KUIPER-00193            
1 68576U 26072D   26268.72260279  .00002443  00000+0  34933-3 0  9995
2 68576  51.9042  98.6309 0001020 118.9184 241.1881 14.79936997 26181
KUIPER-00194            
1 68577U 26072E   26268.74828647  .00002371  00000+0  33988-3 0  9996
2 68577  51.9008 105.9935 0000842 100.3799 259.7258 14.79929848 26088
KUIPER-00229            
1 68578U 26072F   26268.87794897  .00001101  00000+0  17342-3 0  9996
2 68578  51.9001 110.3986 0000728 118.5565 241.5471 14.79932250 26035
KUIPER-00230            
1 68579U 26072G   26268.91670139  .00023793  00000+0  33984-2 0  9994
2 68579  51.9028  57.5114 0001078  89.1327 284.1123 14.76560403  2235
KUIPER-00231            
1 68580U 26072H   26268.90761190  .00002709  00000+0  38429-3 0  9997
2 68580  51.8966  82.8369 0001813 133.1181 226.9933 14.79934029 26416
KUIPER-00234            
1 68581U 26072J   26268.71451466  .00000326  00000+0  71778-4 0  9997
2 68581  51.8976 106.1053 0001270 108.1067 252.0034 14.79932595 26070
KUIPER-00236            
1 68582U 26072K   26268.91670139  .00034201  00000+0  44971-2 0  9992
2 68582  51.9028  60.2237 0001161  96.4975   3.1073 14.79889255  5417
KUIPER-00244            
1 68583U 26072L   26268.89412862  .00000767  00000+0  12957-3 0  9997
2 68583  51.8977  95.3332 0001047 121.9208 238.1856 14.79930241 26246
KUIPER-00253            
1 68584U 26072M   26268.89143118  .00002531  00000+0  36088-3 0  9995
2 68584  51.9022  97.8753 0000973 115.8619 244.2444 14.79936775 26203
KUIPER-00254            
1 68585U 26072N   26268.71989807 -.00000649  00000+0 -56133-4 0  9994
2 68585  51.9009 101.1234 0000814  98.2176 261.8878 14.79931202 26147
KUIPER-00263            
1 68586U 26072P   26268.87114935  .00002676  00000+0  37994-3 0  9997
2 68586  51.9001  85.5265 0000690 125.2920 234.8107 14.79933009 26376
KUIPER-00269            
1 68587U 26072Q   26268.80091923  .00000244  00000+0  60988-4 0  9991
2 68587  51.8998  88.2433 0000956 116.2216 243.8844 14.79931550 26334
KUIPER-00272            
1 68588U 26072R   26268.74556869  .00002486  00000+0  35497-3 0  9996
2 68588  51.8973 108.4538 0000966 115.6228 244.4834 14.79937349 26042
KUIPER-00285            
1 68589U 26072S   26268.90222859 -.00000062  00000+0  20861-4 0  9993
2 68589  51.9043  87.8820 0001532 100.2129 259.9007 14.79929102 26340
KUIPER-00286            
1 68590U 26072T   26268.90488533  .00005676  00000+0  77239-3 0  9993
2 68590  51.8992  85.2932 0000967 149.6041 210.4978 14.79960503 26384
KUIPER-00289            
1 68591U 26072U   26268.89681488  .00002394  00000+0  34296-3 0  9996
2 68591  51.8980  92.8062 0000963 119.2814 240.8245 14.79930537 26273
KUIPER-00290            
1 68592U 26072V   26268.79549989  .00002410  00000+0  34497-3 0  9997
2 68592  51.9013  93.2632 0000692 130.4792 229.6231 14.79939091 26262
KUIPER-00293            
1 68593U 26072W   26268.81849890  .00002465  00000+0  35225-3 0  9995
2 68593  51.8965 103.1314 0001801  74.3772 285.7389 14.79935948 26122
KUIPER-00294            
1 68594U 26072X   26268.76446020  .00000974  00000+0  15677-3 0  9990
2 68594  51.8981  90.8926 0000654 120.1527 239.9501 14.79930820 26294
KUIPER-00296            
1 68595U 26072Y   26268.68203714  .00000566  00000+0  10324-3 0  9994
2 68595  51.9004  73.7777 0000624 129.0416 231.0602 14.79933045 26521
KUIPER-00297            
1 68596U 26072Z   26268.91978746  .00002380  00000+0  34102-3 0  9991
2 68596  51.8991 102.6849 0001356 122.1795 237.9300 14.79939503 26148
KUIPER-00300            
1 68597U 26072AA  26268.75367289  .00000355  00000+0  75518-4 0  9995
2 68597  51.9012 100.9579 0000724 128.0410 232.0618 14.79932945 26154
KUIPER-00301            
1 68598U 26072AB  26268.71886433  .00001923  00000+0  30393-3 0  9992
2 68598  51.9018  70.7750 0001882 212.5630 147.5215 14.76512248 26560
KUIPER-00304            
1 68599U 26072AC  26268.74824017  .00001805  00000+0  28639-3 0  9995
2 68599  51.8995  72.5928 0000767  45.1699 314.9324 14.76627041 26544
KUIPER-00317            
1 68600U 26072AD  26268.73069453  .00000543  00000+0  10026-3 0  9991
2 68600  51.8967  91.0472 0000636 109.1981 250.9050 14.79932672 26284
KUIPER-00320            
1 68601U 26072AE  26268.79281921  .00000299  00000+0  68235-4 0  9998
2 68601  51.9015  95.7940 0000910  95.5670 264.5396 14.79928675 26225
KUIPER-00299            
1 68864U 26095A   26268.61602890  .00000673  00000+0  11734-3 0  9994
2 68864  51.9003 166.5353 0001325 106.8657 253.2451 14.79932092 22489
KUIPER-00353            
1 68865U 26095B   26268.39585905  .00000164  00000+0  50521-4 0  9990
2 68865  51.9009 152.5357 0001049 102.3956 257.7124 14.79934589 22660
KUIPER-00357            
1 68866U 26095C   26268.42152294  .00001757  00000+0  25942-3 0  9993
2 68866  51.8999 159.9342 0001140  77.2729 282.8361 14.79939085 22560
KUIPER-00364            
1 68867U 26095D   26267.91236100  .00000834  00000+0  13842-3 0  9997
2 68867  51.9031 164.7104 0001319  77.1255 282.9854 14.79937499 22453
KUIPER-00375            
1 68868U 26095E   26267.88668918  .00001888  00000+0  27656-3 0  9998
2 68868  51.8998 157.2953 0000877 105.0771 255.0289 14.79933061 22551
KUIPER-00433            
1 68869U 26095F   26267.93803085  .00001337  00000+0  20430-3 0  9993
2 68869  51.9012 172.0609 0001162  74.2626 285.8465 14.79940154 22353
KUIPER-00437            
1 68870U 26095G   26268.91670139 -.00028439  00000+0 -30780-2 0  9998
2 68870  51.8971 119.7388 0008843 309.2753 197.6686 14.87662551  3204
KUIPER-00448            
1 68871U 26095H   26268.91670139 -.00018302  00000+0 -23789-2 0  9998
2 68871  51.9033 157.7428 0001206 115.0488 184.7350 14.79921750  2637
KUIPER-00459            
1 68872U 26095J   26268.09737968  .00002007  00000+0  29221-3 0  9993
2 68872  51.9016 148.9263 0000902 103.8354 256.2709 14.79931865 22685
KUIPER-00468            
1 68873U 26095K   26268.92210326  .00001116  00000+0  18873-3 0  9991
2 68873  51.8980 142.9430 0000570 177.9793 182.1171 14.76633147 22842
KUIPER-00476            
1 68874U 26095L   26268.91670139 -.00022789  00000+0 -29544-2 0  9990
2 68874  51.8987 125.1583 0000532 232.2749  60.2599 14.80160018  5080
KUIPER-00478            
1 68875U 26095M   26267.89208378  .00000991  00000+0  15903-3 0  9993
2 68875  51.8993 152.2667 0001015 103.9158 256.1918 14.79934556 22621
KUIPER-00480            
1 68876U 26095N   26268.40125646  .00000567  00000+0  10339-3 0  9995
2 68876  51.9051 147.5354 0000879 102.6097 257.4963 14.79930313 22736
KUIPER-00482            
1 68877U 26095P   26267.91774844  .00001612  00000+0  24044-3 0  9991
2 68877  51.9014 159.6560 0001585  54.4429 305.6681 14.79941789 22526
KUIPER-00483            
1 68878U 26095Q   26267.97181077  .00009264  00000+0  12415-2 0  9997
2 68878  51.8983 171.8796 0001809  22.0669 338.0371 14.79968366 22351
KUIPER-00488            
1 68879U 26095R   26267.88938210  .00002738  00000+0  38794-3 0  9995
2 68879  51.8986 154.7882 0001240  92.4007 267.7098 14.79938964 22587
KUIPER-00489            
1 68880U 26095S   26267.96499945  .00000567  00000+0  10338-3 0  9995
2 68880  51.8959 146.9293 0001123 105.6073 254.5013 14.79931243 22706
KUIPER-00499            
1 68881U 26095T   26268.39855351  .00002306  00000+0  33147-3 0  9997
2 68881  51.8989 150.0770 0000837 102.1986 257.9071 14.79929655 22695
KUIPER-00500            
1 68882U 26095U   26267.90696808  .00002006  00000+0  29211-3 0  9998
2 68882  51.9014 169.7038 0000908 110.1023 250.0037 14.79933281 22382
KUIPER-00502            
1 68883U 26095V   26268.39685111  .00002792  00000+0  39510-3 0  9993
2 68883  51.8979 143.7895 0001411  89.2519 270.8605 14.79933897 22789
KUIPER-00503            
1 68884U 26095W   26268.41613505  .00002716  00000+0  38517-3 0  9997
2 68884  51.8977 164.9230 0001131  93.6252 266.4840 14.79933580 22497
KUIPER-00504            
1 68885U 26095X   26268.44181049  .00002961  00000+0  41731-3 0  9998
2 68885  51.9015 172.3427 0000787  88.6228 271.4824 14.79930124 22394
KUIPER-00505            
1 68886U 26095Y   26268.41883885  .00000397  00000+0  81146-4 0  9999
2 68886  51.9014 162.4439 0000889 102.4801 257.6261 14.79933923 22528
KUIPER-00507            
1 68887U 26095Z   26267.94003044  .00002426  00000+0  34708-3 0  9994
2 68887  51.8987 154.5474 0000929  99.1377 260.9690 14.79931231 22593
KUIPER-00511            
1 68888U 26095AA  26268.94419112  .00001979  00000+0  28847-3 0  9992
2 68888  51.8984 142.7183 0001158  90.1487 269.9608 14.79936720 22849
KUIPER-00512            
1 68889U 26095AB  26267.97719783  .00002665  00000+0  37841-3 0  9999
2 68889  51.8999 166.9020 0001059  89.2656 270.8427 14.79931983 22421
KUIPER-00519            
1 68890U 26095AC  26268.93340663  .00002874  00000+0  40582-3 0  9993
2 68890  51.9014 152.7376 0000763 100.1447 259.9601 14.79936435 22701
KUIPER-00521            
1 68891U 26095AD  26268.93169475  .00000265  00000+0  63773-4 0  9994
2 68891  51.9037 146.4397 0000712  92.3287 267.7757 14.79929191 22797
KUIPER-00524            
1 68892U 26095AE  26268.82940733  .00001911  00000+0  27969-3 0  9992
2 68892  51.8955 155.6019 0000985  92.8983 267.2092 14.79928874 22658
KUIPER-00370            
1 68919U 26098A   26268.45222695  .00000073  00000+0  38601-4 0  9998
2 68919  51.9013 334.6544 0000297  61.4588 298.6404 14.79928295 22332
KUIPER-00380            
1 68920U 26098B   26267.17727224  .00001135  00000+0  17781-3 0  9991
2 68920  51.9001 332.9261 0000259  52.8311 307.2675 14.79930326 22249
KUIPER-00386            
1 68921U 26098C   26268.47452194 -.00002090  00000+0 -24524-3 0  9993
2 68921  51.9001 329.6851 0000690  35.0244 325.0764 14.79941644 22405
KUIPER-00388            
1 68922U 26098D   26268.51439891  .00000074  00000+0  38749-4 0  9991
2 68922  51.9001 339.6718 0000314  68.1999 291.8997 14.79930674 22269
KUIPER-00405            
1 68923U 26098E   26268.46642967  .00002631  00000+0  37389-3 0  9995
2 68923  51.9038 337.2380 0000636 249.5210 110.5684 14.79938936 22299
KUIPER-00408            
1 68924U 26098F   26268.86281446  .00002591  00000+0  36878-3 0  9998
2 68924  51.9001 327.8973 0000529  81.0944 279.0078 14.79930666 22466
KUIPER-00409            
1 68925U 26098G   26268.90807616  .00000768  00000+0  12982-3 0  9991
2 68925  51.9007 332.7868 0000766  82.7834 277.3215 14.79927461 22395
KUIPER-00410            
1 68926U 26098H   26268.43804818 -.00000616  00000+0 -51892-4 0  9999
2 68926  51.8965 332.3348 0000313 160.1110 199.9864 14.79925915 22361
KUIPER-00412            
1 68927U 26098J   26267.68644571  .00000726  00000+0  12426-3 0  9993
2 68927  51.9041 328.1981 0000217  77.0983 283.0004 14.79933613 22355
KUIPER-00413            
1 68928U 26098K   26267.57166221  .00001064  00000+0  16853-3 0  9997
2 68928  51.9009 341.1753 0000164 247.8523 112.2422 14.79937127 22160
KUIPER-00414            
1 68929U 26098L   26268.40500438  .00003059  00000+0  42997-3 0  9997
2 68929  51.8988 347.5716 0000672 154.0463 206.0534 14.79938464 22140
KUIPER-00415            
1 68930U 26098M   26268.89659141  .00002728  00000+0  38669-3 0  9991
2 68930  51.9019 327.8343 0000493  84.4254 275.6765 14.79933817 22460
KUIPER-00416            
1 68931U 26098N   26268.44172655  .00002314  00000+0  33221-3 0  9993
2 68931  51.9035 321.1978 0000303  92.6549 267.4449 14.79958113 22518
KUIPER-00420            
1 68932U 26098P   26268.43195652  .00000860  00000+0  14180-3 0  9992
2 68932  51.9020 322.3500 0000433  89.8953 270.2059 14.79931518 22506
KUIPER-00421            
1 68933U 26098Q   26268.76419130  .00002302  00000+0  33086-3 0  9998
2 68933  51.9029 325.8655 0000440  81.7144 278.3869 14.79931482 22481
KUIPER-00425            
1 68934U 26098R   26268.48595966 -.00003463  00000+0 -42527-3 0  9991
2 68934  51.9010 334.6388 0001093 172.4316 187.6663 14.79956668 22338
KUIPER-00430            
1 68935U 26098S   26268.48330684  .00001677  00000+0  24898-3 0  9990
2 68935  51.9054 337.0555 0000700  86.7801 273.3242 14.79933011 22300
KUIPER-00431            
1 68936U 26098T   26268.41308586  .00000737  00000+0  12564-3 0  9993
2 68936  51.8992 339.9486 0000119 354.8086   5.2875 14.79932806 22252
KUIPER-00432            
1 68937U 26098U   26268.48869534  .00001386  00000+0  21075-3 0  9994
2 68937  51.9011 332.0129 0000318 140.5736 219.5249 14.79934935 22370
KUIPER-00434            
1 68938U 26098V   26268.48466911  .00001542  00000+0  25043-3 0  9990
2 68938  51.9022 336.2362 0001207 151.0425 209.0603 14.76397893 22313
KUIPER-00436            
1 68939U 26098W   26268.40159220  .00002772  00000+0  39234-3 0  9998
2 68939  51.9006 335.0130 0000327  83.5068 276.5932 14.79938832 22322
KUIPER-00438            
1 68940U 26098X   26268.87701278  .00002059  00000+0  29895-3 0  9997
2 68940  51.9033 330.4377 0000411  75.0082 285.0926 14.79936087 22421
KUIPER-00439            
1 68941U 26098Y   26268.45493434  .00000117  00000+0  44410-4 0  9998
2 68941  51.9049 332.2949 0000573  66.7351 293.3672 14.79926985 22368
KUIPER-00440            
1 68942U 26098Z   26268.41241772 -.00002947  00000+0 -35814-3 0  9993
2 68942  51.9039 324.9772 0000905 283.7698  76.3164 14.79892959 22463
KUIPER-00442            
1 68943U 26098AA  26268.47715354  .00001457  00000+0  22017-3 0  9996
2 68943  51.9022 327.2092 0000108 200.6017 159.4941 14.79912474 22433
KUIPER-00446            
1 68944U 26098AB  26267.56286955  .00000435  00000+0  86024-4 0  9990
2 68944  51.9014 333.7368 0000910 300.0884  59.9988 14.79934524 22267
KUIPER-00451            
1 68945U 26098AC  26268.90268146  .00000996  00000+0  15961-3 0  9995
2 68945  51.8991 337.7921 0000181  82.3322 277.7661 14.79931973 22327
KUIPER-00452            
1 68946U 26098AD  26267.43051257  .00002017  00000+0  29356-3 0  9995
2 68946  51.9035 331.8203 0000594  95.7807 264.3224 14.79934138 22288
KUIPER-00453            
1 68947U 26098AE  26268.86820200  .00001580  00000+0  23620-3 0  9998
2 68947  51.9007 322.8800 0001218 163.8593 196.2409 14.79934248 22532
KUIPER-00454            
1 68948U 26098AF  26268.51167341  .00000583  00000+0  10551-3 0  9992
2 68948  51.9002 342.0120 0000456 107.7319 252.3693 14.79928980 22235
KUIPER-00455            
1 68949U 26098AG  26268.46373512  .00003067  00000+0  43109-3 0  9991
2 68949  51.9014 339.7385 0001078 159.5552 200.5454 14.79937718 22262
KUIPER-00458            
1 68950U 26098AH  26268.44614424  .00000397  00000+0  81110-4 0  9999
2 68950  51.9021 324.8397 0000783  68.5882 291.5164 14.79932834 22461
KUIPER-00282            
1 69267U 26118A   26267.64388244  .00001189  00000+0  18492-3 0  9995
2 69267  51.8992 320.8406 0000144 284.8581  75.2365 14.79937152 18885
KUIPER-00383            
1 69268U 26118B   26267.52839780  .00002148  00000+0  31060-3 0  9991
2 69268  51.9004 318.8740 0000240  18.0301 342.0670 14.79943140 18904
KUIPER-00527            
1 69269U 26118C   26268.44007152  .00000950  00000+0  15359-3 0  9996
2 69269  51.8996 314.9749 0000363  65.9131 294.1869 14.79935654 19031
KUIPER-00562            
1 69270U 26118D   26268.41437132  .00002100  00000+0  30435-3 0  9991
2 69270  51.9041 307.4042 0000798  61.4869 298.6174 14.79939960 19143
KUIPER-00570            
1 69271U 26118E   26268.43467548  .00000395  00000+0  80857-4 0  9996
2 69271  51.9009 319.9713 0000334  46.0222 314.0768 14.79934218 18950
KUIPER-00572            
1 69272U 26118F   26268.42316822  .00000205  00000+0  55951-4 0  9991
2 69272  51.9031 314.9149 0000428  39.5830 320.5164 14.79927735 19038
KUIPER-00581            
1 69273U 26118G   26268.41777276  .00000789  00000+0  13251-3 0  9998
2 69273  51.9035 319.9485 0000263 226.2914 133.8026 14.79931960 19055
KUIPER-00584            
1 69274U 26118H   26268.46573288  .00001746  00000+0  25784-3 0  9999
2 69274  51.9019 322.3451 0000262  38.0104 322.0876 14.79942956 18936
KUIPER-00587            
1 69275U 26118J   26268.42586766  .00000898  00000+0  14674-3 0  9994
2 69275  51.9025 312.4122 0000435  72.5133 287.5877 14.79936760 19074
KUIPER-00590            
1 69276U 26118K   26267.54259494  .00000017  00000+0  31224-4 0  9996
2 69276  51.9044 321.3289 0000391 106.6747 253.4258 14.79931595 18873
KUIPER-00592            
1 69277U 26118L   26267.66074002  .00002121  00000+0  30716-3 0  9992
2 69277  51.9046 320.6854 0000242  69.2683 290.8305 14.79936314 18898
KUIPER-00593            
1 69278U 26118M   26267.54458225  .00000145  00000+0  48015-4 0  9999
2 69278  51.8997 303.8154 0001065 183.8714 176.2240 14.79930343 19174
KUIPER-00594            
1 69279U 26118N   26268.41707436  .00002026  00000+0  29468-3 0  9998
2 69279  51.9043 304.9667 0000919  80.8748 279.2319 14.79939903 19171
KUIPER-00595            
1 69280U 26118P   26267.57841615  .00001987  00000+0  28959-3 0  9993
2 69280  51.8991 303.6209 0000964 207.6858 152.4053 14.79940696 19159
KUIPER-00596            
1 69281U 26118Q   26268.44885150  .00001498  00000+0  22545-3 0  9995
2 69281  51.9032 322.3154 0000298  73.3664 286.7331 14.79932260 18930
KUIPER-00597            
1 69282U 26118R   26268.79115772  .00000853  00000+0  14094-3 0  9994
2 69282  51.8980 300.7974 0000858  46.4049 313.6984 14.79933449 19263
KUIPER-00599            
1 69283U 26118S   26268.81415429  .00001948  00000+0  28436-3 0  9991
2 69283  51.9018 310.6103 0000209   0.7432 359.3531 14.79937086 19132
KUIPER-00600            
1 69284U 26118T   26267.54188041  .00000644  00000+0  11348-3 0  9994
2 69284  51.8993 306.2360 0001763  53.8449 306.2676 14.79929697 19087
KUIPER-00601            
1 69285U 26118U   26268.43736421  .00002319  00000+0  33309-3 0  9997
2 69285  51.9034 317.3629 0000372  78.7840 281.3165 14.79934204 19000
KUIPER-00602            
1 69286U 26118V   26267.43248265  .00001994  00000+0  29045-3 0  9991
2 69286  51.9030 314.2201 0000454 279.3323  80.7588 14.79936567 18963
KUIPER-00603            
1 69287U 26118W   26267.51422020  .00002087  00000+0  30268-3 0  9997
2 69287  51.9059 316.4508 0000355  71.9284 288.1717 14.79939096 18936
KUIPER-00605            
1 69288U 26118X   26268.45154687  .00000970  00000+0  15618-3 0  9994
2 69288  51.9007 319.7831 0000473  51.5098 308.5907 14.79933413 18972
KUIPER-00606            
1 69289U 26118Y   26267.42981461  .00000438  00000+0  86490-4 0  9995
2 69289  51.9033 316.8212 0000426  45.9683 314.1315 14.79931978 18923
KUIPER-00607            
1 69290U 26118Z   26267.55876510  .00001957  00000+0  28558-3 0  9996
2 69290  51.9025 306.2550 0001520  20.7873 339.3151 14.79938424 19080
KUIPER-00608            
1 69291U 26118AA  26268.78848002  .00000110  00000+0  43502-4 0  9995
2 69291  51.9000 303.1745 0000738  75.5643 284.5401 14.79930177 19232
KUIPER-00610            
1 69292U 26118AB  26268.41168684 -.00000730  00000+0 -66737-4 0  9992
2 69292  51.9039 309.9776 0000741 109.1753 250.9290 14.79939541 19106
KUIPER-00613            
1 69293U 26118AC  26268.87359229 -.00003455  00000+0 -42439-3 0  9999
2 69293  51.9019 317.9325 0000241  55.6676 304.4310 14.79939283 19031
KUIPER-00618            
1 69294U 26118AD  26267.50272141  .00002061  00000+0  29923-3 0  9999
2 69294  51.9047 311.5038 0001390 215.8578 144.2292 14.79939143 19002
KUIPER-00620            
1 69295U 26118AE  26267.51691709  .00000625  00000+0  11102-3 0  9990
2 69295  51.9075 313.9466 0000427 359.7955   0.3008 14.79935072 18971
KUIPER-00423            
1 69592U 26140A   26268.91670139  .00101635  00000+0  13526-1 0  9997
2 69592  51.8990 280.2332 0003133   9.1111 188.3494 14.78775114  3081
KUIPER-00428            
1 69593U 26140B   26268.50373811  .00045576  00000+0  11991-2 0  9996
2 69593  51.8786 273.8676 0005385 298.8612  61.1834 15.38099698 16665
KUIPER-00481            
1 69594U 26140C   26267.56802376  .00001353  00000+0  22304-3 0  9991
2 69594  51.9010 291.1403 0002227 353.4497   6.6434 14.76504161 16341
KUIPER-00490            
1 69595U 26140D   26268.76818605 -.00000006  00000+0  28246-4 0  9994
2 69595  51.9046 290.8556 0000472  52.9496 307.1509 14.79932623 16451
KUIPER-00493            
1 69596U 26140E   26267.51351340  .00001871  00000+0  27435-3 0  9993
2 69596  51.9040 301.4540 0000859 327.2349  32.8560 14.79935083 16195
KUIPER-00496            
1 69597U 26140F   26268.91670139  .00010102  00000+0  12083-2 0  9998
2 69597  51.9016 279.0831 0006633 295.6298 161.0252 14.84639095  5224
KUIPER-00513            
1 69598U 26140G   26267.45137466  .00001911  00000+0  27967-3 0  9994
2 69598  51.9009 296.7220 0000356  59.7412 300.3585 14.79930967 16256
KUIPER-00516            
1 69599U 26140H   26268.91670139 -.00037720  00000+0 -35336-2 0  9993
2 69599  51.8947 274.9456 0008961 225.8492 250.8910 14.93558444  5879
KUIPER-00517            
1 69600U 26140J   26268.91670139 -.01098929  00000+0 -62083-1 0  9993
2 69600  51.8909 272.5280 0009747 188.4899 354.4464 15.15355001  5455
KUIPER-00520            
1 69601U 26140K   26267.44144174  .00001281  00000+0  21221-3 0  9999
2 69601  51.9019 298.8395 0000647 227.3179 132.7727 14.76607842 16226
KUIPER-00522            
1 69602U 26140L   26268.59323399  .00001921  00000+0  28346-3 0  9991
2 69602  51.9028 281.6751 0000198 355.1621   4.9339 14.79535129 16563
KUIPER-00528            
1 69603U 26140M   26267.49932977  .00000358  00000+0  75915-4 0  9996
2 69603  51.9047 299.0287 0000372  60.2272 299.8728 14.79929529 16223
KUIPER-00532            
1 69604U 26140N   26268.91670139  .00008589  00000+0  10646-2 0  9996
2 69604  51.9000 277.7841 0001560 205.4347 316.6865 14.83337553  4938
KUIPER-00533            
1 69605U 26140P   26267.42031351  .00001919  00000+0  28060-3 0  9999
2 69605  51.9026 294.3694 0000387  56.8553 303.2446 14.79940581 16285
KUIPER-00534            
1 69606U 26140Q   26267.56383278  .00006192  00000+0  22594-3 0  9997
2 69606  51.8788 279.5401 0012827 142.7728 217.4147 15.29404119 16509
KUIPER-00537            
1 69607U 26140R   26268.76280377  .00001161  00000+0  18126-3 0  9994
2 69607  51.9010 295.8456 0000907  14.5403 345.5586 14.79938057 16385
KUIPER-00538            
1 69608U 26140S   26267.44866432  .00003016  00000+0  42396-3 0  9998
2 69608  51.9057 299.1847 0000737   8.8443 351.2533 14.79988455 16225
KUIPER-00540            
1 69609U 26140T   26268.55478699  .00037683  00000+0  98249-3 0  9991
2 69609  51.8798 273.4718 0004750 291.2423  68.8056 15.38468220 16673
KUIPER-00541            
1 69610U 26140U   26268.91670139 -.01840221  00000+0 -15444+0 0  9991
2 69610  51.8944 273.2861 0007899 189.8859 260.0524 15.01623206  5757
KUIPER-00542            
1 69611U 26140V   26268.91670139 -.01174034  00000+0 -72499-1 0  9999
2 69611  51.8886 272.4028 0007922 182.5799 350.1669 15.12427924  5458
KUIPER-00543            
1 69612U 26140W   26268.91670139  .00005090  00000+0  65300-3 0  9997
2 69612  51.9030 277.7762 0003675 267.8021  76.4487 14.82651847  5455
KUIPER-00544            
1 69613U 26140X   26268.91670139 -.00018751  00000+0 -14050-2 0  9993
2 69613  51.8899 273.6973 0004680 174.3376 180.1755 15.01807646  5159
KUIPER-00546            
1 69614U 26140Y   26268.91670139  .00042575  00000+0  55769-2 0  9995
2 69614  51.8998 280.2458 0000417 161.9106 212.5025 14.79944383  3566
KUIPER-00547            
1 69615U 26140Z   26268.91670139 -.01819571  00000+0 -77502-1 0  9995
2 69615  51.8846 271.5152 0010857 175.0507 109.3722 15.26002436  5817
KUIPER-00549            
1 69616U 26140AA  26268.91670139  .00023107  00000+0  24461-2 0  9992
2 69616  51.8975 275.4927 0002116 274.6782 137.2076 14.89043865  4982
KUIPER-00550            
1 69617U 26140AB  26268.91670139  .00020676  00000+0  20047-2 0  9997
2 69617  51.8924 279.2895 0004481 323.1352 161.4265 14.92630277  2804
KUIPER-00551            
1 69618U 26140AC  26268.74872668  .00045959  00000+0  12025-2 0  9998
2 69618  51.8762 271.7506 0010648 159.6473 200.4940 15.38225343 16713
KUIPER-00554            
1 69619U 26140AD  26268.91670139  .00046460  00000+0  13965-2 0  9999
2 69619  51.8766 271.2166 0009615 178.1967 253.4814 15.33901642  3274
KUIPER-00555            
1 69620U 26140AE  26268.57089680  .00026392  00000+0  72054-3 0  9995
2 69620  51.8798 272.8444 0008996 167.4662 192.6550 15.37202217 16687
KUIPER-00556            
1 69621U 26140AF  26268.60749233  .00002385  00000+0  34136-3 0  9992
2 69621  51.8972 284.1107 0000814  95.1503 264.9552 14.79979249 16536
KUIPER-00557            
1 69622U 26140AG  26268.91670139 -.00080968  00000+0 -29739-2 0  9992
2 69622  51.8834 271.5217 0008210 183.6702 128.1281 15.27604932  4230
KUIPER-00560            
1 69623U 26140AH  26267.58020919  .00029557  00000+0  80787-3 0  9996
2 69623  51.8766 278.1604 0008249 203.6534 156.4075 15.37111015 16522
KUIPER-00561            
1 69624U 26140AJ  26268.33195554  .00000597  00000+0  10738-3 0  9991
2 69624  51.9008 290.3051 0000755  79.1921 280.9126 14.79926492 16422
KUIPER-00564            
1 69625U 26140AK  26268.00002315  .00026619  00000+0  35095-2 0  9993
2 69625  51.8963 289.2795 0000835 118.5947  77.8463 14.79901066  5761
KUIPER-00567            
1 69626U 26140AL  26267.42565479  .00006409  00000+0  86844-3 0  9998
2 69626  51.8989 289.3385 0001829 150.6909 209.4156 14.79959214 16352
KUIPER-00573            
1 69627U 26140AM  26267.45677246  .00001980  00000+0  28862-3 0  9993
2 69627  51.9016 291.7126 0000395  83.7307 276.3700 14.79927749 16323
KUIPER-00258            
1 69763U 26151A   26268.91670139 -.00052885  00000+0 -59952-2 0  9997
2 69763  51.8993 195.3396 0010300  63.4657 300.2630 14.86073226  3836
KUIPER-00526            
1 69764U 26151B   26268.87139203  .00000419  00000+0  84022-4 0  9997
2 69764  51.8970 210.5132 0000846  74.9598 285.1458 14.79931185 12899
KUIPER-00558            
1 69765U 26151C   26268.56748970  .00002080  00000+0  30172-3 0  9993
2 69765  51.8979 211.7764 0000696  95.6257 264.4785 14.79931532 12853
KUIPER-00569            
1 69766U 26151D   26267.97929580  .00001806  00000+0  26577-3 0  9995
2 69766  51.8994 211.8717 0000956  72.2338 287.8729 14.79940271 12802
KUIPER-00589            
1 69767U 26151E   26268.91428758  .00001383  00000+0  22701-3 0  9997
2 69767  51.9004 210.9394 0003004  77.8089 282.3208 14.76547123 12895
KUIPER-00598            
1 69768U 26151F   26267.93405598  .00000889  00000+0  14557-3 0  9996
2 69768  51.8932 207.0898 0000434  96.7640 263.3372 14.79934515 12864
KUIPER-00604            
1 69769U 26151G   26268.52224476  .00001727  00000+0  25524-3 0  9995
2 69769  51.9017 206.9869 0000623  63.3732 296.7294 14.79969744 12919
KUIPER-00609            
1 69770U 26151H   26268.55282840  .00001893  00000+0  29899-3 0  9992
2 69770  51.9025 204.2870 0002896  54.8766 305.2466 14.76630315 12956
KUIPER-00611            
1 69771U 26151J   26267.94823876 -.00000330  00000+0 -14298-4 0  9990
2 69771  51.8963 209.5066 0000929  74.3229 285.7836 14.79931686 12836
KUIPER-00612            
1 69772U 26151K   26267.92867250  .00003107  00000+0  43639-3 0  9996
2 69772  51.9000 212.1169 0001294 121.8684 238.2404 14.79937318 12790
KUIPER-00614            
1 69773U 26151L   26268.53913461  .00002582  00000+0  36752-3 0  9995
2 69773  51.8989 206.9626 0001367  79.8714 280.2403 14.79935374 12912
KUIPER-00615            
1 69774U 26151M   26268.55060362 -.00000411  00000+0 -24847-4 0  9995
2 69774  51.8963 211.7983 0000994 130.0365 230.0685 14.79929047 12850
KUIPER-00616            
1 69775U 26151N   26268.91670139 -.00040237  00000+0 -52162-2 0  9994
2 69775  51.8990 195.2498 0001078  38.5319 205.8434 14.80446245  3592
KUIPER-00617            
1 69776U 26151P   26268.52763029 -.00000966  00000+0 -97711-4 0  9999
2 69776  51.9003 201.9654 0000304 186.7066 173.3893 14.79942466 12989
KUIPER-00619            
1 69777U 26151Q   26267.27257925  .00001630  00000+0  26186-3 0  9998
2 69777  51.9011 209.8620 0001496 158.9256 201.1767 14.76591817 12767
KUIPER-00621            
1 69778U 26151R   26267.96512170  .00000791  00000+0  13279-3 0  9997
2 69778  51.9030 209.4484 0000896  99.4237 260.6827 14.79935957 12839
KUIPER-00622            
1 69779U 26151S   26267.95564878  .00002001  00000+0  31451-3 0  9997
2 69779  51.8992 213.5642 0001302  80.0488 280.0619 14.76578422 12770
KUIPER-00623            
1 69780U 26151T   26267.28710284  .00000053  00000+0  36008-4 0  9998
2 69780  51.8960 214.9571 0001257 106.3046 253.8054 14.79918152 12697
KUIPER-00626            
1 69781U 26151U   26267.98470128  .00000621  00000+0  11046-3 0  9991
2 69781  51.8979 206.8399 0000875 111.9643 248.1413 14.79933407 12872
KUIPER-00627            
1 69782U 26151V   26268.91670139 -.00021152  00000+0 -27538-2 0  9996
2 69782  51.9007 197.7473 0001259 122.2295 317.5125 14.79940335  4344
KUIPER-00629            
1 69783U 26151W   26267.97390248  .00000150  00000+0  48717-4 0  9999
2 69783  51.8962 216.8466 0000791 128.3590 231.7444 14.79931427 12739
KUIPER-00631            
1 69784U 26151X   26267.24796331  .00000301  00000+0  68427-4 0  9991
2 69784  51.9008 220.1209 0000503  93.2219 266.8801 14.79930187 12620
KUIPER-00634            
1 69785U 26151Y   26267.27025059  .00001162  00000+0  18147-3 0  9996
2 69785  51.9023 215.0214 0001042  97.4094 262.6987 14.79929320 12696
KUIPER-00639            
1 69786U 26151Z   26268.91670139 -.00021602  00000+0 -28219-2 0  9997
2 69786  51.9011 197.7302 0001232  39.7936 219.2578 14.79809280  5691
KUIPER-00641            
1 69787U 26151AA  26267.97051341  .00001309  00000+0  20078-3 0  9997
2 69787  51.8989 204.4352 0002249 139.8335 220.2794 14.79931049 12903
KUIPER-00644            
1 69788U 26151AB  26268.91670139 -.00539607  00000+0 -54658-1 0  9993
2 69788  51.9368 193.0748 0007762  71.3409 337.8738 14.92703645  5803
KUIPER-00646            
1 69789U 26151AC  26268.54452068  .00000221  00000+0  57954-4 0  9990
2 69789  51.8971 201.9776 0001046 101.0547 259.0533 14.79926558 12986
KUIPER-00647            
1 69790U 26151AD  26268.91670139 -.00021410  00000+0 -30208-2 0  9990
2 69790  51.8995 199.9151 0002144 337.6454 258.9443 14.76556164  5384
KUIPER-00662            
1 69791U 26151AE  26267.28183204  .00002446  00000+0  34978-3 0  9997
2 69791  51.9009 219.9679 0000308  45.0612 315.0375 14.79929620 12624
