ORBCOMM FM06            
1 25118U 97084G   26256.01244420  .00000796  00000+0  25257-3 0  9998
2 25118  45.0151 349.8533 0001701 238.3336 290.9806 14.47742852507119
ORBCOMM FM04            
1 25159U 98007C   26256.04068597  .00000566  00000+0  23867-3 0  9991
2 25159 107.9604 350.2362 0040652 175.3605 184.7920 14.35860369489205
ORBCOMM FM19            
1 25415U 98046C   26256.16130750  .00000732  00000+0  27731-3 0  9992
2 25415  44.9929 185.3389 0004687  10.8382 122.0764 14.39633612469458
ORBCOMM FM20            
1 25416U 98046D   26256.09815858  .00000440  00000+0  19021-3 0  9993
2 25416  44.9929 194.5424 0002336 339.7438  20.3317 14.38168631469441
ORBCOMM FM27            
1 25481U 98053G   26255.44238925  .00000530  00000+0  21485-3 0  9992
2 25481  45.0049 280.8737 0002932 276.8151  83.2364 14.39272595462808
ORBCOMM FM32            
1 25982U 99065C   26255.66840015  .00000439  00000+0  19325-3 0  9993
2 25982  45.0147 119.1209 0005945 126.3141 233.8257 14.37236529399679
ORBCOMM FM109           
1 40086U 14040A   26255.76014818  .00000255  00000+0  90154-4 0  9996
2 40086  47.0041  37.4239 0002076 257.1791 102.8863 14.58915833647137
ORBCOMM FM110           
1 41182U 15081D   26256.17330590  .00000358  00000+0  11175-3 0  9993
2 41182  47.0023 305.3814 0002075 141.9647 218.1386 14.58987250570475
ORBCOMM FM118           
1 41183U 15081E   26256.13994042  .00000365  00000+0  11322-3 0  9990
2 41183  47.0045 305.8967 0001724  75.0490 285.0587 14.58970440570577
ORBCOMM FM112           
1 41184U 15081F   26256.14323227  .00000402  00000+0  12115-3 0  9996
2 41184  46.9981 214.2981 0003573 262.8628  97.1851 14.58955210571796
ORBCOMM FM113           
1 41185U 15081G   26255.23250501  .00000224  00000+0  83463-4 0  9997
2 41185  46.9995 219.0262 0002377 263.6836  96.3779 14.58929023571645
ORBCOMM FM108           
1 41187U 15081J   26256.01475880  .00000417  00000+0  12421-3 0  9994
2 41187  47.0041 126.9137 0002546 249.9033 110.1579 14.58977566572900
ORBCOMM FM117           
1 41188U 15081K   26255.98110153  .00000401  00000+0  12080-3 0  9993
2 41188  47.0005 125.6871 0003013 254.7539 105.3014 14.58959638572941
ORBCOMM FM116           
1 41189U 15081L   26256.16696558  .00000283  00000+0  95796-4 0  9997
2 41189  47.0013 214.6058 0000430  92.4204 267.6731 14.58956938571782
