QIANFAN-1               
1 60379U 24140A   26271.20451167  .00000017  00000+0  68039-5 0  9998
2 60379  88.9663 269.2214 0019669  97.7513 262.5872 13.51026234106439
QIANFAN-2               
1 60380U 24140B   26271.23336311  .00000005  00000+0 -11615-4 0  9991
2 60380  88.9650 269.0186 0014821  73.8741 286.4041 13.51020611106498
QIANFAN-3               
1 60381U 24140C   26271.24174070  .00000015  00000+0  40540-5 0  9995
2 60381  88.9642 269.1283 0016075  84.4751 275.8234 13.51023357106408
QIANFAN-4               
1 60382U 24140D   26271.21693624  .00000008  00000+0 -69467-5 0  9996
2 60382  88.9667 269.1014 0015104  75.9912 284.2917 13.51021182106523
QIANFAN-5               
1 60383U 24140E   26271.26615033  .00000012  00000+0 -24398-6 0  9990
2 60383  88.9642 269.1500 0017325  94.2012 266.1120 13.51031682106395
QIANFAN-6               
1 60384U 24140F   26271.21279293  .00000014  00000+0  25124-5 0  9998
2 60384  88.9669 268.9805 0015273  81.0856 279.2024 13.51024329106589
QIANFAN-7               
1 60385U 24140G   26271.25548567  .00000155  00000+0  56500-4 0  9993
2 60385  88.9726 259.6375 0015629 158.5602 201.6250 14.27895770111707
QIANFAN-8               
1 60386U 24140H   26271.14707784  .00000010  00000+0 -35798-5 0  9998
2 60386  88.9670 269.2282 0018732  82.8963 277.4317 13.51026311106428
QIANFAN-9               
1 60387U 24140J   26271.27046097  .00000009  00000+0 -51276-5 0  9993
2 60387  88.9668 269.2849 0018430  82.3882 277.9362 13.51022051106427
QIANFAN-10              
1 60388U 24140K   26271.20049685  .00000005  00000+0 -10910-4 0  9998
2 60388  88.9680 268.6703 0016620  62.7899 297.4943 13.51022163106542
QIANFAN-11              
1 60389U 24140L   26270.79328594  .00000023  00000+0  16012-4 0  9999
2 60389  88.9603 269.0818 0016455  83.5047 276.7977 13.51025230106143
QIANFAN-12              
1 60390U 24140M   26271.18410320  .00000020  00000+0  11304-4 0  9990
2 60390  88.9647 269.2102 0015302  89.6735 270.6170 13.51023977106326
QIANFAN-13              
1 60391U 24140N   26271.15526024  .00000013  00000+0  19076-5 0  9994
2 60391  88.9907 269.4778 0015131  91.7471 268.5413 13.51024103106348
QIANFAN-14              
1 60392U 24140P   26271.25411066  .00000013  00000+0  12426-5 0  9997
2 60392  88.9638 269.1742 0018816  91.7884 268.5422 13.51026070106366
QIANFAN-15              
1 60393U 24140Q   26271.18812400  .00000026  00000+0  21235-4 0  9998
2 60393  88.9662 269.2065 0014548  80.1522 280.1271 13.51028633106349
QIANFAN-16              
1 60394U 24140R   26271.24983882  .00000015  00000+0  42497-5 0  9991
2 60394  88.9664 269.3282 0016742  95.1285 265.1777 13.51025433106264
QIANFAN-17              
1 60395U 24140S   26271.24588589  .00000014  00000+0  30016-5 0  9990
2 60395  88.9675 269.4062 0017132  89.6347 270.6768 13.51021835107225
QIANFAN-18              
1 60396U 24140T   26271.22531229  .00000028  00000+0  24255-4 0  9990
2 60396  88.9669 268.9233 0016379  74.6845 285.6115 13.51026274106618
QIANFAN-19              
1 61552U 24185A   26271.21219874  .00000283  00000+0  14029-3 0  9992
2 61552  88.9871  44.7819 0009009  95.5619 264.6596 14.14536294110580
QIANFAN-20              
1 61553U 24185B   26271.15727561  .00000414  00000+0  23052-3 0  9995
2 61553  88.9866  45.3973 0007187 129.5965 230.5855 14.09079585110242
QIANFAN-21              
1 61554U 24185C   26271.15409497  .00000417  00000+0  17886-3 0  9992
2 61554  88.9791  43.0951 0012265 133.5149 226.7065 14.22939959111126
QIANFAN-22              
1 61555U 24185D   26271.21220231  .00000069  00000+0  48481-4 0  9996
2 61555  88.9845  47.5386 0006688 172.5517 187.5755 13.86431958109045
QIANFAN-23              
1 61556U 24185E   26271.20017219  .00000242  00000+0  11447-3 0  9990
2 61556  88.9863  44.4582 0009546 102.0606 258.1652 14.16557027110721
QIANFAN-24              
1 61557U 24185F   26271.19182546  .00000420  00000+0  17592-3 0  9990
2 61557  88.9850  43.3931 0011642  78.6173 281.6326 14.24164284111213
QIANFAN-25              
1 61558U 24185G   26271.22805730  .00000401  00000+0  23554-3 0  9996
2 61558  88.9859  45.4393 0013764 148.4739 211.7271 14.06137715110186
QIANFAN-26              
1 61559U 24185H   26271.20823737  .00000136  00000+0  12237-3 0  9993
2 61559  88.9850  48.5129 0005099 196.9748 163.1249 13.77947593108530
QIANFAN-27              
1 61560U 24185J   26271.18215484  .00000388  00000+0  15165-3 0  9998
2 61560  88.9861  43.0276 0009165  67.8860 292.3306 14.27610691111452
QIANFAN-28              
1 61561U 24185K   26271.28033559  .00000546  00000+0  21216-3 0  9991
2 61561  88.9879  43.0314 0009016  65.6800 294.5336 14.28497237111503
QIANFAN-29              
1 61562U 24185L   26271.23947800  .00000137  00000+0  19351-3 0  9993
2 61562  88.9817  51.3897 0008128 297.6405  62.3920 13.51097021106882
QIANFAN-30              
1 61563U 24185M   26271.21106586  .00000118  00000+0  16675-3 0  9995
2 61563  88.9838  51.0292 0005793 280.8800  79.1699 13.50078161107120
QIANFAN-31              
1 61564U 24185N   26271.17340907  .00000137  00000+0  17305-3 0  9990
2 61564  88.9823  50.3758 0005293 259.5486 100.5073 13.58067844107446
QIANFAN-32              
1 61565U 24185P   26271.16937616  .00000103  00000+0  14140-3 0  9996
2 61565  88.9877  51.2517 0008179 319.1465  40.9072 13.50807899107119
QIANFAN-33              
1 61566U 24185Q   26271.20101503  .00000257  00000+0  17513-3 0  9997
2 61566  88.9848  46.5455 0009221 133.1566 227.0383 13.96758092109565
QIANFAN-34              
1 61567U 24185R   26271.19105880  .00000320  00000+0  19926-3 0  9999
2 61567  88.9828  45.7281 0007197 131.2189 228.9612 14.02527815109922
QIANFAN-35              
1 61568U 24185S   26271.19822840  .00000470  00000+0  18214-3 0  9997
2 61568  88.9860  42.9167 0008107  64.9813 295.2223 14.28366247111497
QIANFAN-36              
1 61569U 24185T   26271.22765948  .00000079  00000+0  96336-4 0  9994
2 61569  88.9814  50.8806 0004512 283.2093  76.8557 13.55648595107145
QIANFAN-37              
1 62238U 24232B   26271.28211784  .00000117  00000+0  16339-3 0  9998
2 62238  89.0164  12.2655 0001691  89.3521 270.7824 13.51032201138265
QIANFAN-38              
1 62239U 24232C   26271.23284171  .00000107  00000+0  14732-3 0  9998
2 62239  89.0171  12.2058 0016331  82.2199 278.0806 13.51030316138313
QIANFAN-39              
1 62240U 24232D   26271.26428640  .00000340  00000+0  13731-3 0  9991
2 62240  89.0145   4.3677 0015484 202.1128 157.9399 14.25567123142633
QIANFAN-40              
1 62241U 24232E   26271.26576182  .00000111  00000+0  15298-3 0  9993
2 62241  89.0198  11.8678 0015526  89.3771 270.9159 13.51030669138680
QIANFAN-41              
1 62242U 24232F   26271.27395439  .00000117  00000+0  16299-3 0  9997
2 62242  89.0169  12.1478 0015671  78.7532 281.5380 13.51031785138346
QIANFAN-42              
1 62243U 24232G   26271.23626311  .00000322  00000+0  13208-3 0  9995
2 62243  89.0143   4.4609 0014041 209.0879 150.9532 14.24653905142586
QIANFAN-43              
1 62244U 24232H   26271.26985063  .00000103  00000+0  14067-3 0  9992
2 62244  89.0173  12.2263 0017298  83.1001 277.2117 13.51031205106953
QIANFAN-44              
1 62245U 24232J   26271.25752890  .00000094  00000+0  12724-3 0  9999
2 62245  89.0172  12.0336 0015476  80.8548 279.4354 13.51031442138425
QIANFAN-45              
1 62246U 24232K   26271.22463782  .00000087  00000+0  11622-3 0  9994
2 62246  89.0175  12.1937 0016132  80.4547 279.8427 13.51030120138340
QIANFAN-46              
1 62247U 24232L   26271.24925539  .00000107  00000+0  14665-3 0  9993
2 62247  89.0171  12.2484 0016270  85.2674 275.0335 13.51031285138307
QIANFAN-47              
1 62248U 24232M   26271.25341859  .00000103  00000+0  14007-3 0  9998
2 62248  89.0167  12.1693 0016677  84.4259 275.8793 13.51030546138333
QIANFAN-48              
1 62249U 24232N   26271.29057955  .00000102  00000+0  13840-3 0  9997
2 62249  89.0171  12.1788 0018958  86.3486 273.9833 13.51024921138346
QIANFAN-49              
1 62250U 24232P   26271.27809647  .00000109  00000+0  14941-3 0  9990
2 62250  89.0170  12.1902 0015968  82.0666 278.2297 13.51032001106936
QIANFAN-50              
1 62251U 24232Q   26271.22868882  .00000108  00000+0  14885-3 0  9998
2 62251  89.0175  12.2190 0017643  83.0696 277.2461 13.51031498106951
QIANFAN-51              
1 62252U 24232R   26271.28633783  .00000108  00000+0  14764-3 0  9991
2 62252  89.0170  12.1894 0015169  86.7683 273.5204 13.51030485106953
QIANFAN-52              
1 62253U 24232S   26271.24103930  .00000116  00000+0  16081-3 0  9997
2 62253  89.0166  12.0561 0017091  79.4108 280.8967 13.51032501107034
QIANFAN-53              
1 62254U 24232T   26271.22056051  .00000091  00000+0  12250-3 0  9993
2 62254  89.0173  12.1846 0015987  80.7174 279.5784 13.51029151106993
QIANFAN-54              
1 62255U 24232U   26271.26163154  .00000101  00000+0  13774-3 0  9995
2 62255  89.0164  11.8334 0004103 113.3516 246.8068 13.51031048138505
QIANFAN-55              
1 62785U 25016A   26271.21370925  .00000022  00000+0  15996-4 0  9996
2 62785  88.9681  73.1527 0016029 227.7399 132.2393 13.51025320 86270
QIANFAN-56              
1 62786U 25016B   26271.15591528  .00000031  00000+0  30041-4 0  9992
2 62786  88.9655  72.9181 0014584 230.3888 129.5976 13.51028633 86313
QIANFAN-57              
1 62787U 25016C   26271.18899368  .00000030  00000+0  28240-4 0  9996
2 62787  88.9685  73.1582 0002223  77.8284 282.3116 13.51028309 86286
QIANFAN-58              
1 62788U 25016D   26271.23427689  .00000022  00000+0  15092-4 0  9998
2 62788  88.9656  72.8972 0012658 221.1062 138.9137 13.51027785 86337
QIANFAN-59              
1 62789U 25016E   26271.18474720  .00000025  00000+0  19804-4 0  9999
2 62789  88.9679  73.0442 0012938 225.5574 134.4519 13.51025080 86325
QIANFAN-60              
1 62790U 25016F   26271.21764693  .00000026  00000+0  21959-4 0  9991
2 62790  88.9660  72.9571 0014561 222.1469 137.8563 13.51028631 86318
QIANFAN-61              
1 62791U 25016G   26271.17654922  .00000022  00000+0  16252-4 0  9996
2 62791  88.9726  73.3200 0013540 221.4024 138.6102 13.51028101 86322
QIANFAN-62              
1 62792U 25016H   26271.18078607  .00000026  00000+0  21833-4 0  9993
2 62792  88.9674  73.0327 0014873 222.0866 137.9144 13.51027500 86312
QIANFAN-63              
1 62793U 25016J   26271.20542786  .00000016  00000+0  55517-5 0  9997
2 62793  88.9681  73.0012 0014814 227.8413 132.1481 13.51023474 86359
QIANFAN-64              
1 62794U 25016K   26271.17245979  .00000022  00000+0  15010-4 0  9998
2 62794  88.9668  72.9401 0012913 219.5228 140.4982 13.51028087 86347
QIANFAN-65              
1 62795U 25016L   26271.16826677  .00000018  00000+0  85853-5 0  9996
2 62795  88.9664  72.9561 0012720 221.3418 138.6771 13.51024209 86324
QIANFAN-66              
1 62796U 25016M   26271.19711095  .00000027  00000+0  23757-4 0  9991
2 62796  88.9684  72.9801 0013926 216.9988 143.0204 13.51020355 86379
QIANFAN-67              
1 62797U 25016N   26271.20118719  .00000028  00000+0  24632-4 0  9992
2 62797  88.9674  72.9768 0013738 224.4438 135.5612 13.51020572 86343
QIANFAN-68              
1 62798U 25016P   26271.19305715  .00000031  00000+0  29911-4 0  9994
2 62798  88.9677  73.0331 0013856 222.1743 137.8343 13.51022512 86320
QIANFAN-69              
1 62799U 25016Q   26271.20939869 -.00000073  00000+0 -13212-3 0  9994
2 62799  88.9656  72.8397 0014614 224.1674 135.8311 13.51024258 86361
QIANFAN-70              
1 62800U 25016R   26271.15193322  .00000040  00000+0  43094-4 0  9991
2 62800  88.9676  73.0439 0014381 213.5408 146.4834 13.51024600 86318
QIANFAN-71              
1 62801U 25016S   26271.14774701  .00000030  00000+0  27582-4 0  9990
2 62801  88.9671  73.0065 0014387 227.9114 132.0814 13.51027394 86310
QIANFAN-72              
1 62802U 25016T   26271.23836532  .00000024  00000+0  18834-4 0  9995
2 62802  88.9661  72.9822 0017519 236.2150 123.7333 13.51029215 86319
QIANFAN-73              
1 63159U 25046A   26271.26531685  .00000018  00000+0  84305-5 0  9998
2 63159  88.9632 289.9528 0015238  14.7949 345.3645 13.51025874 86503
QIANFAN-74              
1 63160U 25046B   26271.24895317  .00000011  00000+0 -22539-5 0  9998
2 63160  88.9633 289.8443 0001841  98.7563 261.3797 13.51018631 86564
QIANFAN-75              
1 63161U 25046C   26271.23654439  .00000090  00000+0  12117-3 0  9991
2 63161  88.9634 290.0835 0016488  17.8263 342.3463 13.51032366 86434
QIANFAN-76              
1 63162U 25046D   26271.23257189 -.00000100  00000+0 -17381-3 0  9995
2 63162  88.9635 290.0637 0013995  19.3340 340.8339 13.51019061 86442
QIANFAN-77              
1 63163U 25046E   26271.29645469  .00000081  00000+0  48839-4 0  9993
2 63163  88.9640 285.6761 0012620 254.1130 105.8656 13.96248541 88851
QIANFAN-78              
1 63164U 25046F   26271.27423287  .00000065  00000+0  82603-4 0  9993
2 63164  88.9633 289.9209 0015449  20.5325 339.6444 13.51013356 86520
QIANFAN-79              
1 63165U 25046G   26271.22832463  .00000020  00000+0  11831-4 0  9995
2 63165  88.9636 290.0432 0015128  19.4615 340.7111 13.51021355 86463
QIANFAN-80              
1 63166U 25046H   26271.17067108  .00000065  00000+0  82371-4 0  9992
2 63166  88.9634 289.7482 0014213  24.5479 335.6346 13.51030979 86613
QIANFAN-81              
1 63167U 25046J   26271.22417600  .00000089  00000+0  11903-3 0  9993
2 63167  88.9633 289.8098 0015020  13.6063 346.5491 13.51022324 86574
QIANFAN-82              
1 63168U 25046K   26271.25717742  .00000060  00000+0  73985-4 0  9995
2 63168  88.9634 289.8508 0013152  21.2610 338.9085 13.51021813 86564
QIANFAN-83              
1 63169U 25046L   26271.22013749  .00000043  00000+0  39931-4 0  9993
2 63169  88.9636 289.0601 0013360 349.6771  10.4110 13.62065568 87007
QIANFAN-84              
1 63170U 25046M   26271.28600801 -.00000047  00000+0 -91524-4 0  9994
2 63170  88.9635 289.9803 0016009  16.0647 344.1008 13.51015866 86490
QIANFAN-85              
1 63171U 25046N   26271.28181169  .00000064  00000+0  80985-4 0  9992
2 63171  88.9633 289.8503 0013668  19.6644 340.5031 13.51022142 86568
QIANFAN-86              
1 63172U 25046P   26271.28998609  .00000072  00000+0  92388-4 0  9997
2 63172  88.9635 289.7183 0011710  25.2230 334.9491 13.51027247 86641
QIANFAN-87              
1 63173U 25046Q   26271.26119103  .00000014  00000+0  24423-5 0  9992
2 63173  88.9632 289.8221 0012036  19.4713 340.6896 13.51020505 86571
QIANFAN-88              
1 63174U 25046R   26271.20360871  .00000073  00000+0  93987-4 0  9992
2 63174  88.9634 289.7900 0012777  28.3313 331.8530 13.51020672 86598
QIANFAN-89              
1 63175U 25046S   26271.24063602  .00000079  00000+0  10414-3 0  9998
2 63175  88.9634 289.9749 0016921  16.2264 343.9425 13.51021404 86498
QIANFAN-90              
1 63176U 25046T   26271.26951192  .00000027  00000+0  23774-4 0  9998
2 63176  88.9634 289.9452 0013814  16.3104 343.8489 13.51020164 86516
QIANFAN-91              
1 66033U 25233A   26270.85749531  .00000084  00000+0  11170-3 0  9996
2 66033  89.0067  32.8153 0001661  97.6895 262.4445 13.51030648 47043
QIANFAN-92              
1 66034U 25233B   26270.86614796  .00000087  00000+0  11671-3 0  9991
2 66034  89.0052  32.7694 0002229 100.9417 259.1985 13.51028086 47041
QIANFAN-93              
1 66035U 25233C   26271.24452084  .00000076  00000+0  99386-4 0  9993
2 66035  89.0079  32.8110 0001705  96.4541 263.6804 13.51039870 47098
QIANFAN-94              
1 66036U 25233D   26271.08386390  .00000082  00000+0  10798-3 0  9998
2 66036  89.0075  32.7269 0001760 103.7036 256.4312 13.51029078 47128
QIANFAN-95              
1 66037U 25233E   26271.24023469  .00000076  00000+0  98515-4 0  9999
2 66037  89.0074  32.2525 0001581 102.1230 258.0099 13.51028978 47395
QIANFAN-96              
1 66038U 25233F   26270.82048121  .00000084  00000+0  11100-3 0  9998
2 66038  89.0070  32.8351 0001613  96.4638 263.6697 13.51030123 47030
QIANFAN-97              
1 66039U 25233G   26271.24833485  .00000073  00000+0  94656-4 0  9997
2 66039  89.0073  32.7796 0001721  97.5884 262.5463 13.51040079 47097
QIANFAN-98              
1 66040U 25233H   26270.88634745  .00000078  00000+0  10281-3 0  9992
2 66040  89.0062  32.5359 0001805 116.5328 243.6008 13.51030313 47194
QIANFAN-99              
1 66041U 25233J   26271.11252706  .00000086  00000+0  11531-3 0  9991
2 66041  89.0074  32.7979 0001618 114.0766 246.0555 13.51036958 47082
QIANFAN-100             
1 66042U 25233K   26271.25248745  .00000072  00000+0  93482-4 0  9996
2 66042  89.0085  32.7224 0001592  95.1308 265.0025 13.51055891 47158
QIANFAN-101             
1 66043U 25233L   26271.24494774  .00000235  00000+0  90707-4 0  9999
2 66043  89.0074  28.7499 0016039 158.6633 201.5234 14.26865221 49321
QIANFAN-102             
1 66044U 25233M   26270.82873371  .00000077  00000+0  10123-3 0  9994
2 66044  89.0072  32.7337 0001729 104.8047 255.3296 13.51029706 47092
QIANFAN-103             
1 66045U 25233N   26270.83288476  .00000073  00000+0  93837-4 0  9992
2 66045  89.0074  32.8313 0001703  97.7530 262.3814 13.51029739 47044
QIANFAN-104             
1 66046U 25233P   26270.83692238  .00000070  00000+0  89334-4 0  9992
2 66046  89.0079  32.7377 0001824 105.1245 255.0109 13.51027653 47094
QIANFAN-105             
1 66047U 25233Q   26271.06744287  .00000081  00000+0  10759-3 0  9997
2 66047  89.0092  32.5714 0001788 101.6991 258.4361 13.51030951 47239
QIANFAN-106             
1 66048U 25233R   26270.84102406  .00000072  00000+0  92963-4 0  9992
2 66048  89.0061  32.7747 0001765 114.4674 245.6662 13.51031267 47041
QIANFAN-107             
1 66049U 25233S   26271.07145792  .00000086  00000+0  11474-3 0  9996
2 66049  89.0077  32.8003 0001730  98.9826 261.1521 13.51030569 47087
QIANFAN-108             
1 66050U 25233T   26270.85344702  .00000085  00000+0  11237-3 0  9991
2 66050  89.0070  32.8027 0001785 112.8755 247.2585 13.51030299 47057
QIANFAN-109             
1 68636U 26075A   26271.23767489  .00000038  00000+0  40912-4 0  9993
2 68636  88.9850 310.4935 0001806  83.7519 276.3838 13.51021557 23701
QIANFAN-110             
1 68637U 26075B   26271.24584002  .00000046  00000+0  52926-4 0  9990
2 68637  88.9850 310.5142 0002176  95.0346 265.1053 13.51022454 23700
QIANFAN-111             
1 68638U 26075C   26271.15968567  .00000043  00000+0  47175-4 0  9990
2 68638  88.9849 310.4818 0002153  94.7289 265.4108 13.51024993 23710
QIANFAN-112             
1 68639U 26075D   26271.19661877  .00000042  00000+0  46912-4 0  9996
2 68639  88.9847 310.4858 0002030  81.9462 278.1920 13.51024332 23718
QIANFAN-113             
1 68640U 26075E   26271.24175179  .00000052  00000+0  61842-4 0  9999
2 68640  88.9853 310.4806 0002177  91.8091 268.3309 13.51021026 23720
QIANFAN-114             
1 68641U 26075F   26271.24995438  .00000053  00000+0  63383-4 0  9991
2 68641  88.9848 310.4939 0002143  94.5782 265.5614 13.51019579 23719
QIANFAN-115             
1 68642U 26075G   26271.27883708  .00000048  00000+0  55114-4 0  9998
2 68642  88.9848 310.4983 0001983  93.8721 266.2657 13.51025255 23718
QIANFAN-116             
1 68643U 26075H   26271.26646278  .00000039  00000+0  42197-4 0  9994
2 68643  88.9841 310.4524 0002128  84.7839 275.3555 13.51025805 23724
QIANFAN-117             
1 68644U 26075J   26271.18016501  .00000051  00000+0  59830-4 0  9992
2 68644  88.9846 310.4817 0001986  88.9452 271.1926 13.51023631 23713
QIANFAN-118             
1 68645U 26075K   26271.21299256  .00000051  00000+0  60735-4 0  9993
2 68645  88.9851 310.4913 0002266  95.9755 264.1654 13.51025336 23717
QIANFAN-119             
1 68646U 26075L   26271.26231271  .00000053  00000+0  63176-4 0  9996
2 68646  88.9851 310.4819 0001790  88.2209 271.9147 13.51021221 23726
QIANFAN-120             
1 68647U 26075M   26271.20063702  .00000045  00000+0  51091-4 0  9997
2 68647  88.9852 310.4749 0001720  88.8032 271.3316 13.51021007 23727
QIANFAN-121             
1 68648U 26075N   26271.15136371  .00000049  00000+0  57412-4 0  9992
2 68648  88.9850 310.4826 0002183  96.0400 264.1000 13.51024477 23719
QIANFAN-122             
1 68649U 26075P   26271.21712043  .00000050  00000+0  58626-4 0  9996
2 68649  88.9849 310.4728 0001940  86.9682 273.1692 13.51028041 23717
QIANFAN-123             
1 68650U 26075Q   26271.18414601  .00000051  00000+0  59877-4 0  9993
2 68650  88.9846 310.4628 0001815  81.0425 279.0932 13.51020962 23690
QIANFAN-124             
1 68651U 26075R   26271.20891901  .00000043  00000+0  48428-4 0  9990
2 68651  88.9848 310.4720 0001929  85.1657 274.9715 13.51027501 23727
QIANFAN-125             
1 68652U 26075S   26271.22131076  .00000054  00000+0  65195-4 0  9995
2 68652  88.9848 310.4727 0002205  95.3847 264.7556 13.51024619 23724
QIANFAN-126             
1 68653U 26075T   26271.15532263  .00000053  00000+0  63577-4 0  9992
2 68653  88.9852 310.4493 0001808  81.9457 278.1899 13.51020225 23735
QIANFAN-127             
1 69073U 26104A   26271.23479057  .00000080  00000+0  10482-3 0  9998
2 69073  88.9910 330.9658 0002508  98.0269 262.1167 13.51029154 19078
QIANFAN-128             
1 69074U 26104B   26271.24292521  .00000069  00000+0  87866-4 0  9997
2 69074  88.9888 330.9870 0002393 109.5537 250.5873 13.51024656 19052
QIANFAN-129             
1 69075U 26104C   26271.19348216  .00000082  00000+0  10767-3 0  9995
2 69075  88.9890 330.9266 0002389 104.7116 255.4300 13.51024671 19089
QIANFAN-130             
1 69076U 26104D   26271.23050765  .00000076  00000+0  99693-4 0  9999
2 69076  88.9893 330.9888 0002405  92.9693 267.1734 13.51022762 19057
QIANFAN-131             
1 69077U 26104E   26271.17717078  .00000072  00000+0  93505-4 0  9992
2 69077  88.9886 330.9542 0002141 106.1955 253.9431 13.51026860 19064
QIANFAN-132             
1 69078U 26104F   26271.23875514  .00000083  00000+0  10975-3 0  9991
2 69078  88.9888 331.0047 0002328  96.5035 263.6381 13.51023084 19042
QIANFAN-133             
1 69079U 26104G   26271.24703774  .00000077  00000+0  10035-3 0  9991
2 69079  88.9892 330.9544 0002167 112.1431 247.9951 13.51031924 19066
QIANFAN-134             
1 69080U 26104H   26271.20176304  .00000084  00000+0  11174-3 0  9995
2 69080  88.9896 330.9857 0002338 109.5012 250.6392 13.51030210 19050
QIANFAN-135             
1 69081U 26104J   26271.18114881  .00000067  00000+0  84863-4 0  9992
2 69081  88.9889 330.9780 0002564 107.2987 252.8444 13.51023340 19053
QIANFAN-136             
1 69082U 26104K   26271.18933856  .00000086  00000+0  11435-3 0  9999
2 69082  88.9892 330.9804 0002236 110.4019 249.7372 13.51020095 19052
QIANFAN-137             
1 69083U 26104L   26271.18533739  .00000061  00000+0  76309-4 0  9991
2 69083  88.9900 330.8582 0002216  98.1371 262.0032 13.51022961 19129
QIANFAN-138             
1 69084U 26104M   26271.20994888  .00000076  00000+0  99515-4 0  9991
2 69084  88.9885 330.9776 0002547 101.4799 258.6638 13.51022830 19057
QIANFAN-139             
1 69085U 26104N   26271.19772956  .00000082  00000+0  10761-3 0  9992
2 69085  88.9887 330.9608 0002431  96.6508 263.4920 13.51031520 19064
QIANFAN-140             
1 69086U 26104P   26271.20584201  .00000082  00000+0  10772-3 0  9991
2 69086  88.9888 330.9636 0002618 105.8279 254.3161 13.51023958 19064
QIANFAN-141             
1 69087U 26104Q   26271.21415260  .00000067  00000+0  84655-4 0  9996
2 69087  88.9885 330.9267 0002456 108.5152 251.6266 13.51021713 19087
QIANFAN-142             
1 69088U 26104R   26271.22229504  .00000072  00000+0  93145-4 0  9992
2 69088  88.9884 330.9251 0002525 102.5209 257.6225 13.51020897 19087
QIANFAN-143             
1 69089U 26104S   26271.21824802  .00000063  00000+0  79050-4 0  9993
2 69089  88.9894 330.9331 0002071 106.2375 253.9004 13.51028358 19083
QIANFAN-144             
1 69090U 26104T   26271.15234339  .00000073  00000+0  94341-4 0  9999
2 69090  88.9892 330.9578 0002522  98.8892 261.2544 13.51021747 19061
QIANFAN-145             
1 69104U 26108A   26270.71054259 -.01765773  00000+0 -31177+1 0  9993
2 69104  89.0195  11.8195 0002826 223.0784 137.0144 13.46842126 18289
QIANFAN-146             
1 69105U 26108B   26270.89174031 -.01808732  00000+0 -31944+1 0  9999
2 69105  89.0198  11.6390 0004915 173.2249 186.8968 13.46924412 18400
QIANFAN-147             
1 69106U 26108C   26270.71885312 -.01763383  00000+0 -31052+1 0  9994
2 69106  89.0199  11.8232 0002805 353.5577   6.5535 13.47007687 18272
QIANFAN-148             
1 69107U 26108D   26270.85468786 -.01777759  00000+0 -31377+1 0  9994
2 69107  89.0193  11.7994 0012932 187.6257 172.4697 13.46864747 18295
QIANFAN-149             
1 69108U 26108E   26270.71461691 -.01766604  00000+0 -31114+1 0  9994
2 69108  89.0193  11.8345 0005358 177.7987 182.3187 13.47000783 18276
QIANFAN-150             
1 69109U 26108F   26270.72281644 -.01763971  00000+0 -31068+1 0  9996
2 69109  89.0198  11.7874 0004392 187.6253 172.4830 13.46996194 18297
QIANFAN-151             
1 69110U 26108G   26270.75170987 -.01753249  00000+0 -30846+1 0  9998
2 69110  89.0196  11.8080 0002304 330.5979  29.5040 13.47042810 18284
QIANFAN-152             
1 69111U 26108H   26270.73107243 -.01765711  00000+0 -31127+1 0  9992
2 69111  89.0193  11.8015 0000811  47.0696 313.0520 13.46944858 18294
QIANFAN-153             
1 69112U 26108J   26270.72693433 -.01763626  00000+0 -31071+1 0  9994
2 69112  89.0190  11.7778 0001875 337.8396  22.2671 13.46979000 18298
QIANFAN-154             
1 69113U 26108K   26270.73530218 -.01764185  00000+0 -31096+1 0  9995
2 69113  89.0200  11.8269 0006488 163.9209 196.2147 13.46942713 18283
QIANFAN-155             
1 69114U 26108L   26270.73927496 -.01751900  00000+0 -30888+1 0  9993
2 69114  89.0198  11.7906 0002548 295.1212  64.9672 13.46901270 18290
QIANFAN-156             
1 69115U 26108M   26270.75982705 -.01774465  00000+0 -31211+1 0  9992
2 69115  89.0212  11.7909 0015415 239.7700 120.1924 13.47065431 18313
QIANFAN-157             
1 69116U 26108N   26271.19222381 -.01788051  00000+0 -31625+1 0  9994
2 69116  89.0194  11.6702 0003039 137.0050 223.1337 13.46784903 18403
QIANFAN-158             
1 69117U 26108P   26270.76394160 -.01764163  00000+0 -31068+1 0  9991
2 69117  89.0196  11.7542 0008064 135.0258 225.1545 13.46994935 18322
QIANFAN-159             
1 69118U 26108Q   26270.97793469 -.01762301  00000+0 -31039+1 0  9990
2 69118  89.0187  11.7382 0002005 276.4398  83.6522 13.46994274 18349
QIANFAN-160             
1 69119U 26108R   26270.77241182 -.01765846  00000+0 -31166+1 0  9997
2 69119  89.0201  11.7975 0000977  77.3914 282.7344 13.46870343 18303
QIANFAN-161             
1 69120U 26108S   26270.77631884 -.01761863  00000+0 -31055+1 0  9993
2 69120  89.0209  11.7145 0002693 347.4140  12.6941 13.46943048 18352
QIANFAN-162             
1 69121U 26108T   26270.76816774 -.01770245  00000+0 -31235+1 0  9990
2 69121  89.0198  11.7395 0002411 326.0544  34.0450 13.46896995 18324
QIANFAN-163             
1 69325U 26121A   26271.10485556  .00000002  00000+0 -14730-4 0  9990
2 69325  89.0089 290.2649 0002755 112.7087 247.4355 13.51022109 16065
QIANFAN-164             
1 69326U 26121B   26271.14600997  .00000036  00000+0  37376-4 0  9990
2 69326  89.0086 290.2509 0002260 108.1746 251.9652 13.51022141 16077
QIANFAN-165             
1 69382U 26124A   26271.22975343  .00000117  00000+0  16282-3 0  9996
2 69382  89.0067 351.2471 0002185 119.6945 240.4424 13.51023852 15954
QIANFAN-166             
1 69383U 26124B   26271.23389718  .00000116  00000+0  16106-3 0  9997
2 69383  89.0085 351.2590 0001860 107.1287 253.0068 13.51024509 15951
QIANFAN-167             
1 69384U 26124C   26271.23783649  .00000106  00000+0  14480-3 0  9991
2 69384  89.0059 351.2620 0002262 104.9351 255.2051 13.51033404 15940
QIANFAN-168             
1 69385U 26124D   26271.24196659  .00000111  00000+0  15359-3 0  9994
2 69385  89.0055 351.2413 0001757 113.1433 246.9904 13.51021986 15955
QIANFAN-169             
1 69386U 26124E   26271.24620436  .00000119  00000+0  16544-3 0  9995
2 69386  89.0054 351.2405 0001816 103.4223 256.7131 13.51025233 15951
QIANFAN-170             
1 69387U 26124F   26271.25025559  .00000109  00000+0  15014-3 0  9992
2 69387  89.0072 351.2139 0001740 102.4967 257.6379 13.51027643 15979
QIANFAN-171             
1 69388U 26124G   26271.25853889  .00000114  00000+0  15847-3 0  9998
2 69388  89.0086 351.2268 0002124 102.6937 257.4451 13.51030680 15978
QIANFAN-172             
1 69389U 26124H   26271.25433894  .00000116  00000+0  16145-3 0  9993
2 69389  89.0069 351.2156 0002056 117.6823 242.4537 13.51031226 15976
QIANFAN-173             
1 69390U 26124J   26271.26250187  .00000110  00000+0  15109-3 0  9991
2 69390  89.0058 351.2104 0001674 109.2861 250.8472 13.51024212 15971
QIANFAN-174             
1 69391U 26124K   26271.20078615  .00000110  00000+0  15206-3 0  9998
2 69391  89.0038 351.1724 0002307 106.5505 253.5900 13.51032181 15976
QIANFAN-175             
1 69392U 26124L   26270.90884053  .00000113  00000+0  15630-3 0  9990
2 69392  89.0091 351.2509 0001832 105.7420 254.3933 13.51022101 15939
QIANFAN-176             
1 69393U 26124M   26271.28324115  .00000109  00000+0  15036-3 0  9996
2 69393  89.0052 351.1901 0001844 105.7039 254.4316 13.51022879 15973
QIANFAN-177             
1 69394U 26124N   26271.21733558  .00000115  00000+0  16012-3 0  9997
2 69394  89.0062 351.1861 0002214 107.9799 252.1593 13.51031946 15987
QIANFAN-178             
1 69395U 26124P   26271.21318632  .00000114  00000+0  15777-3 0  9996
2 69395  89.0008 351.1378 0001846 104.7902 255.3454 13.51027857 15990
QIANFAN-179             
1 69396U 26124Q   26271.22145927  .00000117  00000+0  16243-3 0  9995
2 69396  89.0040 351.1578 0001824 104.7690 255.3663 13.51031520 15993
QIANFAN-180             
1 69397U 26124R   26271.22563127  .00000110  00000+0  15124-3 0  9992
2 69397  89.0046 351.1788 0001741 100.9993 259.1354 13.51023724 15980
QIANFAN-181             
1 69398U 26124S   26271.19268995  .00000113  00000+0  15689-3 0  9993
2 69398  89.0069 351.2775 0002189 104.3316 255.8079 13.51025626 15932
QIANFAN-182             
1 69399U 26124T   26271.19670893  .00000109  00000+0  15044-3 0  9998
2 69399  89.0044 351.2454 0001868 107.2650 252.8706 13.51030157 15935
QIANFAN-183             
1 69401U 26125A   26271.23134187  .00000003  00000+0 -14540-4 0  9994
2 69401  88.9831 269.5098 0002204  99.5152 260.6248 13.51027764 15850
QIANFAN-184             
1 69402U 26125B   26270.71945950 -.01775098  00000+0 -31326+1 0  9997
2 69402  88.9877 269.5934 0002054 248.2316 111.8614 13.46898528 15782
QIANFAN-185             
1 69403U 26125C   26271.26433524  .00000003  00000+0 -14155-4 0  9998
2 69403  88.9897 269.4790 0002066  99.4287 260.7098 13.51028788 15891
QIANFAN-186             
1 69404U 26125D   26271.23556681  .00000010  00000+0 -32461-5 0  9995
2 69404  88.9884 269.5409 0002112  95.3232 264.8160 13.51028296 15858
QIANFAN-187             
1 69405U 26125E   26270.72386558 -.01790366  00000+0 -31719+1 0  9995
2 69405  88.9880 269.5756 0003348 197.0493 163.0544 13.46680583 15797
QIANFAN-188             
1 69406U 26125F   26270.73206992 -.01904467  00000+0 -33291+1 0  9996
2 69406  88.9879 269.5747 0005063 147.4985 212.6477 13.47816734 15793
QIANFAN-189             
1 69407U 26125G   26271.26007569  .00000016  00000+0  56789-5 0  9991
2 69407  88.9865 269.5140 0002362 103.9479 256.1935 13.51019277 15851
QIANFAN-190             
1 69408U 26125H   26271.24772546  .00000022  00000+0  14964-4 0  9999
2 69408  88.9866 269.5132 0002037  96.7596 263.3787 13.51019178 15868
QIANFAN-191             
1 69409U 26125J   26271.27239142  .00000007  00000+0 -80511-5 0  9999
2 69409  88.9881 269.5239 0002203 100.2454 259.8946 13.51033188 15867
QIANFAN-192             
1 69410U 26125K   26271.25596441  .00000010  00000+0 -25913-5 0  9996
2 69410  88.9887 269.5267 0002361 101.9614 258.1802 13.51019796 15869
QIANFAN-193             
1 69411U 26125L   26271.28074101  .00000021  00000+0  14248-4 0  9993
2 69411  88.9866 269.4986 0002148 101.8227 258.3166 13.51027729 15877
QIANFAN-194             
1 69412U 26125M   26271.27662152  .00000001  00000+0 -17730-4 0  9990
2 69412  88.9898 269.5163 0002234  99.9241 260.2163 13.51026290 15860
QIANFAN-195             
1 69413U 26125N   26271.21088173  .00000032  00000+0  30747-4 0  9996
2 69413  88.9899 269.5080 0001926  90.0260 270.1111 13.51028101 15877
QIANFAN-196             
1 69414U 26125P   26270.84858000 -.00000002  00000+0 -21004-4 0  9994
2 69414  88.9904 269.5493 0001941  94.4854 265.6519 13.51035356 15823
QIANFAN-197             
1 69415U 26125Q   26271.22730522  .00000000  00000+0 -18224-4 0  9993
2 69415  88.9878 269.4801 0002171  98.6740 261.4657 13.51023970 15873
QIANFAN-198             
1 69416U 26125R   26271.28894957  .00000014  00000+0  29028-5 0  9992
2 69416  88.9872 269.4859 0002247 100.4031 259.7373 13.51028432 15884
QIANFAN-199             
1 69417U 26125S   26271.22318141  .00000009  00000+0 -41632-5 0  9993
2 69417  88.9876 269.4431 0002385  96.8816 263.2607 13.51026045 15908
QIANFAN-200             
1 69418U 26125T   26271.26838298  .00000005  00000+0 -10249-4 0  9993
2 69418  88.9883 269.5247 0002287 102.5313 257.6094 13.51026515 15865
QIANFAN-201             
1 69800U 26153A   26270.96245128  .00000248  00000+0  16687-3 0  9998
2 69800  88.9973 350.6434 0003704 345.1362  14.9706 13.97590867 12096
QIANFAN-202             
1 69801U 26153B   26270.71751801 -.01888801  00000+0 -14421+1 0  9995
2 69801  88.9970 350.6252 0004928  73.1503 287.0215 13.97334651 12079
QIANFAN-203             
1 69802U 26153C   26270.70594212 -.01909617  00000+0 -14266+1 0  9992
2 69802  88.9969 350.6610 0017773 209.3818 150.6362 13.98544715 12062
QIANFAN-204             
1 69803U 26153D   26270.75504119 -.01895924  00000+0 -14922+1 0  9999
2 69803  88.9969 350.6506 0002363 229.0088 131.0884 13.95623143 12077
QIANFAN-205             
1 69804U 26153E   26270.79573703 -.01890595  00000+0 -15403+1 0  9993
2 69804  88.9967 350.6742 0006117   2.6396 357.4810 13.93623171 12067
QIANFAN-206             
1 69805U 26153F   26270.71119928 -.01930152  00000+0 -15102+1 0  9991
2 69805  88.9971 350.6243 0005986  70.0729 290.1092 13.96022601 12082
QIANFAN-207             
1 69806U 26153G   26270.79493153 -.01897718  00000+0 -15421+1 0  9999
2 69806  88.9974 350.6560 0006038 357.6696   2.4450 13.93787041 12078
QIANFAN-208             
1 69807U 26153H   26270.71294785 -.01909266  00000+0 -15640+1 0  9997
2 69807  88.9964 350.6617 0007201  43.2082 316.9657 13.93345389 12078
QIANFAN-209             
1 69808U 26153J   26270.82777621 -.01888385  00000+0 -15552+1 0  9995
2 69808  88.9973 350.6620 0004668 328.7443  31.3453 13.93001284 12074
QIANFAN-210             
1 69809U 26153K   26270.72508484 -.01887507  00000+0 -15588+1 0  9998
2 69809  88.9972 350.6646 0004646 336.2184  23.8775 13.92840426 12064
QIANFAN-211             
1 69810U 26153L   26271.28521239  .00000294  00000+0  14589-3 0  9995
2 69810  88.9975 350.5440 0005854 315.0090  45.0622 14.14545319 12170
QIANFAN-212             
1 69811U 26153M   26270.75177931 -.01907949  00000+0 -14267+1 0  9999
2 69811  88.9966 350.6307 0004810 346.6303  13.4747 13.98557590 12084
QIANFAN-213             
1 69812U 26153N   26270.79180525 -.01915606  00000+0 -15038+1 0  9993
2 69812  88.9972 350.6366 0007669  36.1615 324.0079 13.95794671 12088
QIANFAN-214             
1 69813U 26153P   26270.94185142  .00000131  00000+0  71800-4 0  9999
2 69813  88.9976 350.5661 0005159 312.2565  47.8179 14.05836823 12139
QIANFAN-215             
1 69814U 26153Q   26271.27071598  .00000308  00000+0  15149-3 0  9995
2 69814  88.9973 350.4653 0005875 327.0491  33.0329 14.15202595 12211
QIANFAN-216             
1 69815U 26153R   26270.72950066 -.01895370  00000+0 -13639+1 0  9994
2 69815  88.9969 350.5714 0006195 286.6295  73.4204 14.00701300 12115
QIANFAN-217             
1 69816U 26153S   26270.76886181 -.01846164  00000+0 -98111+0 0  9999
2 69816  88.9967 350.4637 0011454 313.1335  46.8895 14.17261353 12175
QIANFAN-218             
1 69817U 26153T   26270.77020031 -.01864119  00000+0 -10028+1 0  9997
2 69817  88.9970 350.4670 0009755 306.0200  54.0083 14.16651537 12176
QIANFAN-219             
1 69848U 26155A   26270.71500033 -.01834257  00000+0 -32015+1 0  9992
2 69848  89.0107  52.9772 0018706 342.3037  17.7459 13.47681613 11711
QIANFAN-220             
1 69849U 26155B   26271.25477719  .00000047  00000+0  54931-4 0  9991
2 69849  89.0108  52.9519 0034022 349.7920  10.2536 13.50935077 11773
QIANFAN-221             
1 69850U 26155C   26270.62498939 -.01835685  00000+0 -23761+1 0  9990
2 69850  89.0103  52.7501 0029649   2.8374 357.2949 13.66410342 11837
QIANFAN-222             
1 69851U 26155D   26270.53004249 -.01802524  00000+0 -31834+1 0  9994
2 69851  89.0102  53.0428 0017126 339.2209  20.8242 13.46857130 11668
QIANFAN-223             
1 69852U 26155E   26270.70621842 -.01695442  00000+0 -29500+1 0  9994
2 69852  89.0104  53.0328 0040361 352.3484   7.7044 13.47299749 11681
QIANFAN-224             
1 69853U 26155F   26270.75642143 -.01909608  00000+0 -33153+1 0  9998
2 69853  89.0102  52.9704 0030028 349.4680  10.5837 13.48096367 11718
QIANFAN-225             
1 69854U 26155G   26270.76018195 -.01769149  00000+0 -31075+1 0  9999
2 69854  89.0092  53.0167 0027778 339.7047  20.2996 13.47035288 11694
QIANFAN-226             
1 69855U 26155H   26270.76432601 -.01768541  00000+0 -31073+1 0  9995
2 69855  89.0095  52.9993 0028286 346.1259  13.9110 13.47010488 11709
QIANFAN-227             
1 69856U 26155J   26270.69444342 -.01769172  00000+0 -31033+1 0  9990
2 69856  89.0096  53.0100 0038951 350.9102   9.1337 13.46975766 11697
QIANFAN-228             
1 69857U 26155K   26270.69899361 -.01874796  00000+0 -32384+1 0  9995
2 69857  89.0101  52.9950 0037932 348.6822  11.3470 13.48232434 11702
QIANFAN-229             
1 69858U 26155L   26270.78497973 -.01767276  00000+0 -31122+1 0  9992
2 69858  89.0107  52.9702 0006247 337.5876  22.4999 13.47007870 11729
QIANFAN-230             
1 69859U 26155M   26270.74755537 -.01721267  00000+0 -30115+1 0  9993
2 69859  89.0099  53.0173 0009553 351.6178   8.4810 13.47309171 11690
QIANFAN-231             
1 69860U 26155N   26270.72308122 -.01766366  00000+0 -29287+1 0  9994
2 69860  89.0098  52.9618 0037605 349.2005  10.8334 13.50599712 11722
QIANFAN-232             
1 69861U 26155P   26271.21603623  .00000057  00000+0  70734-4 0  9996
2 69861  89.0097  52.9198 0025437 347.7725  12.2806 13.50452781 11787
QIANFAN-233             
1 69862U 26155Q   26270.72304835 -.01753787  00000+0 -30721+1 0  9991
2 69862  89.0104  52.9655 0031514 344.8653  15.1550 13.47131502 11729
QIANFAN-234             
1 69863U 26155R   26270.76667865 -.02030827  00000+0 -31282+1 0  9998
2 69863  89.0092  52.8946 0032571 352.9240   7.1449 13.55251253 11761
QIANFAN-235             
1 69864U 26155S   26271.21608118  .00000082  00000+0  61655-4 0  9993
2 69864  89.0106  52.6202 0029845 350.9172   9.1454 13.84594986 11957
QIANFAN-236             
1 69865U 26155T   26270.73221196 -.01898344  00000+0 -32811+1 0  9994
2 69865  89.0101  52.9825 0036130 345.6475  14.3645 13.48276054 11716
QIANFAN-237             
1 69866U 26155U   26270.81078271 -.02030835  00000+0 -35282+1 0  9997
2 69866  89.0109  52.9417 0028352 339.1275  20.8714 13.47633395 11730
QIANFAN-238             
1 69867U 26155V   26270.88950469  .00000012  00000+0  49731-6 0  9993
2 69867  89.0108  52.9502 0024812 346.8987  13.1517 13.51013361 11744
