GLOBALSTAR M069         
1 31573U 07020C   26280.54853271 -.00000053  00000+0  36618-3 0  9996
2 31573  52.0032 294.0992 0001941  22.3177 148.3238 12.23475290892558
GLOBALSTAR M072         
1 31574U 07020D   26280.04774831 -.00000078  00000+0  85913-4 0  9996
2 31574  51.9915 162.4421 0001371 127.9077  11.7764 11.91660227888316
GLOBALSTAR M066         
1 32265U 07048C   26280.67464106 -.00000085  00000+0  79302-4 0  9997
2 32265  51.9568  94.9900 0003790 277.6944 163.6575 12.30390346874073
GLOBALSTAR M079         
1 37188U 10054A   26281.07792662 -.00000085  00000+0  10203-3 0  9997
2 37188  52.0017 125.0139 0000657  95.5979  79.8890 12.62262904736806
GLOBALSTAR M074         
1 37189U 10054B   26280.77009007 -.00000089  00000+0  82012-4 0  9990
2 37189  51.9995 125.2005 0000856  76.5058  18.3967 12.62263541737376
GLOBALSTAR M076         
1 37190U 10054C   26281.04960926 -.00000066  00000+0  20940-3 0  9995
2 37190  52.0007 124.5626 0000635  73.8300  91.9290 12.62264238737123
GLOBALSTAR M077         
1 37191U 10054D   26280.38532973 -.00000075  00000+0  54461-4 0  9995
2 37191  51.9944 254.5196 0003128  25.1022 143.1243 11.67547468734240
GLOBALSTAR M075         
1 37192U 10054E   26281.13979924 -.00000087  00000+0  93538-4 0  9992
2 37192  51.9933 166.2790 0000864  79.5615  77.0289 12.62261091736207
GLOBALSTAR M073         
1 37193U 10054F   26280.64818507 -.00000096  00000+0  43134-4 0  9994
2 37193  52.0050  81.9579 0000575 104.3035 336.5791 12.62268500738137
GLOBALSTAR M083         
1 37739U 11033A   26280.50306037 -.00000104  00000+0 -60133-6 0  9994
2 37739  51.9880  30.4766 0000335 119.4264 321.3687 12.62269398707132
GLOBALSTAR M088         
1 37740U 11033B   26281.10103329 -.00000084  00000+0  11262-3 0  9994
2 37740  52.0213 295.3572 0000364  73.6064 326.4792 12.62270739702751
GLOBALSTAR M091         
1 37741U 11033C   26280.95469447 -.00000114  00000+0 -54421-4 0  9993
2 37741  51.9989 258.6028 0000359  80.2907 313.8285 12.62265067703523
GLOBALSTAR M085         
1 37742U 11033D   26281.20380065 -.00000108  00000+0 -21806-4 0  9995
2 37742  52.0119 209.2348 0000529  79.5556  66.9568 12.62265546704060
GLOBALSTAR M081         
1 37743U 11033E   26281.23053624 -.00000114  00000+0 -58285-4 0  9995
2 37743  51.9950 211.4597 0000568  56.8792  91.6492 12.62266663704215
GLOBALSTAR M089         
1 37744U 11033F   26281.11194021 -.00000092  00000+0  65676-4 0  9996
2 37744  51.9916 165.9596 0000977  60.8364  89.3454 12.62264041705046
GLOBALSTAR M084         
1 38040U 11080A   26280.64003519 -.00000110  00000+0 -34259-4 0  9991
2 38040  52.0030  34.9335 0000502  83.0530  21.7355 12.62264116682965
GLOBALSTAR M080         
1 38041U 11080B   26280.52747660 -.00000115  00000+0 -65107-4 0  9992
2 38041  52.0078  37.0360 0000991 120.5836 320.6086 12.62268603683078
GLOBALSTAR M082         
1 38042U 11080C   26280.54871782 -.00000090  00000+0  77681-4 0  9999
2 38042  52.0103 352.4847 0000510 136.9897 332.3653 12.62262799683785
GLOBALSTAR M092         
1 38043U 11080D   26280.75849913 -.00000086  00000+0  97292-4 0  9999
2 38043  52.0071  82.2455 0000820  96.0422   6.7638 12.62266648682261
GLOBALSTAR M090         
1 38044U 11080E   26280.49454983 -.00000085  00000+0  10382-3 0  9993
2 38044  52.0151 346.6409 0000404 146.3084 316.2101 12.62268188683893
GLOBALSTAR M086         
1 38045U 11080F   26281.21201036 -.00000100  00000+0  21641-4 0  9993
2 38045  51.9918 344.1992 0000699 308.8185  85.7334 12.62289312683939
GLOBALSTAR M097         
1 39072U 13005A   26280.36640981 -.00000101  00000+0  18013-4 0  9994
2 39072  52.0044 261.8491 0000276  78.1244 281.9654 12.62271663631078
GLOBALSTAR M093         
1 39073U 13005B   26280.33996517 -.00000096  00000+0  43312-4 0  9994
2 39073  52.0096 255.3225 0000124  64.5109 295.5771 12.62267530631024
GLOBALSTAR M094         
1 39074U 13005C   26281.05257536 -.00000092  00000+0  65554-4 0  9994
2 39074  51.9946 167.1592 0000602  79.6065 280.4870 12.62264862632729
GLOBALSTAR M096         
1 39075U 13005D   26280.98671045 -.00000113  00000+0 -52941-4 0  9992
2 39075  52.0069 216.2470 0000509  81.2273 278.8651 12.62264681631631
GLOBALSTAR M078         
1 39076U 13005E   26281.11867240 -.00000083  00000+0  11458-3 0  9995
2 39076  51.9874 299.7058 0001125 137.4332 222.6622 12.62260890630279
GLOBALSTAR M095         
1 39077U 13005F   26281.06596753 -.00000086  00000+0  98954-4 0  9998
2 39077  52.0079 297.6276 0000423 146.5858 213.5035 12.62264879630124
GLOBALSTAR M087         
1 52888U 22064A   26280.76237102 -.00000096  00000+0  40858-4 0  9995
2 52888  51.9986  79.7222 0000732 116.6316 243.4626 12.62263288205358
