ORBCOMM FM06            
1 25118U 97084G   26275.23503161  .00000640  00000+0  21065-3 0  9994
2 25118  45.0130 257.2852 0001947 300.8845  73.3450 14.47775935509909
ORBCOMM FM04            
1 25159U 98007C   26275.12967202  .00000480  00000+0  20937-3 0  9992
2 25159 107.9614  29.5221 0039377 141.8373 218.5567 14.35886642491947
ORBCOMM FM19            
1 25415U 98046C   26275.87038339  .00000427  00000+0  18056-3 0  9992
2 25415  44.9929  91.6296 0004413 131.6940   7.3498 14.39659691472293
ORBCOMM FM20            
1 25416U 98046D   26275.82619763  .00000309  00000+0  14738-3 0  9996
2 25416  44.9929 100.9670 0001523 123.9064 236.1930 14.38189376472283
ORBCOMM FM27            
1 25481U 98053G   26275.43288731  .00000481  00000+0  19897-3 0  9992
2 25481  45.0046 185.9007 0001886   5.2710 354.8158 14.39301351465682
ORBCOMM FM32            
1 25982U 99065C   26274.57513131  .00000368  00000+0  16944-3 0  9995
2 25982  45.0164  29.6095 0007584 223.3968 136.6284 14.37257764402390
ORBCOMM FM109           
1 40086U 14040A   26275.75742942  .00000154  00000+0  68717-4 0  9991
2 40086  47.0034 302.8686 0001870 319.0999  40.9746 14.58931372650056
ORBCOMM FM110           
1 41182U 15081D   26275.55344133  .00000247  00000+0  88312-4 0  9999
2 41182  47.0013 213.7295 0002960 225.6650 134.3993 14.58980511573307
ORBCOMM FM118           
1 41183U 15081E   26275.86329514  .00000295  00000+0  98692-4 0  9995
2 41183  47.0036 212.6343 0002993 177.9834 182.1064 14.58828939573455
ORBCOMM FM112           
1 41184U 15081F   26275.86601529  .00000192  00000+0  76792-4 0  9998
2 41184  46.9975 121.0243 0002860 337.6414  22.4347 14.58974411574672
ORBCOMM FM113           
1 41185U 15081G   26275.84594697  .00000118  00000+0  61086-4 0  9992
2 41185  46.9993 121.5477 0001733 331.5985  28.4806 14.58944706574659
ORBCOMM FM108           
1 41187U 15081J   26275.60032088  .00000160  00000+0  69877-4 0  9992
2 41187  47.0058  34.2949 0002378 311.0853  48.9827 14.58992101575767
ORBCOMM FM117           
1 41188U 15081K   26275.36145436  .00000187  00000+0  75714-4 0  9994
2 41188  47.0022  34.0351 0002704 319.8623  40.2063 14.58974527575778
ORBCOMM FM116           
1 41189U 15081L   26274.99945679  .00000225  00000+0  83653-4 0  9994
2 41189  47.0010 125.5479 0001460 203.6494 156.4325 14.58976260574537
