GLOBALSTAR M069         
1 31573U 07020C   26277.32655213 -.00000072  00000+0  19312-3 0  9997
2 31573  52.0034 303.2192 0001856  17.1848 355.5917 12.23475137892160
GLOBALSTAR M072         
1 31574U 07020D   26277.11388376 -.00000088  00000+0 -52430-4 0  9995
2 31574  51.9918 170.2528 0001367 124.6256  23.1751 11.91660150887960
GLOBALSTAR M066         
1 32265U 07048C   26277.28297738 -.00000106  00000+0 -10007-3 0  9996
2 32265  51.9561 104.7275 0003772 270.2414 260.9690 12.30390357873656
GLOBALSTAR M079         
1 37188U 10054A   26276.92555715 -.00000108  00000+0 -24510-4 0  9995
2 37188  52.0018 137.6550 0000639  92.7526 284.5873 12.62262855736283
GLOBALSTAR M074         
1 37189U 10054B   26277.06380476 -.00000103  00000+0  46165-5 0  9997
2 37189  52.0000 136.4842 0000824  71.5591  93.2431 12.62263562736909
GLOBALSTAR M076         
1 37190U 10054C   26277.32921118 -.00000104  00000+0  87399-7 0  9999
2 37190  52.0010 135.8889 0000596  70.2396 101.2502 12.62264020736652
GLOBALSTAR M077         
1 37191U 10054D   26277.28811755 -.00000087  00000+0 -17302-3 0  9994
2 37191  51.9946 262.3817 0003029  19.7065  84.6991 11.67547346733888
GLOBALSTAR M075         
1 37192U 10054E   26277.18202942 -.00000097  00000+0  37021-4 0  9997
2 37192  51.9939 178.3293 0000791  75.2228  87.9590 12.62260991735704
GLOBALSTAR M073         
1 37193U 10054F   26277.26325939 -.00000101  00000+0  13443-4 0  9997
2 37193  52.0044  92.2624 0000595  99.2141  72.5269 12.62268472737705
GLOBALSTAR M083         
1 37739U 11033A   26277.11795926 -.00000098  00000+0  34117-4 0  9998
2 37739  51.9876  40.7852 0000400 116.6907  54.1421 12.62269371706703
GLOBALSTAR M088         
1 37740U 11033B   26277.30929519 -.00000083  00000+0  11861-3 0  9992
2 37740  52.0220 306.8961 0000358  85.8208 355.5843 12.62270630702274
GLOBALSTAR M091         
1 37741U 11033C   26277.22835289 -.00000084  00000+0  11142-3 0  9997
2 37741  51.9989 269.9480 0000329  92.8706 279.9425 12.62265123703052
GLOBALSTAR M085         
1 37742U 11033D   26276.90424396 -.00000092  00000+0  65929-4 0  9997
2 37742  52.0117 222.3204 0000446  82.7304 316.4368 12.62265473703520
GLOBALSTAR M081         
1 37743U 11033E   26277.16229531 -.00000095  00000+0  51157-4 0  9992
2 37743  51.9950 223.8460 0000457  54.9077 317.8897 12.62266651703705
GLOBALSTAR M089         
1 37744U 11033F   26277.15557433 -.00000101  00000+0  16979-4 0  9998
2 37744  51.9922 178.0061 0000894  54.3634 108.7490 12.62264023704541
GLOBALSTAR M084         
1 38040U 11080A   26277.09135035 -.00000107  00000+0 -15484-4 0  9990
2 38040  52.0024  45.7366 0000521  82.4227  88.7674 12.62264102682512
GLOBALSTAR M080         
1 38041U 11080B   26277.14252584 -.00000104  00000+0 -39933-5 0  9999
2 38041  52.0071  47.3396 0001053 115.0337  56.9030 12.62268648682648
GLOBALSTAR M082         
1 38042U 11080C   26276.99920711 -.00000101  00000+0  16906-4 0  9996
2 38042  52.0107   3.2882 0000605 131.9587  40.0670 12.62262714683335
GLOBALSTAR M092         
1 38043U 11080D   26276.88822956 -.00000096  00000+0  42674-4 0  9991
2 38043  52.0066  94.0270 0000834  91.7714  55.3657 12.62266589681772
GLOBALSTAR M090         
1 38044U 11080E   26276.94644258 -.00000097  00000+0  35589-4 0  9994
2 38044  52.0156 357.4392 0000495 141.0505  30.4539 12.62268059683447
GLOBALSTAR M086         
1 38045U 11080F   26277.16847932 -.00000097  00000+0  37610-4 0  9991
2 38045  51.9926 356.5123 0000640 293.4589  77.3702 12.62289375683423
GLOBALSTAR M097         
1 39072U 13005A   26277.27824321 -.00000084  00000+0  11126-3 0  9999
2 39072  52.0040 271.2502 0000262  92.7117 267.3780 12.62271651630689
GLOBALSTAR M093         
1 39073U 13005B   26277.25178757 -.00000085  00000+0  10653-3 0  9998
2 39073  52.0096 264.7225 0000098 112.4541 247.6336 12.62267441630633
GLOBALSTAR M094         
1 39074U 13005C   26277.01418302 -.00000107  00000+0 -17643-4 0  9999
2 39074  51.9949 179.4545 0000538  78.6706 281.4221 12.62264789632218
GLOBALSTAR M096         
1 39075U 13005D   26276.55239464 -.00000092  00000+0  64804-4 0  9991
2 39075  52.0064 229.7444 0000457  84.0469 276.0450 12.62264603631075
GLOBALSTAR M078         
1 39076U 13005E   26277.23863794 -.00000042  00000+0  34609-3 0  9991
2 39076  51.9881 311.5221 0001204 132.0433 228.0536 12.62261014629780
GLOBALSTAR M095         
1 39077U 13005F   26277.26512613 -.00000085  00000+0  10337-3 0  9995
2 39077  52.0089 309.1980 0000531 144.7861 215.3041 12.62264779629641
GLOBALSTAR M087         
1 52888U 22064A   26277.19907909 -.00000107  00000+0 -15780-4 0  9997
2 52888  51.9978  90.5711 0000768 111.5469 248.5480 12.62263269204908
