EUTELSAT 174A           
1 28924U 05052A   26260.76097346  .00000005  00000+0  00000+0 0  9998
2 28924   4.4468  75.3292 0005969  99.5994 269.7196  1.00274329 53269
EUTELSAT 33F            
1 29270U 06032A   26260.98846515  .00000151  00000+0  00000+0 0  9998
2 29270   1.8945  81.0703 0003353  87.0558 217.7448  1.00270339 48230
EUTELSAT HOTBIRD 13C    
1 33459U 08065A   26260.77274039 -.00000287  00000+0  00000+0 0  9994
2 33459   3.1819  78.0160 0003566  99.8137  46.7710  1.00273297 48274
EUTELSAT 36B            
1 36101U 09065A   26260.93056493  .00000108  00000+0  00000+0 0  9993
2 36101   0.7186  81.1327 0005746  92.4499 208.7731  1.00272509 61636
EUTELSAT KA-SAT 9A      
1 37258U 10069A   26260.28549764  .00000057  00000+0  00000+0 0  9992
2 37258   0.0741 354.1076 0005432 174.8069 299.1042  1.00272151 44930
EUTELSAT 7 WEST A       
1 37816U 11051A   26260.78123376 -.00000064  00000+0  00000+0 0  9995
2 37816   0.0633   1.0736 0006041 173.9251  95.6463  1.00272630 54806
EUTELSAT 16A            
1 37836U 11057A   26260.98015091  .00000100  00000+0  00000+0 0  9999
2 37836   0.1009  64.5194 0005500 111.8094 189.4280  1.00272093  8264
EUTELSAT 21B            
1 38992U 12062B   26260.98206216  .00000126  00000+0  00000+0 0  9999
2 38992   0.0691 357.5127 0002929 175.5295 199.0054  1.00272133 50759
EUTELSAT 70B            
1 39020U 12069A   26260.72533351 -.00000048  00000+0  00000+0 0  9998
2 39020   0.0649 350.2347 0003681 188.1255 149.9333  1.00270883 50430
EUTELSAT 117 WEST A     
1 39122U 13012A   26260.68824002 -.00000017  00000+0  00000+0 0  9997
2 39122   0.0368 322.5584 0002821 208.6925 316.3485  1.00271207 49362
EUTELSAT 7B             
1 39163U 13022A   26260.98014162  .00000100  00000+0  00000+0 0  9996
2 39163   0.0663 350.9088 0004841 113.5667 261.2957  1.00273256 48873
EXPRESS-AT1             
1 39612U 14010A   26260.72637351 -.00000107  00000+0  00000+0 0  9994
2 39612   0.4900  84.4785 0004951  79.5435 169.7297  1.00315633 45747
EXPRESS-AT2             
1 39613U 14010B   26260.72247350  .00000074  00000+0  00000+0 0  9993
2 39613   0.0151 240.0779 0000357 208.8921 223.7847  1.00271686 45424
EUTELSAT 3B             
1 39773U 14030A   26260.78322709  .00000016  00000+0  00000+0 0  9996
2 39773   0.0622 349.6060 0004138 184.1403 108.0480  1.00271009 44993
EUTELSAT 115 WEST B     
1 40425U 15010B   26260.68858669 -.00000029  00000+0  00000+0 0  9994
2 40425   0.0427 349.5036 0000026  24.3102 115.8071  1.00270379 42312
EUTELSAT 8 WEST B       
1 40875U 15039B   26260.78106042 -.00000070  00000+0  00000+0 0  9992
2 40875   0.0667 358.0873 0003648 178.6795  93.1527  1.00271086 40582
EUTELSAT 9B             
1 41310U 16005A   26260.78444044  .00000057  00000+0  00000+0 0  9992
2 41310   0.0418  62.3140 0002346 147.6356  78.1763  1.00270554 39049
EUTELSAT 65 WEST A      
1 41382U 16014A   26260.76970705 -.00000281  00000+0  00000+0 0  9997
2 41382   0.0660 320.5297 0002226 208.4606  39.6252  1.00271597 38457
EUTELSAT 117 WEST B     
1 41589U 16038B   26260.68824002 -.00000016  00000+0  00000+0 0  9997
2 41589   0.0171  21.0087 0000399 221.3014 245.0922  1.00273687 37592
EUTELSAT 172B           
1 42741U 17029B   26260.74544027 -.00000010  00000+0  00000+0 0  9996
2 42741   0.0242 139.8389 0000293 307.8518 349.3502  1.00271594 34670
EUTELSAT 7C             
1 44334U 19034B   26260.28506431  .00000044  00000+0  00000+0 0  9996
2 44334   0.0686 179.9241 0003392 339.5443 306.3790  1.00273687  7752
EUTELSAT 5 WEST B       
1 44624U 19067A   26260.78166709 -.00000046  00000+0  00000+0 0  9992
2 44624   0.0727 329.1319 0003167 203.1348 100.8502  1.00272524 25358
EUTELSAT KONNECT        
1 45027U 20005B   26260.78409376  .00000045  00000+0  00000+0 0  9992
2 45027   0.0641  98.5501 0001524 103.0671  84.5673  1.00270145 25267
EUTELSAT QUANTUM        
1 49056U 21069B   26260.97310259  .00000122  00000+0  00000+0 0  9997
2 49056   0.0165 117.9965 0002263  53.0260 223.9038  1.00271510 18851
EUTELSAT KONNECT VHTS   
1 53765U 22110A   26260.78322709  .00000013  00000+0  00000+0 0  9998
2 53765   0.0545 104.5390 0003300  44.0736 132.8043  1.00273729  7766
EUTELSAT HOTBIRD 13F    
1 54048U 22134A   26260.76931916  .00000083  00000+0  00000+0 0  9990
2 54048   0.0602 290.3260 0002063  77.9029 278.4251  1.00272090 14306
EUTELSAT HOTBIRD 13G    
1 54225U 22146A   26260.78522044  .00000083  00000+0  00000+0 0  9990
2 54225   0.0480 234.3936 0002014 297.9290 120.0774  1.00272558  8398
EUTELSAT 10B            
1 54259U 22157A   26260.78461377  .00000064  00000+0  00000+0 0  9999
2 54259   0.0535 102.2628 0001858   4.3603 182.5430  1.00273233 13951
EUTELSAT 36D            
1 59346U 24059A   26260.99005233  .00000151  00000+0  00000+0 0  9999
2 59346   0.0132 182.8348 0000153 241.4478 324.9279  1.00271619  9077
