KUIPER-00008            
1 63724U 25088A   26272.67613245 -.00000719  00000+0 -65340-4 0  9998
2 63724  51.9012 265.9810 0000538  61.7072 298.3945 14.79926046 78252
KUIPER-00009            
1 63725U 25088B   26272.27726137  .00002992  00000+0  20975-3 0  9997
2 63725  51.9018 273.3319 0000751  17.6148 342.4852 15.08137232 78114
KUIPER-00010            
1 63726U 25088C   26272.37765662  .00001324  00000+0  20279-3 0  9990
2 63726  51.9010 262.4110 0000651  48.0152 312.0865 14.79915065 77893
KUIPER-00011            
1 63727U 25088D   26272.26828051  .00000447  00000+0  87613-4 0  9992
2 63727  51.8999 270.4370 0000552  45.6592 314.4415 14.79926031 77901
KUIPER-00012            
1 63728U 25088E   26272.38574351  .00000603  00000+0  10816-3 0  9991
2 63728  51.9011 254.8586 0000819  73.7044 286.4009 14.79925293 78089
KUIPER-00013            
1 63729U 25088F   26272.24938286  .00000272  00000+0  64756-4 0  9993
2 63729  51.9020 287.9820 0000575  93.9934 266.1094 14.79924590 77716
KUIPER-00014            
1 63730U 25088G   26272.41820587  .00000464  00000+0  89891-4 0  9998
2 63730  51.9012 287.1797 0000525  42.1980 317.9023 14.79924385 77557
KUIPER-00015            
1 63731U 25088H   26272.77883257 -.00000295  00000+0 -96932-5 0  9990
2 63731  51.8980 295.6283 0000616  47.2505 312.8509 14.79928652 77920
KUIPER-00016            
1 63732U 25088J   26272.75317258  .00001587  00000+0  23716-3 0  9993
2 63732  51.9011 288.2026 0000419  44.5919 315.5077 14.79923035 77560
KUIPER-00018            
1 63733U 25088K   26272.32501501  .00000355  00000+0  75541-4 0  9999
2 63733  51.9041 280.1462 0000422  47.7801 312.3198 14.79928129 77645
KUIPER-00019            
1 63734U 25088L   26272.21657966  .00000705  00000+0  12142-3 0  9991
2 63734  51.9011 279.3663 0000574  20.5995 339.4990 14.79949359 77645
KUIPER-00020            
1 63735U 25088M   26272.72749780  .00000350  00000+0  74945-4 0  9990
2 63735  51.9015 280.8583 0000530  54.1770 305.9241 14.79918274 77878
KUIPER-00021            
1 63736U 25088N   26272.28853285  .00000276  00000+0  65184-4 0  9990
2 63736  51.9006 282.7465 0000341  89.5108 270.5894 14.79921446 77647
KUIPER-00023            
1 63737U 25088P   26272.25207564 -.00001100  00000+0 -11536-3 0  9991
2 63737  51.9007 285.4006 0000563  55.7196 304.3820 14.79927090 77903
KUIPER-00024            
1 63738U 25088Q   26272.73828043  .00000587  00000+0  10602-3 0  9995
2 63738  51.9013 270.8651 0001515  79.3187 280.7946 14.79938777 78276
KUIPER-00025            
1 63739U 25088R   26272.29124550  .00000907  00000+0  14798-3 0  9995
2 63739  51.9041 280.3247 0000493  58.0088 302.0922 14.79936599 77960
KUIPER-00027            
1 63740U 25088S   26272.73556993  .00000022  00000+0  31878-4 0  9993
2 63740  51.9011 273.3145 0000506  84.0604 276.0416 14.79929500 77834
KUIPER-00028            
1 63741U 25088T   26272.36686331  .00000483  00000+0  92359-4 0  9995
2 63741  51.8989 272.3855 0000456  33.6532 326.4459 14.79925340 78228
KUIPER-00029            
1 63742U 25088U   26272.27533945 -.00000475  00000+0 -33268-4 0  9995
2 63742  51.9030 271.4896 0000662  17.5296 342.5690 14.79928140 77753
KUIPER-00030            
1 63743U 25088V   26272.24669326  .00000592  00000+0  10667-3 0  9991
2 63743  51.9023 290.4371 0000437  53.2225 306.8777 14.79924603 77775
KUIPER-00031            
1 63744U 25088W   26272.49923307  .00000682  00000+0  11850-3 0  9996
2 63744  51.9010 274.3421 0000563  40.5793 319.5211 14.79927517 77735
KUIPER-00032            
1 63745U 25088X   26272.86014457  .00007221  00000+0  17126-3 0  9993
2 63745  51.8647 112.5733 0005073 126.5354 233.6102 15.42830994 81013
KUIPER-00033            
1 63746U 25088Y   26272.39934317  .00001663  00000+0  24718-3 0  9997
2 63746  51.9020 304.7830 0000382  36.8031 323.2958 14.79923307 77780
KUIPER-00034            
1 63747U 25088Z   26272.70990906  .00000316  00000+0  70430-4 0  9996
2 63747  51.9014 265.9467 0000524  70.4933 289.6086 14.79926624 78032
KUIPER-00035            
1 63748U 25088AA  26272.75047132  .00000920  00000+0  14967-3 0  9999
2 63748  51.9003 290.7299 0000427  42.3077 317.7918 14.79930355 77749
KUIPER-00037            
1 63749U 25088AB  26272.74364837 -.00047171  00000+0 -62388-2 0  9993
2 63749  51.8982 289.6201 0004468  86.8678 273.2796 14.79676261 78546
KUIPER-00038            
1 63750U 25088AC  26272.73288234  .00000411  00000+0  82894-4 0  9990
2 63750  51.9018 275.8447 0000619  88.0089 272.0944 14.79927136 77734
KUIPER-00039            
1 64500U 25134A   26272.63792943  .00002667  00000+0  37869-3 0  9998
2 64500  51.9027  51.2593 0000542 139.1919 220.9084 14.79930040 70278
KUIPER-00040            
1 64501U 25134B   26272.72844992  .00001640  00000+0  24410-3 0  9999
2 64501  51.8994  60.9157 0000741 135.1983 224.9039 14.79925742 70145
KUIPER-00041            
1 64502U 25134C   26272.62444307  .00001756  00000+0  25931-3 0  9992
2 64502  51.8983  63.7681 0000563 125.6176 234.4839 14.79926865 70092
KUIPER-00042            
1 64503U 25134D   26272.59607238  .00001942  00000+0  28370-3 0  9990
2 64503  51.8996  58.8700 0000518 123.1032 236.9980 14.79924383 70163
KUIPER-00043            
1 64504U 25134E   26272.60416073  .00000541  00000+0  10002-3 0  9995
2 64504  51.9028  51.3533 0000553 113.7954 246.3066 14.79928337 70275
KUIPER-00044            
1 64505U 25134F   26272.72573248  .00001852  00000+0  27188-3 0  9996
2 64505  51.8992  63.3009 0000670 140.8927 219.2084 14.79933603 70111
KUIPER-00046            
1 64506U 25134G   26272.62712122  .00001511  00000+0  22721-3 0  9992
2 64506  51.8972  61.2071 0000466 118.5672 241.5337 14.79933951 70135
KUIPER-00047            
1 64507U 25134H   26272.62301979  .00000092  00000+0  41089-4 0  9999
2 64507  51.8973  33.7536 0000167 122.2907 237.8072 14.79940647 70514
KUIPER-00048            
1 64508U 25134J   26272.58926609  .00001697  00000+0  25151-3 0  9991
2 64508  51.8994  33.9163 0000402 114.7602 245.3402 14.79927371 70516
KUIPER-00049            
1 64509U 25134K   26272.67705742  .00002004  00000+0  29170-3 0  9993
2 64509  51.9011  46.0021 0000426 115.0224 245.0783 14.79937131 70352
KUIPER-00050            
1 64510U 25134L   26272.62834876 -.00002145  00000+0 -25244-3 0  9997
2 64510  51.9017  28.7375 0000416 135.4682 224.6314 14.79937132 70592
KUIPER-00051            
1 64511U 25134M   26272.58555270  .00001795  00000+0  26432-3 0  9999
2 64511  51.8997  45.1078 0000533 160.6944 199.4038 14.79940373 70350
KUIPER-00053            
1 64513U 25134P   26272.58148168  .00001257  00000+0  18644-3 0  9994
2 64513  51.9003  39.4137 0002207 154.1840 205.9233 14.81664447 70433
KUIPER-00054            
1 64514U 25134Q   26272.65409789  .00001295  00000+0  19888-3 0  9995
2 64514  51.9000  36.1045 0000296 126.9190 233.1800 14.79926301 70489
KUIPER-00055            
1 64515U 25134R   26272.40141730  .00001725  00000+0  25513-3 0  9998
2 64515  51.8989 349.8746 0000484  46.7947 313.3056 14.79947385 71115
KUIPER-00056            
1 64516U 25134S   26272.61495616  .00001704  00000+0  25251-3 0  9993
2 64516  51.9028  41.3990 0000377 124.5056 235.5942 14.79926746 70412
KUIPER-00057            
1 64517U 25134T   26272.67438155  .00003782  00000+0  52490-3 0  9998
2 64517  51.9000  48.5487 0000430 111.2151 248.8857 14.79926506 70317
KUIPER-00058            
1 64518U 25134U   26272.57847654 -.00000263  00000+0 -55152-5 0  9999
2 64518  51.9007  43.9474 0000180  45.1247 314.9730 14.79930745 70374
KUIPER-00059            
1 64519U 25134V   26272.65140628  .00000877  00000+0  14404-3 0  9998
2 64519  51.9007  38.6639 0000181  92.3716 267.7267 14.79929225 70455
KUIPER-00060            
1 64520U 25134W   26272.61764965  .00000074  00000+0  38732-4 0  9992
2 64520  51.9029  38.8946 0000411 106.5753 253.5255 14.79931076 70434
KUIPER-00061            
1 64521U 25134X   26272.57577277  .00001930  00000+0  28216-3 0  9993
2 64521  51.9000  46.5170 0000494 134.3397 225.7606 14.79927333 70323
KUIPER-00062            
1 64522U 25134Y   26272.57308144  .00001352  00000+0  20632-3 0  9991
2 64522  51.8958  48.9737 0001188   2.5396 357.5572 14.79935894 70301
KUIPER-00063            
1 64523U 25134Z   26272.70006881  .00001679  00000+0  24920-3 0  9996
2 64523  51.9026  56.0128 0000458  97.9219 262.1796 14.79933460 70210
KUIPER-00064            
1 64524U 25134AA  26272.70274899  .00001907  00000+0  27905-3 0  9993
2 64524  51.9035  53.4281 0000702 135.8036 224.2983 14.79939141 70256
KUIPER-00065            
1 64525U 25134AB  26272.62985402  .00001921  00000+0  28089-3 0  9994
2 64525  51.9033  58.9270 0000586 115.9674 244.1349 14.79927045 70156
KUIPER-00066            
1 64526U 25134AC  26272.52840785  .00000370  00000+0  77500-4 0  9998
2 64526  51.9032 356.6420 0000362  90.0317 270.0687 14.79929988 71039
KUIPER-00069            
1 64816U 25151A   26272.72175132  .00001585  00000+0  23691-3 0  9998
2 64816  51.9012  98.4251 0000778 114.1912 245.9132 14.79937118 66979
KUIPER-00070            
1 64817U 25151B   26271.78312252  .00001612  00000+0  24035-3 0  9994
2 64817  51.8987 127.4728 0001158 104.4575 255.6516 14.79935722 66492
KUIPER-00071            
1 64818U 25151C   26272.73124277  .00000256  00000+0  62607-4 0  9990
2 64818  51.8988 120.8273 0000748 106.3147 253.7898 14.79928018 65486
KUIPER-00072            
1 64819U 25151D   26272.78657821  .00001594  00000+0  23816-3 0  9996
2 64819  51.8970 100.5017 0000806 107.8301 252.2750 14.79924332 65770
KUIPER-00073            
1 64820U 25151E   26272.29230709  .00000954  00000+0  15421-3 0  9998
2 64820  51.8992 122.7459 0001185 101.5469 258.5626 14.79926054 66606
KUIPER-00075            
1 64822U 25151G   26272.39759691  .00014397  00000+0  37802-3 0  9990
2 64822  51.8640 308.8527 0002730 285.5029  74.5656 15.38868030 67844
KUIPER-00076            
1 64823U 25151H   26272.84332965  .00001489  00000+0  22427-3 0  9997
2 64823  51.9005 110.3338 0000920 111.2690 248.8370 14.79933358 65640
KUIPER-00077            
1 64824U 25151J   26272.29770013  .00000133  00000+0  46512-4 0  9994
2 64824  51.9011 117.7702 0001113 107.0098 253.0986 14.79929900 65496
KUIPER-00078            
1 64825U 25151K   26272.73933135  .00000212  00000+0  56783-4 0  9999
2 64825  51.9005 113.2909 0001245 123.8772 236.2308 14.79931510 65593
KUIPER-00079            
1 64826U 25151L   26272.29499208 -.00001186  00000+0 -12653-3 0  9999
2 64826  51.8985 120.2031 0001092 109.1934 250.9146 14.79933522 66657
KUIPER-00080            
1 64827U 25151M   26272.73393634  .00001584  00000+0  23680-3 0  9997
2 64827  51.8988 118.2770 0000663 109.2698 250.8336 14.79923329 65528
KUIPER-00082            
1 64828U 25151N   26272.84871480  .00001493  00000+0  22484-3 0  9990
2 64828  51.9007 105.3334 0000842 110.3113 249.7940 14.79935278 65714
KUIPER-00083            
1 64829U 25151P   26272.30039274  .00001805  00000+0  26568-3 0  9993
2 64829  51.8997 115.2401 0001127 112.6887 247.4194 14.79932719 66711
KUIPER-00084            
1 64830U 25151Q   26272.28959440  .00001137  00000+0  17811-3 0  9997
2 64830  51.9006 125.2732 0000712 111.9600 248.1438 14.79935511 65381
KUIPER-00085            
1 64831U 25151R   26272.81496843  .00001424  00000+0  21581-3 0  9998
2 64831  51.9026 105.5422 0000880 116.2176 243.8877 14.79929702 65703
KUIPER-00086            
1 64832U 25151S   26272.73664095  .00001451  00000+0  21934-3 0  9998
2 64832  51.8997 115.8208 0000938 117.0385 243.0673 14.79933631 65556
KUIPER-00087            
1 64833U 25151T   26272.68798285 -.00000617  00000+0 -51978-4 0  9999
2 64833  51.8992  98.4879 0000763 122.3012 237.8024 14.79931025 65785
KUIPER-00089            
1 64834U 25151U   26272.81764830  .00001545  00000+0  23170-3 0  9995
2 64834  51.8996 102.9413 0000664 116.4485 243.6545 14.79924276 65742
KUIPER-00090            
1 64835U 25151V   26272.69068870  .00001643  00000+0  24443-3 0  9996
2 64835  51.8982  95.9945 0000790 120.8143 239.2897 14.79929492 65824
KUIPER-00091            
1 64836U 25151W   26272.82035193  .00001742  00000+0  25745-3 0  9990
2 64836  51.9004 100.4525 0001041 122.5186 237.5877 14.79932568 65774
KUIPER-00092            
1 64837U 25151X   26272.81236780 -.00014278  00000+0 -18538-2 0  9996
2 64837  51.9001 107.9707 0000238 150.0679 210.0297 14.79801284 66881
KUIPER-00093            
1 64838U 25151Y   26272.80956462  .00001433  00000+0  21701-3 0  9996
2 64838  51.8993 110.4564 0000821 117.3706 242.7340 14.79923692 65637
KUIPER-00094            
1 64839U 25151Z   26272.72304319  .00001764  00000+0  26034-3 0  9997
2 64839  51.9040  65.9588 0000906 128.4829 231.6214 14.79939772 66257
KUIPER-00081            
1 65132U 25171A   26272.45948046  .00000588  00000+0  10607-3 0  9999
2 65132  51.9006 327.0019 0000386  35.0186 325.0802 14.79927445 63216
KUIPER-00088            
1 65133U 25171B   26272.50813400  .00001933  00000+0  28249-3 0  9997
2 65133  51.9016 344.2874 0000328  87.8812 272.2188 14.79931940 62972
KUIPER-00095            
1 65134U 25171C   26272.46218976  .00000632  00000+0  11186-3 0  9997
2 65134  51.9008 324.5268 0000312  84.2044 275.8954 14.79927219 63248
KUIPER-00096            
1 65135U 25171D   26272.48245699  .00001906  00000+0  27897-3 0  9993
2 65135  51.9014 336.8946 0000267  83.0064 277.0929 14.79929295 63076
KUIPER-00097            
1 65136U 25171E   26272.47978526  .00000291  00000+0  67220-4 0  9996
2 65136  51.9040 339.5789 0000487  94.8963 265.2055 14.79928171 63029
KUIPER-00098            
1 65137U 25171F   26272.40952588  .00001901  00000+0  27829-3 0  9999
2 65137  51.9025 342.2470 0000570  71.5354 288.5671 14.79933642 62334
KUIPER-00099            
1 65138U 25171G   26272.52162837  .00000716  00000+0  12294-3 0  9996
2 65138  51.9038 331.7684 0000261  67.0121 293.0869 14.79927972 63147
KUIPER-00100            
1 65139U 25171H   26272.35549310  .00000679  00000+0  11808-3 0  9991
2 65139  51.9007 329.9645 0000513  82.2164 277.8856 14.79927381 63157
KUIPER-00102            
1 65140U 25171J   26272.42032136  .00000241  00000+0  60574-4 0  9994
2 65140  51.8999 332.1458 0000180  58.4592 301.6388 14.79925655 63121
KUIPER-00103            
1 65141U 25171K   26272.50274280  .00001961  00000+0  28618-3 0  9994
2 65141  51.9011 349.2845 0000270  80.7388 279.3605 14.79932970 62892
KUIPER-00104            
1 65142U 25171L   26272.44870113  .00000142  00000+0  47655-4 0  9998
2 65142  51.9031 337.0460 0000311  78.1114 281.9884 14.79926549 63060
KUIPER-00105            
1 65143U 25171M   26272.40685519  .00001890  00000+0  27681-3 0  9996
2 65143  51.9014 344.8205 0000210  95.7129 264.3858 14.79929241 62959
KUIPER-00106            
1 65144U 25171N   26272.45510299  .00001661  00000+0  24688-3 0  9994
2 65144  51.9021 323.3767 0000385  73.7716 286.3289 14.79921728 63263
KUIPER-00107            
1 65145U 25171P   26272.35819635 -.00000036  00000+0  24308-4 0  9996
2 65145  51.9036 327.4783 0000540  88.7098 271.3926 14.79927976 63190
KUIPER-00108            
1 65146U 25171Q   26272.71613194  .00001800  00000+0  26513-3 0  9997
2 65146  51.9039 338.4447 0000284  64.0324 296.0667 14.79927543 63070
KUIPER-00109            
1 65147U 25171R   26272.48515976  .00001904  00000+0  27871-3 0  9994
2 65147  51.9044 334.4082 0000291  78.9457 281.1538 14.79927875 63101
KUIPER-00110            
1 65148U 25171S   26272.50544824  .00002062  00000+0  29945-3 0  9992
2 65148  51.9009 346.8602 0000259  63.6464 296.4525 14.79929317 62928
KUIPER-00111            
1 65149U 25171T   26272.53380137  .00000472  00000+0  90876-4 0  9996
2 65149  51.8993 351.5943 0000360  40.7705 319.3284 14.79927440 62863
KUIPER-00112            
1 65150U 25171U   26272.45139552  .00001908  00000+0  27924-3 0  9990
2 65150  51.9029 334.5998 0000291  87.6854 272.4142 14.79922229 63093
KUIPER-00114            
1 65151U 25171V   26272.53111808  .00000472  00000+0  90961-4 0  9991
2 65151  51.9003 354.2034 0000288  73.1481 286.9513 14.79927099 62820
KUIPER-00115            
1 65152U 25171W   26272.40415000  .00000937  00000+0  15188-3 0  9992
2 65152  51.8985 347.2741 0000279  68.7042 291.3950 14.79930127 62910
KUIPER-00116            
1 65153U 25171X   26272.43252623  .00001790  00000+0  26374-3 0  9993
2 65153  51.9007 352.1812 0000387 104.6969 255.4036 14.79928214 62841
KUIPER-00118            
1 65154U 25171Y   26272.42979984  .00004732  00000+0  64907-3 0  9992
2 65154  51.8984 354.6407 0000437  47.4884 312.6116 14.79947739 62813
KUIPER-00119            
1 65155U 25171Z   26272.51083181  .00002072  00000+0  30063-3 0  9999
2 65155  51.9028 341.8878 0000197  77.3519 282.7466 14.79936579 62998
KUIPER-00120            
1 65762U 25217A   26272.27494623  .00002045  00000+0  29718-3 0  9999
2 65762  51.8983 232.7914 0000802  65.1879 294.9167 14.79932296 54881
KUIPER-00132            
1 65763U 25217B   26272.73540098  .00016712  00000+0  42605-3 0  9995
2 65763  51.8523  90.6141 0004870 333.9603  26.1139 15.39644479 56892
KUIPER-00133            
1 65764U 25217C   26272.30872449  .00001906  00000+0  27897-3 0  9992
2 65764  51.9020 232.7862 0000673  72.5746 287.5290 14.79937392 54897
KUIPER-00139            
1 65765U 25217D   26272.20871573  .00000535  00000+0  99225-4 0  9991
2 65765  51.9002 200.6467 0001140  74.3308 285.7780 14.79926852 55330
KUIPER-00142            
1 65766U 25217E   26272.56395166  .00001846  00000+0  27115-3 0  9994
2 65766  51.8986 214.0451 0000870  74.8643 285.2416 14.79926310 55171
KUIPER-00145            
1 65767U 25217F   26272.56125656  .00001442  00000+0  21814-3 0  9992
2 65767  51.9001 216.5827 0000894  71.9029 288.2031 14.79924956 55133
KUIPER-00147            
1 65768U 25217G   26272.25456543  .00002014  00000+0  29331-3 0  9999
2 65768  51.8982 220.4097 0000952  65.0885 295.0176 14.79895129 55059
KUIPER-00148            
1 65769U 25217H   26272.54366915 -.00000175  00000+0  60424-5 0  9992
2 65769  51.9042 201.6907 0000825  86.6656 273.4401 14.79927001 55341
KUIPER-00150            
1 65770U 25217J   26272.31141335  .00001953  00000+0  28510-3 0  9998
2 65770  51.9001 230.2107 0000810  76.6493 283.4559 14.79937184 54921
KUIPER-00151            
1 65771U 25217K   26272.58961399  .00000368  00000+0  77227-4 0  9997
2 65771  51.8989 221.4773 0000817  70.9466 289.1584 14.79929293 55071
KUIPER-00152            
1 65772U 25217L   26272.23168527  .00002155  00000+0  31161-3 0  9994
2 65772  51.9000 210.5406 0001016  66.7280 293.3789 14.79939539 55199
KUIPER-00153            
1 65773U 25217M   26272.03450043  .00002086  00000+0  30259-3 0  9990
2 65773  51.9014 206.5024 0001001  92.1496 267.9581 14.79932106 55237
KUIPER-00155            
1 65774U 25217N   26271.99663173  .00000233  00000+0  59510-4 0  9999
2 65774  51.9006 179.1319 0000776  96.0538 264.0513 14.79932979 55612
KUIPER-00156            
1 65775U 25217P   26272.54098101  .00001852  00000+0  27195-3 0  9996
2 65775  51.9019 204.2465 0000886  83.9030 276.2033 14.79928140 55306
KUIPER-00165            
1 65778U 25217S   26272.73276866  .00001760  00000+0  25982-3 0  9996
2 65778  51.9005 213.3267 0000823  94.8502 265.2554 14.79936709 55194
KUIPER-00166            
1 65779U 25217T   26272.10472668  .00000877  00000+0  14406-3 0  9993
2 65779  51.9024 203.6688 0000929  92.4930 267.6139 14.79928417 55272
KUIPER-00167            
1 65780U 25217U   26272.58690227  .00001802  00000+0  26534-3 0  9994
2 65780  51.8954 223.8480 0001016  65.5139 294.5929 14.79935011 55037
KUIPER-00168            
1 65781U 25217V   26272.20060584  .00002096  00000+0  30390-3 0  9992
2 65781  51.8999 208.1855 0001021  78.5895 281.5182 14.79934934 55229
KUIPER-00169            
1 65782U 25217W   26271.99263859  .00001625  00000+0  24215-3 0  9994
2 65782  51.9001 214.1192 0000755  83.7380 276.3669 14.79936329 55127
KUIPER-00170            
1 65783U 25217X   26271.98724222 -.00000036  00000+0  24261-4 0  9998
2 65783  51.8973 219.0833 0000823  77.4178 282.6876 14.79927908 55057
KUIPER-00172            
1 65785U 25217Z   26272.51259947  .00001559  00000+0  23346-3 0  9999
2 65785  51.8970 199.2935 0001111  70.4412 289.6670 14.79930676 55373
KUIPER-00173            
1 65786U 25217AA  26272.22901216  .00023095  00000+0  30526-2 0  9997
2 65786  51.9007 213.0601 0001460  61.7790 298.3320 14.79870849 55150
KUIPER-00174            
1 65787U 25217AB  26272.23438135  .00002266  00000+0  32630-3 0  9990
2 65787  51.9043 208.1031 0000770 109.9646 250.1399 14.79916741 55223
KUIPER-00176            
1 65788U 25217AC  26272.28573706  .00000976  00000+0  15699-3 0  9992
2 65788  51.9001 222.7933 0000941  71.6960 288.4105 14.79931886 55029
KUIPER-00101            
1 65947U 25228A   26272.43282881  .00001910  00000+0  27957-3 0  9998
2 65947  51.8968 179.5857 0001000  72.0144 288.0927 14.79916359 53403
KUIPER-00113            
1 65948U 25228B   26272.13437244  .00002156  00000+0  31179-3 0  9995
2 65948  51.8982 175.9279 0001055  87.0656 273.0427 14.79928600 53425
KUIPER-00117            
1 65949U 25228C   26272.09791236  .00001256  00000+0  19378-3 0  9992
2 65949  51.8971 178.5866 0001084  95.3886 264.7200 14.79924894 53386
KUIPER-00121            
1 65950U 25228D   26271.93448087  .00001997  00000+0  29083-3 0  9995
2 65950  51.8990 174.3344 0000996  93.1070 267.0007 14.79935083 53435
KUIPER-00122            
1 65951U 25228E   26272.12628944  .00001213  00000+0  18815-3 0  9992
2 65951  51.8981 183.4544 0000984  93.5692 266.5383 14.79926941 53322
KUIPER-00123            
1 65952U 25228F   26272.16004926  .00000022  00000+0  31969-4 0  9998
2 65952  51.8983 183.3129 0000973  84.7449 275.3625 14.79923146 53324
KUIPER-00124            
1 65953U 25228G   26272.43826133  .00001529  00000+0  22951-3 0  9994
2 65953  51.8990 174.5719 0001132  80.3553 279.7538 14.79927987 53470
KUIPER-00125            
1 65954U 25228H   26271.91418714  .00002000  00000+0  29135-3 0  9995
2 65954  51.9005 161.9458 0001116  96.2274 263.8816 14.79927618 53606
KUIPER-00126            
1 65955U 25228J   26272.19650860 -.00008883  00000+0 -11374-2 0  9999
2 65955  51.8981 180.6754 0000787  86.9981 273.1072 14.79948432 53368
KUIPER-00127            
1 65956U 25228K   26271.98513033  .00001987  00000+0  28962-3 0  9994
2 65956  51.8984 174.0937 0000998  83.0426 277.0650 14.79933269 53444
KUIPER-00128            
1 65957U 25228L   26272.10332156  .00001710  00000+0  25329-3 0  9993
2 65957  51.9000 173.6368 0000857  95.5351 264.5709 14.79924801 53456
KUIPER-00129            
1 65958U 25228M   26272.00740727  .00002238  00000+0  32247-3 0  9993
2 65958  51.8985 169.0395 0001075  82.7484 277.3601 14.79932325 53515
KUIPER-00130            
1 65959U 25228N   26272.03849263  .00000285  00000+0  66465-4 0  9992
2 65959  51.9037 171.4537 0000901  94.1494 265.9572 14.79927090 43775
KUIPER-00134            
1 65960U 25228P   26272.69282686  .00013769  00000+0  37213-3 0  9995
2 65960  51.8704  50.1458 0004729 312.2783  47.7803 15.38008721 55222
KUIPER-00135            
1 65961U 25228Q   26272.00472863  .00001065  00000+0  16874-3 0  9995
2 65961  51.9017 171.6509 0000992  96.8389 263.2687 14.79929583 53474
KUIPER-00136            
1 65962U 25228R   26271.97363096  .00001443  00000+0  21825-3 0  9990
2 65962  51.8997 169.2316 0001022  82.6821 277.4258 14.79923000 53502
KUIPER-00137            
1 65963U 25228S   26271.90881938  .00001932  00000+0  28236-3 0  9990
2 65963  51.9019 167.0335 0001145  82.1577 277.9516 14.79931029 53530
KUIPER-00138            
1 65964U 25228T   26272.41798292  .00000545  00000+0  10059-3 0  9991
2 65964  51.8984 162.1735 0001147  94.2362 265.8731 14.79926077 53643
KUIPER-00140            
1 65965U 25228U   26272.07764738  .00002044  00000+0  29715-3 0  9997
2 65965  51.9002 166.2731 0001046  96.9560 263.1521 14.79925579 53558
KUIPER-00141            
1 65966U 25228V   26272.42069423  .00001984  00000+0  28916-3 0  9990
2 65966  51.9025 159.8378 0000769 111.2618 248.8427 14.79932666 53678
KUIPER-00146            
1 65967U 25228W   26271.91152110  .00001417  00000+0  21478-3 0  9997
2 65967  51.9016 164.6013 0001336  88.8931 271.2185 14.79936222 53568
KUIPER-00149            
1 65968U 25228X   26272.42337376  .00001767  00000+0  26067-3 0  9991
2 65968  51.8982 157.2092 0000968  97.7452 262.3620 14.79937330 53715
KUIPER-00154            
1 65969U 25228Y   26272.05465632  .00001973  00000+0  28781-3 0  9992
2 65969  51.8988 156.3221 0000986  99.7428 260.3645 14.79930884 53690
KUIPER-00157            
1 65970U 25228Z   26272.77481906 -.00010672  00000+0 -15073-2 0  9992
2 65970  51.9018 155.5864 0000566  82.8736 277.2289 14.76011685 53765
KUIPER-00144            
1 67133U 25301A   26272.30602182  .00000156  00000+0  49510-4 0  9996
2 67133  51.9004 235.2356 0000902  69.8448 290.2612 14.79926826 44023
KUIPER-00164            
1 67134U 25301B   26272.29254441  .00001720  00000+0  25460-3 0  9991
2 67134  51.9025 247.8165 0000771  57.4798 302.6239 14.79934721 44025
KUIPER-00175            
1 67135U 25301C   26272.27764131  .00002076  00000+0  30122-3 0  9998
2 67135  51.8996 230.3115 0000888  54.0586 306.0459 14.79939141 44169
KUIPER-00179            
1 67136U 25301D   26272.29523241  .00001648  00000+0  24519-3 0  9993
2 67136  51.8970 245.2306 0000761  62.9828 297.1212 14.79934056 44062
KUIPER-00181            
1 67137U 25301E   26272.34928854  .00000814  00000+0  13581-3 0  9990
2 67137  51.9026 257.5624 0000691  32.7983 327.3022 14.79931781 43879
KUIPER-00183            
1 67138U 25301F   26272.28034708  .00002013  00000+0  29300-3 0  9999
2 67138  51.9017 227.8709 0000855  61.9511 298.1538 14.79936583 44296
KUIPER-00184            
1 67139U 25301G   26272.33438864  .00001849  00000+0  27151-3 0  9995
2 67139  51.8985 240.0694 0000722  63.8674 296.2362 14.79931980 44238
KUIPER-00186            
1 67140U 25301H   26272.24797243  .00001899  00000+0  27807-3 0  9999
2 67140  51.9023 258.0183 0000717  59.8576 300.2458 14.79934741 43707
KUIPER-00187            
1 67141U 25301J   26272.38032496  .00001861  00000+0  27309-3 0  9993
2 67141  51.9028 259.9613 0000803  88.9896 271.1159 14.79921689 43683
KUIPER-00188            
1 67142U 25301K   26272.31412686 -.00000370  00000+0 -19464-4 0  9990
2 67142  51.9008 227.8387 0000888  54.5985 305.5061 14.79927140 44127
KUIPER-00191            
1 67143U 25301L   26272.35468024  .00001737  00000+0  25671-3 0  9994
2 67143  51.9002 252.5453 0000604  58.5433 301.5588 14.79935828 43816
KUIPER-00196            
1 67144U 25301M   26272.53555851 -.00002210  00000+0 -26104-3 0  9991
2 67144  51.8976 209.1924 0000718  84.1330 275.9715 14.79931018 44403
KUIPER-00204            
1 67145U 25301N   26272.28302547 -.00006015  00000+0 -76064-3 0  9993
2 67145  51.9006 225.3522 0000817  92.3278 267.7778 14.79934692 44279
KUIPER-00210            
1 67146U 25301P   26272.25318429  .00001660  00000+0  24643-3 0  9992
2 67146  51.8989 252.9380 0000844  39.6398 320.4626 14.79977440 43944
KUIPER-00221            
1 67147U 25301Q   26272.34658553  .00001887  00000+0  27655-3 0  9995
2 67147  51.9009 260.0655 0000657  85.0498 275.0540 14.79925313 43685
KUIPER-00232            
1 67148U 25301R   26272.32900727  .00000752  00000+0  12772-3 0  9991
2 67148  51.8982 245.1499 0000765  65.4748 294.6294 14.79929203 43882
KUIPER-00241            
1 67149U 25301S   26272.35198390  .00001016  00000+0  16232-3 0  9999
2 67149  51.9025 255.0757 0000818  61.7159 298.3886 14.79926810 44085
KUIPER-00245            
1 67150U 25301T   26272.27636956  .00001848  00000+0  27131-3 0  9990
2 67150  51.9026 262.9196 0000566  68.0446 292.0576 14.79934812 43639
KUIPER-00246            
1 67151U 25301U   26272.12371362  .00001813  00000+0  26672-3 0  9993
2 67151  51.8994 248.5271 0000712  56.4510 303.6520 14.79936463 43848
KUIPER-00247            
1 67152U 25301V   26272.33708388  .00001082  00000+0  17095-3 0  9996
2 67152  51.8951 237.5240 0000789  67.2085 292.8961 14.79926149 43991
KUIPER-00248            
1 67153U 25301W   26272.15338405  .00001991  00000+0  29011-3 0  9996
2 67153  51.8980 220.9843 0000900  74.5379 285.5683 14.79936442 44371
KUIPER-00249            
1 67154U 25301X   26272.27226137  .00000408  00000+0  82567-4 0  9996
2 67154  51.8979 235.3921 0000824  56.3154 303.7887 14.79929620 44011
KUIPER-00250            
1 67155U 25301Y   26272.42489883  .00001897  00000+0  27785-3 0  9996
2 67155  51.8986 249.6703 0000856  62.6804 297.4245 14.79919937 43862
KUIPER-00251            
1 67156U 25301Z   26272.16826812 -.00000151  00000+0  92226-5 0  9992
2 67156  51.8995 238.3831 0000788  60.7102 299.3939 14.79927468 44156
KUIPER-00252            
1 67157U 25301AA  26272.09803646  .00001804  00000+0  26556-3 0  9991
2 67157  51.8994 241.1439 0000700  79.9599 280.1442 14.79932890 43924
KUIPER-00261            
1 67158U 25301AB  26272.32360980 -.00000046  00000+0  22915-4 0  9991
2 67158  51.9014 250.2108 0000489  68.6092 291.4923 14.79930444 43810
KUIPER-00265            
1 67159U 25301AC  26272.13861020 -.00000309  00000+0 -11579-4 0  9999
2 67159  51.9037 266.0089 0000442  28.1206 331.9780 14.79925678 43618
KUIPER-00159            
1 67764U 26030A   26272.41667521  .00001888  00000+0  27655-3 0  9994
2 67764  51.9032 343.5166 0001314 343.6142  16.4778 14.79952403 36020
KUIPER-00160            
1 67765U 26030B   26272.41154366  .00001841  00000+0  27048-3 0  9998
2 67765  51.8998 324.7878 0000374 137.3607 222.7384 14.79924968 36289
KUIPER-00177            
1 67766U 26030C   26272.49067648  .00000524  00000+0  97784-4 0  9995
2 67766  51.9032  31.9191 0000461 122.6212 237.4795 14.79931718 35358
KUIPER-00178            
1 67767U 26030D   26272.52443925  .00001381  00000+0  21015-3 0  9991
2 67767  51.9003  31.7500 0000514 106.5250 253.5769 14.79929455 35367
KUIPER-00180            
1 67768U 26030E   26272.59737381  .00001787  00000+0  26340-3 0  9997
2 67768  51.8976  26.4171 0000267 116.4357 243.6633 14.79930893 35441
KUIPER-00197            
1 67769U 26030F   26272.55140145  .00002099  00000+0  30428-3 0  9999
2 67769  51.9003   6.6394 0000295 109.9309 250.1685 14.79930487 35715
KUIPER-00198            
1 67770U 26030G   26272.50415419  .00001829  00000+0  26886-3 0  9998
2 67770  51.8981  19.3199 0000338 138.7856 221.3132 14.79931851 35533
KUIPER-00199            
1 67771U 26030H   26272.58335648 -.00000132  00000+0  11337-4 0  9995
2 67771  51.8964 318.4655 0013781  66.2739  43.7015 14.95567338  5161
KUIPER-00200            
1 67772U 26030J   26272.52033767 -.00000950  00000+0 -95703-4 0  9995
2 67772  51.8955   4.2930 0000441  93.4670 266.6343 14.79926643 35740
KUIPER-00203            
1 67773U 26030K   26272.35022273 -.00001657  00000+0 -18836-3 0  9993
2 67773  51.9059  37.6265 0000496 114.9954 245.1060 14.79943816 35268
KUIPER-00205            
1 67774U 26030L   26272.45550093  .00001811  00000+0  26647-3 0  9990
2 67774  51.9013   2.0491 0000326  93.2333 266.8667 14.79929784 35775
KUIPER-00208            
1 67775U 26030M   26272.52712703  .00001743  00000+0  25754-3 0  9999
2 67775  51.8976  29.2239 0000792 151.2152 208.8854 14.79937831 35399
KUIPER-00209            
1 67776U 26030N   26272.49607243 -.00000257  00000+0 -46806-5 0  9992
2 67776  51.8999  26.9643 0000421 121.1603 238.9400 14.79930241 35427
KUIPER-00213            
1 67777U 26030P   26272.60005110  .00001893  00000+0  27723-3 0  9991
2 67777  51.8974  23.9587 0000353  97.9970 262.1033 14.79932540 35476
KUIPER-00214            
1 67778U 26030Q   26272.56899824  .00002083  00000+0  30223-3 0  9991
2 67778  51.8995  21.6361 0000405  98.3582 261.7427 14.79924296 35502
KUIPER-00215            
1 67779U 26030R   26272.54869704  .00001833  00000+0  26935-3 0  9991
2 67779  51.8998   9.0790 0000312 106.0617 254.0380 14.79932082 35689
KUIPER-00218            
1 67780U 26030S   26272.49875370  .00001702  00000+0  25222-3 0  9996
2 67780  51.8956  24.3347 0000097  65.5572 294.5401 14.79936834 35460
KUIPER-00220            
1 67781U 26030T   26272.25560220  .00000497  00000+0  94229-4 0  9990
2 67781  51.8964   0.4355 0000346  79.6475 280.4526 14.79920000 35773
KUIPER-00222            
1 67782U 26030U   26272.53793471  .00002154  00000+0  31147-3 0  9999
2 67782  51.8981  19.3262 0000292 129.1622 230.9367 14.79929109 35530
KUIPER-00223            
1 67783U 26030V   26272.57974051  .00005391  00000+0  73507-3 0  9991
2 67783  51.9006  11.4524 0000198  56.0248 304.0733 14.79958823 35659
KUIPER-00225            
1 67784U 26030W   26272.57439237  .00001737  00000+0  25680-3 0  9993
2 67784  51.8989  16.6218 0000360  90.8606 269.2398 14.79931775 35578
KUIPER-00226            
1 67785U 26030X   26272.48654243  .00003899  00000+0  53998-3 0  9994
2 67785  51.9041   4.3955 0001148  36.1393 323.9647 14.79952912 35742
KUIPER-00259            
1 67786U 26030Y   26272.54061861  .00002046  00000+0  29726-3 0  9995
2 67786  51.9004  16.6733 0000216 121.9612 238.1372 14.79928659 35578
KUIPER-00260            
1 67787U 26030Z   26272.54332616  .00001790  00000+0  26371-3 0  9993
2 67787  51.8978  14.2727 0000195 140.3024 219.7953 14.79929727 35514
KUIPER-00262            
1 67788U 26030AA  26272.57704988  .00001930  00000+0  28195-3 0  9994
2 67788  51.9027  14.0432 0000405 139.2934 220.8059 14.79948627 35614
KUIPER-00266            
1 67789U 26030AB  26272.54601414  .00001795  00000+0  26442-3 0  9994
2 67789  51.9003  11.6698 0000475 114.7649 245.3363 14.79928790 35646
KUIPER-00268            
1 67790U 26030AC  26272.51495152  .00000337  00000+0  73192-4 0  9999
2 67790  51.9061   9.3578 0000141 114.4099 245.6879 14.79928584 35678
KUIPER-00270            
1 67791U 26030AD  26272.49196363 -.00000043  00000+0  23369-4 0  9995
2 67791  51.9006 359.3998 0000352  81.3497 278.7505 14.79925861 35814
KUIPER-00274            
1 67792U 26030AE  26272.53522976  .00000559  00000+0  10237-3 0  9994
2 67792  51.9044  21.7277 0000211  93.3547 266.7440 14.79927592 35504
KUIPER-00275            
1 67793U 26030AF  26272.55678943  .00002140  00000+0  30955-3 0  9990
2 67793  51.9017   1.6248 0000138 137.5558 222.5415 14.79937217 35788
KUIPER-00276            
1 67794U 26030AG  26272.45010905  .00000882  00000+0  14470-3 0  9993
2 67794  51.8997   7.0716 0000328  91.0018 269.0982 14.79928213 35704
KUIPER-00279            
1 67795U 26030AH  26272.42713807  .00001776  00000+0  26198-3 0  9995
2 67795  51.9038 357.2283 0000316 101.5798 258.5200 14.79928899 35830
KUIPER-00131            
1 68573U 26072A   26272.76091919  .00000046  00000+0  35042-4 0  9994
2 68573  51.8992  93.2261 0000633 126.2202 233.8819 14.79924745 26605
KUIPER-00189            
1 68574U 26072B   26272.72444536 -.00000005  00000+0  28349-4 0  9996
2 68574  51.8984  95.8611 0000676 119.1925 240.9105 14.79930177 26562
KUIPER-00192            
1 68575U 26072C   26272.69608182  .00001374  00000+0  20925-3 0  9992
2 68575  51.8989  91.0076 0000915 120.0007 240.1047 14.79933226 26632
KUIPER-00193            
1 68576U 26072D   26272.77440234  .00002401  00000+0  34380-3 0  9996
2 68576  51.9046  80.7130 0000821 125.9220 234.1819 14.79933594 26785
KUIPER-00194            
1 68577U 26072E   26272.66501914  .00000655  00000+0  11489-3 0  9992
2 68577  51.9030  88.6730 0000966 116.9436 243.1625 14.79928838 26668
KUIPER-00229            
1 68578U 26072F   26272.72714562  .00000163  00000+0  50437-4 0  9996
2 68578  51.8997  93.3769 0001076 137.1216 222.9830 14.79931024 26607
KUIPER-00230            
1 68579U 26072G   26272.56914220  .00001357  00000+0  22322-3 0  9999
2 68579  51.9044  41.4457 0000909 100.6895 259.4168 14.76575526 27318
KUIPER-00231            
1 68580U 26072H   26272.62176220  .00001862  00000+0  27330-3 0  9993
2 68580  51.8985  66.4111 0001736 144.8929 215.2148 14.79924349 26966
KUIPER-00234            
1 68581U 26072J   26272.76629661  .00002295  00000+0  32991-3 0  9991
2 68581  51.8978  88.1873 0001095 115.5853 244.5223 14.79936847 26677
KUIPER-00236            
1 68582U 26072K   26272.61223073  .00001562  00000+0  23392-3 0  9994
2 68582  51.9056  43.8839 0001006 112.8463 247.2606 14.79913950 27288
KUIPER-00244            
1 68583U 26072L   26272.67579519 -.00000209  00000+0  15856-5 0  9996
2 68583  51.8983  78.6105 0000733 128.6835 231.4193 14.79931004 26806
KUIPER-00253            
1 68584U 26072M   26272.74063942  .00001807  00000+0  26598-3 0  9990
2 68584  51.9034  80.8547 0000886 121.5077 238.5972 14.79925575 26774
KUIPER-00254            
1 68585U 26072N   26272.77168204  .00001680  00000+0  24926-3 0  9993
2 68585  51.9028  83.2138 0000969 113.8025 246.3040 14.79938503 26745
KUIPER-00263            
1 68586U 26072P   26272.65282953  .00001603  00000+0  23926-3 0  9993
2 68586  51.9028  68.8051 0000525 117.8939 242.2077 14.79926430 26937
KUIPER-00269            
1 68587U 26072Q   26272.65011899  .00001356  00000+0  20677-3 0  9998
2 68587  51.8989  71.2217 0000841 125.3255 234.7786 14.79935464 26908
KUIPER-00272            
1 68588U 26072R   26272.72984531  .00001561  00000+0  23381-3 0  9992
2 68588  51.8979  90.8347 0000840 117.9651 242.1396 14.79926785 26631
KUIPER-00285            
1 68589U 26072S   26272.75142941  .00001820  00000+0  26775-3 0  9995
2 68589  51.9064  70.8625 0001246 107.3311 252.7787 14.79934711 26912
KUIPER-00286            
1 68590U 26072T   26272.68658566  .00001614  00000+0  24069-3 0  9999
2 68590  51.9012  68.5720 0000480  93.2660 266.8357 14.79922471 26948
KUIPER-00289            
1 68591U 26072U   26272.74602016  .00000313  00000+0  70094-4 0  9991
2 68591  51.8970  75.7830 0000959 119.0509 241.0549 14.79926667 26841
KUIPER-00290            
1 68592U 26072V   26272.64472127  .00001765  00000+0  26062-3 0  9996
2 68592  51.9021  76.2434 0000748 146.5307 213.5703 14.79916284 26832
KUIPER-00293            
1 68593U 26072W   26272.73524056  .00001531  00000+0  22986-3 0  9998
2 68593  51.8986  85.8095 0001765  91.4000 268.7165 14.79921759 26702
KUIPER-00294            
1 68594U 26072X   26272.74871664  .00000927  00000+0  15060-3 0  9993
2 68594  51.9002  73.2749 0000697 128.7601 231.3424 14.79930663 26881
KUIPER-00296            
1 68595U 26072Y   26272.59877409  .00000357  00000+0  75841-4 0  9991
2 68595  51.9011  56.4579 0000591 120.7522 239.3499 14.79926759 27100
KUIPER-00297            
1 68596U 26072Z   26272.70147313  .00001594  00000+0  23804-3 0  9994
2 68596  51.8997  85.9623 0001237 130.9724 229.1345 14.79927701 26705
KUIPER-00300            
1 68597U 26072AA  26272.73793345  .00001460  00000+0  22046-3 0  9999
2 68597  51.9013  83.3385 0000636 123.1030 236.9993 14.79935572 26743
KUIPER-00301            
1 68598U 26072AB  26272.64466375  .00001097  00000+0  18648-3 0  9999
2 68598  51.9018  53.5091 0002103 227.6567 132.4216 14.76517418 27143
KUIPER-00304            
1 68599U 26072AC  26272.60605231  .00001454  00000+0  23663-3 0  9992
2 68599  51.9000  55.6213 0000617  55.5872 304.5147 14.76632040 27110
KUIPER-00317            
1 68600U 26072AD  26272.64739980 -.00014593  00000+0 -18882-2 0  9994
2 68600  51.8959  73.7278 0000760 133.8196 226.2829 14.79957857 26862
KUIPER-00320            
1 68601U 26072AE  26272.77708928  .00001734  00000+0  25641-3 0  9990
2 68601  51.9026  78.1733 0000629 105.7221 254.3810 14.79931650 26815
KUIPER-00299            
1 68864U 26095A   26272.39770796  .00000229  00000+0  59065-4 0  9992
2 68864  51.9005 149.8119 0001124 104.1455 255.9632 14.79926717 23049
KUIPER-00353            
1 68865U 26095B   26272.04247235  .00000173  00000+0  51664-4 0  9997
2 68865  51.8976 136.4126 0000787 107.3428 252.7621 14.79928195 23208
KUIPER-00357            
1 68866U 26095C   26272.33825996  .00001261  00000+0  19443-3 0  9993
2 68866  51.9020 142.6140 0001241  85.7771 274.3333 14.79931809 23140
KUIPER-00364            
1 68867U 26095D   26272.03168246  .00001977  00000+0  28823-3 0  9995
2 68867  51.9036 146.4957 0001203  88.9922 271.1178 14.79937945 23067
KUIPER-00375            
1 68868U 26095E   26271.93848147  .00001863  00000+0  27333-3 0  9998
2 68868  51.9005 139.3781 0000934 102.6682 257.4385 14.79929880 23153
KUIPER-00433            
1 68869U 26095F   26271.98983516  .00000786  00000+0  13208-3 0  9993
2 68869  51.9011 154.1432 0001354  86.3813 273.7304 14.79925942 22954
KUIPER-00437            
1 68870U 26095G   26272.83336806 -.00069644  00000+0 -90576-2 0  9996
2 68870  51.9001 102.3225 0002773 343.3591 223.7011 14.80587754  3793
KUIPER-00448            
1 68871U 26095H   26272.37204026  .00001760  00000+0  25986-3 0  9991
2 68871  51.9032 142.4634 0000983 118.6117 241.4944 14.79929697 23142
KUIPER-00459            
1 68872U 26095J   26272.75694248  .00001559  00000+0  23345-3 0  9996
2 68872  51.9005 128.3224 0000810 110.6925 249.4124 14.79924720 23374
KUIPER-00468            
1 68873U 26095K   26272.30614287  .00001243  00000+0  20664-3 0  9994
2 68873  51.8977 128.0550 0000604 181.4162 178.6797 14.76634533 23344
KUIPER-00476            
1 68874U 26095L   26272.71094906  .00000342  00000+0  73828-4 0  9990
2 68874  51.9013 108.3764 0000795 116.2606 243.8438 14.79920660 23658
KUIPER-00478            
1 68875U 26095M   26272.34905699  .00001459  00000+0  22043-3 0  9992
2 68875  51.8991 132.5585 0000981 102.1627 257.9445 14.79927127 23285
KUIPER-00480            
1 68876U 26095N   26272.31798766  .00000084  00000+0  40019-4 0  9992
2 68876  51.9026 130.2122 0000760 114.8739 245.2303 14.79929389 23316
KUIPER-00482            
1 68877U 26095P   26271.90200975  .00001674  00000+0  24851-3 0  9998
2 68877  51.8996 142.0377 0001660  70.8768 289.2374 14.79937214 23118
KUIPER-00483            
1 68878U 26095Q   26271.88852372  .00001719  00000+0  25440-3 0  9995
2 68878  51.8975 154.5598 0001436  50.1080 310.0009 14.79940146 22933
KUIPER-00488            
1 68879U 26095R   26272.07623269  .00001935  00000+0  28281-3 0  9995
2 68879  51.8984 136.2735 0001132  95.1579 264.9513 14.79935903 23202
KUIPER-00489            
1 68880U 26095S   26271.88174116  .00000483  00000+0  92399-4 0  9996
2 68880  51.8970 129.6112 0001195 104.7329 255.3766 14.79924742 23284
KUIPER-00499            
1 68881U 26095T   26272.04516732  .00001800  00000+0  26511-3 0  9996
2 68881  51.8995 133.9515 0000754 107.3314 252.7731 14.79928740 23230
KUIPER-00500            
1 68882U 26095U   26272.56651338  .00001734  00000+0  25633-3 0  9996
2 68882  51.9009 149.0989 0000950 101.3634 258.7435 14.79938625 23070
KUIPER-00502            
1 68883U 26095V   26272.65123859  .00001691  00000+0  25087-3 0  9994
2 68883  51.8999 124.9751 0001403  99.5449 260.5672 14.79929514 23412
KUIPER-00503            
1 68884U 26095W   26271.86015852  .00001810  00000+0  26646-3 0  9995
2 68884  51.8963 149.6911 0001089  97.3626 262.7460 14.79930237 23007
KUIPER-00504            
1 68885U 26095X   26271.88583721  .00001835  00000+0  26968-3 0  9997
2 68885  51.9009 157.1146 0000791  97.2386 262.8666 14.79930464 22904
KUIPER-00505            
1 68886U 26095Y   26272.06545419  .00001284  00000+0  19740-3 0  9999
2 68886  51.9010 146.3222 0000765  96.7316 263.3734 14.79926789 23065
KUIPER-00507            
1 68887U 26095Z   26272.32946906  .00001863  00000+0  27338-3 0  9990
2 68887  51.9003 135.1364 0000916 104.3703 255.7361 14.79932433 23249
KUIPER-00511            
1 68888U 26095AA  26271.98304353  .00001846  00000+0  27119-3 0  9994
2 68888  51.8978 129.2804 0001063 100.7353 259.3730 14.79928272 23299
KUIPER-00512            
1 68889U 26095AB  26272.43416366  .00001910  00000+0  27953-3 0  9992
2 68889  51.9012 147.1927 0000998 100.7018 259.4056 14.79933830 23084
KUIPER-00519            
1 68890U 26095AC  26271.83719348  .00001546  00000+0  23174-3 0  9999
2 68890  51.9007 139.8978 0000734 105.4298 254.6745 14.79930219 23130
KUIPER-00521            
1 68891U 26095AD  26272.30819511  .00001855  00000+0  27232-3 0  9998
2 68891  51.9023 131.5092 0000810 100.7991 259.3062 14.79932396 23297
KUIPER-00524            
1 68892U 26095AE  26272.34096705  .00001087  00000+0  17166-3 0  9997
2 68892  51.8981 140.0738 0001290  97.7600 262.3508 14.79926191 23179
KUIPER-00370            
1 68919U 26098A   26272.36896518  .00000067  00000+0  37796-4 0  9991
2 68919  51.9007 317.3327 0000539  80.7845 279.3178 14.79928236 22914
KUIPER-00380            
1 68920U 26098B   26272.30953894  .00001916  00000+0  28020-3 0  9991
2 68920  51.8989 310.2306 0000318  61.7083 298.3911 14.79932938 23002
KUIPER-00386            
1 68921U 26098C   26272.79643501  .00001610  00000+0  24015-3 0  9997
2 68921  51.9007 310.5731 0000387  64.8016 295.2986 14.79931789 23041
KUIPER-00388            
1 68922U 26098D   26272.43113482  .00000080  00000+0  39472-4 0  9993
2 68922  51.9037 322.3542 0000219  33.7848 326.3128 14.79928472 22844
KUIPER-00405            
1 68923U 26098E   26272.38316581  .00000754  00000+0  12784-3 0  9997
2 68923  51.9036 319.9198 0000700 277.9851  82.1032 14.79929991 22875
KUIPER-00408            
1 68924U 26098F   26272.37437218  .00001732  00000+0  25618-3 0  9995
2 68924  51.8998 312.3683 0000332  61.7257 298.3739 14.79927858 22985
KUIPER-00409            
1 68925U 26098G   26272.55469329  .00000136  00000+0  46826-4 0  9996
2 68925  51.9032 316.6615 0000484  80.9554 279.1463 14.79927787 22936
KUIPER-00410            
1 68926U 26098H   26272.42232026  .00000630  00000+0  11162-3 0  9998
2 68926  51.8981 314.7160 0000336 165.8514 194.2458 14.79926743 22952
KUIPER-00412            
1 68927U 26098J   26272.41354410  .00001699  00000+0  25190-3 0  9992
2 68927  51.9044 307.2964 0000344  43.3474 316.7516 14.79927132 23058
KUIPER-00413            
1 68928U 26098K   26272.50133383  .00001815  00000+0  26704-3 0  9999
2 68928  51.9006 319.3758 0000308 311.4764  48.6172 14.79938016 22896
KUIPER-00414            
1 68929U 26098L   26272.52431786  .00001858  00000+0  27257-3 0  9991
2 68929  51.8992 329.3551 0000562 175.5696 184.5271 14.79938150 22751
KUIPER-00415            
1 68930U 26098M   26272.47567005  .00001799  00000+0  26492-3 0  9995
2 68930  51.9023 312.0079 0000352  62.7076 297.3923 14.79932677 22990
KUIPER-00416            
1 68931U 26098N   26272.42588602  .00001588  00000+0  23703-3 0  9995
2 68931  51.9030 303.5800 0000295  56.5615 303.5376 14.79974580 23107
KUIPER-00420            
1 68932U 26098P   26272.34870165  .00001687  00000+0  25030-3 0  9990
2 68932  51.9016 305.0303 0000444  90.1577 269.9436 14.79925011 23088
KUIPER-00421            
1 68933U 26098Q   26272.47834444  .00001699  00000+0  25188-3 0  9992
2 68933  51.9031 309.4426 0000570  88.1812 271.9216 14.79921944 23034
KUIPER-00425            
1 68934U 26098R   26272.40271842  .00001818  00000+0  26743-3 0  9994
2 68934  51.8995 317.3185 0000426  91.5992 268.5019 14.79919509 22913
KUIPER-00430            
1 68935U 26098S   26272.40003989  .00001798  00000+0  26485-3 0  9990
2 68935  51.9042 319.7346 0000348  76.8913 283.2088 14.79930095 22884
KUIPER-00431            
1 68936U 26098T   26272.32982203  .00001242  00000+0  19189-3 0  9994
2 68936  51.8999 322.6282 0000213  34.3980 325.6996 14.79925852 22830
KUIPER-00432            
1 68937U 26098U   26272.33789770  .00001747  00000+0  25815-3 0  9993
2 68937  51.9011 314.9929 0000330  59.1170 300.9825 14.79930429 22940
KUIPER-00434            
1 68938U 26098V   26272.41077825  .00001180  00000+0  19878-3 0  9997
2 68938  51.9025 318.9714 0001037 161.2511 198.8488 14.76400175 22891
KUIPER-00436            
1 68939U 26098W   26272.31832735  .00001906  00000+0  27889-3 0  9993
2 68939  51.9009 317.6925 0000321  85.0758 275.0241 14.79932910 22902
KUIPER-00438            
1 68940U 26098X   26272.32103819  .00001597  00000+0  23845-3 0  9994
2 68940  51.9024 315.2077 0000442  56.6484 303.4521 14.79929729 22931
KUIPER-00439            
1 68941U 26098Y   26272.37167905  .00000137  00000+0  47003-4 0  9998
2 68941  51.9041 314.9764 0000574  67.7636 292.3387 14.79924379 22941
KUIPER-00440            
1 68942U 26098Z   26272.80183635  .00001203  00000+0  18684-3 0  9992
2 68942  51.9031 305.5719 0000711  16.3329 343.7656 14.79925841 23114
KUIPER-00442            
1 68943U 26098AA  26272.79909838  .00002433  00000+0  34811-3 0  9998
2 68943  51.9011 308.0968 0002407  52.3533 307.7647 14.79931730 23077
KUIPER-00446            
1 68944U 26098AB  26272.42502124  .00001709  00000+0  25322-3 0  9998
2 68944  51.9000 312.2359 0000932 317.7562  42.3328 14.79928087 22986
KUIPER-00451            
1 68945U 26098AC  26272.34670782  .00001250  00000+0  19291-3 0  9995
2 68945  51.9000 322.5644 0000239  42.1697 317.9283 14.79925440 22831
KUIPER-00452            
1 68946U 26098AD  26272.36018368  .00001424  00000+0  21570-3 0  9990
2 68946  51.9016 310.0224 0000367  80.3705 279.7298 14.79935723 23018
KUIPER-00453            
1 68947U 26098AE  26272.78494178  .00001519  00000+0  22826-3 0  9994
2 68947  51.8991 305.5602 0000910 175.8516 184.2454 14.79927562 23110
KUIPER-00454            
1 68948U 26098AF  26272.36084418 -.00001845  00000+0 -21302-3 0  9993
2 68948  51.8985 324.9902 0000542  37.0975 323.0025 14.79933670 22800
KUIPER-00455            
1 68949U 26098AG  26272.44798815  .00001521  00000+0  22849-3 0  9992
2 68949  51.9004 322.1205 0000773 172.8282 187.2692 14.79938451 22852
KUIPER-00458            
1 68950U 26098AH  26272.29535263  .00000388  00000+0  79969-4 0  9999
2 68950  51.9026 307.8201 0000767  70.5340 289.5706 14.79926075 23038
KUIPER-00282            
1 69267U 26118A   26272.77615080  .00001612  00000+0  24042-3 0  9995
2 69267  51.8969 298.1442 0000339   7.2574 352.8393 14.79931214 19644
KUIPER-00383            
1 69268U 26118B   26272.79573512  .00000222  00000+0  58100-4 0  9990
2 69268  51.8985 295.5801 0000382  52.8619 307.2378 14.79927666 19684
KUIPER-00527            
1 69269U 26118C   26272.55939898  .00000194  00000+0  54482-4 0  9995
2 69269  51.8967 296.7594 0000893  77.0130 283.0932 14.79923666 19640
KUIPER-00562            
1 69270U 26118D   26272.33111185  .00001732  00000+0  25618-3 0  9991
2 69270  51.9029 290.0847 0000774  63.3844 296.7197 14.79932067 19726
KUIPER-00570            
1 69271U 26118E   26272.35140831  .00000520  00000+0  97175-4 0  9996
2 69271  51.9009 302.6533 0000499  59.2368 300.8644 14.79928723 19533
KUIPER-00572            
1 69272U 26118F   26272.67755671  .00000145  00000+0  48022-4 0  9996
2 69272  51.9013 296.1015 0000520  54.7152 305.3859 14.79926604 19665
KUIPER-00581            
1 69273U 26118G   26272.80722595  .00000997  00000+0  15975-3 0  9996
2 69273  51.9020 300.5347 0000554 214.7957 145.2969 14.79921712 19703
KUIPER-00584            
1 69274U 26118H   26272.78761699 -.00001451  00000+0 -16143-3 0  9998
2 69274  51.9013 303.2328 0000556  43.5564 316.5442 14.79932183 19577
KUIPER-00587            
1 69275U 26118J   26272.74777219 -.00001475  00000+0 -16455-3 0  9992
2 69275  51.9013 293.2993 0000509  28.4717 331.6273 14.79938458 19711
KUIPER-00590            
1 69276U 26118K   26272.33721719  .00001726  00000+0  25532-3 0  9995
2 69276  51.9029 300.1271 0000286  49.5164 310.5824 14.79928414 19582
KUIPER-00592            
1 69277U 26118L   26272.79301620  .00000856  00000+0  14125-3 0  9990
2 69277  51.9039 297.9921 0000367  49.9263 310.1731 14.79932795 19651
KUIPER-00593            
1 69278U 26118M   26272.74438584  .00001653  00000+0  24584-3 0  9992
2 69278  51.8994 280.8209 0000647 208.7214 151.3713 14.79922935 19945
KUIPER-00594            
1 69279U 26118N   26272.53640966  .00001660  00000+0  24679-3 0  9992
2 69279  51.9032 286.7522 0000830  79.8310 280.2746 14.79929735 19786
KUIPER-00595            
1 69280U 26118P   26272.23791502  .00001830  00000+0  26888-3 0  9997
2 69280  51.8987 283.0149 0000762 234.6881 125.4010 14.79956192 19847
KUIPER-00596            
1 69281U 26118Q   26272.36558279  .00001777  00000+0  26211-3 0  9994
2 69281  51.9025 304.9953 0000388  56.6043 303.4957 14.79921294 19511
KUIPER-00597            
1 69282U 26118R   26272.77545214  .00001666  00000+0  24758-3 0  9996
2 69282  51.8982 283.1780 0001553  68.7178 291.3949 14.79922603 19855
KUIPER-00599            
1 69283U 26118S   26272.79837198  .00008399  00000+0  11276-2 0  9994
2 69283  51.9013 292.9929 0001333  75.6684 284.4426 14.80000645 19724
KUIPER-00600            
1 69284U 26118T   26272.74167933  .00001116  00000+0  17544-3 0  9998
2 69284  51.8989 283.2406 0001546  61.1066 299.0051 14.79925787 19850
KUIPER-00601            
1 69285U 26118U   26272.28657006  .00001593  00000+0  23799-3 0  9991
2 69285  51.9026 300.3420 0000368  62.3676 297.7324 14.79928016 19577
KUIPER-00602            
1 69286U 26118V   26272.36215920  .00001797  00000+0  26466-3 0  9996
2 69286  51.9019 292.4220 0000589 322.9335  37.1586 14.79938197 19691
KUIPER-00603            
1 69287U 26118W   26272.78154463  .00001379  00000+0  20995-3 0  9994
2 69287  51.9044 293.1604 0000556  72.2880 287.8143 14.79923606 19713
KUIPER-00605            
1 69288U 26118X   26272.57087023  .00001702  00000+0  25231-3 0  9997
2 69288  51.8998 301.5646 0000384  53.2553 306.8445 14.79922068 19589
KUIPER-00606            
1 69289U 26118Y   26272.76467968  .00000649  00000+0  11421-3 0  9994
2 69289  51.9009 293.2240 0001420  52.1771 307.9320 14.79923733 19712
KUIPER-00607            
1 69290U 26118Z   26272.75856659  .00000427  00000+0  84998-4 0  9998
2 69290  51.8990 283.2509 0001055  60.3356 299.7712 14.79930409 19859
KUIPER-00608            
1 69291U 26118AA  26272.23249174  .00001734  00000+0  25639-3 0  9998
2 69291  51.9011 287.9464 0000697  66.5927 293.5108 14.79938389 19743
KUIPER-00610            
1 69292U 26118AB  26272.05830533  .00000607  00000+0  10866-3 0  9998
2 69292  51.9027 293.8521 0000662  68.9499 291.1534 14.79928954 19646
KUIPER-00613            
1 69293U 26118AC  26272.79032769  .00000236  00000+0  59936-4 0  9995
2 69293  51.9004 300.6074 0000824  40.2723 319.8300 14.79928814 19616
KUIPER-00618            
1 69294U 26118AD  26272.77005536  .00000288  00000+0  66748-4 0  9992
2 69294  51.9026 288.2123 0001121 243.3485 116.7363 14.79929111 19781
KUIPER-00620            
1 69295U 26118AE  26272.78425049  .00001010  00000+0  16151-3 0  9995
2 69295  51.9034 290.6543 0000615  51.2402 308.8615 14.79925654 19755
KUIPER-00423            
1 69592U 26140A   26272.83336806  .00031857  00000+0  41917-2 0  9997
2 69592  51.8999 262.9183 0000734  91.6435 102.6479 14.79896156  3667
KUIPER-00428            
1 69593U 26140B   26272.33708628  .00013409  00000+0  36059-3 0  9993
2 69593  51.8795 255.3098 0005088 306.9446  53.1075 15.38188402 17250
KUIPER-00481            
1 69594U 26140C   26272.36938592  .00147954  00000+0  19396-1 0  9998
2 69594  51.9026 269.9794 0000702  52.2280 307.8746 14.79090393 17055
KUIPER-00490            
1 69595U 26140D   26272.27975301  .00000398  00000+0  81206-4 0  9990
2 69595  51.9043 275.3284 0000646  55.2125 304.8898 14.79925896 16978
KUIPER-00493            
1 69596U 26140E   26272.71332053  .00000505  00000+0  95289-4 0  9997
2 69596  51.9039 278.4619 0001097 350.1614   9.9327 14.79925237 16969
KUIPER-00496            
1 69597U 26140F   26272.83336806 -.00026030  00000+0 -33263-2 0  9996
2 69597  51.9014 261.6834 0003035 121.0498  18.3192 14.80827320  5828
KUIPER-00513            
1 69598U 26140G   26272.71870719  .00001762  00000+0  26010-3 0  9996
2 69598  51.9002 273.4281 0000448  43.4567 316.6430 14.79928610 17039
KUIPER-00516            
1 69599U 26140H   26272.83336806 -.00023724  00000+0 -28110-2 0  9990
2 69599  51.8983 257.4052 0008486 242.9810   9.0237 14.83880418  5484
KUIPER-00517            
1 69600U 26140J   26272.83336806  .00039906  00000+0  25596-2 0  9995
2 69600  51.9003 254.3557 0009389 205.5090  61.9161 15.08082400  4952
KUIPER-00520            
1 69601U 26140K   26272.31453314  .00001271  00000+0  21082-3 0  9994
2 69601  51.9022 277.4041 0000638 265.6969  94.3919 14.76613920 16942
KUIPER-00522            
1 69602U 26140L   26272.71259382  .00001549  00000+0  23226-3 0  9998
2 69602  51.9034 263.4607 0001168  86.2892 273.8204 14.79920231 17176
KUIPER-00528            
1 69603U 26140M   26272.29395163 -.00000576  00000+0 -46522-4 0  9996
2 69603  51.9040 277.8288 0000542  55.9537 304.1477 14.79929218 16939
KUIPER-00532            
1 69604U 26140N   26272.83336806  .00032443  00000+0  42830-2 0  9998
2 69604  51.9014 260.4309 0000329  18.4850 161.5692 14.79747809  5530
KUIPER-00533            
1 69605U 26140P   26272.28246329  .00001637  00000+0  24371-3 0  9990
2 69605  51.9013 272.8692 0000599  47.4232 312.6781 14.79932203 17004
KUIPER-00534            
1 69606U 26140Q   26272.53099869 -.00022624  00000+0 -78518-3 0  9997
2 69606  51.8816 255.8285 0012201 162.4438 197.6969 15.28778179 17265
KUIPER-00537            
1 69607U 26140R   26272.27436733  .00001757  00000+0  25952-3 0  9990
2 69607  51.9002 280.3176 0001131  13.5221 346.5772 14.79926666 16900
KUIPER-00538            
1 69608U 26140S   26272.71600948  .00001911  00000+0  27963-3 0  9997
2 69608  51.9014 275.8901 0000872  41.1045 318.9983 14.79924734 17004
KUIPER-00540            
1 69609U 26140T   26272.51731623  .00008950  00000+0  24212-3 0  9995
2 69609  51.8806 254.2832 0004615 308.3170  51.7402 15.38465150 17289
KUIPER-00541            
1 69610U 26140U   26272.83336806  .00005456  00000+0  57449-3 0  9992
2 69610  51.8974 255.4697 0006863 225.6798  98.7685 14.90698306  5068
KUIPER-00542            
1 69611U 26140V   26272.83336806  .00016908  00000+0  12127-2 0  9990
2 69611  51.8916 254.2563 0008339 196.3077  23.0016 15.04410397  5908
KUIPER-00543            
1 69612U 26140W   26272.83336806  .00042467  00000+0  55699-2 0  9991
2 69612  51.9032 260.4274 0000533 142.5954 216.8267 14.79892233  5704
KUIPER-00544            
1 69613U 26140X   26272.83336806 -.00002717  00000+0 -22404-3 0  9997
2 69613  51.8949 255.8776 0005261 206.6262  55.5005 14.94796949  5750
KUIPER-00546            
1 69614U 26140Y   26272.35794496  .00001770  00000+0  26082-3 0  9990
2 69614  51.9017 265.0272 0000104 132.5310 227.5661 14.79975312 17123
KUIPER-00547            
1 69615U 26140Z   26272.83336806  .00042603  00000+0  19820-2 0  9992
2 69615  51.8874 253.0034 0010310 181.9725 330.2763 15.19490713  4960
KUIPER-00549            
1 69616U 26140AA  26272.83336806 -.00010125  00000+0 -11920-2 0  9992
2 69616  51.9012 257.9780 0001802 332.1492 169.7151 14.83550983  5585
KUIPER-00550            
1 69617U 26140AB  26272.83336806 -.00022826  00000+0 -25847-2 0  9997
2 69617  51.8985 261.7280 0001211 242.0681  21.3902 14.85746586  3397
KUIPER-00551            
1 69618U 26140AC  26272.83336806 -.01168379  00000+0 -40687-1 0  9991
2 69618  51.8788 252.0553 0011791 177.9166  83.8564 15.32086549  5649
KUIPER-00554            
1 69619U 26140AD  26272.83336806  .00046808  00000+0  17309-2 0  9997
2 69619  51.8824 252.4251 0009285 191.1343 247.5005 15.27206420  3878
KUIPER-00555            
1 69620U 26140AE  26272.83336806 -.00934511  00000+0 -32954-1 0  9990
2 69620  51.8843 252.3420 0010003 181.7445 338.5475 15.31539445  4960
KUIPER-00556            
1 69621U 26140AF  26272.25407666  .00001868  00000+0  27392-3 0  9990
2 69621  51.8972 267.9837 0000531  92.0746 268.0277 14.79929338 17079
KUIPER-00557            
1 69622U 26140AG  26272.83336806 -.01217465  00000+0 -59840-1 0  9998
2 69622  51.8858 252.9571 0009233 198.5697  31.2995 15.20457546  4838
KUIPER-00560            
1 69623U 26140AH  26272.58623278  .00011039  00000+0  30815-3 0  9992
2 69623  51.8775 253.9624 0007572 222.7493 137.2906 15.37214499 17294
KUIPER-00561            
1 69624U 26140AJ  26272.72140071  .00001692  00000+0  25088-3 0  9994
2 69624  51.9015 270.8963 0000612  70.6714 289.4314 14.79933790 17077
KUIPER-00564            
1 69625U 26140AK  26272.28515333  .00001979  00000+0  28864-3 0  9996
2 69625  51.8964 270.3288 0000748 101.2307 258.8740 14.79918183 17043
KUIPER-00567            
1 69626U 26140AL  26272.35536636  .00001817  00000+0  26735-3 0  9990
2 69626  51.8972 267.5371 0001009 166.3112 193.7878 14.79920018 17084
KUIPER-00573            
1 69627U 26140AM  26272.72411212  .00001482  00000+0  22342-3 0  9992
2 69627  51.9010 268.4187 0000467  89.7643 270.3373 14.79926777 17101
KUIPER-00258            
1 69763U 26151A   26272.83336806 -.00077779  00000+0 -98748-2 0  9998
2 69763  51.8964 177.9270 0003293  74.7779 343.8577 14.81655481  4438
KUIPER-00526            
1 69764U 26151B   26272.51798117  .00000549  00000+0  10103-3 0  9990
2 69764  51.8996 194.3880 0000880  90.9197 269.1866 14.79931374 13433
KUIPER-00558            
1 69765U 26151C   26272.48421924  .00005043  00000+0  68993-3 0  9990
2 69765  51.8998 194.4572 0000345 124.5989 235.5006 14.79936988 13433
KUIPER-00569            
1 69766U 26151D   26272.23367574 -.00007214  00000+0 -91771-3 0  9998
2 69766  51.9005 193.0619 0000717  81.5273 278.5770 14.79961228 13432
KUIPER-00589            
1 69767U 26151E   26272.09547110  .00001456  00000+0  23746-3 0  9996
2 69767  51.8998 196.9471 0003167  85.9943 274.1380 14.76548917 13369
KUIPER-00598            
1 69768U 26151F   26272.18843766  .00000826  00000+0  13730-3 0  9995
2 69768  51.8985 188.2755 0000670  96.0951 264.0088 14.79931765 13490
KUIPER-00604            
1 69769U 26151G   26272.03379858 -.00000319  00000+0 -12905-4 0  9999
2 69769  51.9019 191.4585 0000632  86.4123 273.6912 14.79928833 13437
KUIPER-00609            
1 69770U 26151H   26272.83336806  .00037940  00000+0  49957-2 0  9998
2 69770  51.9003 185.4199 0001021  37.9523  70.6029 14.79779864  1309
KUIPER-00611            
1 69771U 26151J   26272.06756049  .00000961  00000+0  15510-3 0  9991
2 69771  51.8977 191.2896 0001107  84.6673 275.4416 14.79928155 13440
KUIPER-00612            
1 69772U 26151K   26272.18304149  .00001972  00000+0  28763-3 0  9992
2 69772  51.9003 193.3037 0001057 123.4358 236.6705 14.79934088 13428
KUIPER-00614            
1 69773U 26151L   26271.98315158  .00002040  00000+0  29650-3 0  9995
2 69773  51.8976 191.7322 0001153  88.5074 271.6020 14.79934401 13427
KUIPER-00615            
1 69774U 26151M   26272.19722022  .00001999  00000+0  29114-3 0  9999
2 69774  51.9013 195.6731 0000846 118.4625 241.6422 14.79927279 13395
KUIPER-00616            
1 69775U 26151N   26272.17980423  .00009251  00000+0  12428-2 0  9997
2 69775  51.8988 180.8197 0001332  98.7806 261.3307 14.79867550 13598
KUIPER-00617            
1 69776U 26151P   26272.03919306  .00001976  00000+0  28818-3 0  9992
2 69776  51.8995 186.4378 0000421  91.9720 268.1291 14.79931805 13501
KUIPER-00619            
1 69777U 26151Q   26272.07804135  .00001419  00000+0  23191-3 0  9991
2 69777  51.9018 188.7239 0001234 162.6219 197.4784 14.76597394 13477
KUIPER-00621            
1 69778U 26151R   26272.21950640  .00002052  00000+0  29814-3 0  9993
2 69778  51.8999 190.6353 0000686  80.1391 279.9649 14.79926692 13464
KUIPER-00622            
1 69779U 26151S   26272.49059575  .00001235  00000+0  20612-3 0  9990
2 69779  51.9003 193.6185 0001681  88.2431 271.8723 14.76517669 13447
KUIPER-00623            
1 69780U 26151T   26272.48692417  .00002001  00000+0  29143-3 0  9999
2 69780  51.8971 191.9626 0001016 112.1278 247.9792 14.79927691 13466
KUIPER-00626            
1 69781U 26151U   26271.96896422  .00001954  00000+0  28521-3 0  9999
2 69781  51.8986 189.2205 0000812 108.7581 251.3469 14.79931261 13465
KUIPER-00627            
1 69782U 26151V   26272.48083631  .00000722  00000+0  12376-3 0  9991
2 69782  51.9020 181.9866 0001133 113.5390 246.5691 14.79935497 13601
KUIPER-00629            
1 69783U 26151W   26272.22828385  .00001980  00000+0  28874-3 0  9994
2 69783  51.8996 198.0394 0000938  88.0467 272.0602 14.79927355 13364
KUIPER-00631            
1 69784U 26151X   26272.17763955 -.00000621  00000+0 -52434-4 0  9993
2 69784  51.8993 198.3217 0000608 122.5708 237.5313 14.79929968 13351
KUIPER-00634            
1 69785U 26151Y   26272.47004966  .00000753  00000+0  12776-3 0  9995
2 69785  51.9006 192.0326 0000744  96.1659 263.9388 14.79929235 13466
KUIPER-00639            
1 69786U 26151Z   26272.44732565  .00009131  00000+0  12251-2 0  9992
2 69786  51.9036 182.1208 0000718  35.1489 324.9521 14.79936191 13606
KUIPER-00641            
1 69787U 26151AA  26271.95476443  .00002011  00000+0  29274-3 0  9992
2 69787  51.8997 186.8169 0001860 141.1920 218.9176 14.79927113 13495
KUIPER-00644            
1 69788U 26151AB  26272.83336806 -.00085972  00000+0 -10013-1 0  9997
2 69788  51.8975 175.5244 0007789  78.7707 101.2967 14.85254804  5710
KUIPER-00646            
1 69789U 26151AC  26272.05608005  .00001318  00000+0  20184-3 0  9997
2 69789  51.8989 186.4512 0000744  94.3225 265.7822 14.79926221 13502
KUIPER-00647            
1 69790U 26151AD  26272.45953387  .00001230  00000+0  20529-3 0  9995
2 69790  51.9003 184.3325 0002377 350.2536   9.8378 14.76544828 13570
KUIPER-00662            
1 69791U 26151AE  26272.48150164 -.00014494  00000+0 -18750-2 0  9991
2 69791  51.9025 196.9726 0000217 207.8327 152.2624 14.79963120 13395
