GLOBALSTAR M069         
1 31573U 07020C   26272.09971189 -.00000086  00000+0  65170-4 0  9998
2 31573  52.0049 318.0132 0001710   9.0991  11.2729 12.23474874891525
GLOBALSTAR M072         
1 31574U 07020D   26272.16468291 -.00000055  00000+0  40367-3 0  9998
2 31574  51.9919 183.4285 0001377 119.0130  27.2626 11.91660064887372
GLOBALSTAR M066         
1 32265U 07048C   26270.91090140 -.00000083  00000+0  96986-4 0  9991
2 32265  51.9555 123.0208 0003793 253.6688 119.7177 12.30390721872879
GLOBALSTAR M079         
1 37188U 10054A   26271.41631184 -.00000074  00000+0  16816-3 0  9999
2 37188  52.0019 154.4260 0000582  87.9904  82.3622 12.62262694735581
GLOBALSTAR M074         
1 37189U 10054B   26272.07496986 -.00000072  00000+0  17869-3 0  9999
2 37189  52.0003 151.6717 0000751  65.2590  98.5128 12.62263429736273
GLOBALSTAR M076         
1 37190U 10054C   26272.10122072 -.00000074  00000+0  16493-3 0  9991
2 37190  52.0015 151.8042 0000528  66.2531  96.9117 12.62263898735997
GLOBALSTAR M077         
1 37191U 10054D   26272.04855176 -.00000085  00000+0 -12842-3 0  9990
2 37191  51.9951 275.6815 0002866  10.6252  21.3339 11.67547482733273
GLOBALSTAR M075         
1 37192U 10054E   26272.18944941 -.00000073  00000+0  17192-3 0  9994
2 37192  51.9938 193.5299 0000706  71.3798  73.7855 12.62260812735072
GLOBALSTAR M073         
1 37193U 10054F   26272.72972919 -.00000101  00000+0  15530-4 0  9998
2 37193  52.0042 106.0638 0000605  95.3407 345.2715 12.62268432737135
GLOBALSTAR M083         
1 37739U 11033A   26272.58448028 -.00000105  00000+0 -93803-5 0  9990
2 37739  51.9865  54.5914 0000450 118.7062 321.2005 12.62269364706138
GLOBALSTAR M088         
1 37740U 11033B   26272.06695696 -.00000084  00000+0  10764-3 0  9998
2 37740  52.0231 322.8485 0000391  96.4137 271.3358 12.62270492701610
GLOBALSTAR M091         
1 37741U 11033C   26272.74978066 -.00000100  00000+0  19264-4 0  9993
2 37741  51.9991 283.5835 0000344 106.1349  65.4593 12.62265073702484
GLOBALSTAR M085         
1 37742U 11033D   26272.08287714 -.00000102  00000+0  10753-4 0  9990
2 37742  52.0114 236.9951 0000410  89.7812 349.7046 12.62265420702915
GLOBALSTAR M081         
1 37743U 11033E   26272.88752296 -.00000097  00000+0  37611-4 0  9996
2 37743  51.9946 236.8619 0000361  55.8717 322.2272 12.62266592703166
GLOBALSTAR M089         
1 37744U 11033F   26272.16196397 -.00000077  00000+0  14678-3 0  9997
2 37744  51.9922 193.2105 0000783  47.2403  93.1147 12.62263904703914
GLOBALSTAR M084         
1 38040U 11080A   26272.70153779 -.00000120  00000+0 -88472-4 0  9990
2 38040  52.0012  59.1006 0000562  81.6930 291.8298 12.62264135681969
GLOBALSTAR M080         
1 38041U 11080B   26272.60904301 -.00000120  00000+0 -90749-4 0  9995
2 38041  52.0063  61.1400 0001131 107.5400 333.4824 12.62268645682071
GLOBALSTAR M082         
1 38042U 11080C   26272.63018127 -.00000109  00000+0 -29767-4 0  9990
2 38042  52.0104  16.5860 0000695 127.7475 341.1446 12.62262671682789
GLOBALSTAR M092         
1 38043U 11080D   26272.82043208 -.00000095  00000+0  50367-4 0  9993
2 38043  52.0064 106.4099 0000825  86.3280 287.1056 12.62266498681266
GLOBALSTAR M090         
1 38044U 11080E   26272.57640122 -.00000104  00000+0 -37205-5 0  9993
2 38044  52.0153  10.7386 0000609 135.2436 328.4311 12.62268007682890
GLOBALSTAR M086         
1 38045U 11080F   26272.59671537 -.00000098  00000+0  33612-4 0  9998
2 38045  51.9926  10.4336 0000562 274.7717 190.7483 12.62289325682849
GLOBALSTAR M097         
1 39072U 13005A   26272.76476854 -.00000100  00000+0  19700-4 0  9998
2 39072  52.0046 284.9909 0000287 108.7378 251.3520 12.62271572630116
GLOBALSTAR M093         
1 39073U 13005B   26271.31298371 -.00000101  00000+0  17939-4 0  9998
2 39073  52.0099 282.7997 0000252 151.6619 208.4262 12.62267366629889
GLOBALSTAR M094         
1 39074U 13005C   26272.10476477 -.00000085  00000+0  10504-3 0  9993
2 39074  51.9948 194.4016 0000450  78.7332 281.3585 12.62264768631595
GLOBALSTAR M096         
1 39075U 13005D   26272.59318368 -.00000108  00000+0 -22544-4 0  9996
2 39075  52.0060 241.7964 0000414  91.8219 268.2695 12.62264554630577
GLOBALSTAR M078         
1 39076U 13005E   26271.53736231 -.00000014  00000+0  50349-3 0  9991
2 39076  51.9892 328.8834 0001348 123.9600 236.1395 12.62260159629060
GLOBALSTAR M095         
1 39077U 13005F   26271.88059963 -.00000084  00000+0  10831-3 0  9999
2 39077  52.0103 325.5876 0000680 139.1549 220.9369 12.62264663628961
GLOBALSTAR M087         
1 52888U 22064A   26272.68557608 -.00000108  00000+0 -25149-4 0  9994
2 52888  51.9977 104.3133 0000793 106.6397 253.4556 12.62263303204337
