ORBCOMM FM06            
1 25118U 97084G   26277.23626149  .00000694  00000+0  22511-3 0  9994
2 25118  45.0131 247.6476 0001861 309.0124  65.8303 14.47779208510194
ORBCOMM FM04            
1 25159U 98007C   26277.08035132  .00000471  00000+0  20632-3 0  9999
2 25159 107.9616  33.5370 0039239 138.3451 222.0689 14.35888847492220
ORBCOMM FM19            
1 25415U 98046C   26277.19476170  .00000455  00000+0  18922-3 0  9991
2 25415  44.9931  85.3324 0004501 139.6275  30.0475 14.39661242472489
ORBCOMM FM20            
1 25416U 98046D   26276.86816341  .00000348  00000+0  16002-3 0  9991
2 25416  44.9929  96.0244 0001592 132.3995 227.6988 14.38190466472435
ORBCOMM FM27            
1 25481U 98053G   26277.09874486  .00000465  00000+0  19408-3 0  9994
2 25481  45.0046 177.9866 0001749  15.4249 344.6652 14.39303131465925
ORBCOMM FM32            
1 25982U 99065C   26277.00796266  .00000401  00000+0  18070-3 0  9998
2 25982  45.0166  18.0921 0007760 234.7939 125.2183 14.37260389402740
ORBCOMM FM109           
1 40086U 14040A   26277.33254942  .00000190  00000+0  76251-4 0  9997
2 40086  47.0032 295.4202 0001838 324.7238  35.3526 14.58932491650280
ORBCOMM FM110           
1 41182U 15081D   26276.51217695  .00000267  00000+0  92474-4 0  9994
2 41182  47.0013 209.1957 0002983 229.1528 130.9099 14.58981461573448
ORBCOMM FM118           
1 41183U 15081E   26277.16457193  .00000290  00000+0  97613-4 0  9992
2 41183  47.0037 206.4823 0003063 183.5422 176.5443 14.58830019573646
ORBCOMM FM112           
1 41184U 15081F   26277.23564515  .00000169  00000+0  71876-4 0  9996
2 41184  46.9975 114.5467 0002758 343.4107  16.6688 14.58974958574878
ORBCOMM FM113           
1 41185U 15081G   26277.28408692  .00000122  00000+0  61945-4 0  9990
2 41185  46.9993 114.7465 0001647 336.8419  23.2392 14.58945433574868
ORBCOMM FM108           
1 41187U 15081J   26277.03841387  .00000186  00000+0  75483-4 0  9999
2 41187  47.0057  27.4943 0002301 316.9221  43.1484 14.58993301575975
ORBCOMM FM117           
1 41188U 15081K   26277.00500870  .00000224  00000+0  83391-4 0  9996
2 41188  47.0026  26.2630 0002646 325.6954  34.3761 14.58976036576016
ORBCOMM FM116           
1 41189U 15081L   26277.25934166  .00000188  00000+0  75860-4 0  9994
2 41189  47.0005 114.8604 0001590 211.2926 148.7866 14.58977279574862
