GLOBALSTAR M069         
1 31573U 07020C   26269.16028120 -.00000098  00000+0 -47990-4 0  9994
2 31573  52.0053 326.3328 0001639   4.4648  23.1206 12.23474739891169
GLOBALSTAR M072         
1 31574U 07020D   26269.14306377 -.00000084  00000+0  13347-5 0  9990
2 31574  51.9922 191.4730 0001344 116.7653  20.9944 11.91659969887014
GLOBALSTAR M066         
1 32265U 07048C   26267.92746086 -.00000071  00000+0  19697-3 0  9995
2 32265  51.9571 131.5865 0003873 248.6771 223.6035 12.30390865872503
GLOBALSTAR M079         
1 37188U 10054A   26269.11869449 -.00000076  00000+0  15286-3 0  9992
2 37188  52.0023 161.4201 0000562  87.9612  76.6087 12.62262611735291
GLOBALSTAR M074         
1 37189U 10054B   26269.14521582 -.00000072  00000+0  17627-3 0  9996
2 37189  52.0006 160.5908 0000706  61.8390 102.2238 12.62263346735909
GLOBALSTAR M076         
1 37190U 10054C   26269.08856895 -.00000081  00000+0  12600-3 0  9995
2 37190  52.0016 160.9751 0000468  64.0326  82.5364 12.62263788735619
GLOBALSTAR M077         
1 37191U 10054D   26269.23521605 -.00000089  00000+0 -20719-3 0  9990
2 37191  51.9956 282.8227 0002794   5.7561  76.0866 11.67547527732948
GLOBALSTAR M075         
1 37192U 10054E   26269.17890473 -.00000100  00000+0  21522-4 0  9993
2 37192  51.9937 202.6961 0000663  69.6443  68.5337 12.62260695734691
GLOBALSTAR M073         
1 37193U 10054F   26268.94152529 -.00000071  00000+0  18316-3 0  9994
2 37193  52.0041 117.5959 0000585  91.2259  46.7902 12.62268300736655
GLOBALSTAR M083         
1 37739U 11033A   26268.62542425 -.00000110  00000+0 -33699-4 0  9998
2 37739  51.9860  66.6487 0000481 117.8946 322.6298 12.62269165705639
GLOBALSTAR M088         
1 37740U 11033B   26269.13957197 -.00000077  00000+0  15211-3 0  9993
2 37740  52.0238 331.7564 0000444 100.8655 277.8848 12.62270491701241
GLOBALSTAR M091         
1 37741U 11033C   26269.24507985 -.00000089  00000+0  83237-4 0  9999
2 37741  51.9992 294.2534 0000407 114.3163 323.6330 12.62265043702042
GLOBALSTAR M085         
1 37742U 11033D   26269.23781578 -.00000113  00000+0 -53964-4 0  9994
2 37742  52.0113 245.6546 0000386  96.7856   8.0199 12.62265405702556
GLOBALSTAR M081         
1 37743U 11033E   26269.26387653 -.00000110  00000+0 -37226-4 0  9994
2 37743  51.9945 247.8954 0000286  61.7544  41.9061 12.62266550702703
GLOBALSTAR M089         
1 37744U 11033F   26269.23725933 -.00000104  00000+0  16035-6 0  9998
2 37744  51.9921 202.1157 0000716  43.2442 120.3486 12.62263798703544
GLOBALSTAR M084         
1 38040U 11080A   26268.93422144 -.00000102  00000+0  79964-5 0  9991
2 38040  52.0005  70.5701 0000572  78.6034  87.3412 12.62264192681488
GLOBALSTAR M080         
1 38041U 11080B   26269.22389528 -.00000104  00000+0 -19232-5 0  9998
2 38041  52.0057  71.4450 0001157 102.6861  68.1830 12.62268663681649
GLOBALSTAR M082         
1 38042U 11080C   26268.67038365 -.00000119  00000+0 -86463-4 0  9992
2 38042  52.0095  28.6383 0000793 122.0132 344.2412 12.62262700682284
GLOBALSTAR M092         
1 38043U 11080D   26268.96945694 -.00000068  00000+0  19933-3 0  9996
2 38043  52.0065 118.1323 0000812  82.9176  62.5674 12.62266310680778
GLOBALSTAR M090         
1 38044U 11080E   26269.02799650 -.00000117  00000+0 -73321-4 0  9992
2 38044  52.0145  21.5378 0000688 129.7687  41.5418 12.62268024682446
GLOBALSTAR M086         
1 38045U 11080F   26268.63719418 -.00000103  00000+0  36547-5 0  9997
2 38045  51.9922  22.4906 0000542 256.7657 206.9792 12.62289337682343
GLOBALSTAR M097         
1 39072U 13005A   26269.12231523 -.00000087  00000+0  92569-4 0  9994
2 39072  52.0046 296.0792 0000333 117.8863 242.2037 12.62271508629650
GLOBALSTAR M093         
1 39073U 13005B   26269.25419836 -.00000089  00000+0  81086-4 0  9998
2 39073  52.0102 289.0662 0000307 152.1576 207.9307 12.62267379629622
GLOBALSTAR M094         
1 39074U 13005C   26269.17495040 -.00000113  00000+0 -50656-4 0  9999
2 39074  51.9948 203.3219 0000403  80.5528 279.5384 12.62264747631229
GLOBALSTAR M096         
1 39075U 13005D   26269.26744660 -.00000114  00000+0 -57233-4 0  9994
2 39075  52.0060 251.9202 0000409  97.9698 262.1216 12.62264597630150
GLOBALSTAR M078         
1 39076U 13005E   26268.92427634 -.00000062  00000+0  23282-3 0  9993
2 39076  51.9900 336.8409 0001419 122.0077 238.0928 12.62259283628736
GLOBALSTAR M095         
1 39077U 13005F   26269.18833611 -.00000084  00000+0  11225-3 0  9997
2 39077  52.0105 333.7820 0000745 135.8478 224.2448 12.62264571628625
GLOBALSTAR M087         
1 52888U 22064A   26268.96391595 -.00000079  00000+0  13596-3 0  9999
2 52888  51.9976 115.6443 0000795 102.3800 257.7156 12.62263202203867
