EUTELSAT 174A           
1 28924U 05052A   26256.82553495  .00000001  00000+0  00000+0 0  9998
2 28924   4.4375  75.3817 0005935  96.1902 292.4114  1.00273102 53221
EUTELSAT 33F            
1 29270U 06032A   26256.94017616  .00000147  00000+0  00000+0 0  9996
2 29270   1.8848  81.1284 0003322  91.3551 192.0194  1.00275171 48191
EUTELSAT HOTBIRD 13C    
1 33459U 08065A   26256.92370942 -.00000291  00000+0  00000+0 0  9991
2 33459   3.1726  78.0687 0003569 101.2378  95.8473  1.00270602 48237
EUTELSAT 36B            
1 36101U 09065A   26256.94364285  .00000103  00000+0  00000+0 0  9995
2 36101   0.7092  81.1662 0005724  88.6596 213.3110  1.00270545 61591
EUTELSAT KA-SAT 9A      
1 37258U 10069A   26256.79286147  .00000052  00000+0  00000+0 0  9991
2 37258   0.0736 353.5356 0005456 178.4849 115.2024  1.00272621 44895
EUTELSAT 7 WEST A       
1 37816U 11051A   26256.93220279 -.00000070  00000+0  00000+0 0  9994
2 37816   0.0635 351.7998 0005992 181.8819 147.5103  1.00272095 54763
EUTELSAT 16A            
1 37836U 11057A   26256.72300782  .00000094  00000+0  00000+0 0  9992
2 37836   0.0908  62.4010 0005517 108.3465  98.2498  1.00270422  8224
EUTELSAT 21B            
1 38992U 12062B   26256.86659583  .00000120  00000+0  00000+0 0  9994
2 38992   0.0694 349.1590 0002971 176.6922 160.5807  1.00270305 50713
EUTELSAT 70B            
1 39020U 12069A   26256.93566917 -.00000053  00000+0  00000+0 0  9996
2 39020   0.0669   4.8378 0003674 169.9119 225.5171  1.00272359 50392
EUTELSAT 117 WEST A     
1 39122U 13012A   26256.91053604 -.00000023  00000+0  00000+0 0  9997
2 39122   0.0440 318.8667 0002828 215.4449  29.5887  1.00272988 49329
EUTELSAT 7B             
1 39163U 13022A   26255.65379225  .00000094  00000+0  00000+0 0  9990
2 39163   0.0686 340.7180 0008080 141.3008 120.9716  1.00301361 48823
EXPRESS-AT1             
1 39612U 14010A   26256.94849620 -.00000106  00000+0  00000+0 0  9996
2 39612   0.4809  84.5832 0004852  80.6014 244.2080  1.00315120 45701
EXPRESS-AT2             
1 39613U 14010B   26256.65965419  .00000068  00000+0  00000+0 0  9996
2 39613   0.0127 228.6716 0000729  59.8803 357.5849  1.00274385 45388
EUTELSAT 3B             
1 39773U 14030A   26256.93428280  .00000011  00000+0  00000+0 0  9994
2 39773   0.0665   2.7753 0004106 167.5136 162.0704  1.00273166 44950
EUTELSAT 115 WEST B     
1 40425U 15010B   26256.91088271 -.00000035  00000+0  00000+0 0  9996
2 40425   0.0236 318.1148 0000191 130.4676 117.3480  1.00272093 42275
EUTELSAT 8 WEST B       
1 40875U 15039B   26256.93202946 -.00000075  00000+0  00000+0 0  9999
2 40875   0.0670 350.1436 0003651 181.7554 148.5869  1.00270891 40549
EUTELSAT 9B             
1 41310U 16005A   26256.93540947  .00000053  00000+0  00000+0 0  9999
2 41310   0.0558  70.7426 0002435 138.0143 129.9122  1.00273595 39009
EUTELSAT 65 WEST A      
1 41382U 16014A   26256.92076274 -.00000286  00000+0  00000+0 0  9993
2 41382   0.0728 314.3054 0002192 212.0659  92.8241  1.00272722 38411
EUTELSAT 117 WEST B     
1 41589U 16038B   26256.91044937 -.00000021  00000+0  00000+0 0  9995
2 41589   0.0058 311.4814 0000141 265.3950 346.7874  1.00271854 37557
EUTELSAT 172B           
1 42741U 17029B   26256.35586553 -.00000017  00000+0  00000+0 0  9995
2 42741   0.0233 140.9729 0000209 278.3757 233.1182  1.00271425 34638
EUTELSAT 7C             
1 44334U 19034B   26256.93497613  .00000039  00000+0  00000+0 0  9998
2 44334   0.0695 179.9826 0003175 336.6742 179.8435  1.00271512  7721
EUTELSAT 5 WEST B       
1 44624U 19067A   26256.93263612 -.00000052  00000+0  00000+0 0  9992
2 44624   0.0783 323.4862 0003132 207.3850 152.7947  1.00271796 25311
EUTELSAT KONNECT        
1 45027U 20005B   26256.93506280  .00000040  00000+0  00000+0 0  9991
2 45027   0.0656  99.5559 0001173  87.9971 149.1803  1.00269094 25220
EUTELSAT QUANTUM        
1 49056U 21069B   26256.72924785  .00000116  00000+0  00000+0 0  9993
2 49056   0.0233  70.8611 0002235 103.1569 128.9311  1.00273006 18816
EUTELSAT KONNECT VHTS   
1 53765U 22110A   26256.29263747  .00000006  00000+0  00000+0 0  9997
2 53765   0.0574 104.0966 0002845  38.6650 317.5825  1.00271128  7726
EUTELSAT HOTBIRD 13F    
1 54048U 22134A   26255.72443178  .00000074  00000+0  00000+0 0  9998
2 54048   0.0629 293.8249 0001956  69.5524 262.1429  1.00271707 14252
EUTELSAT HOTBIRD 13G    
1 54225U 22146A   26256.79364147  .00000077  00000+0  00000+0 0  9997
2 54225   0.0493 232.8412 0002065 303.7937 114.8536  1.00272467  8356
EUTELSAT 10B            
1 54259U 22157A   26256.57922715  .00000057  00000+0  00000+0 0  9991
2 54259   0.0590 101.3789 0001644   0.5645 109.1413  1.00268784 13914
EUTELSAT 36D            
1 59346U 24059A   26256.51309227  .00000145  00000+0  00000+0 0  9995
2 59346   0.0170 161.8464 0000095 202.9096 208.3353  1.00271342  9035
