IRIDIUM 106             
1 41917U 17003A   26269.46914559  .00000183  00000+0  58114-4 0  9995
2 41917  86.3962  46.1785 0001812  91.2018 268.9385 14.34219252507727
IRIDIUM 103             
1 41918U 17003B   26269.45645919  .00000124  00000+0  37055-4 0  9992
2 41918  86.3961  46.0834 0002229  88.5313 271.6138 14.34219005507746
IRIDIUM 109             
1 41919U 17003C   26269.46282247  .00000185  00000+0  59151-4 0  9993
2 41919  86.3963  46.1418 0002143  92.1658 267.9783 14.34217362507711
IRIDIUM 102             
1 41920U 17003D   26269.43109037  .00000111  00000+0  32530-4 0  9998
2 41920  86.3964  46.0767 0002106  94.2918 265.8518 14.34218217507792
IRIDIUM 105             
1 41921U 17003E   26269.31991639  .00000204  00000+0  65792-4 0  9992
2 41921  86.4022  14.5840 0002384  96.1716 263.9751 14.34220087509637
IRIDIUM 104             
1 41922U 17003F   26269.44377677 -.00000224  00000+0 -87233-4 0  9995
2 41922  86.3962  46.1159 0002310  90.8306 269.3154 14.34217271507781
IRIDIUM 114             
1 41923U 17003G   26269.45012089  .00000183  00000+0  58120-4 0  9995
2 41923  86.3963  46.0956 0002200  90.5939 269.5509 14.34219497507760
IRIDIUM 108             
1 41924U 17003H   26269.33887134  .00000019  00000+0 -24827-6 0  9992
2 41924  86.4017  14.4598 0002202  96.0773 264.0673 14.34217766509606
IRIDIUM 112             
1 41925U 17003J   26269.43743339 -.00000006  00000+0 -92530-5 0  9994
2 41925  86.3954  45.9385 0002095  92.8039 267.3397 14.34217515507786
IRIDIUM 111             
1 41926U 17003K   26269.42474999  .00000177  00000+0  56279-4 0  9993
2 41926  86.3960  46.0165 0002124  91.2711 268.8728 14.34219372507760
IRIDIUM 113             
1 42803U 17039A   26269.47448061  .00000019  00000+0 -41953-6 0  9994
2 42803  86.3912 279.8344 0002255  91.0135 269.1319 14.34217616485708
IRIDIUM 123             
1 42804U 17039B   26269.16711756  .00000096  00000+0  27256-4 0  9997
2 42804  86.3964 311.4486 0002165  90.6417 269.5027 14.34218133484427
IRIDIUM 120             
1 42805U 17039C   26269.46813653  .00000096  00000+0  27142-4 0  9994
2 42805  86.3901 279.6062 0002132  91.3363 268.8077 14.34218422485694
IRIDIUM 115             
1 42806U 17039D   26269.48025632  .00000113  00000+0  27641-4 0  9993
2 42806  86.4438 279.7437 0002212  86.0343 274.1111 14.43280781488875
IRIDIUM 118             
1 42807U 17039E   26269.47790832  .00000186  00000+0  59420-4 0  9994
2 42807  86.3959 311.3158 0002246  94.6595 265.4858 14.34217884484463
IRIDIUM 117             
1 42808U 17039F   26269.35739508  .00000065  00000+0  16264-4 0  9990
2 42808  86.3960 311.3230 0002238  92.3122 267.8330 14.34217945484479
IRIDIUM 126             
1 42809U 17039G   26269.38276619  .00000203  00000+0  65346-4 0  9992
2 42809  86.3962 311.3650 0002315  91.6624 268.4837 14.34218219484455
IRIDIUM 124             
1 42810U 17039H   26269.48340627  .00000137  00000+0  34785-4 0  9995
2 42810  86.4446 247.9808 0002295  85.3428 274.8035 14.43279696489725
IRIDIUM 128             
1 42811U 17039J   26269.23396562  .00000111  00000+0  32753-4 0  9993
2 42811  86.4021 342.9302 0002099  95.4205 264.7231 14.34218524484462
IRIDIUM 121             
1 42812U 17039K   26269.40179259  .00000175  00000+0  55550-4 0  9995
2 42812  86.3956 311.3868 0002186  98.7322 261.4121 14.34217996484339
IRIDIUM 133             
1 42955U 17061A   26269.47498234  .00000148  00000+0  45852-4 0  9996
2 42955  86.4023 342.9501 0002180  94.4014 265.7431 14.34219220469293
IRIDIUM 100             
1 42956U 17061B   26269.25933742  .00000033  00000+0  46440-5 0  9999
2 42956  86.4016 342.9560 0002196  94.9730 265.1716 14.34217708469264
IRIDIUM 122             
1 42957U 17061C   26269.50669766  .00000101  00000+0  29031-4 0  9992
2 42957  86.4018 342.8533 0002226  92.5861 267.5590 14.34218328469309
IRIDIUM 129             
1 42958U 17061D   26269.46230076  .00000063  00000+0  15419-4 0  9998
2 42958  86.4021 342.9401 0002458  95.8741 264.2735 14.34217946469310
IRIDIUM 119             
1 42959U 17061E   26269.29105015  .00000051  00000+0  11046-4 0  9993
2 42959  86.4019 343.0077 0002286  93.0888 267.0569 14.34217951469301
IRIDIUM 107             
1 42960U 17061F   26269.24030892  .00000092  00000+0  25806-4 0  9994
2 42960  86.4018 343.0507 0002142  89.5670 270.5771 14.34218309469302
IRIDIUM 132             
1 42961U 17061G   26269.45595802  .00000044  00000+0  87409-5 0  9990
2 42961  86.4020 342.9396 0002224  94.3493 265.7957 14.34217745469336
IRIDIUM 136             
1 42962U 17061H   26269.48767039  .00000043  00000+0  82408-5 0  9990
2 42962  86.4019 342.9333 0002162  95.7320 264.4122 14.34217785469357
IRIDIUM 139             
1 42963U 17061J   26269.49401293  .00000039  00000+0  69150-5 0  9993
2 42963  86.4023 342.9943 0002169  94.3708 265.7735 14.34217835469363
IRIDIUM 125             
1 42964U 17061K   26269.48132828  .00000047  00000+0  97531-5 0  9991
2 42964  86.4021 343.0625 0002436  83.9564 276.1909 14.34217846469374
IRIDIUM 135             
1 43070U 17083A   26269.45545361  .00000047  00000+0  97121-5 0  9996
2 43070  86.3907 279.6725 0002277  91.1774 268.9683 14.34217766458666
IRIDIUM 138             
1 43071U 17083B   26269.48082347  .00000018  00000+0 -50384-6 0  9990
2 43071  86.3920 279.3727 0002256  89.0846 271.0609 14.34217634458650
IRIDIUM 116             
1 43072U 17083C   26269.44910975  .00000040  00000+0  71884-5 0  9995
2 43072  86.3905 279.6600 0002011  92.2982 267.8444 14.34217842458687
IRIDIUM 130             
1 43073U 17083D   26269.48716580  .00000019  00000+0 -35967-6 0  9996
2 43073  86.3914 279.9293 0001958  88.0389 272.1031 14.34217648458632
IRIDIUM 151             
1 43074U 17083E   26269.46179571 -.00000002  00000+0 -76987-5 0  9997
2 43074  86.3908 279.7145 0002076  91.1710 268.9723 14.34217414458659
IRIDIUM 134             
1 43075U 17083F   26269.43008237  .00000009  00000+0 -37555-5 0  9999
2 43075  86.3911 279.7375 0002103  90.1788 269.9648 14.34217554458612
IRIDIUM 137             
1 43076U 17083G   26269.44276711  .00000019  00000+0 -41325-6 0  9997
2 43076  86.3911 279.8269 0002009 100.0619 260.0803 14.34217726458688
IRIDIUM 141             
1 43077U 17083H   26269.43642503  .00000015  00000+0 -17486-5 0  9999
2 43077  86.3904 279.6542 0002183  90.3913 269.7533 14.34217552458687
IRIDIUM 153             
1 43078U 17083J   26269.45836383  .00000206  00000+0  66566-4 0  9996
2 43078  86.3921 248.1082 0002362  83.3904 276.7561 14.34222511459791
IRIDIUM 131             
1 43079U 17083K   26269.49350865  .00000012  00000+0 -26445-5 0  9996
2 43079  86.3910 279.8234 0002177  91.6447 268.4998 14.34217489458629
IRIDIUM 144             
1 43249U 18030A   26269.46471527 -.00000019  00000+0 -14023-4 0  9990
2 43249  86.3924 248.0319 0002039  88.2166 271.9264 14.34217162444653
IRIDIUM 149             
1 43250U 18030B   26269.47105757  .00000009  00000+0 -39323-5 0  9991
2 43250  86.3921 247.9952 0002213  86.3744 273.7705 14.34217472444674
IRIDIUM 157             
1 43251U 18030C   26269.42031688 -.00000013  00000+0 -11547-4 0  9991
2 43251  86.3925 248.0718 0002126  86.8772 273.2667 14.34217194444640
IRIDIUM 140             
1 43252U 18030D   26269.43934329  .00000078  00000+0  20673-4 0  9996
2 43252  86.3921 248.0759 0002271  86.3238 273.8218 14.34217098444703
IRIDIUM 145             
1 43253U 18030E   26269.42665889 -.00000005  00000+0 -89757-5 0  9999
2 43253  86.3926 248.0537 0001879  87.7699 272.3712 14.34217479444630
IRIDIUM 146             
1 43254U 18030F   26269.47739873  .00000007  00000+0 -44076-5 0  9996
2 43254  86.3921 248.0439 0002136  87.3380 272.8061 14.34217318444653
IRIDIUM 148             
1 43255U 18030G   26269.44568751  .00000015  00000+0 -18247-5 0  9999
2 43255  86.3928 248.1023 0002141  89.4665 270.6777 14.34217382444680
IRIDIUM 142             
1 43256U 18030H   26269.48374169 -.00000026  00000+0 -16206-4 0  9997
2 43256  86.3920 247.9714 0001980  88.9916 271.1506 14.34216924444654
IRIDIUM 150             
1 43257U 18030J   26269.45202985  .00000056  00000+0  12978-4 0  9994
2 43257  86.3924 248.1041 0002189  86.1566 273.9880 14.34217288444679
IRIDIUM 143             
1 43258U 18030K   26269.43300053 -.00000007  00000+0 -94776-5 0  9993
2 43258  86.3928 248.2088 0002049  85.7154 274.4276 14.34217159444604
IRIDIUM 161             
1 43478U 18047C   26269.46134816  .00000224  00000+0  60515-4 0  9992
2 43478  86.4481  46.0897 0002314  95.2438 264.9027 14.43280317439744
IRIDIUM 152             
1 43479U 18047D   26269.47548829  .00000071  00000+0  18269-4 0  9996
2 43479  86.3959  45.9465 0002149  91.9209 268.2233 14.34218242437009
IRIDIUM 147             
1 43480U 18047E   26269.48185233  .00000228  00000+0  74267-4 0  9999
2 43480  86.3959  45.9507 0002034  94.1160 266.0269 14.34219515437001
IRIDIUM 110             
1 43481U 18047F   26269.41840586 -.00000091  00000+0 -39542-4 0  9999
2 43481  86.3960  46.0721 0002275  94.8829 265.2627 14.34217470436983
IRIDIUM 162             
1 43482U 18047G   26269.45504874  .00000240  00000+0  65245-4 0  9994
2 43482  86.4481  45.9824 0002166  91.2321 268.9128 14.43278828439738
IRIDIUM 160             
1 43569U 18061A   26269.36424095  .00000079  00000+0  21325-4 0  9993
2 43569  86.4020  14.4901 0002182  96.3248 263.8197 14.34217721427879
IRIDIUM 166             
1 43570U 18061B   26269.38961176  .00000179  00000+0  56768-4 0  9993
2 43570  86.4019  14.4285 0002109  95.6210 264.5226 14.34218698427903
IRIDIUM 158             
1 43571U 18061C   26269.35789900  .00000066  00000+0  16646-4 0  9990
2 43571  86.4017  14.4516 0002173  92.8266 267.3179 14.34218112427864
IRIDIUM 165             
1 43572U 18061D   26269.38326906  .00000047  00000+0  98040-5 0  9995
2 43572  86.4019  14.4899 0002017  92.8788 267.2638 14.34217996427898
IRIDIUM 155             
1 43573U 18061E   26269.34521316  .00000008  00000+0 -42142-5 0  9994
2 43573  86.4012  14.3697 0001994  93.6882 266.4542 14.34217620427859
IRIDIUM 154             
1 43574U 18061F   26269.39595443  .00000018  00000+0 -54539-6 0  9997
2 43574  86.4017  14.4871 0001986  96.0807 264.0615 14.34217680427913
IRIDIUM 163             
1 43575U 18061G   26269.37692685  .00000034  00000+0  52519-5 0  9994
2 43575  86.4017  14.4068 0002229  94.4758 265.6692 14.34217872427881
IRIDIUM 156             
1 43576U 18061H   26269.35155625  .00000168  00000+0  52769-4 0  9995
2 43576  86.4016  14.4247 0002117  91.7777 268.3661 14.34218405427875
IRIDIUM 164             
1 43577U 18061J   26269.33252874  .00000112  00000+0  32919-4 0  9992
2 43577  86.4018  14.4748 0002048  97.1528 262.9900 14.34217933427917
IRIDIUM 159             
1 43578U 18061K   26269.37058426  .00000065  00000+0  16206-4 0  9992
2 43578  86.4017  14.3937 0002256  94.6230 265.5223 14.34218074427889
IRIDIUM 180             
1 43922U 19002A   26269.16077490  .00000056  00000+0  13084-4 0  9991
2 43922  86.3962 311.4107 0002274  94.3201 265.8255 14.34217945403467
IRIDIUM 176             
1 43923U 19002B   26269.15901810  .00000524  00000+0  79149-4 0  9997
2 43923  86.6081 311.3403 0002391  92.7018 267.4472 14.72255383414101
IRIDIUM 168             
1 43924U 19002C   26269.36373772  .00000120  00000+0  35849-4 0  9992
2 43924  86.3963 311.4057 0002273  94.1830 265.9626 14.34218292403479
IRIDIUM 173             
1 43925U 19002D   26269.49058993  .00000096  00000+0  27386-4 0  9991
2 43925  86.3958 311.2372 0002230  93.0048 267.1403 14.34218175403471
IRIDIUM 169             
1 43926U 19002E   26269.24722532  .00000217  00000+0  64583-4 0  9997
2 43926  86.4274 342.9687 0002157  84.7573 275.3871 14.38609244404759
IRIDIUM 172             
1 43927U 19002F   26269.48424706  .00000080  00000+0  21360-4 0  9990
2 43927  86.3958 311.2482 0002280  93.7793 266.3664 14.34218016403489
IRIDIUM 175             
1 43928U 19002G   26269.47405096  .00000133  00000+0  33302-4 0  9999
2 43928  86.4476 248.1582 0001312 212.8150 147.2970 14.43647983413590
IRIDIUM 171             
1 43929U 19002H   26269.18614476  .00000023  00000+0  12925-5 0  9999
2 43929  86.3966 311.6898 0002047  94.1942 265.9487 14.34217717403437
IRIDIUM 170             
1 43930U 19002J   26269.16517553  .00000511  00000+0  77085-4 0  9996
2 43930  86.6080 311.3391 0002195  89.0379 271.1090 14.72251664414112
IRIDIUM 167             
1 43931U 19002K   26269.17980131  .00000169  00000+0  53369-4 0  9992
2 43931  86.3955 311.3993 0002016  90.5856 269.5571 14.34217686403430
IRIDIUM 181             
1 56726U 23068S   26269.32736575  .00000251  00000+0  68474-4 0  9998
2 56726  86.4554  14.5089 0002256  98.5358 261.6098 14.43312236177028
IRIDIUM 177             
1 56727U 23068T   26269.44470369  .00000324  00000+0  42107-4 0  9994
2 56727  86.1912 280.7635 0002540  88.9419 271.2091 14.77169324181339
IRIDIUM 174             
1 56728U 23068U   26269.49266116  .00000555  00000+0  84063-4 0  9996
2 56728  86.6088 311.3601 0002556  88.9264 271.2246 14.72256186180922
IRIDIUM 178             
1 56729U 23068V   26269.45574223  .00000580  00000+0  73236-4 0  9992
2 56729  86.6586 343.0767 0002497  92.5705 267.5802 14.80047103181345
IRIDIUM 179             
1 56730U 23068W   26269.24756190  .00000832  00000+0  10655-3 0  9991
2 56730  86.6837 352.4381 0002374  91.1254 269.0240 14.80046365181319
