EUTELSAT 174A           
1 28924U 05052A   26256.33170041 -.00000001  00000+0  00000+0 0  9997
2 28924   4.4363  75.3881 0005939  95.9804 114.3453  1.00272923 53218
EUTELSAT 33F            
1 29270U 06032A   26256.58382051  .00000146  00000+0  00000+0 0  9993
2 29270   1.8840  81.1329 0003319  91.0271  63.6993  1.00274937 48194
EUTELSAT HOTBIRD 13C    
1 33459U 08065A   26256.49601885 -.00000292  00000+0  00000+0 0  9997
2 33459   3.1716  78.0743 0003562 100.8378 301.8532  1.00270718 48231
EUTELSAT 36B            
1 36101U 09065A   26256.58728720  .00000102  00000+0  00000+0 0  9992
2 36101   0.7083  81.1653 0005721  87.5630  85.7709  1.00270387 61594
EUTELSAT KA-SAT 9A      
1 37258U 10069A   26256.29393748  .00000050  00000+0  00000+0 0  9990
2 37258   0.0735 352.6927 0005471 179.0771 295.3476  1.00272616 44891
EUTELSAT 7 WEST A       
1 37816U 11051A   26256.29064412 -.00000072  00000+0  00000+0 0  9990
2 37816   0.0633 350.4394 0005986 183.0269 276.1316  1.00271982 54762
EUTELSAT 16A            
1 37836U 11057A   26256.58044050  .00000093  00000+0  00000+0 0  9998
2 37836   0.0905  62.2800 0005518 108.2427  47.0105  1.00270362  8224
EUTELSAT 21B            
1 38992U 12062B   26256.64400647  .00000119  00000+0  00000+0 0  9993
2 38992   0.0693 348.8167 0002976 176.6036  80.6611  1.00270202 50710
EUTELSAT 70B            
1 39020U 12069A   26256.59118721 -.00000054  00000+0  00000+0 0  9995
2 39020   0.0661   4.5422 0003670 169.8364 101.5341  1.00272328 50396
EUTELSAT 117 WEST A     
1 39122U 13012A   26256.55409370 -.00000024  00000+0  00000+0 0  9993
2 39122   0.0444 317.4991 0002827 216.7762 260.9528  1.00272903 49318
EUTELSAT 7B             
1 39163U 13022A   26255.65379225  .00000094  00000+0  00000+0 0  9990
2 39163   0.0686 340.7180 0008080 141.3008 120.9716  1.00301361 48823
EXPRESS-AT1             
1 39612U 14010A   26256.59214054 -.00000106  00000+0  00000+0 0  9994
2 39612   0.4800  84.5902 0004852  80.8548 115.2524  1.00315068 45705
EXPRESS-AT2             
1 39613U 14010B   26256.58832720  .00000068  00000+0  00000+0 0  9996
2 39613   0.0128 229.1068 0000731  59.3103 331.9710  1.00274356 45387
EUTELSAT 3B             
1 39773U 14030A   26256.57784049  .00000010  00000+0  00000+0 0  9991
2 39773   0.0665   2.2192 0004099 167.8680  33.5998  1.00273037 44954
EUTELSAT 115 WEST B     
1 40425U 15010B   26256.55452704 -.00000036  00000+0  00000+0 0  9993
2 40425   0.0234 317.4077 0000185 119.6253   0.2572  1.00271480 42269
EUTELSAT 8 WEST B       
1 40875U 15039B   26256.29055745 -.00000077  00000+0  00000+0 0  9993
2 40875   0.0667 348.9472 0003655 182.0200 277.9587  1.00270857 40542
EUTELSAT 9B             
1 41310U 16005A   26256.29393748  .00000051  00000+0  00000+0 0  9991
2 41310   0.0544  70.6085 0002419 137.9596 258.5346  1.00273321 39000
EUTELSAT 65 WEST A      
1 41382U 16014A   26256.56432043 -.00000287  00000+0  00000+0 0  9994
2 41382   0.0736 313.8366 0002189 212.2578 324.4293  1.00272819 38416
EUTELSAT 117 WEST B     
1 41589U 16038B   26256.55409370 -.00000022  00000+0  00000+0 0  9992
2 41589   0.0075 316.2793 0000124 261.7440 217.0010  1.00271647 37541
EUTELSAT 172B           
1 42741U 17029B   26256.35586553 -.00000017  00000+0  00000+0 0  9995
2 42741   0.0233 140.9729 0000209 278.3757 233.1182  1.00271425 34638
EUTELSAT 7C             
1 44334U 19034B   26256.57853382  .00000038  00000+0  00000+0 0  9996
2 44334   0.0700 180.2274 0003167 336.3436  51.2589  1.00271312  7729
EUTELSAT 5 WEST B       
1 44624U 19067A   26256.57619381 -.00000053  00000+0  00000+0 0  9991
2 44624   0.0786 323.0607 0003126 207.5520  24.3825  1.00271716 25317
EUTELSAT KONNECT        
1 45027U 20005B   26256.57853382  .00000039  00000+0  00000+0 0  9997
2 45027   0.0647 100.0916 0001181  87.6572  20.2863  1.00269095 25224
EUTELSAT QUANTUM        
1 49056U 21069B   26256.58668052  .00000115  00000+0  00000+0 0  9998
2 49056   0.0229  71.0881 0002241 102.7723  77.6234  1.00272983 18814
EUTELSAT KONNECT VHTS   
1 53765U 22110A   26256.29263747  .00000006  00000+0  00000+0 0  9997
2 53765   0.0574 104.0966 0002845  38.6650 317.5825  1.00271128  7726
EUTELSAT HOTBIRD 13F    
1 54048U 22134A   26255.72443178  .00000074  00000+0  00000+0 0  9998
2 54048   0.0629 293.8249 0001956  69.5524 262.1429  1.00271707 14252
EUTELSAT HOTBIRD 13G    
1 54225U 22146A   26256.57983383  .00000077  00000+0  00000+0 0  9992
2 54225   0.0496 233.2833 0002081 303.5413  37.4822  1.00272567  8355
EUTELSAT 10B            
1 54259U 22157A   26256.57922716  .00000057  00000+0  00000+0 0  9992
2 54259   0.0590 101.3789 0001643   0.5645 109.1413  1.00268784 13913
EUTELSAT 36D            
1 59346U 24059A   26256.51309228  .00000145  00000+0  00000+0 0  9996
2 59346   0.0170 161.8464 0000095 202.9096 208.3353  1.00271342  9035
