KUIPER-00008            
1 63724U 25088A   26251.60680502 -.00001536  00000+0 -17255-3 0  9997
2 63724  51.9029 359.1475 0000585 160.6458 199.4527 14.79920494 75134
KUIPER-00009            
1 63725U 25088B   26252.52899245  .00006570  00000+0  44064-3 0  9995
2 63725  51.9033   4.5726 0000768 108.7585 251.3473 15.07950617 75137
KUIPER-00010            
1 63726U 25088C   26252.52386729  .00000936  00000+0  15176-3 0  9996
2 63726  51.9035 350.2031 0000460 105.5024 254.5989 14.79931285 74956
KUIPER-00011            
1 63727U 25088D   26252.54955476  .00001039  00000+0  16526-3 0  9995
2 63727  51.9026 357.6328 0000430 102.8002 257.3009 14.79927495 74985
KUIPER-00012            
1 63728U 25088E   26252.53194658  .00001056  00000+0  16753-3 0  9993
2 63728  51.9026 342.6499 0000254  76.8627 283.2364 14.79928188 75147
KUIPER-00013            
1 63729U 25088F   26252.59819332 -.00000079  00000+0  18588-4 0  9997
2 63729  51.9028  14.8756 0000532 111.2337 248.8682 14.79926098 74805
KUIPER-00014            
1 63730U 25088G   26252.63193375  .00001215  00000+0  18835-3 0  9992
2 63730  51.9038  14.6708 0000452 110.7473 249.3538 14.79918742 74622
KUIPER-00015            
1 63731U 25088H   26252.58740948  .00000940  00000+0  15223-3 0  9993
2 63731  51.9007  24.9149 0000472 126.2153 233.8853 14.79929570 74934
KUIPER-00016            
1 63732U 25088J   26252.56172993  .00000237  00000+0  60032-4 0  9999
2 63732  51.9014  17.4863 0000581 128.9685 231.1330 14.79927561 74572
KUIPER-00018            
1 63733U 25088K   26252.47121653  .00000079  00000+0  39302-4 0  9997
2 63733  51.9038   7.9307 0000344  65.2296 294.8702 14.79929182 74709
KUIPER-00019            
1 63734U 25088L   26252.49788996  .00000021  00000+0  31720-4 0  9992
2 63734  51.9029   6.5624 0000439 132.3976 227.7024 14.79927716 74728
KUIPER-00020            
1 63735U 25088M   26252.60358389  .00001163  00000+0  18148-3 0  9991
2 63735  51.9033   9.8435 0000492 104.0578 256.0439 14.79931892 74896
KUIPER-00021            
1 63736U 25088N   26252.63734436 -.00000454  00000+0 -30613-4 0  9992
2 63736  51.9004   9.6426 0000426 128.4362 231.6639 14.79925325 74739
KUIPER-00023            
1 63737U 25088P   26252.60088005  .00001067  00000+0  16896-3 0  9999
2 63737  51.9035  12.2957 0000434 105.1216 254.9794 14.79931894 74998
KUIPER-00024            
1 63738U 25088Q   26252.47931889  .00001111  00000+0  17468-3 0  9998
2 63738  51.9047   0.4452 0000448  90.1568 269.9446 14.79924386 75279
KUIPER-00025            
1 63739U 25088R   26252.57252467  .00002096  00000+0  30387-3 0  9996
2 63739  51.9053   7.5144 0000495 104.7905 255.3112 14.79930583 75042
KUIPER-00027            
1 63740U 25088S   26252.61167917  .00001605  00000+0  23955-3 0  9996
2 63740  51.9025   2.3002 0000535 100.8834 259.2188 14.79927958 74858
KUIPER-00028            
1 63741U 25088T   26252.58060917 -.00000533  00000+0 -40999-4 0  9994
2 63741  51.9017 359.8802 0000332 131.9598 228.1392 14.79927257 75298
KUIPER-00029            
1 63742U 25088U   26252.48903646  .00001250  00000+0  19301-3 0  9996
2 63742  51.9035 358.9802 0000140 126.8864 233.2111 14.79907560 74824
KUIPER-00030            
1 63743U 25088V   26252.59550304 -.00000440  00000+0 -28710-4 0  9995
2 63743  51.9047  17.3328 0000591 112.7686 247.3339 14.79921376 74866
KUIPER-00031            
1 63744U 25088W   26252.51038399  .00001351  00000+0  20621-3 0  9995
2 63744  51.9030   2.7302 0000406 108.5276 251.5731 14.79928901 74776
KUIPER-00032            
1 63745U 25088X   26252.19391834  .00013858  00000+0  32519-3 0  9990
2 63745  51.8652 213.3130 0005271  56.8357 303.3137 15.42322984 77820
KUIPER-00033            
1 63746U 25088Y   26252.61307478  .00002585  00000+0  36798-3 0  9997
2 63746  51.9014  32.2741 0000431 106.3846 253.7164 14.79924903 74853
KUIPER-00034            
1 63747U 25088Z   26252.58599994  .00001056  00000+0  16747-3 0  9994
2 63747  51.9040 354.9319 0000440  99.9720 260.1292 14.79933336 75053
KUIPER-00035            
1 63748U 25088AA  26252.62653216  .00001414  00000+0  21455-3 0  9998
2 63748  51.9016  19.7174 0000655  85.8951 274.2086 14.79911340 74765
KUIPER-00037            
1 63749U 25088AB  26252.61948554  .00001100  00000+0  17322-3 0  9990
2 63749  51.9027  18.6087 0000584 117.9077 242.1944 14.79931713 75568
KUIPER-00038            
1 63750U 25088AC  26252.60896853  .00000081  00000+0  39584-4 0  9997
2 63750  51.9044   4.8288 0000636 110.4200 249.6830 14.79918851 74757
KUIPER-00039            
1 64500U 25134A   26252.37896051  .00002704  00000+0  38354-3 0  9994
2 64500  51.9007 140.8448 0000806 103.5329 256.5723 14.79933305 67271
KUIPER-00040            
1 64501U 25134B   26252.13183190  .00003006  00000+0  42310-3 0  9995
2 64501  51.8981 151.9982 0001026  90.0868 270.0212 14.79938123 67098
KUIPER-00041            
1 64502U 25134C   26252.43299313  .00000770  00000+0  13007-3 0  9990
2 64502  51.8976 153.0589 0001218  91.0943 269.0159 14.79927391 67102
KUIPER-00042            
1 64503U 25134D   26252.40462256  .00000500  00000+0  94586-4 0  9999
2 64503  51.8978 148.1616 0000912 104.8142 255.2922 14.79926499 67175
KUIPER-00043            
1 64504U 25134E   26252.41270434  .00000062  00000+0  37198-4 0  9995
2 64504  51.9002 140.6380 0000773 106.7163 253.3885 14.79924899 67280
KUIPER-00044            
1 64505U 25134F   26252.12911882  .00001443  00000+0  21824-3 0  9995
2 64505  51.8964 154.3829 0000962  98.2746 261.8325 14.79929853 67063
KUIPER-00046            
1 64506U 25134G   26252.09804627  .00003192  00000+0  44756-3 0  9992
2 64506  51.8980 151.9916 0001069  89.8286 270.2799 14.79934293 67092
KUIPER-00047            
1 64507U 25134H   26252.36405165  .00000908  00000+0  14809-3 0  9995
2 64507  51.8981 123.3423 0001023  97.2269 262.8810 14.79927150 67516
KUIPER-00048            
1 64508U 25134J   26252.33022800  .00003214  00000+0  45045-3 0  9993
2 64508  51.8959 123.5066 0000989 100.3443 259.7631 14.79928446 67512
KUIPER-00049            
1 64509U 25134K   26252.41810377  .00002735  00000+0  38769-3 0  9999
2 64509  51.9006 135.5888 0000717 102.7353 257.3689 14.79930071 67353
KUIPER-00050            
1 64510U 25134L   26252.03175732 -.00005870  00000+0 -74120-3 0  9994
2 64510  51.8974 119.8159 0000598 146.8944 213.2056 14.79955301 67549
KUIPER-00051            
1 64511U 25134M   26252.05648596  .00003064  00000+0  43072-3 0  9993
2 64511  51.9002 135.8857 0000891 106.0013 254.1048 14.79931712 67317
KUIPER-00053            
1 64513U 25134P   26252.34667078  .00001528  00000+0  22034-3 0  9991
2 64513  51.8993 129.1430 0002537  90.3006 269.8248 14.81703149 67438
KUIPER-00054            
1 64514U 25134Q   26251.85488608  .00002704  00000+0  38362-3 0  9995
2 64514  51.8963 128.0827 0001005 101.0607 259.0469 14.79933499 67403
KUIPER-00055            
1 64515U 25134R   26252.21002480  .00002396  00000+0  34316-3 0  9999
2 64515  51.9004  79.1612 0000659 108.2391 251.8643 14.79935707 68120
KUIPER-00056            
1 64516U 25134S   26252.35599073  .00002755  00000+0  39030-3 0  9991
2 64516  51.8997 130.9831 0000988  99.4607 260.6467 14.79932539 67419
KUIPER-00057            
1 64517U 25134T   26252.07776268  .00000849  00000+0  14034-3 0  9993
2 64517  51.8969 139.6278 0000595  74.8915 285.2113 14.79930811 67268
KUIPER-00058            
1 64518U 25134U   26252.04938792  .00003033  00000+0  42669-3 0  9996
2 64518  51.8999 134.7312 0000824 109.8333 250.2719 14.79936876 67334
KUIPER-00059            
1 64519U 25134V   26252.05478691  .00000141  00000+0  47479-4 0  9997
2 64519  51.8992 129.7455 0000536 112.6185 247.4834 14.79931225 67404
KUIPER-00060            
1 64520U 25134W   26252.35868349  .00001595  00000+0  23811-3 0  9992
2 64520  51.9015 128.4771 0000705  94.2643 265.8400 14.79933728 67438
KUIPER-00061            
1 64521U 25134X   26251.84411878  .00002881  00000+0  40684-3 0  9993
2 64521  51.8999 138.1946 0000941  97.3439 262.7631 14.79930681 67257
KUIPER-00062            
1 64522U 25134Y   26251.84139903  .00002561  00000+0  36490-3 0  9995
2 64522  51.8963 140.6566 0000860 104.1002 256.0056 14.79925527 67236
KUIPER-00063            
1 64523U 25134Z   26252.10345067  .00000654  00000+0  11480-3 0  9999
2 64523  51.9020 147.0905 0000955  85.5712 274.5360 14.79928193 67162
KUIPER-00064            
1 64524U 25134AA  26252.10614127  .00003064  00000+0  43071-3 0  9995
2 64524  51.9019 144.5028 0001219  90.6194 269.4909 14.79937990 67206
KUIPER-00065            
1 64525U 25134AB  26252.10076386  .00000120  00000+0  44733-4 0  9992
2 64525  51.9031 149.7017 0000762 101.2775 258.8273 14.79929373 67114
KUIPER-00066            
1 64526U 25134AC  26251.79670902 -.00001912  00000+0 -22188-3 0  9992
2 64526  51.9015  88.3129 0000585  98.1462 261.9566 14.79936265 67960
KUIPER-00069            
1 64816U 25151A   26252.53032903  .00000883  00000+0  14480-3 0  9999
2 64816  51.9021 187.7076 0001122  90.5005 269.6086 14.79928786 63980
KUIPER-00070            
1 64817U 25151B   26252.33452385  .00002471  00000+0  35302-3 0  9999
2 64817  51.8984 213.4755 0000976  62.5567 297.5494 14.79929454 63613
KUIPER-00071            
1 64818U 25151C   26252.26968649  .00002411  00000+0  34513-3 0  9994
2 64818  51.8996 211.3078 0000711  90.3104 269.7939 14.79935397 62454
KUIPER-00072            
1 64819U 25151D   26251.98737185  .00000895  00000+0  14647-3 0  9992
2 64819  51.8959 192.4807 0000886  61.6292 298.4759 14.79927807 62697
KUIPER-00073            
1 64820U 25151E   26250.88532161  .00002392  00000+0  34261-3 0  9997
2 64820  51.8988 217.4072 0000856  50.5214 309.5824 14.79937563 63431
KUIPER-00075            
1 64822U 25151G   26252.58926085  .00020595  00000+0  54012-3 0  9991
2 64822  51.8647  44.8582 0003302 191.3933 168.6980 15.38627217 64799
KUIPER-00076            
1 64823U 25151H   26252.58435163  .00001579  00000+0  23602-3 0  9996
2 64823  51.8996 199.9176 0000584  69.6320 290.4705 14.79932083 62649
KUIPER-00077            
1 64824U 25151J   26252.57896246  .00002163  00000+0  31254-3 0  9991
2 64824  51.9012 204.9637 0000929  62.3266 297.7791 14.79941137 62578
KUIPER-00078            
1 64825U 25151K   26252.14272012  .00002735  00000+0  38771-3 0  9990
2 64825  51.8991 204.3641 0000848  68.8634 291.2419 14.79929242 62549
KUIPER-00079            
1 64826U 25151L   26252.57627406  .00002173  00000+0  31397-3 0  9992
2 64826  51.8995 207.4027 0000948  57.8707 302.2348 14.79926066 63733
KUIPER-00080            
1 64827U 25151M   26251.25943374  .00002320  00000+0  33323-3 0  9997
2 64827  51.8992 213.2382 0000667  90.0373 270.0665 14.79934020 62345
KUIPER-00082            
1 64828U 25151N   26251.23916285  .00002722  00000+0  38590-3 0  9994
2 64828  51.8999 200.8892 0000819  67.5174 292.5875 14.79928266 62514
KUIPER-00083            
1 64829U 25151P   26252.58167409  .00002441  00000+0  34912-3 0  9992
2 64829  51.9003 202.4344 0000932  61.4007 298.7049 14.79929579 63796
KUIPER-00084            
1 64830U 25151Q   26252.16568887  .00001763  00000+0  26019-3 0  9998
2 64830  51.9008 214.2605 0000707  92.6875 267.4168 14.79929448 62400
KUIPER-00085            
1 64831U 25151R   26251.81316016  .00001835  00000+0  26965-3 0  9995
2 64831  51.9029 198.4067 0000791  63.8413 296.2631 14.79940222 62598
KUIPER-00086            
1 64832U 25151S   26251.26210670 -.00002685  00000+0 -32344-3 0  9998
2 64832  51.8998 210.7787 0000759  74.2153 285.8892 14.79926542 62379
KUIPER-00087            
1 64833U 25151T   26252.22633786  .00002822  00000+0  39880-3 0  9996
2 64833  51.8987 188.9699 0001083  59.0478 301.0591 14.79965904 62752
KUIPER-00089            
1 64834U 25151U   26252.55868527  .00002677  00000+0  38001-3 0  9998
2 64834  51.8996 192.5269 0000718  91.5169 268.5875 14.79928727 62742
KUIPER-00090            
1 64835U 25151V   26251.21616628  .00002687  00000+0  38143-3 0  9992
2 64835  51.8976 190.9586 0000944  89.9284 270.1787 14.79925777 62647
KUIPER-00091            
1 64836U 25151W   26252.22372410  .00001009  00000+0  16130-3 0  9992
2 64836  51.9017 191.5296 0000781  70.3628 289.7419 14.79936328 62726
KUIPER-00092            
1 64837U 25151X   26251.27022274  .00000360  00000+0  76272-4 0  9990
2 64837  51.9012 203.2320 0000794  87.3264 272.7789 14.79924332 63690
KUIPER-00093            
1 64838U 25151Y   26252.55056464  .00000261  00000+0  63243-4 0  9995
2 64838  51.9020 200.0406 0000136 221.4249 138.6703 14.79942160 62632
KUIPER-00094            
1 64839U 25151Z   26252.12643748  .00003125  00000+0  43867-3 0  9997
2 64839  51.9032 157.0309 0001134  80.6480 279.4611 14.79939017 63203
KUIPER-00081            
1 65132U 25171A   26252.60569540  .00002332  00000+0  33482-3 0  9997
2 65132  51.9000  54.7949 0000596 109.7695 250.3332 14.79927710 60279
KUIPER-00088            
1 65133U 25171B   26252.24916919 -.00000251  00000+0 -38561-5 0  9999
2 65133  51.8985  73.8729 0000763 100.6286 259.4762 14.79931063 59979
KUIPER-00095            
1 65134U 25171C   26252.60839701  .00002380  00000+0  34107-3 0  9996
2 65134  51.8979  52.3207 0000772 114.4250 245.6793 14.79926771 60300
KUIPER-00096            
1 65135U 25171D   26251.88584856  .00002577  00000+0  36698-3 0  9999
2 65135  51.8982  67.9726 0000632 109.5801 250.5230 14.79928655 60028
KUIPER-00097            
1 65136U 25171E   26251.74810583  .00001410  00000+0  21390-3 0  9992
2 65136  51.9005  71.2502 0000582 115.4784 244.6238 14.79925536 59953
KUIPER-00098            
1 65137U 25171F   26252.21810510  .00000218  00000+0  57613-4 0  9999
2 65137  51.8996  71.5328 0000784 109.1073 250.9974 14.79926902 59344
KUIPER-00099            
1 65138U 25171G   26251.85748737  .00002646  00000+0  37606-3 0  9996
2 65138  51.9018  63.1399 0000658 122.6427 237.4599 14.79926911 60085
KUIPER-00100            
1 65139U 25171H   26252.43416899  .00002303  00000+0  33106-3 0  9994
2 65139  51.9017  58.0554 0000541  85.8714 274.2310 14.79927459 60203
KUIPER-00102            
1 65140U 25171J   26252.43147795  .00002522  00000+0  35971-3 0  9997
2 65140  51.8981  60.5381 0000801 126.6794 233.4242 14.79930141 60169
KUIPER-00103            
1 65141U 25171K   26251.90611753  .00000337  00000+0  73166-4 0  9990
2 65141  51.8978  80.3642 0000739  99.3812 260.7234 14.79932082 59846
KUIPER-00104            
1 65142U 25171L   26251.78454535  .00002431  00000+0  34787-3 0  9992
2 65142  51.9015  68.4173 0000556 100.0166 260.0859 14.79927605 60006
KUIPER-00105            
1 65143U 25171M   26252.21541405  .00001254  00000+0  19352-3 0  9998
2 65143  51.8991  74.1050 0000714 104.9786 255.1255 14.79928209 59963
KUIPER-00106            
1 65144U 25171N   26252.60129282  .00020322  00000+0  26889-2 0  9996
2 65144  51.9013  51.1671 0000517  85.5104 274.5918 14.79897998 60326
KUIPER-00107            
1 65145U 25171P   26252.43686602  .00000680  00000+0  11819-3 0  9995
2 65145  51.8994  55.5659 0000686 120.3782 239.7248 14.79929639 60243
KUIPER-00108            
1 65146U 25171Q   26252.45716076  .00002376  00000+0  34065-3 0  9999
2 65146  51.9016  68.0242 0000699 114.4618 245.6417 14.79925892 60075
KUIPER-00109            
1 65147U 25171R   26252.42876117  .00000383  00000+0  79270-4 0  9994
2 65147  51.9008  63.0907 0000600 106.1255 253.9773 14.79922143 60137
KUIPER-00110            
1 65148U 25171S   26251.90882921  .00002449  00000+0  35015-3 0  9990
2 65148  51.8986  77.9379 0000647 108.7510 251.3522 14.79925427 59873
KUIPER-00111            
1 65149U 25171T   26251.73459738  .00000326  00000+0  71760-4 0  9998
2 65149  51.8952  83.5725 0000924 114.8905 245.2153 14.79927246 59782
KUIPER-00112            
1 65150U 25171U   26251.85476341  .00002581  00000+0  36733-3 0  9997
2 65150  51.9007  65.6747 0000789 115.7444 244.3600 14.79938956 60046
KUIPER-00114            
1 65151U 25171V   26252.27214572  .00002154  00000+0  31150-3 0  9995
2 65151  51.8979  83.7886 0000782 120.8749 239.2290 14.79932693 59821
KUIPER-00115            
1 65152U 25171W   26252.21270892  .00002345  00000+0  33646-3 0  9991
2 65152  51.8991  76.5604 0000721 107.6486 252.4555 14.79932985 59924
KUIPER-00116            
1 65153U 25171X   26251.83590776  .00002487  00000+0  35504-3 0  9997
2 65153  51.8993  83.2585 0000673 106.6730 253.4306 14.79934552 59799
KUIPER-00118            
1 65154U 25171Y   26251.83319843  .00000621  00000+0  11048-3 0  9997
2 65154  51.8984  85.7186 0000815 120.5963 239.5080 14.79934710 59762
KUIPER-00119            
1 65155U 25171Z   26252.45445389  .00001616  00000+0  24097-3 0  9995
2 65155  51.8959  70.5772 0001135  65.2316 294.8765 14.79933287 60024
KUIPER-00120            
1 65762U 25217A   26252.48868659  .00002067  00000+0  30013-3 0  9998
2 65762  51.9012 320.2892 0000407 122.6292 237.4709 14.79925195 51951
KUIPER-00132            
1 65763U 25217B   26252.54617157  .00025889  00000+0  66248-3 0  9997
2 65763  51.8499 188.5921 0003869 259.5568 100.4983 15.39239097 53781
KUIPER-00133            
1 65764U 25217C   26252.45494453 -.00000023  00000+0  25957-4 0  9997
2 65764  51.9046 320.5757 0000588  84.8491 275.2538 14.79925416 51959
KUIPER-00139            
1 65765U 25217D   26252.35490772 -.00000200  00000+0  28169-5 0  9993
2 65765  51.8987 288.4457 0000442  51.1050 308.9951 14.79919923 52397
KUIPER-00142            
1 65766U 25217E   26252.44002053  .00000585  00000+0  10573-3 0  9998
2 65766  51.9001 303.0357 0000494  78.6205 281.4813 14.79925703 52195
KUIPER-00145            
1 65767U 25217F   26252.43732146 -.00000155  00000+0  87389-5 0  9996
2 65767  51.9069 305.5734 0002676 292.0976  67.9702 14.79930521 52151
KUIPER-00147            
1 65768U 25217G   26252.46839499 -.00000644  00000+0 -55557-4 0  9994
2 65768  51.8991 307.9101 0000522  42.5824 317.5179 14.79920876 52128
KUIPER-00148            
1 65769U 25217H   26252.41975555  .00001540  00000+0  23090-3 0  9994
2 65769  51.9049 290.6703 0000587  62.8694 297.2328 14.79937668 52364
KUIPER-00150            
1 65770U 25217J   26252.45762951  .00002510  00000+0  35809-3 0  9993
2 65770  51.9024 318.0047 0000576  96.9635 263.1393 14.79938317 51989
KUIPER-00151            
1 65771U 25217K   26252.46571497  .00000626  00000+0  11117-3 0  9990
2 65771  51.9017 310.4679 0000457  70.5152 289.5859 14.79927659 52098
KUIPER-00152            
1 65772U 25217L   26252.10776746  .00000338  00000+0  73381-4 0  9998
2 65772  51.8985 299.5305 0000385  66.0219 294.0784 14.79932441 52216
KUIPER-00153            
1 65773U 25217M   26252.38329818  .00001906  00000+0  27889-3 0  9996
2 65773  51.9034 293.3981 0000544  87.0260 273.0764 14.79934776 52321
KUIPER-00155            
1 65774U 25217N   26252.61554143 -.00000033  00000+0  24671-4 0  9992
2 65774  51.9025 264.8329 0000675  72.7251 287.3785 14.79929013 52742
KUIPER-00156            
1 65775U 25217P   26252.41706234  .00000451  00000+0  88187-4 0  9996
2 65775  51.9033 293.2308 0000487  83.1305 276.9713 14.79928399 52327
KUIPER-00165            
1 65778U 25217S   26252.40627012 -.00000871  00000+0 -85336-4 0  9995
2 65778  51.9018 303.2132 0000455  77.0006 283.1007 14.79927526 52186
KUIPER-00166            
1 65779U 25217T   26252.38598376 -.00000190  00000+0  40973-5 0  9995
2 65779  51.9028 290.8614 0001597  96.1319 263.9825 14.79924822 52350
KUIPER-00167            
1 65780U 25217U   26252.46299968  .00002173  00000+0  31402-3 0  9998
2 65780  51.8969 312.8459 0000440  72.2440 287.8570 14.79928327 52056
KUIPER-00168            
1 65781U 25217V   26252.61694761  .00001951  00000+0  28494-3 0  9996
2 65781  51.9006 294.7865 0000465  72.4349 287.6665 14.79921602 52328
KUIPER-00169            
1 65782U 25217W   26251.46353419  .00001943  00000+0  28385-3 0  9991
2 65782  51.9018 304.8982 0000584  98.9600 261.1429 14.79932171 52081
KUIPER-00170            
1 65783U 25217X   26252.40355538 -.00000468  00000+0 -32335-4 0  9995
2 65783  51.8990 305.6864 0000654  87.5313 272.5724 14.79926094 52150
KUIPER-00172            
1 65785U 25217Z   26252.38867074  .00001914  00000+0  28014-3 0  9990
2 65785  51.8988 288.2849 0000575  43.3609 316.7399 14.79918361 52391
KUIPER-00173            
1 65786U 25217AA  26252.44273327  .00000307  00000+0  69287-4 0  9993
2 65786  51.9034 300.5599 0000204  36.2600 323.8376 14.79929841 52227
KUIPER-00174            
1 65787U 25217AB  26251.43515334  .00001643  00000+0  24464-3 0  9990
2 65787  51.9030 300.0781 0000811  70.6576 289.4474 14.79915281 52140
KUIPER-00176            
1 65788U 25217AC  26252.43195220 -.00010460  00000+0 -13464-2 0  9996
2 65788  51.9013 310.5878 0000692 310.9642  49.1260 14.79893861 52082
KUIPER-00101            
1 65947U 25228A   26252.03881778 -.00000785  00000+0 -74040-4 0  9999
2 65947  51.8993 269.7744 0000536  72.1040 287.9981 14.79926752 50387
KUIPER-00113            
1 65948U 25228B   26252.61822758  .00001319  00000+0  20194-3 0  9999
2 65948  51.8972 262.2320 0000570  56.0938 304.0078 14.79935755 50536
KUIPER-00117            
1 65949U 25228C   26252.31165753  .00001865  00000+0  27357-3 0  9996
2 65949  51.8982 266.0874 0000534  50.4874 309.6136 14.79928372 50455
KUIPER-00121            
1 65950U 25228D   26252.62093662 -.00001012  00000+0 -10380-3 0  9995
2 65950  51.8967 259.7414 0000899  61.5746 298.5307 14.79922633 50577
KUIPER-00122            
1 65951U 25228E   26252.61015068  .00001480  00000+0  22317-3 0  9999
2 65951  51.8992 269.7584 0000852  69.5180 290.5874 14.79925229 50434
KUIPER-00123            
1 65952U 25228F   26252.03612977  .00001268  00000+0  19531-3 0  9996
2 65952  51.8980 272.3048 0000500  48.8469 311.2537 14.79935690 50347
KUIPER-00124            
1 65953U 25228G   26252.04423503  .00002093  00000+0  30351-3 0  9993
2 65953  51.8973 264.7585 0000580  38.1001 322.0002 14.79928375 50454
KUIPER-00125            
1 65954U 25228H   26252.39805667  .00000866  00000+0  14258-3 0  9991
2 65954  51.8998 248.2460 0000717  60.4482 299.6552 14.79932895 50714
KUIPER-00126            
1 65955U 25228J   26252.34272628  .00000747  00000+0  12697-3 0  9995
2 65955  51.8987 268.4715 0000447  74.7679 285.3333 14.79932077 50425
KUIPER-00127            
1 65956U 25228K   26252.40144574  .00000720  00000+0  12343-3 0  9990
2 65956  51.9006 260.6918 0000491  50.0808 310.0198 14.79935454 50548
KUIPER-00128            
1 65957U 25228L   26252.04694238  .00001846  00000+0  27104-3 0  9999
2 65957  51.9021 262.3266 0000515  76.1224 283.9796 14.79929707 50488
KUIPER-00129            
1 65958U 25228M   26252.28866189  .00001941  00000+0  28361-3 0  9994
2 65958  51.8990 256.2352 0000578  73.7163 286.3863 14.79924909 50598
KUIPER-00130            
1 65959U 25228N   26252.04962515  .00002180  00000+0  31475-3 0  9995
2 65959  51.9008 259.8371 0000561  81.0612 279.0414 14.79940824 40812
KUIPER-00134            
1 65960U 25228P   26252.09326129  .00011120  00000+0  30522-3 0  9993
2 65960  51.8709 149.8409 0003931 228.1231 131.9421 15.37746510 52050
KUIPER-00135            
1 65961U 25228Q   26252.62361457  .00003972  00000+0  54948-3 0  9990
2 65961  51.8971 257.3510 0000746  92.4676 267.6371 14.79948171 50608
KUIPER-00136            
1 65962U 25228R   26252.38997346  .00000820  00000+0  13648-3 0  9997
2 65962  51.9019 255.8321 0000480  41.3333 318.7665 14.79934677 50604
KUIPER-00137            
1 65963U 25228S   26252.39267733  .00000451  00000+0  88180-4 0  9993
2 65963  51.9041 253.3291 0000720   0.6859 359.4104 14.79929892 50644
KUIPER-00138            
1 65964U 25228T   26252.02393817  .00002234  00000+0  32189-3 0  9995
2 65964  51.8968 252.3599 0000572  49.4798 310.6214 14.79939560 50622
KUIPER-00140            
1 65965U 25228U   26252.02125971  .00002255  00000+0  32470-3 0  9996
2 65965  51.8975 254.9651 0000799  60.3803 299.7239 14.79926398 50582
KUIPER-00141            
1 65966U 25228V   26252.36429993 -.00000381  00000+0 -21033-4 0  9999
2 65966  51.9004 248.5197 0000599  65.0344 295.0681 14.79929168 50703
KUIPER-00146            
1 65967U 25228W   26252.26031789  .00000069  00000+0  38018-4 0  9993
2 65967  51.9016 251.4952 0000667  43.6736 316.4279 14.79926031 50653
KUIPER-00149            
1 65968U 25228X   26252.36698992 -.00002361  00000+0 -28078-3 0  9993
2 65968  51.9008 245.8947 0000431  43.6893 316.4104 14.79935532 50742
KUIPER-00154            
1 65969U 25228Y   26251.39045155  .00002468  00000+0  35328-3 0  9995
2 65969  51.8992 247.6985 0001133  84.1664 275.9427 14.79852374 50639
KUIPER-00157            
1 65970U 25228Z   26252.34261011  .00002016  00000+0  28443-3 0  9993
2 65970  51.9012 245.5429 0000216 251.3209 108.7731 14.81285075 50743
KUIPER-00144            
1 67133U 25301A   26252.45222887  .00002517  00000+0  35901-3 0  9991
2 67133  51.9021 323.0274 0000431  89.3482 270.7530 14.79937631 41080
KUIPER-00164            
1 67134U 25301B   26252.43875347  .00002493  00000+0  35591-3 0  9993
2 67134  51.9045 335.6046 0000405  86.4238 273.6771 14.79936504 41088
KUIPER-00175            
1 67135U 25301C   26252.49138481  .00002211  00000+0  31892-3 0  9999
2 67135  51.9006 317.8080 0000274  65.7864 294.3127 14.79938264 41232
KUIPER-00179            
1 67136U 25301D   26252.50896270  .00002514  00000+0  35868-3 0  9992
2 67136  51.8988 332.7293 0000506  92.4032 267.6988 14.79931923 41137
KUIPER-00181            
1 67137U 25301E   26252.56302732  .00002645  00000+0  37574-3 0  9995
2 67137  51.9036 345.0515 0000149  81.8089 278.2890 14.79935253 40942
KUIPER-00183            
1 67138U 25301F   26252.42656469  .00000591  00000+0  10646-3 0  9999
2 67138  51.8999 315.6604 0000555 311.2190  48.8724 14.79930026 41352
KUIPER-00184            
1 67139U 25301G   26252.48059742  .00002611  00000+0  37132-3 0  9991
2 67139  51.9010 327.8662 0000460  91.8280 268.2735 14.79934912 41294
KUIPER-00186            
1 67140U 25301H   26252.46171537 -.00000824  00000+0 -79057-4 0  9997
2 67140  51.9037 345.5077 0000279 125.6410 234.4579 14.79929853 40772
KUIPER-00187            
1 67141U 25301J   26252.45902291 -.00005484  00000+0 -69071-3 0  9997
2 67141  51.9046 348.0478 0000403  90.8193 269.2815 14.79945248 40737
KUIPER-00188            
1 67142U 25301K   26252.19019500  .00002228  00000+0  32121-3 0  9998
2 67142  51.9029 316.8216 0000342  94.5730 265.5271 14.79930976 41145
KUIPER-00191            
1 67143U 25301L   26252.50089279  .00001253  00000+0  19330-3 0  9998
2 67143  51.9010 340.3382 0000370  92.8486 267.2518 14.79930875 40872
KUIPER-00196            
1 67144U 25301M   26251.39870639 -.00000047  00000+0  22763-4 0  9999
2 67144  51.8971 302.6656 0000260 331.5263  28.5685 14.79938993 41274
KUIPER-00204            
1 67145U 25301N   26252.42925940  .00004149  00000+0  57308-3 0  9999
2 67145  51.9011 313.1452 0000539  54.3362 305.7651 14.79917708 41332
KUIPER-00210            
1 67146U 25301P   26252.53464911  .00002595  00000+0  36926-3 0  9994
2 67146  51.9015 340.1366 0000425  94.7049 265.3962 14.79936109 41023
KUIPER-00221            
1 67147U 25301Q   26252.56031102 -.00003921  00000+0 -48558-3 0  9990
2 67147  51.9026 347.5572 0000652  75.0504 285.0530 14.79937751 40759
KUIPER-00232            
1 67148U 25301R   26252.40768553  .00000110  00000+0  43437-4 0  9998
2 67148  51.9024 333.2448 0000387  99.6185 260.4821 14.79932064 40936
KUIPER-00241            
1 67149U 25301S   26252.56572341  .00002445  00000+0  34970-3 0  9998
2 67149  51.9066 342.5713 0000462  17.4779 342.6199 14.79924113 41154
KUIPER-00245            
1 67150U 25301T   26252.42258496  .00000584  00000+0  10556-3 0  9993
2 67150  51.9050 350.7083 0000520 111.6327 248.4691 14.79929599 40692
KUIPER-00246            
1 67151U 25301U   26252.54004248  .00002457  00000+0  35109-3 0  9993
2 67151  51.9016 335.1270 0000436  98.0244 262.0768 14.79938461 40945
KUIPER-00247            
1 67152U 25301V   26252.41575520  .00000732  00000+0  12498-3 0  9996
2 67152  51.8962 325.6235 0000486 108.3846 251.7169 14.79933235 41044
KUIPER-00248            
1 67153U 25301W   26252.43464501  .00001938  00000+0  28313-3 0  9997
2 67153  51.9005 308.1853 0000473  85.7473 274.3544 14.79931995 41450
KUIPER-00249            
1 67154U 25301X   26252.48600764  .00001680  00000+0  24938-3 0  9999
2 67154  51.8999 322.8907 0000419  84.2639 275.8371 14.79927278 41085
KUIPER-00250            
1 67155U 25301Y   26252.43604569  .00002262  00000+0  32564-3 0  9993
2 67155  51.9004 338.0633 0000479  96.5659 263.5358 14.79931242 40908
KUIPER-00251            
1 67156U 25301Z   26252.51707520 -.00000403  00000+0 -23862-4 0  9993
2 67156  51.9023 325.2814 0000390  77.5696 282.5310 14.79929332 41245
KUIPER-00252            
1 67157U 25301AA  26252.51437052  .00002468  00000+0  35258-3 0  9996
2 67157  51.9018 327.7439 0000207  87.0010 273.0976 14.79935408 41023
KUIPER-00261            
1 67158U 25301AB  26252.53735896  .00000931  00000+0  15109-3 0  9992
2 67158  51.9022 337.7049 0000367 101.2180 258.8824 14.79928679 40889
KUIPER-00265            
1 67159U 25301AC  26252.55494000  .00002542  00000+0  36229-3 0  9990
2 67159  51.9034 352.6036 0000328 102.7075 257.3924 14.79932492 40716
KUIPER-00159            
1 67764U 26030A   26251.92511730  .00001925  00000+0  30388-3 0  9996
2 67764  51.9004  73.8185 0000254 108.1512 251.9476 14.76565989 32999
KUIPER-00160            
1 67765U 26030B   26252.58335648 -.00048528  00000+0 -44112-2 0  9993
2 67765  51.8961  52.9972 0010321 332.5537 272.0318 14.94848152  5309
KUIPER-00177            
1 67766U 26030C   26252.36670614 -.00008361  00000+0 -10690-2 0  9990
2 67766  51.8999 120.9083 0000625 221.8414 138.2500 14.79937760 32370
KUIPER-00178            
1 67767U 26030D   26251.86029360  .00002702  00000+0  38330-3 0  9994
2 67767  51.8997 123.1288 0000710 103.3575 256.7467 14.79932426 32303
KUIPER-00180            
1 67768U 26030E   26252.00074376  .00001046  00000+0  16626-3 0  9993
2 67768  51.8975 117.5014 0000853 115.6881 244.4169 14.79927511 32399
KUIPER-00197            
1 67769U 26030F   26251.95478632  .00003721  00000+0  51699-3 0  9991
2 67769  51.8986  97.7189 0001065 108.0485 252.0593 14.79921325 32669
KUIPER-00198            
1 67770U 26030G   26252.31271904  .00000180  00000+0  52629-4 0  9998
2 67770  51.8969 108.6125 0000927 105.2580 254.8485 14.79928207 32548
KUIPER-00199            
1 67771U 26030H   26252.44144775  .00019159  00000+0  57880-3 0  9997
2 67771  51.8827  52.7103 0011156 354.1596   5.9258 15.34207195 33334
KUIPER-00200            
1 67772U 26030J   26252.26136416 -.00000298  00000+0 -10025-4 0  9998
2 67772  51.8969  93.8836 0000708 110.7010 249.4029 14.79928560 32748
KUIPER-00203            
1 67773U 26030K   26252.36136669  .00002572  00000+0  36639-3 0  9993
2 67773  51.9065 126.0078 0001016  89.1595 270.9484 14.79926440 32305
KUIPER-00205            
1 67774U 26030L   26252.26405257  .00000781  00000+0  13145-3 0  9992
2 67774  51.8992  91.3340 0000792  90.9899 269.1154 14.79924317 32784
KUIPER-00208            
1 67775U 26030M   26251.99804555  .00002843  00000+0  40180-3 0  9996
2 67775  51.8966 120.0110 0001370  93.7847 266.3272 14.79929777 32356
KUIPER-00209            
1 67776U 26030N   26251.96699428  .00002713  00000+0  38472-3 0  9992
2 67776  51.8988 117.7467 0000936 113.1458 246.9603 14.79932077 32383
KUIPER-00213            
1 67777U 26030P   26252.34109574  .00001376  00000+0  20952-3 0  9992
2 67777  51.8949 113.5531 0000883  92.8593 267.2470 14.79932280 32475
KUIPER-00214            
1 67778U 26030Q   26252.31003276  .00001460  00000+0  22046-3 0  9992
2 67778  51.9000 111.2233 0000728 106.2443 253.8600 14.79931422 32508
KUIPER-00215            
1 67779U 26030R   26252.28971746  .00000730  00000+0  12482-3 0  9997
2 67779  51.8963  98.6688 0000780 105.2288 254.8761 14.79932275 32687
KUIPER-00218            
1 67780U 26030S   26252.30731575  .00000146  00000+0  48173-4 0  9994
2 67780  51.8951 113.6314 0000630 120.7715 239.3310 14.79932113 32477
KUIPER-00220            
1 67781U 26030T   26251.99662712  .00003356  00000+0  46886-3 0  9999
2 67781  51.8958  90.0286 0000750 116.1518 243.9522 14.79941087 32773
KUIPER-00222            
1 67782U 26030U   26252.34648584  .00002377  00000+0  34071-3 0  9996
2 67782  51.8981 108.6174 0001075 102.7847 257.3235 14.79926611 32540
KUIPER-00223            
1 67783U 26030V   26251.78050438  .00002498  00000+0  35681-3 0  9991
2 67783  51.9007 103.4274 0000823 104.3458 255.7596 14.79908742 32571
KUIPER-00225            
1 67784U 26030W   26251.91024421  .00001053  00000+0  16718-3 0  9996
2 67784  51.8977 108.0036 0000818  95.9788 264.1268 14.79927756 32519
KUIPER-00226            
1 67785U 26030X   26250.87353906  .00005407  00000+0  79996-3 0  9998
2 67785  51.9003  99.9329 0003148 358.0738   2.0210 14.76456168 32541
KUIPER-00259            
1 67786U 26030Y   26252.01152947  .00000105  00000+0  42734-4 0  9990
2 67786  51.8976 107.4576 0000958 105.1166 254.9903 14.79926735 32532
KUIPER-00260            
1 67787U 26030Z   26252.28435488  .00001241  00000+0  19171-3 0  9994
2 67787  51.9002 103.8595 0001002 105.1519 254.9554 14.79932515 32511
KUIPER-00262            
1 67788U 26030AA  26251.77787418  .00002623  00000+0  37295-3 0  9993
2 67788  51.8992 106.0168 0001358  93.4324 266.6794 14.79933491 32539
KUIPER-00266            
1 67789U 26030AB  26251.94939647  .00002721  00000+0  38583-3 0  9996
2 67789  51.8981 102.7502 0001104  91.8137 268.2951 14.79935454 32596
KUIPER-00268            
1 67790U 26030AC  26251.85080259  .00002483  00000+0  35462-3 0  9992
2 67790  51.9030 100.7247 0001029 108.9979 251.1095 14.79925554 32611
KUIPER-00270            
1 67791U 26030AD  26251.76028109 -.00000716  00000+0 -65003-4 0  9993
2 67791  51.8980  91.0786 0000724 108.5005 251.6036 14.79923481 32743
KUIPER-00274            
1 67792U 26030AE  26251.87108712  .00002806  00000+0  39690-3 0  9997
2 67792  51.9022 113.1021 0000947  98.3209 261.7861 14.79932732 32443
KUIPER-00275            
1 67793U 26030AF  26252.29781994  .00002366  00000+0  33929-3 0  9994
2 67793  51.8989  91.2110 0000940 112.3814 247.7248 14.79922807 32784
KUIPER-00276            
1 67794U 26030AG  26251.78595310  .00002572  00000+0  36623-3 0  9996
2 67794  51.8969  98.4527 0001117  63.9616 296.1462 14.79934124 32648
KUIPER-00279            
1 67795U 26030AH  26251.76298180  .00002581  00000+0  36740-3 0  9990
2 67795  51.9017  88.6004 0000913 103.1116 256.9949 14.79934069 32776
KUIPER-00131            
1 68573U 26072A   26252.50195430  .00002382  00000+0  34128-3 0  9995
2 68573  51.9002 182.8123 0000843  80.4926 279.6132 14.79935423 23605
KUIPER-00189            
1 68574U 26072B   26252.19535082  .00002660  00000+0  37773-3 0  9990
2 68574  51.8981 186.6448 0000831  88.7911 271.3147 14.79937878 23527
KUIPER-00192            
1 68575U 26072C   26251.82935115  .00003073  00000+0  43189-3 0  9998
2 68575  51.8990 183.2814 0000991  81.4016 278.7059 14.79934483 23545
KUIPER-00193            
1 68576U 26072D   26252.17778909  .00002691  00000+0  38182-3 0  9996
2 68576  51.9042 171.7844 0001169  91.1757 268.9340 14.79937203 23736
KUIPER-00194            
1 68577U 26072E   26252.20346298  .00002859  00000+0  40392-3 0  9995
2 68577  51.9038 179.1526 0000994  72.5218 287.5853 14.79935179 23636
KUIPER-00229            
1 68578U 26072F   26252.53571748  .00001860  00000+0  27288-3 0  9992
2 68578  51.8988 182.6644 0000972 102.0882 258.0189 14.79931681 23619
KUIPER-00230            
1 68579U 26072G   26252.58335648 -.00035375  00000+0 -26520-2 0  9992
2 68579  51.8894 130.4304 0003051 339.6934  39.2529 15.02142833  1306
KUIPER-00231            
1 68580U 26072H   26250.47196610  .00001589  00000+0  23751-3 0  9996
2 68580  51.8975 164.3644 0002190  85.2694 274.8519 14.79928908 23680
KUIPER-00234            
1 68581U 26072J   26252.50733257  .00002668  00000+0  37890-3 0  9995
2 68581  51.8993 177.7736 0001127  69.3737 290.7346 14.79923346 23676
KUIPER-00236            
1 68582U 26072K   26252.58335648 -.01026757  00000+0 -11009+0 0  9994
2 68582  51.9396 132.4639 0004766 299.0462 182.4413 14.91313503  5612
KUIPER-00244            
1 68583U 26072L   26252.48436844  .00002618  00000+0  37224-3 0  9992
2 68583  51.8987 167.8987 0001051  79.1187 280.9893 14.79933262 23815
KUIPER-00253            
1 68584U 26072M   26252.21154873  .00002862  00000+0  40429-3 0  9995
2 68584  51.9032 171.6281 0000960  82.2250 277.8822 14.79934503 23739
KUIPER-00254            
1 68585U 26072N   26252.17508103  .00002855  00000+0  40333-3 0  9996
2 68585  51.9024 174.2874 0001238  42.3075 317.7983 14.79938501 23698
KUIPER-00263            
1 68586U 26072P   26252.12374103  .00000387  00000+0  79740-4 0  9996
2 68586  51.9010 159.5816 0000786 108.5942 251.5106 14.79930172 23891
KUIPER-00269            
1 68587U 26072Q   26252.18856593  .00002801  00000+0  39620-3 0  9996
2 68587  51.8997 161.7036 0001047  85.0281 275.0800 14.79936779 23879
KUIPER-00272            
1 68588U 26072R   26252.53839816  .00001161  00000+0  18125-3 0  9990
2 68588  51.8953 180.1237 0000934  73.4730 286.6335 14.79932068 23647
KUIPER-00285            
1 68589U 26072S   26252.15480911  .00001332  00000+0  20380-3 0  9993
2 68589  51.9023 161.9311 0001560  57.0205 303.0907 14.79925029 23860
KUIPER-00286            
1 68590U 26072T   26252.15749674  .00000995  00000+0  15950-3 0  9990
2 68590  51.8998 159.3519 0000873  98.8336 261.2725 14.79927373 23909
KUIPER-00289            
1 68591U 26072U   26252.14940554  .00002901  00000+0  40936-3 0  9991
2 68591  51.8976 166.8667 0001055  81.5230 278.5852 14.79934372 23794
KUIPER-00290            
1 68592U 26072V   26252.03440932  .00000934  00000+0  16374-3 0  9998
2 68592  51.9030 167.2395 0001411  23.2480 336.8544 14.76417102 23785
KUIPER-00293            
1 68593U 26072W   26252.20615210  .00002837  00000+0  40099-3 0  9996
2 68593  51.8963 176.5951 0001603  22.2664 337.8368 14.79929672 23662
KUIPER-00294            
1 68594U 26072X   26251.47680122  .00002810  00000+0  39746-3 0  9997
2 68594  51.8969 167.3396 0000518  85.4823 274.6199 14.79935835 23738
KUIPER-00296            
1 68595U 26072Y   26252.40732714  .00001468  00000+0  22159-3 0  9995
2 68595  51.8994 145.7444 0000906  91.0957 269.0109 14.79924549 24115
KUIPER-00297            
1 68596U 26072Z   26252.51003218  .00001220  00000+0  18909-3 0  9992
2 68596  51.8986 175.2497 0001380  88.4660 271.6460 14.79932954 23714
KUIPER-00300            
1 68597U 26072AA  26252.20884890  .00002791  00000+0  39494-3 0  9998
2 68597  51.9015 174.1144 0000773 102.2697 257.8352 14.79936199 23706
KUIPER-00301            
1 68598U 26072AB  26252.40631634  .00001176  00000+0  19788-3 0  9997
2 68598  51.9017 142.5190 0002130 160.9949 199.1091 14.76489205 24155
KUIPER-00304            
1 68599U 26072AC  26252.09855409  .00001579  00000+0  25454-3 0  9995
2 68599  51.9001 145.8347 0000465 345.3225  14.7723 14.76606332 24082
KUIPER-00317            
1 68600U 26072AD  26252.45598228  .00001340  00000+0  20473-3 0  9993
2 68600  51.8994 163.0179 0000510  93.0629 267.0392 14.79929224 23878
KUIPER-00320            
1 68601U 26072AE  26252.18047990  .00002984  00000+0  42029-3 0  9995
2 68601  51.9019 169.2498 0000856  94.4402 265.6658 14.79935435 23765
KUIPER-00299            
1 68864U 26095A   26252.60674362  .00001050  00000+0  17994-3 0  9993
2 68864  51.8994 237.2796 0002472  76.5745 283.5491 14.76488440 20117
KUIPER-00353            
1 68865U 26095B   26252.32373498  .00002294  00000+0  32975-3 0  9996
2 68865  51.8984 223.6072 0000686  62.1017 298.0015 14.79934595 20282
KUIPER-00357            
1 68866U 26095C   26252.61953221  .00000182  00000+0  52861-4 0  9998
2 68866  51.9007 229.8078 0000849  25.5880 334.5125 14.79925543 20221
KUIPER-00364            
1 68867U 26095D   26252.24541582  .00002098  00000+0  30417-3 0  9991
2 68867  51.9025 233.9832 0001186  25.7692 334.3329 14.79937120 20132
KUIPER-00375            
1 68868U 26095E   26252.35481686  .00002133  00000+0  30876-3 0  9991
2 68868  51.8998 225.9747 0000729  74.7736 285.3307 14.79927666 20250
KUIPER-00433            
1 68869U 26095F   26252.40615240  .00001989  00000+0  28980-3 0  9994
2 68869  51.8987 240.7426 0000776  32.7501 327.3509 14.79938675 20055
KUIPER-00437            
1 68870U 26095G   26252.58335648 -.00067311  00000+0 -30295-2 0  9990
2 68870  51.8838 194.7248 0006195 251.9638 266.1708 15.20738565  4695
KUIPER-00448            
1 68871U 26095H   26251.47175534  .00001685  00000+0  27141-3 0  9991
2 68871  51.9035 234.5319 0002937  19.0844 341.0226 14.76319260 20053
KUIPER-00459            
1 68872U 26095J   26251.28242443  .00002250  00000+0  32400-3 0  9998
2 68872  51.9021 223.2781 0000662  81.8988 278.2050 14.79936769 20199
KUIPER-00468            
1 68873U 26095K   26252.61092560  .00001372  00000+0  22513-3 0  9998
2 68873  51.8965 214.6990 0001069 153.5484 206.5532 14.76613291 20437
KUIPER-00476            
1 68874U 26095L   26252.58335648 -.01709449  00000+0 -10909+0 0  9997
2 68874  51.8848 198.7930 0010321 236.7514  42.8640 15.11381368  4725
KUIPER-00478            
1 68875U 26095M   26252.36020278  .00000483  00000+0  92352-4 0  9990
2 68875  51.8946 220.9514 0001101  56.8029 303.3039 14.79927165 20324
KUIPER-00480            
1 68876U 26095N   26252.59925763  .00000953  00000+0  15397-3 0  9994
2 68876  51.9030 217.4048 0000881  90.0953 270.0111 14.79928035 20398
KUIPER-00482            
1 68877U 26095P   26252.31834035  .00001231  00000+0  19046-3 0  9991
2 68877  51.9007 228.6347 0001089 354.5374   5.5576 14.79933845 20217
KUIPER-00483            
1 68878U 26095Q   26252.37229726  .00002199  00000+0  31717-3 0  9996
2 68878  51.8977 240.8607 0001580 307.4497  52.6322 14.79958097 20046
KUIPER-00488            
1 68879U 26095R   26252.35750695  .00002201  00000+0  31758-3 0  9998
2 68879  51.8986 223.4697 0000983  55.7511 304.3544 14.79935332 20285
KUIPER-00489            
1 68880U 26095S   26252.16300611  .00000872  00000+0  14336-3 0  9993
2 68880  51.8947 216.8133 0001205  62.3818 297.7267 14.79932446 20366
KUIPER-00499            
1 68881U 26095T   26252.59656922  .00002287  00000+0  32893-3 0  9990
2 68881  51.8979 219.9534 0000812  48.3999 311.7033 14.79929351 20356
KUIPER-00500            
1 68882U 26095U   26252.37508510 -.00000783  00000+0 -73783-4 0  9991
2 68882  51.8989 238.3829 0000714  82.6424 277.4619 14.79923173 20089
KUIPER-00502            
1 68883U 26095V   26252.32472738  .00001718  00000+0  25445-3 0  9997
2 68883  51.8997 214.8585 0001105  45.9498 314.1555 14.79921010 20407
KUIPER-00503            
1 68884U 26095W   26252.61413658  .00001508  00000+0  22678-3 0  9998
2 68884  51.8982 234.8008 0000611  54.3804 305.7215 14.79933954 20151
KUIPER-00504            
1 68885U 26095X   26252.23462868 -.00000109  00000+0  14753-4 0  9997
2 68885  51.8987 244.0089 0001056  77.9749 282.1332 14.79927395 19992
KUIPER-00505            
1 68886U 26095Y   26252.61683109 -.00000669  00000+0 -58742-4 0  9991
2 68886  51.9006 232.3219 0000402  50.2238 309.8760 14.79925891 20186
KUIPER-00507            
1 68887U 26095Z   26252.61073211  .00000946  00000+0  15302-3 0  9999
2 68887  51.9004 222.3319 0000525  70.6140 289.4879 14.79933762 20325
KUIPER-00511            
1 68888U 26095AA  26252.26431366  .00000839  00000+0  13911-3 0  9995
2 68888  51.8959 216.4778 0000986  23.9059 336.1948 14.79928613 20379
KUIPER-00512            
1 68889U 26095AB  26251.97260562  .00000904  00000+0  14763-3 0  9990
2 68889  51.9005 237.6703 0000940  69.8634 290.2430 14.79930005 20053
KUIPER-00519            
1 68890U 26095AC  26252.32104801 -.00000548  00000+0 -42856-4 0  9996
2 68890  51.9013 226.1925 0000524  99.0574 261.0448 14.79925449 20241
KUIPER-00521            
1 68891U 26095AD  26252.31934969  .00002447  00000+0  34994-3 0  9993
2 68891  51.9004 219.8945 0000869  88.7331 271.3731 14.79922745 20336
KUIPER-00524            
1 68892U 26095AE  26252.35212842  .00001340  00000+0  20477-3 0  9999
2 68892  51.8970 228.4682 0000668  20.8843 339.2147 14.79930933 20214
KUIPER-00370            
1 68919U 26098A   26252.58269782  .00002441  00000+0  34918-3 0  9990
2 68919  51.8990  44.8266 0000638 113.4792 246.6237 14.79927694 19986
KUIPER-00380            
1 68920U 26098B   26252.59081054  .00000466  00000+0  90078-4 0  9992
2 68920  51.8974  37.4284 0000513  83.1928 276.9092 14.79927140 20088
KUIPER-00386            
1 68921U 26098C   26252.60500396  .00002469  00000+0  35267-3 0  9993
2 68921  51.8990  39.8597 0000523 107.9686 252.1333 14.79934986 20054
KUIPER-00388            
1 68922U 26098D   26251.83451056  .00002821  00000+0  39885-3 0  9998
2 68922  51.9011  53.4274 0000616 129.0103 231.0914 14.79938881 19794
KUIPER-00405            
1 68923U 26098E   26252.59691364  .00002529  00000+0  36067-3 0  9995
2 68923  51.9016  47.4089 0001285 165.2175 194.8825 14.79929000 19948
KUIPER-00408            
1 68924U 26098F   26252.58810620  .00001036  00000+0  16491-3 0  9994
2 68924  51.9003  39.8644 0000522 108.5220 251.5800 14.79925020 20057
KUIPER-00409            
1 68925U 26098G   26251.95805288  .00004627  00000+0  63541-3 0  9996
2 68925  51.9010  47.7350 0000649 131.4224 228.6794 14.79942560 19881
KUIPER-00410            
1 68926U 26098H   26252.56853630  .00002378  00000+0  34089-3 0  9995
2 68926  51.8979  42.5121 0001574 132.3810 227.7286 14.79927650 20019
KUIPER-00412            
1 68927U 26098J   26252.35716432  .00002532  00000+0  36097-3 0  9994
2 68927  51.9029  35.9768 0000864 118.7486 241.3563 14.79931825 20084
KUIPER-00413            
1 68928U 26098K   26252.58002863  .00000789  00000+0  13247-3 0  9990
2 68928  51.9006  47.4681 0001035 131.2741 228.8310 14.79927144 19949
KUIPER-00414            
1 68929U 26098L   26251.72512846  .00002405  00000+0  34447-3 0  9995
2 68929  51.8963  61.3334 0001831 111.3168 248.7990 14.79924471 19672
KUIPER-00415            
1 68930U 26098M   26252.41929309  .00002500  00000+0  35680-3 0  9996
2 68930  51.9019  40.6927 0000672 112.4713 247.6320 14.79930818 20023
KUIPER-00416            
1 68931U 26098N   26252.63975574  .00010959  00000+0  14712-2 0  9995
2 68931  51.9023  31.0692 0001087 117.9121 242.1951 14.79729551 20172
KUIPER-00420            
1 68932U 26098P   26252.56242556  .00002701  00000+0  38302-3 0  9993
2 68932  51.9010  32.5218 0000571 110.4994 249.6030 14.79941762 20150
KUIPER-00421            
1 68933U 26098Q   26252.42198193  .00002179  00000+0  31468-3 0  9991
2 68933  51.9026  38.1254 0000702 126.7534 233.3493 14.79934669 20067
KUIPER-00425            
1 68934U 26098R   26252.61649059  .00002365  00000+0  33911-3 0  9997
2 68934  51.8993  44.8135 0000585 116.5740 243.5282 14.79930017 19988
KUIPER-00430            
1 68935U 26098S   26252.61377346  .00000504  00000+0  95147-4 0  9998
2 68935  51.9045  47.2233 0001092 127.0293 233.0769 14.79927200 19959
KUIPER-00431            
1 68936U 26098T   26252.61109176  .00002374  00000+0  34027-3 0  9999
2 68936  51.8993  49.8255 0000762 132.1027 228.0000 14.79931242 19917
KUIPER-00432            
1 68937U 26098U   26251.94388167  .00002946  00000+0  41527-3 0  9992
2 68937  51.9001  45.1740 0000512 104.7702 255.3317 14.79931277 19928
KUIPER-00434            
1 68938U 26098V   26252.57753102  .00001780  00000+0  28375-3 0  9999
2 68938  51.9001  46.1877 0001848 105.4972 254.6193 14.76493286 19969
KUIPER-00436            
1 68939U 26098W   26252.59960375  .00001775  00000+0  26180-3 0  9990
2 68939  51.9019  44.8883 0000273 117.8434 242.2556 14.79929245 19982
KUIPER-00438            
1 68940U 26098X   26252.60230655  .00000982  00000+0  15779-3 0  9996
2 68940  51.9038  42.3981 0000957  95.2871 264.8201 14.79933986 20010
KUIPER-00439            
1 68941U 26098Y   26252.58564935  .00004204  00000+0  57852-3 0  9994
2 68941  51.9026  42.4645 0001010  82.0420 278.0657 14.80055907 20013
KUIPER-00440            
1 68942U 26098Z   26252.61039179  .00002660  00000+0  37770-3 0  9997
2 68942  51.9033  34.8511 0000154 337.6346  22.4610 14.79937466 20122
KUIPER-00442            
1 68943U 26098AA  26252.59835779  .00001502  00000+0  24402-3 0  9997
2 68943  51.9021  37.3282 0001810 109.0387 251.0770 14.76527742 20080
KUIPER-00446            
1 68944U 26098AB  26252.57122986  .00002429  00000+0  34757-3 0  9998
2 68944  51.8995  40.0286 0000914 209.7603 150.3308 14.79929029 20049
KUIPER-00451            
1 68945U 26098AC  26251.75007687  .00002948  00000+0  41547-3 0  9999
2 68945  51.8990  53.6407 0000792 127.3108 232.7927 14.79939614 19781
KUIPER-00452            
1 68946U 26098AD  26252.57393446  .00002656  00000+0  37724-3 0  9990
2 68946  51.9020  37.5116 0000744  91.8387 268.2660 14.79933826 20088
KUIPER-00453            
1 68947U 26098AE  26252.59350192  .00001559  00000+0  23357-3 0  9992
2 68947  51.9000  34.8476 0002696 109.8666 250.2587 14.79929866 20127
KUIPER-00454            
1 68948U 26098AF  26251.75521680  .00002243  00000+0  34951-3 0  9995
2 68948  51.9002  56.0145 0002190 326.0602  34.0218 14.76508357 19752
KUIPER-00455            
1 68949U 26098AG  26252.59421860  .00002388  00000+0  34219-3 0  9995
2 68949  51.9002  49.9120 0002213 109.4820 250.6382 14.79929133 19916
KUIPER-00458            
1 68950U 26098AH  26252.57660693  .00002539  00000+0  36194-3 0  9996
2 68950  51.9016  35.0120 0000544  99.6862 260.4162 14.79925617 20112
KUIPER-00282            
1 69267U 26118A   26252.58471396  .00002553  00000+0  36382-3 0  9997
2 69267  51.8973  27.4359 0000749 143.9731 216.1282 14.79932306 16657
KUIPER-00383            
1 69268U 26118B   26252.60430068  .00002659  00000+0  37764-3 0  9994
2 69268  51.8986  24.8690 0000519 121.0437 239.0576 14.79935166 16697
KUIPER-00527            
1 69269U 26118C   26252.57054912  .00000474  00000+0  91142-4 0  9995
2 69269  51.8986  25.1499 0000618 112.0587 248.0441 14.79925242 16689
KUIPER-00562            
1 69270U 26118D   26252.61230066  .00002423  00000+0  34642-3 0  9995
2 69270  51.9032  17.2742 0000636 135.5840 224.5174 14.79969199 16804
KUIPER-00570            
1 69271U 26118E   26252.56514869  .00002725  00000+0  38634-3 0  9996
2 69271  51.9019  30.1451 0000508 120.2995 239.8018 14.79926469 16608
KUIPER-00572            
1 69272U 26118F   26252.35104911  .00002604  00000+0  37044-3 0  9997
2 69272  51.9011  25.9817 0000656 116.7310 243.3719 14.79926807 16653
KUIPER-00581            
1 69273U 26118G   26252.61577631  .00000919  00000+0  14966-3 0  9995
2 69273  51.9024  29.8197 0001741 147.8310 212.2759 14.79923980 16718
KUIPER-00584            
1 69274U 26118H   26252.59621521  .00000571  00000+0  10396-3 0  9998
2 69274  51.9000  32.5167 0001003 117.8579 242.2485 14.79933311 16589
KUIPER-00587            
1 69275U 26118J   26252.35374920  .00001544  00000+0  23160-3 0  9995
2 69275  51.9022  23.4830 0001085  67.7508 292.3569 14.79924990 16699
KUIPER-00590            
1 69276U 26118K   26252.34835741  .00000009  00000+0  30194-4 0  9999
2 69276  51.9031  28.5120 0001064 131.1579 228.9475 14.79933146 16626
KUIPER-00592            
1 69277U 26118L   26252.60166913  .00002334  00000+0  33529-3 0  9994
2 69277  51.9033  27.2715 0000680  97.1442 262.9598 14.79903022 16666
KUIPER-00593            
1 69278U 26118M   26252.58335648 -.00064467  00000+0 -77217-2 0  9993
2 69278  51.9008  10.0348 0003584  24.1979 106.7488 14.83958686  5192
KUIPER-00594            
1 69279U 26118N   26252.34491629  .00002594  00000+0  36931-3 0  9990
2 69279  51.9043  16.0311 0001581  62.0156 298.0966 14.79912672 16795
KUIPER-00595            
1 69280U 26118P   26252.58335648 -.00049963  00000+0 -56650-2 0  9998
2 69280  51.8990  10.0419 0003403  79.6883 198.2158 14.86077226  5748
KUIPER-00596            
1 69281U 26118Q   26252.57933309  .00002580  00000+0  36731-3 0  9997
2 69281  51.9020  32.4846 0000522 109.2988 250.8031 14.79931755 16588
KUIPER-00597            
1 69282U 26118R   26252.58132028  .00056467  00000+0  79243-2 0  9995
2 69282  51.8992  12.4514 0000788 124.9876 235.1159 14.76882147 16865
KUIPER-00599            
1 69283U 26118S   26252.60698913  .00002688  00000+0  38148-3 0  9995
2 69283  51.9018  22.2753 0000580 141.0240 219.0764 14.79928821 16737
KUIPER-00600            
1 69284U 26118T   26252.58335648 -.00065710  00000+0 -84682-2 0  9996
2 69284  51.8999  12.3896 0001716 126.2988  47.4197 14.80939975  1358
KUIPER-00601            
1 69285U 26118U   26252.56783693  .00002623  00000+0  37291-3 0  9999
2 69285  51.9035  27.5334 0000544 100.2437 259.8587 14.79929971 16659
KUIPER-00602            
1 69286U 26118V   26252.57591583  .00002696  00000+0  38244-3 0  9995
2 69286  51.9019  19.9120 0000964 169.2482 190.8501 14.79934702 16761
KUIPER-00603            
1 69287U 26118W   26252.59010646  .00000429  00000+0  85235-4 0  9999
2 69287  51.9028  22.4372 0000600  95.3624 264.7407 14.79927740 16720
KUIPER-00605            
1 69288U 26118X   26252.58201937  .00002610  00000+0  37132-3 0  9990
2 69288  51.8993  29.9558 0000643 110.1746 249.9286 14.79927958 16627
KUIPER-00606            
1 69289U 26118Y   26252.57323126  .00002148  00000+0  31077-3 0  9993
2 69289  51.9020  22.5116 0000713 130.2381 229.8644 14.79928606 16722
KUIPER-00607            
1 69290U 26118Z   26252.58335648 -.00023404  00000+0 -30525-2 0  9994
2 69290  51.9015  12.4745 0001292 353.5004  92.8430 14.79920079  5746
KUIPER-00608            
1 69291U 26118AA  26252.58335648 -.00023675  00000+0 -30900-2 0  9992
2 69291  51.9014  14.8341 0001423  50.7823 319.8950 14.79898101  5698
KUIPER-00610            
1 69292U 26118AB  26252.60969018 -.00000021  00000+0  26286-4 0  9993
2 69292  51.9039  19.8491 0000483 100.3447 259.7570 14.79921096 16766
KUIPER-00613            
1 69293U 26118AC  26252.59890584  .00002507  00000+0  35783-3 0  9994
2 69293  51.9011  29.8958 0000507 109.2770 250.8247 14.79927107 16627
KUIPER-00618            
1 69294U 26118AD  26252.57860483 -.00000632  00000+0 -53902-4 0  9991
2 69294  51.9038  17.4915 0002298 152.8576 207.2507 14.79926100 16795
KUIPER-00620            
1 69295U 26118AE  26252.59281492  .00002649  00000+0  37635-3 0  9993
2 69295  51.9039  19.9331 0000457 111.6074 248.4938 14.79929146 16762
KUIPER-00423            
1 69592U 26140A   26252.58335648 -.00087625  00000+0 -75823-2 0  9999
2 69592  51.8974 352.7782 0013010 101.4627   0.3943 14.97045731  5675
KUIPER-00428            
1 69593U 26140B   26252.58290170  .00020453  00000+0  55306-3 0  9999
2 69593  51.8824 350.8916 0005510 230.8810 129.1688 15.37679237 14210
KUIPER-00481            
1 69594U 26140C   26252.58335648 -.00009048  00000+0 -12586-2 0  9991
2 69594  51.9017 357.0437 0001458 303.9766 278.7773 14.76489174  3318
KUIPER-00490            
1 69595U 26140D   26252.56099206  .00002466  00000+0  35245-3 0  9990
2 69595  51.9047   2.5174 0000570  85.3903 274.7124 14.79917430 14053
KUIPER-00493            
1 69596U 26140E   26252.52187819  .00000650  00000+0  11432-3 0  9990
2 69596  51.9049   7.7412 0000718 221.4060 138.6848 14.79925434 13973
KUIPER-00496            
1 69597U 26140F   26252.58335648 -.00174784  00000+0 -90299-2 0  9991
2 69597  51.8845 353.7807 0009032 241.4270 120.4364 15.16559981  4695
KUIPER-00513            
1 69598U 26140G   26252.59474833  .00002654  00000+0  37714-3 0  9991
2 69598  51.9012   2.4164 0000736  98.4372 261.6673 14.79924071 14058
KUIPER-00516            
1 69599U 26140H   26252.58335648 -.00000822  00000+0 -16886-4 0  9996
2 69599  51.8812 350.8332 0007265 181.2375 224.1669 15.27897274  5597
KUIPER-00517            
1 69600U 26140J   26252.47913442  .00013600  00000+0  37927-3 0  9995
2 69600  51.8788 350.9326 0009434 125.9100 234.2764 15.37018121 14200
KUIPER-00520            
1 69601U 26140K   26252.34829090  .00001013  00000+0  17425-3 0  9993
2 69601  51.9020   5.2287 0001337 158.6245 201.4772 14.76593610 13997
KUIPER-00522            
1 69602U 26140L   26252.58335648 -.00023680  00000+0 -19424-2 0  9997
2 69602  51.8930 353.1756 0015560  96.1308 229.2597 14.98410386  5493
KUIPER-00528            
1 69603U 26140M   26252.50768868  .00002764  00000+0  39141-3 0  9991
2 69603  51.9041   5.3161 0000491  97.4159 262.6859 14.79928768 14005
KUIPER-00532            
1 69604U 26140N   26252.58335648 -.02064206  00000+0 -12205+0 0  9997
2 69604  51.8913 352.1700 0004367 219.5815 271.8264 15.14823565  5761
KUIPER-00533            
1 69605U 26140P   26252.58335648 -.00015041  00000+0 -19465-2 0  9997
2 69605  51.9021 359.9776 0000509 108.0199 356.1143 14.79975398  5600
KUIPER-00534            
1 69606U 26140Q   26252.54680176 -.00078209  00000+0 -24893-2 0  9999
2 69606  51.8836 351.4020 0013837  97.8246 262.4310 15.32140291 14206
KUIPER-00537            
1 69607U 26140R   26252.62318119 -.00003048  00000+0 -37085-3 0  9991
2 69607  51.9020   7.2126 0000652 314.8623  45.2286 14.79952238 13994
KUIPER-00538            
1 69608U 26140S   26252.59180213 -.00020762  00000+0 -27053-2 0  9995
2 69608  51.9029   4.8723 0000534 106.2400 253.8622 14.79896311 14020
KUIPER-00540            
1 69609U 26140T   26252.57312105  .00012357  00000+0  33398-3 0  9990
2 69609  51.8816 350.8442 0004916 224.4505 135.6088 15.38111736 14214
KUIPER-00541            
1 69610U 26140U   26252.58335648  .00007667  00000+0  23806-3 0  9991
2 69610  51.8855 350.3240 0007237 155.1468 130.2874 15.34335177  5461
KUIPER-00542            
1 69611U 26140V   26252.46373149  .00021706  00000+0  58770-3 0  9995
2 69611  51.8801 350.8470 0007938 135.7189 224.4434 15.37585330 14206
KUIPER-00543            
1 69612U 26140W   26252.58335648 -.00163553  00000+0 -91634-2 0  9995
2 69612  51.8943 352.0455 0005616 231.9128 242.1626 15.13674548  5860
KUIPER-00544            
1 69613U 26140X   26252.58335648 -.00002318  00000+0 -57340-4 0  9995
2 69613  51.8814 350.3411 0005331 141.7688 131.3296 15.34368403  5746
KUIPER-00546            
1 69614U 26140Y   26252.58335648 -.00030705  00000+0 -25131-2 0  9998
2 69614  51.8953 353.1665 0019886  95.2395 298.4100 14.98567377  4974
KUIPER-00547            
1 69615U 26140Z   26252.58335648  .00000481  00000+0  23778-4 0  9992
2 69615  51.8821 350.1829 0009526 121.3454 237.5576 15.37060678  3904
KUIPER-00549            
1 69616U 26140AA  26252.58335648 -.01265801  00000+0 -51501-1 0  9997
2 69616  51.8856 351.0026 0005974 219.4282  67.7970 15.26917469  5273
KUIPER-00550            
1 69617U 26140AB  26252.58335648 -.00148960  00000+0 -64696-2 0  9993
2 69617  51.8810 354.6536 0007448 258.3818  57.2573 15.22403758  4936
KUIPER-00551            
1 69618U 26140AC  26252.57351201  .00010684  00000+0  28851-3 0  9999
2 69618  51.8784 350.0859 0012035 112.9627 247.2631 15.38250181 14222
KUIPER-00554            
1 69619U 26140AD  26252.58424746  .00010750  00000+0  30008-3 0  9997
2 69619  51.8790 350.1552 0010000 124.3788 235.8146 15.37229363 14227
KUIPER-00555            
1 69620U 26140AE  26252.57837331  .00019498  00000+0  50794-3 0  9998
2 69620  51.8837 350.1457 0011153 113.1787 247.0377 15.38821276 14223
KUIPER-00556            
1 69621U 26140AF  26252.58335648 -.00051912  00000+0 -55730-2 0  9997
2 69621  51.8999 355.1344 0018020  96.8255  65.3678 14.88184678  5889
KUIPER-00557            
1 69622U 26140AG  26252.53362051  .00025740  00000+0  67507-3 0  9995
2 69622  51.8825 350.5836 0009311 127.9632 232.2198 15.38455849 14217
KUIPER-00560            
1 69623U 26140AH  26252.56114395  .00033421  00000+0  91583-3 0  9991
2 69623  51.8800 350.7424 0008449 150.7026 209.4436 15.36966739 14212
KUIPER-00561            
1 69624U 26140AJ  26252.58335648 -.00011630  00000+0 -15006-2 0  9995
2 69624  51.9021 359.9451 0001141  99.8150 184.7547 14.79892969  5771
KUIPER-00564            
1 69625U 26140AK  26252.58335648 -.00059010  00000+0 -82848-2 0  9998
2 69625  51.8976 357.2327 0003533 111.8454  97.4256 14.77273772  5839
KUIPER-00567            
1 69626U 26140AL  26252.58335648 -.00052827  00000+0 -62396-2 0  9994
2 69626  51.8993 355.0577 0016374  79.0145 314.5200 14.84328701  5508
KUIPER-00573            
1 69627U 26140AM  26252.58335648 -.00038533  00000+0 -50390-2 0  9994
2 69627  51.9022 357.4820 0000860  66.9306 203.2991 14.80061684  5553
KUIPER-00258            
1 69763U 26151A   26252.58335648 -.01204298  00000+0 -62872-1 0  9998
2 69763  51.8772 269.9208 0011378  15.1412 209.5535 15.18332200  5091
KUIPER-00526            
1 69764U 26151B   26252.12395231  .00001906  00000+0  27895-3 0  9999
2 69764  51.8991 284.5739 0000564  79.0418 281.0608 14.79922906 10419
KUIPER-00558            
1 69765U 26151C   26251.82007687  .00001820  00000+0  26765-3 0  9991
2 69765  51.8976 285.8384 0000448  93.5956 266.5057 14.79929177 10370
KUIPER-00569            
1 69766U 26151D   26252.10978607  .00001894  00000+0  27739-3 0  9996
2 69766  51.9019 282.0469 0000539  47.2025 312.8983 14.79927693 10450
KUIPER-00589            
1 69767U 26151E   26252.39902975  .00000874  00000+0  15490-3 0  9991
2 69767  51.9010 283.5803 0002487  39.2446 320.8695 14.76519740 10458
KUIPER-00598            
1 69768U 26151F   26252.58335648 -.00040392  00000+0 -51163-2 0  9997
2 69768  51.8982 274.9844 0002012 261.4063 339.3436 14.81413768  3935
KUIPER-00604            
1 69769U 26151G   26252.10480992  .00001294  00000+0  21450-3 0  9992
2 69769  51.9019 279.5040 0002862 339.6669  20.4177 14.76539570 10482
KUIPER-00609            
1 69770U 26151H   26252.58335648  .00013049  00000+0  18789-2 0  9994
2 69770  51.8998 274.5372 0001933   4.3430  13.7401 14.76597586  1309
KUIPER-00611            
1 69771U 26151J   26252.61896881  .00001656  00000+0  24581-3 0  9999
2 69771  51.8974 277.2972 0000500  39.1716 320.9283 14.79989703 10560
KUIPER-00612            
1 69772U 26151K   26252.10646355  .00001336  00000+0  21987-3 0  9995
2 69772  51.9011 281.8744 0000516  59.2499 300.8513 14.76630057 10453
KUIPER-00614            
1 69773U 26151L   26251.38658937  .00001784  00000+0  26302-3 0  9997
2 69773  51.8982 282.8170 0000880  60.0000 300.1049 14.79930649 10377
KUIPER-00615            
1 69774U 26151M   26252.40144405  .00000908  00000+0  15925-3 0  9998
2 69774  51.9014 283.1108 0000578 221.2781 138.8137 14.76606746 10460
KUIPER-00616            
1 69775U 26151N   26252.58335648 -.00068588  00000+0 -45971-2 0  9992
2 69775  51.8919 269.0335 0003087  45.7992 210.0892 15.06635267  5740
KUIPER-00617            
1 69776U 26151P   26252.58335648 -.00041044  00000+0 -48805-2 0  9990
2 69776  51.8988 272.5354 0003899 347.2181 302.4230 14.84031811  4996
KUIPER-00619            
1 69777U 26151Q   26252.58335648 -.00071069  00000+0 -99109-2 0  9994
2 69777  51.8994 274.4815 0001459 158.1565 189.2374 14.77666872  5547
KUIPER-00621            
1 69778U 26151R   26252.58335648  .00084602  00000+0  11061-1 0  9990
2 69778  51.8997 277.4675 0001157 128.1056 312.6073 14.79653569  3531
KUIPER-00622            
1 69779U 26151S   26252.59139088  .00001182  00000+0  19842-3 0  9991
2 69779  51.9003 281.1467 0000998  75.3553 284.7519 14.76551753 10507
KUIPER-00623            
1 69780U 26151T   26252.58335648  .00122876  00000+0  16125-1 0  9995
2 69780  51.8961 279.9817 0002235  33.8758  62.2744 14.79218760  5488
KUIPER-00626            
1 69781U 26151U   26252.58335648 -.00050057  00000+0 -61568-2 0  9991
2 69781  51.8965 274.9802 0007027  64.9156 256.4672 14.82718502  5775
KUIPER-00627            
1 69782U 26151V   26252.58335648 -.00001706  00000+0 -10287-3 0  9992
2 69782  51.8863 271.2124 0007728  37.0755 209.5133 15.03746492  5789
KUIPER-00629            
1 69783U 26151W   26251.83425989  .00001922  00000+0  28108-3 0  9997
2 69783  51.9022 288.2192 0000562  67.3280 292.7742 14.79935467 10341
KUIPER-00631            
1 69784U 26151X   26252.39135773  .00007358  00000+0  99235-3 0  9997
2 69784  51.8995 285.8171 0000954  88.9236 271.1835 14.79968800 10425
KUIPER-00634            
1 69785U 26151Y   26252.07600829  .00001002  00000+0  16040-3 0  9995
2 69785  51.9004 282.2175 0001307  94.8568 265.2544 14.79935782 10446
KUIPER-00639            
1 69786U 26151Z   26252.58335648 -.00005399  00000+0 -38265-3 0  9994
2 69786  51.8879 270.9488 0009678  11.6690 102.8516 15.02380970  4425
KUIPER-00641            
1 69787U 26151AA  26252.58335648 -.00018326  00000+0 -18038-2 0  9994
2 69787  51.8939 272.7531 0012986  24.2577 237.6323 14.91177134  3708
KUIPER-00644            
1 69788U 26151AB  26252.58335648 -.02316210  00000+0 -10597+0 0  9999
2 69788  51.8793 268.4563 0009932  20.3696 221.2943 15.23961144  4492
KUIPER-00646            
1 69789U 26151AC  26252.58335648 -.00020916  00000+0 -21320-2 0  9992
2 69789  51.8960 272.8448 0007343  27.3497  75.2162 14.89916164  5832
KUIPER-00647            
1 69790U 26151AD  26252.58335648 -.00019057  00000+0 -17655-2 0  9994
2 69790  51.8917 272.8157 0011194  28.1574 250.2101 14.93608991  5173
KUIPER-00662            
1 69791U 26151AE  26249.50589784  .00000849  00000+0  15146-3 0  9996
2 69791  51.9019 298.4125 0001499 329.9088  30.1787 14.76436793  9995
