QIANFAN-1               
1 60379U 24140A   26258.24367710  .00000019  00000+0  99703-5 0  9991
2 60379  88.9664 270.5740 0019125 131.7881 228.4908 13.51025833104683
QIANFAN-2               
1 60380U 24140B   26258.19842511  .00000013  00000+0  73313-6 0  9998
2 60380  88.9651 270.3807 0014827 106.5406 253.7376 13.51020271104737
QIANFAN-3               
1 60381U 24140C   26258.20682448  .00000017  00000+0  75194-5 0  9994
2 60381  88.9643 270.4914 0015833 117.5691 242.7071 13.51022965104647
QIANFAN-4               
1 60382U 24140D   26258.18200364  .00000012  00000+0 -93220-8 0  9994
2 60382  88.9668 270.4613 0015046 108.7543 251.5242 13.51021054104764
QIANFAN-5               
1 60383U 24140E   26258.23130905  .00000009  00000+0 -44918-5 0  9997
2 60383  88.9643 270.5132 0016873 127.8403 232.4278 13.51031191104637
QIANFAN-6               
1 60384U 24140F   26258.25195017  .00000018  00000+0  92810-5 0  9998
2 60384  88.9670 270.3324 0015103 113.7271 246.5466 13.51024081104838
QIANFAN-7               
1 60385U 24140G   26258.22094367  .00000133  00000+0  47598-4 0  9992
2 60385  88.9718 261.1761 0013888 201.8585 158.2018 14.27892601109843
QIANFAN-8               
1 60386U 24140H   26258.18625205  .00000013  00000+0  15753-5 0  9995
2 60386  88.9671 270.5801 0018520 116.4511 243.8543 13.51026052104674
QIANFAN-9               
1 60387U 24140J   26258.23553204  .00000011  00000+0 -26159-5 0  9992
2 60387  88.9669 270.6447 0018227 116.0879 244.2150 13.51021643104665
QIANFAN-10              
1 60388U 24140K   26258.31370229  .00000015  00000+0  48037-5 0  9998
2 60388  88.9680 270.0130 0016850  95.7062 264.6011 13.51021697104806
QIANFAN-11              
1 60389U 24140L   26258.20272945  .00000006  00000+0 -10253-4 0  9992
2 60389  88.9605 270.4034 0016252 115.5776 244.7057 13.51021042104443
QIANFAN-12              
1 60390U 24140M   26258.22325296  .00000017  00000+0  76171-5 0  9997
2 60390  88.9648 270.5650 0014960 122.4568 237.8032 13.51023609104578
QIANFAN-13              
1 60391U 24140N   26258.19440965  .00000014  00000+0  32270-5 0  9994
2 60391  88.9908 270.7985 0014748 124.5029 235.7518 13.51023697104595
QIANFAN-14              
1 60392U 24140P   26258.21919847  .00000014  00000+0  19902-5 0  9995
2 60392  88.9639 270.5379 0018405 125.6934 234.5934 13.51018799104601
QIANFAN-15              
1 60393U 24140Q   26258.22732099  .00000024  00000+0  17650-4 0  9997
2 60393  88.9662 270.5594 0014419 112.5543 247.7136 13.51027991104591
QIANFAN-16              
1 60394U 24140R   26258.21493861  .00000014  00000+0  27323-5 0  9996
2 60394  88.9665 270.6884 0016269 128.6287 231.6323 13.51025221104501
QIANFAN-17              
1 60395U 24140S   26258.21095264  .00000020  00000+0  12768-4 0  9995
2 60395  88.9675 270.7650 0016780 123.0933 237.1832 13.51021528105468
QIANFAN-18              
1 60396U 24140T   26258.19038553  .00000000  00000+0 -18245-4 0  9996
2 60396  88.9670 270.2829 0016349 107.7520 252.5418 13.51020908104853
QIANFAN-19              
1 61552U 24185A   26258.19613843  .00000339  00000+0  16939-3 0  9992
2 61552  88.9849  46.2661 0008578 126.8850 233.3125 14.14529153108744
QIANFAN-20              
1 61553U 24185B   26258.23285949  .00000289  00000+0  15852-3 0  9997
2 61553  88.9843  46.8585 0006198 159.4768 200.6667 14.09069808108429
QIANFAN-21              
1 61554U 24185C   26258.21481514  .00000469  00000+0  20195-3 0  9998
2 61554  88.9769  44.6029 0010879 170.9739 189.1650 14.22929998109281
QIANFAN-22              
1 61555U 24185D   26258.22121910  .00000243  00000+0  19833-3 0  9998
2 61555  88.9823  48.9559 0005210 213.9122 146.1717 13.86428744107248
QIANFAN-23              
1 61556U 24185E   26258.20266774  .00000330  00000+0  15850-3 0  9997
2 61556  88.9842  45.9463 0008961 134.3196 225.8728 14.16551102108881
QIANFAN-24              
1 61557U 24185F   26258.19341063  .00000463  00000+0  19488-3 0  9999
2 61557  88.9827  44.9022 0011582 112.7520 247.4897 14.24153629109361
QIANFAN-25              
1 61558U 24185G   26258.20545268  .00000395  00000+0  23224-3 0  9992
2 61558  88.9834  46.9057 0012495 185.6443 174.4601 14.06127846108359
QIANFAN-26              
1 61559U 24185H   26258.28256468  .00000222  00000+0  20856-3 0  9999
2 61559  88.9828  49.9024 0003901 246.1825 113.8933 13.77943522106750
QIANFAN-27              
1 61560U 24185J   26258.21509621  .00000368  00000+0  14335-3 0  9992
2 61560  88.9839  44.5398 0009537 100.0458 260.1813 14.27600521109605
QIANFAN-28              
1 61561U 24185K   26258.25125221  .00000603  00000+0  23507-3 0  9990
2 61561  88.9857  44.5503 0009445  98.3258 261.9008 14.28482757109648
QIANFAN-29              
1 61562U 24185L   26258.20526885  .00000131  00000+0  18362-3 0  9996
2 61562  88.9794  52.7324 0009002 341.5275  18.5548 13.51093063105129
QIANFAN-30              
1 61563U 24185M   26258.24114168  .00000135  00000+0  19412-3 0  9999
2 61563  88.9815  52.3602 0006412 328.9065  31.1705 13.50074993105370
QIANFAN-31              
1 61564U 24185N   26258.20604073  .00000154  00000+0  19584-3 0  9996
2 61564  88.9800  51.7269 0005484 311.2917  48.7765 13.58063215105683
QIANFAN-32              
1 61565U 24185P   26258.20646315  .00000116  00000+0  16206-3 0  9998
2 61565  88.9854  52.5786 0009348   0.1717 359.9436 13.50805549105364
QIANFAN-33              
1 61566U 24185Q   26258.23433327  .00000268  00000+0  18355-3 0  9994
2 61566  88.9825  47.9845 0007961 167.7478 192.3894 13.96751199107753
QIANFAN-34              
1 61567U 24185R   26258.20632584  .00000452  00000+0  28520-3 0  9998
2 61567  88.9805  47.1856 0006219 158.5691 201.5751 14.02518002108103
QIANFAN-35              
1 61568U 24185S   26258.23801938  .00000521  00000+0  20269-3 0  9992
2 61568  88.9838  44.4302 0008570  96.1876 264.0295 14.28354755109648
QIANFAN-36              
1 61569U 24185T   26258.23718364  .00000072  00000+0  85454-4 0  9992
2 61569  88.9792  52.2297 0005186 334.7402  25.3498 13.55646889105385
QIANFAN-37              
1 62238U 24232B   26258.32134252  .00000113  00000+0  15643-3 0  9995
2 62238  89.0153  13.5548 0002064  87.3985 272.7402 13.51029781136514
QIANFAN-38              
1 62239U 24232C   26258.27204515  .00000110  00000+0  15151-3 0  9991
2 62239  89.0159  13.4942 0016452 115.0968 245.1892 13.51027977136561
QIANFAN-39              
1 62240U 24232D   26258.27864807  .00000384  00000+0  15636-3 0  9990
2 62240  89.0140   5.8338 0014069 248.5146 111.4547 14.25558998140784
QIANFAN-40              
1 62241U 24232E   26258.23090352  .00000092  00000+0  12431-3 0  9999
2 62241  89.0187  13.1599 0015481 122.0461 238.2196 13.51028123136921
QIANFAN-41              
1 62242U 24232F   26258.23911138  .00000105  00000+0  14445-3 0  9996
2 62242  89.0158  13.4439 0015869 111.6487 248.6356 13.51029344136589
QIANFAN-42              
1 62243U 24232G   26258.24231316  .00000374  00000+0  15461-3 0  9998
2 62243  89.0138   5.9260 0012781 256.6356 103.3412 14.24646145140738
QIANFAN-43              
1 62244U 24232H   26258.23500017  .00000100  00000+0  13651-3 0  9991
2 62244  89.0162  13.5218 0017389 116.3986 243.8953 13.51028842105192
QIANFAN-44              
1 62245U 24232J   26258.29674410  .00000090  00000+0  12042-3 0  9998
2 62245  89.0160  13.3219 0015620 113.4749 246.8046 13.51029130136675
QIANFAN-45              
1 62246U 24232K   26258.26384072  .00000085  00000+0  11319-3 0  9998
2 62246  89.0164  13.4815 0016286 113.2750 247.0118 13.51027854136597
QIANFAN-46              
1 62247U 24232L   26258.28846658  .00000110  00000+0  15182-3 0  9995
2 62247  89.0160  13.5368 0016305 118.1125 242.1676 13.51029007136553
QIANFAN-47              
1 62248U 24232M   26258.29262295  .00000092  00000+0  12330-3 0  9997
2 62248  89.0156  13.4582 0016730 117.3796 242.9060 13.51028186136588
QIANFAN-48              
1 62249U 24232N   26258.32972803  .00000093  00000+0  12509-3 0  9994
2 62249  89.0160  13.4671 0018976 119.8363 240.4677 13.51022527136595
QIANFAN-49              
1 62250U 24232P   26258.24325438  .00000108  00000+0  14854-3 0  9995
2 62250  89.0159  13.4860 0016087 114.9933 245.2892 13.51029686105170
QIANFAN-50              
1 62251U 24232Q   26258.26790265  .00000107  00000+0  14647-3 0  9991
2 62251  89.0164  13.5068 0017745 116.2533 244.0445 13.51029147105208
QIANFAN-51              
1 62252U 24232R   26258.32554112  .00000098  00000+0  13218-3 0  9990
2 62252  89.0158  13.4780 0015177 119.2370 241.0301 13.51028156105208
QIANFAN-52              
1 62253U 24232S   26258.28026457  .00000109  00000+0  15039-3 0  9998
2 62253  89.0154  13.3452 0017258 112.5297 247.7683 13.51030171105280
QIANFAN-53              
1 62254U 24232T   26258.25975390  .00000089  00000+0  11835-3 0  9992
2 62254  89.0162  13.4727 0016134 113.4932 246.7917 13.51026907105241
QIANFAN-54              
1 62255U 24232U   26258.30084248  .00000087  00000+0  11647-3 0  9991
2 62255  89.0153  13.1227 0003652 132.4641 227.6820 13.51028666136758
QIANFAN-55              
1 62785U 25016A   26258.25286845  .00000029  00000+0  25813-4 0  9998
2 62785  88.9669  74.5044 0015490 269.4120  90.5256 13.51024602 84523
QIANFAN-56              
1 62786U 25016B   26258.19510746  .00000036  00000+0  37033-4 0  9997
2 62786  88.9643  74.2731 0014081 272.6224  87.3315 13.51027792 84569
QIANFAN-57              
1 62787U 25016C   26258.22819051  .00000041  00000+0  44740-4 0  9992
2 62787  88.9674  74.5093 0002519  84.5574 275.5865 13.51027527 84533
QIANFAN-58              
1 62788U 25016D   26258.19938259  .00000032  00000+0  31756-4 0  9994
2 62788  88.9644  74.2598 0011987 263.9021  96.0765 13.51019896 84576
QIANFAN-59              
1 62789U 25016E   26258.22390507  .00000040  00000+0  43176-4 0  9995
2 62789  88.9667  74.3961 0012358 268.1925  91.7811 13.51024261 84576
QIANFAN-60              
1 62790U 25016F   26258.25683602  .00000039  00000+0  41895-4 0  9995
2 62790  88.9649  74.3115 0013909 264.0563  95.9003 13.51027683 84564
QIANFAN-61              
1 62791U 25016G   26258.21573393  .00000038  00000+0  39987-4 0  9995
2 62791  88.9715  74.6658 0012877 263.6035  96.3650 13.51027245 84574
QIANFAN-62              
1 62792U 25016H   26258.21994143  .00000042  00000+0  45949-4 0  9996
2 62792  88.9662  74.3853 0014216 263.8962  96.0570 13.51019675 84565
QIANFAN-63              
1 62793U 25016J   26258.24456998  .00000020  00000+0  12212-4 0  9994
2 62793  88.9669  74.3529 0014271 269.9261  90.0255 13.51022731 84609
QIANFAN-64              
1 62794U 25016K   26258.21164450  .00000037  00000+0  39197-4 0  9990
2 62794  88.9656  74.2934 0012206 261.8851  98.0916 13.51027259 84597
QIANFAN-65              
1 62795U 25016L   26258.20741497  .00000029  00000+0  27159-4 0  9998
2 62795  88.9652  74.3100 0012063 263.8475  96.1302 13.51023389 84571
QIANFAN-66              
1 62796U 25016M   26258.23621977  .00000034  00000+0  34682-4 0  9997
2 62796  88.9672  74.3314 0013168 258.8433 101.1238 13.51019555 84627
QIANFAN-67              
1 62797U 25016N   26258.24033787  .00000032  00000+0  30805-4 0  9996
2 62797  88.9662  74.3294 0013118 266.7095  93.2555 13.51028939 84596
QIANFAN-68              
1 62798U 25016P   26258.23218826  .00000038  00000+0  40446-4 0  9993
2 62798  88.9666  74.3852 0013201 264.3171  95.6474 13.51021687 84570
QIANFAN-69              
1 62799U 25016Q   26258.24855159  .00000030  00000+0  27213-4 0  9990
2 62799  88.9645  74.1942 0013944 265.8576  94.0982 13.51024062 84617
QIANFAN-70              
1 62800U 25016R   26258.26514218  .00000052  00000+0  62266-4 0  9994
2 62800  88.9665  74.3885 0013573 254.8522 105.1128 13.51023562 84572
QIANFAN-71              
1 62801U 25016S   26258.26098854  .00000042  00000+0  46921-4 0  9997
2 62801  88.9659  74.3518 0013850 269.8516  90.1048 13.51026605 84571
QIANFAN-72              
1 62802U 25016T   26258.20348049  .00000038  00000+0  41103-4 0  9998
2 62802  88.9649  74.3442 0017139 277.9919  81.9287 13.51020552 84554
QIANFAN-73              
1 63159U 25046A   26258.23044909  .00000025  00000+0  19459-4 0  9993
2 63159  88.9649 291.3169 0016431  50.4561 309.8039 13.51025037 84749
QIANFAN-74              
1 63160U 25046B   26258.21399819  .00000005  00000+0 -11421-4 0  9996
2 63160  88.9652 291.2082 0001830  96.6104 263.5256 13.51018725 84800
QIANFAN-75              
1 63161U 25046C   26258.20173288  .00000082  00000+0  10763-3 0  9997
2 63161  88.9652 291.4471 0017639  53.4441 306.8331 13.51030378 84672
QIANFAN-76              
1 63162U 25046D   26258.19765557  .00000125  00000+0  17435-3 0  9993
2 63162  88.9652 291.4276 0015160  54.8443 305.4126 13.51021790 84686
QIANFAN-77              
1 63163U 25046E   26258.25341778  .00000091  00000+0  56261-4 0  9999
2 63163  88.9654 287.1487 0012696 301.8211  58.1729 13.96246278 87036
QIANFAN-78              
1 63164U 25046F   26258.23923911  .00000069  00000+0  88590-4 0  9998
2 63164  88.9651 291.2848 0016599  55.9078 304.3646 13.51011989 84766
QIANFAN-79              
1 63165U 25046G   26258.26747561  .00000020  00000+0  11733-4 0  9999
2 63165  88.9654 291.3988 0016260  54.6010 305.6658 13.51021096 84715
QIANFAN-80              
1 63166U 25046H   26258.20990569  .00000061  00000+0  76200-4 0  9997
2 63166  88.9651 291.1042 0015284  59.1674 301.0979 13.51029513 84867
QIANFAN-81              
1 63167U 25046J   26258.26332821  .00000097  00000+0  13185-3 0  9996
2 63167  88.9650 291.1659 0016205  49.1501 311.1052 13.51020193 84828
QIANFAN-82              
1 63168U 25046K   26258.29632384  .00000060  00000+0  74762-4 0  9996
2 63168  88.9651 291.2068 0014265  55.9563 304.2940 13.51020306 84816
QIANFAN-83              
1 63169U 25046L   26258.29083402  .00000038  00000+0  33036-4 0  9992
2 63169  88.9653 290.4385 0014696  27.5920 332.6015 13.62064663 85244
QIANFAN-84              
1 63170U 25046M   26258.25105518 -.00000057  00000+0 -10727-3 0  9997
2 63170  88.9653 291.3440 0017128  51.7709 308.4981 13.51017440 84730
QIANFAN-85              
1 63171U 25046N   26258.24689909  .00000066  00000+0  83083-4 0  9992
2 63171  88.9650 291.2141 0014792  54.7440 305.5093 13.51020451 84800
QIANFAN-86              
1 63172U 25046P   26258.25511857  .00000067  00000+0  85462-4 0  9994
2 63172  88.9652 291.0819 0012781  59.3598 300.8812 13.51025373 84887
QIANFAN-87              
1 63173U 25046Q   26258.22632547  .00000020  00000+0  12254-4 0  9990
2 63173  88.9649 291.1864 0013171  54.7919 305.4463 13.51032018 84815
QIANFAN-88              
1 63174U 25046R   26258.24276104  .00000076  00000+0  99294-4 0  9996
2 63174  88.9651 291.1459 0013806  62.1315 298.1233 13.51029534 84842
QIANFAN-89              
1 63175U 25046S   26258.20572701  .00000074  00000+0  95393-4 0  9999
2 63175  88.9651 291.3386 0018092  52.0726 308.2057 13.51024825 84733
QIANFAN-90              
1 63176U 25046T   26258.23458797  .00000025  00000+0  20484-4 0  9996
2 63176  88.9652 291.3089 0014985  51.6680 308.5816 13.51019827 84750
QIANFAN-91              
1 66033U 25233A   26257.82264659  .00000080  00000+0  10565-3 0  9994
2 66033  89.0046  34.1251 0001838  91.9804 268.1558 13.51028869 45281
QIANFAN-92              
1 66034U 25233B   26257.31269255  .00000067  00000+0  84486-4 0  9995
2 66034  89.0029  34.1336 0001958  99.4697 260.6676 13.50998626 45210
QIANFAN-93              
1 66035U 25233C   26258.13553468  .00000063  00000+0  79339-4 0  9996
2 66035  89.0038  34.1253 0002315  98.7054 261.4360 13.51024160 45321
QIANFAN-94              
1 66036U 25233D   26258.12306152  .00000080  00000+0  10504-3 0  9999
2 66036  89.0054  34.0283 0001804  98.2042 261.9314 13.51027281 45372
QIANFAN-95              
1 66037U 25233E   26258.13130602  .00000070  00000+0  90040-4 0  9999
2 66037  89.0053  33.5690 0001700  92.9721 267.1625 13.51021763 45628
QIANFAN-96              
1 66038U 25233F   26257.34125749  .00000074  00000+0  96646-4 0  9990
2 66038  89.0048  34.1894 0001842  89.6757 270.4605 13.51028323 45214
QIANFAN-97              
1 66039U 25233G   26258.13950347  .00000073  00000+0  95091-4 0  9991
2 66039  89.0052  34.0962 0001840  92.5348 267.6014 13.51028461 45329
QIANFAN-98              
1 66040U 25233H   26257.85149551  .00000078  00000+0  10225-3 0  9998
2 66040  89.0040  33.8463 0001536 109.6018 250.5300 13.51028648 45435
QIANFAN-99              
1 66041U 25233J   26257.33712505  .00000085  00000+0  11364-3 0  9990
2 66041  89.0052  34.1814 0001458 100.8097 259.3219 13.51035031 45223
QIANFAN-100             
1 66042U 25233K   26258.14362573  .00000073  00000+0  94236-4 0  9994
2 66042  89.0064  34.0375 0001864  92.8935 267.2430 13.51019714 45380
QIANFAN-101             
1 66043U 25233L   26257.78021395  .00000325  00000+0  12805-3 0  9999
2 66043  89.0053  30.2854 0014285 202.4651 157.5919 14.26859147 47407
QIANFAN-102             
1 66044U 25233M   26257.34950523  .00000065  00000+0  82755-4 0  9999
2 66044  89.0049  34.0878 0001742  98.0452 262.0897 13.51027871 45271
QIANFAN-103             
1 66045U 25233N   26258.09427489  .00000072  00000+0  93129-4 0  9998
2 66045  89.0054  34.1105 0001884  92.6577 267.4790 13.51020911 45322
QIANFAN-104             
1 66046U 25233P   26258.09829233  .00000070  00000+0  89094-4 0  9996
2 66046  89.0058  34.0163 0001811 100.7467 259.3888 13.51025988 45371
QIANFAN-105             
1 66047U 25233Q   26258.10665010  .00000076  00000+0  99741-4 0  9996
2 66047  89.0072  33.8706 0001854  97.4807 262.6555 13.50988421 45484
QIANFAN-106             
1 66048U 25233R   26257.36181134  .00000058  00000+0  71752-4 0  9996
2 66048  89.0038  34.1302 0001563 105.8320 254.3003 13.51029500 45227
QIANFAN-107             
1 66049U 25233S   26258.11067060  .00000079  00000+0  10443-3 0  9994
2 66049  89.0056  34.1016 0001893  93.9892 266.1476 13.51028798 45332
QIANFAN-108             
1 66050U 25233T   26257.81859443  .00000079  00000+0  10390-3 0  9997
2 66050  89.0048  34.1122 0001610 105.3367 254.7962 13.51028562 45292
QIANFAN-109             
1 68636U 26075A   26258.20274309  .00000063  00000+0  78713-4 0  9997
2 68636  88.9873 311.8288 0002201  84.7236 275.4166 13.51020525 21941
QIANFAN-110             
1 68637U 26075B   26258.21093688  .00000065  00000+0  82548-4 0  9991
2 68637  88.9873 311.8496 0002273  98.4186 261.7223 13.51031566 21947
QIANFAN-111             
1 68638U 26075C   26258.27289643  .00000065  00000+0  81357-4 0  9993
2 68638  88.9872 311.8022 0002258  97.9309 262.2098 13.51020983 21976
QIANFAN-112             
1 68639U 26075D   26258.23577587  .00000059  00000+0  73364-4 0  9999
2 68639  88.9870 311.8139 0002421  86.7128 273.4300 13.51023385 21969
QIANFAN-113             
1 68640U 26075E   26258.20681372  .00000024  00000+0  17784-4 0  9992
2 68640  88.9876 311.8155 0002343  95.9088 264.2330 13.51019765 21963
QIANFAN-114             
1 68641U 26075F   26258.21506745  .00000076  00000+0  98604-4 0  9991
2 68641  88.9871 311.8296 0002254  97.6774 262.4633 13.51027610 21950
QIANFAN-115             
1 68642U 26075G   26258.24394052  .00000061  00000+0  76453-4 0  9993
2 68642  88.9871 311.8339 0002141  94.4962 265.6434 13.51024223 21959
QIANFAN-116             
1 68643U 26075H   26258.23157214  .00000059  00000+0  73247-4 0  9995
2 68643  88.9864 311.7889 0002436  90.0356 270.1074 13.51024889 21967
QIANFAN-117             
1 68644U 26075J   26258.21931514  .00000070  00000+0  89666-4 0  9992
2 68644  88.9869 311.8100 0002234  91.0207 269.1200 13.51022684 21962
QIANFAN-118             
1 68645U 26075K   26258.25215900  .00000069  00000+0  87511-4 0  9996
2 68645  88.9874 311.8190 0002329 100.4232 259.7182 13.51024446 21968
QIANFAN-119             
1 68646U 26075L   26257.85514485 -.01659679  00000+0 -29345+1 0  9999
2 68646  88.9871 311.8549 0005666  84.2867 275.8928 13.46493566 21913
QIANFAN-120             
1 68647U 26075M   26258.23976181  .00000065  00000+0  81474-4 0  9999
2 68647  88.9876 311.8024 0002033  86.6914 273.4469 13.51019996 21978
QIANFAN-121             
1 68648U 26075N   26258.26458337  .00000069  00000+0  88695-4 0  9997
2 68648  88.9873 311.8028 0002249  99.3232 260.8173 13.51023559 21975
QIANFAN-122             
1 68649U 26075P   26258.25631292  .00000076  00000+0  98802-4 0  9999
2 68649  88.9872 311.8007 0002241  88.8897 271.2511 13.51027056 21961
QIANFAN-123             
1 68650U 26075Q   26257.85103845 -.01752197  00000+0 -30784+1 0  9996
2 68650  88.9865 311.8289 0003239  78.6993 281.4520 13.47129045 21890
QIANFAN-124             
1 68651U 26075R   26258.24810687  .00000063  00000+0  79301-4 0  9997
2 68651  88.9872 311.8000 0002269  87.6248 272.5163 13.51026580 21973
QIANFAN-125             
1 68652U 26075S   26258.26046974  .00000070  00000+0  90072-4 0  9996
2 68652  88.9871 311.8007 0002278  99.0412 261.0997 13.51023646 21978
QIANFAN-126             
1 68653U 26075T   26258.26853601  .00000066  00000+0  83532-4 0  9998
2 68653  88.9875 311.7691 0002221  83.4870 276.6534 13.51029044 21993
QIANFAN-127             
1 69073U 26104A   26257.90368790  .00000041  00000+0  45638-4 0  9996
2 69073  88.9929 332.3240 0002532 105.3238 254.8193 13.50993566 17279
QIANFAN-128             
1 69074U 26104B   26258.20801941  .00000122  00000+0  17061-3 0  9999
2 69074  88.9907 332.3179 0002181 113.9434 246.1946 13.51023201 17293
QIANFAN-129             
1 69075U 26104C   26258.23263816  .00000125  00000+0  17539-3 0  9999
2 69075  88.9909 332.2496 0002296 109.5310 250.6090 13.51023070 17337
QIANFAN-130             
1 69076U 26104D   26257.82527373  .00000121  00000+0  16940-3 0  9996
2 69076  88.9912 332.3569 0002555  99.9454 260.1986 13.51033628 17243
QIANFAN-131             
1 69077U 26104E   26258.21634800  .00000109  00000+0  14958-3 0  9998
2 69077  88.9905 332.2778 0002043 107.1473 252.9902 13.51025325 17312
QIANFAN-132             
1 69078U 26104F   26258.20383433  .00000122  00000+0  17104-3 0  9992
2 69078  88.9907 332.3356 0002415 101.8522 258.2900 13.51021495 17284
QIANFAN-133             
1 69079U 26104G   26258.21220141  .00000124  00000+0  17297-3 0  9995
2 69079  88.9910 332.2848 0001927 112.6964 247.4391 13.51030374 17304
QIANFAN-134             
1 69080U 26104H   26258.24097203  .00000122  00000+0  16991-3 0  9999
2 69080  88.9915 332.3081 0002135 112.9796 247.1580 13.51028630 17308
QIANFAN-135             
1 69081U 26104J   26258.22029200  .00000110  00000+0  15151-3 0  9994
2 69081  88.9908 332.3012 0002369 114.2611 245.8788 13.51021800 17302
QIANFAN-136             
1 69082U 26104K   26258.22858956  .00000121  00000+0  16889-3 0  9994
2 69082  88.9910 332.3033 0001984 113.0684 247.0676 13.51031746 17308
QIANFAN-137             
1 69083U 26104L   26258.22447807  .00000110  00000+0  15183-3 0  9998
2 69083  88.9919 332.1800 0002282 101.7899 258.3509 13.51021551 17372
QIANFAN-138             
1 69084U 26104M   26258.24908726  .00000122  00000+0  17051-3 0  9992
2 69084  88.9904 332.3013 0002503 108.8202 251.3221 13.51021304 17300
QIANFAN-139             
1 69085U 26104N   26258.23695211  .00000126  00000+0  17602-3 0  9990
2 69085  88.9906 332.2842 0002504 103.3115 256.8315 13.51030012 17317
QIANFAN-140             
1 69086U 26104P   26258.24499084  .00000126  00000+0  17712-3 0  9994
2 69086  88.9907 332.2870 0002462 113.4326 246.7084 13.51022376 17314
QIANFAN-141             
1 69087U 26104Q   26258.25328028  .00000024  00000+0  18428-4 0  9998
2 69087  88.9904 332.2505 0002245 113.6102 246.5285 13.51019971 17330
QIANFAN-142             
1 69088U 26104R   26258.26142747  .00000125  00000+0  17427-3 0  9991
2 69088  88.9902 332.2491 0002447 109.3453 250.7963 13.51030956 17334
QIANFAN-143             
1 69089U 26104S   26258.25744001  .00000104  00000+0  14217-3 0  9993
2 69089  88.9913 332.2556 0001984 106.1573 253.9796 13.51026856 17335
QIANFAN-144             
1 69090U 26104T   26258.04334692  .00000110  00000+0  15106-3 0  9998
2 69090  88.9911 332.2956 0002521 106.3013 253.8416 13.51031037 17298
QIANFAN-145             
1 69104U 26108A   26258.26985406  .00000108  00000+0  14886-3 0  9998
2 69104  89.0190  13.0527 0001614 100.4154 259.7180 13.51033551 16606
QIANFAN-146             
1 69105U 26108B   26258.30285987  .00000107  00000+0  14637-3 0  9994
2 69105  89.0192  12.8865 0001981  99.4035 260.7341 13.51039121 16704
QIANFAN-147             
1 69106U 26108C   26258.27826499  .00000114  00000+0  15825-3 0  9998
2 69106  89.0192  13.0562 0002081 103.5224 256.6159 13.51024158 16593
QIANFAN-148             
1 69107U 26108D   26258.26585284  .00000102  00000+0  13958-3 0  9994
2 69107  89.0185  13.0477 0001958 109.3965 250.7398 13.51023661 16597
QIANFAN-149             
1 69108U 26108E   26258.27401437  .00000116  00000+0  16063-3 0  9998
2 69108  89.0185  13.0682 0002250 110.0303 250.1090 13.51023199 16596
QIANFAN-150             
1 69109U 26108F   26258.28221458  .00000110  00000+0  15213-3 0  9993
2 69109  89.0190  13.0204 0002270 108.8675 251.2722 13.51023720 16619
QIANFAN-151             
1 69110U 26108G   26258.23713898  .00000114  00000+0  15812-3 0  9993
2 69110  89.0190  13.0485 0001818 101.9695 258.1660 13.51026833 16597
QIANFAN-152             
1 69111U 26108H   26258.29043465  .00000103  00000+0  14117-3 0  9991
2 69111  89.0186  13.0352 0002265  98.5583 261.5825 13.51028093 16614
QIANFAN-153             
1 69112U 26108J   26258.28631947  .00000108  00000+0  14936-3 0  9993
2 69112  89.0182  13.0122 0002219 104.7495 255.3902 13.51024045 16617
QIANFAN-154             
1 69113U 26108K   26258.29469007  .00000102  00000+0  13927-3 0  9994
2 69113  89.0193  13.0597 0002117 106.5234 253.6150 13.51026035 16600
QIANFAN-155             
1 69114U 26108L   26258.29867972  .00000099  00000+0  13483-3 0  9990
2 69114  89.0190  13.0239 0002250 106.5224 253.6175 13.51022889 16619
QIANFAN-156             
1 69115U 26108M   26258.24515952  .00000112  00000+0  15492-3 0  9992
2 69115  89.0205  13.0298 0001876 107.2884 252.8473 13.51022822 16625
QIANFAN-157             
1 69116U 26108N   26258.23300485  .00000108  00000+0  14873-3 0  9992
2 69116  89.0186  12.9553 0002030 111.5210 248.6158 13.51027491 16653
QIANFAN-158             
1 69117U 26108P   26258.32331555  .00000104  00000+0  14265-3 0  9996
2 69117  89.0188  12.9875 0001844 105.1514 254.9842 13.51023084 16644
QIANFAN-159             
1 69118U 26108Q   26258.24107643  .00000115  00000+0  15938-3 0  9997
2 69118  89.0179  13.0024 0001887 103.0544 257.0818 13.51022793 16621
QIANFAN-160             
1 69119U 26108R   26258.33173181  .00000101  00000+0  13789-3 0  9995
2 69119  89.0194  13.0301 0002368 107.3257 252.8154 13.51022989 16623
QIANFAN-161             
1 69120U 26108S   26257.44601178 -.01984377  00000+0 -34398+1 0  9995
2 69120  89.0198  13.0345 0004641 168.6165 191.5091 13.47836241 16551
QIANFAN-162             
1 69121U 26108T   26258.32748201  .00000102  00000+0  14019-3 0  9996
2 69121  89.0191  12.9727 0002158  99.8781 260.2614 13.51022231 16643
QIANFAN-163             
1 69325U 26121A   26258.06993063 -.00000002  00000+0 -22372-4 0  9999
2 69325  89.0108 291.5685 0002280 122.5520 237.5852 13.51022097 14308
QIANFAN-164             
1 69326U 26121B   26258.03701997  .00000029  00000+0  26580-4 0  9992
2 69326  89.0106 291.5623 0001958 111.5085 248.6275 13.51021253 14309
QIANFAN-165             
1 69382U 26124A   26258.26889604  .00000139  00000+0  19638-3 0  9991
2 69382  89.0072 352.5481 0001798 120.0773 240.0557 13.51021304 14209
QIANFAN-166             
1 69383U 26124B   26258.27304648  .00000138  00000+0  19515-3 0  9996
2 69383  89.0090 352.5576 0001834 102.7232 257.4124 13.51021845 14205
QIANFAN-167             
1 69384U 26124C   26258.27707164  .00000133  00000+0  18764-3 0  9997
2 69384  89.0064 352.5641 0002188 107.8946 252.2444 13.51030857 14190
QIANFAN-168             
1 69385U 26124D   26258.28109267  .00000134  00000+0  18864-3 0  9991
2 69385  89.0060 352.5437 0001625 104.9119 255.2212 13.51019500 14205
QIANFAN-169             
1 69386U 26124E   26258.28536196  .00000132  00000+0  18630-3 0  9996
2 69386  89.0059 352.5432 0001875  99.0525 261.0838 13.51022738 14207
QIANFAN-170             
1 69387U 26124F   26258.28943671  .00000143  00000+0  20258-3 0  9998
2 69387  89.0077 352.5142 0001836  96.7802 263.3558 13.51025212 14221
QIANFAN-171             
1 69388U 26124G   26258.22368125  .00000137  00000+0  19404-3 0  9992
2 69388  89.0091 352.5326 0002119 103.9509 256.1878 13.51018190 14213
QIANFAN-172             
1 69389U 26124H   26258.21949167  .00000143  00000+0  20221-3 0  9999
2 69389  89.0074 352.5237 0001728 115.7864 244.3466 13.51028772 14215
QIANFAN-173             
1 69390U 26124J   26258.22758763  .00000137  00000+0  19358-3 0  9994
2 69390  89.0063 352.5199 0001640 100.1417 259.9920 13.51021760 14214
QIANFAN-174             
1 69391U 26124K   26258.24000935  .00000131  00000+0  18471-3 0  9997
2 69391  89.0044 352.4771 0002189 109.9392 250.1995 13.51029621 14227
QIANFAN-175             
1 69392U 26124L   26258.24421663  .00000131  00000+0  18386-3 0  9998
2 69392  89.0096 352.5191 0001835 101.0840 259.0517 13.51019672 14223
QIANFAN-176             
1 69393U 26124M   26258.24831426  .00000137  00000+0  19381-3 0  9993
2 69393  89.0057 352.5004 0001846 101.2664 258.8694 13.51020467 14218
QIANFAN-177             
1 69394U 26124N   26258.25655719  .00000137  00000+0  19394-3 0  9998
2 69394  89.0068 352.4877 0002079 109.6449 250.4927 13.51029519 14236
QIANFAN-178             
1 69395U 26124P   26258.25236941  .00000138  00000+0  19459-3 0  9994
2 69395  89.0013 352.4465 0001864 100.5375 259.5986 13.51025449 14243
QIANFAN-179             
1 69396U 26124Q   26258.26067728  .00000131  00000+0  18400-3 0  9999
2 69396  89.0045 352.4622 0001846  99.9265 260.2095 13.51029071 14248
QIANFAN-180             
1 69397U 26124R   26258.26477506  .00000133  00000+0  18768-3 0  9998
2 69397  89.0052 352.4825 0001865  95.7693 264.3671 13.51021391 14233
QIANFAN-181             
1 69398U 26124S   26258.23185052  .00000137  00000+0  19307-3 0  9992
2 69398  89.0074 352.5782 0002151 106.3509 253.7879 13.51023093 14182
QIANFAN-182             
1 69399U 26124T   26258.23591320  .00000131  00000+0  18448-3 0  9991
2 69399  89.0049 352.5494 0001835 102.7832 257.3525 13.51027639 14180
QIANFAN-183             
1 69401U 26125A   26258.27053364  .00000006  00000+0 -94968-5 0  9996
2 69401  88.9832 270.8405 0001970 101.8541 258.2832 13.51027450 14107
QIANFAN-184             
1 69402U 26125B   26258.20472154  .00000025  00000+0  19780-4 0  9990
2 69402  88.9883 270.8720 0001936  97.6130 262.5241 13.51028618 14099
QIANFAN-185             
1 69403U 26125C   26258.22946294  .00000011  00000+0 -12202-5 0  9993
2 69403  88.9898 270.8086 0001856  99.3022 260.8339 13.51017626 14132
QIANFAN-186             
1 69404U 26125D   26258.20060678  .00000000  00000+0 -18202-4 0  9998
2 69404  88.9885 270.8722 0001991  96.3834 263.7544 13.51008208 14095
QIANFAN-187             
1 69405U 26125E   26258.20878366  .00000011  00000+0 -17472-5 0  9991
2 69405  88.9885 270.8541 0002116 100.5500 259.5890 13.51007265 14104
QIANFAN-188             
1 69406U 26125F   26258.29104608  .00000019  00000+0  11177-4 0  9994
2 69406  88.9883 270.8456 0001986 103.3104 256.8268 13.51029259 14110
QIANFAN-189             
1 69407U 26125G   26258.22514605  .00000015  00000+0  50937-5 0  9994
2 69407  88.9866 270.8478 0001992 108.7298 251.4070 13.51028471 14090
QIANFAN-190             
1 69408U 26125H   26258.21282020  .00000021  00000+0  13964-4 0  9992
2 69408  88.9867 270.8469 0001879  96.2778 263.8588 13.51033253 14107
QIANFAN-191             
1 69409U 26125J   26258.23757357  .00000009  00000+0 -51084-5 0  9998
2 69409  88.9881 270.8557 0001948 102.7421 257.3949 13.51032879 14109
QIANFAN-192             
1 69410U 26125K   26257.92476578  .00000024  00000+0  18278-4 0  9991
2 69410  88.9888 270.8878 0002040 106.5198 253.6177 13.51030140 14067
QIANFAN-193             
1 69411U 26125L   26258.24587045  .00000015  00000+0  50228-5 0  9992
2 69411  88.9866 270.8323 0001853 102.9686 257.1672 13.51027400 14112
QIANFAN-194             
1 69412U 26125M   26258.24173775  .00000002  00000+0 -15688-4 0  9991
2 69412  88.9898 270.8458 0001979 102.5736 257.5636 13.51026031 14100
QIANFAN-195             
1 69413U 26125N   26258.24996374  .00000042  00000+0  46612-4 0  9994
2 69413  88.9900 270.8299 0001950  88.8684 271.2691 13.51011666 14129
QIANFAN-196             
1 69414U 26125P   26258.33221397  .00000010  00000+0 -30337-5 0  9995
2 69414  88.9905 270.8253 0001856  92.5306 267.6058 13.51035242 14136
QIANFAN-197             
1 69415U 26125Q   26258.26646078  .00000002  00000+0 -15835-4 0  9991
2 69415  88.9879 270.8046 0001960 100.5144 259.6229 13.51023689 14125
QIANFAN-198             
1 69416U 26125R   26258.32814756  .00000018  00000+0  96327-5 0  9991
2 69416  88.9873 270.8112 0001978 103.2348 256.9024 13.51028082 14135
QIANFAN-199             
1 69417U 26125S   26258.26235629  .00000010  00000+0 -29496-5 0  9997
2 69417  88.9877 270.7679 0002177 102.1677 257.9718 13.51025675 14150
QIANFAN-200             
1 69418U 26125T   26258.23350043  .00000008  00000+0 -62013-5 0  9992
2 69418  88.9884 270.8561 0001965 106.0790 254.0578 13.51026170 14101
QIANFAN-201             
1 69800U 26153A   26257.87190717 -.01789504  00000+0 -14012+1 0  9995
2 69800  88.9974 352.0817 0005806 108.5709 251.6099 13.96335762 10261
QIANFAN-202             
1 69801U 26153B   26257.89962398 -.01871699  00000+0 -12658+1 0  9991
2 69801  88.9972 352.0485 0009586 323.1829  36.8693 14.04123629 10279
QIANFAN-203             
1 69802U 26153C   26258.25682865  .00000101  00000+0  51637-4 0  9994
2 69802  88.9980 352.0466 0006095   5.2546 354.8700 14.07835952 10313
QIANFAN-204             
1 69803U 26153D   26257.85357021 -.01884936  00000+0 -12921+1 0  9991
2 69803  88.9972 352.0797 0010014 329.3410  30.7185 14.03393807 10263
QIANFAN-205             
1 69804U 26153E   26257.87511483 -.01897858  00000+0 -13653+1 0  9998
2 69804  88.9973 352.1003 0006024   7.4975 352.6294 14.00724554 10252
QIANFAN-206             
1 69805U 26153F   26257.82692021 -.01899425  00000+0 -12513+1 0  9998
2 69805  88.9974 352.0565 0009270 349.6843  10.4147 14.05643506 10277
QIANFAN-207             
1 69806U 26153G   26257.81230638 -.02062840  00000+0 -14312+1 0  9993
2 69806  88.9974 352.0922 0008611 312.2040  47.8409 14.03086046 10259
QIANFAN-208             
1 69807U 26153H   26258.22213048 -.00000013  00000+0 -17153-4 0  9998
2 69807  88.9977 352.0415 0006620  41.0015 319.1663 14.03618060 10329
QIANFAN-209             
1 69808U 26153J   26257.90324967 -.01885654  00000+0 -13523+1 0  9992
2 69808  88.9973 352.0868 0006324 319.9611  40.1101 14.00872923 10266
QIANFAN-210             
1 69809U 26153K   26257.87712599 -.01902475  00000+0 -13430+1 0  9999
2 69809  88.9973 352.0834 0010705 337.1443  22.9259 14.01779003 10261
QIANFAN-211             
1 69810U 26153L   26258.26925033  .00000306  00000+0  15238-3 0  9994
2 69810  88.9981 352.0113 0007331   3.5804 356.5434 14.14538824 10335
QIANFAN-212             
1 69811U 26153M   26257.87922590 -.01846443  00000+0 -12188+1 0  9997
2 69811  88.9974 352.0640 0012418 356.3893   3.7197 14.05409306 10274
QIANFAN-213             
1 69812U 26153N   26257.89395120 -.01877422  00000+0 -12867+1 0  9998
2 69812  88.9973 352.0659 0011297 336.0997  23.9657 14.03380858 10271
QIANFAN-214             
1 69813U 26153P   26257.93383034 -.01877601  00000+0 -12111+1 0  9996
2 69813  88.9974 352.0159 0008066 356.1120   3.9999 14.06775884 10300
QIANFAN-215             
1 69814U 26153Q   26258.26141111  .00000084  00000+0  35086-4 0  9992
2 69814  88.9978 351.9338 0007500  15.3691 344.7724 14.16491581 10370
QIANFAN-216             
1 69815U 26153R   26257.87894924 -.01839007  00000+0 -11305+1 0  9998
2 69815  88.9973 352.0076 0009066 239.0879 120.9414 14.09346878 10302
QIANFAN-217             
1 69816U 26153S   26257.89726726 -.01822130  00000+0 -94729+0 0  9994
2 69816  88.9972 351.9349 0010043 344.6538  15.4345 14.18398216 10343
QIANFAN-218             
1 69817U 26153T   26257.89477087 -.01864832  00000+0 -97321+0 0  9994
2 69817  88.9975 351.9368 0007858 327.8145  32.2563 14.18291046 10347
QIANFAN-219             
1 69848U 26155A   26257.84841043 -.01763898  00000+0 -27843+1 0  9995
2 69848  89.0074  54.2694 0034228  29.5068 330.8007 13.53771371  9978
QIANFAN-220             
1 69849U 26155B   26257.86723246 -.01901430  00000+0 -29602+1 0  9993
2 69849  89.0080  54.2958 0036017  33.4890 326.8530 13.54952052  9967
QIANFAN-221             
1 69850U 26155C   26258.17575768  .00000035  00000+0  20482-4 0  9993
2 69850  89.0082  54.0466 0031417  31.6689 328.6361 13.80939596 10127
QIANFAN-222             
1 69851U 26155D   26257.88631003 -.02009125  00000+0 -31366+1 0  9998
2 69851  89.0077  54.3130 0034112  33.2243 327.1042 13.54338562  9958
QIANFAN-223             
1 69852U 26155E   26257.88555524 -.01827670  00000+0 -32013+1 0  9994
2 69852  89.0078  54.3145 0039890  25.7701 334.5424 13.47195324  9954
QIANFAN-224             
1 69853U 26155F   26258.26338156  .00000013  00000+0  12232-5 0  9995
2 69853  89.0063  54.2281 0035939  29.0052 331.3090 13.57098089 10020
QIANFAN-225             
1 69854U 26155G   26257.89128544 -.01818613  00000+0 -29126+1 0  9993
2 69854  89.0072  54.3107 0032607  30.4965 329.8075 13.53004285  9953
QIANFAN-226             
1 69855U 26155H   26257.90463247 -.01770670  00000+0 -27988+1 0  9992
2 69855  89.0073  54.2940 0032673  29.1276 331.1690 13.53723218  9966
QIANFAN-227             
1 69856U 26155J   26257.87755751 -.01843787  00000+0 -31393+1 0  9998
2 69856  89.0073  54.2926 0038545  27.0925 333.2226 13.49074381  9966
QIANFAN-228             
1 69857U 26155K   26258.22807510  .00000007  00000+0 -74883-5 0  9994
2 69857  89.0081  54.2537 0036249  26.5724 333.7279 13.57843833 10010
QIANFAN-229             
1 69858U 26155L   26257.90962438 -.01781865  00000+0 -28986+1 0  9998
2 69858  89.0088  54.2642 0033745  30.8376 329.4749 13.51908196  9980
QIANFAN-230             
1 69859U 26155M   26257.86872059 -.01804708  00000+0 -29744+1 0  9998
2 69859  89.0077  54.3077 0036321  29.8355 330.4857 13.51092928  9956
QIANFAN-231             
1 69860U 26155N   26257.81684859 -.01801375  00000+0 -28603+1 0  9994
2 69860  89.0066  54.2662 0032421  26.9696 333.3132 13.53511615  9979
QIANFAN-232             
1 69861U 26155P   26257.87989921 -.01871531  00000+0 -31752+1 0  9999
2 69861  89.0067  54.2549 0028678  24.4391 335.8112 13.49499275  9987
QIANFAN-233             
1 69862U 26155Q   26257.86599863 -.01772176  00000+0 -27976+1 0  9999
2 69862  89.0077  54.2556 0036019  31.9744 328.3584 13.53759936  9988
QIANFAN-234             
1 69863U 26155R   26257.89103325 -.01887824  00000+0 -26744+1 0  9996
2 69863  89.0074  54.2049 0034010  16.2504 343.9735 13.60879072 10011
QIANFAN-235             
1 69864U 26155S   26257.86878002 -.01830271  00000+0 -16571+1 0  9996
2 69864  89.0079  54.0402 0029852  23.0086 337.2415 13.87844002 10102
QIANFAN-236             
1 69865U 26155T   26258.26329359  .00000031  00000+0  25980-4 0  9996
2 69865  89.0085  54.2416 0035050  25.0761 335.2087 13.57842885 10024
QIANFAN-237             
1 69866U 26155U   26257.88308720 -.01849022  00000+0 -28989+1 0  9995
2 69866  89.0081  54.2411 0035949  32.1695 328.1641 13.54381256  9985
QIANFAN-238             
1 69867U 26155V   26258.25758339  .00000031  00000+0  25595-4 0  9993
2 69867  89.0086  54.2217 0025934  21.2100 339.0124 13.57852755 10033
