QIANFAN-1               
1 60379U 24140A   26254.46651649  .00000029  00000+0  26275-4 0  9992
2 60379  88.9667 270.9681 0018861 141.8680 218.3810 13.51025721104179
QIANFAN-2               
1 60380U 24140B   26254.56937687  .00000036  00000+0  36221-4 0  9994
2 60380  88.9654 270.7597 0014701 115.6577 244.6095 13.51034524104240
QIANFAN-3               
1 60381U 24140C   26254.57778247  .00000033  00000+0  32506-4 0  9990
2 60381  88.9646 270.8708 0015646 126.8642 233.3946 13.51022895104151
QIANFAN-4               
1 60382U 24140D   26254.55295764  .00000032  00000+0  30933-4 0  9998
2 60382  88.9671 270.8397 0014918 117.9245 242.3418 13.51021008104277
QIANFAN-5               
1 60383U 24140E   26254.52822636  .00000042  00000+0  45749-4 0  9992
2 60383  88.9646 270.9003 0016632 137.5474 222.6967 13.51031082104130
QIANFAN-6               
1 60384U 24140F   26254.54884968  .00000032  00000+0  30043-4 0  9991
2 60384  88.9673 270.7185 0014933 123.1362 237.1224 13.51024008104338
QIANFAN-7               
1 60385U 24140G   26254.57687463  .00000127  00000+0  45445-4 0  9993
2 60385  88.9718 261.6064 0013456 214.8075 145.2241 14.27891740109323
QIANFAN-8               
1 60386U 24140H   26254.55721790  .00000034  00000+0  32882-4 0  9992
2 60386  88.9674 270.9584 0018347 125.9450 234.3406 13.51025953104181
QIANFAN-9               
1 60387U 24140J   26254.45836191  .00000041  00000+0  43797-4 0  9999
2 60387  88.9672 271.0385 0018040 125.9080 234.3749 13.51021537104151
QIANFAN-10              
1 60388U 24140K   26254.46247288  .00000031  00000+0  29702-4 0  9993
2 60388  88.9683 270.4142 0016801 105.5534 254.7474 13.51021601104286
QIANFAN-11              
1 60389U 24140L   26254.57368253  .00000021  00000+0  13101-4 0  9997
2 60389  88.9608 270.7842 0016083 124.9046 235.3619 13.51021001103952
QIANFAN-12              
1 60390U 24140M   26254.52015042  .00000045  00000+0  50704-4 0  9995
2 60390  88.9651 270.9519 0014750 131.9594 228.2816 13.51023513104074
QIANFAN-13              
1 60391U 24140N   26254.56536914  .00000045  00000+0  51495-4 0  9994
2 60391  88.9911 271.1682 0014524 133.8204 226.4150 13.51023581104106
QIANFAN-14              
1 60392U 24140P   26254.59014384  .00000027  00000+0  22589-4 0  9992
2 60392  88.9641 270.9174 0018178 135.2713 224.9908 13.51018726104110
QIANFAN-15              
1 60393U 24140Q   26254.52423147  .00000052  00000+0  61433-4 0  9996
2 60393  88.9665 270.9458 0014259 121.8954 238.3587 13.51027781104096
QIANFAN-16              
1 60394U 24140R   26254.58590151  .00000028  00000+0  25186-4 0  9991
2 60394  88.9667 271.0670 0016030 138.1215 222.1166 13.51025183104017
QIANFAN-17              
1 60395U 24140S   26254.58190591  .00000030  00000+0  27956-4 0  9996
2 60395  88.9678 271.1432 0016570 132.5386 227.7168 13.51021458104972
QIANFAN-18              
1 60396U 24140T   26254.56133914  .00000040  00000+0  42932-4 0  9993
2 60396  88.9673 270.6612 0016224 117.0314 243.2495 13.51020888104362
QIANFAN-19              
1 61552U 24185A   26254.65915256  .00000275  00000+0  13616-3 0  9990
2 61552  88.9842  46.6701 0008273 135.8766 224.3082 14.14526992108249
QIANFAN-20              
1 61553U 24185B   26254.46914079  .00000235  00000+0  12740-3 0  9995
2 61553  88.9836  47.2848 0005729 171.0501 189.0787 14.09067747107895
QIANFAN-21              
1 61554U 24185C   26254.55804519  .00000399  00000+0  17095-3 0  9992
2 61554  88.9763  45.0296 0010397 182.5278 177.5863 14.22926693108766
QIANFAN-22              
1 61555U 24185D   26254.46826242  .00000136  00000+0  10590-3 0  9992
2 61555  88.9816  49.3660 0004839 228.1284 131.9475 13.86427004106724
QIANFAN-23              
1 61556U 24185E   26254.60008701  .00000278  00000+0  13224-3 0  9995
2 61556  88.9836  46.3594 0008624 143.7506 216.4268 14.16548922108374
QIANFAN-24              
1 61557U 24185F   26254.46952025  .00000372  00000+0  15500-3 0  9991
2 61557  88.9820  45.3352 0011386 122.6400 237.5893 14.24150403108838
QIANFAN-25              
1 61558U 24185G   26254.57618696  .00000345  00000+0  20139-3 0  9991
2 61558  88.9826  47.3150 0012021 196.2985 163.7813 14.06125192107844
QIANFAN-26              
1 61559U 24185H   26254.57913433  .00000182  00000+0  16855-3 0  9998
2 61559  88.9821  50.3011 0003755 263.1615  96.9125 13.77941908106242
QIANFAN-27              
1 61560U 24185J   26254.57028436  .00000432  00000+0  16966-3 0  9991
2 61560  88.9832  44.9655 0009450 109.0529 251.1690 14.27598100109084
QIANFAN-28              
1 61561U 24185K   26254.46858837  .00000503  00000+0  19494-3 0  9994
2 61561  88.9849  44.9920 0009351 107.7022 252.5194 14.28478451109105
QIANFAN-29              
1 61562U 24185L   26254.57642113  .00000112  00000+0  15477-3 0  9998
2 61562  88.9788  53.1068 0009349 352.7006   7.4008 13.51092235104635
QIANFAN-30              
1 61563U 24185M   26254.46133041  .00000115  00000+0  16136-3 0  9998
2 61563  88.9808  52.7487 0006747 341.3968  18.6935 13.50074026104864
QIANFAN-31              
1 61564U 24185N   26254.59580086  .00000125  00000+0  15552-3 0  9990
2 61564  88.9794  52.1037 0005728 324.9855  35.0923 13.58062193105191
QIANFAN-32              
1 61565U 24185P   26254.57684404  .00000098  00000+0  13282-3 0  9995
2 61565  88.9848  52.9507 0009728  10.6087 349.5268 13.50804822104876
QIANFAN-33              
1 61566U 24185Q   26254.58072671  .00000273  00000+0  18670-3 0  9995
2 61566  88.9818  48.3905 0007516 178.7116 181.4082 13.96749210107247
QIANFAN-34              
1 61567U 24185R   26254.56772883  .00000382  00000+0  23925-3 0  9996
2 61567  88.9797  47.5947 0005913 167.4097 192.7232 14.02514932107592
QIANFAN-35              
1 61568U 24185S   26254.59512938  .00000439  00000+0  17007-3 0  9990
2 61568  88.9831  44.8562 0008524 104.8327 255.3813 14.28351165109124
QIANFAN-36              
1 61569U 24185T   26254.54670559  .00000066  00000+0  77456-4 0  9991
2 61569  88.9785  52.6135 0005529 347.4298  12.6717 13.55646452104880
QIANFAN-37              
1 62238U 24232B   26254.54419786  .00000077  00000+0  10052-3 0  9991
2 62238  89.0148  13.9309 0002172  88.1357 272.0043 13.51029096136006
QIANFAN-38              
1 62239U 24232C   26254.56895362  .00000060  00000+0  74786-4 0  9999
2 62239  89.0155  13.8627 0016346 124.5021 235.7676 13.51027370136065
QIANFAN-39              
1 62240U 24232D   26254.55842724  .00000326  00000+0  13187-3 0  9996
2 62240  89.0137   6.2541 0013860 262.5856  97.3762 14.25556335140259
QIANFAN-40              
1 62241U 24232E   26254.45375031  .00000059  00000+0  72446-4 0  9995
2 62241  89.0183  13.5348 0015307 131.5927 228.6539 13.51027531136412
QIANFAN-41              
1 62242U 24232F   26254.61008590  .00000072  00000+0  93014-4 0  9996
2 62242  89.0153  13.8050 0015788 120.7996 239.4711 13.51028770136094
QIANFAN-42              
1 62243U 24232G   26254.58994950  .00000311  00000+0  12768-3 0  9999
2 62243  89.0135   6.3380 0012654 270.7163  89.2580 14.24643641140214
QIANFAN-43              
1 62244U 24232H   26254.60597254  .00000063  00000+0  79442-4 0  9996
2 62244  89.0158  13.8828 0017280 125.6845 234.5917 13.51028273104705
QIANFAN-44              
1 62245U 24232J   26254.59365638  .00000065  00000+0  82447-4 0  9995
2 62245  89.0156  13.6903 0015526 122.7999 237.4650 13.51028534136177
QIANFAN-45              
1 62246U 24232K   26254.56074935  .00000058  00000+0  71211-4 0  9999
2 62246  89.0159  13.8498 0016186 122.6608 237.6107 13.51027319136091
QIANFAN-46              
1 62247U 24232L   26254.58537761  .00000077  00000+0  10113-3 0  9997
2 62247  89.0155  13.9052 0016175 127.5423 232.7201 13.51028388136056
QIANFAN-47              
1 62248U 24232M   26254.58953194  .00000079  00000+0  10340-3 0  9994
2 62248  89.0152  13.8268 0016612 126.8329 233.4348 13.51027608136082
QIANFAN-48              
1 62249U 24232N   26254.55255847  .00000077  00000+0  10009-3 0  9992
2 62249  89.0155  13.8430 0018840 129.6445 230.6372 13.51021913136081
QIANFAN-49              
1 62250U 24232P   26254.61422940  .00000066  00000+0  83373-4 0  9994
2 62250  89.0155  13.8472 0015985 124.1695 236.0974 13.51029062104685
QIANFAN-50              
1 62251U 24232Q   26254.56481395  .00000057  00000+0  68649-4 0  9997
2 62251  89.0160  13.8751 0017624 125.7480 234.5313 13.51028502104704
QIANFAN-51              
1 62252U 24232R   26254.54838829  .00000074  00000+0  95391-4 0  9997
2 62252  89.0154  13.8538 0015042 128.7384 231.5115 13.51027545104690
QIANFAN-52              
1 62253U 24232S   26254.57717918  .00000078  00000+0  10265-3 0  9996
2 62253  89.0150  13.7139 0017161 121.9775 238.3047 13.51029585104781
QIANFAN-53              
1 62254U 24232T   26254.55665994  .00000068  00000+0  86918-4 0  9999
2 62254  89.0158  13.8411 0016030 122.8607 237.4090 13.51026362104746
QIANFAN-54              
1 62255U 24232U   26254.52369384  .00000066  00000+0  83766-4 0  9997
2 62255  89.0148  13.4988 0003449 137.8919 222.2498 13.51028108136247
QIANFAN-55              
1 62785U 25016A   26254.54977300  .00000038  00000+0  41012-4 0  9998
2 62785  88.9667  74.8908 0015518 281.5365  78.4043 13.51024442 84026
QIANFAN-56              
1 62786U 25016B   26254.56608272  .00000049  00000+0  56704-4 0  9996
2 62786  88.9641  74.6528 0014139 284.6095  75.3488 13.51027585 84072
QIANFAN-57              
1 62787U 25016C   26254.59916416  .00000049  00000+0  56681-4 0  9996
2 62787  88.9671  74.8879 0002550  86.6742 273.4701 13.51027321 84044
QIANFAN-58              
1 62788U 25016D   26254.57033580  .00000047  00000+0  54227-4 0  9999
2 62788  88.9642  74.6395 0011985 276.1692  83.8093 13.51019706 84085
QIANFAN-59              
1 62789U 25016E   26254.59487022  .00000049  00000+0  56748-4 0  9998
2 62789  88.9665  74.7749 0012388 280.3995  79.5759 13.51024092 84081
QIANFAN-60              
1 62790U 25016F   26254.55374827  .00000042  00000+0  46201-4 0  9990
2 62790  88.9646  74.6988 0013904 276.3351  83.6216 13.51027451 84066
QIANFAN-61              
1 62791U 25016G   26254.58670673  .00000041  00000+0  45126-4 0  9996
2 62791  88.9712  75.0428 0012862 275.7874  84.1810 13.51027052 84085
QIANFAN-62              
1 62792U 25016H   26254.59089385  .00000041  00000+0  45763-4 0  9999
2 62792  88.9660  74.7643 0014217 275.8791  84.0739 13.51019498 84071
QIANFAN-63              
1 62793U 25016J   26254.46740753  .00000045  00000+0  50896-4 0  9996
2 62793  88.9666  74.7471 0014310 282.3686  77.5863 13.51022558 84095
QIANFAN-64              
1 62794U 25016K   26254.58261719  .00000044  00000+0  50374-4 0  9990
2 62794  88.9653  74.6726 0012198 274.1230  85.8527 13.51027078 84103
QIANFAN-65              
1 62795U 25016L   26254.57837752  .00000044  00000+0  49934-4 0  9996
2 62795  88.9650  74.6893 0012073 276.0711  83.9064 13.51023232 84083
QIANFAN-66              
1 62796U 25016M   26254.53310930  .00000042  00000+0  46209-4 0  9997
2 62796  88.9669  74.7178 0013135 271.1327  88.8319 13.51019332 84128
QIANFAN-67              
1 62797U 25016N   26254.61131559  .00000049  00000+0  57260-4 0  9991
2 62797  88.9660  74.7084 0013146 278.7882  81.1781 13.51028725 84100
QIANFAN-68              
1 62798U 25016P   26254.60314621  .00000046  00000+0  53467-4 0  9996
2 62798  88.9663  74.7641 0013199 276.3673  83.5975 13.51021447 84085
QIANFAN-69              
1 62799U 25016Q   26254.47139230  .00000038  00000+0  40279-4 0  9991
2 62799  88.9642  74.5893 0013951 278.3434  81.6136 13.51023881 84108
QIANFAN-70              
1 62800U 25016R   26254.56204202  .00000049  00000+0  57762-4 0  9993
2 62800  88.9662  74.7751 0013514 267.1030  92.8575 13.51023249 84076
QIANFAN-71              
1 62801U 25016S   26254.55789843  .00000036  00000+0  36927-4 0  9998
2 62801  88.9657  74.7386 0013884 282.1329  77.8267 13.51026382 84075
QIANFAN-72              
1 62802U 25016T   26254.57443713  .00000047  00000+0  54544-4 0  9991
2 62802  88.9647  74.7236 0017237 289.6612  70.2679 13.51020324 84065
QIANFAN-73              
1 63159U 25046A   26254.52735852  .00000034  00000+0  33942-4 0  9998
2 63159  88.9656 291.7038 0016685  60.2177 300.0631 13.51024888 84248
QIANFAN-74              
1 63160U 25046B   26254.58494853  .00000004  00000+0 -11745-4 0  9994
2 63160  88.9656 291.5873 0001834  95.5381 264.5980 13.51018802 84311
QIANFAN-75              
1 63161U 25046C   26254.49865630  .00000098  00000+0  13210-3 0  9990
2 63161  88.9658 291.8340 0017882  63.2199 297.0779 13.51029822 84170
QIANFAN-76              
1 63162U 25046D   26254.49455411 -.00000079  00000+0 -14173-3 0  9993
2 63162  88.9658 291.8140 0015321  64.1623 296.1107 13.51021342 84182
QIANFAN-77              
1 63163U 25046E   26254.52683512  .00000121  00000+0  78185-4 0  9993
2 63163  88.9661 287.5689 0012962 315.1070  44.9057 13.96245589 86512
QIANFAN-78              
1 63164U 25046F   26254.53611188  .00000054  00000+0  65078-4 0  9997
2 63164  88.9658 291.6716 0016851  65.5862 294.7045 13.51011540 84263
QIANFAN-79              
1 63165U 25046G   26254.49031177  .00000038  00000+0  39221-4 0  9990
2 63165  88.9661 291.7933 0016507  64.4951 295.7905 13.51021042 84203
QIANFAN-80              
1 63166U 25046H   26254.58088751  .00000087  00000+0  11582-3 0  9994
2 63166  88.9658 291.4833 0015492  68.5348 291.7454 13.51029093 84370
QIANFAN-81              
1 63167U 25046J   26254.56022369  .00000092  00000+0  12416-3 0  9999
2 63167  88.9657 291.5528 0016477  58.9331 301.3435 13.51019560 84321
QIANFAN-82              
1 63168U 25046K   26254.59321898  .00000068  00000+0  86889-4 0  9991
2 63168  88.9658 291.5936 0014504  65.4344 294.8317 13.51019909 84313
QIANFAN-83              
1 63169U 25046L   26254.47081079  .00000088  00000+0  98346-4 0  9996
2 63169  88.9659 290.8451 0015078  38.2442 321.9782 13.62064319 84723
QIANFAN-84              
1 63170U 25046M   26254.54794472 -.00000039  00000+0 -78523-4 0  9997
2 63170  88.9657 291.7308 0017375  61.5534 298.7365 13.51017988 84239
QIANFAN-85              
1 63171U 25046N   26254.54379476  .00000086  00000+0  11352-3 0  9997
2 63171  88.9657 291.6011 0015032  64.3567 295.9136 13.51019945 84303
QIANFAN-86              
1 63172U 25046P   26254.55202687  .00000082  00000+0  10853-3 0  9999
2 63172  88.9659 291.4688 0013003  68.7069 291.5469 13.51024861 84387
QIANFAN-87              
1 63173U 25046Q   26254.52325294  .00000028  00000+0  23937-4 0  9995
2 63173  88.9656 291.5733 0013411  64.2408 296.0126 13.51031902 84315
QIANFAN-88              
1 63174U 25046R   26254.46561891  .00000098  00000+0  13321-3 0  9996
2 63174  88.9658 291.5406 0014009  71.7032 288.5642 13.51029019 84332
QIANFAN-89              
1 63175U 25046S   26254.57669746  .00000091  00000+0  12193-3 0  9996
2 63175  88.9658 291.7178 0018339  61.7083 298.5916 13.51024342 84245
QIANFAN-90              
1 63176U 25046T   26254.53148269  .00000039  00000+0  41211-4 0  9991
2 63176  88.9659 291.6958 0015244  61.3065 298.9616 13.51019683 84254
QIANFAN-91              
1 66033U 25233A   26254.63799343  .00000058  00000+0  71905-4 0  9994
2 66033  89.0040  34.4456 0001895  91.0158 269.1210 13.51028452 44857
QIANFAN-92              
1 66034U 25233B   26254.42422168  .00000061  00000+0  75503-4 0  9992
2 66034  89.0023  34.4248 0001961  99.0760 261.0613 13.50998294 44823
QIANFAN-93              
1 66035U 25233C   26254.43239295  .00000049  00000+0  57877-4 0  9991
2 66035  89.0050  34.4992 0002033  92.0738 268.0646 13.51000153 44821
QIANFAN-94              
1 66036U 25233D   26254.41997200  .00000062  00000+0  77331-4 0  9999
2 66036  89.0047  34.4007 0001828  96.8508 263.2851 13.51026812 44873
QIANFAN-95              
1 66037U 25233E   26254.42820160  .00000060  00000+0  73670-4 0  9991
2 66037  89.0046  33.9416 0001770  90.8674 269.2680 13.51021343 45124
QIANFAN-96              
1 66038U 25233F   26254.45285005  .00000054  00000+0  64307-4 0  9998
2 66038  89.0041  34.4801 0001896  88.8754 271.2614 13.51027990 44829
QIANFAN-97              
1 66039U 25233G   26254.43641732  .00000043  00000+0  48643-4 0  9993
2 66039  89.0045  34.4686 0001899  91.5272 268.6097 13.51028008 44820
QIANFAN-98              
1 66040U 25233H   26254.44465654  .00000032  00000+0  31345-4 0  9992
2 66040  89.0034  34.1893 0001483 105.6856 254.4459 13.51028178 44970
QIANFAN-99              
1 66041U 25233J   26254.44873180  .00000045  00000+0  51817-4 0  9990
2 66041  89.0045  34.4718 0001463  97.1874 262.9444 13.51034587 44839
QIANFAN-100             
1 66042U 25233K   26254.44051559  .00000044  00000+0  49894-4 0  9990
2 66042  89.0056  34.4094 0001931  91.9591 268.1781 13.51019332 44885
QIANFAN-101             
1 66043U 25233L   26254.41402173  .00000308  00000+0  12083-3 0  9992
2 66043  89.0047  30.6698 0013850 214.1748 145.8556 14.26857247 46926
QIANFAN-102             
1 66044U 25233M   26254.46109689  .00000058  00000+0  71416-4 0  9992
2 66044  89.0043  34.3783 0001775  96.3749 263.7605 13.51027568 44883
QIANFAN-103             
1 66045U 25233N   26254.46523018  .00000055  00000+0  67264-4 0  9992
2 66045  89.0046  34.4755 0001931  92.0849 268.0524 13.51020485 44839
QIANFAN-104             
1 66046U 25233P   26254.39519935  .00000049  00000+0  56586-4 0  9996
2 66046  89.0050  34.3885 0001822  99.2220 260.9137 13.51025582 44877
QIANFAN-105             
1 66047U 25233Q   26254.62565469  .00000048  00000+0  56489-4 0  9997
2 66047  89.0065  34.2201 0001782  91.4288 268.7067 13.51025472 45011
QIANFAN-106             
1 66048U 25233R   26254.62152972  .00000046  00000+0  53356-4 0  9997
2 66048  89.0033  34.4062 0001553 103.0849 257.0475 13.51029236 44850
QIANFAN-107             
1 66049U 25233S   26254.40758522  .00000047  00000+0  54470-4 0  9996
2 66049  89.0048  34.4739 0001920  92.9593 267.1778 13.51028403 44839
QIANFAN-108             
1 66050U 25233T   26254.63393478  .00000054  00000+0  65807-4 0  9992
2 66050  89.0041  34.4327 0001584 103.0443 257.0886 13.51020676 44866
QIANFAN-109             
1 68636U 26075A   26254.57369776  .00000084  00000+0  11090-3 0  9993
2 68636  88.9880 312.2001 0002302  86.3343 273.8072 13.51020104 21453
QIANFAN-110             
1 68637U 26075B   26254.58192088  .00000074  00000+0  96489-4 0  9990
2 68637  88.9880 312.2208 0002288  99.7409 260.4001 13.51031147 21450
QIANFAN-111             
1 68638U 26075C   26254.49572786  .00000084  00000+0  11132-3 0  9990
2 68638  88.9879 312.1885 0002281  99.1507 260.9903 13.51020503 21466
QIANFAN-112             
1 68639U 26075D   26254.45861424  .00000076  00000+0  98736-4 0  9994
2 68639  88.9878 312.2002 0002516  88.9868 271.1571 13.51022921 21455
QIANFAN-113             
1 68640U 26075E   26254.57777929  .00000078  00000+0  10156-3 0  9996
2 68640  88.9883 312.1866 0002373  97.5863 262.5558 13.51029060 21474
QIANFAN-114             
1 68641U 26075F   26254.58604074  .00000078  00000+0  10203-3 0  9991
2 68641  88.9879 312.2008 0002268  98.7813 261.3595 13.51027162 21468
QIANFAN-115             
1 68642U 26075G   26254.61490495  .00000076  00000+0  98842-4 0  9990
2 68642  88.9879 312.2051 0002188  95.2771 264.8630 13.51023838 21467
QIANFAN-116             
1 68643U 26075H   26254.60253849  .00000080  00000+0  10522-3 0  9993
2 68643  88.9872 312.1603 0002504  92.0286 268.1152 13.51024461 21471
QIANFAN-117             
1 68644U 26075J   26254.59027541  .00000076  00000+0  99674-4 0  9991
2 68644  88.9877 312.1813 0002299  92.3411 267.8003 13.51022246 21474
QIANFAN-118             
1 68645U 26075K   26254.62312384  .00000067  00000+0  85176-4 0  9990
2 68645  88.9881 312.1901 0002337 101.8241 258.3173 13.51024046 21471
QIANFAN-119             
1 68646U 26075L   26254.59835681  .00000088  00000+0  11764-3 0  9991
2 68646  88.9882 312.1883 0002177  88.3088 271.8312 13.51037129 21473
QIANFAN-120             
1 68647U 26075M   26254.61071501  .00000078  00000+0  10271-3 0  9999
2 68647  88.9883 312.1734 0002130  87.3431 272.7964 13.51019573 21487
QIANFAN-121             
1 68648U 26075N   26254.56148393  .00000083  00000+0  10983-3 0  9994
2 68648  88.9881 312.1815 0002268 100.5722 259.5685 13.51023103 21475
QIANFAN-122             
1 68649U 26075P   26254.55322308  .00000080  00000+0  10582-3 0  9996
2 68649  88.9879 312.1794 0002319  90.4584 269.6833 13.51026620 21462
QIANFAN-123             
1 68650U 26075Q   26254.59423593  .00000088  00000+0  11831-3 0  9996
2 68650  88.9876 312.1624 0002358  84.7107 275.4313 13.51031872 21455
QIANFAN-124             
1 68651U 26075R   26254.61907769  .00000075  00000+0  97209-4 0  9992
2 68651  88.9879 312.1712 0002353  89.2572 270.8849 13.51026212 21486
QIANFAN-125             
1 68652U 26075S   26254.55737049  .00000080  00000+0  10478-3 0  9996
2 68652  88.9879 312.1795 0002290 100.2358 259.9051 13.51023191 21479
QIANFAN-126             
1 68653U 26075T   26254.49139019  .00000093  00000+0  12479-3 0  9990
2 68653  88.9883 312.1553 0002340  85.2033 274.9386 13.51028558 21486
QIANFAN-127             
1 69073U 26104A   26254.57082445  .00000122  00000+0  16970-3 0  9992
2 69073  88.9934 332.6631 0002511 107.4352 252.7074 13.50993253 16827
QIANFAN-128             
1 69074U 26104B   26254.57898015  .00000121  00000+0  16946-3 0  9993
2 69074  88.9912 332.6880 0002106 114.7504 245.3867 13.51022401 16805
QIANFAN-129             
1 69075U 26104C   26254.60359852  .00000109  00000+0  15030-3 0  9998
2 69075  88.9914 332.6196 0002248 110.8180 249.3213 13.51022308 16841
QIANFAN-130             
1 69076U 26104D   26254.56656997  .00000113  00000+0  15633-3 0  9998
2 69076  88.9917 332.6890 0002573 102.0200 258.1240 13.51032957 16808
QIANFAN-131             
1 69077U 26104E   26254.58731472  .00000117  00000+0  16319-3 0  9999
2 69077  88.9910 332.6480 0002014 107.0927 253.0445 13.51024601 16828
QIANFAN-132             
1 69078U 26104F   26254.57479064  .00000117  00000+0  16258-3 0  9997
2 69078  88.9912 332.7057 0002418 103.4696 256.6725 13.51020710 16796
QIANFAN-133             
1 69079U 26104G   26254.58318148  .00000120  00000+0  16772-3 0  9999
2 69079  88.9915 332.6548 0001871 112.2417 247.8933 13.51029546 16817
QIANFAN-134             
1 69080U 26104H   26254.61194736  .00000115  00000+0  15903-3 0  9999
2 69080  88.9919 332.6779 0002071 113.6211 246.5158 13.51027867 16818
QIANFAN-135             
1 69081U 26104J   26254.59124907  .00000113  00000+0  15686-3 0  9996
2 69081  88.9913 332.6712 0002288 115.6972 244.4415 13.51021069 16817
QIANFAN-136             
1 69082U 26104K   26254.59957325  .00000112  00000+0  15411-3 0  9990
2 69082  88.9916 332.6732 0001910 112.8015 247.3338 13.51030985 16814
QIANFAN-137             
1 69083U 26104L   26254.52138873  .00000100  00000+0  13599-3 0  9995
2 69083  88.9925 332.5571 0002330 102.7716 257.3695 13.51030685 16878
QIANFAN-138             
1 69084U 26104M   26254.62004297  .00000116  00000+0  16086-3 0  9990
2 69084  88.9909 332.6715 0002453 110.7720 249.3695 13.51020496 16816
QIANFAN-139             
1 69085U 26104N   26254.45980784  .00000110  00000+0  15171-3 0  9994
2 69085  88.9911 332.6695 0002490 105.3097 254.8330 13.51029193 16804
QIANFAN-140             
1 69086U 26104P   26254.61594930  .00000125  00000+0  17548-3 0  9993
2 69086  88.9912 332.6570 0002388 115.2855 244.8544 13.51021566 16820
QIANFAN-141             
1 69087U 26104Q   26254.55018103  .00000122  00000+0  17076-3 0  9993
2 69087  88.9909 332.6283 0002193 114.0579 246.0802 13.51027613 16833
QIANFAN-142             
1 69088U 26104R   26254.55834742  .00000117  00000+0  16322-3 0  9996
2 69088  88.9907 332.6269 0002401 111.0997 249.0411 13.51030133 16839
QIANFAN-143             
1 69089U 26104S   26254.55434908  .00000109  00000+0  14999-3 0  9996
2 69089  88.9918 332.6330 0001962 105.9112 254.2255 13.51026133 16832
QIANFAN-144             
1 69090U 26104T   26254.56245212  .00000105  00000+0  14386-3 0  9993
2 69090  88.9916 332.6505 0002498 108.2376 251.9048 13.51030373 16823
QIANFAN-145             
1 69104U 26108A   26254.56678127  .00000068  00000+0  87071-4 0  9998
2 69104  89.0185  13.4200 0001643  97.3402 262.7936 13.51032933 16105
QIANFAN-146             
1 69105U 26108B   26254.45168000  .00000077  00000+0  10073-3 0  9998
2 69105  89.0187  13.2684 0002016  98.9636 261.1743 13.51038465 16186
QIANFAN-147             
1 69106U 26108C   26254.57516630  .00000072  00000+0  92319-4 0  9997
2 69106  89.0187  13.4235 0002078 103.6806 256.4577 13.51023490 16096
QIANFAN-148             
1 69107U 26108D   26254.56275289  .00000064  00000+0  80058-4 0  9997
2 69107  89.0181  13.4152 0001918 108.6129 251.5231 13.51023025 16091
QIANFAN-149             
1 69108U 26108E   26254.49685086  .00000070  00000+0  90058-4 0  9998
2 69108  89.0180  13.4430 0002202 110.9210 249.2177 13.51022547 16084
QIANFAN-150             
1 69109U 26108F   26254.57911466  .00000079  00000+0  10428-3 0  9993
2 69109  89.0186  13.3877 0002230 109.7996 250.3395 13.51023087 16112
QIANFAN-151             
1 69110U 26108G   26254.45998586  .00000073  00000+0  94527-4 0  9997
2 69110  89.0185  13.4232 0001837 100.4532 259.6827 13.51026158 16085
QIANFAN-152             
1 69111U 26108H   26254.58734698  .00000083  00000+0  10968-3 0  9991
2 69111  89.0181  13.4027 0002294  99.6526 260.4884 13.51027428 16112
QIANFAN-153             
1 69112U 26108J   26254.58322058  .00000081  00000+0  10661-3 0  9993
2 69112  89.0178  13.3798 0002208 105.4235 254.7160 13.51023387 16114
QIANFAN-154             
1 69113U 26108K   26254.59159669  .00000078  00000+0  10284-3 0  9998
2 69113  89.0188  13.4269 0002095 106.6175 253.5207 13.51025390 16104
QIANFAN-155             
1 69114U 26108L   26254.59557770  .00000074  00000+0  96748-4 0  9990
2 69114  89.0186  13.3912 0002227 107.3301 252.8094 13.51022263 16116
QIANFAN-156             
1 69115U 26108M   26254.54205719  .00000078  00000+0  10260-3 0  9997
2 69115  89.0200  13.3966 0001849 106.0624 254.0731 13.51022162 16127
QIANFAN-157             
1 69116U 26108N   26254.45585345  .00000071  00000+0  91696-4 0  9990
2 69116  89.0182  13.3301 0001976 111.1877 248.9485 13.51026854 16140
QIANFAN-158             
1 69117U 26108P   26254.32396500  .00000068  00000+0  86361-4 0  9999
2 69117  89.0183  13.3843 0001842 103.4355 256.7002 13.51033929 16109
QIANFAN-159             
1 69118U 26108Q   26254.61203609  .00000076  00000+0  98899-4 0  9997
2 69118  89.0175  13.3628 0001895 101.9608 258.1756 13.51022113 16132
QIANFAN-160             
1 69119U 26108R   26254.62863000  .00000080  00000+0  10564-3 0  9993
2 69119  89.0190  13.3973 0002337 108.6036 251.5369 13.51022338 16129
QIANFAN-161             
1 69120U 26108S   26254.63258593  .00000074  00000+0  96803-4 0  9995
2 69120  89.0197  13.3130 0001833 102.3238 257.8119 13.51037261 16176
QIANFAN-162             
1 69121U 26108T   26254.62437825  .00000083  00000+0  11033-3 0  9993
2 69121  89.0187  13.3400 0002178 100.3003 259.8394 13.51021586 16144
QIANFAN-163             
1 69325U 26121A   26254.51495153  .00000032  00000+0  30815-4 0  9994
2 69325  89.0114 291.9235 0002130 124.2450 235.8903 13.51022078 13828
QIANFAN-164             
1 69326U 26121B   26254.55610067  .00000045  00000+0  50376-4 0  9990
2 69326  89.0112 291.9098 0001879 111.0044 249.1308 13.51021020 13830
QIANFAN-165             
1 69382U 26124A   26254.56578926  .00000120  00000+0  16680-3 0  9996
2 69382  89.0072 352.9197 0001698 118.7131 241.4191 13.51020375 13708
QIANFAN-166             
1 69383U 26124B   26254.56994138  .00000125  00000+0  17442-3 0  9996
2 69383  89.0091 352.9285 0001844 101.3535 258.7823 13.51020906 13700
QIANFAN-167             
1 69384U 26124C   26254.57399121  .00000110  00000+0  15198-3 0  9999
2 69384  89.0064 352.9360 0002162 108.2963 251.8423 13.51029947 13692
QIANFAN-168             
1 69385U 26124D   26254.57798120  .00000110  00000+0  15181-3 0  9994
2 69385  89.0061 352.9158 0001627 102.0045 258.1288 13.51018645 13707
QIANFAN-169             
1 69386U 26124E   26254.58225940  .00000100  00000+0  13688-3 0  9990
2 69386  89.0059 352.9153 0001908  98.0897 262.0471 13.51021878 13701
QIANFAN-170             
1 69387U 26124F   26254.58634084  .00000103  00000+0  14152-3 0  9994
2 69387  89.0077 352.8857 0001887  95.7007 264.4360 13.51024337 13723
QIANFAN-171             
1 69388U 26124G   26254.59462839  .00000113  00000+0  15692-3 0  9994
2 69388  89.0092 352.8961 0002113 104.3586 255.7800 13.51017351 13729
QIANFAN-172             
1 69389U 26124H   26254.59046708  .00000105  00000+0  14407-3 0  9992
2 69389  89.0075 352.8878 0001657 113.7257 246.4068 13.51027910 13724
QIANFAN-173             
1 69390U 26124J   26254.52448240  .00000117  00000+0  16324-3 0  9997
2 69390  89.0064 352.8919 0001673  97.6347 262.4994 13.51020876 13717
QIANFAN-174             
1 69391U 26124K   26254.53692551  .00000127  00000+0  17865-3 0  9997
2 69391  89.0044 352.8498 0002146 110.5345 249.6037 13.51028768 13721
QIANFAN-175             
1 69392U 26124L   26254.54110567  .00000119  00000+0  16582-3 0  9997
2 69392  89.0096 352.8899 0001859  99.7570 260.3791 13.51018846 13725
QIANFAN-176             
1 69393U 26124M   26254.54520543  .00000108  00000+0  14859-3 0  9990
2 69393  89.0058 352.8726 0001872  99.9188 260.2174 13.51019611 13719
QIANFAN-177             
1 69394U 26124N   26254.55347296  .00000108  00000+0  14845-3 0  9999
2 69394  89.0068 352.8595 0002043 109.8170 250.3202 13.51028646 13730
QIANFAN-178             
1 69395U 26124P   26254.54927421  .00000108  00000+0  14830-3 0  9997
2 69395  89.0013 352.8204 0001887  99.5086 260.6279 13.51024585 13741
QIANFAN-179             
1 69396U 26124Q   26254.55759209  .00000113  00000+0  15676-3 0  9991
2 69396  89.0045 352.8349 0001879  98.7852 261.3512 13.51028230 13749
QIANFAN-180             
1 69397U 26124R   26254.56166887  .00000118  00000+0  16382-3 0  9997
2 69397  89.0052 352.8549 0001920  95.0354 265.1017 13.51020532 13732
QIANFAN-181             
1 69398U 26124S   26254.52874881  .00000127  00000+0  17886-3 0  9994
2 69398  89.0074 352.9498 0002140 106.8730 253.2656 13.51022192 13680
QIANFAN-182             
1 69399U 26124T   26254.53282409  .00000123  00000+0  17241-3 0  9996
2 69399  89.0049 352.9219 0001845 101.5528 258.5830 13.51026755 13683
QIANFAN-183             
1 69401U 26125A   26254.56744538  .00000041  00000+0  44254-4 0  9994
2 69401  88.9835 271.2205 0001910 101.5095 258.6271 13.51027404 13602
QIANFAN-184             
1 69402U 26125B   26254.57569800  .00000033  00000+0  32757-4 0  9999
2 69402  88.9886 271.2425 0001906  96.9106 263.2262 13.51028472 13606
QIANFAN-185             
1 69403U 26125C   26254.52634778  .00000039  00000+0  42236-4 0  9991
2 69403  88.9900 271.1862 0001819  98.3264 261.8093 13.51017521 13634
QIANFAN-186             
1 69404U 26125D   26254.57152874  .00000027  00000+0  22979-4 0  9998
2 69404  88.9888 271.2427 0001968  95.9679 264.1697 13.51008189 13609
QIANFAN-187             
1 69405U 26125E   26254.57970284  .00000020  00000+0  13107-4 0  9998
2 69405  88.9888 271.2246 0002065 100.9873 259.1511 13.51007216 13611
QIANFAN-188             
1 69406U 26125F   26254.58796255  .00000034  00000+0  33678-4 0  9994
2 69406  88.9886 271.2237 0001913 102.9355 257.2010 13.51029164 13617
QIANFAN-189             
1 69407U 26125G   26254.52206039  .00000037  00000+0  38106-4 0  9999
2 69407  88.9869 271.2266 0001886 108.7363 251.3993 13.51028398 13593
QIANFAN-190             
1 69408U 26125H   26254.58380915  .00000030  00000+0  27424-4 0  9996
2 69408  88.9870 271.2180 0001859  95.2896 264.8467 13.51033159 13611
QIANFAN-191             
1 69409U 26125J   26254.53450014  .00000032  00000+0  31045-4 0  9996
2 69409  88.9884 271.2339 0001879 102.1999 257.9363 13.51032819 13606
QIANFAN-192             
1 69410U 26125K   26254.51793109  .00000034  00000+0  33849-4 0  9997
2 69410  88.9891 271.2356 0001956 106.6594 253.4772 13.51030030 13609
QIANFAN-193             
1 69411U 26125L   26254.54278192  .00000026  00000+0  21063-4 0  9997
2 69411  88.9869 271.2112 0001785 101.8784 258.2568 13.51027314 13611
QIANFAN-194             
1 69412U 26125M   26254.53864560  .00000018  00000+0  87517-5 0  9995
2 69412  88.9901 271.2234 0001916 102.4020 257.7346 13.51026002 13600
QIANFAN-195             
1 69413U 26125N   26253.65634574 -.01624247  00000+0 -28896+1 0  9997
2 69413  88.9872 271.3035 0003803  20.5485 339.5816 13.46014320 13504
QIANFAN-196             
1 69414U 26125P   26254.55508576  .00000030  00000+0  27259-4 0  9991
2 69414  88.9908 271.2101 0001860  91.7248 268.4116 13.51035189 13624
QIANFAN-197             
1 69415U 26125Q   26254.56336228  .00000022  00000+0  15895-4 0  9990
2 69415  88.9882 271.1828 0001908 100.0595 260.0772 13.51023605 13629
QIANFAN-198             
1 69416U 26125R   26254.55099908  .00000036  00000+0  37771-4 0  9993
2 69416  88.9876 271.1972 0001903 103.1393 256.9971 13.51028000 13627
QIANFAN-199             
1 69417U 26125S   26254.55926308  .00000035  00000+0  35254-4 0  9990
2 69417  88.9880 271.1463 0002112 103.0379 257.1009 13.51025579 13650
QIANFAN-200             
1 69418U 26125T   26254.53040860  .00000036  00000+0  37473-4 0  9995
2 69418  88.9887 271.2342 0001876 105.7122 254.4236 13.51026102 13606
QIANFAN-201             
1 69800U 26153A   26253.87112544 -.01816020  00000+0 -14285+1 0  9999
2 69800  88.9975 352.5224 0011140  59.2009 301.0262 13.96115155  9703
QIANFAN-202             
1 69801U 26153B   26253.85481898 -.01911913  00000+0 -12033+1 0  9995
2 69801  88.9976 352.5013 0009179  37.6865 322.4960 14.08197943  9701
QIANFAN-203             
1 69802U 26153C   26253.92150742 -.01866500  00000+0 -12239+1 0  9994
2 69802  88.9976 352.5301 0007203 348.5554  11.5463 14.05840891  9705
QIANFAN-204             
1 69803U 26153D   26253.87748979 -.01906245  00000+0 -12199+1 0  9990
2 69803  88.9974 352.5239 0008028  26.0680 334.0906 14.07269512  9700
QIANFAN-205             
1 69804U 26153E   26253.89147116 -.01894836  00000+0 -12761+1 0  9996
2 69804  88.9974 352.5435 0010607 347.1509  12.9400 14.04400211  9691
QIANFAN-206             
1 69805U 26153F   26253.85774427 -.01974766  00000+0 -12114+1 0  9997
2 69805  88.9974 352.5019 0010642  57.0874 303.1332 14.09731782  9718
QIANFAN-207             
1 69806U 26153G   26254.61343606  .00000055  00000+0  23939-4 0  9993
2 69806  88.9980 352.4478 0007470   7.3872 352.7421 14.08717159  9805
QIANFAN-208             
1 69807U 26153H   26253.87191063 -.01829784  00000+0 -13551+1 0  9995
2 69807  88.9973 352.5227 0005879  79.7050 280.4791 13.99602095  9711
QIANFAN-209             
1 69808U 26153J   26253.84885684 -.01920706  00000+0 -12880+1 0  9992
2 69808  88.9975 352.5379 0010466 340.8114  19.2671 14.04690962  9692
QIANFAN-210             
1 69809U 26153K   26253.82460280 -.01900855  00000+0 -12553+1 0  9992
2 69809  88.9976 352.5345 0010937 353.1573   6.9458 14.05501138  9699
QIANFAN-211             
1 69810U 26153L   26254.59081632  .00000181  00000+0  86842-4 0  9995
2 69810  88.9981 352.4259 0007780  15.0191 345.1226 14.14536698  9816
QIANFAN-212             
1 69811U 26153M   26253.97991146  .00000072  00000+0  30819-4 0  9999
2 69811  88.9979 352.5011 0009173  18.2039 341.9474 14.13092662  9721
QIANFAN-213             
1 69812U 26153N   26253.84572311 -.01916022  00000+0 -12435+1 0  9999
2 69812  88.9975 352.5182 0008902   7.4611 352.6702 14.06509229  9707
QIANFAN-214             
1 69813U 26153P   26254.25108615  .00000049  00000+0  18109-4 0  9996
2 69813  88.9980 352.4302 0007852  10.3260 349.8087 14.14024940  9786
QIANFAN-215             
1 69814U 26153Q   26253.88633249 -.01897484  00000+0 -10340+1 0  9996
2 69814  88.9971 352.4300 0008828 355.2295   4.8807 14.16029162  9756
QIANFAN-216             
1 69815U 26153R   26253.84776146 -.01889347  00000+0 -11005+1 0  9995
2 69815  88.9974 352.4626 0007880  64.3463 295.8536 14.12406489  9739
QIANFAN-217             
1 69816U 26153S   26253.89153949 -.01879222  00000+0 -92844+0 0  9991
2 69816  88.9974 352.3933 0009302  34.8454 325.3344 14.21234261  9770
QIANFAN-218             
1 69817U 26153T   26253.88946819 -.01866343  00000+0 -91979+0 0  9995
2 69817  88.9975 352.3956 0008372  44.1120 316.0737 14.21343977  9775
QIANFAN-219             
1 69848U 26155A   26254.53407697  .00000024  00000+0  16277-4 0  9996
2 69848  89.0072  54.6060 0037763  35.1717 325.1919 13.57836604  9523
QIANFAN-220             
1 69849U 26155B   26254.48402945 -.01892084  00000+0 -27707+1 0  9996
2 69849  89.0077  54.6402 0032095  35.3428 324.9847 13.58841214  9502
QIANFAN-221             
1 69850U 26155C   26254.55693079 -.01941747  00000+0 -19470+1 0  9995
2 69850  89.0071  54.4289 0035324  36.5768 323.7803 13.81322301  9626
QIANFAN-222             
1 69851U 26155D   26254.57083986  .00000008  00000+0 -59365-5 0  9994
2 69851  89.0077  54.6493 0035095  34.5968 325.7460 13.57844021  9506
QIANFAN-223             
1 69852U 26155E   26254.55630245 -.01819546  00000+0 -30054+1 0  9995
2 69852  89.0076  54.6488 0036853  33.4368 326.9100 13.50981500  9506
QIANFAN-224             
1 69853U 26155F   26254.57829632  .00000018  00000+0  74367-5 0  9991
2 69853  89.0057  54.6025 0036336  38.6567 321.7180 13.58669837  9524
QIANFAN-225             
1 69854U 26155G   26254.57578392  .00000013  00000+0  41648-6 0  9998
2 69854  89.0071  54.6471 0035257  33.2912 327.0451 13.57849431  9509
QIANFAN-226             
1 69855U 26155H   26254.59031504  .00000033  00000+0  27959-4 0  9999
2 69855  89.0070  54.6306 0036556  35.6906 324.6682 13.57849809  9517
QIANFAN-227             
1 69856U 26155J   26254.55276966 -.01845859  00000+0 -29642+1 0  9992
2 69856  89.0067  54.6281 0038514  42.0644 318.3454 13.52814554  9514
QIANFAN-228             
1 69857U 26155K   26254.46988520  .00000015  00000+0  42020-5 0  9993
2 69857  89.0075  54.6348 0036606  37.2934 323.0753 13.57843807  9508
QIANFAN-229             
1 69858U 26155L   26254.51768695 -.01804578  00000+0 -28161+1 0  9993
2 69858  89.0072  54.6051 0036153  41.7660 318.6242 13.54566730  9529
QIANFAN-230             
1 69859U 26155M   26254.47555318 -.01893928  00000+0 -29631+1 0  9995
2 69859  89.0069  54.6510 0039780  37.7325 322.6606 13.54564250  9498
QIANFAN-231             
1 69860U 26155N   26254.57500237 -.01885294  00000+0 -29407+1 0  9996
2 69860  89.0068  54.5955 0039516  39.3996 321.0020 13.54738620  9532
QIANFAN-232             
1 69861U 26155P   26254.55696762 -.01791688  00000+0 -28490+1 0  9998
2 69861  89.0066  54.5903 0030984  35.0874 325.2311 13.53414998  9539
QIANFAN-233             
1 69862U 26155Q   26254.55072842 -.01786779  00000+0 -27493+1 0  9993
2 69862  89.0072  54.5919 0036398  39.5442 320.8357 13.55412646  9530
QIANFAN-234             
1 69863U 26155R   26254.59586418 -.01789589  00000+0 -23631+1 0  9999
2 69863  89.0068  54.5438 0036096  34.4579 325.8910 13.64979258  9562
QIANFAN-235             
1 69864U 26155S   26254.56480819 -.01800320  00000+0 -15451+1 0  9993
2 69864  89.0074  54.3958 0031935  32.4351 327.8777 13.90851347  9647
QIANFAN-236             
1 69865U 26155T   26254.57724001 -.01813404  00000+0 -28648+1 0  9998
2 69865  89.0074  54.6147 0036923  42.7090 317.6922 13.53798801  9527
QIANFAN-237             
1 69866U 26155U   26254.57058318 -.01881713  00000+0 -28187+1 0  9996
2 69866  89.0073  54.5782 0037802  34.9888 325.3740 13.57309895  9536
QIANFAN-238             
1 69867U 26155V   26254.57310414  .00000010  00000+0 -32692-5 0  9997
2 69867  89.0079  54.5953 0026313  31.7298 328.5437 13.57852601  9534
