KUIPER-00008            
1 63724U 25088A   26257.21179404 -.00000779  00000+0 -73174-4 0  9995
2 63724  51.9023 334.3635 0000393  90.8471 269.2536 14.79921187 75964
KUIPER-00009            
1 63725U 25088B   26257.23435190  .00005684  00000+0  38319-3 0  9994
2 63725  51.9040 342.8372 0000452 109.0791 251.0233 15.08005721 75840
KUIPER-00010            
1 63726U 25088C   26256.50813312  .00001199  00000+0  18625-3 0  9995
2 63726  51.9040 332.5859 0000420  95.4942 264.6069 14.79934332 75548
KUIPER-00011            
1 63727U 25088D   26257.20912059 -.00000058  00000+0  21343-4 0  9998
2 63727  51.9046 337.0304 0000217  60.7703 299.3282 14.79927015 75670
KUIPER-00012            
1 63728U 25088E   26256.44869318  .00000842  00000+0  13943-3 0  9999
2 63728  51.9036 325.3316 0000240  65.7810 294.3177 14.79928239 75726
KUIPER-00013            
1 63729U 25088F   26257.25776379  .00001108  00000+0  17426-3 0  9990
2 63729  51.9043 354.2730 0000312  92.2964 267.8034 14.79930141 75497
KUIPER-00014            
1 63730U 25088G   26257.29152040  .00001245  00000+0  19228-3 0  9993
2 63730  51.9045 354.0678 0000382 100.0717 260.0289 14.79925216 75316
KUIPER-00015            
1 63731U 25088H   26257.04439191 -.00000472  00000+0 -32917-4 0  9996
2 63731  51.8996   5.2047 0000573 106.6237 253.4788 14.79925275 75592
KUIPER-00016            
1 63732U 25088J   26257.28882826  .00002315  00000+0  33262-3 0  9999
2 63732  51.9030 356.5850 0000277 110.1906 249.9086 14.79930220 75273
KUIPER-00018            
1 63733U 25088K   26256.99573204  .00000887  00000+0  14536-3 0  9999
2 63733  51.9059 347.9280 0000246  93.9667 266.1323 14.79927259 75378
KUIPER-00019            
1 63734U 25088L   26257.22499708  .00000809  00000+0  13507-3 0  9994
2 63734  51.9025 345.6586 0000231 121.3977 238.7008 14.79919652 75429
KUIPER-00020            
1 63735U 25088M   26256.45280185 -.00000384  00000+0 -21410-4 0  9999
2 63735  51.9038 352.8231 0000440  88.9834 271.1179 14.79923649 75468
KUIPER-00021            
1 63736U 25088N   26256.95926730 -.00001689  00000+0 -19259-3 0  9994
2 63736  51.9039 350.5331 0000471  87.6821 272.4195 14.79931938 75374
KUIPER-00023            
1 63737U 25088P   26257.26045159  .00005068  00000+0  69388-3 0  9998
2 63737  51.9023 351.6911 0001056  88.2348 271.8735 14.79895735 75686
KUIPER-00024            
1 63738U 25088Q   26256.66618187  .00000969  00000+0  15606-3 0  9998
2 63738  51.9049 341.9329 0000414  90.2233 269.8777 14.79925058 75891
KUIPER-00025            
1 63739U 25088R   26256.69184756  .00001567  00000+0  23447-3 0  9999
2 63739  51.9053 349.3000 0000522 105.3699 254.7321 14.79936874 75659
KUIPER-00027            
1 63740U 25088S   26256.93359841  .00001467  00000+0  22143-3 0  9998
2 63740  51.9035 343.1898 0000446  94.4704 265.6309 14.79935246 75499
KUIPER-00028            
1 63741U 25088T   26256.42981605  .00000852  00000+0  14071-3 0  9990
2 63741  51.9020 342.8588 0000254 134.2578 225.8406 14.79925563 75863
KUIPER-00029            
1 63742U 25088U   26256.94604983  .00001094  00000+0  17252-3 0  9992
2 63742  51.9041 339.2728 0000060 137.1519 222.9448 14.79916134 75481
KUIPER-00030            
1 63743U 25088V   26256.44470870 -.00000253  00000+0 -41343-5 0  9992
2 63743  51.9034   0.3105 0000513  99.2363 260.8657 14.79927838 75438
KUIPER-00031            
1 63744U 25088W   26257.23748866 -.00000267  00000+0 -60102-5 0  9993
2 63744  51.9027 341.8277 0000347 103.4746 256.6255 14.79925487 75471
KUIPER-00032            
1 63745U 25088X   26257.11817044  .00012996  00000+0  30424-3 0  9998
2 63745  51.8681 189.3178 0005294  72.1105 288.0460 15.42456898 78587
KUIPER-00033            
1 63746U 25088Y   26256.32722197  .00000484  00000+0  92499-4 0  9995
2 63746  51.9027  15.8529 0000334 113.9686 246.1312 14.79927161 75408
KUIPER-00034            
1 63747U 25088Z   26257.24555367  .00001417  00000+0  21482-3 0  9991
2 63747  51.9044 334.3294 0000490  78.6102 281.4915 14.79944887 75741
KUIPER-00035            
1 63748U 25088AA  26257.28612451  .00001182  00000+0  18412-3 0  9992
2 63748  51.9031 359.1135 0000497 113.6623 246.4391 14.79919051 75454
KUIPER-00037            
1 63749U 25088AB  26257.00894057 -.00000198  00000+0  29654-5 0  9996
2 63749  51.9027 359.2002 0000509 101.1319 258.9701 14.79926303 76218
KUIPER-00038            
1 63750U 25088AC  26256.66078096 -.00000539  00000+0 -41726-4 0  9999
2 63750  51.9036 346.9133 0000585 103.8051 256.2977 14.79919447 75355
KUIPER-00039            
1 64500U 25134A   26257.03852553  .00002548  00000+0  36307-3 0  9993
2 64500  51.9002 120.2404 0000859 103.3277 256.7781 14.79930822 67961
KUIPER-00040            
1 64501U 25134B   26257.06152298  .00000827  00000+0  13756-3 0  9997
2 64501  51.8982 130.1971 0001061  98.6980 261.4102 14.79930178 67829
KUIPER-00041            
1 64502U 25134C   26257.02503218  .00002665  00000+0  37846-3 0  9994
2 64502  51.8986 132.7509 0000767  99.8024 260.3025 14.79936068 67784
KUIPER-00042            
1 64503U 25134D   26256.65901374  .00002412  00000+0  34538-3 0  9993
2 64503  51.8980 129.3465 0000843 111.2934 248.8119 14.79927460 67800
KUIPER-00043            
1 64504U 25134E   26257.00476002  .00002387  00000+0  34202-3 0  9998
2 64504  51.9020 120.3322 0000776 109.4118 250.6929 14.79924989 67968
KUIPER-00044            
1 64505U 25134F   26257.05880163  .00002727  00000+0  38657-3 0  9997
2 64505  51.8989 132.5836 0000902 102.8246 257.2817 14.79937723 67797
KUIPER-00046            
1 64506U 25134G   26257.09526592  .00000303  00000+0  68793-4 0  9998
2 64506  51.8993 129.8933 0001024 100.3941 259.7137 14.79930589 67831
KUIPER-00047            
1 64507U 25134H   26256.75351420  .00000835  00000+0  13851-3 0  9991
2 64507  51.8988 103.9317 0000685 103.2822 256.8217 14.79925244 68163
KUIPER-00048            
1 64508U 25134J   26257.25994600  .00002266  00000+0  32622-3 0  9998
2 64508  51.8982 101.7049 0000808 101.4049 258.7004 14.79926980 68246
KUIPER-00049            
1 64509U 25134K   26256.87508627  .00002189  00000+0  31602-3 0  9997
2 64509  51.8996 115.8801 0000763 107.8628 252.2418 14.79932248 68014
KUIPER-00050            
1 64510U 25134L   26256.75889805  .00002008  00000+0  29246-3 0  9997
2 64510  51.8991  98.9134 0000727 108.9593 251.1449 14.79920110 68246
KUIPER-00051            
1 64511U 25134M   26257.05370189  .00004531  00000+0  62300-3 0  9993
2 64511  51.9001 113.7877 0000926 113.9906 246.1153 14.79931209 68051
KUIPER-00053            
1 64513U 25134P   26256.86574804  .00001869  00000+0  26314-3 0  9999
2 64513  51.8993 109.1027 0002600 101.2719 258.8536 14.81710110 68101
KUIPER-00054            
1 64514U 25134Q   26256.98716929 -.00000495  00000+0 -35949-4 0  9990
2 64514  51.8974 105.3870 0001054 106.7027 253.4052 14.79923746 68167
KUIPER-00055            
1 64515U 25134R   26257.13971710  .00002422  00000+0  34653-3 0  9990
2 64515  51.9022  57.3622 0000561 111.6995 248.4027 14.79932650 68851
KUIPER-00056            
1 64516U 25134S   26256.88050742  .00002195  00000+0  31682-3 0  9991
2 64516  51.9024 110.9755 0000936 106.3433 253.7633 14.79930365 68089
KUIPER-00057            
1 64517U 25134T   26257.00745968  .00002337  00000+0  33544-3 0  9995
2 64517  51.8991 117.8288 0000773 104.1699 255.9350 14.79926624 67990
KUIPER-00058            
1 64518U 25134U   26256.97907594  .00002570  00000+0  36590-3 0  9999
2 64518  51.8995 112.9325 0000782 108.3265 251.7782 14.79938293 68065
KUIPER-00059            
1 64519U 25134V   26256.84943629  .00002344  00000+0  33647-3 0  9994
2 64519  51.8994 108.5412 0000810 105.6588 254.4464 14.79927060 68116
KUIPER-00060            
1 64520U 25134W   26257.01824700  .00002407  00000+0  34456-3 0  9993
2 64520  51.9013 107.8732 0000702 105.2424 254.8616 14.79939334 68124
KUIPER-00061            
1 64521U 25134X   26257.04392669  .00002571  00000+0  36615-3 0  9992
2 64521  51.8994 115.2006 0000855 106.4752 253.6304 14.79933220 68023
KUIPER-00062            
1 64522U 25134Y   26257.04121637  .00002421  00000+0  34654-3 0  9993
2 64522  51.8949 117.6609 0000842 106.1208 253.9847 14.79930997 68009
KUIPER-00063            
1 64523U 25134Z   26257.03314633  .00002629  00000+0  37375-3 0  9996
2 64523  51.9013 125.2907 0000685  98.4822 261.6218 14.79928551 67896
KUIPER-00064            
1 64524U 25134AA  26257.03583013 -.00000301  00000+0 -10486-4 0  9999
2 64524  51.9022 122.7054 0001212  97.7815 262.3285 14.79925545 67930
KUIPER-00065            
1 64525U 25134AB  26257.03045667  .00002395  00000+0  34304-3 0  9995
2 64525  51.9040 127.9045 0000762 103.8187 256.2860 14.79927734 67841
KUIPER-00066            
1 64526U 25134AC  26256.72641842  .00002160  00000+0  31237-3 0  9990
2 64526  51.9029  66.5129 0000573 110.6786 249.4238 14.79922416 68690
KUIPER-00069            
1 64816U 25151A   26256.78471214  .00000650  00000+0  11421-3 0  9996
2 64816  51.9009 168.8969 0000829  96.8538 263.2519 14.79931292 64618
KUIPER-00070            
1 64817U 25151B   26257.19667924  .00002814  00000+0  39789-3 0  9999
2 64817  51.8997 191.9744 0001115  72.3769 287.7315 14.79936964 64331
KUIPER-00071            
1 64818U 25151C   26257.19938563  .00000117  00000+0  44329-4 0  9991
2 64818  51.9005 189.5093 0000774  94.9290 265.1761 14.79925714 63180
KUIPER-00072            
1 64819U 25151D   26256.17423034  .00002275  00000+0  32732-3 0  9992
2 64819  51.8983 173.9669 0001045  77.5739 282.5340 14.79928217 63310
KUIPER-00073            
1 64820U 25151E   26257.09808726  .00001460  00000+0  22053-3 0  9991
2 64820  51.9003 189.9341 0000968  65.6139 294.4924 14.79928463 64353
KUIPER-00075            
1 64822U 25151G   26256.74604726  .00043642  00000+0  11257-2 0  9999
2 64822  51.8675  24.7145 0002501 213.3926 146.6904 15.38738438 65431
KUIPER-00076            
1 64823U 25151H   26257.17639727  .00002661  00000+0  37790-3 0  9994
2 64823  51.9002 179.6126 0000918  82.8792 277.2274 14.79934340 63327
KUIPER-00077            
1 64824U 25151J   26257.17100784  .00002845  00000+0  40204-3 0  9999
2 64824  51.9012 184.6580 0000976  75.1295 284.9776 14.79927087 63250
KUIPER-00078            
1 64825U 25151K   26257.20746962  .00000514  00000+0  96503-4 0  9993
2 64825  51.9003 181.9687 0001088  96.7676 263.3410 14.79926592 63296
KUIPER-00079            
1 64826U 25151L   26256.02030309  .00001866  00000+0  27370-3 0  9990
2 64826  51.8992 192.1731 0000890  67.0916 293.0140 14.79926160 64242
KUIPER-00080            
1 64827U 25151M   26257.20207216  .00000329  00000+0  72224-4 0  9997
2 64827  51.8998 186.9609 0000802  91.7375 268.3679 14.79928348 63229
KUIPER-00082            
1 64828U 25151N   26256.16884285  .00002617  00000+0  37219-3 0  9995
2 64828  51.9008 179.0909 0000935  77.6687 282.4380 14.79933400 63248
KUIPER-00083            
1 64829U 25151P   26256.22829156  .00002546  00000+0  36284-3 0  9991
2 64829  51.9004 186.3089 0001013  72.7598 287.3475 14.79932477 64333
KUIPER-00084            
1 64830U 25151Q   26257.23044391  .00002885  00000+0  40730-3 0  9992
2 64830  51.9001 191.8636 0000730  97.7991 262.3054 14.79933765 63156
KUIPER-00085            
1 64831U 25151R   26257.14803669  .00002940  00000+0  41442-3 0  9997
2 64831  51.9023 174.8178 0000869  88.2916 271.8146 14.79935254 63385
KUIPER-00086            
1 64832U 25151S   26257.20476841 -.00000558  00000+0 -44163-4 0  9992
2 64832  51.9005 184.5011 0001010  80.5074 279.6003 14.79921842 63251
KUIPER-00087            
1 64833U 25151T   26256.48057317  .00002822  00000+0  39844-3 0  9998
2 64833  51.8997 170.1563 0001298  69.3332 290.7769 14.79992965 63385
KUIPER-00089            
1 64834U 25151U   26257.15072264  .00002782  00000+0  39375-3 0  9996
2 64834  51.9000 172.2215 0000825  93.5829 266.5228 14.79937025 63426
KUIPER-00090            
1 64835U 25151V   26257.02375038  .00001625  00000+0  24221-3 0  9997
2 64835  51.8998 165.2761 0000952  95.9394 264.1677 14.79927759 63508
KUIPER-00091            
1 64836U 25151W   26257.15342673  .00000501  00000+0  94701-4 0  9994
2 64836  51.9006 169.7312 0001202  85.8076 274.3024 14.79926384 63451
KUIPER-00092            
1 64837U 25151X   26257.14533262  .00002888  00000+0  40770-3 0  9996
2 64837  51.9001 177.2544 0000845  87.9350 272.1709 14.79932327 64561
KUIPER-00093            
1 64838U 25151Y   26257.14262684  .00002692  00000+0  38205-3 0  9997
2 64838  51.8999 179.7364 0000830  94.3524 265.7533 14.79929648 63310
KUIPER-00094            
1 64839U 25151Z   26257.05612951  .00000233  00000+0  59539-4 0  9997
2 64839  51.9036 135.2331 0001324  86.8796 273.2318 14.79926579 63934
KUIPER-00081            
1 65132U 25171A   26256.65749914  .00002736  00000+0  38772-3 0  9996
2 65132  51.9015  36.8779 0000543 111.5390 248.5631 14.79928831 60874
KUIPER-00088            
1 65133U 25171B   26256.70614532 -.00000321  00000+0 -13133-4 0  9995
2 65133  51.9012  54.1627 0000618 109.3024 250.8005 14.79926922 60633
KUIPER-00095            
1 65134U 25171C   26256.79525907  .00002750  00000+0  38959-3 0  9990
2 65134  51.8994  33.8058 0000567 115.2440 244.8581 14.79930474 60926
KUIPER-00096            
1 65135U 25171D   26257.15318723  .00002616  00000+0  37203-3 0  9990
2 65135  51.9003  44.6795 0000583 117.7393 242.3628 14.79929956 60804
KUIPER-00097            
1 65136U 25171E   26256.81285595  .00000772  00000+0  13022-3 0  9997
2 65136  51.9009  48.8529 0000767 120.2157 239.8882 14.79926851 60706
KUIPER-00098            
1 65137U 25171F   26256.81013339 -.00000108  00000+0  14852-4 0  9990
2 65137  51.9010  51.2249 0000749 104.0298 256.0748 14.79930722 60021
KUIPER-00099            
1 65138U 25171G   26256.78717431  .00002675  00000+0  37977-3 0  9993
2 65138  51.9027  41.3410 0000561 122.7888 237.3129 14.79931268 60812
KUIPER-00100            
1 65139U 25171H   26256.82362272  .00002829  00000+0  39999-3 0  9995
2 65139  51.9026  38.6453 0000552  96.3248 263.7778 14.79929975 60853
KUIPER-00102            
1 65140U 25171J   26256.82092507  .00002631  00000+0  37402-3 0  9996
2 65140  51.8993  41.1262 0000640 131.0029 229.0989 14.79930223 60819
KUIPER-00103            
1 65141U 25171K   26257.17346278  .00002479  00000+0  35416-3 0  9996
2 65141  51.8991  57.0716 0000564 111.7468 248.3555 14.79927218 60627
KUIPER-00104            
1 65142U 25171L   26256.71424305  .00002638  00000+0  37488-3 0  9992
2 65142  51.9036  46.6189 0000542 109.0678 251.0343 14.79931621 60737
KUIPER-00105            
1 65143U 25171M   26256.73992456  .00002700  00000+0  38304-3 0  9990
2 65143  51.9012  54.0980 0000636 114.5188 245.5841 14.79929677 60633
KUIPER-00106            
1 65144U 25171N   26256.78815658  .00002748  00000+0  38935-3 0  9996
2 65144  51.9026  32.6527 0000704  98.6454 261.4588 14.79931897 60948
KUIPER-00107            
1 65145U 25171P   26257.09643708  .00002747  00000+0  38926-3 0  9996
2 65145  51.9015  34.9630 0000526 107.8165 252.2855 14.79931745 60937
KUIPER-00108            
1 65146U 25171Q   26257.11672854  .00001678  00000+0  24903-3 0  9996
2 65146  51.9022  47.4209 0000485 110.2217 249.8797 14.79928736 60761
KUIPER-00109            
1 65147U 25171R   26256.68315756 -.00000050  00000+0  22404-4 0  9992
2 65147  51.9009  44.2773 0000687 112.2570 247.8465 14.79924587 60766
KUIPER-00110            
1 65148U 25171S   26257.17617394  .00002367  00000+0  33944-3 0  9993
2 65148  51.9014  54.6456 0000558 121.3236 238.7781 14.79928877 60657
KUIPER-00111            
1 65149U 25171T   26256.86687161 -.00000879  00000+0 -86352-4 0  9998
2 65149  51.8961  60.8726 0000900 135.1051 224.9984 14.79924912 60542
KUIPER-00112            
1 65150U 25171U   26256.71693515  .00000170  00000+0  51359-4 0  9995
2 65150  51.9031  44.1748 0000661 126.7141 233.3882 14.79924032 60760
KUIPER-00114            
1 65151U 25171V   26257.20184045  .00002372  00000+0  33998-3 0  9998
2 65151  51.8992  61.9890 0000686 120.8180 239.2850 14.79932168 60552
KUIPER-00115            
1 65152U 25171W   26257.14240192  .00002397  00000+0  34335-3 0  9991
2 65152  51.9007  54.7604 0000609 113.6750 246.4276 14.79932715 60653
KUIPER-00116            
1 65153U 25171X   26256.90064796  .00002514  00000+0  35858-3 0  9991
2 65153  51.9003  60.8611 0000640 109.0401 251.0631 14.79940112 60548
KUIPER-00118            
1 65154U 25171Y   26257.16805015 -.00001094  00000+0 -11452-3 0  9996
2 65154  51.9001  62.1263 0000491  79.8576 280.2442 14.79936718 60558
KUIPER-00119            
1 65155U 25171Z   26256.84391284  .00000314  00000+0  70267-4 0  9991
2 65155  51.9008  51.1625 0000822 115.4640 244.6408 14.79924642 60675
KUIPER-00120            
1 65762U 25217A   26257.08072996  .00002098  00000+0  30418-3 0  9993
2 65762  51.9002 299.9834 0000476  77.2455 282.8560 14.79926238 52634
KUIPER-00132            
1 65763U 25217B   26257.15575031  .00029841  00000+0  75885-3 0  9992
2 65763  51.8526 166.2287 0005246 276.4272  83.6118 15.39347097 54492
KUIPER-00133            
1 65764U 25217C   26257.11450809  .00000596  00000+0  10715-3 0  9991
2 65764  51.9049 299.9712 0000643  76.5175 283.5859 14.79931845 52649
KUIPER-00139            
1 65765U 25217D   26257.28460143  .00001843  00000+0  27072-3 0  9992
2 65765  51.8983 266.6453 0000613  48.5947 311.5068 14.79933374 53129
KUIPER-00142            
1 65766U 25217E   26257.09959670  .00000249  00000+0  61712-4 0  9999
2 65766  51.8996 282.4303 0000496  77.3053 282.7964 14.79926486 52883
KUIPER-00145            
1 65767U 25217F   26256.35407520  .00001818  00000+0  26748-3 0  9992
2 65767  51.9007 288.2526 0000446  66.1290 293.9719 14.79925450 52739
KUIPER-00147            
1 65768U 25217G   26257.06043307  .00001924  00000+0  28125-3 0  9990
2 65768  51.8992 287.6022 0000453  31.9126 328.1864 14.79935628 52800
KUIPER-00148            
1 65769U 25217H   26256.47155424  .00001896  00000+0  27762-3 0  9993
2 65769  51.9047 272.7548 0000521  94.4921 265.6101 14.79930663 52964
KUIPER-00150            
1 65770U 25217J   26256.50941979  .00002014  00000+0  29311-3 0  9992
2 65770  51.9021 300.0871 0000456  92.9770 267.1244 14.79937272 52580
KUIPER-00151            
1 65771U 25217K   26257.12528991  .00001974  00000+0  28790-3 0  9991
2 65771  51.9018 289.8616 0000495  82.2345 277.8673 14.79924813 52784
KUIPER-00152            
1 65772U 25217L   26256.36215034  .00001904  00000+0  27863-3 0  9991
2 65772  51.9013 280.7163 0000361  45.2279 314.8712 14.79937634 52842
KUIPER-00153            
1 65773U 25217M   26257.04285880  .00000012  00000+0  30594-4 0  9999
2 65773  51.9022 272.7909 0000582 117.7726 242.3295 14.79932942 53017
KUIPER-00155            
1 65774U 25217N   26257.00499649  .00000629  00000+0  11146-3 0  9991
2 65774  51.9026 245.4227 0000663  98.8887 261.2151 14.79926991 53398
KUIPER-00156            
1 65775U 25217P   26257.00910066  .00000742  00000+0  12637-3 0  9995
2 65775  51.9031 272.9268 0000505  65.9285 294.1731 14.79930635 53004
KUIPER-00165            
1 65778U 25217S   26257.06561304 -.00016840  00000+0 -21813-2 0  9994
2 65778  51.9020 282.6074 0000440 139.3861 220.7134 14.80012500 52872
KUIPER-00166            
1 65779U 25217T   26257.31566719  .00000136  00000+0  46814-4 0  9997
2 65779  51.9013 269.0636 0000533  92.3614 267.7410 14.79921170 53087
KUIPER-00167            
1 65780U 25217U   26257.12257972  .00001985  00000+0  28932-3 0  9999
2 65780  51.8965 292.2393 0000486  66.1162 293.9851 14.79930951 52745
KUIPER-00168            
1 65781U 25217V   26257.07393184  .00000482  00000+0  92171-4 0  9998
2 65781  51.9009 275.0763 0000525  63.5993 296.5023 14.79927184 52983
KUIPER-00169            
1 65782U 25217W   26256.79841642  .00000973  00000+0  15657-3 0  9992
2 65782  51.9007 281.3062 0000669 108.5250 251.5785 14.79927418 52873
KUIPER-00170            
1 65783U 25217X   26256.38782114  .00001935  00000+0  28277-3 0  9997
2 65783  51.8995 288.0669 0000447  78.3399 281.7613 14.79935558 52743
KUIPER-00172            
1 65785U 25217Z   26256.30540522  .00003119  00000+0  43791-3 0  9990
2 65785  51.8983 270.9630 0000738  38.5036 321.5979 14.79933845 52979
KUIPER-00173            
1 65786U 25217AA  26256.29194322  .00001901  00000+0  27832-3 0  9997
2 65786  51.9009 283.5384 0000347  50.6137 309.4856 14.79933509 52795
KUIPER-00174            
1 65787U 25217AB  26256.29730656 -.00000075  00000+0  19120-4 0  9998
2 65787  51.9023 278.5779 0000992  16.3738 343.7256 14.79938771 52865
KUIPER-00176            
1 65788U 25217AC  26257.09151779  .00001951  00000+0  28485-3 0  9997
2 65788  51.9011 289.9831 0000560  51.6505 308.4508 14.79924705 52773
KUIPER-00101            
1 65947U 25228A   26257.23864208  .00001803  00000+0  26544-3 0  9990
2 65947  51.8973 246.7779 0000619  72.3252 287.7778 14.79930913 51159
KUIPER-00113            
1 65948U 25228B   26257.00761450 -.00001325  00000+0 -14482-3 0  9990
2 65948  51.8982 242.8204 0000842  79.7385 280.3672 14.79928857 51185
KUIPER-00117            
1 65949U 25228C   26256.97121637  .00000586  00000+0  10580-3 0  9994
2 65949  51.8972 245.4799 0000641  59.5415 300.5610 14.79932322 51145
KUIPER-00121            
1 65950U 25228D   26256.67273239  .00002251  00000+0  32414-3 0  9990
2 65950  51.8984 241.8234 0000676  63.2355 296.8677 14.79929879 51173
KUIPER-00122            
1 65951U 25228E   26256.18922981  .00001955  00000+0  28533-3 0  9999
2 65951  51.8986 253.9303 0000909  62.9179 297.1876 14.79938201 50966
KUIPER-00123            
1 65952U 25228F   26256.69570792  .00002004  00000+0  29180-3 0  9990
2 65952  51.8990 251.7000 0000631  47.0296 313.0719 14.79931832 51034
KUIPER-00124            
1 65953U 25228G   26257.24403682  .00000358  00000+0  75946-4 0  9998
2 65953  51.8980 241.7640 0000767  46.9615 313.1412 14.79930536 51228
KUIPER-00125            
1 65954U 25228H   26257.19270224  .00002099  00000+0  30430-3 0  9999
2 65954  51.8996 227.0441 0000825  70.8550 289.2501 14.79926887 51429
KUIPER-00126            
1 65955U 25228J   26257.00229836  .00002145  00000+0  31036-3 0  9998
2 65955  51.8989 247.8661 0000542  78.6874 281.4149 14.79926826 51118
KUIPER-00127            
1 65956U 25228K   26256.45326056  .00002096  00000+0  30392-3 0  9998
2 65956  51.9005 242.7745 0000589  53.3876 306.7140 14.79930470 51144
KUIPER-00128            
1 65957U 25228L   26257.24675093  .00002136  00000+0  30906-3 0  9991
2 65957  51.9008 239.3324 0000591  72.5534 287.5493 14.79928972 51253
KUIPER-00129            
1 65958U 25228M   26257.21836228  .00002212  00000+0  31916-3 0  9995
2 65958  51.8993 234.4356 0000617  66.7231 293.3796 14.79924107 51320
KUIPER-00130            
1 65959U 25228N   26256.91179218  .00002079  00000+0  30162-3 0  9994
2 65959  51.9014 238.3376 0000654  72.1735 287.9298 14.79931540 41539
KUIPER-00134            
1 65960U 25228P   26257.03226240  .00022431  00000+0  60230-3 0  9991
2 65960  51.8709 125.9413 0004083 246.3170 113.7389 15.37841479 52818
KUIPER-00135            
1 65961U 25228Q   26256.94555956  .00002358  00000+0  33823-3 0  9994
2 65961  51.9010 238.2391 0000539  79.1021 281.0002 14.79921947 51248
KUIPER-00136            
1 65962U 25228R   26256.98199862  .00002384  00000+0  34152-3 0  9994
2 65962  51.9000 235.5251 0000723  47.2386 312.8637 14.79941371 51282
KUIPER-00137            
1 65963U 25228S   26256.91719080  .00000888  00000+0  14554-3 0  9999
2 65963  51.9020 233.3220 0000991  36.3500 323.7529 14.79929931 51314
KUIPER-00138            
1 65964U 25228T   26257.29129012  .00002407  00000+0  34460-3 0  9999
2 65964  51.8975 229.0662 0000754  59.4954 300.6082 14.79931521 51407
KUIPER-00140            
1 65965U 25228U   26257.28860054  .00000264  00000+0  63700-4 0  9996
2 65965  51.8990 231.6721 0000980  63.1905 296.9158 14.79928083 51364
KUIPER-00141            
1 65966U 25228V   26257.22646629  .00000963  00000+0  15540-3 0  9995
2 65966  51.9022 227.0224 0001005  94.5212 265.5866 14.79926281 51420
KUIPER-00146            
1 65967U 25228W   26256.91988973  .00002276  00000+0  32738-3 0  9999
2 65967  51.9020 230.8906 0000826  55.8667 304.2374 14.79935765 51345
KUIPER-00149            
1 65968U 25228X   26256.95903806  .00002414  00000+0  34564-3 0  9999
2 65968  51.9000 225.5909 0000701  69.8769 290.2269 14.79926520 51423
KUIPER-00154            
1 65969U 25228Y   26256.92797067 -.00000258  00000+0 -48289-5 0  9994
2 65969  51.8980 223.2110 0000883  72.1604 287.9454 14.79924471 51450
KUIPER-00157            
1 65970U 25228Z   26257.33335648  .00036208  00000+0  51404-2 0  9997
2 65970  51.9007 223.4990 0001686 118.4182 195.2895 14.76607939  5608
KUIPER-00144            
1 67133U 25301A   26257.24684993  .00001907  00000+0  27915-3 0  9991
2 67133  51.9021 301.8261 0000604  70.6075 289.4953 14.79931207 41790
KUIPER-00164            
1 67134U 25301B   26256.89573638  .00000562  00000+0  10270-3 0  9997
2 67134  51.9046 315.8983 0000383  77.3098 282.7907 14.79927683 41740
KUIPER-00175            
1 67135U 25301C   26257.08342284  .00002009  00000+0  29238-3 0  9993
2 67135  51.9009 297.5020 0000343  50.4720 309.6273 14.79936487 41914
KUIPER-00179            
1 67136U 25301D   26256.89841066  .00003609  00000+0  50210-3 0  9995
2 67136  51.9007 313.3185 0000464 184.7665 175.3293 14.79942315 41787
KUIPER-00181            
1 67137U 25301E   26257.15507053  .00000363  00000+0  76601-4 0  9998
2 67137  51.9032 324.7472 0000282  74.4172 285.6821 14.79927577 41625
KUIPER-00183            
1 67138U 25301F   26256.41082928  .00001956  00000+0  28540-3 0  9993
2 67138  51.9030 298.0443 0000330  74.4546 285.6453 14.79937176 41946
KUIPER-00184            
1 67139U 25301G   26257.14017134  .00000609  00000+0  10893-3 0  9998
2 67139  51.9003 307.2615 0000453  67.8890 292.2120 14.79927156 41981
KUIPER-00186            
1 67140U 25301H   26257.18881863  .00001364  00000+0  20792-3 0  9990
2 67140  51.9039 324.6069 0000312 107.5871 252.5125 14.79931138 41476
KUIPER-00187            
1 67141U 25301J   26257.18614234  .00000910  00000+0  14837-3 0  9996
2 67141  51.9035 327.1475 0000439  93.5144 266.5869 14.79926980 41434
KUIPER-00188            
1 67142U 25301K   26257.11989737  .00001975  00000+0  28798-3 0  9996
2 67142  51.9036 295.0251 0000407  61.0225 299.0778 14.79932375 41879
KUIPER-00191            
1 67143U 25301L   26256.55269806  .00002136  00000+0  30904-3 0  9994
2 67143  51.9025 322.4226 0000375  85.9112 274.1893 14.79932363 41474
KUIPER-00196            
1 67144U 25301M   26256.80110792  .00001301  00000+0  19960-3 0  9994
2 67144  51.8977 278.7764 0000479  74.4241 285.6774 14.79930834 42074
KUIPER-00204            
1 67145U 25301N   26256.41352573  .00000344  00000+0  74161-4 0  9998
2 67145  51.9023 295.5271 0000519  72.0936 288.0083 14.79925266 41924
KUIPER-00210            
1 67146U 25301P   26256.38385676  .00002142  00000+0  30982-3 0  9995
2 67146  51.9016 323.1152 0000395  87.2500 272.8508 14.79935397 41592
KUIPER-00221            
1 67147U 25301Q   26257.21989964  .00002099  00000+0  30428-3 0  9995
2 67147  51.9023 326.9541 0000615  74.7889 285.3141 14.79928894 41440
KUIPER-00232            
1 67148U 25301R   26256.52701419  .00000583  00000+0  10546-3 0  9991
2 67148  51.9005 315.0281 0000483  93.2123 266.8895 14.79929407 41543
KUIPER-00241            
1 67149U 25301S   26256.48246386  .00000692  00000+0  11973-3 0  9990
2 67149  51.9048 325.2472 0000513  89.0207 271.0814 14.79927973 41732
KUIPER-00245            
1 67150U 25301T   26256.47438045  .00000925  00000+0  15026-3 0  9998
2 67150  51.9041 332.7918 0000402  94.4337 265.6671 14.79931654 41298
KUIPER-00246            
1 67151U 25301U   26256.38924845  .00002161  00000+0  31234-3 0  9990
2 67151  51.9018 318.1056 0000362  86.1050 273.9953 14.79935743 41512
KUIPER-00247            
1 67152U 25301V   26257.14286122  .00001998  00000+0  29106-3 0  9997
2 67152  51.8975 304.7195 0000454  89.4530 270.6485 14.79929201 41741
KUIPER-00248            
1 67153U 25301W   26256.35139404  .00001799  00000+0  26490-3 0  9992
2 67153  51.8993 290.8638 0000441  87.1434 272.9579 14.79930140 42039
KUIPER-00249            
1 67154U 25301X   26256.53780896  .00000931  00000+0  15114-3 0  9998
2 67154  51.8991 304.9764 0000412  59.3994 300.7009 14.79926960 41688
KUIPER-00250            
1 67155U 25301Y   26257.16314055  .00001781  00000+0  26262-3 0  9999
2 67155  51.9009 317.1598 0000652  59.4465 300.6562 14.79924025 41606
KUIPER-00251            
1 67156U 25301Z   26257.10911932  .00001982  00000+0  28899-3 0  9992
2 67156  51.9017 304.9753 0000381  85.6750 274.4256 14.79926401 41923
KUIPER-00252            
1 67157U 25301AA  26257.17394019  .00000179  00000+0  52482-4 0  9994
2 67157  51.8998 307.1375 0000292  71.9295 288.1699 14.79929340 41714
KUIPER-00261            
1 67158U 25301AB  26257.12939860  .00002141  00000+0  30974-3 0  9991
2 67158  51.9035 317.4003 0000321  85.5299 274.5700 14.79933364 41564
KUIPER-00265            
1 67159U 25301AC  26256.40412441  .00002471  00000+0  35320-3 0  9999
2 67159  51.9041 335.5837 0000796 105.9257 254.1793 14.79915583 41283
KUIPER-00159            
1 67764U 26030A   26256.79834603  .00001754  00000+0  27947-3 0  9990
2 67764  51.9011  52.3820 0000248 118.6057 241.4929 14.76574159 33715
KUIPER-00160            
1 67765U 26030B   26257.33335648 -.00006321  00000+0 -69141-3 0  9996
2 67765  51.8987  31.5931 0008638 339.8859 217.6603 14.85901196  5805
KUIPER-00177            
1 67766U 26030C   26256.82372500 -.00000148  00000+0  96257-5 0  9998
2 67766  51.9013 101.1991 0000790  80.2873 279.8178 14.79911066 33034
KUIPER-00178            
1 67767U 26030D   26257.26270295  .00002213  00000+0  31925-3 0  9999
2 67767  51.8990  99.2380 0000667  98.6995 261.4043 14.79928450 33109
KUIPER-00180            
1 67768U 26030E   26256.93043260  .00001073  00000+0  16979-3 0  9998
2 67768  51.8973  95.6995 0000904 122.7656 237.3394 14.79927938 33123
KUIPER-00197            
1 67769U 26030F   26257.22212755  .00002336  00000+0  33538-3 0  9992
2 67769  51.8989  74.4271 0000784 113.6085 246.4960 14.79928125 33448
KUIPER-00198            
1 67770U 26030G   26256.83722915  .00000830  00000+0  13794-3 0  9993
2 67770  51.8981  88.6036 0000935 121.9488 238.1565 14.79925765 33216
KUIPER-00199            
1 67771U 26030H   26257.33335648 -.01920349  00000+0 -82425-1 0  9997
2 67771  51.8838  29.2880 0010428   7.6723 310.2925 15.25382758  5005
KUIPER-00200            
1 67772U 26030J   26256.92094119  .00000393  00000+0  80523-4 0  9992
2 67772  51.8989  73.2759 0000732 104.3048 255.7995 14.79923101 33438
KUIPER-00203            
1 67773U 26030K   26257.02095095  .00002481  00000+0  35437-3 0  9992
2 67773  51.9049 105.4055 0000992 100.4695 259.6379 14.79929714 32992
KUIPER-00205            
1 67774U 26030L   26256.92362935  .00002508  00000+0  35789-3 0  9991
2 67774  51.8998  70.7293 0000693 102.0742 258.0298 14.79932674 33478
KUIPER-00208            
1 67775U 26030M   26257.26539290  .00002159  00000+0  31217-3 0  9994
2 67775  51.8967  96.7163 0001325 106.7883 253.3225 14.79930174 33133
KUIPER-00209            
1 67776U 26030N   26256.96420700  .00002419  00000+0  34625-3 0  9991
2 67776  51.8987  95.6484 0000934 117.6745 242.4312 14.79935039 33123
KUIPER-00213            
1 67777U 26030P   26257.13572896  .00000748  00000+0  12716-3 0  9996
2 67777  51.8959  92.3496 0000726 108.7027 251.4015 14.79928128 33180
KUIPER-00214            
1 67778U 26030Q   26256.96959980  .00002309  00000+0  33176-3 0  9998
2 67778  51.8988  90.6179 0000659 105.2866 254.8169 14.79937186 33192
KUIPER-00215            
1 67779U 26030R   26256.94928951  .00002469  00000+0  35275-3 0  9990
2 67779  51.8978  78.0616 0000685 112.8432 247.2603 14.79935225 33371
KUIPER-00218            
1 67780U 26030S   26256.96689803  .00002434  00000+0  34819-3 0  9999
2 67780  51.8968  93.0247 0000768 103.6116 256.4932 14.79925384 33167
KUIPER-00220            
1 67781U 26030T   26256.92632459  .00001096  00000+0  17279-3 0  9995
2 67781  51.8969  68.2294 0000497  81.0771 279.0247 14.79928456 33501
KUIPER-00222            
1 67782U 26030U   26256.93853903  .00002452  00000+0  35063-3 0  9994
2 67782  51.8977  88.3098 0000984 110.9445 249.1622 14.79922648 33228
KUIPER-00223            
1 67783U 26030V   26257.25046944 -.00000223  00000+0 -24886-6 0  9990
2 67783  51.9014  79.2394 0000755 109.4211 250.6833 14.79918168 33380
KUIPER-00225            
1 67784U 26030W   26256.90745668  .00000075  00000+0  38867-4 0  9996
2 67784  51.8962  85.9016 0000798 127.5651 232.5384 14.79925809 33259
KUIPER-00226            
1 67785U 26030X   26257.33335648  .00030660  00000+0  39813-2 0  9991
2 67785  51.8991  71.4126 0002428 310.2214 262.7019 14.80468499  5373
KUIPER-00259            
1 67786U 26030Y   26256.94121771  .00000427  00000+0  85072-4 0  9996
2 67786  51.8985  85.6566 0000813 112.3086 247.7963 14.79926691 33267
KUIPER-00260            
1 67787U 26030Z   26257.21404342  .00001801  00000+0  26513-3 0  9997
2 67787  51.9001  82.0602 0000836 116.2099 243.8949 14.79934899 33240
KUIPER-00262            
1 67788U 26030AA  26256.91015210  .00002402  00000+0  34408-3 0  9996
2 67788  51.8993  83.3209 0001127 106.8845 253.2241 14.79929205 33295
KUIPER-00266            
1 67789U 26030AB  26257.21673593  .00002280  00000+0  32802-3 0  9995
2 67789  51.8987  79.4566 0001016 105.1453 254.9621 14.79931973 33379
KUIPER-00268            
1 67790U 26030AC  26256.78048545  .00001080  00000+0  17068-3 0  9995
2 67790  51.9026  78.9258 0001066 116.8955 243.2117 14.79929218 33346
KUIPER-00270            
1 67791U 26030AD  26256.89256164  .00003429  00000+0  47876-3 0  9995
2 67791  51.9002  68.3829 0000914  90.4919 269.6148 14.79911952 33506
KUIPER-00274            
1 67792U 26030AE  26256.93582537  .00002316  00000+0  33274-3 0  9998
2 67792  51.9026  90.7057 0000691 107.1265 252.9774 14.79929214 33192
KUIPER-00275            
1 67793U 26030AF  26256.68726679 -.00000547  00000+0 -42777-4 0  9993
2 67793  51.8994  71.7992 0001255 122.3800 237.7284 14.79925839 33437
KUIPER-00276            
1 67794U 26030AG  26256.91823316  .00002454  00000+0  35072-3 0  9992
2 67794  51.8982  75.7554 0001097  89.1619 270.9469 14.79935944 33404
KUIPER-00279            
1 67795U 26030AH  26256.89526082  .00002528  00000+0  36040-3 0  9998
2 67795  51.9026  65.9055 0000799 113.9117 246.1929 14.79937256 33537
KUIPER-00131            
1 68573U 26072A   26257.16152160  .00000468  00000+0  90447-4 0  9995
2 68573  51.9005 162.2082 0000853  95.9033 264.2027 14.79927177 24291
KUIPER-00189            
1 68574U 26072B   26257.12504653  .00001717  00000+0  25424-3 0  9990
2 68574  51.8981 164.8455 0000976  98.5389 261.5684 14.79923983 24251
KUIPER-00192            
1 68575U 26072C   26257.16421719  .00000908  00000+0  14815-3 0  9999
2 68575  51.8995 159.6906 0001107  93.1877 266.9212 14.79932364 24338
KUIPER-00193            
1 68576U 26072D   26257.10747608  .00001313  00000+0  20116-3 0  9994
2 68576  51.9037 149.9876 0001123 101.8469 258.2620 14.79931278 24461
KUIPER-00194            
1 68577U 26072E   26257.13315163  .00001804  00000+0  26567-3 0  9996
2 68577  51.9015 157.3536 0000910  90.8850 269.2216 14.79930146 24363
KUIPER-00229            
1 68578U 26072F   26257.12774786  .00002637  00000+0  37466-3 0  9991
2 68578  51.9006 162.3592 0000761 103.7936 256.3112 14.79938803 24297
KUIPER-00230            
1 68579U 26072G   26257.33335648 -.00049540  00000+0 -49648-2 0  9995
2 68579  51.8929 108.8866 0004773   5.5209  77.2302 14.91043460  1307
KUIPER-00231            
1 68580U 26072H   26257.08989769  .00000910  00000+0  14842-3 0  9993
2 68580  51.8979 135.0989 0002088  99.7800 260.3398 14.79931593 24664
KUIPER-00234            
1 68581U 26072J   26257.09937732  .00002847  00000+0  40233-3 0  9992
2 68581  51.8995 157.4680 0001217  80.9909 279.1191 14.79929418 24352
KUIPER-00236            
1 68582U 26072K   26257.33335648 -.00073378  00000+0 -94568-2 0  9996
2 68582  51.9022 111.2965 0001063 111.5539 232.4089 14.81001527  5811
KUIPER-00244            
1 68583U 26072L   26257.07640156  .00002803  00000+0  39650-3 0  9996
2 68583  51.8994 147.5932 0000972  93.2456 266.8618 14.79937180 24491
KUIPER-00253            
1 68584U 26072M   26256.73605942 -.00000428  00000+0 -27072-4 0  9992
2 68584  51.9018 151.6231 0001075  91.6065 268.5021 14.79927883 24408
KUIPER-00254            
1 68585U 26072N   26257.10477565 -.00000334  00000+0 -14805-4 0  9999
2 68585  51.9012 152.4903 0001538  64.6448 295.4674 14.79926608 24426
KUIPER-00263            
1 68586U 26072P   26257.05343010  .00002906  00000+0  41009-3 0  9991
2 68586  51.9005 137.7841 0000684  96.7679 263.3361 14.79929938 24627
KUIPER-00269            
1 68587U 26072Q   26257.05072906  .00002905  00000+0  40992-3 0  9994
2 68587  51.8995 140.2042 0001093  94.6652 265.4435 14.79930658 24592
KUIPER-00272            
1 68588U 26072R   26257.13044479 -.00000329  00000+0 -14190-4 0  9990
2 68588  51.8980 159.8202 0001024  87.4404 272.6676 14.79925441 24322
KUIPER-00285            
1 68589U 26072S   26257.08450720  .00002625  00000+0  37321-3 0  9994
2 68589  51.9038 140.1359 0001397  63.8630 296.2476 14.79932208 24594
KUIPER-00286            
1 68590U 26072T   26257.08719077  .00001193  00000+0  18555-3 0  9996
2 68590  51.9019 137.5536 0000768 104.8613 255.2435 14.79928355 24633
KUIPER-00289            
1 68591U 26072U   26257.07909884  .00000491  00000+0  93394-4 0  9998
2 68591  51.8989 145.0674 0001070  88.7612 271.3473 14.79929169 24525
KUIPER-00290            
1 68592U 26072V   26255.96047290  .00001329  00000+0  21992-3 0  9994
2 68592  51.9019 149.9749 0001573  38.2862 321.8211 14.76419669 24361
KUIPER-00293            
1 68593U 26072W   26257.13583918 -.00000023  00000+0  26051-4 0  9991
2 68593  51.8971 154.7962 0001759  37.4689 322.6396 14.79926373 24397
KUIPER-00294            
1 68594U 26072X   26256.94673367  .00002680  00000+0  38039-3 0  9996
2 68594  51.8988 143.1535 0000724 101.7048 258.3995 14.79933791 24548
KUIPER-00296            
1 68595U 26072Y   26255.91888950  .00002125  00000+0  30770-3 0  9997
2 68595  51.9005 130.2166 0000792 100.6552 259.4500 14.79932629 24633
KUIPER-00297            
1 68596U 26072Z   26257.10207267  .00001438  00000+0  21763-3 0  9995
2 68596  51.9001 154.9432 0001507  97.7875 262.3258 14.79928153 24391
KUIPER-00300            
1 68597U 26072AA  26256.46324265  .00000956  00000+0  15444-3 0  9995
2 68597  51.9024 155.3038 0000720  92.2687 267.8358 14.79929224 24336
KUIPER-00301            
1 68598U 26072AB  26257.00905104  .00001617  00000+0  26064-3 0  9999
2 68598  51.9026 122.2766 0002041 173.7737 186.3250 14.76495468 24835
KUIPER-00304            
1 68599U 26072AC  26257.03933925  .00001503  00000+0  24363-3 0  9999
2 68599  51.9008 124.1007 0000525  10.1932 349.9039 14.76611526 24816
KUIPER-00317            
1 68600U 26072AD  26257.04802449  .00002859  00000+0  40382-3 0  9993
2 68600  51.8977 142.7113 0000718  96.7262 263.3782 14.79935545 24555
KUIPER-00320            
1 68601U 26072AE  26257.11017140  .00001387  00000+0  21090-3 0  9998
2 68601  51.9035 147.4533 0000819  99.9030 260.2025 14.79932847 24491
KUIPER-00299            
1 68864U 26095A   26257.33335648  .00040234  00000+0  52692-2 0  9999
2 68864  51.8986 216.4271 0001346  69.7239 263.1978 14.79980183  3856
KUIPER-00353            
1 68865U 26095B   26256.24047940  .00002496  00000+0  35630-3 0  9996
2 68865  51.8997 206.2866 0000794  70.7227 289.3821 14.79933521 20862
KUIPER-00357            
1 68866U 26095C   26257.27910761  .00000667  00000+0  11653-3 0  9998
2 68866  51.9002 209.2033 0001077  50.0242 310.0814 14.79924343 20915
KUIPER-00364            
1 68867U 26095D   26257.24264144  .00002641  00000+0  37525-3 0  9993
2 68867  51.9033 211.8868 0001340  40.4965 319.6097 14.79936018 20878
KUIPER-00375            
1 68868U 26095E   26257.21697570  .00002454  00000+0  35082-3 0  9992
2 68868  51.9005 204.4745 0000814  78.3448 281.7606 14.79929534 20972
KUIPER-00433            
1 68869U 26095F   26257.26831951  .00002820  00000+0  39874-3 0  9991
2 68869  51.9004 219.2413 0000969  47.5512 312.5532 14.79934893 20772
KUIPER-00437            
1 68870U 26095G   26257.25003472 -.01738585  00000+0 -10948+0 0  9995
2 68870  51.8849 172.9061 0007434 267.4527 188.1968 15.11950235  5416
KUIPER-00448            
1 68871U 26095H   26257.15814329  .00001626  00000+0  26294-3 0  9997
2 68871  51.9033 209.5304 0003257  36.7016 323.4168 14.76327213 20898
KUIPER-00459            
1 68872U 26095J   26257.22507016  .00001158  00000+0  18086-3 0  9998
2 68872  51.9003 197.0013 0000840  84.3434 275.7625 14.79927675 21071
KUIPER-00468            
1 68873U 26095K   26257.21326899  .00001787  00000+0  28387-3 0  9999
2 68873  51.8982 194.4525 0000907 163.0139 197.0852 14.76621515 21111
KUIPER-00476            
1 68874U 26095L   26257.25003472  .00017318  00000+0  14382-2 0  9999
2 68874  51.8879 177.3628 0010223 249.8513 139.9665 14.98790540  5435
KUIPER-00478            
1 68875U 26095M   26257.22235957  .00002608  00000+0  37098-3 0  9998
2 68875  51.8995 199.4489 0000884  77.0308 283.0753 14.79929720 21047
KUIPER-00480            
1 68876U 26095N   26257.25881618  .00000100  00000+0  42112-4 0  9992
2 68876  51.9042 196.8007 0000618 101.2507 258.8525 14.79933296 21089
KUIPER-00482            
1 68877U 26095P   26256.91038632  .00002636  00000+0  37464-3 0  9994
2 68877  51.9007 208.3288 0001325  17.2997 342.8011 14.79937060 20891
KUIPER-00483            
1 68878U 26095Q   26257.16679470  .00002082  00000+0  30176-3 0  9992
2 68878  51.8986 219.6571 0001737 326.2726  33.8126 14.79977067 20757
KUIPER-00488            
1 68879U 26095R   26257.15213933  .00000651  00000+0  11447-3 0  9990
2 68879  51.8982 202.2661 0001125  71.9738 288.1347 14.79927643 20991
KUIPER-00489            
1 68880U 26095S   26257.22776112  .00002574  00000+0  36653-3 0  9995
2 68880  51.8971 194.4144 0001118  73.6637 286.4448 14.79928634 21117
KUIPER-00499            
1 68881U 26095T   26257.25614130  .00002540  00000+0  36209-3 0  9990
2 68881  51.8989 199.3481 0001021  60.1918 299.9146 14.79933840 21042
KUIPER-00500            
1 68882U 26095U   26257.23725308 -.00000599  00000+0 -49619-4 0  9993
2 68882  51.8997 216.8830 0000717  83.8142 276.2902 14.79922863 20801
KUIPER-00502            
1 68883U 26095V   26257.18689766  .00000442  00000+0  87019-4 0  9996
2 68883  51.8995 193.3582 0001282  61.5633 298.5458 14.79924282 21125
KUIPER-00503            
1 68884U 26095W   26257.27370932  .00002634  00000+0  37434-3 0  9999
2 68884  51.8974 214.1943 0000864  63.1372 296.9679 14.79932907 20847
KUIPER-00504            
1 68885U 26095X   26257.16431977  .00002251  00000+0  32422-3 0  9992
2 68885  51.9007 222.2103 0000594  79.0012 281.1017 14.79922373 20726
KUIPER-00505            
1 68886U 26095Y   26257.27640071  .00002694  00000+0  38226-3 0  9991
2 68886  51.9010 211.7153 0000567  86.7487 273.3540 14.79923640 20878
KUIPER-00507            
1 68887U 26095Z   26257.20278232 -.00000523  00000+0 -39585-4 0  9992
2 68887  51.8994 202.0257 0000812  76.7821 283.3232 14.79923231 21002
KUIPER-00511            
1 68888U 26095AA  26257.19398022  .00002933  00000+0  41355-3 0  9993
2 68888  51.9021 194.6760 0000719  32.9744 327.1263 14.79941237 21102
KUIPER-00512            
1 68889U 26095AB  26257.23995542  .00002454  00000+0  35084-3 0  9999
2 68889  51.9007 214.3791 0000822  68.2731 291.8319 14.79930253 20838
KUIPER-00519            
1 68890U 26095AC  26257.04813902  .00002657  00000+0  37731-3 0  9995
2 68890  51.9038 205.2921 0000816  88.8402 271.2654 14.79940449 20948
KUIPER-00521            
1 68891U 26095AD  26257.11398321  .00001676  00000+0  24885-3 0  9993
2 68891  51.9048 198.6939 0000810  90.8213 269.2842 14.79934035 21043
KUIPER-00524            
1 68892U 26095AE  26256.87662866  .00001320  00000+0  20217-3 0  9995
2 68892  51.8976 208.4593 0001019  54.5010 305.6048 14.79932275 20881
KUIPER-00370            
1 68919U 26098A   26256.76956676  .00002739  00000+0  38817-3 0  9991
2 68919  51.8994  26.3110 0000481 100.5028 259.5988 14.79926259 20601
KUIPER-00380            
1 68920U 26098B   26256.77767710  .00002952  00000+0  41607-3 0  9991
2 68920  51.8991  18.9141 0000432  92.6187 267.4825 14.79930043 20709
KUIPER-00386            
1 68921U 26098C   26256.38668298  .00002632  00000+0  37423-3 0  9996
2 68921  51.9002  23.1372 0000558 107.9808 252.1215 14.79925632 20619
KUIPER-00388            
1 68922U 26098D   26257.10185831  .00001089  00000+0  17189-3 0  9997
2 68922  51.9029  30.1349 0000520 121.5765 238.5248 14.79927325 20574
KUIPER-00405            
1 68923U 26098E   26256.58118294  .00002746  00000+0  38914-3 0  9998
2 68923  51.9031  29.7912 0001096 179.7848 180.3115 14.79930522 20530
KUIPER-00408            
1 68924U 26098F   26257.04508934  .00001563  00000+0  23401-3 0  9996
2 68924  51.8984  20.1531 0000606  98.1120 261.9911 14.79925610 20714
KUIPER-00409            
1 68925U 26098G   26256.75269689  .00000092  00000+0  41068-4 0  9991
2 68925  51.9028  26.5345 0000551  86.3328 273.7698 14.79925266 20592
KUIPER-00410            
1 68926U 26098H   26257.09304979  .00002894  00000+0  40848-3 0  9998
2 68926  51.8992  22.5049 0001202 138.9475 221.1578 14.79931826 20683
KUIPER-00412            
1 68927U 26098J   26257.01671867  .00001714  00000+0  25384-3 0  9992
2 68927  51.9058  15.3729 0000609 136.6696 223.4315 14.79929777 20779
KUIPER-00413            
1 68928U 26098K   26256.56429784  .00000832  00000+0  13810-3 0  9992
2 68928  51.9001  29.8488 0000799 154.3106 205.7896 14.79928670 20535
KUIPER-00414            
1 68929U 26098L   26256.78987735 -.00001114  00000+0 -11703-3 0  9997
2 68929  51.8970  38.9350 0002032 127.7839 232.3307 14.79935640 20424
KUIPER-00415            
1 68930U 26098M   26257.07886676  .00003005  00000+0  42310-3 0  9991
2 68930  51.9027  20.0889 0000542 100.7392 259.3632 14.79929681 20718
KUIPER-00416            
1 68931U 26098N   26257.02924686  .00002774  00000+0  39243-3 0  9994
2 68931  51.9033  11.6609 0000677  94.5071 265.5969 14.79965530 20822
KUIPER-00420            
1 68932U 26098P   26256.54670533  .00002909  00000+0  41045-3 0  9993
2 68932  51.9016  14.9038 0000510 111.2976 248.8041 14.79925827 20744
KUIPER-00421            
1 68933U 26098Q   26256.54131360  .00002795  00000+0  39545-3 0  9999
2 68933  51.9034  19.9120 0000540 103.7639 256.3383 14.79934577 20674
KUIPER-00425            
1 68934U 26098R   26256.73582286  .00002799  00000+0  39608-3 0  9992
2 68934  51.8999  26.5974 0000507 112.3974 247.7042 14.79928821 20598
KUIPER-00430            
1 68935U 26098S   26256.53051842  .00001149  00000+0  17969-3 0  9994
2 68935  51.9044  29.9036 0001234 121.7258 238.3825 14.79926275 20534
KUIPER-00431            
1 68936U 26098T   26257.06807555  .00002423  00000+0  34675-3 0  9993
2 68936  51.9001  30.1161 0000552 134.7782 225.3225 14.79933986 20570
KUIPER-00432            
1 68937U 26098U   26257.07615566  .00002914  00000+0  41107-3 0  9997
2 68937  51.9008  22.4787 0000497 118.3772 241.7241 14.79932506 20680
KUIPER-00434            
1 68938U 26098V   26256.57105344  .00002057  00000+0  32306-3 0  9999
2 68938  51.9028  28.6245 0001847 120.8751 239.2392 14.76507889 20559
KUIPER-00436            
1 68939U 26098W   26256.78644643 -.00002906  00000+0 -35242-3 0  9990
2 68939  51.9009  26.3737 0000458 102.2510 257.8504 14.79932523 20601
KUIPER-00438            
1 68940U 26098X   26257.05926318  .00001852  00000+0  27177-3 0  9990
2 68940  51.9056  22.6902 0000402  89.7379 270.3629 14.79943947 20676
KUIPER-00439            
1 68941U 26098Y   26256.77217573 -.00011771  00000+0 -15154-2 0  9999
2 68941  51.9038  23.9492 0000487  90.4169 269.6850 14.79996963 20633
KUIPER-00440            
1 68942U 26098Z   26256.32452799  .00005231  00000+0  71428-3 0  9991
2 68942  51.9041  18.4281 0000402 315.1673  44.9257 14.79950211 20672
KUIPER-00442            
1 68943U 26098AA  26255.77925583  .00097960  00000+0  13603-1 0  9995
2 68943  51.9028  23.3353 0000549 108.7395 251.3626 14.76997566 20554
KUIPER-00446            
1 68944U 26098AB  26257.29833341  .00002945  00000+0  41522-3 0  9997
2 68944  51.9007  19.1261 0000780 238.5127 121.5759 14.79931236 20746
KUIPER-00451            
1 68945U 26098AC  26256.67976774  .00002864  00000+0  40445-3 0  9990
2 68945  51.9003  31.8414 0000605 128.7969 231.3047 14.79937791 20511
KUIPER-00452            
1 68946U 26098AD  26256.62573591  .00002792  00000+0  39504-3 0  9990
2 68946  51.9036  19.5955 0000629 100.9969 259.1064 14.79935502 20682
KUIPER-00453            
1 68947U 26098AE  26256.71282994  .00000525  00000+0  97935-4 0  9990
2 68947  51.8991  16.6318 0002242 128.6361 231.4802 14.79924641 20730
KUIPER-00454            
1 68948U 26098AF  26257.25003472  .00092406  00000+0  12035-1 0  9997
2 68948  51.8997  31.8092 0000828  74.4755  10.4324 14.79753994  5624
KUIPER-00455            
1 68949U 26098AG  26256.37589918  .00002585  00000+0  36805-3 0  9996
2 68949  51.9020  33.1901 0001979 122.3317 237.7837 14.79928164 20478
KUIPER-00458            
1 68950U 26098AH  26257.30372040  .00002645  00000+0  37594-3 0  9991
2 68950  51.9021  14.1091 0000557 100.4645 259.6381 14.79920850 20811
KUIPER-00282            
1 69267U 26118A   26257.04169776  .00002892  00000+0  40825-3 0  9992
2 69267  51.8986   7.7264 0000509 147.9896 212.1097 14.79928410 17312
KUIPER-00383            
1 69268U 26118B   26256.72362564  .00002395  00000+0  34297-3 0  9991
2 69268  51.8996   6.6529 0000440 118.9888 241.1118 14.79936680 17302
KUIPER-00527            
1 69269U 26118C   26256.68987590  .00000229  00000+0  59046-4 0  9993
2 69269  51.8991   6.9339 0000564 107.2342 252.8682 14.79929180 17293
KUIPER-00562            
1 69270U 26118D   26257.00158429  .00002633  00000+0  37370-3 0  9999
2 69270  51.9047 357.8654 0000410 145.0509 215.0481 14.79994490 17453
KUIPER-00570            
1 69271U 26118E   26257.02212840  .00002799  00000+0  39602-3 0  9993
2 69271  51.9016  10.4362 0000405 101.3959 258.7049 14.79933855 17267
KUIPER-00572            
1 69272U 26118F   26257.28074673  .00002504  00000+0  35726-3 0  9999
2 69272  51.9026   4.1845 0000266 108.8749 251.2242 14.79935044 17387
KUIPER-00581            
1 69273U 26118G   26256.60004748  .00000885  00000+0  14513-3 0  9992
2 69273  51.9019  12.2017 0001482 163.6395 196.4616 14.79928404 17307
KUIPER-00584            
1 69274U 26118H   26256.37790003  .00002588  00000+0  36837-3 0  9998
2 69274  51.9016  15.7947 0000517 116.9740 243.1275 14.79932574 17144
KUIPER-00587            
1 69275U 26118J   26257.28344847  .00000153  00000+0  49111-4 0  9997
2 69275  51.9020   1.6806 0000708  92.3619 267.7425 14.79925713 17429
KUIPER-00590            
1 69276U 26118K   26256.60275677  .00002787  00000+0  39446-3 0  9991
2 69276  51.9043   9.7007 0000677 131.5166 228.5854 14.79933037 17255
KUIPER-00592            
1 69277U 26118L   26257.26129332  .00001764  00000+0  26037-3 0  9997
2 69277  51.9045   6.6691 0000545 107.5731 252.5292 14.79917242 17352
KUIPER-00593            
1 69278U 26118M   26257.25003472  .00001549  00000+0  23199-3 0  9990
2 69278  51.9005 349.3379 0002212 147.2887  52.8353 14.79966741  5911
KUIPER-00594            
1 69279U 26118N   26257.00452171  .00002705  00000+0  38379-3 0  9999
2 69279  51.9044 355.4287 0001255  79.1902 280.9201 14.79921531 17487
KUIPER-00595            
1 69280U 26118P   26257.25003472 -.00026600  00000+0 -34012-2 0  9995
2 69280  51.8990 349.2983 0002251 152.8104 225.0624 14.80815296  5648
KUIPER-00596            
1 69281U 26118Q   26257.30643077  .00001051  00000+0  16689-3 0  9995
2 69281  51.9044  11.5854 0000302  95.8077 264.2920 14.79931346 17286
KUIPER-00597            
1 69282U 26118R   26257.25003472  .00014075  00000+0  18724-2 0  9990
2 69282  51.8987 351.8334 0001908  38.4170 356.6711 14.79911401  4791
KUIPER-00599            
1 69283U 26118S   26257.26655446  .00000928  00000+0  15068-3 0  9997
2 69283  51.9013   1.6722 0000506  84.7991 275.3030 14.79930470 17424
KUIPER-00600            
1 69284U 26118T   26257.00728032  .00002835  00000+0  40089-3 0  9992
2 69284  51.9002 352.8213 0001643  28.6043 331.5009 14.79922620 17527
KUIPER-00601            
1 69285U 26118U   26257.29492303 -.00000487  00000+0 -34829-4 0  9992
2 69285  51.9043   6.6315 0000559 104.0857 256.0168 14.79927925 17358
KUIPER-00602            
1 69286U 26118V   26257.30301234  .00000471  00000+0  90836-4 0  9998
2 69286  51.9036 359.0101 0000722 187.5394 172.5558 14.79930653 17462
KUIPER-00603            
1 69287U 26118W   26256.57437784  .00000782  00000+0  13155-3 0  9990
2 69287  51.9051   4.8222 0000536  92.5319 267.5705 14.79928357 17315
KUIPER-00605            
1 69288U 26118X   26257.30912179  .00002528  00000+0  36055-3 0  9993
2 69288  51.9001   9.0520 0000430 124.2197 235.8806 14.79931132 17325
KUIPER-00606            
1 69289U 26118Y   26257.30033044  .00002425  00000+0  34697-3 0  9995
2 69289  51.9035   1.6079 0000351 105.7691 254.3310 14.79933095 17422
KUIPER-00607            
1 69290U 26118Z   26257.29424357 -.00001550  00000+0 -17435-3 0  9997
2 69290  51.9000 351.6390 0000909  11.1949 348.9034 14.79940260 17565
KUIPER-00608            
1 69291U 26118AA  26256.70067533  .00002931  00000+0  41297-3 0  9997
2 69291  51.9031 356.6257 0001088  69.0952 291.0127 14.79969337 17446
KUIPER-00610            
1 69292U 26118AB  26256.99913954  .00000898  00000+0  14684-3 0  9996
2 69292  51.9038   0.4398 0000349  92.9272 267.1730 14.79930372 17411
KUIPER-00613            
1 69293U 26118AC  26256.71823896  .00002846  00000+0  40213-3 0  9994
2 69293  51.9022  11.6813 0000414  90.4503 269.6507 14.79930816 17236
KUIPER-00618            
1 69294U 26118AD  26257.30571045  .00002615  00000+0  37202-3 0  9995
2 69294  51.9038 356.5908 0001993 169.0233 191.0773 14.79928806 17493
KUIPER-00620            
1 69295U 26118AE  26257.25237789  .00002648  00000+0  37614-3 0  9997
2 69295  51.9043 359.3304 0000334  95.2751 264.8250 14.79935575 17450
KUIPER-00423            
1 69592U 26140A   26257.25003472 -.00045554  00000+0 -53182-2 0  9994
2 69592  51.9003 331.7212 0013102 100.1217 240.1994 14.84772980  4350
KUIPER-00428            
1 69593U 26140B   26256.61226074  .00020594  00000+0  55496-3 0  9995
2 69593  51.8813 331.4081 0005693 244.1317 115.9083 15.37780078 14834
KUIPER-00481            
1 69594U 26140C   26257.21191227  .00001373  00000+0  22592-3 0  9999
2 69594  51.9025 336.6867 0001765 319.7368  40.3462 14.76494812 14811
KUIPER-00490            
1 69595U 26140D   26256.41022429  .00002565  00000+0  36544-3 0  9994
2 69595  51.9047 345.4982 0000537  88.3749 271.7275 14.79921648 14626
KUIPER-00493            
1 69596U 26140E   26257.24897497  .00000794  00000+0  13310-3 0  9990
2 69596  51.9042 346.8389 0000520 255.7064 104.3841 14.79931591 14673
KUIPER-00496            
1 69597U 26140F   26257.25003472 -.00014639  00000+0 -96299-3 0  9996
2 69597  51.8887 332.0612 0009412 255.0539 324.6503 15.06437719  5413
KUIPER-00513            
1 69598U 26140G   26257.25435613  .00002452  00000+0  35056-3 0  9995
2 69598  51.9019 341.8132 0000511 115.7780 244.3235 14.79925027 14747
KUIPER-00516            
1 69599U 26140H   26257.25003472 -.02237289  00000+0 -10725+0 0  9994
2 69599  51.8813 328.6744 0006161 196.5704 303.9623 15.22320113  4163
KUIPER-00517            
1 69600U 26140J   26257.22545361  .00018480  00000+0  51053-3 0  9991
2 69600  51.8783 327.9975 0012714 156.5924 203.5644 15.37024709 14933
KUIPER-00520            
1 69601U 26140K   26257.22142853  .00001517  00000+0  24570-3 0  9998
2 69601  51.9034 343.7940 0001127 170.3480 189.7503 14.76599484 14713
KUIPER-00522            
1 69602U 26140L   26257.25003472 -.00035482  00000+0 -36721-2 0  9995
2 69602  51.8970 332.0585 0014639 116.8599 135.9152 14.89518732  5642
KUIPER-00528            
1 69603U 26140M   26257.23479673  .00000199  00000+0  55097-4 0  9998
2 69603  51.9044 344.4153 0000410  91.7122 268.3887 14.79926421 14709
KUIPER-00532            
1 69604U 26140N   26257.25003472 -.00068654  00000+0 -48075-2 0  9999
2 69604  51.8907 330.5632 0002378 200.4133 116.2811 15.05016680  4255
KUIPER-00533            
1 69605U 26140P   26257.22329586 -.00008122  00000+0 -10371-2 0  9996
2 69605  51.9030 339.4593 0001021  85.3163 274.7916 14.79957815 14773
KUIPER-00534            
1 69606U 26140Q   26257.25003472 -.00000711  00000+0 -11112-4 0  9995
2 69606  51.8816 328.8599 0013612 114.9671 275.7450 15.30990036  5353
KUIPER-00537            
1 69607U 26140R   26257.21520725  .00000016  00000+0  31124-4 0  9998
2 69607  51.9000 346.9092 0000626 343.4454  16.6488 14.79928616 14673
KUIPER-00538            
1 69608U 26140S   26256.50883179 -.00004010  00000+0 -49895-3 0  9998
2 69608  51.9031 347.5560 0000139 336.5282  23.5674 14.79795615 14604
KUIPER-00540            
1 69609U 26140T   26257.18606257  .00023514  00000+0  62290-3 0  9996
2 69609  51.8824 328.5182 0004425 242.4322 117.6216 15.38230205 14922
KUIPER-00541            
1 69610U 26140U   26257.25003472 -.01126865  00000+0 -45254-1 0  9991
2 69610  51.8861 327.9297 0007539 163.3992 311.7104 15.27462804  3952
KUIPER-00542            
1 69611U 26140V   26257.25003472 -.01396983  00000+0 -45248-1 0  9995
2 69611  51.8800 327.7116 0008070 146.7727  72.8338 15.34470651  3654
KUIPER-00543            
1 69612U 26140W   26257.25003472 -.00631209  00000+0 -49420-1 0  9994
2 69612  51.9042 330.4345 0004522 245.6947  26.8097 15.02993114  5696
KUIPER-00544            
1 69613U 26140X   26257.25003472 -.01233897  00000+0 -50183-1 0  9995
2 69613  51.8802 328.0218 0005387 153.3429 297.7430 15.26862992  5440
KUIPER-00546            
1 69614U 26140Y   26257.25003472 -.00042083  00000+0 -42754-2 0  9996
2 69614  51.8969 332.0699 0019746 110.9311 214.0000 14.90269272  5690
KUIPER-00547            
1 69615U 26140Z   26256.61513001  .00031540  00000+0  87159-3 0  9993
2 69615  51.8826 330.7058 0009104 133.8061 226.3680 15.36729004 14842
KUIPER-00549            
1 69616U 26140AA  26257.25003472 -.01739754  00000+0 -10058+0 0  9996
2 69616  51.8903 328.9629 0004298 224.7693  71.2971 15.15008653  4871
KUIPER-00550            
1 69617U 26140AB  26257.25003472 -.00061717  00000+0 -34158-2 0  9993
2 69617  51.8808 332.7633 0006387 291.1989 354.1142 15.13497955  5645
KUIPER-00551            
1 69618U 26140AC  26257.18604035  .00016671  00000+0  44244-3 0  9993
2 69618  51.8808 327.7546 0011873 127.2387 232.9685 15.38356723 14931
KUIPER-00554            
1 69619U 26140AD  26256.94004672  .00023341  00000+0  63851-3 0  9995
2 69619  51.8799 329.1005 0009829 141.9844 218.1838 15.37205325 14897
KUIPER-00555            
1 69620U 26140AE  26257.25003472  .00003822  00000+0  11420-3 0  9996
2 69620  51.8830 327.5559 0010873 129.8028 184.7469 15.37075266  2569
KUIPER-00556            
1 69621U 26140AF  26257.25003472 -.00051190  00000+0 -64309-2 0  9993
2 69621  51.8967 334.3524 0010679 123.5619 162.6010 14.81825849  3780
KUIPER-00557            
1 69622U 26140AG  26257.21052222  .00023756  00000+0  62201-3 0  9992
2 69622  51.8825 327.9340 0009360 143.2607 216.9024 15.38553992 14936
KUIPER-00560            
1 69623U 26140AH  26257.17753216  .00016564  00000+0  45885-3 0  9997
2 69623  51.8791 328.4350 0008170 164.6187 195.5050 15.37066969 14926
KUIPER-00561            
1 69624U 26140AJ  26257.25713158  .00010661  00000+0  14242-2 0  9992
2 69624  51.9027 339.2785 0000774 112.8157 247.2887 14.79964632 14782
KUIPER-00564            
1 69625U 26140AK  26257.21388921  .00001381  00000+0  22656-3 0  9993
2 69625  51.8992 336.8539 0001957 106.4645 253.6532 14.76576696 14816
KUIPER-00567            
1 69626U 26140AL  26257.25003472 -.00031618  00000+0 -41194-2 0  9998
2 69626  51.8978 334.3388 0003652 102.0052  11.5865 14.80114348  5473
KUIPER-00573            
1 69627U 26140AM  26257.25972057  .00000486  00000+0  92840-4 0  9996
2 69627  51.9037 336.8028 0000835 107.4936 252.6118 14.79912947 14815
KUIPER-00258            
1 69763U 26151A   26257.25003472 -.00034105  00000+0 -22447-2 0  9996
2 69763  51.8838 248.2441 0010127  35.3141  56.5857 15.06926007  5804
KUIPER-00526            
1 69764U 26151B   26257.05365238  .00000296  00000+0  67868-4 0  9996
2 69764  51.8996 262.7741 0000649  74.0465 286.0569 14.79926007 11144
KUIPER-00558            
1 69765U 26151C   26257.29002061  .00001966  00000+0  28680-3 0  9998
2 69765  51.8978 261.6492 0000543  72.1570 287.9452 14.79926377 11180
KUIPER-00569            
1 69766U 26151D   26256.97194020  .00000693  00000+0  11989-3 0  9990
2 69766  51.9013 260.5464 0000672  50.0897 310.0125 14.79931494 11179
KUIPER-00589            
1 69767U 26151E   26257.27241635  .00001533  00000+0  24845-3 0  9999
2 69767  51.9006 262.1447 0002678  48.5928 311.5263 14.76526407 11176
KUIPER-00598            
1 69768U 26151F   26257.00003472  .00018853  00000+0  24971-2 0  9998
2 69768  51.8982 255.4411 0000835 122.7121 268.0374 14.79897993  4601
KUIPER-00604            
1 69769U 26151G   26257.25003472 -.00014554  00000+0 -18899-2 0  9994
2 69769  51.9004 256.8309 0000638  15.1088  13.2633 14.79806957  3604
KUIPER-00609            
1 69770U 26151H   26256.37016933  .00001436  00000+0  23419-3 0  9992
2 69770  51.9018 257.8777 0002037  16.2930 343.8096 14.76610196 11153
KUIPER-00611            
1 69771U 26151J   26257.27852123  .00000496  00000+0  94083-4 0  9993
2 69771  51.8989 256.6914 0000627  59.0138 301.0886 14.79930466 11250
KUIPER-00612            
1 69772U 26151K   26257.04716689  .00001609  00000+0  25864-3 0  9992
2 69772  51.9007 260.1399 0000693  46.7406 313.3613 14.76636417 11186
KUIPER-00614            
1 69773U 26151L   26256.31624511  .00001993  00000+0  29026-3 0  9994
2 69773  51.8984 261.0159 0000942  59.2328 300.8727 14.79946247 11100
KUIPER-00615            
1 69774U 26151M   26255.51465036  .00024571  00000+0  34895-2 0  9997
2 69774  51.9025 269.4147 0002033   4.5035 355.5944 14.76786230 10926
KUIPER-00616            
1 69775U 26151N   26257.25003472 -.00041546  00000+0 -34579-2 0  9995
2 69775  51.8952 247.6037 0002499 105.7658 218.3710 14.98238110  5825
KUIPER-00617            
1 69776U 26151P   26257.25003472 -.00018733  00000+0 -24377-2 0  9993
2 69776  51.8986 251.8361 0000864 159.3580 199.9775 14.79887726  5718
KUIPER-00619            
1 69777U 26151Q   26257.00003472  .00016186  00000+0  23237-2 0  9999
2 69777  51.8996 255.0467 0001943 140.0683 301.3305 14.76569309  5598
KUIPER-00621            
1 69778U 26151R   26256.21494514  .00006478  00000+0  87790-3 0  9991
2 69778  51.8994 261.4091 0000812 131.3830 228.7202 14.79932925 11093
KUIPER-00622            
1 69779U 26151S   26257.05855725  .00001481  00000+0  24084-3 0  9996
2 69779  51.9003 261.4972 0000980  71.7833 288.3235 14.76560366 11169
KUIPER-00623            
1 69780U 26151T   26257.00003472  .00017257  00000+0  22812-2 0  9991
2 69780  51.8964 260.4505 0001851 104.0264 135.2024 14.80037390  4836
KUIPER-00626            
1 69781U 26151U   26257.25003472 -.00020868  00000+0 -27213-2 0  9993
2 69781  51.8964 254.3130 0000881 101.0600 272.3854 14.79863604  5733
KUIPER-00627            
1 69782U 26151V   26257.25003472 -.00045942  00000+0 -41397-2 0  9993
2 69782  51.8930 249.8839 0006009  62.0833 201.7158 14.95195134  2581
KUIPER-00629            
1 69783U 26151W   26257.03407526  .00001972  00000+0  28769-3 0  9990
2 69783  51.9015 265.2261 0000558  68.2071 291.8950 14.79926151 11115
KUIPER-00631            
1 69784U 26151X   26257.05093244 -.00000050  00000+0  22416-4 0  9992
2 69784  51.9013 265.2112 0000716  83.1780 276.9264 14.79921293 11112
KUIPER-00634            
1 69785U 26151Y   26257.27583124  .00001847  00000+0  27124-3 0  9992
2 69785  51.8998 259.2227 0000865  97.6929 262.4131 14.79927719 11217
KUIPER-00639            
1 69786U 26151Z   26257.25003472 -.00047830  00000+0 -44344-2 0  9990
2 69786  51.8943 249.7300 0010795  32.1353  77.2983 14.94063926  5142
KUIPER-00641            
1 69787U 26151AA  26257.25003472 -.00186721  00000+0 -22949-1 0  9990
2 69787  51.9328 251.8906 0012731  38.3608  25.9452 14.83661066  4417
KUIPER-00644            
1 69788U 26151AB  26257.25003472 -.01597125  00000+0 -93922-1 0  9995
2 69788  51.8839 246.5526 0009272  28.6676 186.7926 15.14608837  5208
KUIPER-00646            
1 69789U 26151AC  26257.25003472 -.00055413  00000+0 -67569-2 0  9993
2 69789  51.8987 251.9641 0008717  45.6908 203.9527 14.83116909  3487
KUIPER-00647            
1 69790U 26151AD  26257.28776726  .00003399  00000+0  36070-3 0  9995
2 69790  51.8942 251.6249 0010694  42.5064 317.6730 14.91437563 11329
KUIPER-00662            
1 69791U 26151AE  26257.25003472  .00052826  00000+0  69846-2 0  9999
2 69791  51.9001 264.3256 0001800  64.1144  98.2433 14.79444271  4610
