QIANFAN-1               
1 60379U 24140A   26266.24236612  .00000034  00000+0  33263-4 0  9991
2 60379  88.9664 269.7393 0019528 110.7256 249.5990 13.51026082105769
QIANFAN-2               
1 60380U 24140B   26266.19713945  .00000039  00000+0  41684-4 0  9997
2 60380  88.9651 269.5449 0014902  86.4985 273.7871 13.51020464105817
QIANFAN-3               
1 60381U 24140C   26266.27958744  .00000036  00000+0  37411-4 0  9995
2 60381  88.9643 269.6473 0016054  97.0190 263.2788 13.51023216105733
QIANFAN-4               
1 60382U 24140D   26266.25477635  .00000025  00000+0  19803-4 0  9992
2 60382  88.9668 269.6191 0015161  88.4906 271.7982 13.51021069105852
QIANFAN-5               
1 60383U 24140E   26266.30402590  .00000052  00000+0  61143-4 0  9991
2 60383  88.9642 269.6689 0017230 106.9587 253.3454 13.51031496105728
QIANFAN-6               
1 60384U 24140F   26266.25064369  .00000028  00000+0  24461-4 0  9999
2 60384  88.9670 269.4982 0015274  93.5754 266.7145 13.51024202105910
QIANFAN-7               
1 60385U 24140G   26266.27993825  .00000152  00000+0  55263-4 0  9992
2 60385  88.9723 260.2247 0014967 174.5573 185.5787 14.27894326110990
QIANFAN-8               
1 60386U 24140H   26266.25899753  .00000034  00000+0  34068-4 0  9995
2 60386  88.9670 269.7382 0018730  95.5389 264.7899 13.51026139105763
QIANFAN-9               
1 60387U 24140J   26266.30830333  .00000045  00000+0  50180-4 0  9996
2 60387  88.9668 269.8026 0018424  95.1884 265.1371 13.51021905105758
QIANFAN-10              
1 60388U 24140K   26266.23834284  .00000047  00000+0  53048-4 0  9996
2 60388  88.9680 269.1873 0016777  75.5188 284.7823 13.51022038105874
QIANFAN-11              
1 60389U 24140L   26266.27550350  .00000013  00000+0  49567-6 0  9996
2 60389  88.9605 269.5560 0016374  95.0124 265.2897 13.51021121105539
QIANFAN-12              
1 60390U 24140M   26266.29601329  .00000043  00000+0  48353-4 0  9996
2 60390  88.9647 269.7212 0015249 102.0219 258.2642 13.51023783105667
QIANFAN-13              
1 60391U 24140N   26266.26717040  .00000049  00000+0  57391-4 0  9990
2 60391  88.9907 269.9759 0015061 104.0467 256.2360 13.51023902105684
QIANFAN-14              
1 60392U 24140P   26266.29196591  .00000031  00000+0  29201-4 0  9996
2 60392  88.9639 269.6934 0018733 104.6521 255.6709 13.51025958105699
QIANFAN-15              
1 60393U 24140Q   26266.30005229  .00000055  00000+0  66059-4 0  9994
2 60393  88.9662 269.7168 0014578  92.3747 267.9074 13.51028346105686
QIANFAN-16              
1 60394U 24140R   26266.28769131  .00000024  00000+0  17451-4 0  9999
2 60394  88.9665 269.8460 0016633 107.8140 252.4827 13.51025315105597
QIANFAN-17              
1 60395U 24140S   26266.28372609  .00000032  00000+0  30154-4 0  9994
2 60395  88.9675 269.9235 0017074 102.3197 257.9867 13.51021710106558
QIANFAN-18              
1 60396U 24140T   26266.26315844  .00000010  00000+0 -34552-5 0  9995
2 60396  88.9670 269.4408 0016356  87.2423 273.0600 13.51020975105944
QIANFAN-19              
1 61552U 24185A   26266.26044559  .00000299  00000+0  14838-3 0  9992
2 61552  88.9861  45.3461 0008933 107.3670 252.8495 14.14533415109883
QIANFAN-20              
1 61553U 24185B   26266.25737198  .00000416  00000+0  23214-3 0  9999
2 61553  88.9855  45.9509 0006906 140.3376 219.8314 14.09075118109556
QIANFAN-21              
1 61554U 24185C   26266.23155472  .00000396  00000+0  16956-3 0  9999
2 61554  88.9781  43.6683 0011821 147.3446 212.8479 14.22935719110420
QIANFAN-22              
1 61555U 24185D   26266.23232955  .00000241  00000+0  19641-3 0  9995
2 61555  88.9834  48.0815 0006122 187.1926 172.9158 13.86431039108353
QIANFAN-23              
1 61556U 24185E   26266.25547698  .00000241  00000+0  11381-3 0  9994
2 61556  88.9854  45.0240 0009430 114.2210 245.9965 14.16554660110021
QIANFAN-24              
1 61557U 24185F   26266.27351973  .00000438  00000+0  18367-3 0  9995
2 61557  88.9840  43.9637 0011750  91.4882 268.7656 14.24160084110519
QIANFAN-25              
1 61558U 24185G   26266.24674479  .00000412  00000+0  24205-3 0  9992
2 61558  88.9848  45.9998 0013349 162.6110 197.5532 14.06133400109489
QIANFAN-26              
1 61559U 24185H   26266.27034371  .00000207  00000+0  19336-3 0  9998
2 61559  88.9840  49.0433 0004573 213.8928 146.1947 13.77946435107852
QIANFAN-27              
1 61560U 24185J   26266.20562163  .00000520  00000+0  20547-3 0  9992
2 61560  88.9851  43.6075 0009380  80.3234 279.9020 14.27606618110747
QIANFAN-28              
1 61561U 24185K   26266.23683708  .00000550  00000+0  21393-3 0  9998
2 61561  88.9869  43.6190 0009324  78.4910 281.7332 14.28491272110782
QIANFAN-29              
1 61562U 24185L   26266.20353757  .00000141  00000+0  19988-3 0  9997
2 61562  88.9807  51.9081 0008371 315.1472  44.9002 13.51095331106207
QIANFAN-30              
1 61563U 24185M   26266.24544070  .00000131  00000+0  18728-3 0  9992
2 61563  88.9828  51.5384 0005913 299.8707  60.1855 13.50076953106452
QIANFAN-31              
1 61564U 24185N   26266.23697247  .00000148  00000+0  18757-3 0  9997
2 61564  88.9813  50.8898 0005244 279.3437  80.7125 13.58066108106771
QIANFAN-32              
1 61565U 24185P   26266.20643455  .00000103  00000+0  14136-3 0  9995
2 61565  88.9867  51.7594 0008568 335.4915  24.5828 13.50806884106446
QIANFAN-33              
1 61566U 24185Q   26266.25792428  .00000305  00000+0  21000-3 0  9998
2 61566  88.9837  47.0936 0008794 145.9674 214.2068 13.96755169108871
QIANFAN-34              
1 61567U 24185R   26266.26828667  .00000390  00000+0  24476-3 0  9999
2 61567  88.9818  46.2802 0006810 141.6236 218.5429 14.02524373109236
QIANFAN-35              
1 61568U 24185S   26266.22432422  .00000464  00000+0  17984-3 0  9994
2 61568  88.9850  43.4971 0008399  77.1526 283.0607 14.28361483110784
QIANFAN-36              
1 61569U 24185T   26266.20861332  .00000069  00000+0  82009-4 0  9991
2 61569  88.9804  51.4014 0004648 304.0564  56.0148 13.55647855106465
QIANFAN-37              
1 62238U 24232B   26266.24593355  .00000101  00000+0  13835-3 0  9996
2 62238  89.0160  12.7663 0001827  87.6072 272.5288 13.51031208137582
QIANFAN-38              
1 62239U 24232C   26266.27071246  .00000092  00000+0  12382-3 0  9995
2 62239  89.0167  12.6989 0016463  94.8288 265.4743 13.51029432137641
QIANFAN-39              
1 62240U 24232D   26266.28061621  .00000326  00000+0  13147-3 0  9994
2 62240  89.0144   4.9303 0014848 219.3547 140.6569 14.25563832141924
QIANFAN-40              
1 62241U 24232E   26266.22957109  .00000066  00000+0  82804-4 0  9992
2 62241  89.0194  12.3668 0015597 101.9335 258.3566 13.51029568138000
QIANFAN-41              
1 62242U 24232F   26266.31183090  .00000101  00000+0  13810-3 0  9993
2 62242  89.0165  12.6411 0015831  91.3157 268.9808 13.51030871137670
QIANFAN-42              
1 62243U 24232G   26266.24940269  .00000321  00000+0  13182-3 0  9991
2 62243  89.0142   5.0231 0013443 226.7570 133.2501 14.24650755141873
QIANFAN-43              
1 62244U 24232H   26266.30772449  .00000095  00000+0  12752-3 0  9992
2 62244  89.0170  12.7193 0017423  95.7936 264.5202 13.51030349106281
QIANFAN-44              
1 62245U 24232J   26266.29540419  .00000099  00000+0  13488-3 0  9992
2 62245  89.0168  12.5267 0015622  93.3769 266.9169 13.51030575137751
QIANFAN-45              
1 62246U 24232K   26266.26250841  .00000101  00000+0  13743-3 0  9995
2 62246  89.0172  12.6866 0016282  93.0503 267.2512 13.51029303137673
QIANFAN-46              
1 62247U 24232L   26266.28712915  .00000107  00000+0  14685-3 0  9995
2 62247  89.0167  12.7415 0016371  97.8428 262.4582 13.51030386137639
QIANFAN-47              
1 62248U 24232M   26266.29128987  .00000101  00000+0  13758-3 0  9991
2 62248  89.0164  12.6626 0016790  97.0665 263.2396 13.51029615137668
QIANFAN-48              
1 62249U 24232N   26266.25436777  .00000109  00000+0  15049-3 0  9990
2 62249  89.0167  12.6793 0019057  99.3859 260.9448 13.51023963137668
QIANFAN-49              
1 62250U 24232P   26266.31597331  .00000108  00000+0  14867-3 0  9999
2 62250  89.0166  12.6833 0016100  94.6232 265.6759 13.51031122106268
QIANFAN-50              
1 62251U 24232Q   26266.26656380  .00000101  00000+0  13720-3 0  9994
2 62251  89.0172  12.7119 0017770  95.7999 264.5179 13.51030608106284
QIANFAN-51              
1 62252U 24232R   26266.25014681  .00000104  00000+0  14221-3 0  9996
2 62252  89.0166  12.6899 0015264  99.3841 260.9037 13.51029525106272
QIANFAN-52              
1 62253U 24232S   26266.20485684  .00000089  00000+0  11935-3 0  9998
2 62253  89.0162  12.5569 0017242  92.3206 267.9919 13.51031552106356
QIANFAN-53              
1 62254U 24232T   26266.25842750  .00000104  00000+0  14171-3 0  9998
2 62254  89.0170  12.6776 0016134  93.3036 266.9961 13.51028298106324
QIANFAN-54              
1 62255U 24232U   26266.29950373  .00000099  00000+0  13495-3 0  9995
2 62255  89.0160  12.3269 0003982 120.6721 239.4823 13.51030178137832
QIANFAN-55              
1 62785U 25016A   26266.25155795  .00000049  00000+0  57518-4 0  9995
2 62785  88.9674  73.6700 0015725 243.4773 116.4766 13.51025103 85606
QIANFAN-56              
1 62786U 25016B   26266.26783862  .00000053  00000+0  63795-4 0  9998
2 62786  88.9648  73.4289 0014285 246.0830 113.8826 13.51028311 85658
QIANFAN-57              
1 62787U 25016C   26266.22685871  .00000048  00000+0  54844-4 0  9995
2 62787  88.9678  73.6753 0002355  80.2091 279.9326 13.51028027 85611
QIANFAN-58              
1 62788U 25016D   26266.19807331  .00000060  00000+0  74137-4 0  9990
2 62788  88.9649  73.4234 0012311 237.2759 122.7206 13.51027524 85657
QIANFAN-59              
1 62789U 25016E   26266.22259577  .00000054  00000+0  64538-4 0  9995
2 62789  88.9672  73.5615 0012605 241.5909 118.3972 13.51024849 85657
QIANFAN-60              
1 62790U 25016F   26266.25550752  .00000052  00000+0  62295-4 0  9995
2 62790  88.9653  73.4755 0014216 237.9063 122.0709 13.51028335 85645
QIANFAN-61              
1 62791U 25016G   26266.28847002  .00000060  00000+0  73880-4 0  9997
2 62791  88.9719  73.8273 0013191 237.0086 122.9798 13.51027875 85662
QIANFAN-62              
1 62792U 25016H   26266.29270430  .00000047  00000+0  53900-4 0  9990
2 62792  88.9667  73.5426 0014519 237.5662 122.4086 13.51027280 85656
QIANFAN-63              
1 62793U 25016J   26266.24327031  .00000053  00000+0  64316-4 0  9996
2 62793  88.9674  73.5185 0014505 243.7083 116.2579 13.51023218 85686
QIANFAN-64              
1 62794U 25016K   26266.28438070  .00000057  00000+0  70276-4 0  9993
2 62794  88.9661  73.4502 0012555 235.1486 124.8485 13.51027851 85688
QIANFAN-65              
1 62795U 25016L   26266.28017395  .00000058  00000+0  70476-4 0  9990
2 62795  88.9657  73.4665 0012379 237.0110 122.9852 13.51023943 85666
QIANFAN-66              
1 62796U 25016M   26266.23494092  .00000057  00000+0  70075-4 0  9993
2 62796  88.9676  73.4972 0013545 232.6570 127.3348 13.51020054 85700
QIANFAN-67              
1 62797U 25016N   26266.23901879  .00000059  00000+0  73564-4 0  9998
2 62797  88.9666  73.4944 0013402 240.2651 119.7167 13.51020226 85677
QIANFAN-68              
1 62798U 25016P   26266.23089550  .00000051  00000+0  61000-4 0  9996
2 62798  88.9670  73.5505 0013510 237.9714 122.0125 13.51022189 85659
QIANFAN-69              
1 62799U 25016Q   26266.24724499  .00000056  00000+0  68089-4 0  9995
2 62799  88.9650  73.3579 0014224 239.6530 120.3215 13.51024553 85697
QIANFAN-70              
1 62800U 25016R   26266.26383994  .00000069  00000+0  88125-4 0  9998
2 62800  88.9669  73.5537 0014000 228.8753 131.1191 13.51024241 85658
QIANFAN-71              
1 62801U 25016S   26266.25966559  .00000047  00000+0  54844-4 0  9999
2 62801  88.9664  73.5165 0014081 243.5741 116.3965 13.51027116 85659
QIANFAN-72              
1 62802U 25016T   26266.27622911  .00000065  00000+0  82084-4 0  9990
2 62802  88.9654  73.5004 0017262 251.9686 107.9585 13.51028892 85641
QIANFAN-73              
1 63159U 25046A   26266.30318141  .00000062  00000+0  77022-4 0  9993
2 63159  88.9639 290.4724 0015719  28.6266 331.5745 13.51025773 85836
QIANFAN-74              
1 63160U 25046B   26266.28678271  .00000011  00000+0 -19407-5 0  9994
2 63160  88.9638 290.3638 0001817  98.1518 261.9839 13.51018631 85897
QIANFAN-75              
1 63161U 25046C   26266.27443196  .00000108  00000+0  14859-3 0  9990
2 63161  88.9642 290.6029 0016951  31.6278 328.5888 13.51031535 85768
QIANFAN-76              
1 63162U 25046D   26266.27041268 -.00000077  00000+0 -13857-3 0  9999
2 63162  88.9640 290.5830 0014445  33.0160 327.1891 13.51020460 85773
QIANFAN-77              
1 63163U 25046E   26266.27990304  .00000130  00000+0  84818-4 0  9998
2 63163  88.9646 286.2428 0012535 272.4553  87.5189 13.96247636 88155
QIANFAN-78              
1 63164U 25046F   26266.23798794  .00000074  00000+0  96413-4 0  9995
2 63164  88.9640 290.4482 0015915  34.4646 325.7534 13.51012716 85845
QIANFAN-79              
1 63165U 25046G   26266.26617227  .00000026  00000+0  20711-4 0  9995
2 63165  88.9644 290.5625 0015605  33.1558 327.0568 13.51021199 85795
QIANFAN-80              
1 63166U 25046H   26266.28261387  .00000090  00000+0  12093-3 0  9994
2 63166  88.9641 290.2599 0014652  37.8494 322.3685 13.51030339 85953
QIANFAN-81              
1 63167U 25046J   26266.26202627  .00000107  00000+0  14694-3 0  9993
2 63167  88.9641 290.3293 0015504  27.4818 332.7150 13.51021455 85904
QIANFAN-82              
1 63168U 25046K   26266.29502487  .00000087  00000+0  11607-3 0  9992
2 63168  88.9641 290.3702 0013620  34.8074 325.3966 13.51021197 85897
QIANFAN-83              
1 63169U 25046L   26266.29818799  .00000074  00000+0  80057-4 0  9991
2 63169  88.9643 289.5851 0013860   4.5095 355.6185 13.62065182 86331
QIANFAN-84              
1 63170U 25046M   26266.24977510 -.00000056  00000+0 -10584-3 0  9994
2 63170  88.9639 290.5075 0016471  30.0988 330.1106 13.51016454 85813
QIANFAN-85              
1 63171U 25046N   26266.24559857  .00000096  00000+0  13032-3 0  9998
2 63171  88.9640 290.3775 0014128  33.5274 326.6769 13.51021390 85881
QIANFAN-86              
1 63172U 25046P   26266.25379058  .00000102  00000+0  13918-3 0  9994
2 63172  88.9642 290.2455 0012165  38.6931 321.5089 13.51026460 85964
QIANFAN-87              
1 63173U 25046Q   26266.29903402  .00000013  00000+0  20120-5 0  9991
2 63173  88.9637 290.3416 0012491  33.0193 327.1736 13.51020482 85901
QIANFAN-88              
1 63174U 25046R   26266.31551304  .00000104  00000+0  14280-3 0  9994
2 63174  88.9641 290.3017 0013202  41.4118 318.8032 13.51019907 85934
QIANFAN-89              
1 63175U 25046S   26266.27848392  .00000098  00000+0  13329-3 0  9991
2 63175  88.9641 290.4944 0017391  30.0860 330.1286 13.51020645 85823
QIANFAN-90              
1 63176U 25046T   26266.23329245  .00000027  00000+0  23196-4 0  9995
2 63176  88.9642 290.4724 0014296  30.2328 329.9645 13.51019965 85832
QIANFAN-91              
1 66033U 25233A   26266.11755227  .00000069  00000+0  89016-4 0  9997
2 66033  89.0059  33.2913 0001705  95.0048 265.1298 13.51029936 46407
QIANFAN-92              
1 66034U 25233B   26265.31149668  .00000033  00000+0  32227-4 0  9998
2 66034  89.0042  33.3282 0002238 102.3225 257.8177 13.50961815 46292
QIANFAN-93              
1 66035U 25233C   26266.20833395  .00000073  00000+0  94200-4 0  9998
2 66035  89.0069  33.3162 0001770  94.1792 265.9561 13.51013182 46413
QIANFAN-94              
1 66036U 25233D   26266.12173022  .00000077  00000+0  99899-4 0  9997
2 66036  89.0066  33.2249 0001761 101.5557 258.5793 13.51028346 46455
QIANFAN-95              
1 66037U 25233E   26266.12997733  .00000079  00000+0  10402-3 0  9995
2 66037  89.0064  32.7654 0001598  97.8128 262.3205 13.51028254 46704
QIANFAN-96              
1 66038U 25233F   26266.30272133  .00000070  00000+0  89801-4 0  9997
2 66038  89.0061  33.2887 0001669  93.6821 266.4521 13.51029477 46422
QIANFAN-97              
1 66039U 25233G   26266.13811956  .00000072  00000+0  92610-4 0  9995
2 66039  89.0064  33.2925 0001777  95.2988 264.8366 13.51039429 46406
QIANFAN-98              
1 66040U 25233H   26266.29452630  .00000062  00000+0  77737-4 0  9996
2 66040  89.0054  32.9972 0001696 114.9729 245.1599 13.51029731 46570
QIANFAN-99              
1 66041U 25233J   26266.29854464  .00000073  00000+0  94305-4 0  9990
2 66041  89.0065  33.2810 0001532 110.3802 249.7514 13.51036279 46436
QIANFAN-100             
1 66042U 25233K   26266.14233904  .00000064  00000+0  80301-4 0  9996
2 66042  89.0076  33.2348 0001767  95.5044 264.6308 13.51020755 46469
QIANFAN-101             
1 66043U 25233L   26266.12555038  .00000250  00000+0  96845-4 0  9997
2 66043  89.0066  29.3334 0015376 174.6997 185.4362 14.26862975 48594
QIANFAN-102             
1 66044U 25233M   26266.31097245  .00000076  00000+0  99815-4 0  9996
2 66044  89.0063  33.1872 0001724 102.5944 257.5401 13.51029042 46484
QIANFAN-103             
1 66045U 25233N   26266.31512383  .00000081  00000+0  10747-3 0  9994
2 66045  89.0066  33.2847 0001758  95.4836 264.6516 13.51029135 46432
QIANFAN-104             
1 66046U 25233P   26266.31915432  .00000073  00000+0  94721-4 0  9993
2 66046  89.0071  33.1909 0001806 103.8279 256.3073 13.51027078 46481
QIANFAN-105             
1 66047U 25233Q   26266.10531611  .00000063  00000+0  79642-4 0  9998
2 66047  89.0083  33.0685 0001805  99.8855 260.2501 13.51030294 46561
QIANFAN-106             
1 66048U 25233R   26266.32326793  .00000068  00000+0  86186-4 0  9992
2 66048  89.0053  33.2287 0001678 112.5321 247.6008 13.51030702 46439
QIANFAN-107             
1 66049U 25233S   26265.73902157  .00000062  00000+0  77159-4 0  9995
2 66049  89.0067  33.3353 0001774  96.6063 263.5290 13.51029835 46369
QIANFAN-108             
1 66050U 25233T   26266.11350252  .00000065  00000+0  82781-4 0  9993
2 66050  89.0061  33.2786 0001715 110.8721 249.2614 13.51029608 46414
QIANFAN-109             
1 68636U 26075A   26266.27551475  .00000059  00000+0  72290-4 0  9994
2 68636  88.9860 311.0022 0001954  83.3140 276.8234 13.51021131 23035
QIANFAN-110             
1 68637U 26075B   26266.20962073  .00000052  00000+0  61543-4 0  9990
2 68637  88.9860 311.0305 0002217  96.1888 263.9516 13.51022057 23021
QIANFAN-111             
1 68638U 26075C   26266.27159970  .00000029  00000+0  25698-4 0  9997
2 68638  88.9859 310.9830 0002190  96.0030 264.1371 13.51024504 23053
QIANFAN-112             
1 68639U 26075D   26266.23446884  .00000057  00000+0  70153-4 0  9994
2 68639  88.9858 310.9946 0002186  83.2222 276.9178 13.51023886 23044
QIANFAN-113             
1 68640U 26075E   26266.20552719  .00000061  00000+0  75720-4 0  9998
2 68640  88.9863 310.9968 0002246  93.0628 267.0780 13.51020554 23041
QIANFAN-114             
1 68641U 26075F   26266.28779735  .00000045  00000+0  51086-4 0  9997
2 68641  88.9858 311.0028 0002186  95.6834 264.4567 13.51028122 23048
QIANFAN-115             
1 68642U 26075G   26266.24262834  .00000057  00000+0  70235-4 0  9991
2 68642  88.9859 311.0147 0002041  93.7146 266.4238 13.51024845 23031
QIANFAN-116             
1 68643U 26075H   26266.23025634  .00000055  00000+0  67225-4 0  9999
2 68643  88.9852 310.9692 0002253  86.4062 273.7347 13.51025362 23047
QIANFAN-117             
1 68644U 26075J   26266.21801215  .00000053  00000+0  62728-4 0  9996
2 68644  88.9856 310.9907 0002080  89.2688 270.8702 13.51023209 23045
QIANFAN-118             
1 68645U 26075K   26266.25084585  .00000043  00000+0  47645-4 0  9994
2 68645  88.9861 311.0000 0002296  97.4791 262.6621 13.51024944 23049
QIANFAN-119             
1 68646U 26075L   26266.30015102  .00000064  00000+0  80879-4 0  9999
2 68646  88.9861 310.9907 0001896  87.2156 272.9213 13.51020721 23052
QIANFAN-120             
1 68647U 26075M   26266.23847472  .00000060  00000+0  74796-4 0  9992
2 68647  88.9863 310.9835 0001827  87.1691 272.9669 13.51020567 23055
QIANFAN-121             
1 68648U 26075N   26266.26327577  .00000059  00000+0  72817-4 0  9995
2 68648  88.9861 310.9838 0002211  97.3275 262.8127 13.51024048 23051
QIANFAN-122             
1 68649U 26075P   26266.25498380  .00000048  00000+0  55187-4 0  9995
2 68649  88.9859 310.9816 0002052  87.1963 272.9423 13.51027598 23042
QIANFAN-123             
1 68650U 26075Q   26266.29604563  .00000052  00000+0  62063-4 0  9999
2 68650  88.9856 310.9642 0001975  80.9832 279.1543 13.51020514 23039
QIANFAN-124             
1 68651U 26075R   26266.24678060  .00000043  00000+0  47271-4 0  9992
2 68651  88.9859 310.9808 0002061  85.2900 274.8486 13.51027104 23050
QIANFAN-125             
1 68652U 26075S   26266.25916131  .00000055  00000+0  66599-4 0  9995
2 68652  88.9858 310.9816 0002234  96.8360 263.3046 13.51024170 23054
QIANFAN-126             
1 68653U 26075T   26266.26721955  .00000069  00000+0  88485-4 0  9998
2 68653  88.9862 310.9503 0001961  81.9547 278.1827 13.51019710 23078
QIANFAN-127             
1 69073U 26104A   26266.27265719  .00000067  00000+0  84920-4 0  9998
2 69073  88.9919 331.4717 0002535 100.7108 259.4328 13.51028525 18407
QIANFAN-128             
1 69074U 26104B   26266.20671327  .00000069  00000+0  87520-4 0  9999
2 69074  88.9897 331.5016 0002317 111.5993 248.5405 13.51024013 18375
QIANFAN-129             
1 69075U 26104C   26266.23133221  .00000068  00000+0  86644-4 0  9994
2 69075  88.9900 331.4335 0002357 106.5584 253.5826 13.51024024 18418
QIANFAN-130             
1 69076U 26104D   26266.26835103  .00000066  00000+0  83457-4 0  9993
2 69076  88.9902 331.4956 0002473  95.1730 264.9703 13.51022155 18384
QIANFAN-131             
1 69077U 26104E   26266.21502908  .00000085  00000+0  11262-3 0  9998
2 69077  88.9895 331.4613 0002103 106.6352 253.5030 13.51026216 18394
QIANFAN-132             
1 69078U 26104F   26266.20253747  .00000077  00000+0  10073-3 0  9992
2 69078  88.9897 331.5193 0002370  98.4541 261.6879 13.51022429 18365
QIANFAN-133             
1 69079U 26104G   26266.21085289  .00000074  00000+0  95997-4 0  9994
2 69079  88.9901 331.4687 0002076 112.6757 247.4614 13.51031212 18381
QIANFAN-134             
1 69080U 26104H   26266.23963325  .00000068  00000+0  87200-4 0  9995
2 69080  88.9905 331.4923 0002262 111.1343 249.0050 13.51029554 18380
QIANFAN-135             
1 69081U 26104J   26266.21899410  .00000079  00000+0  10314-3 0  9990
2 69081  88.9898 331.4849 0002504 110.2391 249.9029 13.51022718 18381
QIANFAN-136             
1 69082U 26104K   26266.22723255  .00000067  00000+0  85208-4 0  9997
2 69082  88.9901 331.4872 0002127 112.4809 247.6568 13.51032665 18387
QIANFAN-137             
1 69083U 26104L   26266.22318165  .00000069  00000+0  88013-4 0  9997
2 69083  88.9910 331.3646 0002246  99.2016 260.9390 13.51022369 18459
QIANFAN-138             
1 69084U 26104M   26266.24779229  .00000070  00000+0  89798-4 0  9995
2 69084  88.9894 331.4847 0002545 104.3423 255.8011 13.51022135 18383
QIANFAN-139             
1 69085U 26104N   26266.23560490  .00000065  00000+0  82345-4 0  9998
2 69085  88.9896 331.4678 0002471  99.1362 261.0069 13.51030906 18397
QIANFAN-140             
1 69086U 26104P   26266.24368932  .00000076  00000+0  98651-4 0  9996
2 69086  88.9897 331.4706 0002574 108.9166 251.2265 13.51023286 18398
QIANFAN-141             
1 69087U 26104Q   26266.25199191  .00000027  00000+0  22574-4 0  9994
2 69087  88.9895 331.4338 0002381 110.4233 249.7174 13.51021023 18418
QIANFAN-142             
1 69088U 26104R   26266.26013146  .00000070  00000+0  89677-4 0  9996
2 69088  88.9892 331.4323 0002510 105.0602 255.0827 13.51020270 18412
QIANFAN-143             
1 69089U 26104S   26266.25611190  .00000075  00000+0  96874-4 0  9991
2 69089  88.9903 331.4397 0002032 106.4220 253.7155 13.51027755 18411
QIANFAN-144             
1 69090U 26104T   26266.26424510  .00000064  00000+0  79900-4 0  9991
2 69090  88.9901 331.4570 0002538 101.4589 258.6847 13.51021146 18407
QIANFAN-145             
1 69104U 26108A   26266.26852892  .00000100  00000+0  13652-3 0  9991
2 69104  89.0197  12.2598 0001615 106.5417 253.5911 13.51022315 17681
QIANFAN-146             
1 69105U 26108B   26266.30145686  .00000115  00000+0  15969-3 0  9992
2 69105  89.0199  12.0937 0001932 100.3349 259.8020 13.51040854 17786
QIANFAN-147             
1 69106U 26108C   26266.27695076  .00000100  00000+0  13597-3 0  9991
2 69106  89.0199  12.2635 0002081 102.9837 257.1546 13.51025760 17671
QIANFAN-148             
1 69107U 26108D   26266.26454166  .00000109  00000+0  14965-3 0  9993
2 69107  89.0193  12.2545 0002049 109.4791 250.6582 13.51025353 17677
QIANFAN-149             
1 69108U 26108E   26266.27270606 -.00000009  00000+0 -32787-4 0  9994
2 69108  89.0193  12.2749 0002336 107.4222 252.7185 13.51024634 17673
QIANFAN-150             
1 69109U 26108F   26266.28090348  .00000099  00000+0  13540-3 0  9991
2 69109  89.0198  12.2275 0002337 106.0855 254.0554 13.51025234 17695
QIANFAN-151             
1 69110U 26108G   26266.30987051  .00000106  00000+0  14605-3 0  9994
2 69110  89.0197  12.2483 0001820 104.8496 255.2857 13.51028503 17680
QIANFAN-152             
1 69111U 26108H   26266.06692554 -.00000004  00000+0 -24376-4 0  9995
2 69111  89.0193  12.2640 0002141  96.5000 263.6395 13.51024130 17667
QIANFAN-153             
1 69112U 26108J   26266.28500624  .00000110  00000+0  15119-3 0  9996
2 69112  89.0189  12.2187 0002230 102.7488 257.3912 13.51025631 17693
QIANFAN-154             
1 69113U 26108K   26266.29336528  .00000110  00000+0  15242-3 0  9995
2 69113  89.0200  12.2671 0002163 105.3111 254.8280 13.51027626 17688
QIANFAN-155             
1 69114U 26108L   26266.29737346  .00000108  00000+0  14941-3 0  9991
2 69114  89.0198  12.2311 0002289 104.1724 255.9682 13.51024479 17694
QIANFAN-156             
1 69115U 26108M   26266.31791542  .00000112  00000+0  15550-3 0  9995
2 69115  89.0212  12.2309 0001947 108.8028 251.3335 13.51024444 17717
QIANFAN-157             
1 69116U 26108N   26266.30573268  .00000106  00000+0  14571-3 0  9993
2 69116  89.0194  12.1548 0002146 110.7642 249.3740 13.51029199 17749
QIANFAN-158             
1 69117U 26108P   26266.24794604  .00000109  00000+0  14999-3 0  9993
2 69117  89.0195  12.2018 0001893 107.2307 252.9051 13.51024652 17712
QIANFAN-159             
1 69118U 26108Q   26266.31383208  .00000108  00000+0  14882-3 0  9996
2 69118  89.0187  12.2013 0001896 104.7624 255.3738 13.51024461 17713
QIANFAN-160             
1 69119U 26108R   26266.25636310  .00000119  00000+0  16510-3 0  9997
2 69119  89.0202  12.2450 0002409 104.0345 256.1075 13.51024590 17694
QIANFAN-161             
1 69120U 26108S   26266.26032245  .00000112  00000+0  15536-3 0  9997
2 69120  89.0209  12.1615 0001867 106.0527 254.0830 13.51022954 17740
QIANFAN-162             
1 69121U 26108T   26266.25211756  .00000113  00000+0  15630-3 0  9999
2 69121  89.0198  12.1873 0002108  98.9400 261.1990 13.51023777 17719
QIANFAN-163             
1 69325U 26121A   26265.62426251  .00000030  00000+0  27625-4 0  9994
2 69325  89.0098 290.8133 0002567 117.4758 242.6654 13.51022028 15324
QIANFAN-164             
1 69326U 26121B   26266.03572709  .00000060  00000+0  75080-4 0  9992
2 69326  89.0095 290.7624 0002150 110.0449 250.0934 13.51021752 15383
QIANFAN-165             
1 69382U 26124A   26266.26759947  .00000110  00000+0  15165-3 0  9996
2 69382  89.0070 351.7453 0002042 120.7869 239.3484 13.51022807 15281
QIANFAN-166             
1 69383U 26124B   26266.27174596  .00000117  00000+0  16212-3 0  9990
2 69383  89.0089 351.7563 0001836 105.5317 254.6037 13.51023456 15288
QIANFAN-167             
1 69384U 26124C   26266.27571803  .00000119  00000+0  16503-3 0  9998
2 69384  89.0062 351.7606 0002236 106.1394 254.0003 13.51032457 15272
QIANFAN-168             
1 69385U 26124D   26266.20574407  .00000112  00000+0  15412-3 0  9996
2 69385  89.0059 351.7475 0001687 110.4473 249.6859 13.51021037 15279
QIANFAN-169             
1 69386U 26124E   26266.20999396  .00000103  00000+0  14083-3 0  9998
2 69386  89.0057 351.7468 0001823 101.4411 258.6945 13.51024292 15276
QIANFAN-170             
1 69387U 26124F   26266.21405426  .00000096  00000+0  12958-3 0  9996
2 69387  89.0075 351.7193 0001763  99.9684 260.1666 13.51026715 15290
QIANFAN-171             
1 69388U 26124G   26266.22234865  .00000095  00000+0  12836-3 0  9999
2 69388  89.0090 351.7314 0002121 103.2989 256.8399 13.51029716 15298
QIANFAN-172             
1 69389U 26124H   26266.21815045  .00000103  00000+0  14164-3 0  9990
2 69389  89.0072 351.7211 0001926 117.9830 242.1516 13.51030298 15290
QIANFAN-173             
1 69390U 26124J   26266.22628760  .00000104  00000+0  14183-3 0  9991
2 69390  89.0061 351.7164 0001631 105.9565 254.1766 13.51023247 15298
QIANFAN-174             
1 69391U 26124K   26266.23866311  .00000111  00000+0  15378-3 0  9994
2 69391  89.0042 351.6720 0002267 108.0325 252.1074 13.51031196 15303
QIANFAN-175             
1 69392U 26124L   26266.24292903  .00000107  00000+0  14674-3 0  9999
2 69392  89.0094 351.7183 0001815 103.9869 256.1485 13.51021229 15306
QIANFAN-176             
1 69393U 26124M   26266.24702203  .00000097  00000+0  13216-3 0  9998
2 69393  89.0055 351.6965 0001829 104.0356 256.0998 13.51021959 15295
QIANFAN-177             
1 69394U 26124N   26266.25521153  .00000098  00000+0  13348-3 0  9990
2 69394  89.0065 351.6845 0002169 108.8515 251.2871 13.51031016 15316
QIANFAN-178             
1 69395U 26124P   26265.95480033  .00000086  00000+0  11393-3 0  9993
2 69395  89.0011 351.6689 0001840 102.9475 257.1882 13.51026832 15282
QIANFAN-179             
1 69396U 26124Q   26266.25933384  .00000092  00000+0  12330-3 0  9999
2 69396  89.0043 351.6573 0001814 102.6481 257.4873 13.51030529 15321
QIANFAN-180             
1 69397U 26124R   26266.26347742  .00000100  00000+0  13670-3 0  9996
2 69397  89.0050 351.6781 0001771  98.6885 261.4467 13.51022784 15312
QIANFAN-181             
1 69398U 26124S   26266.23054282  .00000110  00000+0  15181-3 0  9998
2 69398  89.0072 351.7756 0002176 105.1198 255.0194 13.51024629 15261
QIANFAN-182             
1 69399U 26124T   26266.23457855  .00000113  00000+0  15579-3 0  9996
2 69399  89.0047 351.7448 0001839 105.6685 254.4670 13.51029179 15260
QIANFAN-183             
1 69401U 26125A   26266.26920469  .00000045  00000+0  51705-4 0  9996
2 69401  88.9832 270.0192 0002108 101.0040 259.1348 13.51027635 15188
QIANFAN-184             
1 69402U 26125B   26266.27744683  .00000038  00000+0  40243-4 0  9997
2 69402  88.9882 270.0473 0002030  97.3552 262.7830 13.51028918 15186
QIANFAN-185             
1 69403U 26125C   26266.30220174  .00000044  00000+0  49852-4 0  9998
2 69403  88.9897 269.9852 0001976 100.1326 260.0048 13.51028662 15224
QIANFAN-186             
1 69404U 26125D   26265.97720299  .00000048  00000+0  56042-4 0  9997
2 69404  88.9885 270.0781 0002050  95.7964 264.3421 13.51008448 15140
QIANFAN-187             
1 69405U 26125E   26266.28163675  .00000026  00000+0  20939-4 0  9994
2 69405  88.9885 270.0297 0002233  98.3207 261.8198 13.51007417 15198
QIANFAN-188             
1 69406U 26125F   26266.28970580  .00000037  00000+0  39102-4 0  9990
2 69406  88.9883 270.0286 0002143 101.9898 258.1494 13.51029529 15198
QIANFAN-189             
1 69407U 26125G   26266.29790699  .00000043  00000+0  48205-4 0  9994
2 69407  88.9865 270.0218 0002228 106.6553 253.4843 13.51019144 15185
QIANFAN-190             
1 69408U 26125H   26266.28555649  .00000034  00000+0  34784-4 0  9995
2 69408  88.9867 270.0210 0001955  96.9469 263.1905 13.51019016 15199
QIANFAN-191             
1 69409U 26125J   26266.31027402  .00000040  00000+0  43418-4 0  9992
2 69409  88.9881 270.0309 0002105 101.9028 258.2359 13.51033074 15199
QIANFAN-192             
1 69410U 26125K   26266.29379771  .00000037  00000+0  38430-4 0  9994
2 69410  88.9887 270.0334 0002250 104.2775 255.8626 13.51019696 15195
QIANFAN-193             
1 69411U 26125L   26266.24454156  .00000027  00000+0  22888-4 0  9990
2 69411  88.9866 270.0140 0002022 103.1752 256.9625 13.51027576 15195
QIANFAN-194             
1 69412U 26125M   26266.24041703  .00000030  00000+0  27790-4 0  9992
2 69412  88.9898 270.0300 0002135 101.4107 258.7284 13.51026212 15185
QIANFAN-195             
1 69413U 26125N   26266.24872721  .00000034  00000+0  33289-4 0  9999
2 69413  88.9900 270.0142 0001928  89.4751 270.6621 13.51011930 15205
QIANFAN-196             
1 69414U 26125P   26266.25677743  .00000032  00000+0  30251-4 0  9992
2 69414  88.9904 270.0175 0001895  94.2887 265.8481 13.51035312 15203
QIANFAN-197             
1 69415U 26125Q   26266.26515413  .00000047  00000+0  53921-4 0  9994
2 69415  88.9879 269.9872 0002091  99.9021 260.2366 13.51023842 15203
QIANFAN-198             
1 69416U 26125R   26266.25275281  .00000031  00000+0  29825-4 0  9999
2 69416  88.9873 270.0009 0002141 102.1521 257.9870 13.51028267 15200
QIANFAN-199             
1 69417U 26125S   26266.26103776  .00000043  00000+0  48681-4 0  9994
2 69417  88.9877 269.9504 0002311  99.4306 260.7107 13.51025852 15235
QIANFAN-200             
1 69418U 26125T   26266.30624103  .00000042  00000+0  46290-4 0  9995
2 69418  88.9884 270.0315 0002168 104.6361 255.5031 13.51026365 15190
QIANFAN-201             
1 69800U 26153A   26266.16557605  .00000090  00000+0  53792-4 0  9995
2 69800  88.9977 351.1693 0004548   2.3628 357.7570 13.98362584 11424
QIANFAN-202             
1 69801U 26153B   26265.86823634 -.01832752  00000+0 -13284+1 0  9999
2 69801  88.9975 351.1622 0008074 314.2450  45.8065 14.00821674 11395
QIANFAN-203             
1 69802U 26153C   26265.71926070 -.01886679  00000+0 -13170+1 0  9993
2 69802  88.9972 351.2144 0009206 307.1560  52.8779 14.02383749 11369
QIANFAN-204             
1 69803U 26153D   26266.25782136  .00000040  00000+0  16819-4 0  9991
2 69803  88.9921 351.1432 0005557 331.0758  29.0114 14.03281703 11449
QIANFAN-205             
1 69804U 26153E   26265.79097579 -.01817609  00000+0 -14037+1 0  9996
2 69804  88.9971 351.2240 0005838  96.4854 263.6988 13.97194136 11365
QIANFAN-206             
1 69805U 26153F   26265.93077900 -.01897557  00000+0 -13438+1 0  9993
2 69805  88.9974 351.1526 0005588 277.5578  82.4967 14.01608890 11415
QIANFAN-207             
1 69806U 26153G   26265.86256440 -.01836518  00000+0 -13904+1 0  9992
2 69806  88.9973 351.1985 0006610 210.8036 149.2755 13.98366282 11384
QIANFAN-208             
1 69807U 26153H   26266.21013782 -.00000135  00000+0 -98483-4 0  9999
2 69807  88.9975 351.1572 0005799  28.0107 332.1384 14.01617985 11446
QIANFAN-209             
1 69808U 26153J   26265.74909423 -.01865249  00000+0 -14288+1 0  9996
2 69808  88.9977 351.2195 0003270  86.6357 273.5194 13.97103778 11362
QIANFAN-210             
1 69809U 26153K   26266.00546542  .00000033  00000+0  12631-4 0  9999
2 69809  88.9978 351.1834 0006644 346.2313  13.8685 14.01667584 11409
QIANFAN-211             
1 69810U 26153L   26266.26275589  .00000269  00000+0  13299-3 0  9990
2 69810  88.9979 351.1104 0006360 334.9634  25.1243 14.14542472 11461
QIANFAN-212             
1 69811U 26153M   26265.83689506 -.01854469  00000+0 -12889+1 0  9994
2 69811  88.9969 351.1758 0008741 302.4430  57.5904 14.02563864 11395
QIANFAN-213             
1 69812U 26153N   26266.08093409  .00000046  00000+0  20473-4 0  9997
2 69812  88.9978 351.1564 0006334 344.4632  15.6354 14.04042155 11422
QIANFAN-214             
1 69813U 26153P   26266.24489817  .00000113  00000+0  59170-4 0  9999
2 69813  88.9978 351.0884 0005825 334.0834  26.0056 14.07414410 11470
QIANFAN-215             
1 69814U 26153Q   26266.25059035  .00000315  00000+0  15511-3 0  9990
2 69814  88.9976 351.0321 0006417 346.7890  13.3128 14.15199446 11506
QIANFAN-216             
1 69815U 26153R   26265.82247145 -.01928149  00000+0 -12712+1 0  9998
2 69815  88.9972 351.1178 0008559 339.3039  20.7795 14.05659482 11429
QIANFAN-217             
1 69816U 26153S   26265.98690702  .00000069  00000+0  24268-4 0  9999
2 69816  88.9977 351.0104 0006941 349.5798  10.5249 14.22765412 11499
QIANFAN-218             
1 69817U 26153T   26266.26804688  .00000399  00000+0  17295-3 0  9999
2 69817  88.9979 350.9813 0005493 350.1935   9.9148 14.22322621 11535
QIANFAN-219             
1 69848U 26155A   26265.97677260  .00000027  00000+0  23478-4 0  9995
2 69848  89.0090  53.4505 0037101   2.5544 357.5790 13.51253499 11074
QIANFAN-220             
1 69849U 26155B   26266.21825263  .00000037  00000+0  39079-4 0  9997
2 69849  89.0098  53.4554 0034529   4.5190 355.6266 13.50934533 11090
QIANFAN-221             
1 69850U 26155C   26265.88198245 -.01894695  00000+0 -23769+1 0  9993
2 69850  89.0090  53.2408 0030155  18.7061 341.5201 13.68469795 11180
QIANFAN-222             
1 69851U 26155D   26265.86435760 -.01814421  00000+0 -31116+1 0  9992
2 69851  89.0092  53.5093 0037675   4.8605 355.2903 13.48555939 11039
QIANFAN-223             
1 69852U 26155E   26266.26233494  .00000072  00000+0  94366-4 0  9994
2 69852  89.0096  53.4773 0034414   3.6532 356.4863 13.49929628 11086
QIANFAN-224             
1 69853U 26155F   26266.16635158  .00000021  00000+0  13574-4 0  9993
2 69853  89.0099  53.4206 0034085   8.5455 351.6270 13.52035857 11099
QIANFAN-225             
1 69854U 26155G   26265.87244525 -.01861223  00000+0 -32436+1 0  9991
2 69854  89.0082  53.5071 0039246   0.7551 359.3651 13.47609885 11032
QIANFAN-226             
1 69855U 26155H   26265.87753836 -.01797753  00000+0 -30426+1 0  9995
2 69855  89.0085  53.4891 0038182   6.8990 353.2677 13.49352977 11048
QIANFAN-227             
1 69856U 26155J   26265.88181216  .00000068  00000+0  87583-4 0  9997
2 69856  89.0089  53.4918 0035372   7.8783 352.2915 13.49925735 11044
QIANFAN-228             
1 69857U 26155K   26265.89462632 -.01864934  00000+0 -30533+1 0  9995
2 69857  89.0089  53.4777 0036858   7.4608 352.7084 13.51653234 11058
QIANFAN-229             
1 69858U 26155L   26265.89689061 -.01783440  00000+0 -31343+1 0  9995
2 69858  89.0096  53.4599 0029855 356.9041   3.1918 13.47010462 11060
QIANFAN-230             
1 69859U 26155M   26266.23187281  .00000029  00000+0  26337-4 0  9995
2 69859  89.0094  53.4684 0021774   4.7047 355.4305 13.51028170 11085
QIANFAN-231             
1 69860U 26155N   26265.85082869 -.01818494  00000+0 -29262+1 0  9992
2 69860  89.0087  53.4528 0035393   7.6588 352.5097 13.52665222 11060
QIANFAN-232             
1 69861U 26155P   26266.25180221  .00000067  00000+0  85765-4 0  9999
2 69861  89.0087  53.4162 0025916   2.3898 357.7372 13.50452250 11113
QIANFAN-233             
1 69862U 26155Q   26266.20907737  .00000031  00000+0  28526-4 0  9997
2 69862  89.0093  53.4134 0036213   2.3844 357.7475 13.53664676 11117
QIANFAN-234             
1 69863U 26155R   26265.90281728 -.01870740  00000+0 -29179+1 0  9995
2 69863  89.0082  53.3875 0030158   4.9074 355.2369 13.54835944 11105
QIANFAN-235             
1 69864U 26155S   26265.86737243 -.01874531  00000+0 -18900+1 0  9991
2 69864  89.0089  53.1865 0031033  16.5510 343.6664 13.81597911 11217
QIANFAN-236             
1 69865U 26155T   26266.22645231  .00000041  00000+0  41215-4 0  9991
2 69865  89.0097  53.4360 0034146   2.9163 357.2183 13.55706044 11106
QIANFAN-237             
1 69866U 26155U   26265.85125057 -.01810832  00000+0 -30611+1 0  9993
2 69866  89.0092  53.4362 0038215   2.2343 357.8971 13.49460879 11060
QIANFAN-238             
1 69867U 26155V   26265.93080154 -.01816872  00000+0 -30602+1 0  9991
2 69867  89.0095  53.4469 0026761 356.6872   3.4097 13.49855217 11076
