QIANFAN-1               
1 60379U 24140A   26267.87172772  .00000023  00000+0  16047-4 0  9996
2 60379  88.9663 269.5692 0019579 106.4725 253.8580 13.51026108105983
QIANFAN-2               
1 60380U 24140B   26267.90056835  .00000029  00000+0  25581-4 0  9992
2 60380  88.9650 269.3668 0014894  82.2112 278.0729 13.51020544106048
QIANFAN-3               
1 60381U 24140C   26267.90895150  .00000021  00000+0  13632-4 0  9990
2 60381  88.9643 269.4768 0016071  92.8874 267.4117 13.51023256105959
QIANFAN-4               
1 60382U 24140D   26267.88414262  .00000029  00000+0  26258-4 0  9995
2 60382  88.9667 269.4491 0015154  84.3992 275.8887 13.51021116106071
QIANFAN-5               
1 60383U 24140E   26267.85931900  .00000043  00000+0  46919-4 0  9998
2 60383  88.9642 269.5063 0017271 102.9568 257.3513 13.51031582105932
QIANFAN-6               
1 60384U 24140F   26267.88000645  .00000028  00000+0  24327-4 0  9997
2 60384  88.9669 269.3282 0015282  89.4821 270.8081 13.51024243106133
QIANFAN-7               
1 60385U 24140G   26267.89173586  .00000168  00000+0  61685-4 0  9997
2 60385  88.9723 260.0345 0015190 169.3233 190.8287 14.27894874111220
QIANFAN-8               
1 60386U 24140H   26267.88835801  .00000045  00000+0  49949-4 0  9995
2 60386  88.9670 269.5682 0018736  91.3295 269.0003 13.51026257105980
QIANFAN-9               
1 60387U 24140J   26267.86360682  .00000032  00000+0  30626-4 0  9992
2 60387  88.9668 269.6403 0018432  91.1921 269.1342 13.51021961105969
QIANFAN-10              
1 60388U 24140K   26267.86770715  .00000027  00000+0  22202-4 0  9990
2 60388  88.9680 269.0175 0016733  71.3489 288.9477 13.51022078106098
QIANFAN-11              
1 60389U 24140L   26267.75674597  .00000026  00000+0  21977-4 0  9997
2 60389  88.9604 269.4006 0016455  91.2263 269.0774 13.51021239105732
QIANFAN-12              
1 60390U 24140M   26267.92537696  .00000037  00000+0  38747-4 0  9991
2 60390  88.9647 269.5508 0015284  97.8825 262.4062 13.51023859105887
QIANFAN-13              
1 60391U 24140N   26267.89653400  .00000046  00000+0  51675-4 0  9995
2 60391  88.9907 269.8098 0015097  99.9219 260.3638 13.51024024105900
QIANFAN-14              
1 60392U 24140P   26267.92132722  .00000029  00000+0  25952-4 0  9999
2 60392  88.9638 269.5229 0018771 100.4237 259.9031 13.51026014105918
QIANFAN-15              
1 60393U 24140Q   26267.85534821  .00000050  00000+0  59061-4 0  9990
2 60393  88.9662 269.5544 0014586  88.4892 271.7930 13.51028460105892
QIANFAN-16              
1 60394U 24140R   26267.91705346  .00000026  00000+0  21478-4 0  9994
2 60394  88.9664 269.6760 0016678 103.6366 256.6643 13.51025382105811
QIANFAN-17              
1 60395U 24140S   26267.91309229  .00000029  00000+0  25193-4 0  9996
2 60395  88.9675 269.7536 0017106  98.1492 262.1601 13.51021780106771
QIANFAN-18              
1 60396U 24140T   26267.89252504  .00000049  00000+0  56170-4 0  9998
2 60396  88.9670 269.2709 0016422  83.0913 277.2106 13.51021142106167
QIANFAN-19              
1 61552U 24185A   26267.88745152  .00000346  00000+0  17289-3 0  9994
2 61552  88.9865  45.1607 0008986 103.3869 256.8321 14.14534563110116
QIANFAN-20              
1 61553U 24185B   26267.89067491  .00000465  00000+0  26029-3 0  9993
2 61553  88.9859  45.7664 0006990 136.8639 223.3094 14.09076825109781
QIANFAN-21              
1 61554U 24185C   26267.91928452  .00000486  00000+0  20941-3 0  9990
2 61554  88.9785  43.4717 0011990 142.4803 217.7228 14.22937525110669
QIANFAN-22              
1 61555U 24185D   26267.89228734  .00000215  00000+0  17384-3 0  9991
2 61555  88.9839  47.9005 0006306 182.0176 178.0971 13.86431790108581
QIANFAN-23              
1 61556U 24185E   26267.88016359  .00000269  00000+0  12805-3 0  9991
2 61556  88.9857  44.8381 0009498 110.2076 250.0135 14.16555562110250
QIANFAN-24              
1 61557U 24185F   26267.88953614  .00000493  00000+0  20761-3 0  9995
2 61557  88.9844  43.7762 0011721  87.2664 272.9869 14.24161795110747
QIANFAN-25              
1 61558U 24185G   26267.88346340  .00000437  00000+0  25736-3 0  9993
2 61558  88.9852  45.8156 0013493 158.0114 202.1650 14.06135020109712
QIANFAN-26              
1 61559U 24185H   26267.86789798  .00000137  00000+0  12364-3 0  9990
2 61559  88.9843  48.8717 0004741 208.2361 151.8549 13.77946737108074
QIANFAN-27              
1 61560U 24185J   26267.88783164  .00000558  00000+0  22059-3 0  9994
2 61560  88.9855  43.4114 0009331  76.0817 284.1415 14.27608614110988
QIANFAN-28              
1 61561U 24185K   26267.91800554  .00000623  00000+0  24276-3 0  9998
2 61561  88.9873  43.4231 0009222  74.2116 286.0095 14.28493682111029
QIANFAN-29              
1 61562U 24185L   26267.90687085  .00000149  00000+0  21158-3 0  9999
2 61562  88.9811  51.7327 0008279 309.2415  50.8001 13.51095962106431
QIANFAN-30              
1 61563U 24185M   26267.87594483  .00000139  00000+0  20006-3 0  9995
2 61563  88.9832  51.3711 0005860 293.6943  66.3593 13.50077432106678
QIANFAN-31              
1 61564U 24185N   26267.85789245  .00000149  00000+0  18869-3 0  9991
2 61564  88.9817  50.7209 0005242 272.8337  87.2218 13.58066774106993
QIANFAN-32              
1 61565U 24185P   26267.91013120  .00000116  00000+0  16146-3 0  9991
2 61565  88.9871  51.5850 0008421 329.9622  30.1045 13.50807292106678
QIANFAN-33              
1 61566U 24185Q   26267.90562233  .00000308  00000+0  21202-3 0  9997
2 61566  88.9841  46.9109 0008942 141.6286 218.5529 13.96756309109106
QIANFAN-34              
1 61567U 24185R   26267.90921190  .00000405  00000+0  25409-3 0  9990
2 61567  88.9822  46.0961 0006930 138.2669 221.9041 14.02525841109464
QIANFAN-35              
1 61568U 24185S   26267.90564583  .00000531  00000+0  20674-3 0  9999
2 61568  88.9853  43.3009 0008308  72.9838 287.2266 14.28363411111025
QIANFAN-36              
1 61569U 24185T   26267.90623210  .00000050  00000+0  54024-4 0  9996
2 61569  88.9808  51.2252 0004582 297.1040  62.9646 13.55648013106690
QIANFAN-37              
1 62238U 24232B   26267.87528766  .00000114  00000+0  15821-3 0  9991
2 62238  89.0162  12.6043 0001781  88.2231 271.9124 13.51031561137807
QIANFAN-38              
1 62239U 24232C   26267.90006882  .00000101  00000+0  13775-3 0  9998
2 62239  89.0169  12.5370 0016432  90.7114 269.5920 13.51029776137862
QIANFAN-39              
1 62240U 24232D   26267.82485305  .00000365  00000+0  14795-3 0  9997
2 62240  89.0145   4.7560 0015041 213.9352 146.0881 14.25565015142145
QIANFAN-40              
1 62241U 24232E   26267.85892733  .00000090  00000+0  12016-3 0  9997
2 62241  89.0196  12.2054 0015589  97.9346 262.3576 13.51030047138221
QIANFAN-41              
1 62242U 24232F   26267.86712386  .00000116  00000+0  16047-3 0  9991
2 62242  89.0167  12.4864 0015794  87.4075 272.8884 13.51031209137882
QIANFAN-42              
1 62243U 24232G   26267.86486546  .00000360  00000+0  14884-3 0  9996
2 62243  89.0143   4.8409 0013630 220.9345 139.0825 14.24651951142101
QIANFAN-43              
1 62244U 24232H   26267.86301829  .00000111  00000+0  15263-3 0  9993
2 62244  89.0171  12.5648 0017396  91.8375 268.4769 13.51030674106493
QIANFAN-44              
1 62245U 24232J   26267.85069751  .00000114  00000+0  15764-3 0  9997
2 62245  89.0170  12.3721 0015584  89.4589 270.8348 13.51030938137969
QIANFAN-45              
1 62246U 24232K   26267.81780319  .00000105  00000+0  14323-3 0  9994
2 62246  89.0173  12.5320 0016244  89.1199 271.1814 13.51029613137889
QIANFAN-46              
1 62247U 24232L   26267.84242299  .00000116  00000+0  16021-3 0  9997
2 62247  89.0169  12.5869 0016349  93.9296 266.3724 13.51030720137843
QIANFAN-47              
1 62248U 24232M   26267.92064614  .00000122  00000+0  17021-3 0  9998
2 62248  89.0165  12.5006 0016764  92.9173 267.3897 13.51030012137887
QIANFAN-48              
1 62249U 24232N   26267.88373102  .00000122  00000+0  16966-3 0  9996
2 62249  89.0169  12.5173 0019038  95.1824 265.1501 13.51024358137886
QIANFAN-49              
1 62250U 24232P   26267.87126619  .00000120  00000+0  16651-3 0  9995
2 62250  89.0168  12.5288 0016070  90.7053 269.5940 13.51031447106475
QIANFAN-50              
1 62251U 24232Q   26267.82185721  .00000106  00000+0  14511-3 0  9997
2 62251  89.0174  12.5574 0017742  91.8353 268.4831 13.51030951106491
QIANFAN-51              
1 62252U 24232R   26267.87950328  .00000122  00000+0  16986-3 0  9992
2 62252  89.0168  12.5280 0015243  95.3166 264.9725 13.51029914106494
QIANFAN-52              
1 62253U 24232S   26267.83421057  .00000107  00000+0  14621-3 0  9998
2 62253  89.0164  12.3948 0017204  88.1559 272.1563 13.51031898106579
QIANFAN-53              
1 62254U 24232T   26267.88778511  .00000112  00000+0  15403-3 0  9999
2 62254  89.0171  12.5157 0016096  89.1802 271.1193 13.51028663106543
QIANFAN-54              
1 62255U 24232U   26267.85479783  .00000107  00000+0  14713-3 0  9993
2 62255  89.0162  12.1722 0004024 118.4033 241.7525 13.51030508138041
QIANFAN-55              
1 62785U 25016A   26267.88092088  .00000050  00000+0  59370-4 0  9990
2 62785  88.9676  73.5001 0015812 238.2664 121.6947 13.51025253 85828
QIANFAN-56              
1 62786U 25016B   26267.89719741  .00000051  00000+0  60747-4 0  9995
2 62786  88.9650  73.2586 0014373 240.8168 119.1546 13.51028455 85874
QIANFAN-57              
1 62787U 25016C   26267.85621660  .00000047  00000+0  53788-4 0  9996
2 62787  88.9680  73.5055 0002314  79.4818 280.6594 13.51028150 85837
QIANFAN-58              
1 62788U 25016D   26267.90149500  .00000051  00000+0  60655-4 0  9997
2 62788  88.9651  73.2454 0012424 231.7333 128.2701 13.51027673 85885
QIANFAN-59              
1 62789U 25016E   26267.85195879  .00000045  00000+0  50420-4 0  9994
2 62789  88.9674  73.3916 0012711 236.2780 123.7160 13.51024973 85878
QIANFAN-60              
1 62790U 25016F   26267.88486658  .00000055  00000+0  66547-4 0  9995
2 62790  88.9656  73.3053 0014325 232.6701 127.3145 13.51028511 85862
QIANFAN-61              
1 62791U 25016G   26267.91782961  .00000046  00000+0  52581-4 0  9999
2 62791  88.9721  73.6582 0013297 231.7179 128.2776 13.51028010 85888
QIANFAN-62              
1 62792U 25016H   26267.92206469  .00000043  00000+0  47885-4 0  9993
2 62792  88.9669  73.3726 0014631 232.3600 127.6224 13.51027430 85871
QIANFAN-63              
1 62793U 25016J   26267.87263534  .00000054  00000+0  64824-4 0  9998
2 62793  88.9676  73.3486 0014596 238.4651 121.5075 13.51023383 85900
QIANFAN-64              
1 62794U 25016K   26267.91374027  .00000046  00000+0  52365-4 0  9992
2 62794  88.9663  73.2801 0012662 229.8713 130.1329 13.51027995 85903
QIANFAN-65              
1 62795U 25016L   26267.90953808  .00000050  00000+0  58724-4 0  9992
2 62795  88.9659  73.2963 0012492 231.7166 128.2863 13.51024111 85888
QIANFAN-66              
1 62796U 25016M   26267.86431017  .00000058  00000+0  71348-4 0  9996
2 62796  88.9679  73.3274 0013657 227.4373 132.5626 13.51020212 85921
QIANFAN-67              
1 62797U 25016N   26267.86838750  .00000053  00000+0  63339-4 0  9998
2 62797  88.9669  73.3244 0013500 235.0281 124.9603 13.51020372 85891
QIANFAN-68              
1 62798U 25016P   26267.86026196  .00000059  00000+0  72353-4 0  9994
2 62798  88.9672  73.3806 0013615 232.7153 127.2758 13.51022365 85878
QIANFAN-69              
1 62799U 25016Q   26267.87660859  .00000044  00000+0  49242-4 0  9991
2 62799  88.9652  73.1876 0014323 234.4212 125.5605 13.51024670 85912
QIANFAN-70              
1 62800U 25016R   26267.89320433  .00000068  00000+0  86717-4 0  9991
2 62800  88.9672  73.3838 0014119 223.7079 136.2955 13.51024426 85873
QIANFAN-71              
1 62801U 25016S   26267.88902594  .00000054  00000+0  64295-4 0  9997
2 62801  88.9666  73.3465 0014173 238.2978 121.6792 13.51027278 85877
QIANFAN-72              
1 62802U 25016T   26267.90558709  .00000061  00000+0  75540-4 0  9999
2 62802  88.9656  73.3302 0017333 246.7624 113.1703 13.51029080 85860
QIANFAN-73              
1 63159U 25046A   26267.85847775  .00000044  00000+0  48974-4 0  9998
2 63159  88.9636 290.3096 0015566  24.3295 335.8588 13.51025817 86044
QIANFAN-74              
1 63160U 25046B   26267.84209024  .00000035  00000+0  35548-4 0  9991
2 63160  88.9637 290.2013 0001891  98.3924 261.7442 13.51018679 86102
QIANFAN-75              
1 63161U 25046C   26267.90378276  .00000121  00000+0  16844-3 0  9998
2 63161  88.9639 290.4324 0016799  27.1296 333.0730 13.51031886 85980
QIANFAN-76              
1 63162U 25046D   26267.89977806 -.00000083  00000+0 -14680-3 0  9996
2 63162  88.9638 290.4125 0014298  28.5501 331.6430 13.51019918 85999
QIANFAN-77              
1 63163U 25046E   26267.85653367  .00000124  00000+0  80095-4 0  9994
2 63163  88.9644 286.0647 0012534 266.6605  93.3138 13.96247992 88374
QIANFAN-78              
1 63164U 25046F   26267.86736173  .00000089  00000+0  11928-3 0  9991
2 63164  88.9638 290.2776 0015766  29.9946 330.2105 13.51012955 86067
QIANFAN-79              
1 63165U 25046G   26267.89553589  .00000030  00000+0  27657-4 0  9996
2 63165  88.9641 290.3920 0015445  28.7116 331.4882 13.51021268 86011
QIANFAN-80              
1 63166U 25046H   26267.83790520  .00000100  00000+0  13560-3 0  9994
2 63166  88.9638 290.0971 0014516  33.6708 326.5362 13.51030608 86163
QIANFAN-81              
1 63167U 25046J   26267.89138926  .00000116  00000+0  16110-3 0  9998
2 63167  88.9638 290.1587 0015346  22.9649 337.2185 13.51021830 86120
QIANFAN-82              
1 63168U 25046K   26267.85032677  .00000096  00000+0  12961-3 0  9998
2 63168  88.9638 290.2074 0013478  30.6066 329.5869 13.51021464 86100
QIANFAN-83              
1 63169U 25046L   26267.84088876  .00000066  00000+0  69108-4 0  9993
2 63169  88.9641 289.4206 0013700 359.9065   0.2087 13.62065307 86545
QIANFAN-84              
1 63170U 25046M   26267.87914447 -.00000062  00000+0 -11452-3 0  9996
2 63170  88.9638 290.3369 0016324  25.5931 334.6024 13.51016170 86038
QIANFAN-85              
1 63171U 25046N   26267.87496210  .00000109  00000+0  15068-3 0  9997
2 63171  88.9637 290.2070 0013981  29.0933 331.0994 13.51021706 86109
QIANFAN-86              
1 63172U 25046P   26267.88314835  .00000109  00000+0  14947-3 0  9996
2 63172  88.9640 290.0750 0012021  34.3666 325.8261 13.51026802 86181
QIANFAN-87              
1 63173U 25046Q   26267.85433704  .00000014  00000+0  26300-5 0  9994
2 63173  88.9635 290.1788 0012351  28.8099 331.3732 13.51020464 86118
QIANFAN-88              
1 63174U 25046R   26267.87081668  .00000116  00000+0  16147-3 0  9994
2 63174  88.9639 290.1389 0013070  37.2914 322.9142 13.51020216 86148
QIANFAN-89              
1 63175U 25046S   26267.75972378  .00000106  00000+0  14549-3 0  9992
2 63175  88.9639 290.3394 0017252  25.9835 334.2178 13.51020911 86023
QIANFAN-90              
1 63176U 25046T   26267.86265780  .00000040  00000+0  43491-4 0  9993
2 63176  88.9639 290.3019 0014142  25.7689 334.4164 13.51020034 86054
QIANFAN-91              
1 66033U 25233A   26267.89503114  .00000077  00000+0  10106-3 0  9991
2 66033  89.0062  33.1128 0001678  95.9534 264.1808 13.51030223 46649
QIANFAN-92              
1 66034U 25233B   26267.82961643  .00000024  00000+0  18798-4 0  9998
2 66034  89.0046  33.0748 0002229 101.8548 258.2854 13.51027414 46636
QIANFAN-93              
1 66035U 25233C   26267.61552212  .00000079  00000+0  10325-3 0  9991
2 66035  89.0073  33.1749 0001746  94.8125 265.3225 13.51013418 46601
QIANFAN-94              
1 66036U 25233D   26267.89921121  .00000083  00000+0  10924-3 0  9991
2 66036  89.0070  33.0465 0001757 102.2573 257.8775 13.51028649 46693
QIANFAN-95              
1 66037U 25233E   26267.90745840  .00000075  00000+0  98015-4 0  9995
2 66037  89.0068  32.5870 0001585  99.2739 260.8592 13.51028525 46945
QIANFAN-96              
1 66038U 25233F   26267.85801590  .00000076  00000+0  99769-4 0  9993
2 66038  89.0065  33.1325 0001644  94.6478 265.4861 13.51029719 46632
QIANFAN-97              
1 66039U 25233G   26267.91558593  .00000070  00000+0  89552-4 0  9996
2 66039  89.0068  33.1141 0001748  95.9833 264.1517 13.51039694 46644
QIANFAN-98              
1 66040U 25233H   26267.84982072  .00000065  00000+0  82476-4 0  9995
2 66040  89.0057  32.8409 0001729 115.8238 244.3092 13.51029926 46787
QIANFAN-99              
1 66041U 25233J   26267.85383145  .00000081  00000+0  10704-3 0  9995
2 66041  89.0069  33.1249 0001552 111.8318 248.2998 13.51036539 46647
QIANFAN-100             
1 66042U 25233K   26267.84571716  .00000062  00000+0  77448-4 0  9996
2 66042  89.0081  33.0639 0001621  94.1885 265.9452 13.51055577 46692
QIANFAN-101             
1 66043U 25233L   26267.87876953  .00000272  00000+0  10601-3 0  9991
2 66043  89.0070  29.1336 0015603 169.1508 191.0026 14.26863929 48847
QIANFAN-102             
1 66044U 25233M   26267.86626750  .00000077  00000+0  10022-3 0  9999
2 66044  89.0066  33.0310 0001723 103.4034 256.7309 13.51029295 46693
QIANFAN-103             
1 66045U 25233N   26267.87041865  .00000079  00000+0  10337-3 0  9990
2 66045  89.0069  33.1286 0001725  96.3126 263.8222 13.51029406 46646
QIANFAN-104             
1 66046U 25233P   26267.87445160  .00000069  00000+0  88641-4 0  9990
2 66046  89.0074  33.0349 0001802 104.4831 255.6520 13.51027325 46695
QIANFAN-105             
1 66047U 25233Q   26267.88279452  .00000065  00000+0  81478-4 0  9998
2 66047  89.0087  32.8904 0001793 100.5275 259.6078 13.51030562 46804
QIANFAN-106             
1 66048U 25233R   26267.87856112  .00000063  00000+0  79673-4 0  9994
2 66048  89.0056  33.0724 0001702 113.4175 246.7156 13.51030924 46644
QIANFAN-107             
1 66049U 25233S   26267.88680871  .00000065  00000+0  82136-4 0  9993
2 66049  89.0071  33.1198 0001760  97.1704 262.9647 13.51030140 46654
QIANFAN-108             
1 66050U 25233T   26267.89098191  .00000074  00000+0  95949-4 0  9990
2 66050  89.0065  33.1001 0001735 111.7635 248.3701 13.51029896 46655
QIANFAN-109             
1 68636U 26075A   26267.90488098  .00000073  00000+0  93695-4 0  9993
2 68636  88.9856 310.8352 0001903  83.3996 276.7372 13.51021335 23258
QIANFAN-110             
1 68637U 26075B   26267.83898599  .00000066  00000+0  84225-4 0  9998
2 68637  88.9857 310.8635 0002206  96.0510 264.0893 13.51022224 23249
QIANFAN-111             
1 68638U 26075C   26267.90096195  .00000072  00000+0  92310-4 0  9990
2 68638  88.9856 310.8160 0002180  95.6424 264.4976 13.51024730 23275
QIANFAN-112             
1 68639U 26075D   26267.86383172  .00000075  00000+0  97096-4 0  9999
2 68639  88.9855 310.8276 0002137  82.7190 277.4204 13.51024101 23261
QIANFAN-113             
1 68640U 26075E   26267.83489421  .00000073  00000+0  94517-4 0  9995
2 68640  88.9860 310.8298 0002226  92.6508 267.4898 13.51020747 23265
QIANFAN-114             
1 68641U 26075F   26267.91715535  .00000064  00000+0  79764-4 0  9990
2 68641  88.9855 310.8358 0002179  95.3547 264.7853 13.51028280 23268
QIANFAN-115             
1 68642U 26075G   26267.87199017  .00000064  00000+0  79964-4 0  9999
2 68642  88.9855 310.8477 0002023  93.7401 266.3982 13.51025016 23254
QIANFAN-116             
1 68643U 26075H   26267.85961750  .00000072  00000+0  93365-4 0  9999
2 68643  88.9848 310.8020 0002214  85.9116 274.2289 13.51025555 23266
QIANFAN-117             
1 68644U 26075J   26267.84737602  .00000065  00000+0  82492-4 0  9997
2 68644  88.9853 310.8236 0002048  89.2494 270.8892 13.51023354 23260
QIANFAN-118             
1 68645U 26075K   26267.88020763  .00000061  00000+0  75604-4 0  9998
2 68645  88.9858 310.8330 0002289  97.0571 263.0841 13.51025115 23266
QIANFAN-119             
1 68646U 26075L   26267.85545569  .00000082  00000+0  10859-3 0  9995
2 68646  88.9858 310.8313 0001860  87.5981 272.5383 13.51020920 23266
QIANFAN-120             
1 68647U 26075M   26267.86784164  .00000071  00000+0  91080-4 0  9997
2 68647  88.9860 310.8166 0001791  87.5662 272.5694 13.51020767 23270
QIANFAN-121             
1 68648U 26075N   26267.89263868  .00000073  00000+0  94444-4 0  9993
2 68648  88.9857 310.8168 0002206  97.0058 263.1345 13.51024217 23279
QIANFAN-122             
1 68649U 26075P   26267.88434232  .00000069  00000+0  88473-4 0  9998
2 68649  88.9856 310.8146 0002016  87.2083 272.9299 13.51027789 23265
QIANFAN-123             
1 68650U 26075Q   26267.85135055  .00000069  00000+0  88439-4 0  9990
2 68650  88.9853 310.8047 0001924  81.1207 279.0162 13.51020669 23247
QIANFAN-124             
1 68651U 26075R   26267.87613964  .00000060  00000+0  74257-4 0  9997
2 68651  88.9856 310.8138 0002017  85.2276 274.9105 13.51027285 23272
QIANFAN-125             
1 68652U 26075S   26267.88852407  .00000073  00000+0  94793-4 0  9997
2 68652  88.9855 310.8145 0002226  96.4329 263.7076 13.51024347 23274
QIANFAN-126             
1 68653U 26075T   26267.89658752  .00000084  00000+0  11152-3 0  9995
2 68653  88.9859 310.7833 0001909  81.9223 278.2144 13.51019933 23295
QIANFAN-127             
1 69073U 26104A   26267.90201471  .00000088  00000+0  11777-3 0  9996
2 69073  88.9916 331.3057 0002529  99.9684 260.1753 13.51028761 18628
QIANFAN-128             
1 69074U 26104B   26267.83607627  .00000093  00000+0  12614-3 0  9999
2 69074  88.9894 331.3352 0002345 111.1238 249.0164 13.51024266 18594
QIANFAN-129             
1 69075U 26104C   26267.86069511  .00000087  00000+0  11552-3 0  9990
2 69075  88.9897 331.2671 0002371 106.0947 254.0465 13.51024284 18635
QIANFAN-130             
1 69076U 26104D   26267.89771615  .00000084  00000+0  11086-3 0  9998
2 69076  88.9899 331.3292 0002450  94.6329 265.5102 13.51022380 18609
QIANFAN-131             
1 69077U 26104E   26267.84438932  .00000096  00000+0  13033-3 0  9993
2 69077  88.9892 331.2948 0002115 106.5976 253.5407 13.51026478 18617
QIANFAN-132             
1 69078U 26104F   26267.90596437  .00000092  00000+0  12357-3 0  9990
2 69078  88.9894 331.3453 0002359  98.0055 262.1364 13.51022653 18591
QIANFAN-133             
1 69079U 26104G   26267.84020713  .00000102  00000+0  13936-3 0  9999
2 69079  88.9898 331.3024 0002107 112.6239 247.5135 13.51031521 18607
QIANFAN-134             
1 69080U 26104H   26267.86898961  .00000088  00000+0  11837-3 0  9992
2 69080  88.9902 331.3260 0002289 110.6558 249.4839 13.51029791 18608
QIANFAN-135             
1 69081U 26104J   26267.84835858  .00000092  00000+0  12446-3 0  9999
2 69081  88.9896 331.3185 0002527 109.3624 250.7801 13.51022990 18609
QIANFAN-136             
1 69082U 26104K   26267.85657304  .00000079  00000+0  10317-3 0  9999
2 69082  88.9898 331.3209 0002178 111.2308 248.9076 13.51042760 18602
QIANFAN-137             
1 69083U 26104L   26267.85254642  .00000087  00000+0  11550-3 0  9997
2 69083  88.9907 331.1984 0002234  98.8776 261.2628 13.51022643 18670
QIANFAN-138             
1 69084U 26104M   26267.87715746  .00000094  00000+0  12664-3 0  9992
2 69084  88.9891 331.3182 0002554 103.6079 256.5356 13.51022408 18608
QIANFAN-139             
1 69085U 26104N   26267.86495953  .00000082  00000+0  10906-3 0  9991
2 69085  88.9893 331.3014 0002462  98.3813 261.7617 13.51031127 18616
QIANFAN-140             
1 69086U 26104P   26267.87305324  .00000092  00000+0  12336-3 0  9995
2 69086  88.9894 331.3041 0002597 108.0552 252.0882 13.51023515 18615
QIANFAN-141             
1 69087U 26104Q   26267.88135840  .00000110  00000+0  15183-3 0  9995
2 69087  88.9891 331.2674 0002414 110.1775 249.9636 13.51021373 18637
QIANFAN-142             
1 69088U 26104R   26267.88949886  .00000089  00000+0  11906-3 0  9993
2 69088  88.9890 331.2658 0002516 104.3612 255.7818 13.51020534 18632
QIANFAN-143             
1 69089U 26104S   26267.88547030  .00000087  00000+0  11634-3 0  9995
2 69089  88.9900 331.2734 0002047 106.5476 253.5900 13.51028000 18635
QIANFAN-144             
1 69090U 26104T   26267.89361144  .00000082  00000+0  10883-3 0  9998
2 69090  88.9898 331.2906 0002535 100.7548 259.3889 13.51021389 18624
QIANFAN-145             
1 69104U 26108A   26267.89789379  .00000113  00000+0  15698-3 0  9996
2 69104  89.0199  12.0983 0001629 107.8442 252.2887 13.51022705 17902
QIANFAN-146             
1 69105U 26108B   26267.56049436  .00000109  00000+0  15012-3 0  9999
2 69105  89.0201  11.9690 0001924 100.5885 259.5483 13.51041084 17957
QIANFAN-147             
1 69106U 26108C   26267.83224971  .00000115  00000+0  16006-3 0  9990
2 69106  89.0201  12.1094 0002081 103.0451 257.0933 13.51026112 17881
QIANFAN-148             
1 69107U 26108D   26267.81984102  .00000113  00000+0  15717-3 0  9994
2 69107  89.0194  12.1003 0002066 109.6011 250.5363 13.51025722 17881
QIANFAN-149             
1 69108U 26108E   26267.82800609  .00000110  00000+0  15131-3 0  9992
2 69108  89.0194  12.1207 0002340 106.9222 253.2186 13.51025156 17881
QIANFAN-150             
1 69109U 26108F   26267.91026493  .00000122  00000+0  17002-3 0  9996
2 69109  89.0199  12.0661 0002346 105.5832 254.5578 13.51025626 17913
QIANFAN-151             
1 69110U 26108G   26267.86516633  .00000118  00000+0  16479-3 0  9994
2 69110  89.0199  12.0942 0001827 105.6533 254.4820 13.51028841 17897
QIANFAN-152             
1 69111U 26108H   26267.84441702  .00000134  00000+0  18948-3 0  9998
2 69111  89.0195  12.0878 0002151  96.3704 263.7692 13.51021520 17908
QIANFAN-153             
1 69112U 26108J   26267.84030839 -.00000055  00000+0 -10410-3 0  9994
2 69112  89.0187  12.0645 0002124 101.2403 258.8987 13.51022561 17902
QIANFAN-154             
1 69113U 26108K   26267.84866204  .00000126  00000+0  17655-3 0  9993
2 69113  89.0202  12.1130 0002170 105.1296 255.0095 13.51028019 17896
QIANFAN-155             
1 69114U 26108L   26267.85267384  .00000107  00000+0  14760-3 0  9992
2 69114  89.0199  12.0770 0002286 103.7516 256.3890 13.51024810 17902
QIANFAN-156             
1 69115U 26108M   26267.72509210  .00000118  00000+0  16469-3 0  9996
2 69115  89.0214  12.0917 0001959 109.1942 250.9421 13.51024734 17908
QIANFAN-157             
1 69116U 26108N   26267.86102771  .00000116  00000+0  16080-3 0  9990
2 69116  89.0195  12.0006 0002169 110.7053 249.4331 13.51029550 17950
QIANFAN-158             
1 69117U 26108P   26267.87730813  .00000115  00000+0  15905-3 0  9990
2 69117  89.0197  12.0404 0001893 107.9291 252.2067 13.51025001 17933
QIANFAN-159             
1 69118U 26108Q   26267.86913252  .00000125  00000+0  17493-3 0  9995
2 69118  89.0189  12.0471 0001902 105.3326 254.8035 13.51024837 17929
QIANFAN-160             
1 69119U 26108R   26267.88572527  .00000117  00000+0  16217-3 0  9998
2 69119  89.0204  12.0836 0002409 103.4179 256.7240 13.51024948 17912
QIANFAN-161             
1 69120U 26108S   26267.88968654  .00000116  00000+0  16071-3 0  9997
2 69120  89.0211  12.0003 0001875 106.5731 253.5626 13.51023332 17966
QIANFAN-162             
1 69121U 26108T   26267.88148062  .00000128  00000+0  17978-3 0  9991
2 69121  89.0200  12.0259 0002095  98.8945 261.2444 13.51024195 17932
QIANFAN-163             
1 69325U 26121A   26267.62393847  .00000031  00000+0  29282-4 0  9992
2 69325  89.0095 290.6132 0002640 115.8069 244.3355 13.51022085 15596
QIANFAN-164             
1 69326U 26121B   26267.59103068  .00000062  00000+0  77478-4 0  9997
2 69326  89.0092 290.6068 0002175 109.7288 250.4098 13.51021936 15596
QIANFAN-165             
1 69382U 26124A   26267.89696385  .00000132  00000+0  18559-3 0  9996
2 69382  89.0069 351.5817 0002092 120.6571 239.4787 13.51023219 15505
QIANFAN-166             
1 69383U 26124B   26267.82704747  .00000129  00000+0  18118-3 0  9999
2 69383  89.0088 351.6005 0001843 106.1529 253.9825 13.51023850 15495
QIANFAN-167             
1 69384U 26124C   26267.90507071  .00000121  00000+0  16952-3 0  9996
2 69384  89.0062 351.5969 0002241 105.7897 254.3501 13.51032816 15490
QIANFAN-168             
1 69385U 26124D   26267.90917260  .00000113  00000+0  15624-3 0  9998
2 69385  89.0058 351.5763 0001707 111.5227 248.6107 13.51021401 15504
QIANFAN-169             
1 69386U 26124E   26267.83935647  .00000110  00000+0  15190-3 0  9995
2 69386  89.0057 351.5830 0001822 102.0935 258.0420 13.51024635 15491
QIANFAN-170             
1 69387U 26124F   26267.84341383  .00000111  00000+0  15405-3 0  9995
2 69387  89.0074 351.5558 0001752 100.7366 259.3982 13.51027076 15515
QIANFAN-171             
1 69388U 26124G   26267.85170468  .00000120  00000+0  16682-3 0  9999
2 69388  89.0089 351.5682 0002121 103.2027 256.9361 13.51030088 15514
QIANFAN-172             
1 69389U 26124H   26267.84750589  .00000116  00000+0  16099-3 0  9994
2 69389  89.0072 351.5576 0001967 118.0307 242.1043 13.51030638 15516
QIANFAN-173             
1 69390U 26124J   26267.85565145  .00000124  00000+0  17342-3 0  9990
2 69390  89.0061 351.5527 0001642 107.3693 252.7638 13.51023604 15513
QIANFAN-174             
1 69391U 26124K   26267.86801732  .00000127  00000+0  17754-3 0  9997
2 69391  89.0041 351.5079 0002278 107.5979 252.5422 13.51031590 15522
QIANFAN-175             
1 69392U 26124L   26267.87229527  .00000116  00000+0  16090-3 0  9995
2 69392  89.0093 351.5551 0001814 104.6329 255.5024 13.51021567 15521
QIANFAN-176             
1 69393U 26124M   26267.87638737  .00000111  00000+0  15376-3 0  9994
2 69393  89.0055 351.5327 0001831 104.7233 255.4121 13.51022299 15514
QIANFAN-177             
1 69394U 26124N   26267.88456608  .00000116  00000+0  16130-3 0  9995
2 69394  89.0065 351.5209 0002183 108.6149 251.5239 13.51031343 15534
QIANFAN-178             
1 69395U 26124P   26267.88040690  .00000112  00000+0  15550-3 0  9997
2 69395  89.0011 351.4745 0001844 103.5046 256.6311 13.51027264 15548
QIANFAN-179             
1 69396U 26124Q   26267.88868884  .00000120  00000+0  16727-3 0  9997
2 69396  89.0043 351.4933 0001816 103.4370 256.6983 13.51030908 15545
QIANFAN-180             
1 69397U 26124R   26267.81877973  .00000123  00000+0  17203-3 0  9993
2 69397  89.0049 351.5216 0001760  99.6090 260.5260 13.51023146 15526
QIANFAN-181             
1 69398U 26124S   26267.85990500  .00000124  00000+0  17313-3 0  9993
2 69398  89.0072 351.6120 0002186 104.9489 255.1905 13.51024991 15483
QIANFAN-182             
1 69399U 26124T   26267.86393521  .00000126  00000+0  17684-3 0  9998
2 69399  89.0046 351.5808 0001848 106.2666 253.8688 13.51029549 15480
QIANFAN-183             
1 69401U 26125A   26267.89856329  .00000033  00000+0  32479-4 0  9993
2 69401  88.9831 269.8519 0002146 100.3789 259.7605 13.51027702 15402
QIANFAN-184             
1 69402U 26125B   26267.90680376  .00000035  00000+0  35074-4 0  9999
2 69402  88.9882 269.8808 0002045  97.2882 262.8502 13.51029038 15401
QIANFAN-185             
1 69403U 26125C   26267.93155914  .00000037  00000+0  37917-4 0  9998
2 69403  88.9897 269.8189 0002010  99.8822 260.2556 13.51028737 15444
QIANFAN-186             
1 69404U 26125D   26267.90278947  .00000038  00000+0  39708-4 0  9999
2 69404  88.9884 269.8813 0002084  96.0733 264.0655 13.51028231 15403
QIANFAN-187             
1 69405U 26125E   26267.91101969  .00000022  00000+0  15114-4 0  9998
2 69405  88.9885 269.8632 0002258  97.7303 262.4104 13.51007478 15410
QIANFAN-188             
1 69406U 26125F   26267.91906215  .00000039  00000+0  41812-4 0  9998
2 69406  88.9883 269.8621 0002177 101.4525 258.6871 13.51029631 15419
QIANFAN-189             
1 69407U 26125G   26267.92727595  .00000036  00000+0  36869-4 0  9995
2 69407  88.9865 269.8550 0002277 105.7097 254.4306 13.51019205 15405
QIANFAN-190             
1 69408U 26125H   26267.91492547  .00000028  00000+0  25027-4 0  9996
2 69408  88.9867 269.8542 0001976  96.9862 263.1514 13.51019083 15418
QIANFAN-191             
1 69409U 26125J   26267.86556465  .00000024  00000+0  17985-4 0  9991
2 69409  88.9880 269.8720 0002143 101.4447 258.6945 13.51033104 15406
QIANFAN-192             
1 69410U 26125K   26267.92316574  .00000013  00000+0  15823-5 0  9993
2 69410  88.9888 269.8669 0002232 103.6780 256.4620 13.51019676 15416
QIANFAN-193             
1 69411U 26125L   26267.87390026  .00000024  00000+0  17800-4 0  9990
2 69411  88.9865 269.8472 0002055 102.9449 257.1932 13.51027630 15414
QIANFAN-194             
1 69412U 26125M   26267.86977737  .00000016  00000+0  55598-5 0  9998
2 69412  88.9898 269.8638 0002163 101.1235 259.0160 13.51026229 15405
QIANFAN-195             
1 69413U 26125N   26267.80404211  .00000028  00000+0  24188-4 0  9998
2 69413  88.9899 269.8555 0001923  89.7187 270.4185 13.51011971 15418
QIANFAN-196             
1 69414U 26125P   26267.88612682  .00000029  00000+0  26952-4 0  9992
2 69414  88.9904 269.8514 0001910  94.3427 265.7942 13.51035358 15420
QIANFAN-197             
1 69415U 26125Q   26267.89451730  .00000040  00000+0  43831-4 0  9997
2 69415  88.9878 269.8207 0002122  99.3344 260.8047 13.51023933 15427
QIANFAN-198             
1 69416U 26125R   26267.95617245  .00000033  00000+0  31960-4 0  9992
2 69416  88.9872 269.8267 0002183 101.5543 258.5853 13.51028343 15432
QIANFAN-199             
1 69417U 26125S   26267.89039851  .00000052  00000+0  61217-4 0  9996
2 69417  88.9876 269.7838 0002336  98.5429 261.5987 13.51025988 15454
QIANFAN-200             
1 69418U 26125T   26267.86153939  .00000032  00000+0  31030-4 0  9996
2 69418  88.9883 269.8726 0002211 103.8996 256.2401 13.51026426 15406
QIANFAN-201             
1 69800U 26153A   26267.52419684 -.01808401  00000+0 -14895+1 0  9992
2 69800  88.9972 351.0202 0001715  22.2378 337.8871 13.93485885 11619
QIANFAN-202             
1 69801U 26153B   26267.50696005 -.01830234  00000+0 -13496+1 0  9990
2 69801  88.9974 350.9803 0006365 249.3121 110.7376 13.99848520 11625
QIANFAN-203             
1 69802U 26153C   26267.49835633 -.01827831  00000+0 -13138+1 0  9993
2 69802  88.9973 351.0164 0005410 273.2737  86.7823 14.01287581 11612
QIANFAN-204             
1 69803U 26153D   26266.96973949 -.01862709  00000+0 -13879+1 0  9993
2 69803  88.9973 351.0685 0002189 147.6517 212.4796 13.98675457 11548
QIANFAN-205             
1 69804U 26153E   26267.50528091 -.01809208  00000+0 -14177+1 0  9996
2 69804  88.9972 351.0353 0007703  43.0864 317.0914 13.96335937 11606
QIANFAN-206             
1 69805U 26153F   26267.49925659 -.02016090  00000+0 -14787+1 0  9993
2 69805  88.9970 350.9796 0004786 332.4242  27.6682 13.99873557 11634
QIANFAN-207             
1 69806U 26153G   26267.00484790 -.01877534  00000+0 -14300+1 0  9995
2 69806  88.9975 351.0720 0006487  77.1262 283.0640 13.97446219 11545
QIANFAN-208             
1 69807U 26153H   26267.49469311 -.01982786  00000+0 -15180+1 0  9994
2 69807  88.9968 351.0157 0010032  39.9602 320.2312 13.97352806 11624
QIANFAN-209             
1 69808U 26153J   26266.96396429 -.01872342  00000+0 -14677+1 0  9991
2 69808  88.9977 351.0859 0008148  77.9565 282.2524 13.95790051 11537
QIANFAN-210             
1 69809U 26153K   26266.71862419 -.01897466  00000+0 -14693+1 0  9994
2 69809  88.9973 351.1046 0005915  59.5412 300.6349 13.96548168 11507
QIANFAN-211             
1 69810U 26153L   26267.88974974  .00000357  00000+0  17856-3 0  9994
2 69810  88.9978 350.9269 0006189 328.7223  31.3595 14.14543724 11698
QIANFAN-212             
1 69811U 26153M   26267.61730676 -.00000011  00000+0 -15147-4 0  9996
2 69811  88.9976 350.9785 0007663 337.7438  22.3410 14.05483382 11640
QIANFAN-213             
1 69812U 26153N   26267.50606823 -.01881714  00000+0 -14062+1 0  9990
2 69812  88.9973 350.9982 0005801  14.2249 345.9091 13.98537798 11625
QIANFAN-214             
1 69813U 26153P   26267.52402880 -.01864452  00000+0 -13073+1 0  9991
2 69813  88.9970 350.9460 0007958 274.8709  85.1563 14.02090643 11653
QIANFAN-215             
1 69814U 26153Q   26267.87682947  .00000366  00000+0  18111-3 0  9998
2 69814  88.9976 350.8485 0006218 340.8013  19.2940 14.15200632 11737
QIANFAN-216             
1 69815U 26153R   26266.95901492 -.01873789  00000+0 -12666+1 0  9992
2 69815  88.9972 350.9911 0009759 314.2534  45.7845 14.04152706 11582
QIANFAN-217             
1 69816U 26153S   26267.60450401  .00000073  00000+0  26341-4 0  9999
2 69816  88.9976 350.8259 0006715 342.8642  17.2322 14.22766406 11725
QIANFAN-218             
1 69817U 26153T   26267.88614825  .00000462  00000+0  20143-3 0  9997
2 69817  88.9979 350.7965 0005287 343.8985  16.2038 14.22324211 11767
QIANFAN-219             
1 69848U 26155A   26267.75215510 -.01733184  00000+0 -30194+1 0  9998
2 69848  89.0092  53.2725 0036713 350.2597   9.7836 13.47366077 11313
QIANFAN-220             
1 69849U 26155B   26267.92178317  .00000030  00000+0  28566-4 0  9999
2 69849  89.0101  53.2849 0034350 359.5707   0.5409 13.50934673 11325
QIANFAN-221             
1 69850U 26155C   26267.85314506  .00000033  00000+0  23303-4 0  9992
2 69850  89.0102  53.0369 0030598   4.5682 355.5754 13.71187212 11454
QIANFAN-222             
1 69851U 26155D   26267.71565077 -.01802097  00000+0 -31753+1 0  9996
2 69851  89.0096  53.3238 0034718 350.3465   9.7012 13.46827690 11283
QIANFAN-223             
1 69852U 26155E   26267.89301097  .00000069  00000+0  89300-4 0  9997
2 69852  89.0100  53.3145 0034247 358.8986   1.2084 13.49929849 11306
QIANFAN-224             
1 69853U 26155F   26267.86941787  .00000017  00000+0  74437-5 0  9990
2 69853  89.0083  53.2591 0034476   3.7777 356.3628 13.51033636 11322
QIANFAN-225             
1 69854U 26155G   26267.79781110 -.01792080  00000+0 -31464+1 0  9994
2 69854  89.0086  53.3142 0037270 349.2012  10.8332 13.46996033 11297
QIANFAN-226             
1 69855U 26155H   26267.50624702 -.01895577  00000+0 -33130+1 0  9994
2 69855  89.0089  53.3257 0034598 352.9495   7.1163 13.47574602 11267
QIANFAN-227             
1 69856U 26155J   26267.73192077 -.01734760  00000+0 -30497+1 0  9994
2 69856  89.0090  53.3068 0038890 358.6741   1.4298 13.46752675 11292
QIANFAN-228             
1 69857U 26155K   26267.74096044 -.01792066  00000+0 -29856+1 0  9993
2 69857  89.0093  53.2915 0036469   1.1618 358.9611 13.50373052 11303
QIANFAN-229             
1 69858U 26155L   26267.74827828 -.01747281  00000+0 -30673+1 0  9994
2 69858  89.0096  53.2737 0020020 347.4560  12.6088 13.47094013 11313
QIANFAN-230             
1 69859U 26155M   26267.78670981 -.02067640  00000+0 -35396+1 0  9997
2 69859  89.0069  53.3144 0015415 353.0340   7.0593 13.48765191 11297
QIANFAN-231             
1 69860U 26155N   26267.76906189 -.01809672  00000+0 -29482+1 0  9996
2 69860  89.0092  53.2587 0035308 358.9299   1.1772 13.51860110 11324
QIANFAN-232             
1 69861U 26155P   26267.88184932  .00000074  00000+0  96607-4 0  9997
2 69861  89.0091  53.2532 0025750 357.6132   2.4892 13.50452492 11333
QIANFAN-233             
1 69862U 26155Q   26267.76142181 -.01882292  00000+0 -32596+1 0  9991
2 69862  89.0092  53.2577 0036451 350.2806   9.7634 13.48110583 11323
QIANFAN-234             
1 69863U 26155R   26267.74428656 -.01763805  00000+0 -27739+1 0  9995
2 69863  89.0084  53.2004 0031403   0.2904 359.8262 13.54042792 11355
QIANFAN-235             
1 69864U 26155S   26267.74568645 -.01804833  00000+0 -18550+1 0  9997
2 69864  89.0096  52.9871 0032013   7.6756 352.4895 13.80274370 11473
QIANFAN-236             
1 69865U 26155T   26267.77531119 -.01813820  00000+0 -29893+1 0  9995
2 69865  89.0097  53.2800 0033849   1.5696 358.5555 13.51153491 11316
QIANFAN-237             
1 69866U 26155U   26267.77379841 -.01804364  00000+0 -30851+1 0  9997
2 69866  89.0094  53.2431 0038589 356.2323   3.8530 13.48709525 11322
QIANFAN-238             
1 69867U 26155V   26267.77863035 -.01783628  00000+0 -30274+1 0  9999
2 69867  89.0099  53.2613 0027945 355.4747   4.6147 13.49269763 11324
