QIANFAN-1               
1 60379U 24140A   26280.90660851  .00000040  00000+0  43308-4 0  9994
2 60379  88.9670 268.2090 0019610  72.5115 287.8178 13.51026619107744
QIANFAN-2               
1 60380U 24140B   26280.86143239  .00000047  00000+0  53791-4 0  9991
2 60380  88.9657 268.0126 0014411  49.3474 310.8927 13.51021014107791
QIANFAN-3               
1 60381U 24140C   26280.86979257  .00000039  00000+0  41220-4 0  9994
2 60381  88.9649 268.1217 0015822  59.8912 300.3805 13.51023739107701
QIANFAN-4               
1 60382U 24140D   26280.91906480  .00000039  00000+0  42194-4 0  9990
2 60382  88.9674 268.0895 0014705  51.2935 308.9529 13.51021301107835
QIANFAN-5               
1 60383U 24140E   26280.96820721  .00000045  00000+0  50142-4 0  9998
2 60383  88.9649 268.1355 0017223  69.2965 291.0030 13.51032105107709
QIANFAN-6               
1 60384U 24140F   26280.91489947  .00000054  00000+0  64952-4 0  9999
2 60384  88.9676 267.9688 0014944  56.4485 303.8091 13.51024635107896
QIANFAN-7               
1 60385U 24140G   26280.85617415  .00000204  00000+0  76428-4 0  9994
2 60385  88.9738 258.5053 0016732 129.2739 230.9943 14.27898774113076
QIANFAN-8               
1 60386U 24140H   26280.92323143  .00000050  00000+0  57907-4 0  9995
2 60386  88.9677 268.2088 0018435  57.4651 302.8278 13.51026552107742
QIANFAN-9               
1 60387U 24140J   26280.97258274  .00000040  00000+0  42266-4 0  9994
2 60387  88.9675 268.2730 0018125  57.1773 303.1121 13.51022428107731
QIANFAN-10              
1 60388U 24140K   26280.90261291  .00000038  00000+0  40722-4 0  9993
2 60388  88.9687 267.6595 0016026  37.3736 322.8527 13.51022533107852
QIANFAN-11              
1 60389U 24140L   26280.86568634  .00000035  00000+0  35636-4 0  9995
2 60389  88.9611 268.0248 0016157  57.7109 302.5605 13.51026627107507
QIANFAN-12              
1 60390U 24140M   26280.96027686  .00000044  00000+0  49423-4 0  9994
2 60390  88.9654 268.1885 0015134  64.9653 295.3067 13.51024253107641
QIANFAN-13              
1 60391U 24140N   26280.93143399  .00000053  00000+0  63662-4 0  9993
2 60391  88.9914 268.4817 0014995  67.0846 293.1886 13.51024472107661
QIANFAN-14              
1 60392U 24140P   26280.95620732  .00000042  00000+0  46480-4 0  9994
2 60392  88.9645 268.1594 0018669  66.6251 293.6862 13.51026263107679
QIANFAN-15              
1 60393U 24140Q   26280.96426073  .00000052  00000+0  61667-4 0  9993
2 60393  88.9668 268.1862 0014229  55.4862 304.7630 13.51029163107663
QIANFAN-16              
1 60394U 24140R   26280.95194166  .00000029  00000+0  26450-4 0  9993
2 60394  88.9671 268.3158 0016657  70.3238 289.9708 13.51025593107571
QIANFAN-17              
1 60395U 24140S   26280.94798944  .00000040  00000+0  43561-4 0  9992
2 60395  88.9681 268.3949 0016959  64.7183 295.5724 13.51026338108538
QIANFAN-18              
1 60396U 24140T   26280.92740313  .00000048  00000+0  55979-4 0  9992
2 60396  88.9677 267.9115 0015954  49.6032 310.6508 13.51026503107928
QIANFAN-19              
1 61552U 24185A   26280.90345770  .00000271  00000+0  13405-3 0  9997
2 61552  88.9887  43.6790 0008727  72.1838 288.0301 14.14541270111959
QIANFAN-20              
1 61553U 24185B   26280.74400521  .00000245  00000+0  13328-3 0  9991
2 61553  88.9881  44.3154 0007776 106.7308 253.4730 14.09085743111599
QIANFAN-21              
1 61554U 24185C   26280.85848957  .00000364  00000+0  15549-3 0  9992
2 61554  88.9807  41.9665 0012766 107.1926 253.0664 14.22947135112505
QIANFAN-22              
1 61555U 24185D   26280.88324491  .00000189  00000+0  15200-3 0  9997
2 61555  88.9861  46.4856 0007655 147.1571 213.0078 13.86435372110382
QIANFAN-23              
1 61556U 24185E   26280.87762067  .00000257  00000+0  12204-3 0  9999
2 61556  88.9879  43.3524 0009404  78.2681 281.9562 14.16561688112096
QIANFAN-24              
1 61557U 24185F   26280.88787070  .00000455  00000+0  19120-3 0  9996
2 61557  88.9866  42.2698 0011011  52.5640 307.6552 14.24172086112599
QIANFAN-25              
1 61558U 24185G   26280.90599563  .00000301  00000+0  17432-3 0  9992
2 61558  88.9877  44.3517 0014435 121.0709 239.1892 14.06144669111542
QIANFAN-26              
1 61559U 24185H   26280.86616183  .00000154  00000+0  14029-3 0  9991
2 61559  88.9866  47.4768 0006164 168.9353 191.1950 13.77951006109860
QIANFAN-27              
1 61560U 24185J   26280.85481765  .00000481  00000+0  18954-3 0  9992
2 61560  88.9876  41.9018 0008275  42.1668 318.0162 14.27617564112837
QIANFAN-28              
1 61561U 24185K   26280.87694238  .00000468  00000+0  18093-3 0  9995
2 61561  88.9895  41.9149 0008089  40.2263 319.9529 14.28505945112878
QIANFAN-29              
1 61562U 24185L   26280.86699767  .00000136  00000+0  19180-3 0  9997
2 61562  88.9835  50.4001 0008087 263.0435  96.9796 13.51100260108182
QIANFAN-30              
1 61563U 24185M   26280.84585554  .00000019  00000+0  11175-4 0  9991
2 61563  88.9855  50.0425 0006074 244.1972 115.8552 13.50079153108424
QIANFAN-31              
1 61564U 24185N   26280.89891736  .00000022  00000+0  14058-4 0  9996
2 61564  88.9841  49.3646 0005897 222.9083 137.1612 13.58069304108761
QIANFAN-32              
1 61565U 24185P   26280.87302891  .00000134  00000+0  18958-3 0  9990
2 61565  88.9894  50.2607 0007755 284.8811  75.1481 13.50810508108429
QIANFAN-33              
1 61566U 24185Q   26280.94388916  .00000214  00000+0  14452-3 0  9995
2 61566  88.9865  45.4665 0009731 108.9634 251.2599 13.96763159110927
QIANFAN-34              
1 61567U 24185R   26280.89388054  .00000404  00000+0  25353-3 0  9996
2 61567  88.9842  44.6408 0008058 108.3633 251.8425 14.02534816111281
QIANFAN-35              
1 61568U 24185S   26280.86577224  .00000429  00000+0  16598-3 0  9991
2 61568  88.9875  41.7900 0007200  39.9714 320.2009 14.28374281112871
QIANFAN-36              
1 61569U 24185T   26280.89669648  .00000107  00000+0  13651-3 0  9997
2 61569  88.9831  49.8785 0004787 243.4900 116.5764 13.55650827108455
QIANFAN-37              
1 62238U 24232B   26280.91010652  .00000098  00000+0  13250-3 0  9996
2 62238  89.0168  11.3085 0001488  96.9230 263.2091 13.51034038139568
QIANFAN-38              
1 62239U 24232C   26280.93489852  .00000082  00000+0  10887-3 0  9997
2 62239  89.0174  11.2420 0015763  57.0696 303.1968 13.51032182139625
QIANFAN-39              
1 62240U 24232D   26280.88063693  .00000306  00000+0  12304-3 0  9999
2 62240  89.0143   3.2821 0016766 170.9082 189.2418 14.25572892144007
QIANFAN-40              
1 62241U 24232E   26280.89375749  .00000060  00000+0  74557-4 0  9995
2 62241  89.0201  10.9140 0015072  64.9099 295.3614 13.51032439139985
QIANFAN-41              
1 62242U 24232F   26280.90193869  .00000095  00000+0  12849-3 0  9992
2 62242  89.0172  11.1912 0015061  53.7794 306.4747 13.51033664139644
QIANFAN-42              
1 62243U 24232G   26280.92900854  .00000282  00000+0  11494-3 0  9998
2 62243  89.0142   3.3681 0015340 177.1342 182.9942 14.24659395143968
QIANFAN-43              
1 62244U 24232H   26280.74974596  .00000034  00000+0  34325-4 0  9997
2 62244  89.0177  11.2849 0016747  58.3371 301.9411 13.51020757108233
QIANFAN-44              
1 62245U 24232J   26280.88551695  .00000087  00000+0  11560-3 0  9997
2 62245  89.0175  11.0772 0014903  56.0039 304.2525 13.51033204139724
QIANFAN-45              
1 62246U 24232K   26280.92669606  .00000086  00000+0  11401-3 0  9998
2 62246  89.0179  11.2303 0015547  55.2793 304.9820 13.51031945139651
QIANFAN-46              
1 62247U 24232L   26280.87724573  .00000095  00000+0  12823-3 0  9997
2 62247  89.0175  11.2920 0015756  60.4289 299.8430 13.51033008139609
QIANFAN-47              
1 62248U 24232M   26280.88141342  .00000095  00000+0  12879-3 0  9997
2 62248  89.0170  11.2125 0016155  59.4858 300.7886 13.51032375139632
QIANFAN-48              
1 62249U 24232N   26280.91861415  .00000094  00000+0  12686-3 0  9997
2 62249  89.0174  11.2224 0018458  61.1300 299.1701 13.51026770139647
QIANFAN-49              
1 62250U 24232P   26280.90609017  .00000059  00000+0  72489-4 0  9995
2 62250  89.0174  11.2337 0015398  57.1962 303.0670 13.51020806108238
QIANFAN-50              
1 62251U 24232Q   26280.93073696  .00000084  00000+0  11084-3 0  9998
2 62251  89.0179  11.2557 0017086  57.7066 302.5738 13.51033386108264
QIANFAN-51              
1 62252U 24232R   26280.91433446  .00000098  00000+0  13302-3 0  9990
2 62252  89.0173  11.2329 0014682  62.2041 298.0597 13.51032268108258
QIANFAN-52              
1 62253U 24232S   26280.86901836  .00000087  00000+0  11597-3 0  9990
2 62253  89.0169  11.0992 0016492  54.2367 306.0315 13.51034298108333
QIANFAN-53              
1 62254U 24232T   26280.92262587  .00000096  00000+0  12978-3 0  9995
2 62254  89.0177  11.2211 0015406  55.5870 304.6735 13.51031000108301
QIANFAN-54              
1 62255U 24232U   26280.88962978  .00000083  00000+0  10978-3 0  9996
2 62255  89.0167  10.8763 0004133  99.2028 260.9591 13.51032857139807
QIANFAN-55              
1 62785U 25016A   26280.84176770  .00000015  00000+0  43693-5 0  9995
2 62785  88.9693  72.1501 0016886 198.4472 161.6069 13.51025715 87579
QIANFAN-56              
1 62786U 25016B   26280.85803827  .00000039  00000+0  42106-4 0  9990
2 62786  88.9668  71.9053 0015420 200.6205 159.4325 13.51021022 87627
QIANFAN-57              
1 62787U 25016C   26280.89107625  .00000031  00000+0  29050-4 0  9993
2 62787  88.9698  72.1483 0001881  75.0080 285.1279 13.51028721 87596
QIANFAN-58              
1 62788U 25016D   26280.86231540  .00000044  00000+0  49430-4 0  9993
2 62788  88.9669  71.8922 0013564 191.8984 168.1848 13.51028259 87633
QIANFAN-59              
1 62789U 25016E   26280.88686610  .00000025  00000+0  19363-4 0  9999
2 62789  88.9691  72.0337 0013813 195.8622 164.2098 13.51025588 87638
QIANFAN-60              
1 62790U 25016F   26280.84569747 -.00000024  00000+0 -56315-4 0  9997
2 62790  88.9674  71.9529 0015446 193.3693 166.7051 13.51021902 87617
QIANFAN-61              
1 62791U 25016G   26280.87864773  .00000020  00000+0  12140-4 0  9990
2 62791  88.9738  72.3141 0014439 192.0157 168.0652 13.51028630 87635
QIANFAN-62              
1 62792U 25016H   26280.88289020  .00000019  00000+0  10337-4 0  9992
2 62792  88.9686  72.0217 0015765 192.7968 167.2785 13.51027973 87625
QIANFAN-63              
1 62793U 25016J   26280.90756054  .00000031  00000+0  29799-4 0  9998
2 62793  88.9693  71.9909 0015676 198.2350 161.8241 13.51023910 87665
QIANFAN-64              
1 62794U 25016K   26280.87455805  .00000028  00000+0  24740-4 0  9992
2 62794  88.9680  71.9284 0013823 190.2066 169.8807 13.51028624 87658
QIANFAN-65              
1 62795U 25016L   26280.87039267  .00000030  00000+0  27372-4 0  9990
2 62795  88.9677  71.9441 0013633 191.8777 168.2054 13.51024703 87634
QIANFAN-66              
1 62796U 25016M   26280.89926671  .00000038  00000+0  40237-4 0  9990
2 62796  88.9696  71.9701 0014846 187.9067 172.1853 13.51020783 87680
QIANFAN-67              
1 62797U 25016N   26280.90334018  .00000041  00000+0  44538-4 0  9993
2 62797  88.9686  71.9658 0014622 194.8982 165.1740 13.51021053 87651
QIANFAN-68              
1 62798U 25016P   26280.89519644  .00000034  00000+0  33592-4 0  9992
2 62798  88.9689  72.0224 0014755 192.7703 167.3077 13.51022958 87631
QIANFAN-69              
1 62799U 25016Q   26280.91154726  .00000032  00000+0  30131-4 0  9996
2 62799  88.9669  71.8267 0015440 194.4350 165.6363 13.51021781 87679
QIANFAN-70              
1 62800U 25016R   26280.85405811  .00000051  00000+0  59950-4 0  9997
2 62800  88.9689  72.0332 0015324 184.7275 175.3734 13.51025281 87623
QIANFAN-71              
1 62801U 25016S   26280.84985070  .00000029  00000+0  25471-4 0  9993
2 62801  88.9683  71.9952 0015244 198.2428 161.8179 13.51027842 87623
QIANFAN-72              
1 62802U 25016T   26280.86639551  .00000037  00000+0  38005-4 0  9992
2 62802  88.9674  71.9776 0018296 206.6592 153.3620 13.51029729 87616
QIANFAN-73              
1 63159U 25046A   26280.96740165  .00000041  00000+0  44649-4 0  9992
2 63159  88.9624 288.9361 0014298 346.5690  13.5079 13.51026066 87816
QIANFAN-74              
1 63160U 25046B   26280.95110812  .00000033  00000+0  32181-4 0  9992
2 63160  88.9625 288.8279 0001993  98.2823 261.8554 13.51018593 87871
QIANFAN-75              
1 63161U 25046C   26280.86451548  .00000096  00000+0  12968-3 0  9996
2 63161  88.9626 289.0747 0015541 349.9898  10.0941 13.51033720 87736
QIANFAN-76              
1 63162U 25046D   26280.86065230  .00000005  00000+0 -10377-4 0  9990
2 63162  88.9625 289.0550 0013093 351.6535   8.4396 13.51017943 87741
QIANFAN-77              
1 63163U 25046E   26280.97123197  .00000096  00000+0  60063-4 0  9996
2 63163  88.9636 284.5827 0013255 219.7961 140.2244 13.96250158 90206
QIANFAN-78              
1 63164U 25046F   26280.90234248  .00000085  00000+0  11312-3 0  9990
2 63164  88.9625 288.9121 0014512 352.8317   7.2624 13.51014270 87823
QIANFAN-79              
1 63165U 25046G   26280.93044228  .00000038  00000+0  40876-4 0  9997
2 63165  88.9629 289.0269 0014192 351.5096   8.5813 13.51021499 87776
QIANFAN-80              
1 63166U 25046H   26280.87278157  .00000092  00000+0  12365-3 0  9992
2 63166  88.9626 288.7316 0013250 357.2049   2.9026 13.51019883 87923
QIANFAN-81              
1 63167U 25046J   26280.92628129  .00000102  00000+0  13941-3 0  9990
2 63167  88.9626 288.7932 0014085 345.2785  14.7954 13.51023910 87881
QIANFAN-82              
1 63168U 25046K   26280.95929042  .00000087  00000+0  11678-3 0  9999
2 63168  88.9626 288.8342 0012215 353.4655   6.6334 13.51022958 87870
QIANFAN-83              
1 63169U 25046L   26280.91711203  .00000072  00000+0  78048-4 0  9993
2 63169  88.9629 288.0249 0012491 319.0028  41.0190 13.62066231 88328
QIANFAN-84              
1 63170U 25046M   26280.91409574  .00000083  00000+0  10926-3 0  9992
2 63170  88.9626 288.9718 0015008 348.4968  11.5838 13.51028362 87795
QIANFAN-85              
1 63171U 25046N   26280.90985960  .00000110  00000+0  15098-3 0  9996
2 63171  88.9625 288.8414 0012727 352.0057   8.0890 13.51023386 87860
QIANFAN-86              
1 63172U 25046P   26280.91804785  .00000099  00000+0  13509-3 0  9994
2 63172  88.9628 288.7097 0010766 358.1690   1.9420 13.51021487 87941
QIANFAN-87              
1 63173U 25046Q   26280.96331864  .00000031  00000+0  29298-4 0  9992
2 63173  88.9624 288.8056 0011107 351.9151   8.1820 13.51020561 87885
QIANFAN-88              
1 63174U 25046R   26280.90572997  .00000107  00000+0  14645-3 0  9994
2 63174  88.9627 288.7735 0011850   1.1154 359.0021 13.51021993 87908
QIANFAN-89              
1 63175U 25046S   26280.86868542  .00000098  00000+0  13365-3 0  9991
2 63175  88.9626 288.9661 0015981 348.2957  11.7820 13.51022609 87794
QIANFAN-90              
1 63176U 25046T   26280.97163968  .00000053  00000+0  62906-4 0  9991
2 63176  88.9627 288.9288 0012869 348.1045  11.9801 13.51020319 87821
QIANFAN-91              
1 66033U 25233A   26280.85580453  .00000078  00000+0  10201-3 0  9990
2 66033  89.0082  31.8124 0001602 105.1264 255.0065 13.51032141 48392
QIANFAN-92              
1 66034U 25233B   26280.86447661  .00000088  00000+0  11717-3 0  9999
2 66034  89.0065  31.7649 0002151  98.6838 261.4557 13.51029637 48391
QIANFAN-93              
1 66035U 25233C   26280.87245663  .00000075  00000+0  97453-4 0  9997
2 66035  89.0091  31.8463 0001626 102.7653 257.3680 13.51041389 48393
QIANFAN-94              
1 66036U 25233D   26280.86000014  .00000084  00000+0  11076-3 0  9992
2 66036  89.0089  31.7471 0001800 107.5572 252.5776 13.51030597 48444
QIANFAN-95              
1 66037U 25233E   26280.86824845  .00000080  00000+0  10529-3 0  9997
2 66037  89.0087  31.2873 0001617 109.7711 250.3615 13.51030492 48698
QIANFAN-96              
1 66038U 25233F   26280.74473296  .00000077  00000+0  10140-3 0  9990
2 66038  89.0084  31.8400 0001563 104.5518 255.5806 13.51031562 48379
QIANFAN-97              
1 66039U 25233G   26280.87632000  .00000056  00000+0  68697-4 0  9993
2 66039  89.0088  31.8145 0001664 102.6082 257.5255 13.51022396 48394
QIANFAN-98              
1 66040U 25233H   26280.81059817  .00000071  00000+0  91749-4 0  9999
2 66040  89.0077  31.5399 0002050 117.2710 242.8650 13.51031797 48539
QIANFAN-99              
1 66041U 25233J   26280.74056919  .00000077  00000+0  10059-3 0  9992
2 66041  89.0088  31.8329 0001834 118.2963 241.8374 13.51021253 48389
QIANFAN-100             
1 66042U 25233K   26280.80634095  .00000072  00000+0  92444-4 0  9991
2 66042  89.0098  31.7659 0001519 103.6272 256.5048 13.51021922 48448
QIANFAN-101             
1 66043U 25233L   26280.85256419  .00000150  00000+0  55647-4 0  9998
2 66043  89.0086  27.6562 0017027 129.9313 230.3380 14.26868084 50691
QIANFAN-102             
1 66044U 25233M   26280.82705041  .00000086  00000+0  11401-3 0  9993
2 66044  89.0085  31.7312 0001797 109.1783 250.9562 13.51031255 48447
QIANFAN-103             
1 66045U 25233N   26280.83120078  .00000078  00000+0  10247-3 0  9994
2 66045  89.0088  31.8291 0001640 103.3071 256.8263 13.51031295 48392
QIANFAN-104             
1 66046U 25233P   26280.83525398  .00000071  00000+0  91804-4 0  9991
2 66046  89.0093  31.7360 0001882 107.7933 252.3424 13.51029200 48447
QIANFAN-105             
1 66047U 25233Q   26280.84356519  .00000068  00000+0  86960-4 0  9993
2 66047  89.0106  31.5933 0001777 105.2363 254.8985 13.51032479 48553
QIANFAN-106             
1 66048U 25233R   26280.83932929  .00000069  00000+0  87656-4 0  9992
2 66048  89.0076  31.7712 0001968 115.8931 244.2423 13.51032801 48398
QIANFAN-107             
1 66049U 25233S   26280.84758295  .00000067  00000+0  85087-4 0  9990
2 66049  89.0090  31.8206 0001681 103.4913 256.6425 13.51032055 48401
QIANFAN-108             
1 66050U 25233T   26280.77769779  .00000076  00000+0  99568-4 0  9992
2 66050  89.0083  31.8074 0001968 114.3871 245.7486 13.51031812 48394
QIANFAN-109             
1 68636U 26075A   26281.16199192  .00000042  00000+0  46713-4 0  9996
2 68636  88.9832 309.4745 0001564  88.0695 272.0635 13.51022150 25049
QIANFAN-110             
1 68637U 26075B   26281.17015095  .00000033  00000+0  32093-4 0  9993
2 68637  88.9832 309.4952 0002081  92.9357 267.2032 13.51022954 25043
QIANFAN-111             
1 68638U 26075C   26281.15803987  .00000050  00000+0  58031-4 0  9996
2 68638  88.9831 309.4552 0002053  93.1050 267.0336 13.51025570 25065
QIANFAN-112             
1 68639U 26075D   26281.19497792  .00000044  00000+0  50119-4 0  9996
2 68639  88.9830 309.4589 0001721  81.9950 278.1397 13.51024779 25060
QIANFAN-113             
1 68640U 26075E   26281.16607744  .00000049  00000+0  56749-4 0  9995
2 68640  88.9835 309.4620 0002072  89.8916 270.2473 13.51011715 25066
QIANFAN-114             
1 68641U 26075F   26281.17428662  .00000035  00000+0  36256-4 0  9993
2 68641  88.9831 309.4748 0002049  92.9177 267.2208 13.51020010 25051
QIANFAN-115             
1 68642U 26075G   26281.20312750  .00000041  00000+0  45079-4 0  9998
2 68642  88.9831 309.4791 0001886  94.2833 265.8534 13.51025789 25056
QIANFAN-116             
1 68643U 26075H   26281.19074939  .00000047  00000+0  53370-4 0  9990
2 68643  88.9824 309.4325 0001869  83.7011 276.4353 13.51026230 25064
QIANFAN-117             
1 68644U 26075J   26281.17852925  .00000050  00000+0  58994-4 0  9999
2 68644  88.9829 309.4547 0001811  89.9258 270.2101 13.51024117 25069
QIANFAN-118             
1 68645U 26075K   26280.91509700  .00000041  00000+0  45367-4 0  9991
2 68645  88.9834 309.4952 0002176  92.8329 267.3072 13.51025792 25023
QIANFAN-119             
1 68646U 26075L   26280.89038440  .00000063  00000+0  78282-4 0  9993
2 68646  88.9834 309.4935 0001638  92.5082 267.6257 13.51021772 25022
QIANFAN-120             
1 68647U 26075M   26280.90277239  .00000049  00000+0  57711-4 0  9995
2 68647  88.9836 309.4790 0001583  94.3207 265.8125 13.51021531 25030
QIANFAN-121             
1 68648U 26075N   26280.92753657  .00000048  00000+0  55707-4 0  9993
2 68648  88.9833 309.4789 0002111  93.9610 266.1782 13.51024913 25037
QIANFAN-122             
1 68649U 26075P   26280.91920471  .00000057  00000+0  69503-4 0  9992
2 68649  88.9832 309.4765 0001746  88.7117 271.4234 13.51028654 25024
QIANFAN-123             
1 68650U 26075Q   26280.88628171  .00000049  00000+0  56999-4 0  9998
2 68650  88.9829 309.4663 0001536  85.2092 274.9234 13.51021379 25003
QIANFAN-124             
1 68651U 26075R   26280.91100740  .00000042  00000+0  45786-4 0  9995
2 68651  88.9832 309.4757 0001699  87.1795 272.9551 13.51028000 25034
QIANFAN-125             
1 68652U 26075S   26280.92342031  .00000058  00000+0  71242-4 0  9991
2 68652  88.9831 309.4763 0002118  92.9834 267.1560 13.51025142 25036
QIANFAN-126             
1 68653U 26075T   26280.93152494  .00000069  00000+0  88525-4 0  9999
2 68653  88.9835 309.4457 0001543  86.1334 273.9994 13.51020952 25054
QIANFAN-127             
1 69073U 26104A   26281.15905035  .00000058  00000+0  70578-4 0  9998
2 69073  88.9893 329.9527 0002382  92.6772 267.4652 13.51030109 20419
QIANFAN-128             
1 69074U 26104B   26281.16721907  .00000074  00000+0  95907-4 0  9995
2 69074  88.9871 329.9717 0002469 104.3982 255.7444 13.51025567 20395
QIANFAN-129             
1 69075U 26104C   26281.19183685  .00000054  00000+0  65730-4 0  9993
2 69075  88.9874 329.9039 0002387  99.9983 260.1438 13.51025670 20438
QIANFAN-130             
1 69076U 26104D   26281.15481410  .00000054  00000+0  65151-4 0  9994
2 69076  88.9876 329.9740 0002194  88.7492 271.3911 13.51023714 20399
QIANFAN-131             
1 69077U 26104E   26281.17551000  .00000063  00000+0  79645-4 0  9993
2 69077  88.9869 329.9311 0002196 103.9892 256.1503 13.51027799 20410
QIANFAN-132             
1 69078U 26104F   26281.16305961  .00000062  00000+0  76746-4 0  9994
2 69078  88.9872 329.9895 0002192  92.9757 267.1645 13.51024018 20381
QIANFAN-133             
1 69079U 26104G   26281.17133102  .00000079  00000+0  10368-3 0  9997
2 69079  88.9875 329.9394 0002355 108.0953 252.0455 13.51022657 20409
QIANFAN-134             
1 69080U 26104H   26281.20007727  .00000062  00000+0  77731-4 0  9996
2 69080  88.9879 329.9636 0002419 104.7296 255.4123 13.51031174 20401
QIANFAN-135             
1 69081U 26104J   26281.17951382  .00000066  00000+0  84261-4 0  9998
2 69081  88.9873 329.9553 0002594 100.7019 259.4425 13.51024360 20405
QIANFAN-136             
1 69082U 26104K   26281.18772757  .00000053  00000+0  64075-4 0  9994
2 69082  88.9875 329.9579 0002349 106.5790 253.5619 13.51021078 20407
QIANFAN-137             
1 69083U 26104L   26281.10964264  .00000060  00000+0  73836-4 0  9996
2 69083  88.9884 329.8442 0002118  95.7183 264.4209 13.51023971 20461
QIANFAN-138             
1 69084U 26104M   26281.13425573  .00000064  00000+0  80839-4 0  9990
2 69084  88.9868 329.9620 0002485  95.5227 264.6208 13.51023754 20399
QIANFAN-139             
1 69085U 26104N   26281.19603367  .00000060  00000+0  73949-4 0  9996
2 69085  88.9870 329.9378 0002297  92.0172 268.1242 13.51032435 20411
QIANFAN-140             
1 69086U 26104P   26281.20420237  .00000064  00000+0  80910-4 0  9992
2 69086  88.9871 329.9407 0002622  98.8913 261.2535 13.51024930 20415
QIANFAN-141             
1 69087U 26104Q   26281.13846780  .00000062  00000+0  76908-4 0  9990
2 69087  88.9868 329.9111 0002519 102.8289 257.3144 13.51022676 20429
QIANFAN-142             
1 69088U 26104R   26281.14661589  .00000052  00000+0  61814-4 0  9993
2 69088  88.9866 329.9093 0002484  96.5992 263.5442 13.51021848 20428
QIANFAN-143             
1 69089U 26104S   26281.14251432  .00000055  00000+0  66611-4 0  9999
2 69089  88.9877 329.9184 0002136 104.9024 255.2364 13.51029313 20422
QIANFAN-144             
1 69090U 26104T   26281.15071995  .00000050  00000+0  58428-4 0  9998
2 69090  88.9875 329.9354 0002413  93.2095 266.9332 13.51022652 20419
QIANFAN-145             
1 69104U 26108A   26281.00686154  .00000007  00000+0 -72641-5 0  9998
2 69104  89.0204  10.8000 0001815 115.1736 244.9603 13.51024629 19677
QIANFAN-146             
1 69105U 26108B   26281.18791560  .00000099  00000+0  13467-3 0  9995
2 69105  89.0205  10.6195 0001872 103.7537 256.3823 13.51023393 19798
QIANFAN-147             
1 69106U 26108C   26281.16336801  .00000109  00000+0  15039-3 0  9996
2 69106  89.0206  10.7893 0002050 102.4807 257.6573 13.51028830 19686
QIANFAN-148             
1 69107U 26108D   26281.22502512  .00000099  00000+0  13453-3 0  9994
2 69107  89.0199  10.7720 0002185 107.7168 252.4222 13.51028499 19690
QIANFAN-149             
1 69108U 26108E   26281.15913395  .00000105  00000+0  14471-3 0  9991
2 69108  89.0199  10.7997 0002347 101.6845 258.4570 13.51027883 19689
QIANFAN-150             
1 69109U 26108F   26281.16735698  .00000105  00000+0  14350-3 0  9997
2 69109  89.0204  10.7531 0002331 100.5492 259.5922 13.51021676 19700
QIANFAN-151             
1 69110U 26108G   26281.19625803  .00000100  00000+0  13683-3 0  9991
2 69110  89.0203  10.7738 0001910 109.1527 250.9831 13.51031516 19692
QIANFAN-152             
1 69111U 26108H   26281.17558020  .00000111  00000+0  15349-3 0  9999
2 69111  89.0200  10.7670 0001961  95.5440 264.5935 13.51024280 19701
QIANFAN-153             
1 69112U 26108J   26281.17145994  .00000107  00000+0  14764-3 0  9997
2 69112  89.0196  10.7431 0002157  99.6259 260.5136 13.51025416 19703
QIANFAN-154             
1 69113U 26108K   26281.17976220  .00000103  00000+0  14167-3 0  9995
2 69113  89.0207  10.7930 0002173 102.6532 257.4862 13.51030676 19691
QIANFAN-155             
1 69114U 26108L   26281.18380564  .00000096  00000+0  13044-3 0  9991
2 69114  89.0204  10.7567 0002238  99.6731 260.4673 13.51027417 19708
QIANFAN-156             
1 69115U 26108M   26281.20439117  .00000114  00000+0  15745-3 0  9995
2 69115  89.0219  10.7587 0002088 109.1089 251.0288 13.51023204 19723
QIANFAN-157             
1 69116U 26108N   26281.19211259  .00000098  00000+0  13354-3 0  9994
2 69116  89.0200  10.6798 0002283 107.0663 253.0739 13.51032249 19754
QIANFAN-158             
1 69117U 26108P   26281.20845995  .00000112  00000+0  15523-3 0  9994
2 69117  89.0202  10.7197 0002018 109.1035 251.0335 13.51025524 19739
QIANFAN-159             
1 69118U 26108Q   26281.20026337  .00000111  00000+0  15367-3 0  9991
2 69118  89.0193  10.7253 0001959 107.4613 252.6752 13.51027580 19721
QIANFAN-160             
1 69119U 26108R   26281.14279341  .00000109  00000+0  15001-3 0  9992
2 69119  89.0209  10.7712 0002330  97.7411 262.4005 13.51027651 19708
QIANFAN-161             
1 69120U 26108S   26281.22083307  .00000102  00000+0  13890-3 0  9995
2 69120  89.0216  10.6815 0001976 108.7910 251.3456 13.51025987 19766
QIANFAN-162             
1 69121U 26108T   26281.13855671  .00000110  00000+0  15119-3 0  9992
2 69121  89.0205  10.7130 0001971  98.7875 261.3499 13.51026769 19722
QIANFAN-163             
1 69325U 26121A   26281.02917317  .00000030  00000+0  28329-4 0  9996
2 69325  89.0081 289.2707 0002984 102.7968 257.3517 13.51022130 17404
QIANFAN-164             
1 69326U 26121B   26280.99626255  .00000054  00000+0  64447-4 0  9997
2 69326  89.0079 289.2640 0002484 102.5983 257.5446 13.51022780 17402
QIANFAN-165             
1 69382U 26124A   26281.15405082  .00000091  00000+0  12306-3 0  9991
2 69382  89.0057 350.2501 0002437 115.3356 244.8047 13.51025539 17297
QIANFAN-166             
1 69383U 26124B   26281.15818906  .00000081  00000+0  10710-3 0  9991
2 69383  89.0076 350.2638 0001944 108.9131 251.2231 13.51026205 17299
QIANFAN-167             
1 69384U 26124C   26281.16209222  .00000023  00000+0  17745-4 0  9990
2 69384  89.0049 350.2642 0002259 101.9488 258.1916 13.51019482 17287
QIANFAN-168             
1 69385U 26124D   26281.16627683  .00000080  00000+0  10577-3 0  9994
2 69385  89.0046 350.2431 0001952 115.3302 244.8051 13.51023743 17292
QIANFAN-169             
1 69386U 26124E   26281.17049071  .00000069  00000+0  88072-4 0  9998
2 69386  89.0045 350.2422 0001845 106.4355 253.6999 13.51026881 17297
QIANFAN-170             
1 69387U 26124F   26281.17452384  .00000076  00000+0  98361-4 0  9994
2 69387  89.0062 350.2173 0001767 107.0607 253.0738 13.51029355 17317
QIANFAN-171             
1 69388U 26124G   26281.18278538  .00000086  00000+0  11454-3 0  9991
2 69388  89.0077 350.2317 0002101 101.5624 258.5763 13.51032321 17310
QIANFAN-172             
1 69389U 26124H   26281.17858191  .00000080  00000+0  10519-3 0  9995
2 69389  89.0060 350.2188 0002295 115.1033 245.0356 13.51032854 17318
QIANFAN-173             
1 69390U 26124J   26281.18679561  .00000087  00000+0  11593-3 0  9990
2 69390  89.0049 350.2124 0001832 113.6760 246.4584 13.51025943 17312
QIANFAN-174             
1 69391U 26124K   26281.19913828  .00000084  00000+0  11076-3 0  9992
2 69391  89.0029 350.1650 0002321 102.9262 257.2148 13.51020726 17327
QIANFAN-175             
1 69392U 26124L   26281.20340463  .00000075  00000+0  98192-4 0  9999
2 69392  89.0081 350.2192 0001891 108.3985 251.7372 13.51030825 17320
QIANFAN-176             
1 69393U 26124M   26281.20754495  .00000076  00000+0  99631-4 0  9994
2 69393  89.0042 350.1916 0001903 108.1832 251.9526 13.51024520 17311
QIANFAN-177             
1 69394U 26124N   26281.14157279  .00000081  00000+0  10734-3 0  9997
2 69394  89.0053 350.1886 0002271 105.0988 255.0414 13.51033605 17323
QIANFAN-178             
1 69395U 26124P   26281.21151514  .00000076  00000+0  98508-4 0  9992
2 69395  88.9998 350.1274 0001898 107.2870 252.8489 13.51029481 17345
QIANFAN-179             
1 69396U 26124Q   26281.21976123  .00000085  00000+0  11339-3 0  9990
2 69396  89.0030 350.1506 0001870 107.4694 252.6661 13.51033138 17343
QIANFAN-180             
1 69397U 26124R   26281.14992913  .00000086  00000+0  11449-3 0  9991
2 69397  89.0037 350.1797 0001742 105.8188 254.3156 13.51025283 17329
QIANFAN-181             
1 69398U 26124S   26281.19103539  .00000091  00000+0  12213-3 0  9991
2 69398  89.0059 350.2732 0002180 102.2450 257.8945 13.51027330 17288
QIANFAN-182             
1 69399U 26124T   26281.19502063  .00000076  00000+0  99474-4 0  9995
2 69399  89.0034 350.2385 0001949 108.9455 251.1908 13.51031891 17289
QIANFAN-183             
1 69401U 26125A   26281.15561610  .00000035  00000+0  34771-4 0  9993
2 69401  88.9838 268.4909 0002371  94.9062 265.2360 13.51028027 17198
QIANFAN-184             
1 69402U 26125B   26281.16384244  .00000039  00000+0  42099-4 0  9997
2 69402  88.9889 268.5266 0002234  93.6922 266.4484 13.51029606 17195
QIANFAN-185             
1 69403U 26125C   26281.18860196  .00000031  00000+0  28781-4 0  9999
2 69403  88.9904 268.4667 0002249  96.3007 263.8400 13.51029076 17233
QIANFAN-186             
1 69404U 26125D   26281.15983740  .00000036  00000+0  36564-4 0  9991
2 69404  88.9891 268.5275 0002215  92.0760 268.0644 13.51028519 17190
QIANFAN-187             
1 69405U 26125E   26281.16806638  .00000034  00000+0  33647-4 0  9990
2 69405  88.9891 268.5094 0002416  91.3377 268.8051 13.51029200 17209
QIANFAN-188             
1 69406U 26125F   26281.17611931  .00000039  00000+0  41461-4 0  9990
2 69406  88.9889 268.5080 0002431  95.0962 265.0466 13.51018478 17204
QIANFAN-189             
1 69407U 26125G   26281.18441279  .00000034  00000+0  33912-4 0  9995
2 69407  88.9872 268.4986 0002590  97.4634 262.6812 13.51019459 17195
QIANFAN-190             
1 69408U 26125H   26281.17206205  .00000037  00000+0  38187-4 0  9995
2 69408  88.9873 268.4980 0002167  94.4995 265.6404 13.51019534 17204
QIANFAN-191             
1 69409U 26125J   26281.19671098  .00000032  00000+0  30515-4 0  9996
2 69409  88.9887 268.5100 0002395  95.5201 264.6223 13.51020126 17207
QIANFAN-192             
1 69410U 26125K   26281.18029713  .00000043  00000+0  47337-4 0  9990
2 69410  88.9894 268.5134 0002559  95.4960 264.6483 13.51020084 17208
QIANFAN-193             
1 69411U 26125L   26281.20501536  .00000034  00000+0  34215-4 0  9993
2 69411  88.9872 268.4832 0002362  97.7124 262.4295 13.51028058 17215
QIANFAN-194             
1 69412U 26125M   26281.20090642  .00000020  00000+0  13088-4 0  9995
2 69412  88.9904 268.5042 0002411  94.8339 265.3088 13.51026576 17201
QIANFAN-195             
1 69413U 26125N   26281.20921477  .00000032  00000+0  30342-4 0  9990
2 69413  88.9906 268.4886 0001976  90.0759 270.0619 13.51028382 17220
QIANFAN-196             
1 69414U 26125P   26281.21728413  .00000032  00000+0  30344-4 0  9999
2 69414  88.9911 268.4926 0002056  93.9864 266.1522 13.51020529 17225
QIANFAN-197             
1 69415U 26125Q   26281.22566953  .00000034  00000+0  33963-4 0  9992
2 69415  88.9885 268.4584 0002333  94.5031 265.6387 13.51024172 17228
QIANFAN-198             
1 69416U 26125R   26281.21321867  .00000039  00000+0  41040-4 0  9995
2 69416  88.9879 268.4712 0002424  95.4532 264.6895 13.51028712 17229
QIANFAN-199             
1 69417U 26125S   26281.22152992  .00000038  00000+0  40595-4 0  9991
2 69417  88.9883 268.4213 0002505  90.8655 269.2783 13.51026331 17251
QIANFAN-200             
1 69418U 26125T   26281.19266632  .00000034  00000+0  33741-4 0  9996
2 69418  88.9890 268.5110 0002500  96.7568 263.3868 13.51026869 17200
QIANFAN-201             
1 69800U 26153A   26280.87126199 -.01810624  00000+0 -16885+1 0  9992
2 69800  88.9958 349.5633 0004334 271.9322  88.1353 13.86266650 13471
QIANFAN-202             
1 69801U 26153B   26280.88253517 -.01778465  00000+0 -15595+1 0  9992
2 69801  88.9962 349.5097 0008485 271.8365  88.1837 13.89774700 13490
QIANFAN-203             
1 69802U 26153C   26280.86584704 -.01852576  00000+0 -16033+1 0  9990
2 69802  88.9961 349.5449 0008882 296.3008  63.7252 13.90713216 13484
QIANFAN-204             
1 69803U 26153D   26280.50327312 -.01862022  00000+0 -16718+1 0  9999
2 69803  88.9959 349.5841 0007572 272.1910  87.8396 13.88602705 13435
QIANFAN-205             
1 69804U 26153E   26280.91108266 -.01802557  00000+0 -16558+1 0  9999
2 69804  88.9958 349.5691 0003399 197.9918 162.1133 13.87135630 13470
QIANFAN-206             
1 69805U 26153F   26280.88184792 -.01826693  00000+0 -16030+1 0  9996
2 69805  88.9960 349.5098 0008376 292.3774  67.6511 13.89845934 13505
QIANFAN-207             
1 69806U 26153G   26280.84212104 -.01801368  00000+0 -16497+1 0  9991
2 69806  88.9961 349.5597 0006299 274.8027  85.2425 13.87302692 13472
QIANFAN-208             
1 69807U 26153H   26280.90689711 -.01804449  00000+0 -16817+1 0  9990
2 69807  88.9956 349.5496 0003578  45.9385 314.2080 13.86290169 13494
QIANFAN-209             
1 69808U 26153J   26280.88120184 -.01828869  00000+0 -17234+1 0  9998
2 69808  88.9963 349.5667 0005311 243.5551 116.5075 13.85696503 13477
QIANFAN-210             
1 69809U 26153K   26279.84311220 -.01860190  00000+0 -17330+1 0  9996
2 69809  88.9961 349.6706 0004833 235.3951 124.6764 13.86442739 13333
QIANFAN-211             
1 69810U 26153L   26281.18862330  .00000309  00000+0  15393-3 0  9996
2 69810  88.9966 349.4267 0005529 270.7671  89.2883 14.14550661 13575
QIANFAN-212             
1 69811U 26153M   26280.84043774 -.01818540  00000+0 -15944+1 0  9998
2 69811  88.9954 349.5219 0010060 281.8391  78.1654 13.89873466 13495
QIANFAN-213             
1 69812U 26153N   26280.89616786 -.01813105  00000+0 -16271+1 0  9999
2 69812  88.9964 349.5301 0008807 276.6338  83.3832 13.88507964 13490
QIANFAN-214             
1 69813U 26153P   26280.86153910 -.01848076  00000+0 -14907+1 0  9991
2 69813  88.9963 349.4699 0001102 223.4341 136.6748 13.94782481 13522
QIANFAN-215             
1 69814U 26153Q   26281.16952713  .00000325  00000+0  16031-3 0  9991
2 69814  88.9963 349.3470 0005384 283.1564  76.9022 14.15208620 13618
QIANFAN-216             
1 69815U 26153R   26280.86877625 -.01818590  00000+0 -14969+1 0  9995
2 69815  88.9961 349.4522 0003328 320.4269  39.6663 13.93545490 13531
QIANFAN-217             
1 69816U 26153S   26280.85769947 -.01881040  00000+0 -11446+1 0  9999
2 69816  88.9957 349.3187 0003481 163.6428 196.4869 14.10011859 13602
QIANFAN-218             
1 69817U 26153T   26280.86632825 -.01853241  00000+0 -11319+1 0  9996
2 69817  88.9960 349.3231 0008089 163.8462 196.2981 14.09734396 13605
QIANFAN-219             
1 69848U 26155A   26281.15951463  .00000067  00000+0  85226-4 0  9996
2 69848  89.0118  51.9330 0001640 111.2799 248.8527 13.51030546 13127
QIANFAN-220             
1 69849U 26155B   26281.17969161  .00000081  00000+0  10679-3 0  9998
2 69849  89.0125  51.9610 0033220 320.0857  39.7852 13.50936474 13112
QIANFAN-221             
1 69850U 26155C   26280.84800909 -.01845437  00000+0 -25308+1 0  9994
2 69850  89.0125  51.6951 0033247 325.0221  34.8752 13.62810187 13231
QIANFAN-222             
1 69851U 26155D   26281.19655473  .00000065  00000+0  81431-4 0  9998
2 69851  89.0125  51.9780 0001724 101.4532 258.6813 13.51026015 13108
QIANFAN-223             
1 69852U 26155E   26281.15122361  .00000068  00000+0  86633-4 0  9992
2 69852  89.0124  51.9905 0001801 101.9706 258.1647 13.51032636 13095
QIANFAN-224             
1 69853U 26155F   26281.20063301  .00000071  00000+0  91592-4 0  9991
2 69853  89.0108  51.9254 0001762 103.4859 256.6488 13.51029057 13120
QIANFAN-225             
1 69854U 26155G   26281.20472161  .00000070  00000+0  90107-4 0  9990
2 69854  89.0116  51.9739 0001756 104.8078 255.3267 13.51032744 13105
QIANFAN-226             
1 69855U 26155H   26281.20890451  .00000072  00000+0  92300-4 0  9996
2 69855  89.0118  51.9563 0001715 106.9300 253.2039 13.51033890 13117
QIANFAN-227             
1 69856U 26155J   26280.84091844 -.01861165  00000+0 -32320+1 0  9998
2 69856  89.0112  51.9975 0029990 317.1964  42.6850 13.47965479 13063
QIANFAN-228             
1 69857U 26155K   26281.14304559  .00000067  00000+0  85119-4 0  9994
2 69857  89.0123  51.9519 0008000 318.0737  41.9800 13.51027604 13114
QIANFAN-229             
1 69858U 26155L   26281.15536126  .00000061  00000+0  75811-4 0  9995
2 69858  89.0125  51.9351 0001777 101.5772 258.5578 13.51037033 13125
QIANFAN-230             
1 69859U 26155M   26281.19233806  .00000060  00000+0  74527-4 0  9991
2 69859  89.0121  51.9734 0001741 104.8671 255.2673 13.51035222 13108
QIANFAN-231             
1 69860U 26155N   26280.79125159 -.01739459  00000+0 -30451+1 0  9997
2 69860  89.0117  51.9547 0013018 318.2548  41.7606 13.47297945 13089
QIANFAN-232             
1 69861U 26155P   26281.14450238  .00000082  00000+0  10909-3 0  9996
2 69861  89.0114  51.9284 0024656 317.6888  42.2360 13.50454087 13129
QIANFAN-233             
1 69862U 26155Q   26281.16775737  .00000072  00000+0  92566-4 0  9992
2 69862  89.0120  51.9180 0001739 109.5626 250.5713 13.51036283 13139
QIANFAN-234             
1 69863U 26155R   26280.87788598 -.01805235  00000+0 -30514+1 0  9997
2 69863  89.0104  51.8754 0035272 318.0613  41.7836 13.49494343 13138
QIANFAN-235             
1 69864U 26155S   26280.83572982 -.01844559  00000+0 -20552+1 0  9995
2 69864  89.0121  51.6052 0033807 318.1964  41.6619 13.75509212 13284
QIANFAN-236             
1 69865U 26155T   26280.65595314 -.01777087  00000+0 -31353+1 0  9992
2 69865  89.0119  51.9917 0020500 150.2608 209.9711 13.46836776 13054
QIANFAN-237             
1 69866U 26155U   26281.18008899  .00000025  00000+0  20602-4 0  9996
2 69866  89.0124  51.9042 0001917  94.1843 265.9527 13.51036516 13134
QIANFAN-238             
1 69867U 26155V   26281.18419549  .00000069  00000+0  87996-4 0  9992
2 69867  89.0126  51.9224 0001887  94.5730 265.5636 13.51025236 13138
