EUTELSAT 174A           
1 28924U 05052A   26258.82131863  .00000004  00000+0  00000+0 0  9994
2 28924   4.4423  75.3552 0005948  97.6608 291.4287  1.00273776 53243
EUTELSAT 33F            
1 29270U 06032A   26258.93596808  .00000150  00000+0  00000+0 0  9996
2 29270   1.8897  81.1002 0003369  84.6349 199.2285  1.00269470 48212
EUTELSAT HOTBIRD 13C    
1 33459U 08065A   26258.91941468 -.00000288  00000+0  00000+0 0  9995
2 33459   3.1774  78.0420 0003591 102.6034  94.9189  1.00270062 48250
EUTELSAT 36B            
1 36101U 09065A   26258.93943477  .00000107  00000+0  00000+0 0  9996
2 36101   0.7139  81.1502 0005732  90.3464 212.0875  1.00271568 61612
EUTELSAT KA-SAT 9A      
1 37258U 10069A   26258.85992579  .00000056  00000+0  00000+0 0  9997
2 37258   0.0735 353.2495 0005356 176.8043 143.3518  1.00271811 44915
EUTELSAT 7 WEST A       
1 37816U 11051A   26258.35776900 -.00000067  00000+0  00000+0 0  9995
2 37816   0.0631 355.1570 0006008 178.7983 301.8480  1.00272347 54784
EUTELSAT 16A            
1 37836U 11057A   26258.93258807  .00000098  00000+0  00000+0 0  9991
2 37836   0.0960  63.5296 0005512 110.0884 172.9989  1.00271289  8249
EUTELSAT 21B            
1 38992U 12062B   26258.86243913  .00000124  00000+0  00000+0 0  9996
2 38992   0.0690 353.0238 0002953 176.4024 157.4691  1.00271191 50735
EUTELSAT 70B            
1 39020U 12069A   26258.94333479 -.00000049  00000+0  00000+0 0  9999
2 39020   0.0655 346.5357 0003799 191.3505 227.1290  1.00273083 50414
EUTELSAT 117 WEST A     
1 39122U 13012A   26258.48290472 -.00000020  00000+0  00000+0 0  9994
2 39122   0.0412 320.5589 0002846 214.7323 236.2202  1.00273427 49332
EUTELSAT 7B             
1 39163U 13022A   26258.86131245  .00000098  00000+0  00000+0 0  9998
2 39163   0.0668 346.7457 0004919 117.1104 217.0402  1.00272279 48859
EXPRESS-AT1             
1 39612U 14010A   26258.94428812 -.00000105  00000+0  00000+0 0  9993
2 39612   0.4858  84.5328 0004902  79.6400 245.9881  1.00315415 45724
EXPRESS-AT2             
1 39613U 14010B   26258.94047477  .00000073  00000+0  00000+0 0  9991
2 39613   0.0223 251.3814 0000364 194.5132 303.5868  1.00270981 45407
EUTELSAT 3B             
1 39773U 14030A   26258.93007472  .00000015  00000+0  00000+0 0  9996
2 39773   0.0633 346.0263 0004342 184.9268 161.8748  1.00273994 44972
EUTELSAT 115 WEST B     
1 40425U 15010B   26258.90663934 -.00000031  00000+0  00000+0 0  9998
2 40425   0.0235 320.6574 0000110 138.3161 107.3956  1.00271493 42294
EUTELSAT 8 WEST B       
1 40875U 15039B   26258.92782138 -.00000071  00000+0  00000+0 0  9992
2 40875   0.0666 354.1060 0003648 180.4165 146.4096  1.00270990 40562
EUTELSAT 9B             
1 41310U 16005A   26258.93120140  .00000057  00000+0  00000+0 0  9994
2 41310   0.0385  60.9161 0002614 146.1756 132.0502  1.00274771 39029
EUTELSAT 65 WEST A      
1 41382U 16014A   26258.91646800 -.00000282  00000+0  00000+0 0  9998
2 41382   0.0693 317.3093 0002206 209.9118  92.4006  1.00272184 38438
EUTELSAT 117 WEST B     
1 41589U 16038B   26258.90629267 -.00000017  00000+0  00000+0 0  9996
2 41589   0.0223 321.2315 0000267 274.0865 328.8201  1.00272376 37574
EUTELSAT 172B           
1 42741U 17029B   26258.89216595 -.00000011  00000+0  00000+0 0  9996
2 42741   0.0219 144.8281 0000358 283.9541  59.2552  1.00272067 34660
EUTELSAT 7C             
1 44334U 19034B   26258.93076806  .00000043  00000+0  00000+0 0  9992
2 44334   0.0687 180.5557 0003204 336.5262 179.8754  1.00271786  7749
EUTELSAT 5 WEST B       
1 44624U 19067A   26258.92842806 -.00000048  00000+0  00000+0 0  9996
2 44624   0.0755 326.5571 0003145 204.8071 152.7559  1.00272213 25338
EUTELSAT KONNECT        
1 45027U 20005B   26258.93085472  .00000044  00000+0  00000+0 0  9992
2 45027   0.0650  98.8522 0001319  95.8364 142.4973  1.00269803 25246
EUTELSAT QUANTUM        
1 49056U 21069B   26258.93882810  .00000120  00000+0  00000+0 0  9995
2 49056   0.0104 104.8846 0002282  74.9144 200.7855  1.00273100 18836
EUTELSAT KONNECT VHTS   
1 53765U 22110A   26258.35976235  .00000011  00000+0  00000+0 0  9995
2 53765   0.0566 104.2300 0002958  37.8119 344.5178  1.00272786  7741
EUTELSAT HOTBIRD 13F    
1 54048U 22134A   26258.78942515  .00000081  00000+0  00000+0 0  9994
2 54048   0.0607 291.2935 0002019  76.5916 284.0562  1.00272423 14286
EUTELSAT HOTBIRD 13G    
1 54225U 22146A   26258.86070579  .00000082  00000+0  00000+0 0  9996
2 54225   0.0509 235.2651 0002027 295.7144 146.6955  1.00272654  8372
EUTELSAT 10B            
1 54259U 22157A   26258.93137473  .00000063  00000+0  00000+0 0  9999
2 54259   0.0540 102.4643 0001848 350.9044 246.8105  1.00270195 13939
EUTELSAT 36D            
1 59346U 24059A   26258.93648809  .00000150  00000+0  00000+0 0  9991
2 59346   0.0176 165.9887 0000148 244.4030 317.5089  1.00271456  9050
