QIANFAN-1               
1 60379U 24140A   26273.20418145  .00000013  00000+0  99879-6 0  9992
2 60379  88.9664 269.0127 0019675  92.5768 267.7636 13.51026248106703
QIANFAN-2               
1 60380U 24140B   26273.23303969  .00000008  00000+0 -71727-5 0  9990
2 60380  88.9651 268.8097 0014761  68.8405 291.4322 13.51020619106767
QIANFAN-3               
1 60381U 24140C   26273.24141381  .00000015  00000+0  49804-5 0  9998
2 60381  88.9643 268.9192 0016045  79.3804 280.9153 13.51023376106671
QIANFAN-4               
1 60382U 24140D   26273.21661201 -.00000002  00000+0 -21758-4 0  9999
2 60382  88.9668 268.8929 0015039  70.9355 289.3424 13.51021167106799
QIANFAN-5               
1 60383U 24140E   26273.26581172  .00000005  00000+0 -10588-4 0  9994
2 60383  88.9643 268.9409 0017332  89.0894 271.2243 13.51031691106662
QIANFAN-6               
1 60384U 24140F   26273.21246432  .00000010  00000+0 -39031-5 0  9998
2 60384  88.9670 268.7720 0015224  76.0212 284.2631 13.51024356106851
QIANFAN-7               
1 60385U 24140G   26273.21767198  .00000133  00000+0  47543-4 0  9997
2 60385  88.9728 259.4061 0015875 152.4886 207.7152 14.27896223111981
QIANFAN-8               
1 60386U 24140H   26273.22080809  .00000001  00000+0 -17221-4 0  9991
2 60386  88.9671 269.0121 0018693  77.5263 282.7979 13.51026310106702
QIANFAN-9               
1 60387U 24140J   26273.27013574  .00000007  00000+0 -85136-5 0  9999
2 60387  88.9669 269.0763 0018386  77.2185 283.1020 13.51022057106695
QIANFAN-10              
1 60388U 24140K   26273.20017025  .00000021  00000+0  13936-4 0  9991
2 60388  88.9681 268.4619 0016517  57.6037 302.6710 13.51022224106818
QIANFAN-11              
1 60389U 24140L   26273.23732476  .00000021  00000+0  13626-4 0  9995
2 60389  88.9605 268.8254 0016428  77.3019 282.9968 13.51026393106472
QIANFAN-12              
1 60390U 24140M   26273.25783764  .00000004  00000+0 -13108-4 0  9992
2 60390  88.9648 268.9935 0015297  84.4557 275.8338 13.51023961106602
QIANFAN-13              
1 60391U 24140N   26273.22899476  .00000004  00000+0 -12278-4 0  9995
2 60391  88.9907 269.2665 0015130  86.5498 273.7383 13.51024093106624
QIANFAN-14              
1 60392U 24140P   26273.25378013  .00000005  00000+0 -10927-4 0  9998
2 60392  88.9639 268.9651 0018808  86.6226 273.7076 13.51026071106631
QIANFAN-15              
1 60393U 24140Q   26273.26185072  .00000017  00000+0  66945-5 0  9995
2 60393  88.9662 268.9901 0014515  74.9559 285.3198 13.51028667106622
QIANFAN-16              
1 60394U 24140R   26273.24950955  .00000009  00000+0 -42918-5 0  9990
2 60394  88.9665 269.1195 0016752  90.0236 270.2835 13.51025430106536
QIANFAN-17              
1 60395U 24140S   26273.24556158  .00000014  00000+0  24883-5 0  9994
2 60395  88.9675 269.1977 0017127  84.5113 275.7992 13.51021849107495
QIANFAN-18              
1 60396U 24140T   26273.22498043  .00000001  00000+0 -17259-4 0  9996
2 60396  88.9670 268.7148 0016307  69.5014 290.7886 13.51026247106886
QIANFAN-19              
1 61552U 24185A   26273.19289689  .00000244  00000+0  11981-3 0  9993
2 61552  88.9874  44.5563 0008961  90.8085 269.4129 14.14537245110861
QIANFAN-20              
1 61553U 24185B   26273.14563793  .00000365  00000+0  20271-3 0  9996
2 61553  88.9869  45.1727 0007302 124.9670 235.2201 14.09081151110521
QIANFAN-21              
1 61554U 24185C   26273.19342881  .00000376  00000+0  16078-3 0  9997
2 61554  88.9794  42.8578 0012416 127.8779 232.3538 14.22941412111411
QIANFAN-22              
1 61555U 24185D   26273.16084683  .00000221  00000+0  17961-3 0  9999
2 61555  88.9848  47.3262 0006900 167.2716 192.8631 13.86432973109318
QIANFAN-23              
1 61556U 24185E   26273.17804777  .00000221  00000+0  10352-3 0  9992
2 61556  88.9866  44.2320 0009549  97.2191 263.0083 14.16557846111003
QIANFAN-24              
1 61557U 24185F   26273.15914345  .00000366  00000+0  15253-3 0  9999
2 61557  88.9853  43.1650 0011542  73.4350 286.8109 14.24165635111498
QIANFAN-25              
1 61558U 24185G   26273.14941683  .00000321  00000+0  18690-3 0  9993
2 61558  88.9863  45.2231 0013891 143.0650 217.1491 14.06138932110450
QIANFAN-26              
1 61559U 24185H   26273.16887055  .00000138  00000+0  12436-3 0  9996
2 61559  88.9853  48.3024 0005325 190.8392 169.2661 13.77948082108804
QIANFAN-27              
1 61560U 24185J   26273.14472750  .00000303  00000+0  11715-3 0  9991
2 61560  88.9864  42.7990 0009034  62.8781 297.3333 14.27611799111732
QIANFAN-28              
1 61561U 24185K   26273.17164233  .00000476  00000+0  18404-3 0  9992
2 61561  88.9882  42.8112 0008859  60.7773 299.4307 14.28498945111777
QIANFAN-29              
1 61562U 24185L   26273.16498339  .00000136  00000+0  19231-3 0  9991
2 61562  88.9821  51.1916 0008070 290.7511  69.2775 13.51097628107142
QIANFAN-30              
1 61563U 24185M   26273.21213792  .00000107  00000+0  15002-3 0  9996
2 61563  88.9842  50.8241 0005796 273.0765  86.9723 13.50078550107398
QIANFAN-31              
1 61564U 24185N   26273.16271832  .00000142  00000+0  18015-3 0  9996
2 61564  88.9827  50.1688 0005366 251.6309 108.4263 13.58068377107718
QIANFAN-32              
1 61565U 24185P   26273.16936681  .00000121  00000+0  16992-3 0  9996
2 61565  88.9880  51.0473 0008046 312.2588  47.7880 13.50808352107381
QIANFAN-33              
1 61566U 24185Q   26273.20690418  .00000253  00000+0  17272-3 0  9995
2 61566  88.9851  46.3231 0009351 128.1730 232.0291 13.96759129109847
QIANFAN-34              
1 61567U 24185R   26273.18870235  .00000330  00000+0  20550-3 0  9999
2 61567  88.9830  45.5041 0007367 126.7876 233.3981 14.02529111110201
QIANFAN-35              
1 61568U 24185S   26273.15976351  .00000420  00000+0  16230-3 0  9993
2 61568  88.9862  42.6879 0007956  60.0669 300.1315 14.28367800111778
QIANFAN-36              
1 61569U 24185T   26273.22051555  .00000095  00000+0  11934-3 0  9996
2 61569  88.9817  50.6738 0004515 274.7432  85.3207 13.55648936107411
QIANFAN-37              
1 62238U 24232B   26273.20771667  .00000120  00000+0  16712-3 0  9992
2 62238  89.0165  12.0741 0001640  90.1997 269.9342 13.51032607138525
QIANFAN-38              
1 62239U 24232C   26273.23250414  .00000129  00000+0  18026-3 0  9997
2 62239  89.0171  12.0071 0016243  77.0898 283.2066 13.51030758138581
QIANFAN-39              
1 62240U 24232D   26273.22967476  .00000310  00000+0  12470-3 0  9990
2 62240  89.0144   4.1458 0015745 195.5439 164.5273 14.25568269142915
QIANFAN-40              
1 62241U 24232E   26273.26542435  .00000122  00000+0  16936-3 0  9991
2 62241  89.0199  11.6696 0015461  84.3163 275.9750 13.51031045138958
QIANFAN-41              
1 62242U 24232F   26273.19955300  .00000125  00000+0  17489-3 0  9990
2 62242  89.0169  11.9565 0015576  73.8349 286.4516 13.51032193138604
QIANFAN-42              
1 62243U 24232G   26273.13267235  .00000299  00000+0  12255-3 0  9996
2 62243  89.0143   4.2471 0014290 202.6155 157.4410 14.24654971142854
QIANFAN-43              
1 62244U 24232H   26273.19545030  .00000120  00000+0  16721-3 0  9990
2 62244  89.0174  12.0350 0017218  78.1340 282.1741 13.51031607107215
QIANFAN-44              
1 62245U 24232J   26273.18312814  .00000107  00000+0  14606-3 0  9997
2 62245  89.0172  11.8422 0015387  75.9562 284.3299 13.51031809138688
QIANFAN-45              
1 62246U 24232K   26273.22430047  .00000116  00000+0  16132-3 0  9998
2 62246  89.0176  11.9951 0016041  75.3269 284.9659 13.51030529138614
QIANFAN-46              
1 62247U 24232L   26273.24891657  .00000104  00000+0  14268-3 0  9994
2 62247  89.0172  12.0497 0016191  80.1737 280.1242 13.51031659138574
QIANFAN-47              
1 62248U 24232M   26273.25308080  .00000111  00000+0  15329-3 0  9996
2 62248  89.0168  11.9705 0016598  79.3011 281.0008 13.51030943138605
QIANFAN-48              
1 62249U 24232N   26273.21618830  .00000117  00000+0  16192-3 0  9995
2 62249  89.0172  11.9874 0018888  81.3531 278.9759 13.51025320138603
QIANFAN-49              
1 62250U 24232P   26273.12963344  .00000123  00000+0  17162-3 0  9995
2 62250  89.0171  12.0062 0015885  77.3314 282.9612 13.51032399107189
QIANFAN-50              
1 62251U 24232Q   26273.22834955  .00000114  00000+0  15833-3 0  9995
2 62251  89.0176  12.0204 0017559  77.9021 282.4097 13.51031890107226
QIANFAN-51              
1 62252U 24232R   26273.21193876  .00000109  00000+0  15056-3 0  9996
2 62252  89.0170  11.9980 0015098  81.9113 278.3751 13.51030860107219
QIANFAN-52              
1 62253U 24232S   26273.24069824  .00000116  00000+0  16021-3 0  9996
2 62253  89.0166  11.8573 0016990  74.2370 286.0654 13.51032908107307
QIANFAN-53              
1 62254U 24232T   26273.14616296  .00000108  00000+0  14866-3 0  9993
2 62254  89.0174  11.9933 0015898  75.7863 284.5053 13.51029530107254
QIANFAN-54              
1 62255U 24232U   26273.26129399  .00000117  00000+0  16193-3 0  9995
2 62255  89.0165  11.6346 0004127 110.4078 249.7517 13.51031451138772
QIANFAN-55              
1 62785U 25016A   26273.13932069  .00000026  00000+0  22178-4 0  9996
2 62785  88.9682  72.9520 0016190 221.7414 138.2503 13.51025370 86535
QIANFAN-56              
1 62786U 25016B   26273.22964523  .00000023  00000+0  17535-4 0  9995
2 62786  88.9657  72.7015 0014736 223.8832 136.1150 13.51028670 86593
QIANFAN-57              
1 62787U 25016C   26273.18865978  .00000024  00000+0  19093-4 0  9997
2 62787  88.9687  72.9499 0002156  77.0458 283.0934 13.51028369 86554
QIANFAN-58              
1 62788U 25016D   26273.01176069  .00000020  00000+0  12697-4 0  9995
2 62788  88.9658  72.7115 0012819 215.5722 144.4576 13.51027859 86573
QIANFAN-59              
1 62789U 25016E   26273.18442043  .00000038  00000+0  39582-4 0  9993
2 62789  88.9681  72.8358 0013100 219.2702 140.7500 13.51025205 86594
QIANFAN-60              
1 62790U 25016F   26273.21731532  .00000043  00000+0  47962-4 0  9990
2 62790  88.9663  72.7484 0014736 215.9668 144.0492 13.51028776 86587
QIANFAN-61              
1 62791U 25016G   26273.17621833  .00000031  00000+0  29333-4 0  9997
2 62791  88.9728  73.1126 0013713 215.1638 144.8610 13.51028186 86597
QIANFAN-62              
1 62792U 25016H   26273.18045630  .00000033  00000+0  33015-4 0  9998
2 62792  88.9676  72.8242 0015039 215.8788 144.1355 13.51027577 86582
QIANFAN-63              
1 62793U 25016J   26273.20510381  .00000015  00000+0  43051-5 0  9994
2 62793  88.9683  72.7929 0014977 221.6008 138.4005 13.51023497 86622
QIANFAN-64              
1 62794U 25016K   26273.17212887  .00000036  00000+0  37000-4 0  9990
2 62794  88.9670  72.7314 0013087 213.2963 146.7367 13.51028181 86612
QIANFAN-65              
1 62795U 25016L   26273.16794144  .00000021  00000+0  13890-4 0  9996
2 62795  88.9666  72.7474 0012902 215.0895 144.9407 13.51024265 86595
QIANFAN-66              
1 62796U 25016M   26273.19679175  .00000016  00000+0  66928-5 0  9991
2 62796  88.9686  72.7718 0014103 210.8182 149.2142 13.51020386 86646
QIANFAN-67              
1 62797U 25016N   26273.20086741  .00000020  00000+0  12467-4 0  9998
2 62797  88.9676  72.7683 0013904 218.1667 141.8501 13.51020593 86618
QIANFAN-68              
1 62798U 25016P   26273.19273451  .00000022  00000+0  15706-4 0  9994
2 62798  88.9679  72.8246 0014023 215.9423 144.0786 13.51022572 86592
QIANFAN-69              
1 62799U 25016Q   26273.20907823  .00000071  00000+0  91121-4 0  9993
2 62799  88.9659  72.6305 0014724 217.6110 142.4012 13.51021410 86634
QIANFAN-70              
1 62800U 25016R   26273.22566984  .00000039  00000+0  41093-4 0  9994
2 62800  88.9679  72.8278 0014577 207.2401 152.7987 13.51024727 86598
QIANFAN-71              
1 62801U 25016S   26273.22147888  .00000033  00000+0  32374-4 0  9999
2 62801  88.9673  72.7902 0014552 221.4007 138.6042 13.51027489 86592
QIANFAN-72              
1 62802U 25016T   26273.16397099  .00000025  00000+0  20423-4 0  9997
2 62802  88.9663  72.7811 0017650 230.1840 129.7758 13.51029270 86578
QIANFAN-73              
1 63159U 25046A   26273.19092140  .00000010  00000+0 -28701-5 0  9991
2 63159  88.9629 289.7511 0015048   9.3162 350.8266 13.51025903 86766
QIANFAN-74              
1 63160U 25046B   26273.24863379  .00000007  00000+0 -72478-5 0  9995
2 63160  88.9631 289.6350 0001854  99.1706 260.9655 13.51018632 86834
QIANFAN-75              
1 63161U 25046C   26273.23620055  .00000070  00000+0  89939-4 0  9995
2 63161  88.9632 289.8741 0016291  12.1499 348.0042 13.51032635 86700
QIANFAN-76              
1 63162U 25046D   26273.23224924 -.00000098  00000+0 -17035-3 0  9990
2 63162  88.9632 289.8543 0013799  13.7080 346.4443 13.51018548 86719
QIANFAN-77              
1 63163U 25046E   26273.15974528  .00000079  00000+0  47801-4 0  9996
2 63163  88.9639 285.4656 0012727 247.4064 112.5767 13.96248812 89118
QIANFAN-78              
1 63164U 25046F   26273.19985514  .00000044  00000+0  49694-4 0  9992
2 63164  88.9631 289.7193 0015258  15.1060 345.0544 13.51013515 86789
QIANFAN-79              
1 63165U 25046G   26273.22799771  .00000007  00000+0 -86061-5 0  9995
2 63165  88.9634 289.8339 0014935  13.8265 346.3292 13.51021351 86735
QIANFAN-80              
1 63166U 25046H   26273.17032999  .00000047  00000+0  54422-4 0  9990
2 63166  88.9631 289.5388 0014018  18.9943 341.1728 13.51031176 86884
QIANFAN-81              
1 63167U 25046J   26273.14978547  .00000079  00000+0  10347-3 0  9998
2 63167  88.9631 289.6082 0014832   8.1100 352.0288 13.51022613 86830
QIANFAN-82              
1 63168U 25046K   26273.18278817  .00000061  00000+0  74965-4 0  9994
2 63168  88.9631 289.6491 0012967  15.8830 344.2725 13.51022042 86821
QIANFAN-83              
1 63169U 25046L   26273.20360943  .00000034  00000+0  27950-4 0  9992
2 63169  88.9634 288.8485 0013158 343.5494  16.5235 13.62065691 87273
QIANFAN-84              
1 63170U 25046M   26273.13756465 -.00000063  00000+0 -11597-3 0  9997
2 63170  88.9632 289.7865 0015830  10.7996 349.3492 13.51015617 86748
QIANFAN-85              
1 63171U 25046N   26273.20742175  .00000057  00000+0  69064-4 0  9993
2 63171  88.9630 289.6486 0013473  14.2780 345.8750 13.51022381 86829
QIANFAN-86              
1 63172U 25046P   26273.21559718  .00000077  00000+0  10058-3 0  9994
2 63172  88.9632 289.5168 0011508  20.0528 340.1073 13.51020365 86905
QIANFAN-87              
1 63173U 25046Q   26273.18680410  .00000003  00000+0 -14620-4 0  9995
2 63173  88.9629 289.6207 0011861  14.4022 345.7465 13.51020523 86839
QIANFAN-88              
1 63174U 25046R   26273.20328315  .00000064  00000+0  80206-4 0  9991
2 63174  88.9631 289.5806 0012587  22.8403 337.3305 13.51020959 86865
QIANFAN-89              
1 63175U 25046S   26273.16624637  .00000057  00000+0  70190-4 0  9996
2 63175  88.9631 289.7733 0016730  10.7466 349.4039 13.51021622 86750
QIANFAN-90              
1 63176U 25046T   26273.19512496  .00000008  00000+0 -63970-5 0  9995
2 63176  88.9632 289.7437 0013626  10.8238 349.3204 13.51020167 86770
QIANFAN-91              
1 66033U 25233A   26272.85715807  .00000084  00000+0  11218-3 0  9990
2 66033  89.0070  32.6145 0001645  99.1336 261.0002 13.51030935 47318
QIANFAN-92              
1 66034U 25233B   26272.86581473  .00000076  00000+0  99066-4 0  9991
2 66034  89.0054  32.5683 0002210 100.4435 259.6965 13.51028275 47317
QIANFAN-93              
1 66035U 25233C   26272.87386465  .00000085  00000+0  11364-3 0  9991
2 66035  89.0081  32.6476 0001688  97.5456 262.5887 13.51040100 47313
QIANFAN-94              
1 66036U 25233D   26272.86134407  .00000075  00000+0  97273-4 0  9991
2 66036  89.0077  32.5486 0001760 104.4748 255.6598 13.51029291 47367
QIANFAN-95              
1 66037U 25233E   26272.86959172  .00000075  00000+0  97830-4 0  9995
2 66037  89.0075  32.0890 0001580 103.5673 256.5654 13.51029147 47618
QIANFAN-96              
1 66038U 25233F   26272.89420639  .00000084  00000+0  11081-3 0  9993
2 66038  89.0072  32.6270 0001598  97.9345 262.1988 13.51030395 47312
QIANFAN-97              
1 66039U 25233G   26272.87767846  .00000083  00000+0  10942-3 0  9990
2 66039  89.0075  32.6161 0001716  98.4392 261.6954 13.51040293 47310
QIANFAN-98              
1 66040U 25233H   26272.88601092  .00000087  00000+0  11576-3 0  9991
2 66040  89.0065  32.3350 0001861 116.9236 243.2106 13.51030585 47466
QIANFAN-99              
1 66041U 25233J   26272.88999685  .00000091  00000+0  12164-3 0  9999
2 66041  89.0077  32.6196 0001646 115.1579 244.9743 13.51037235 47322
QIANFAN-100             
1 66042U 25233K   26272.88181185  .00000085  00000+0  11346-3 0  9992
2 66042  89.0087  32.5592 0001554  96.2888 263.8440 13.51056140 47378
QIANFAN-101             
1 66043U 25233L   26272.85790694  .00000203  00000+0  77669-4 0  9994
2 66043  89.0076  28.5662 0016230 153.7113 206.4909 14.26865736 49554
QIANFAN-102             
1 66044U 25233M   26272.90245966  .00000076  00000+0  99352-4 0  9999
2 66044  89.0074  32.5256 0001743 105.7691 254.3652 13.51029940 47379
QIANFAN-103             
1 66045U 25233N   26272.83254899  .00000077  00000+0  10017-3 0  9998
2 66045  89.0076  32.6307 0001696  98.6892 261.4451 13.51029974 47317
QIANFAN-104             
1 66046U 25233P   26272.91065154  .00000078  00000+0  10154-3 0  9995
2 66046  89.0082  32.5298 0001843 105.7344 254.4011 13.51027881 47374
QIANFAN-105             
1 66047U 25233Q   26272.84492065  .00000088  00000+0  11757-3 0  9994
2 66047  89.0095  32.3934 0001796 102.2834 257.8518 13.51031195 47470
QIANFAN-106             
1 66048U 25233R   26272.84068619  .00000082  00000+0  10908-3 0  9990
2 66048  89.0063  32.5738 0001809 114.9835 245.1504 13.51031506 47310
QIANFAN-107             
1 66049U 25233S   26272.84893616  .00000089  00000+0  11873-3 0  9993
2 66049  89.0079  32.6221 0001727  99.7568 260.3779 13.51030811 47320
QIANFAN-108             
1 66050U 25233T   26272.85311054  .00000086  00000+0  11422-3 0  9994
2 66050  89.0072  32.6020 0001836 113.2568 246.8777 13.51030559 47321
QIANFAN-109             
1 68636U 26075A   26273.16328884  .00000036  00000+0  37260-4 0  9999
2 68636  88.9846 310.2959 0001751  84.3109 275.8241 13.51021709 23960
QIANFAN-110             
1 68637U 26075B   26273.24551484  .00000039  00000+0  42194-4 0  9998
2 68637  88.9846 310.3091 0002158  94.6871 265.4527 13.51022592 23975
QIANFAN-111             
1 68638U 26075C   26273.15935666  .00000033  00000+0  32116-4 0  9994
2 68638  88.9845 310.2767 0002128  94.5058 265.6337 13.51025139 23989
QIANFAN-112             
1 68639U 26075D   26273.19629074  .00000025  00000+0  20235-4 0  9992
2 68639  88.9843 310.2806 0001967  81.6250 278.5124 13.51024416 23987
QIANFAN-113             
1 68640U 26075E   26273.16736658  .00000044  00000+0  48779-4 0  9992
2 68640  88.9849 310.2831 0002146  91.3342 268.8055 13.51021183 23986
QIANFAN-114             
1 68641U 26075F   26273.17557124  .00000044  00000+0  49896-4 0  9994
2 68641  88.9844 310.2964 0002126  94.2088 265.9306 13.51019739 23976
QIANFAN-115             
1 68642U 26075G   26273.20444592  .00000039  00000+0  41701-4 0  9994
2 68642  88.9844 310.3007 0001961  93.9331 266.2044 13.51025369 23978
QIANFAN-116             
1 68643U 26075H   26273.19207070  .00000020  00000+0  11853-4 0  9996
2 68643  88.9837 310.2546 0002076  84.4528 275.6860 13.51025892 23981
QIANFAN-117             
1 68644U 26075J   26273.25389995  .00000036  00000+0  37038-4 0  9991
2 68644  88.9842 310.2689 0001946  88.9391 271.1983 13.51023772 23991
QIANFAN-118             
1 68645U 26075K   26273.13860125  .00000037  00000+0  39229-4 0  9993
2 68645  88.9847 310.2938 0002250  95.3364 264.8044 13.51025459 23974
QIANFAN-119             
1 68646U 26075L   26273.18792718  .00000031  00000+0  29242-4 0  9999
2 68646  88.9847 310.2844 0001752  88.8120 271.3232 13.51021339 23980
QIANFAN-120             
1 68647U 26075M   26273.20031397  .00000031  00000+0  30026-4 0  9994
2 68647  88.9848 310.2698 0001682  89.7898 270.3446 13.51021112 23999
QIANFAN-121             
1 68648U 26075N   26273.15103549  .00000027  00000+0  22439-4 0  9992
2 68648  88.9846 310.2775 0002168  95.5824 264.5575 13.51024588 23985
QIANFAN-122             
1 68649U 26075P   26273.14272511  .00000038  00000+0  40197-4 0  9991
2 68649  88.9845 310.2752 0001896  87.0067 273.1302 13.51028198 23976
QIANFAN-123             
1 68650U 26075Q   26273.25788500  .00000027  00000+0  23830-4 0  9998
2 68650  88.9842 310.2500 0001748  81.4131 278.7218 13.51021071 23972
QIANFAN-124             
1 68651U 26075R   26273.20858627  .00000035  00000+0  35933-4 0  9998
2 68651  88.9844 310.2669 0001875  85.3789 274.7577 13.51027628 23994
QIANFAN-125             
1 68652U 26075S   26273.14692039  .00000037  00000+0  37938-4 0  9994
2 68652  88.9844 310.2751 0002184  94.8374 265.3027 13.51024756 23980
QIANFAN-126             
1 68653U 26075T   26273.15500057  .00000035  00000+0  35985-4 0  9992
2 68653  88.9848 310.2442 0001744  82.3357 277.7992 13.51020378 24004
QIANFAN-127             
1 69073U 26104A   26273.16039371  .00000074  00000+0  95726-4 0  9991
2 69073  88.9906 330.7694 0002488  96.9309 263.2125 13.51029433 19335
QIANFAN-128             
1 69074U 26104B   26273.16853483  .00000060  00000+0  73861-4 0  9991
2 69074  88.9884 330.7902 0002411 108.6677 251.4736 13.51024903 19310
QIANFAN-129             
1 69075U 26104C   26273.19315367  .00000081  00000+0  10681-3 0  9992
2 69075  88.9887 330.7222 0002396 103.9525 256.1893 13.51024958 19351
QIANFAN-130             
1 69076U 26104D   26273.15611987  .00000069  00000+0  87490-4 0  9995
2 69076  88.9889 330.7921 0002362  91.9710 268.1711 13.51023011 19312
QIANFAN-131             
1 69077U 26104E   26273.17683906  .00000060  00000+0  73829-4 0  9990
2 69077  88.9882 330.7498 0002152 105.9637 254.1751 13.51027095 19333
QIANFAN-132             
1 69078U 26104F   26273.16436692  .00000067  00000+0  84436-4 0  9991
2 69078  88.9885 330.8079 0002301  95.6572 264.4842 13.51023327 19308
QIANFAN-133             
1 69079U 26104G   26273.17263707  .00000063  00000+0  79073-4 0  9995
2 69079  88.9888 330.7576 0002198 111.5531 248.5854 13.51032167 19320
QIANFAN-134             
1 69080U 26104H   26273.20142638  .00000071  00000+0  91657-4 0  9991
2 69080  88.9892 330.7815 0002356 108.5845 251.5562 13.51030473 19321
QIANFAN-135             
1 69081U 26104J   26273.18082235  .00000063  00000+0  79318-4 0  9996
2 69081  88.9886 330.7736 0002578 106.1198 254.0238 13.51023584 19321
QIANFAN-136             
1 69082U 26104K   26273.18901695  .00000072  00000+0  93525-4 0  9993
2 69082  88.9888 330.7760 0002261 109.9495 250.1900 13.51020332 19322
QIANFAN-137             
1 69083U 26104L   26273.18501139  .00000062  00000+0  78028-4 0  9993
2 69083  88.9897 330.6541 0002197  97.5969 262.5432 13.51023216 19393
QIANFAN-138             
1 69084U 26104M   26273.20962311  .00000059  00000+0  72564-4 0  9995
2 69084  88.9881 330.7731 0002545 100.3346 259.8092 13.51023048 19325
QIANFAN-139             
1 69085U 26104N   26273.19739090  .00000071  00000+0  91097-4 0  9996
2 69085  88.9884 330.7563 0002410  95.6418 264.5009 13.51031764 19335
QIANFAN-140             
1 69086U 26104P   26273.20551455  .00000070  00000+0  89288-4 0  9994
2 69086  88.9884 330.7592 0002621 104.3913 255.7529 13.51024229 19337
QIANFAN-141             
1 69087U 26104Q   26273.13976645  .00000061  00000+0  75401-4 0  9991
2 69087  88.9881 330.7298 0002473 107.4228 252.7194 13.51021954 19344
QIANFAN-142             
1 69088U 26104R   26273.14791008  .00000068  00000+0  86623-4 0  9996
2 69088  88.9880 330.7281 0002523 101.4132 258.7303 13.51021131 19345
QIANFAN-143             
1 69089U 26104S   26273.14385238  .00000062  00000+0  77057-4 0  9996
2 69089  88.9891 330.7363 0002083 106.1647 253.9734 13.51028597 19341
QIANFAN-144             
1 69090U 26104T   26273.15201926  .00000066  00000+0  83822-4 0  9991
2 69090  88.9889 330.7534 0002505  97.6795 262.4641 13.51021977 19333
QIANFAN-145             
1 69104U 26108A   26273.23035839  .00000139  00000+0  19747-3 0  9993
2 69104  89.0201  11.5701 0001686 111.6019 248.5312 13.51023756 18622
QIANFAN-146             
1 69105U 26108B   26273.18921602  .00000113  00000+0  15601-3 0  9997
2 69105  89.0203  11.4114 0001902 101.7826 258.3539 13.51021673 18715
QIANFAN-147             
1 69106U 26108C   26273.23876256  .00000044  00000+0  48845-4 0  9998
2 69106  89.0204  11.5739 0002075 102.4324 257.7059 13.51026911 18613
QIANFAN-148             
1 69107U 26108D   26273.22635547  .00000137  00000+0  19423-3 0  9996
2 69107  89.0197  11.5644 0002124 109.2032 250.9350 13.51026815 18618
QIANFAN-149             
1 69108U 26108E   26272.86267581 -.01792902  00000+0 -31721+1 0  9998
2 69108  89.0192  11.6215 0006676 140.2736 219.8902 13.46768034 18562
QIANFAN-150             
1 69109U 26108F   26273.24271792  .00000038  00000+0  40354-4 0  9996
2 69109  89.0202  11.5378 0002362 103.4602 256.6813 13.51026542 18630
QIANFAN-151             
1 69110U 26108G   26273.19760661  .00000133  00000+0  18785-3 0  9998
2 69110  89.0201  11.5659 0001851 107.2185 252.9169 13.51029908 18613
QIANFAN-152             
1 69111U 26108H   26273.25094783  .00000126  00000+0  17586-3 0  9991
2 69111  89.0198  11.5521 0002080  95.4812 264.6577 13.51022609 18633
QIANFAN-153             
1 69112U 26108J   26273.24683436  .00000119  00000+0  16612-3 0  9991
2 69112  89.0194  11.5284 0002206 101.1160 259.0240 13.51023840 18630
QIANFAN-154             
1 69113U 26108K   26273.18110554  .00000117  00000+0  16226-3 0  9990
2 69113  89.0204  11.5849 0002179 104.2468 255.8925 13.51029008 18618
QIANFAN-155             
1 69114U 26108L   26273.18513000  .00000118  00000+0  16490-3 0  9998
2 69114  89.0202  11.5487 0002280 101.9204 258.2203 13.51025806 18629
QIANFAN-156             
1 69115U 26108M   26272.90787536 -.01777918  00000+0 -31490+1 0  9991
2 69115  89.0212  11.5786 0001736 204.4992 155.6074 13.46670577 18600
QIANFAN-157             
1 69116U 26108N   26273.26752694  .00000132  00000+0  18530-3 0  9996
2 69116  89.0198  11.4648 0002229 109.2365 250.9027 13.51030631 18686
QIANFAN-158             
1 69117U 26108P   26273.20977259  .00000128  00000+0  17941-3 0  9997
2 69117  89.0199  11.5119 0001944 108.5601 251.5761 13.51023886 18653
QIANFAN-159             
1 69118U 26108Q   26273.20158847  .00000130  00000+0  18252-3 0  9991
2 69118  89.0191  11.5182 0001922 106.3372 253.7991 13.51025924 18646
QIANFAN-160             
1 69119U 26108R   26273.21818072  .00000124  00000+0  17388-3 0  9998
2 69119  89.0206  11.5556 0002394 100.9116 259.2304 13.51025993 18633
QIANFAN-161             
1 69120U 26108S   26273.22214861  .00000128  00000+0  18003-3 0  9996
2 69120  89.0213  11.4727 0001907 107.8457 252.2903 13.51024340 18683
QIANFAN-162             
1 69121U 26108T   26272.99175339  .00000116  00000+0  16172-3 0  9998
2 69121  89.0203  11.5197 0002044  98.3361 261.8022 13.51025122 18627
QIANFAN-163             
1 69325U 26121A   26273.10453133 -.00000006  00000+0 -27374-4 0  9991
2 69325  89.0086 290.0647 0002808 110.8218 249.3234 13.51022091 16339
QIANFAN-164             
1 69326U 26121B   26273.07162354  .00000032  00000+0  31057-4 0  9990
2 69326  89.0085 290.0580 0002315 107.2462 252.8943 13.51022253 16335
QIANFAN-165             
1 69382U 26124A   26273.22942627  .00000110  00000+0  15215-3 0  9995
2 69382  89.0064 351.0462 0002244 119.0375 241.1002 13.51024260 16221
QIANFAN-166             
1 69383U 26124B   26273.23356894  .00000118  00000+0  16457-3 0  9999
2 69383  89.0083 351.0586 0001874 107.6721 252.4635 13.51024933 16220
QIANFAN-167             
1 69384U 26124C   26273.23749509  .00000117  00000+0  16286-3 0  9998
2 69384  89.0056 351.0610 0002255 104.3662 255.7740 13.51033830 16219
QIANFAN-168             
1 69385U 26124D   26273.24164216  .00000117  00000+0  16215-3 0  9998
2 69385  89.0053 351.0402 0001795 113.9151 246.2189 13.51022396 16221
QIANFAN-169             
1 69386U 26124E   26273.24587510  .00000116  00000+0  16044-3 0  9994
2 69386  89.0052 351.0394 0001818 104.0027 256.1326 13.51025619 16224
QIANFAN-170             
1 69387U 26124F   26273.17586094  .00000124  00000+0  17411-3 0  9991
2 69387  89.0069 351.0206 0001744 103.4815 256.6530 13.51028076 16234
QIANFAN-171             
1 69388U 26124G   26273.18413990  .00000115  00000+0  15984-3 0  9990
2 69388  89.0084 351.0338 0002115 102.4513 257.6876 13.51031081 16239
QIANFAN-172             
1 69389U 26124H   26273.17993929  .00000120  00000+0  16682-3 0  9997
2 69389  89.0067 351.0222 0002107 117.3889 242.7477 13.51031643 16231
QIANFAN-173             
1 69390U 26124J   26273.18811204  .00000113  00000+0  15586-3 0  9999
2 69390  89.0056 351.0168 0001693 110.3823 249.7510 13.51024640 16234
QIANFAN-174             
1 69391U 26124K   26273.20044662  .00000123  00000+0  17111-3 0  9996
2 69391  89.0036 350.9710 0002307 105.9394 254.2012 13.51032595 16247
QIANFAN-175             
1 69392U 26124L   26273.20475019  .00000036  00000+0  37467-4 0  9991
2 69392  89.0089 351.0209 0001844 106.2671 253.8683 13.51029354 16246
QIANFAN-176             
1 69393U 26124M   26273.20885335  .00000116  00000+0  16085-3 0  9999
2 69393  89.0050 350.9964 0001849 106.0775 254.0580 13.51023276 16234
QIANFAN-177             
1 69394U 26124N   26273.06887334  .00000118  00000+0  16413-3 0  9992
2 69394  89.0060 351.0001 0002226 107.4282 252.7113 13.51032336 16232
QIANFAN-178             
1 69395U 26124P   26273.21285312  .00000112  00000+0  15534-3 0  9995
2 69395  89.0006 350.9358 0001853 105.2669 254.8687 13.51028254 16262
QIANFAN-179             
1 69396U 26124Q   26273.22112060  .00000117  00000+0  16269-3 0  9997
2 69396  89.0038 350.9564 0001825 105.2168 254.9185 13.51031949 16269
QIANFAN-180             
1 69397U 26124R   26273.07718017  .00000114  00000+0  15718-3 0  9990
2 69397  89.0044 350.9925 0001731 101.9317 258.2029 13.51024114 16230
QIANFAN-181             
1 69398U 26124S   26273.19235998  .00000117  00000+0  16213-3 0  9990
2 69398  89.0067 351.0767 0002192 103.9200 256.2195 13.51026062 16200
QIANFAN-182             
1 69399U 26124T   26273.19637233  .00000111  00000+0  15279-3 0  9994
2 69399  89.0041 351.0441 0001880 107.7067 252.4290 13.51030559 16208
QIANFAN-183             
1 69401U 26125A   26273.23100912  .00000003  00000+0 -13608-4 0  9999
2 69401  88.9832 269.3045 0002236  98.7192 261.4213 13.51027772 16122
QIANFAN-184             
1 69402U 26125B   26273.23924441  .00000023  00000+0  16847-4 0  9990
2 69402  88.9882 269.3361 0002122  96.4546 263.6847 13.51029172 16124
QIANFAN-185             
1 69403U 26125C   26273.26400097  .00000002  00000+0 -15328-4 0  9991
2 69403  88.9897 269.2751 0002098  99.0114 261.1275 13.51028788 16169
QIANFAN-186             
1 69404U 26125D   26273.23523337  .00000013  00000+0  14004-5 0  9994
2 69404  88.9885 269.3368 0002125  94.7716 265.3678 13.51028283 16122
QIANFAN-187             
1 69405U 26125E   26273.24346646  .00000016  00000+0  62635-5 0  9998
2 69405  88.9885 269.3187 0002326  95.6404 264.5013 13.51028923 16135
QIANFAN-188             
1 69406U 26125F   26273.25150052  .00000020  00000+0  12092-4 0  9990
2 69406  88.9883 269.3174 0002287  99.4075 260.7335 13.51029777 16135
QIANFAN-189             
1 69407U 26125G   26273.03756885  .00000000  00000+0 -19028-4 0  9998
2 69407  88.9866 269.3321 0002405 102.8765 257.2655 13.51019275 16091
QIANFAN-190             
1 69408U 26125H   26273.24740537  .00000015  00000+0  53378-5 0  9991
2 69408  88.9867 269.3087 0002053  96.5490 263.5894 13.51019204 16137
QIANFAN-191             
1 69409U 26125J   26272.90174350 -.00000035  00000+0 -73533-4 0  9996
2 69409  88.9880 269.3575 0002225 100.0229 260.1173 13.51033031 16088
QIANFAN-192             
1 69410U 26125K   26273.25564346  .00000005  00000+0 -10584-4 0  9998
2 69410  88.9888 269.3225 0002408 100.4021 259.7402 13.51019807 16137
QIANFAN-193             
1 69411U 26125L   26273.20634666  .00000009  00000+0 -43352-5 0  9991
2 69411  88.9866 269.3015 0002184 101.3678 258.7718 13.51027702 16132
QIANFAN-194             
1 69412U 26125M   26273.20222917  .00000010  00000+0 -24977-5 0  9998
2 69412  88.9898 269.3199 0002266  99.2569 260.8838 13.51026308 16123
QIANFAN-195             
1 69413U 26125N   26273.21054847  .00000016  00000+0  54761-5 0  9994
2 69413  88.9900 269.3042 0001934  90.0094 270.1279 13.51028103 16148
QIANFAN-196             
1 69414U 26125P   26272.84646689 -.01762169  00000+0 -31030+1 0  9990
2 69414  88.9900 269.3453 0006213 179.3707 180.7451 13.47001370 16096
QIANFAN-197             
1 69415U 26125Q   26273.22697801  .00000000  00000+0 -19139-4 0  9993
2 69415  88.9879 269.2757 0002197  98.1308 262.0092 13.51023990 16148
QIANFAN-198             
1 69416U 26125R   26273.21455408  .00000017  00000+0  73419-5 0  9997
2 69416  88.9873 269.2890 0002283  99.6835 260.4574 13.51028481 16145
QIANFAN-199             
1 69417U 26125S   26273.22285114  .00000014  00000+0  31749-5 0  9991
2 69417  88.9877 269.2388 0002413  95.7330 264.4096 13.51026096 16170
QIANFAN-200             
1 69418U 26125T   26273.19399032  .00000003  00000+0 -14159-4 0  9997
2 69418  88.9884 269.3280 0002334 101.5290 258.6123 13.51026510 16126
QIANFAN-201             
1 69800U 26153A   26272.75253140 -.01892220  00000+0 -15936+1 0  9995
2 69800  88.9965 350.4473 0006386 336.6034  23.4849 13.91713070 12346
QIANFAN-202             
1 69801U 26153B   26272.86035743 -.01813801  00000+0 -14248+1 0  9998
2 69801  88.9968 350.3888 0001683  16.9592 343.1641 13.96219067 12378
QIANFAN-203             
1 69802U 26153C   26272.77635821 -.01912495  00000+0 -14742+1 0  9990
2 69802  88.9966 350.4334 0002586  67.5476 292.5975 13.96843354 12357
QIANFAN-204             
1 69803U 26153D   26272.75777857 -.01887254  00000+0 -15220+1 0  9991
2 69803  88.9967 350.4309 0003328 254.0722 106.0087 13.94206517 12358
QIANFAN-205             
1 69804U 26153E   26272.87234166 -.01783743  00000+0 -14852+1 0  9994
2 69804  88.9967 350.4462 0006631 338.2765  21.8128 13.92791189 12353
QIANFAN-206             
1 69805U 26153F   26272.71266157 -.01831836  00000+0 -14755+1 0  9992
2 69805  88.9968 350.4045 0005738  26.1888 333.9577 13.94819437 12363
QIANFAN-207             
1 69806U 26153G   26272.80021779 -.01840271  00000+0 -15486+1 0  9997
2 69806  88.9969 350.4361 0006932 321.3527  38.7151 13.92314765 12352
QIANFAN-208             
1 69807U 26153H   26272.79010347 -.01834021  00000+0 -15508+1 0  9996
2 69807  88.9964 350.4341 0007677  15.0039 345.1362 13.92020529 12360
QIANFAN-209             
1 69808U 26153J   26272.90599228 -.01843981  00000+0 -15764+1 0  9999
2 69808  88.9970 350.4343 0008503 289.3045  70.7209 13.91406995 12367
QIANFAN-210             
1 69809U 26153K   26272.80342192 -.01853131  00000+0 -15843+1 0  9991
2 69809  88.9967 350.4370 0008952 313.0136  47.0287 13.91424751 12350
QIANFAN-211             
1 69810U 26153L   26273.19515822  .00000219  00000+0  10689-3 0  9992
2 69810  88.9973 350.3286 0005729 306.5799  53.4860 14.14546092 12442
QIANFAN-212             
1 69811U 26153M   26272.75023212 -.01895319  00000+0 -14540+1 0  9994
2 69811  88.9963 350.4098 0016346 190.8398 169.2429 13.97020872 12361
QIANFAN-213             
1 69812U 26153N   26272.79391141 -.01810979  00000+0 -14607+1 0  9991
2 69812  88.9970 350.4160 0018275 221.8242 138.1538 13.94616814 12366
QIANFAN-214             
1 69813U 26153P   26272.86388334 -.01930501  00000+0 -14084+1 0  9993
2 69813  88.9967 350.3525 0004498 224.9424 135.1391 14.00001976 12409
QIANFAN-215             
1 69814U 26153Q   26273.17977517  .00000273  00000+0  13357-3 0  9992
2 69814  88.9971 350.2497 0005733 318.8227  41.2527 14.15203593 12480
QIANFAN-216             
1 69815U 26153R   26272.79571271 -.01862791  00000+0 -13676+1 0  9992
2 69815  88.9967 350.3424 0008370 238.5686 121.4674 13.99494657 12404
QIANFAN-217             
1 69816U 26153S   26272.88052316 -.01779620  00000+0 -95961+0 0  9991
2 69816  88.9965 350.2232 0011040 305.0260  54.9892 14.16988288 12472
QIANFAN-218             
1 69817U 26153T   26272.88402513 -.01843496  00000+0 -10170+1 0  9993
2 69817  88.9968 350.2266 0006941 241.7462 118.3025 14.15264997 12473
QIANFAN-219             
1 69848U 26155A   26272.86281858 -.01765163  00000+0 -31112+1 0  9997
2 69848  89.0101  52.7619 0013067 326.2338  33.7978 13.46921097 12002
QIANFAN-220             
1 69849U 26155B   26273.18050699  .00000068  00000+0  87345-4 0  9997
2 69849  89.0111  52.7594 0033839 344.0780  15.9304 13.50935298 12035
QIANFAN-221             
1 69850U 26155C   26273.18020747  .00000082  00000+0  77885-4 0  9994
2 69850  89.0111  52.4858 0030045 348.3671  11.6793 13.71187948 12184
QIANFAN-222             
1 69851U 26155D   26272.75246338 -.02005985  00000+0 -34175+1 0  9995
2 69851  89.0102  52.8238 0005846 289.6163  70.4356 13.48991631 11964
QIANFAN-223             
1 69852U 26155E   26272.85439106 -.01759165  00000+0 -30864+1 0  9990
2 69852  89.0110  52.8182 0025944 347.9252  12.1271 13.47104782 11972
QIANFAN-224             
1 69853U 26155F   26272.75564522 -.01757688  00000+0 -30842+1 0  9995
2 69853  89.0087  52.7700 0022171 345.7971  14.2551 13.47129400 11983
QIANFAN-225             
1 69854U 26155G   26272.76009642 -.01878076  00000+0 -32731+1 0  9998
2 69854  89.0088  52.8188 0016901 333.0407  26.9863 13.47896362 11966
QIANFAN-226             
1 69855U 26155H   26272.76506739 -.02031788  00000+0 -34825+1 0  9996
2 69855  89.0085  52.7979 0011729 329.4576  30.5889 13.48634261 11979
QIANFAN-227             
1 69856U 26155J   26273.14021608  .00000065  00000+0  81466-4 0  9994
2 69856  89.0103  52.7657 0034553 345.9390  14.0796 13.51039659 12026
QIANFAN-228             
1 69857U 26155K   26272.77325433 -.02029388  00000+0 -34835+1 0  9993
2 69857  89.0089  52.7849 0030046 338.1750  21.8118 13.48384288 11985
QIANFAN-229             
1 69858U 26155L   26272.48844719 -.01764940  00000+0 -31100+1 0  9996
2 69858  89.0106  52.8002 0003488 158.9349 201.1944 13.46968301 11959
QIANFAN-230             
1 69859U 26155M   26272.89566869 -.01762821  00000+0 -31044+1 0  9992
2 69859  89.0103  52.8014 0002685  32.0958 328.0354 13.47004285 11986
QIANFAN-231             
1 69860U 26155N   26272.79376510 -.01909740  00000+0 -32900+1 0  9990
2 69860  89.0101  52.7542 0038988 338.1451  21.8034 13.48470595 12003
QIANFAN-232             
1 69861U 26155P   26273.21654830  .00000062  00000+0  78367-4 0  9990
2 69861  89.0101  52.7199 0025242 341.7906  18.2338 13.50452960 12057
QIANFAN-233             
1 69862U 26155Q   26272.87096185 -.01768395  00000+0 -31062+1 0  9995
2 69862  89.0102  52.7472 0023033 337.7973  22.2177 13.47079869 12019
QIANFAN-234             
1 69863U 26155R   26273.20166232  .00000106  00000+0  13371-3 0  9997
2 69863  89.0096  52.6487 0033107 340.8015  19.1889 13.56217978 12090
QIANFAN-235             
1 69864U 26155S   26273.23956864  .00000098  00000+0  75819-4 0  9995
2 69864  89.0109  52.4060 0029622 344.5486  15.4777 13.84595311 12233
QIANFAN-236             
1 69865U 26155T   26272.87934485 -.01892278  00000+0 -32734+1 0  9997
2 69865  89.0105  52.7673 0031055 335.5675  24.4001 13.48273539 12006
QIANFAN-237             
1 69866U 26155U   26272.80923322 -.01759473  00000+0 -30940+1 0  9995
2 69866  89.0115  52.7394 0022577 333.9178  26.0832 13.46991279 12003
QIANFAN-238             
1 69867U 26155V   26272.81422476 -.02004521  00000+0 -34514+1 0  9990
2 69867  89.0105  52.7579 0014086 327.3821  32.6457 13.48274712 12000
