GLOBALSTAR M069         
1 31573U 07020C   26261.55921404 -.00000058  00000+0  31939-3 0  9996
2 31573  52.0067 347.8463 0001463 352.5028  20.5034 12.23475031890239
GLOBALSTAR M072         
1 31574U 07020D   26261.60189639 -.00000093  00000+0 -12699-3 0  9991
2 31574  51.9919 211.5495 0001327 109.8524  61.9018 11.91660009886117
GLOBALSTAR M066         
1 32265U 07048C   26260.13656595 -.00000108  00000+0 -11620-3 0  9996
2 32265  51.9582 153.9521 0004028 232.6505 274.3024 12.30390641871549
GLOBALSTAR M079         
1 37188U 10054A   26261.20058632 -.00000085  00000+0  10275-3 0  9991
2 37188  52.0034 185.5234 0000413  89.6615  76.3055 12.62267513734290
GLOBALSTAR M074         
1 37189U 10054B   26261.22675103 -.00000083  00000+0  11564-3 0  9992
2 37189  52.0009 184.6961 0000524  51.8765 112.0202 12.62263189734905
GLOBALSTAR M076         
1 37190U 10054C   26261.57152891 -.00000089  00000+0  80351-4 0  9993
2 37190  52.0021 183.8579 0000310  59.6529 111.7582 12.62263751734669
GLOBALSTAR M077         
1 37191U 10054D   26261.42860980 -.00000080  00000+0 -36609-4 0  9992
2 37191  51.9968 302.6377 0002594 352.4367  22.5148 11.67547893732037
GLOBALSTAR M075         
1 37192U 10054E   26261.66364036 -.00000088  00000+0  89127-4 0  9990
2 37192  51.9932 225.5782 0000502  67.6557 103.5067 12.62260544733745
GLOBALSTAR M073         
1 37193U 10054F   26260.39705153 -.00000090  00000+0  74838-4 0  9995
2 37193  52.0051 143.6063 0000521  86.3889  85.2549 12.62268109735578
GLOBALSTAR M083         
1 37739U 11033A   26261.04403418 -.00000086  00000+0  99615-4 0  9996
2 37739  51.9843  89.7384 0000618 104.5961  68.0643 12.62259395704676
GLOBALSTAR M088         
1 37740U 11033B   26261.53668955 -.00000096  00000+0  44340-4 0  9997
2 37740  52.0244 354.8901 0000555 102.5506 270.6247 12.62270227700280
GLOBALSTAR M091         
1 37741U 11033C   26261.47084161 -.00000095  00000+0  50844-4 0  9997
2 37741  52.0012 317.9222 0000528 116.3566 257.0811 12.62264860701068
GLOBALSTAR M085         
1 37742U 11033D   26261.73005100 -.00000103  00000+0  46621-5 0  9992
2 37742  52.0122 268.5062 0000425 110.7468  61.0373 12.62265292701605
GLOBALSTAR M081         
1 37743U 11033E   26260.23159050 -.00000093  00000+0  60821-4 0  9996
2 37743  51.9949 275.3978 0000229 103.8804 335.6650 12.62266311701568
GLOBALSTAR M089         
1 37744U 11033F   26261.39954080 -.00000081  00000+0  12679-3 0  9995
2 37744  51.9915 225.9806 0000492  30.0393 140.4573 12.62263692702554
GLOBALSTAR M084         
1 38040U 11080A   26261.25461565 -.00000115  00000+0 -63933-4 0  9992
2 38040  51.9994  93.9509 0000552  73.3281  98.3608 12.62264112680516
GLOBALSTAR M080         
1 38041U 11080B   26261.30565034 -.00000100  00000+0  20118-4 0  9996
2 38041  52.0046  95.5497 0001202  91.2513  80.3030 12.62268457680641
GLOBALSTAR M082         
1 38042U 11080C   26261.36457647 -.00000108  00000+0 -23872-4 0  9992
2 38042  52.0080  50.8757 0000919 110.2745 261.1974 12.62262806681364
GLOBALSTAR M092         
1 38043U 11080D   26261.13300964 -.00000102  00000+0  97297-5 0  9993
2 38043  52.0071 141.9860 0000739  74.2526  83.8737 12.62266022679781
GLOBALSTAR M090         
1 38044U 11080E   26261.39269837 -.00000114  00000+0 -56721-4 0  9995
2 38044  52.0131  44.7756 0000822 119.3437 259.0635 12.62268116681488
GLOBALSTAR M086         
1 38045U 11080F   26261.64934273 -.00000090  00000+0  78299-4 0  9993
2 38045  51.9907  43.7694 0000569 227.7772 146.0308 12.62289211681461
GLOBALSTAR M097         
1 39072U 13005A   26261.12475340 -.00000092  00000+0  62981-4 0  9994
2 39072  52.0063 320.4250 0000497 122.1772 237.9143 12.62271290628644
GLOBALSTAR M093         
1 39073U 13005B   26261.17742436 -.00000096  00000+0  45482-4 0  9994
2 39073  52.0115 313.6499 0000500 146.0819 214.0080 12.62267139628603
GLOBALSTAR M094         
1 39074U 13005C   26261.33571852 -.00000091  00000+0  70277-4 0  9990
2 39074  51.9941 227.1901 0000319  94.4916 265.5987 12.62264814630234
GLOBALSTAR M096         
1 39075U 13005D   26261.34902551 -.00000093  00000+0  58519-4 0  9993
2 39075  52.0064 276.0247 0000453 111.1241 248.9675 12.62264499629153
GLOBALSTAR M078         
1 39076U 13005E   26261.24337978 -.00000188  00000+0 -46936-3 0  9993
2 39076  51.9903   0.2296 0001487 108.6718 251.4310 12.62258448627760
GLOBALSTAR M095         
1 39077U 13005F   26260.55725474 -.00000098  00000+0  33446-4 0  9991
2 39077  52.0110   0.0518 0000969 122.5154 237.5807 12.62264463627536
GLOBALSTAR M087         
1 52888U 22064A   26261.36222521 -.00000097  00000+0  39704-4 0  9998
2 52888  51.9985 138.7881 0000741  94.2646 265.8305 12.62263114202909
