QIANFAN-1               
1 60379U 24140A   26269.42702704  .00000033  00000+0  31614-4 0  9991
2 60379  88.9663 269.4069 0019632 102.4129 257.9220 13.51026225106194
QIANFAN-2               
1 60380U 24140B   26269.45587265  .00000017  00000+0  73370-5 0  9997
2 60380  88.9650 269.2043 0014868  78.3232 281.9587 13.51020612106258
QIANFAN-3               
1 60381U 24140C   26269.46425326  .00000021  00000+0  13652-4 0  9999
2 60381  88.9642 269.3141 0016090  88.9508 271.3486 13.51023337106160
QIANFAN-4               
1 60382U 24140D   26269.43944644  .00000032  00000+0  30594-4 0  9992
2 60382  88.9667 269.2868 0015143  80.4862 279.8000 13.51021200106286
QIANFAN-5               
1 60383U 24140E   26269.48867330  .00000029  00000+0  25324-4 0  9995
2 60383  88.9642 269.3359 0017312  98.7573 261.5540 13.51031658106158
QIANFAN-6               
1 60384U 24140F   26269.43530692  .00000032  00000+0  30988-4 0  9995
2 60384  88.9669 269.1659 0015286  85.5761 274.7136 13.51024329106345
QIANFAN-7               
1 60385U 24140G   26269.43345478  .00000158  00000+0  57894-4 0  9996
2 60385  88.9724 259.8525 0015396 164.3547 195.8126 14.27895307111441
QIANFAN-8               
1 60386U 24140H   26269.44365630  .00000029  00000+0  25614-4 0  9992
2 60386  88.9670 269.4059 0018753  87.3059 273.0238 13.51026295106190
QIANFAN-9               
1 60387U 24140J   26269.49297198  .00000029  00000+0  25787-4 0  9992
2 60387  88.9668 269.4703 0018440  86.9889 273.3372 13.51022064106184
QIANFAN-10              
1 60388U 24140K   26269.42300913  .00000033  00000+0  31977-4 0  9999
2 60388  88.9680 268.8554 0016695  67.3614 292.9301 13.51022192106300
QIANFAN-11              
1 60389U 24140L   26269.46017248  .00000027  00000+0  22367-4 0  9996
2 60389  88.9604 269.2218 0016502  87.0445 273.2594 13.51023613105963
QIANFAN-12              
1 60390U 24140M   26269.48067829  .00000037  00000+0  38668-4 0  9992
2 60390  88.9647 269.3882 0015308  93.9656 266.3246 13.51023954106093
QIANFAN-13              
1 60391U 24140N   26269.45183530  .00000023  00000+0  17048-4 0  9992
2 60391  88.9907 269.6513 0015125  96.0117 264.2759 13.51024060106118
QIANFAN-14              
1 60392U 24140P   26269.47662632  .00000032  00000+0  30499-4 0  9995
2 60392  88.9638 269.3601 0018810  96.3977 263.9316 13.51026090106127
QIANFAN-15              
1 60393U 24140Q   26269.48470544  .00000040  00000+0  42708-4 0  9991
2 60393  88.9661 269.3843 0014585  84.4254 275.8560 13.51028573106113
QIANFAN-16              
1 60394U 24140R   26269.47235345  .00000027  00000+0  22624-4 0  9999
2 60394  88.9664 269.5136 0016726  99.6405 260.6637 13.51025436106021
QIANFAN-17              
1 60395U 24140S   26269.46839612  .00000028  00000+0  24425-4 0  9998
2 60395  88.9674 269.5915 0017138  94.1557 266.1553 13.51021847106989
QIANFAN-18              
1 60396U 24140T   26269.44782876  .00000026  00000+0  21515-4 0  9991
2 60396  88.9670 269.1087 0016412  79.1317 281.1680 13.51021174106377
QIANFAN-19              
1 61552U 24185A   26269.44371683  .00000344  00000+0  17178-3 0  9997
2 61552  88.9868  44.9833 0009019  99.6903 260.5303 14.14535486110332
QIANFAN-20              
1 61553U 24185B   26269.45296302  .00000462  00000+0  25826-3 0  9993
2 61553  88.9862  45.5898 0007083 133.4070 226.7705 14.09078274110001
QIANFAN-21              
1 61554U 24185C   26269.46636863  .00000475  00000+0  20460-3 0  9998
2 61554  88.9788  43.2916 0012136 138.1292 222.0830 14.22938798110883
QIANFAN-22              
1 61555U 24185D   26269.40790076  .00000131  00000+0  10180-3 0  9997
2 61555  88.9842  47.7353 0006476 177.6106 182.5097 13.86431934108792
QIANFAN-23              
1 61556U 24185E   26269.43421069  .00000270  00000+0  12849-3 0  9992
2 61556  88.9860  44.6603 0009541 106.3754 253.8484 14.16556309110479
QIANFAN-24              
1 61557U 24185F   26269.43528940  .00000487  00000+0  20501-3 0  9993
2 61557  88.9847  43.5969 0011687  83.1982 277.0539 14.24163135110960
QIANFAN-25              
1 61558U 24185G   26269.44901882  .00000439  00000+0  25840-3 0  9993
2 61558  88.9856  45.6394 0013627 153.5179 206.6702 14.06136391109931
QIANFAN-26              
1 61559U 24185H   26269.46545174  .00000155  00000+0  14202-3 0  9999
2 61559  88.9847  48.7001 0004912 202.7583 157.3366 13.77947252108293
QIANFAN-27              
1 61560U 24185J   26269.42985608  .00000470  00000+0  18482-3 0  9991
2 61560  88.9858  43.2318 0009269  72.3023 287.9183 14.27609663111207
QIANFAN-28              
1 61561U 24185K   26269.45907462  .00000626  00000+0  24428-3 0  9997
2 61561  88.9876  43.2435 0009144  70.3202 289.8979 14.28495521111242
QIANFAN-29              
1 61562U 24185L   26269.46208779  .00000143  00000+0  20294-3 0  9995
2 61562  88.9814  51.5726 0008196 303.9060  56.1311 13.51096472106643
QIANFAN-30              
1 61563U 24185M   26269.43233477  .00000135  00000+0  19363-3 0  9992
2 61563  88.9835  51.2115 0005817 287.7427  72.3089 13.50077836106889
QIANFAN-31              
1 61564U 24185N   26269.47881185  .00000145  00000+0  18364-3 0  9993
2 61564  88.9820  50.5522 0005261 266.3897  93.6657 13.58067366107215
QIANFAN-32              
1 61565U 24185P   26269.46568003  .00000115  00000+0  16052-3 0  9993
2 61565  88.9874  51.4260 0008301 324.8564  35.2038 13.50807623106880
QIANFAN-33              
1 61566U 24185Q   26269.41004127  .00000290  00000+0  19888-3 0  9995
2 61566  88.9844  46.7441 0009072 137.6730 222.5149 13.96757203109310
QIANFAN-34              
1 61567U 24185R   26269.40744694  .00000368  00000+0  23043-3 0  9999
2 61567  88.9825  45.9281 0007053 135.0770 225.0982 14.02526835109671
QIANFAN-35              
1 61568U 24185S   26269.44685563  .00000540  00000+0  21029-3 0  9997
2 61568  88.9857  43.1211 0008234  69.2408 290.9668 14.28364925111244
QIANFAN-36              
1 61569U 24185T   26269.45623160  .00000091  00000+0  11334-3 0  9993
2 61569  88.9811  51.0643 0004535 290.6989  69.3679 13.55648386106908
QIANFAN-37              
1 62238U 24232B   26269.50464144  .00000118  00000+0  16406-3 0  9996
2 62238  89.0164  12.4423 0001748  88.8975 271.2376 13.51031879138022
QIANFAN-38              
1 62239U 24232C   26269.52942473  .00000102  00000+0  13943-3 0  9991
2 62239  89.0170  12.3751 0016393  86.5849 273.7177 13.51030041138082
QIANFAN-39              
1 62240U 24232D   26269.50947405  .00000381  00000+0  15470-3 0  9997
2 62240  89.0145   4.5658 0015254 208.0535 151.9838 14.25566154142383
QIANFAN-40              
1 62241U 24232E   26269.48828316  .00000136  00000+0  19208-3 0  9995
2 62241  89.0198  12.0439 0015574  93.9019 266.3913 13.51030465138442
QIANFAN-41              
1 62242U 24232F   26269.49647791  .00000114  00000+0  15710-3 0  9993
2 62242  89.0168  12.3245 0015749  83.2933 277.0010 13.51031475138101
QIANFAN-42              
1 62243U 24232G   26269.48032733  .00000366  00000+0  15131-3 0  9993
2 62243  89.0144   4.6588 0013829 215.1805 144.8476 14.24652998142338
QIANFAN-43              
1 62244U 24232H   26269.49237321  .00000105  00000+0  14307-3 0  9990
2 62244  89.0173  12.4029 0017361  87.6779 272.6360 13.51030912106714
QIANFAN-44              
1 62245U 24232J   26269.48005194  .00000100  00000+0  13649-3 0  9994
2 62245  89.0171  12.2102 0015545  85.3754 274.9172 13.51031168138189
QIANFAN-45              
1 62246U 24232K   26269.52122078  .00000097  00000+0  13124-3 0  9994
2 62246  89.0175  12.3629 0016204  84.8169 275.4831 13.51029881138116
QIANFAN-46              
1 62247U 24232L   26269.47177796  .00000113  00000+0  15613-3 0  9990
2 62247  89.0171  12.4250 0016325  89.8085 270.4937 13.51030982138060
QIANFAN-47              
1 62248U 24232M   26269.47594028  .00000107  00000+0  14626-3 0  9998
2 62248  89.0167  12.3460 0016735  88.9709 271.3359 13.51030243138097
QIANFAN-48              
1 62249U 24232N   26269.51309370  .00000116  00000+0  16127-3 0  9996
2 62249  89.0170  12.3554 0019017  90.9770 269.3560 13.51024647138107
QIANFAN-49              
1 62250U 24232P   26269.50062013  .00000116  00000+0  16134-3 0  9995
2 62250  89.0170  12.3668 0016036  86.6025 273.6961 13.51031708106696
QIANFAN-50              
1 62251U 24232Q   26269.52527331  .00000105  00000+0  14289-3 0  9994
2 62251  89.0175  12.3882 0017709  87.4730 272.8449 13.51031233106729
QIANFAN-51              
1 62252U 24232R   26269.50885926  .00000111  00000+0  15246-3 0  9991
2 62252  89.0169  12.3660 0015222  91.2433 269.0462 13.51030181106711
QIANFAN-52              
1 62253U 24232S   26269.38950229  .00000111  00000+0  15289-3 0  9994
2 62253  89.0165  12.2402 0017164  84.1800 276.1308 13.51032167106788
QIANFAN-53              
1 62254U 24232T   26269.36901888  .00000105  00000+0  14343-3 0  9993
2 62254  89.0172  12.3686 0016062  85.4345 274.8641 13.51028921106740
QIANFAN-54              
1 62255U 24232U   26269.48415328  .00000104  00000+0  14298-3 0  9994
2 62255  89.0164  12.0102 0004076 116.0419 244.1152 13.51030768138268
QIANFAN-55              
1 62785U 25016A   26269.51028398  .00000019  00000+0  10404-4 0  9995
2 62785  88.9678  73.3302 0015905 233.1057 126.8638 13.51025261 86043
QIANFAN-56              
1 62786U 25016B   26269.45249443  .00000053  00000+0  63023-4 0  9998
2 62786  88.9652  73.0961 0014468 235.8226 124.1554 13.51028629 86087
QIANFAN-57              
1 62787U 25016C   26269.41151264  .00000046  00000+0  51953-4 0  9999
2 62787  88.9683  73.3434 0002280  78.6185 281.5222 13.51028258 86040
QIANFAN-58              
1 62788U 25016D   26269.45679316  .00000032  00000+0  30424-4 0  9992
2 62788  88.9653  73.0829 0012526 226.7362 133.2745 13.51027738 86090
QIANFAN-59              
1 62789U 25016E   26269.48132196  .00000037  00000+0  38311-4 0  9994
2 62789  88.9676  73.2217 0012811 231.0091 128.9920 13.51025052 86097
QIANFAN-60              
1 62790U 25016F   26269.44016400  .00000037  00000+0  38913-4 0  9999
2 62790  88.9658  73.1428 0014424 227.7244 132.2685 13.51028585 86074
QIANFAN-61              
1 62791U 25016G   26269.47312757  .00000028  00000+0  24680-4 0  9993
2 62791  88.9723  73.4968 0013398 226.7773 133.2260 13.51028054 86098
QIANFAN-62              
1 62792U 25016H   26269.47736348  .00000028  00000+0  24652-4 0  9999
2 62792  88.9671  73.2104 0014734 227.4248 132.5660 13.51027453 86088
QIANFAN-63              
1 62793U 25016J   26269.50200047  .00000031  00000+0  29639-4 0  9990
2 62793  88.9678  73.1788 0014690 233.2507 126.7296 13.51023454 86129
QIANFAN-64              
1 62794U 25016K   26269.46903818  .00000029  00000+0  25966-4 0  9998
2 62794  88.9665  73.1178 0012768 224.8901 135.1218 13.51028046 86116
QIANFAN-65              
1 62795U 25016L   26269.46484031  .00000038  00000+0  40455-4 0  9990
2 62795  88.9662  73.1339 0012593 226.7287 133.2814 13.51024216 86090
QIANFAN-66              
1 62796U 25016M   26269.49367942  .00000034  00000+0  33710-4 0  9997
2 62796  88.9681  73.1576 0013775 222.2936 137.7154 13.51020278 86146
QIANFAN-67              
1 62797U 25016N   26269.49775617  .00000041  00000+0  45111-4 0  9996
2 62797  88.9671  73.1545 0013604 229.8648 130.1312 13.51020505 86119
QIANFAN-68              
1 62798U 25016P   26269.48962848  .00000038  00000+0  39715-4 0  9999
2 62798  88.9674  73.2107 0013720 227.5119 132.4873 13.51022434 86092
QIANFAN-69              
1 62799U 25016Q   26269.50597230  .00000024  00000+0  18209-4 0  9992
2 62799  88.9654  73.0173 0014423 229.2102 130.7799 13.51024727 86134
QIANFAN-70              
1 62800U 25016R   26269.44850672  .00000050  00000+0  59418-4 0  9996
2 62800  88.9674  73.2215 0014237 218.8469 141.1660 13.51024525 86084
QIANFAN-71              
1 62801U 25016S   26269.44432455  .00000039  00000+0  41581-4 0  9991
2 62801  88.9668  73.1842 0014264 233.3241 126.6600 13.51027352 86086
QIANFAN-72              
1 62802U 25016T   26269.46088352  .00000039  00000+0  42619-4 0  9990
2 62802  88.9658  73.1678 0017404 241.8133 118.1261 13.51029156 86078
QIANFAN-73              
1 63159U 25046A   26269.48783566  .00000032  00000+0  30809-4 0  9991
2 63159  88.9634 290.1389 0015406  19.8291 340.3456 13.51025865 86265
QIANFAN-74              
1 63160U 25046B   26269.47145950  .00000025  00000+0  20439-4 0  9991
2 63160  88.9635 290.0307 0001907  98.8150 261.3217 13.51018726 86321
QIANFAN-75              
1 63161U 25046C   26269.45907175  .00000107  00000+0  14701-3 0  9990
2 63161  88.9636 290.2696 0016648  22.8479 337.3410 13.51032129 86192
QIANFAN-76              
1 63162U 25046D   26269.45508163 -.00000103  00000+0 -17868-3 0  9990
2 63162  88.9637 290.2497 0014151  24.3034 335.8782 13.51019416 86205
QIANFAN-77              
1 63163U 25046E   26269.43316414  .00000101  00000+0  63434-4 0  9992
2 63163  88.9642 285.8866 0012556 260.8665  99.1092 13.96248285 88591
QIANFAN-78              
1 63164U 25046F   26269.49673508  .00000083  00000+0  10929-3 0  9998
2 63164  88.9635 290.1070 0015612  25.5016 334.6902 13.51013173 86280
QIANFAN-79              
1 63165U 25046G   26269.45083735  .00000031  00000+0  29563-4 0  9990
2 63165  88.9639 290.2293 0015290  24.4617 335.7256 13.51021343 86226
QIANFAN-80              
1 63166U 25046H   26269.39319616  .00000082  00000+0  10876-3 0  9996
2 63166  88.9636 289.9342 0014376  29.4745 330.7214 13.51030779 86373
QIANFAN-81              
1 63167U 25046J   26269.44668992  .00000099  00000+0  13463-3 0  9990
2 63167  88.9635 289.9959 0015188  18.6505 341.5200 13.51022075 86334
QIANFAN-82              
1 63168U 25046K   26269.47969028  .00000084  00000+0  11068-3 0  9991
2 63168  88.9636 290.0368 0013317  26.2147 333.9676 13.51021680 86324
QIANFAN-83              
1 63169U 25046L   26269.45705125  .00000064  00000+0  66921-4 0  9993
2 63169  88.9638 289.2482 0013527 355.0704   5.0318 13.62065482 86767
QIANFAN-84              
1 63170U 25046M   26269.43445162 -.00000035  00000+0 -73314-4 0  9999
2 63170  88.9636 290.1741 0016177  21.2704 338.9116 13.51016083 86240
QIANFAN-85              
1 63171U 25046N   26269.43026317  .00000103  00000+0  14022-3 0  9991
2 63171  88.9635 290.0441 0013840  24.8455 335.3359 13.51021988 86310
QIANFAN-86              
1 63172U 25046P   26269.43844402  .00000091  00000+0  12211-3 0  9999
2 63172  88.9637 289.9121 0011878  30.2335 329.9499 13.51027029 86396
QIANFAN-87              
1 63173U 25046Q   26269.48370220  .00000028  00000+0  23900-4 0  9995
2 63173  88.9634 290.0084 0012215  24.7268 335.4466 13.51020566 86333
QIANFAN-88              
1 63174U 25046R   26269.50018188  .00000105  00000+0  14318-3 0  9999
2 63174  88.9636 289.9683 0012927  32.9589 327.2365 13.51020498 86369
QIANFAN-89              
1 63175U 25046S   26269.46314916  .00000100  00000+0  13537-3 0  9990
2 63175  88.9636 290.1610 0017087  21.2516 338.9341 13.51021193 86251
QIANFAN-90              
1 63176U 25046T   26269.49202289  .00000041  00000+0  44049-4 0  9990
2 63176  88.9637 290.1314 0013981  21.2785 338.8945 13.51020123 86274
QIANFAN-91              
1 66033U 25233A   26269.37626336  .00000085  00000+0  11324-3 0  9990
2 66033  89.0065  32.9640 0001673  96.8192 263.3149 13.51030447 46842
QIANFAN-92              
1 66034U 25233B   26269.38491321  .00000084  00000+0  11121-3 0  9990
2 66034  89.0049  32.9183 0002237 101.5214 258.6188 13.51027814 46847
QIANFAN-93              
1 66035U 25233C   26269.39299345  .00000098  00000+0  13262-3 0  9997
2 66035  89.0076  32.9967 0001726  95.4690 264.6658 13.51039683 46845
QIANFAN-94              
1 66036U 25233D   26269.38044514  .00000086  00000+0  11412-3 0  9995
2 66036  89.0072  32.8978 0001761 102.7800 257.3548 13.51028878 46893
QIANFAN-95              
1 66037U 25233E   26269.38869242  .00000073  00000+0  93724-4 0  9992
2 66037  89.0070  32.4383 0001577 100.5764 259.5564 13.51028724 47149
QIANFAN-96              
1 66038U 25233F   26269.33924860  .00000081  00000+0  10684-3 0  9998
2 66038  89.0068  32.9838 0001625  95.6345 264.4992 13.51029944 46830
QIANFAN-97              
1 66039U 25233G   26269.39680777  .00000066  00000+0  83204-4 0  9993
2 66039  89.0070  32.9654 0001736  96.6162 263.5186 13.51039857 46841
QIANFAN-98              
1 66040U 25233H   26269.40511497  .00000070  00000+0  89821-4 0  9995
2 66040  89.0060  32.6846 0001766 116.2842 243.8491 13.51030125 46994
QIANFAN-99              
1 66041U 25233J   26269.40911804  .00000086  00000+0  11498-3 0  9993
2 66041  89.0071  32.9689 0001578 112.9108 247.2209 13.51036783 46850
QIANFAN-100             
1 66042U 25233K   26269.40098193  .00000075  00000+0  97603-4 0  9992
2 66042  89.0083  32.9080 0001613  94.1506 265.9829 13.51055748 46905
QIANFAN-101             
1 66043U 25233L   26269.42160161  .00000270  00000+0  10502-3 0  9999
2 66043  89.0072  28.9577 0015799 164.2823 195.8864 14.26864618 49068
QIANFAN-102             
1 66044U 25233M   26269.42156231  .00000078  00000+0  10157-3 0  9995
2 66044  89.0069  32.8750 0001724 104.1882 255.9460 13.51029539 46905
QIANFAN-103             
1 66045U 25233N   26269.42571346  .00000072  00000+0  92675-4 0  9994
2 66045  89.0072  32.9725 0001717  97.0108 263.1239 13.51029575 46855
QIANFAN-104             
1 66046U 25233P   26269.35568707  .00000067  00000+0  84677-4 0  9991
2 66046  89.0076  32.8863 0001817 104.7271 255.4082 13.51027489 46896
QIANFAN-105             
1 66047U 25233Q   26269.36402639  .00000073  00000+0  94310-4 0  9996
2 66047  89.0090  32.7420 0001789 101.0628 259.0724 13.51030763 47001
QIANFAN-106             
1 66048U 25233R   26269.35979267  .00000067  00000+0  85546-4 0  9996
2 66048  89.0058  32.9235 0001735 113.8368 246.2965 13.51031107 46844
QIANFAN-107             
1 66049U 25233S   26269.36804101  .00000078  00000+0  10296-3 0  9993
2 66049  89.0074  32.9712 0001749  97.9085 262.2265 13.51030370 46859
QIANFAN-108             
1 66050U 25233T   26269.37221457  .00000085  00000+0  11254-3 0  9996
2 66050  89.0067  32.9514 0001764 112.2718 247.8621 13.51030120 46852
QIANFAN-109             
1 68636U 26075A   26269.46018490  .00000070  00000+0  89616-4 0  9996
2 68636  88.9853 310.6758 0001866  83.7187 276.4177 13.51021496 23468
QIANFAN-110             
1 68637U 26075B   26269.46835103  .00000076  00000+0  98859-4 0  9990
2 68637  88.9853 310.6965 0002204  95.7575 264.3827 13.51022413 23468
QIANFAN-111             
1 68638U 26075C   26269.45626199  .00000074  00000+0  96297-4 0  9995
2 68638  88.9852 310.6565 0002173  95.3027 264.8372 13.51024920 23484
QIANFAN-112             
1 68639U 26075D   26269.49319437  .00000061  00000+0  76383-4 0  9994
2 68639  88.9851 310.6605 0002094  82.4979 277.6410 13.51024240 23484
QIANFAN-113             
1 68640U 26075E   26269.46426097  .00000074  00000+0  96503-4 0  9994
2 68640  88.9857 310.6628 0002210  92.3671 267.7734 13.51020930 23487
QIANFAN-114             
1 68641U 26075F   26269.47246162  .00000102  00000+0  13928-3 0  9990
2 68641  88.9852 310.6762 0002193  95.6498 264.4903 13.51019547 23478
QIANFAN-115             
1 68642U 26075G   26269.42728993  .00000060  00000+0  74104-4 0  9990
2 68642  88.9852 310.6882 0002009  94.0315 266.1066 13.51025142 23465
QIANFAN-116             
1 68643U 26075H   26269.48897838  .00000069  00000+0  88279-4 0  9999
2 68643  88.9845 310.6348 0002179  85.5025 274.6375 13.51025735 23483
QIANFAN-117             
1 68644U 26075J   26269.40267763  .00000079  00000+0  10347-3 0  9991
2 68644  88.9850 310.6641 0002026  89.3213 270.8170 13.51023555 23476
QIANFAN-118             
1 68645U 26075K   26269.28738361  .00000060  00000+0  74516-4 0  9994
2 68645  88.9855 310.6887 0002289  96.6472 263.4940 13.51025218 23452
QIANFAN-119             
1 68646U 26075L   26269.26263590  .00000074  00000+0  96709-4 0  9993
2 68646  88.9855 310.6870 0001837  87.9444 272.1917 13.51021067 23454
QIANFAN-120             
1 68647U 26075M   26269.27502202  .00000057  00000+0  69349-4 0  9992
2 68647  88.9857 310.6723 0001765  88.0526 272.0828 13.51020871 23460
QIANFAN-121             
1 68648U 26075N   26269.29981551  .00000076  00000+0  99580-4 0  9994
2 68648  88.9854 310.6725 0002208  96.7396 263.4006 13.51024377 23461
QIANFAN-122             
1 68649U 26075P   26269.29151541  .00000078  00000+0  10186-3 0  9999
2 68649  88.9853 310.6703 0001994  87.2683 272.8697 13.51027954 23455
QIANFAN-123             
1 68650U 26075Q   26269.25853095  .00000073  00000+0  94767-4 0  9993
2 68650  88.9850 310.6604 0001883  81.2345 278.9020 13.51020842 23434
QIANFAN-124             
1 68651U 26075R   26269.28331322  .00000062  00000+0  77784-4 0  9999
2 68651  88.9853 310.6695 0001984  85.3088 274.8290 13.51027417 23461
QIANFAN-125             
1 68652U 26075S   26269.22163888  .00000075  00000+0  97623-4 0  9992
2 68652  88.9852 310.6778 0002225  96.2047 263.9358 13.51024486 23454
QIANFAN-126             
1 68653U 26075T   26269.30376872  .00000079  00000+0  10425-3 0  9999
2 68653  88.9856 310.6391 0001871  82.0360 278.1004 13.51020091 23484
QIANFAN-127             
1 69073U 26104A   26269.53137194  .00000096  00000+0  13078-3 0  9992
2 69073  88.9913 331.1395 0002529  99.1611 260.9826 13.51028994 18841
QIANFAN-128             
1 69074U 26104B   26269.46543897  .00000100  00000+0  13635-3 0  9991
2 69074  88.9891 331.1686 0002385 110.3585 249.7823 13.51024515 18810
QIANFAN-129             
1 69075U 26104C   26269.49005781  .00000093  00000+0  12520-3 0  9993
2 69075  88.9894 331.1006 0002397 105.5847 254.5569 13.51024502 18851
QIANFAN-130             
1 69076U 26104D   26269.52708100  .00000094  00000+0  12760-3 0  9990
2 69076  88.9896 331.1628 0002435  94.0256 266.1174 13.51022621 18821
QIANFAN-131             
1 69077U 26104E   26269.47374927  .00000092  00000+0  12430-3 0  9993
2 69077  88.9889 331.1283 0002138 106.5033 253.6354 13.51026702 18839
QIANFAN-132             
1 69078U 26104F   26269.46126687  .00000102  00000+0  13981-3 0  9995
2 69078  88.9892 331.1864 0002355  97.4224 262.7195 13.51022906 18803
QIANFAN-133             
1 69079U 26104G   26269.46956105  .00000099  00000+0  13470-3 0  9990
2 69079  88.9895 331.1359 0002152 112.4642 247.6737 13.51031764 18821
QIANFAN-134             
1 69080U 26104H   26269.49834568  .00000097  00000+0  13179-3 0  9997
2 69080  88.9899 331.1597 0002326 110.2048 249.9353 13.51030025 18828
QIANFAN-135             
1 69081U 26104J   26269.47772281  .00000091  00000+0  12226-3 0  9995
2 69081  88.9893 331.1521 0002557 108.4902 251.6527 13.51023205 18829
QIANFAN-136             
1 69082U 26104K   26269.48591345  .00000087  00000+0  11653-3 0  9995
2 69082  88.9895 331.1544 0002217 110.9449 249.1940 13.51042992 18829
QIANFAN-137             
1 69083U 26104L   26269.48191101  .00000089  00000+0  11887-3 0  9993
2 69083  88.9904 331.0321 0002239  98.7659 261.3746 13.51022857 18898
QIANFAN-138             
1 69084U 26104M   26269.43246030  .00000104  00000+0  14169-3 0  9995
2 69084  88.9889 331.1593 0002570 102.7641 257.3797 13.51022662 18815
QIANFAN-139             
1 69085U 26104N   26269.49431394  .00000089  00000+0  11972-3 0  9992
2 69085  88.9891 331.1349 0002458  97.6459 262.4971 13.51031331 18838
QIANFAN-140             
1 69086U 26104P   26269.50241682  .00000108  00000+0  14831-3 0  9993
2 69086  88.9891 331.1377 0002623 107.0485 253.0953 13.51023800 18837
QIANFAN-141             
1 69087U 26104Q   26269.51072462  .00000101  00000+0  13715-3 0  9996
2 69087  88.9888 331.1009 0002453 109.4764 250.6652 13.51021591 18859
QIANFAN-142             
1 69088U 26104R   26269.51886603  .00000084  00000+0  11132-3 0  9998
2 69088  88.9887 331.0993 0002535 103.6072 256.5362 13.51020727 18852
QIANFAN-143             
1 69089U 26104S   26269.51482843  .00000093  00000+0  12587-3 0  9992
2 69089  88.9898 331.1070 0002072 106.4942 253.6437 13.51028243 18857
QIANFAN-144             
1 69090U 26104T   26269.37485334  .00000080  00000+0  10591-3 0  9995
2 69090  88.9896 331.1394 0002537 100.0352 260.1085 13.51021568 18829
QIANFAN-145             
1 69104U 26108A   26269.45319639  .00000115  00000+0  15975-3 0  9998
2 69104  89.0200  11.9443 0001656 109.1453 250.9877 13.51022992 18117
QIANFAN-146             
1 69105U 26108B   26269.03989928 -.01759806  00000+0 -30975+1 0  9992
2 69105  89.0198  11.8221 0003736 312.5302  47.5531 13.47027386 18159
QIANFAN-147             
1 69106U 26108C   26269.46161021  .00000123  00000+0  17263-3 0  9992
2 69106  89.0202  11.9480 0002086 103.0497 257.0887 13.51026432 18102
QIANFAN-148             
1 69107U 26108D   26269.44920196  .00000120  00000+0  16679-3 0  9994
2 69107  89.0195  11.9388 0002096 109.5494 250.5884 13.51026066 18108
QIANFAN-149             
1 69108U 26108E   26269.53142966  .00000117  00000+0  16323-3 0  9998
2 69108  89.0195  11.9519 0002359 106.2821 253.8589 13.51025479 18111
QIANFAN-150             
1 69109U 26108F   26269.53962608  .00000121  00000+0  16901-3 0  9999
2 69109  89.0201  11.9047 0002357 104.9598 255.1814 13.51025914 18132
QIANFAN-151             
1 69110U 26108G   26269.49452354  .00000118  00000+0  16482-3 0  9998
2 69110  89.0200  11.9327 0001845 106.2854 253.8500 13.51029136 18110
QIANFAN-152             
1 69111U 26108H   26269.47378299  .00000120  00000+0  16672-3 0  9996
2 69111  89.0196  11.9264 0002140  96.1682 263.9713 13.51021811 18121
QIANFAN-153             
1 69112U 26108J   26269.46967292 -.00000030  00000+0 -64217-4 0  9994
2 69112  89.0188  11.9028 0002151 101.9229 258.2164 13.51022671 18127
QIANFAN-154             
1 69113U 26108K   26269.47802023  .00000113  00000+0  15715-3 0  9994
2 69113  89.0203  11.9516 0002183 104.9273 255.2120 13.51028290 18116
QIANFAN-155             
1 69114U 26108L   26269.48203587  .00000105  00000+0  14447-3 0  9998
2 69114  89.0201  11.9156 0002298 103.3587 256.7821 13.51025094 18127
QIANFAN-156             
1 69115U 26108M   26269.05403872 -.02106892  00000+0 -34529+1 0  9995
2 69115  89.0218  11.9764 0039728 338.9931  20.9583 13.48021052 18085
QIANFAN-157             
1 69116U 26108N   26269.41632242  .00000119  00000+0  16528-3 0  9994
2 69116  89.0196  11.8465 0002194 110.3647 249.7740 13.51029866 18161
QIANFAN-158             
1 69117U 26108P   26269.06049296 -.01762992  00000+0 -30965+1 0  9992
2 69117  89.0195  11.9229 0032117 189.4461 170.6088 13.46973730 18090
QIANFAN-159             
1 69118U 26108Q   26269.49849454  .00000129  00000+0  18063-3 0  9996
2 69118  89.0190  11.8855 0001919 105.8107 254.3255 13.51025168 18146
QIANFAN-160             
1 69119U 26108R   26269.44102514  .00000122  00000+0  17026-3 0  9992
2 69119  89.0205  11.9296 0002417 102.6879 257.4543 13.51025306 18125
QIANFAN-161             
1 69120U 26108S   26269.51905036  .00000109  00000+0  15020-3 0  9999
2 69120  89.0212  11.8391 0001897 107.0692 253.0667 13.51023619 18183
QIANFAN-162             
1 69121U 26108T   26269.43678140  .00000122  00000+0  17042-3 0  9995
2 69121  89.0201  11.8718 0002088  98.7263 261.4125 13.51024502 18148
QIANFAN-163             
1 69325U 26121A   26269.47549014  .00000020  00000+0  12215-4 0  9992
2 69325  89.0091 290.4279 0002705 114.2081 245.9353 13.51022114 15847
QIANFAN-164             
1 69326U 26121B   26269.44258248  .00000053  00000+0  62881-4 0  9996
2 69326  89.0089 290.4214 0002220 108.8346 251.3046 13.51022074 15844
QIANFAN-165             
1 69382U 26124A   26269.45226588  .00000126  00000+0  17651-3 0  9999
2 69382  89.0068 351.4255 0002151 120.2644 239.8720 13.51023527 15718
QIANFAN-166             
1 69383U 26124B   26269.53047255  .00000126  00000+0  17680-3 0  9993
2 69383  89.0087 351.4298 0001857 106.7207 253.4148 13.51024197 15724
QIANFAN-167             
1 69384U 26124C   26269.46036159  .00000120  00000+0  16659-3 0  9996
2 69384  89.0060 351.4406 0002257 105.5198 254.6202 13.51033125 15701
QIANFAN-168             
1 69385U 26124D   26269.46447664  .00000115  00000+0  15921-3 0  9999
2 69385  89.0057 351.4199 0001742 112.3579 247.7757 13.51021692 15719
QIANFAN-169             
1 69386U 26124E   26269.46871870  .00000108  00000+0  14933-3 0  9994
2 69386  89.0056 351.4192 0001832 102.9202 257.2153 13.51024903 15714
QIANFAN-170             
1 69387U 26124F   26269.47277313  .00000123  00000+0  17146-3 0  9994
2 69387  89.0073 351.3923 0001760 101.6929 258.4420 13.51027394 15736
QIANFAN-171             
1 69388U 26124G   26269.48106043  .00000123  00000+0  17257-3 0  9990
2 69388  89.0088 351.4049 0002132 103.1826 256.9564 13.51030367 15736
QIANFAN-172             
1 69389U 26124H   26269.47686105  .00000125  00000+0  17500-3 0  9995
2 69389  89.0071 351.3940 0002022 118.0145 242.1211 13.51030935 15732
QIANFAN-173             
1 69390U 26124J   26269.48501492  .00000133  00000+0  18729-3 0  9996
2 69390  89.0060 351.3890 0001671 108.5042 251.6291 13.51023946 15732
QIANFAN-174             
1 69391U 26124K   26269.49737119  .00000121  00000+0  16892-3 0  9991
2 69391  89.0040 351.3439 0002300 107.1551 252.9852 13.51031891 15746
QIANFAN-175             
1 69392U 26124L   26269.50166120  .00000110  00000+0  15224-3 0  9998
2 69392  89.0092 351.3919 0001831 105.2759 254.8595 13.51021844 15746
QIANFAN-176             
1 69393U 26124M   26269.50575240  .00000118  00000+0  16395-3 0  9994
2 69393  89.0054 351.3688 0001847 105.3557 254.7799 13.51022610 15738
QIANFAN-177             
1 69394U 26124N   26269.51392025  .00000130  00000+0  18297-3 0  9991
2 69394  89.0064 351.3572 0002215 108.3934 251.7458 13.51031692 15755
QIANFAN-178             
1 69395U 26124P   26269.50976590  .00000120  00000+0  16647-3 0  9992
2 69395  89.0010 351.3099 0001851 104.2730 255.8627 13.51027577 15766
QIANFAN-179             
1 69396U 26124Q   26269.51804350  .00000123  00000+0  17118-3 0  9995
2 69396  89.0042 351.3292 0001830 104.2146 255.9208 13.51031212 15762
QIANFAN-180             
1 69397U 26124R   26269.52220573  .00000120  00000+0  16664-3 0  9998
2 69397  89.0048 351.3502 0001764 100.4309 259.7041 13.51023443 15751
QIANFAN-181             
1 69398U 26124S   26269.48926676  .00000130  00000+0  18236-3 0  9999
2 69398  89.0071 351.4485 0002193 104.7165 255.4229 13.51025332 15708
QIANFAN-182             
1 69399U 26124T   26269.49329147  .00000125  00000+0  17437-3 0  9997
2 69399  89.0045 351.4168 0001871 106.8179 253.3178 13.51029873 15702
QIANFAN-183             
1 69401U 26125A   26269.45385994  .00000022  00000+0  14917-4 0  9997
2 69401  88.9831 269.6922 0002181 100.1370 260.0027 13.51027778 15610
QIANFAN-184             
1 69402U 26125B   26269.46209897  .00000024  00000+0  18805-4 0  9998
2 69402  88.9882 269.7219 0002082  96.9744 263.1644 13.51029101 15615
QIANFAN-185             
1 69403U 26125C   26269.48685465  .00000031  00000+0  30039-4 0  9991
2 69403  88.9896 269.6603 0002039  99.8008 260.3374 13.51028821 15655
QIANFAN-186             
1 69404U 26125D   26269.45808558  .00000010  00000+0 -30157-5 0  9999
2 69404  88.9884 269.7225 0002102  95.5857 264.5534 13.51028259 15615
QIANFAN-187             
1 69405U 26125E   26269.46632035  .00000025  00000+0  20461-4 0  9997
2 69405  88.9884 269.7044 0002282  97.4065 262.7346 13.51028906 15627
QIANFAN-188             
1 69406U 26125F   26269.47435676  .00000035  00000+0  35596-4 0  9997
2 69406  88.9882 269.7031 0002222 100.8310 259.3092 13.51029703 15624
QIANFAN-189             
1 69407U 26125G   26269.48258253  .00000025  00000+0  19801-4 0  9993
2 69407  88.9865 269.6958 0002328 104.9473 255.1936 13.51019246 15616
QIANFAN-190             
1 69408U 26125H   26269.47023216  .00000030  00000+0  27160-4 0  9995
2 69408  88.9866 269.6950 0002013  96.8902 263.2479 13.51019157 15621
QIANFAN-191             
1 69409U 26125J   26269.49491660  .00000020  00000+0  12846-4 0  9994
2 69409  88.9880 269.7055 0002182 100.9346 259.2050 13.51033186 15629
QIANFAN-192             
1 69410U 26125K   26269.47847193  .00000038  00000+0  40147-4 0  9994
2 69410  88.9886 269.7081 0002335 102.8129 257.3284 13.51019847 15622
QIANFAN-193             
1 69411U 26125L   26269.42919713  .00000025  00000+0  19835-4 0  9994
2 69411  88.9865 269.6880 0002101 102.6916 257.4470 13.51027695 15627
QIANFAN-194             
1 69412U 26125M   26269.42507580  .00000025  00000+0  19386-4 0  9991
2 69412  88.9897 269.7052 0002209 100.3894 259.7506 13.51026330 15613
QIANFAN-195             
1 69413U 26125N   26269.43340017  .00000124  00000+0  17284-3 0  9997
2 69413  88.9899 269.6893 0001941  90.0274 270.1100 13.51028193 15635
QIANFAN-196             
1 69414U 26125P   26269.44141470  .00000033  00000+0  32111-4 0  9997
2 69414  88.9904 269.6928 0001927  94.4804 265.6567 13.51035452 15635
QIANFAN-197             
1 69415U 26125Q   26269.44981834  .00000024  00000+0  18924-4 0  9990
2 69415  88.9878 269.6617 0002152  98.9037 261.2358 13.51023992 15635
QIANFAN-198             
1 69416U 26125R   26269.43740676  .00000039  00000+0  41190-4 0  9994
2 69416  88.9872 269.6752 0002219 101.1017 259.0384 13.51028441 15637
QIANFAN-199             
1 69417U 26125S   26269.44569726  .00000033  00000+0  32624-4 0  9997
2 69417  88.9876 269.6248 0002371  97.7129 262.4291 13.51026041 15667
QIANFAN-200             
1 69418U 26125T   26269.49089939  .00000028  00000+0  24535-4 0  9992
2 69418  88.9883 269.7062 0002260 103.2570 256.8834 13.51026530 15620
QIANFAN-201             
1 69800U 26153A   26268.95612102 -.01798745  00000+0 -14855+1 0  9995
2 69800  88.9972 350.8632 0005545   6.1782 353.9461 13.93301771 11815
QIANFAN-202             
1 69801U 26153B   26268.93300816 -.01815452  00000+0 -13597+1 0  9997
2 69801  88.9973 350.8225 0010751 188.5647 171.5350 13.98911011 11826
QIANFAN-203             
1 69802U 26153C   26268.92290377 -.01804285  00000+0 -13153+1 0  9997
2 69802  88.9972 350.8587 0006063 257.3093 102.7409 14.00435235 11811
QIANFAN-204             
1 69803U 26153D   26268.96838294 -.01832131  00000+0 -14147+1 0  9993
2 69803  88.9971 350.8481 0003991 219.3397 140.7491 13.97242322 11828
QIANFAN-205             
1 69804U 26153E   26268.93122974 -.01487217  00000+0 -10346+1 0  9990
2 69804  88.9978 350.8753 0021237  22.1737 338.0357 14.02206310 11804
QIANFAN-206             
1 69805U 26153F   26268.92506226 -.01806269  00000+0 -13645+1 0  9993
2 69805  88.9972 350.8218 0005074  99.3801 260.7950 13.98421484 11832
QIANFAN-207             
1 69806U 26153G   26268.93435329 -.01826580  00000+0 -14497+1 0  9994
2 69806  88.9974 350.8599 0017054 200.6196 159.4294 13.95593027 11815
QIANFAN-208             
1 69807U 26153H   26268.92352459 -.01809046  00000+0 -14312+1 0  9990
2 69807  88.9967 350.8582 0009310  57.5643 302.6432 13.95780433 11828
QIANFAN-209             
1 69808U 26153J   26268.89452336 -.01810274  00000+0 -14598+1 0  9993
2 69808  88.9975 350.8738 0005721 350.0284  10.0778 13.94701211 11802
QIANFAN-210             
1 69809U 26153K   26269.07807658 -.01806720  00000+0 -14629+1 0  9992
2 69809  88.9971 350.8453 0008815 352.5571   7.5473 13.94448389 11836
QIANFAN-211             
1 69810U 26153L   26269.44600406  .00000324  00000+0  16162-3 0  9997
2 69810  88.9977 350.7515 0006010 322.6578  37.4191 14.14544439 11916
QIANFAN-212             
1 69811U 26153M   26268.89866257 -.02039774  00000+0 -14379+1 0  9994
2 69811  88.9969 350.8359 0010817 298.9127  61.0967 14.02136053 11820
QIANFAN-213             
1 69812U 26153N   26268.93372291 -.01828962  00000+0 -14101+1 0  9997
2 69812  88.9972 350.8411 0005099  75.7307 284.4436 13.97316530 11826
QIANFAN-214             
1 69813U 26153P   26268.94722025 -.01783336  00000+0 -12753+1 0  9999
2 69813  88.9972 350.7878 0006373 258.9737 101.0726 14.01467917 11852
QIANFAN-215             
1 69814U 26153Q   26269.50306740  .00000375  00000+0  18609-3 0  9996
2 69814  88.9975 350.6649 0006031 334.4826  25.6062 14.15201709 11967
QIANFAN-216             
1 69815U 26153R   26268.94948347 -.01816605  00000+0 -12661+1 0  9992
2 69815  88.9971 350.7688 0010873 346.4219  13.6667 14.02973065 11860
QIANFAN-217             
1 69816U 26153S   26269.15176760  .00000435  00000+0  18760-3 0  9991
2 69816  88.9974 350.6491 0006557 336.7354  23.3540 14.22769541 11942
QIANFAN-218             
1 69817U 26153T   26269.15248752  .00000454  00000+0  19782-3 0  9999
2 69817  88.9978 350.6519 0005153 338.7992  21.2985 14.22325254 11948
QIANFAN-219             
1 69848U 26155A   26268.93746644 -.01772428  00000+0 -31112+1 0  9991
2 69848  89.0093  53.1545 0030827 348.3394  11.7037 13.47049499 11475
QIANFAN-220             
1 69849U 26155B   26269.47718037  .00000061  00000+0  75757-4 0  9998
2 69849  89.0105  53.1295 0034195 355.0169   5.0636 13.50934955 11531
QIANFAN-221             
1 69850U 26155C   26268.94599549 -.01782802  00000+0 -22760+1 0  9991
2 69850  89.0102  52.9236 0029149   7.6387 352.5211 13.67138685 11608
QIANFAN-222             
1 69851U 26155D   26269.04999239 -.02085016  00000+0 -35479+1 0  9999
2 69851  89.0102  53.1909 0021896 349.1011  10.9662 13.49140394 11467
QIANFAN-223             
1 69852U 26155E   26269.22720031  .00000069  00000+0  89748-4 0  9995
2 69852  89.0103  53.1814 0034115 355.0169   5.0637 13.49930023 11487
QIANFAN-224             
1 69853U 26155F   26269.42470845  .00000017  00000+0  79487-5 0  9996
2 69853  89.0086  53.1034 0034443 359.3540   0.7561 13.51018317 11536
QIANFAN-225             
1 69854U 26155G   26268.90850649 -.01755513  00000+0 -30704+1 0  9998
2 69854  89.0096  53.2025 0038012 348.3904  11.6365 13.47144833 11448
QIANFAN-226             
1 69855U 26155H   26268.98718949 -.01845240  00000+0 -32479+1 0  9991
2 69855  89.0092  53.1777 0032612 347.7103  12.3247 13.47026315 11465
QIANFAN-227             
1 69856U 26155J   26269.43717567 -.00000039  00000+0 -78226-4 0  9990
2 69856  89.0095  53.1364 0034946 356.6872   3.4042 13.51039106 11523
QIANFAN-228             
1 69857U 26155K   26268.84952726 -.01832682  00000+0 -30733+1 0  9998
2 69857  89.0100  53.1804 0035804 358.5102   1.5936 13.50062026 11450
QIANFAN-229             
1 69858U 26155L   26269.30551524  .00000011  00000+0 -14164-5 0  9998
2 69858  89.0105  53.1184 0008165 358.1170   1.9949 13.51023816 11529
QIANFAN-230             
1 69859U 26155M   26268.97074331 -.01890337  00000+0 -33043+1 0  9999
2 69859  89.0101  53.1931 0011427 335.3384  24.7217 13.47762965 11458
QIANFAN-231             
1 69860U 26155N   26268.87735767 -.02002848  00000+0 -32293+1 0  9996
2 69860  89.0095  53.1476 0036921 357.4779   2.6181 13.52237799 11470
QIANFAN-232             
1 69861U 26155P   26269.43780330  .00000057  00000+0  69728-4 0  9999
2 69861  89.0094  53.0976 0025600 353.0550   7.0242 13.50452603 11541
QIANFAN-233             
1 69862U 26155Q   26268.94570787 -.01820688  00000+0 -31699+1 0  9993
2 69862  89.0094  53.1384 0039352 349.4363  10.5955 13.47574549 11489
QIANFAN-234             
1 69863U 26155R   26269.07153226 -.01966414  00000+0 -30604+1 0  9997
2 69863  89.0088  53.0665 0032971   0.1451 359.9706 13.54462790 11535
QIANFAN-235             
1 69864U 26155S   26268.90179235 -.01780703  00000+0 -18250+1 0  9995
2 69864  89.0100  52.8647 0030311   4.1072 356.0339 13.80411635 11639
QIANFAN-236             
1 69865U 26155T   26269.10456041 -.01785758  00000+0 -29612+1 0  9991
2 69865  89.0100  53.1457 0034687 358.0416   2.0593 13.50682021 11496
QIANFAN-237             
1 69866U 26155U   26268.95842179 -.01856149  00000+0 -32377+1 0  9990
2 69866  89.0099  53.1250 0039134 349.5558  10.4774 13.47541792 11487
QIANFAN-238             
1 69867U 26155V   26268.96280831 -.01876287  00000+0 -32500+1 0  9996
2 69867  89.0101  53.1430 0027659 345.1073  14.9259 13.48190971 11482
