QIANFAN-1               
1 60379U 24140A   26263.57613737  .00000033  00000+0  31634-4 0  9990
2 60379  88.9664 270.0176 0019417 117.7074 242.6050 13.51025940105409
QIANFAN-2               
1 60380U 24140B   26263.53090209  .00000040  00000+0  42228-4 0  9990
2 60380  88.9651 269.8235 0014901  93.1839 267.1018 13.51020365105455
QIANFAN-3               
1 60381U 24140C   26263.53929258  .00000037  00000+0  38285-4 0  9990
2 60381  88.9644 269.9339 0016001 103.9575 256.3357 13.51023110105361
QIANFAN-4               
1 60382U 24140D   26263.58854006  .00000019  00000+0  10921-4 0  9991
2 60382  88.9668 269.8973 0015146  95.1798 265.1082 13.51021037105492
QIANFAN-5               
1 60383U 24140E   26263.56374670  .00000039  00000+0  40921-4 0  9999
2 60383  88.9643 269.9556 0017131 113.9966 246.2980 13.51031326105350
QIANFAN-6               
1 60384U 24140F   26263.58441315  .00000027  00000+0  23119-4 0  9990
2 60384  88.9670 269.7763 0015240 100.2641 260.0230 13.51024151105559
QIANFAN-7               
1 60385U 24140G   26263.54688883  .00000132  00000+0  47362-4 0  9993
2 60385  88.9722 260.5474 0014594 183.6359 176.4732 14.27893633110600
QIANFAN-8               
1 60386U 24140H   26263.51870853  .00000026  00000+0  20793-4 0  9992
2 60386  88.9671 270.0240 0018682 102.6168 257.7074 13.51026082105396
QIANFAN-9               
1 60387U 24140J   26263.56800578  .00000042  00000+0  46215-4 0  9990
2 60387  88.9669 270.0885 0018382 102.2620 258.0591 13.51021757105386
QIANFAN-10              
1 60388U 24140K   26263.57210958  .00000045  00000+0  50413-4 0  9997
2 60388  88.9680 269.4651 0016832  82.3211 277.9851 13.51021879105514
QIANFAN-11              
1 60389U 24140L   26263.53520506  .00000031  00000+0  28662-4 0  9993
2 60389  88.9605 269.8438 0016408 101.9730 258.3261 13.51021094105160
QIANFAN-12              
1 60390U 24140M   26263.55571910  .00000025  00000+0  20209-4 0  9994
2 60390  88.9648 270.0076 0015176 108.9115 251.3683 13.51023680105294
QIANFAN-13              
1 60391U 24140N   26263.52687617  .00000038  00000+0  39465-4 0  9992
2 60391  88.9908 270.2552 0014975 110.9556 249.3199 13.51023776105311
QIANFAN-14              
1 60392U 24140P   26263.55167562  .00000023  00000+0  16023-4 0  9997
2 60392  88.9639 269.9801 0018650 111.7721 248.5417 13.51025908105326
QIANFAN-15              
1 60393U 24140Q   26263.55976812  .00000043  00000+0  47384-4 0  9990
2 60393  88.9662 270.0028 0014550  99.2126 261.0672 13.51028179105316
QIANFAN-16              
1 60394U 24140R   26263.54739973  .00000019  00000+0  10809-4 0  9990
2 60394  88.9665 270.1320 0016533 114.8302 245.4571 13.51025274105226
QIANFAN-17              
1 60395U 24140S   26263.61748975  .00000031  00000+0  29105-4 0  9994
2 60395  88.9676 270.2015 0017002 109.1396 251.1598 13.51021628106192
QIANFAN-18              
1 60396U 24140T   26263.59692249  .00000032  00000+0  30546-4 0  9996
2 60396  88.9670 269.7190 0016434  94.0330 266.2700 13.51020946105588
QIANFAN-19              
1 61552U 24185A   26263.64308549  .00000268  00000+0  13224-3 0  9997
2 61552  88.9857  45.6446 0008833 113.7809 246.4305 14.14531940109518
QIANFAN-20              
1 61553U 24185B   26263.55886712  .00000353  00000+0  19570-3 0  9996
2 61553  88.9850  46.2560 0006722 146.3487 213.8125 14.09072878109179
QIANFAN-21              
1 61554U 24185C   26263.62963421  .00000382  00000+0  16347-3 0  9999
2 61554  88.9777  43.9715 0011544 154.7910 205.3847 14.22933712110050
QIANFAN-22              
1 61555U 24185D   26263.63413304  .00000082  00000+0  59477-4 0  9990
2 61555  88.9830  48.3650 0005817 195.3778 164.7218 13.86429563107999
QIANFAN-23              
1 61556U 24185E   26263.64184837  .00000240  00000+0  11315-3 0  9992
2 61556  88.9849  45.3232 0009291 120.7489 239.4615 14.16553485109655
QIANFAN-24              
1 61557U 24185F   26263.60357519  .00000418  00000+0  17504-3 0  9991
2 61557  88.9835  44.2736 0011734  98.5187 261.7336 14.24157816110130
QIANFAN-25              
1 61558U 24185G   26263.61375876  .00000304  00000+0  17671-3 0  9998
2 61558  88.9843  46.2963 0013102 170.1407 190.0035 14.06131200109112
QIANFAN-26              
1 61559U 24185H   26263.58354682  .00000163  00000+0  14939-3 0  9994
2 61559  88.9835  49.3322 0004317 223.9573 136.1251 13.77945357107488
QIANFAN-27              
1 61560U 24185J   26263.61221004  .00000411  00000+0  16096-3 0  9993
2 61560  88.9846  43.9100 0009453  86.7532 273.4744 14.27603739110377
QIANFAN-28              
1 61561U 24185K   26263.57498121  .00000521  00000+0  20230-3 0  9992
2 61561  88.9864  43.9293 0009398  85.1377 275.0890 14.28488204110402
QIANFAN-29              
1 61562U 24185L   26263.61150739  .00000139  00000+0  19591-3 0  9991
2 61562  88.9802  52.1751 0008556 323.9214  36.1359 13.51094480105857
QIANFAN-30              
1 61563U 24185M   26263.65145591  .00000134  00000+0  19115-3 0  9993
2 61563  88.9823  51.8046 0006039 309.5411  50.5206 13.50076306106103
QIANFAN-31              
1 61564U 24185N   26263.58455655  .00000158  00000+0  20216-3 0  9991
2 61564  88.9808  51.1661 0005292 290.0665  69.9920 13.58065000106416
QIANFAN-32              
1 61565U 24185P   26263.61385193  .00000099  00000+0  13541-3 0  9992
2 61565  88.9862  52.0247 0008806 343.7161  16.3706 13.50806428106099
QIANFAN-33              
1 61566U 24185Q   26263.60727651  .00000286  00000+0  19653-3 0  9999
2 61566  88.9833  47.3878 0008540 153.0947 207.0674 13.96753610108509
QIANFAN-34              
1 61567U 24185R   26263.55718914  .00000411  00000+0  25814-3 0  9992
2 61567  88.9813  46.5845 0006621 147.1737 212.9856 14.02522195108857
QIANFAN-35              
1 61568U 24185S   26263.56222714  .00000435  00000+0  16846-3 0  9993
2 61568  88.9845  43.8080 0008490  83.4954 276.7208 14.28359061110404
QIANFAN-36              
1 61569U 24185T   26263.55147061  .00000078  00000+0  94322-4 0  9993
2 61569  88.9799  51.6774 0004785 314.6971  45.3792 13.55647531106102
QIANFAN-37              
1 62238U 24232B   26263.57971697  .00000104  00000+0  14320-3 0  9991
2 62238  89.0157  13.0316 0001915  87.3674 272.7697 13.51030707137220
QIANFAN-38              
1 62239U 24232C   26263.60449170  .00000113  00000+0  15586-3 0  9997
2 62239  89.0164  12.9640 0016500 101.5999 258.7005 13.51028950137282
QIANFAN-39              
1 62240U 24232D   26263.61329580  .00000323  00000+0  13029-3 0  9995
2 62240  89.0142   5.2315 0014554 228.8525 131.1413 14.25562148141544
QIANFAN-40              
1 62241U 24232E   26263.56335013  .00000124  00000+0  17269-3 0  9997
2 62241  89.0192  12.6312 0015595 108.6996 251.5850 13.51029212137648
QIANFAN-41              
1 62242U 24232F   26263.57155165  .00000106  00000+0  14461-3 0  9998
2 62242  89.0162  12.9135 0015889  98.2272 262.0682 13.51030330137305
QIANFAN-42              
1 62243U 24232G   26263.58037502  .00000299  00000+0  12261-3 0  9993
2 62243  89.0141   5.3240 0013174 236.5164 123.4770 14.24649083141493
QIANFAN-43              
1 62244U 24232H   26263.56744373  .00000114  00000+0  15698-3 0  9996
2 62244  89.0167  12.9916 0017447 102.7928 257.5174 13.51029808105915
QIANFAN-44              
1 62245U 24232J   26263.55512414  .00000116  00000+0  16083-3 0  9996
2 62245  89.0165  12.7990 0015656 100.2771 260.0147 13.51030063137383
QIANFAN-45              
1 62246U 24232K   26263.59628748  .00000103  00000+0  14099-3 0  9990
2 62246  89.0169  12.9515 0016312  99.7865 260.5129 13.51028772137311
QIANFAN-46              
1 62247U 24232L   26263.54684818  .00000100  00000+0  13660-3 0  9996
2 62247  89.0164  13.0139 0016386 104.8012 255.4956 13.51029824137268
QIANFAN-47              
1 62248U 24232M   26263.55100745  .00000102  00000+0  13888-3 0  9994
2 62248  89.0160  12.9351 0016804 104.0234 256.2787 13.51029077137296
QIANFAN-48              
1 62249U 24232N   26263.58813547  .00000106  00000+0  14579-3 0  9991
2 62249  89.0164  12.9443 0019059 106.2658 254.0591 13.51023435137305
QIANFAN-49              
1 62250U 24232P   26263.57569416  .00000101  00000+0  13809-3 0  9995
2 62250  89.0164  12.9557 0016131 101.5437 258.7527 13.51030569105899
QIANFAN-50              
1 62251U 24232Q   26263.60034515  .00000110  00000+0  15140-3 0  9997
2 62251  89.0169  12.9768 0017790 102.6316 257.6826 13.51030066105925
QIANFAN-51              
1 62252U 24232R   26263.58392576  .00000107  00000+0  14649-3 0  9998
2 62252  89.0163  12.9550 0015264 106.0606 254.2227 13.51029027105915
QIANFAN-52              
1 62253U 24232S   26263.61270200  .00000097  00000+0  13084-3 0  9992
2 62253  89.0159  12.8147 0017282  98.9507 261.3601 13.51031092106004
QIANFAN-53              
1 62254U 24232T   26263.59220455  .00000105  00000+0  14433-3 0  9996
2 62254  89.0167  12.9426 0016164 100.0424 260.2552 13.51027784105966
QIANFAN-54              
1 62255U 24232U   26263.55922281  .00000120  00000+0  16771-3 0  9993
2 62255  89.0157  12.5995 0003891 124.7515 235.4003 13.51029655137464
QIANFAN-55              
1 62785U 25016A   26263.58532790  .00000058  00000+0  71304-4 0  9991
2 62785  88.9672  73.9481 0015604 252.0615 107.8835 13.51024904 85249
QIANFAN-56              
1 62786U 25016B   26263.60161513  .00000057  00000+0  70414-4 0  9996
2 62786  88.9646  73.7077 0014182 254.8021 105.1562 13.51028146 85296
QIANFAN-57              
1 62787U 25016C   26263.56063636  .00000046  00000+0  52102-4 0  9991
2 62787  88.9676  73.9533 0002417  81.6278 278.5147 13.51027836 85252
QIANFAN-58              
1 62788U 25016D   26263.60590975  .00000038  00000+0  39632-4 0  9992
2 62788  88.9647  73.6945 0012168 245.8322 114.1557 13.51027294 85307
QIANFAN-59              
1 62789U 25016E   26263.55636536  .00000055  00000+0  65990-4 0  9996
2 62789  88.9670  73.8397 0012488 250.3961 109.5842 13.51024649 85296
QIANFAN-60              
1 62790U 25016F   26263.58928359  .00000062  00000+0  76698-4 0  9993
2 62790  88.9651  73.7541 0014075 246.5620 113.4051 13.51028105 85286
QIANFAN-61              
1 62791U 25016G   26263.54818341  .00000061  00000+0  76304-4 0  9992
2 62791  88.9717  74.1119 0013044 245.9476 114.0311 13.51027620 85291
QIANFAN-62              
1 62792U 25016H   26263.55241639  .00000064  00000+0  80432-4 0  9994
2 62792  88.9665  73.8286 0014379 246.4621 113.5019 13.51027063 85284
QIANFAN-63              
1 62793U 25016J   26263.57703666  .00000057  00000+0  70322-4 0  9999
2 62793  88.9672  73.7966 0014385 252.3700 107.5881 13.51023013 85324
QIANFAN-64              
1 62794U 25016K   26263.61815586  .00000063  00000+0  79054-4 0  9998
2 62794  88.9659  73.7286 0012404 243.8586 116.1289 13.51027610 85327
QIANFAN-65              
1 62795U 25016L   26263.61394150  .00000056  00000+0  68661-4 0  9992
2 62795  88.9655  73.7450 0012243 245.7960 114.1912 13.51023713 85304
QIANFAN-66              
1 62796U 25016M   26263.56870032  .00000050  00000+0  58367-4 0  9991
2 62796  88.9674  73.7752 0013387 241.2684 118.7123 13.51019831 85349
QIANFAN-67              
1 62797U 25016N   26263.57278032  .00000060  00000+0  74431-4 0  9996
2 62797  88.9665  73.7727 0013273 249.0168 110.9564 13.51029250 85315
QIANFAN-68              
1 62798U 25016P   26263.56465950  .00000052  00000+0  62502-4 0  9990
2 62798  88.9668  73.8287 0013369 246.6640 113.3104 13.51022007 85292
QIANFAN-69              
1 62799U 25016Q   26263.58101373  .00000060  00000+0  74083-4 0  9995
2 62799  88.9648  73.6366 0014090 248.2978 111.6673 13.51024334 85333
QIANFAN-70              
1 62800U 25016R   26263.59760724  .00000059  00000+0  72166-4 0  9998
2 62800  88.9668  73.8319 0013819 237.4233 122.5585 13.51023976 85299
QIANFAN-71              
1 62801U 25016S   26263.59343968  .00000049  00000+0  57510-4 0  9991
2 62801  88.9662  73.7949 0013963 252.2820 107.6808 13.51026920 85293
QIANFAN-72              
1 62802U 25016T   26263.61000690  .00000041  00000+0  45019-4 0  9990
2 62802  88.9652  73.7791 0017194 260.5350  99.3858 13.51028630 85289
QIANFAN-73              
1 63159U 25046A   26263.56289695  .00000061  00000+0  75073-4 0  9992
2 63159  88.9643 290.7591 0015975  36.1117 324.1110 13.51025523 85465
QIANFAN-74              
1 63160U 25046B   26263.54647963  .00000005  00000+0 -10207-4 0  9995
2 63160  88.9641 290.6506 0001811  97.7812 262.3545 13.51018673 85529
QIANFAN-75              
1 63161U 25046C   26263.60822043  .00000088  00000+0  11801-3 0  9997
2 63161  88.9645 290.8819 0017190  38.9217 321.3168 13.51031130 85403
QIANFAN-76              
1 63162U 25046D   26263.60417962 -.00000075  00000+0 -13462-3 0  9991
2 63162  88.9643 290.8620 0014673  40.2116 320.0118 13.51021280 85416
QIANFAN-77              
1 63163U 25046E   26263.55663143  .00000119  00000+0  76970-4 0  9991
2 63163  88.9649 286.5503 0012561 282.4447  77.5324 13.96247107 87777
QIANFAN-78              
1 63164U 25046F   26263.57173913  .00000059  00000+0  72612-4 0  9997
2 63164  88.9644 290.7272 0016161  41.6822 318.5558 13.51012435 85483
QIANFAN-79              
1 63165U 25046G   26263.59994045  .00000022  00000+0  15119-4 0  9996
2 63165  88.9648 290.8414 0015840  40.3814 319.8510 13.51021173 85433
QIANFAN-80              
1 63166U 25046H   26263.54233764  .00000073  00000+0  94027-4 0  9997
2 63166  88.9645 290.5466 0014880  45.1857 315.0501 13.51030007 85588
QIANFAN-81              
1 63167U 25046J   26263.44767078  .00000097  00000+0  13075-3 0  9996
2 63167  88.9644 290.6238 0015765  35.1877 325.0312 13.51020936 85525
QIANFAN-82              
1 63168U 25046K   26263.55473012  .00000080  00000+0  10429-3 0  9993
2 63168  88.9645 290.6569 0013853  42.1407 318.0806 13.51020833 85523
QIANFAN-83              
1 63169U 25046L   26263.58009570  .00000047  00000+0  44776-4 0  9997
2 63169  88.9647 289.8749 0014148  12.4573 347.6931 13.62064924 85964
QIANFAN-84              
1 63170U 25046M   26263.58353481 -.00000054  00000+0 -10215-3 0  9992
2 63170  88.9643 290.7865 0016702  37.4058 322.8253 13.51016860 85455
QIANFAN-85              
1 63171U 25046N   26263.57936630  .00000077  00000+0  10086-3 0  9994
2 63171  88.9644 290.6565 0014364  40.6805 319.5416 13.51021008 85523
QIANFAN-86              
1 63172U 25046P   26263.58756760  .00000094  00000+0  12738-3 0  9995
2 63172  88.9646 290.5244 0012388  45.6672 314.5493 13.51026049 85609
QIANFAN-87              
1 63173U 25046Q   26263.55874899  .00000018  00000+0  88664-5 0  9996
2 63173  88.9642 290.6286 0012742  40.8940 319.3165 13.51031972 85534
QIANFAN-88              
1 63174U 25046R   26263.57521509  .00000050  00000+0  58918-4 0  9990
2 63174  88.9645 290.5884 0013424  48.5990 311.6313 13.51019421 85567
QIANFAN-89              
1 63175U 25046S   26263.53818912  .00000078  00000+0  10201-3 0  9996
2 63175  88.9645 290.7811 0017640  37.6108 322.6273 13.51020258 85459
QIANFAN-90              
1 63176U 25046T   26263.56705797  .00000023  00000+0  17470-4 0  9992
2 63176  88.9645 290.7514 0014535  37.4682 322.7480 13.51019913 85474
QIANFAN-91              
1 66033U 25233A   26263.59945664  .00000072  00000+0  92518-4 0  9997
2 66033  89.0055  33.5443 0001738  93.7914 266.3436 13.51029601 46065
QIANFAN-92              
1 66034U 25233B   26263.38579806  .00000036  00000+0  37553-4 0  9994
2 66034  89.0040  33.5196 0002725  90.9343 269.2120 13.50977263 46031
QIANFAN-93              
1 66035U 25233C   26260.35705125 -.01893751  00000+0 -34531+1 0  9990
2 66035  89.0038  33.9026 0006262  26.1590 333.9873 13.45060301 45628
QIANFAN-94              
1 66036U 25233D   26263.60363153  .00000077  00000+0  10010-3 0  9990
2 66036  89.0062  33.4777 0001767 100.3173 259.8178 13.51027990 46114
QIANFAN-95              
1 66037U 25233E   26260.35280701 -.01881968  00000+0 -34325+1 0  9998
2 66037  89.0070  33.3481 0009145  41.7698 318.4146 13.45007786 45922
QIANFAN-96              
1 66038U 25233F   26263.41431646  .00000076  00000+0  99087-4 0  9995
2 66038  89.0056  33.5789 0001717  92.0416 268.0932 13.51029139 46033
QIANFAN-97              
1 66039U 25233G   26263.39785834  .00000042  00000+0  46353-4 0  9995
2 66039  89.0059  33.5676 0001817  94.2793 265.8566 13.51038945 46038
QIANFAN-98              
1 66040U 25233H   26263.40612189  .00000077  00000+0  10045-3 0  9997
2 66040  89.0049  33.2875 0001651 113.3799 246.7526 13.51029391 46187
QIANFAN-99              
1 66041U 25233J   26263.63233811  .00000076  00000+0  99334-4 0  9992
2 66041  89.0061  33.5488 0001490 107.9784 252.1530 13.51035864 46075
QIANFAN-100             
1 66042U 25233K   26263.40203993  .00000083  00000+0  10928-3 0  9995
2 66042  89.0071  33.5097 0001798  94.5084 265.6273 13.51020431 46097
QIANFAN-101             
1 66043U 25233L   26263.39052649  .00000262  00000+0  10183-3 0  9996
2 66043  89.0061  29.6452 0015006 183.5182 176.5909 14.26861767 48202
QIANFAN-102             
1 66044U 25233M   26263.64475162  .00000077  00000+0  10111-3 0  9999
2 66044  89.0058  33.4550 0001710 101.3250 258.8093 13.51028663 46126
QIANFAN-103             
1 66045U 25233N   26263.64890333  .00000037  00000+0  39351-4 0  9995
2 66045  89.0061  33.5524 0001798  94.5821 265.5536 13.51028577 46071
QIANFAN-104             
1 66046U 25233P   26263.43074428  .00000082  00000+0  10771-3 0  9996
2 66046  89.0066  33.4808 0001804 102.7620 257.3733 13.51026657 46095
QIANFAN-105             
1 66047U 25233Q   26263.29097465  .00000037  00000+0  38632-4 0  9994
2 66047  89.0077  33.3504 0001826  99.2504 260.8854 13.51029834 46188
QIANFAN-106             
1 66048U 25233R   26263.13861921  .00000085  00000+0  11359-3 0  9993
2 66048  89.0047  33.5489 0001632 110.5486 249.5840 13.51030238 46001
QIANFAN-107             
1 66049U 25233S   26263.59123407  .00000073  00000+0  94402-4 0  9992
2 66049  89.0063  33.5509 0001805  95.6249 264.5108 13.51029554 46075
QIANFAN-108             
1 66050U 25233T   26263.15103622  .00000075  00000+0  96891-4 0  9999
2 66050  89.0055  33.5762 0001676 109.2495 250.8838 13.51029201 46011
QIANFAN-109             
1 68636U 26075A   26263.60927861  .00000055  00000+0  67028-4 0  9993
2 68636  88.9864 311.2754 0002032  83.6980 276.4402 13.51020914 22676
QIANFAN-110             
1 68637U 26075B   26263.54338633  .00000065  00000+0  82045-4 0  9997
2 68637  88.9864 311.3037 0002238  96.9006 263.2399 13.51021883 22660
QIANFAN-111             
1 68638U 26075C   26263.60536842  .00000051  00000+0  60104-4 0  9994
2 68638  88.9863 311.2562 0002219  96.5959 263.5445 13.51021327 22695
QIANFAN-112             
1 68639U 26075D   26263.56823814  .00000050  00000+0  59251-4 0  9998
2 68639  88.9862 311.2678 0002270  84.1668 275.9742 13.51023712 22686
QIANFAN-113             
1 68640U 26075E   26263.53928980  .00000059  00000+0  73382-4 0  9997
2 68640  88.9868 311.2698 0002281  93.9665 266.1747 13.51020311 22682
QIANFAN-114             
1 68641U 26075F   26263.54751321  .00000046  00000+0  51828-4 0  9999
2 68641  88.9863 311.2836 0002208  96.3067 263.8335 13.51027956 22672
QIANFAN-115             
1 68642U 26075G   26263.57639941  .00000056  00000+0  67970-4 0  9992
2 68642  88.9863 311.2879 0002075  94.0278 266.1110 13.51024650 22676
QIANFAN-116             
1 68643U 26075H   26263.56402847  .00000049  00000+0  57662-4 0  9994
2 68643  88.9856 311.2425 0002318  87.4951 272.6466 13.51025219 22689
QIANFAN-117             
1 68644U 26075J   26263.55178004  .00000047  00000+0  53376-4 0  9995
2 68644  88.9861 311.2639 0002132  89.8082 270.3314 13.51023052 22688
QIANFAN-118             
1 68645U 26075K   26263.58461713  .00000036  00000+0  37711-4 0  9994
2 68645  88.9866 311.2731 0002310  98.5015 261.6398 13.51024799 22682
QIANFAN-119             
1 68646U 26075L   26263.55985180  .00000050  00000+0  58268-4 0  9997
2 68646  88.9866 311.2714 0001961  87.0707 273.0668 13.51020526 22687
QIANFAN-120             
1 68647U 26075M   26263.57223742  .00000058  00000+0  70694-4 0  9994
2 68647  88.9867 311.2566 0001893  86.7833 273.3535 13.51020371 22699
QIANFAN-121             
1 68648U 26075N   26263.59704513  .00000040  00000+0  44012-4 0  9993
2 68648  88.9865 311.2569 0002224  98.0014 262.1389 13.51023873 22690
QIANFAN-122             
1 68649U 26075P   26263.58876039  .00000038  00000+0  39804-4 0  9996
2 68649  88.9864 311.2547 0002113  87.5815 272.5578 13.51027432 22684
QIANFAN-123             
1 68650U 26075Q   26263.55574616  .00000039  00000+0  41797-4 0  9996
2 68650  88.9861 311.2450 0002068  81.3734 278.7651 13.51020346 22662
QIANFAN-124             
1 68651U 26075R   26263.58055629  .00000045  00000+0  50707-4 0  9996
2 68651  88.9863 311.2540 0002129  86.0620 274.0774 13.51026961 22696
QIANFAN-125             
1 68652U 26075S   26263.59293097  .00000038  00000+0  40314-4 0  9996
2 68652  88.9863 311.2547 0002253  97.5350 262.6057 13.51023999 22694
QIANFAN-126             
1 68653U 26075T   26263.08254406  .00000046  00000+0  52486-4 0  9994
2 68653  88.9867 311.2764 0002066  82.2067 277.9319 13.51029384 22647
QIANFAN-127             
1 69073U 26104A   26263.60643536  .00000063  00000+0  79279-4 0  9996
2 69073  88.9922 331.7434 0002539 102.2273 257.9163 13.51028227 18043
QIANFAN-128             
1 69074U 26104B   26263.54048237  .00000064  00000+0  80332-4 0  9990
2 69074  88.9900 331.7738 0002274 112.5712 247.5680 13.51023755 18012
QIANFAN-129             
1 69075U 26104C   26263.56510143  .00000071  00000+0  90600-4 0  9990
2 69075  88.9903 331.7056 0002344 107.7184 252.4223 13.51023723 18053
QIANFAN-130             
1 69076U 26104D   26263.60211676  .00000066  00000+0  83062-4 0  9993
2 69076  88.9905 331.7677 0002506  96.6982 263.4454 13.51021848 18028
QIANFAN-131             
1 69077U 26104E   26263.54880252  .00000070  00000+0  90199-4 0  9993
2 69077  88.9898 331.7336 0002085 106.9566 253.1814 13.51025902 18039
QIANFAN-132             
1 69078U 26104F   26263.61036563  .00000065  00000+0  81920-4 0  9996
2 69078  88.9900 331.7840 0002389  99.5263 260.6159 13.51022129 18013
QIANFAN-133             
1 69079U 26104G   26263.54463616  .00000065  00000+0  82392-4 0  9996
2 69079  88.9904 331.7409 0002024 112.9676 247.1689 13.51030922 18022
QIANFAN-134             
1 69080U 26104H   26263.57341329  .00000057  00000+0  70138-4 0  9993
2 69080  88.9908 331.7643 0002222 111.9873 248.1515 13.51029247 18023
QIANFAN-135             
1 69081U 26104J   26263.55276062  .00000068  00000+0  87348-4 0  9996
2 69081  88.9902 331.7571 0002465 111.7474 248.3940 13.51022380 18027
QIANFAN-136             
1 69082U 26104K   26263.56101879  .00000069  00000+0  87601-4 0  9994
2 69082  88.9904 331.7593 0002080 113.0522 247.0849 13.51032359 18027
QIANFAN-137             
1 69083U 26104L   26263.55694770  .00000070  00000+0  90407-4 0  9991
2 69083  88.9913 331.6365 0002258 100.0753 260.0653 13.51022071 18098
QIANFAN-138             
1 69084U 26104M   26263.58155775  .00000065  00000+0  81444-4 0  9997
2 69084  88.9897 331.7570 0002534 105.8504 254.2927 13.51021853 18022
QIANFAN-139             
1 69085U 26104N   26263.56938780  .00000054  00000+0  65323-4 0  9997
2 69085  88.9899 331.7401 0002488 100.4426 259.7006 13.51030606 18035
QIANFAN-140             
1 69086U 26104P   26263.57745694  .00000064  00000+0  81051-4 0  9996
2 69086  88.9900 331.7428 0002544 110.5178 249.6247 13.51022991 18030
QIANFAN-141             
1 69087U 26104Q   26263.58575517  .00000072  00000+0  93350-4 0  9997
2 69087  88.9897 331.7062 0002347 112.0265 248.1135 13.51020770 18050
QIANFAN-142             
1 69088U 26104R   26263.59389333  .00000029  00000+0  25991-4 0  9996
2 69088  88.9896 331.7047 0002495 106.6512 253.4913 13.51019855 18056
QIANFAN-143             
1 69089U 26104S   26263.58988849  .00000075  00000+0  96746-4 0  9990
2 69089  88.9906 331.7118 0002016 106.3734 253.7639 13.51027448 18055
QIANFAN-144             
1 69090U 26104T   26263.59800877  .00000071  00000+0  91194-4 0  9995
2 69090  88.9905 331.7291 0002539 103.0341 257.1094 13.51020872 18042
QIANFAN-145             
1 69104U 26108A   26262.85983565 -.01759069  00000+0 -30950+1 0  9999
2 69104  89.0189  12.5973 0004051  67.5619 292.5958 13.47050109 17220
QIANFAN-146             
1 69105U 26108B   26263.56119806  .00000125  00000+0  17449-3 0  9998
2 69105  89.0196  12.3652 0001951  99.9890 260.1481 13.51040224 17412
QIANFAN-147             
1 69106U 26108C   26263.61072322  .00000107  00000+0  14736-3 0  9992
2 69106  89.0196  12.5277 0002084 103.2750 256.8634 13.51025224 17314
QIANFAN-148             
1 69107U 26108D   26263.59831325  .00000118  00000+0  16489-3 0  9995
2 69107  89.0190  12.5189 0002022 109.8183 250.3186 13.51024770 17311
QIANFAN-149             
1 69108U 26108E   26263.60647659  .00000109  00000+0  15075-3 0  9993
2 69108  89.0189  12.5393 0002313 108.4918 251.6485 13.51024277 17319
QIANFAN-150             
1 69109U 26108F   26263.61467483  .00000108  00000+0  14840-3 0  9998
2 69109  89.0194  12.4918 0002325 107.2108 252.9298 13.51024738 17339
QIANFAN-151             
1 69110U 26108G   26263.56958667  .00000114  00000+0  15802-3 0  9999
2 69110  89.0194  12.5199 0001817 103.8808 256.2545 13.51027923 17316
QIANFAN-152             
1 69111U 26108H   26262.95632256  .00000034  00000+0  34449-4 0  9995
2 69111  89.0190  12.5725 0002187  97.1944 262.9456 13.51028635 17243
QIANFAN-153             
1 69112U 26108J   26263.54471647  .00000112  00000+0  15506-3 0  9996
2 69112  89.0186  12.4904 0002232 103.5774 256.5626 13.51025062 17329
QIANFAN-154             
1 69113U 26108K   26263.55307957  .00000116  00000+0  16176-3 0  9998
2 69113  89.0197  12.5385 0002153 105.8818 254.2571 13.51027037 17319
QIANFAN-155             
1 69114U 26108L   26263.55708141  .00000120  00000+0  16726-3 0  9995
2 69114  89.0195  12.5026 0002282 105.0983 255.0421 13.51023912 17320
QIANFAN-156             
1 69115U 26108M   26263.57762319  .00000114  00000+0  15857-3 0  9992
2 69115  89.0209  12.5020 0001921 108.4113 251.7248 13.51023884 17342
QIANFAN-157             
1 69116U 26108N   26263.56545018  .00000122  00000+0  17054-3 0  9997
2 69116  89.0191  12.4264 0002112 111.1834 248.9543 13.51028613 17370
QIANFAN-158             
1 69117U 26108P   26263.58171623  .00000110  00000+0  15105-3 0  9999
2 69117  89.0192  12.4661 0001872 106.7861 253.3496 13.51024104 17351
QIANFAN-159             
1 69118U 26108Q   26263.57353999  .00000115  00000+0  16018-3 0  9996
2 69118  89.0184  12.4732 0001893 104.3543 255.7818 13.51023901 17343
QIANFAN-160             
1 69119U 26108R   26263.59013312  .00000124  00000+0  17404-3 0  9991
2 69119  89.0199  12.5091 0002399 105.2176 254.9240 13.51024032 17338
QIANFAN-161             
1 69120U 26108S   26263.59408931  .00000121  00000+0  16905-3 0  9990
2 69120  89.0206  12.4255 0001851 105.4768 254.6588 13.51022383 17385
QIANFAN-162             
1 69121U 26108T   26263.58588608  .00000113  00000+0  15710-3 0  9994
2 69121  89.0196  12.4515 0002127  99.2994 260.8398 13.51023228 17355
QIANFAN-163             
1 69325U 26121A   26263.47646202  .00000013  00000+0  20343-5 0  9997
2 69325  89.0099 291.0279 0002432 119.6804 240.4589 13.51022061 15034
QIANFAN-164             
1 69326U 26121B   26263.44355380  .00000050  00000+0  59198-4 0  9999
2 69326  89.0099 291.0218 0002090 110.8279 249.3097 13.51021540 15030
QIANFAN-165             
1 69382U 26124A   26263.60136589  .00000101  00000+0  13839-3 0  9998
2 69382  89.0071 352.0129 0001957 120.8786 239.2558 13.51022288 14923
QIANFAN-166             
1 69383U 26124B   26263.60551379  .00000114  00000+0  15798-3 0  9997
2 69383  89.0089 352.0234 0001831 104.8363 255.2991 13.51022912 14927
QIANFAN-167             
1 69384U 26124C   26263.60950360  .00000107  00000+0  14729-3 0  9996
2 69384  89.0063 352.0285 0002222 106.8524 253.2872 13.51031885 14916
QIANFAN-168             
1 69385U 26124D   26263.61356935  .00000106  00000+0  14600-3 0  9993
2 69385  89.0059 352.0080 0001658 109.0458 251.0873 13.51020514 14923
QIANFAN-169             
1 69386U 26124E   26263.54376363  .00000104  00000+0  14216-3 0  9994
2 69386  89.0058 352.0148 0001835 100.7261 259.4097 13.51023759 14918
QIANFAN-170             
1 69387U 26124F   26263.54782874  .00000101  00000+0  13760-3 0  9993
2 69387  89.0075 351.9868 0001780  99.0159 261.1193 13.51026216 14930
QIANFAN-171             
1 69388U 26124G   26263.55612895  .00000093  00000+0  12477-3 0  9994
2 69388  89.0090 351.9985 0002124 103.6049 256.5339 13.51029256 14938
QIANFAN-172             
1 69389U 26124H   26263.55193174  .00000099  00000+0  13464-3 0  9992
2 69389  89.0073 351.9887 0001862 117.6425 242.4915 13.51029809 14930
QIANFAN-173             
1 69390U 26124J   26263.56005510  .00000099  00000+0  13550-3 0  9997
2 69390  89.0062 351.9843 0001624 104.0952 256.0380 13.51022766 14935
QIANFAN-174             
1 69391U 26124K   26263.57244624  .00000109  00000+0  15043-3 0  9991
2 69391  89.0042 351.9404 0002242 108.7788 251.3607 13.51030640 14943
QIANFAN-175             
1 69392U 26124L   26263.57669261  .00000116  00000+0  16044-3 0  9990
2 69392  89.0095 351.9853 0001818 102.9157 257.2197 13.51020707 14946
QIANFAN-176             
1 69393U 26124M   26263.58078713  .00000107  00000+0  14776-3 0  9998
2 69393  89.0056 351.9645 0001832 103.1049 257.0307 13.51021461 14930
QIANFAN-177             
1 69394U 26124N   26263.58899434  .00000095  00000+0  12887-3 0  9997
2 69394  89.0066 351.9523 0002139 109.3337 250.8046 13.51030510 14954
QIANFAN-178             
1 69395U 26124P   26263.58482244  .00000100  00000+0  13622-3 0  9990
2 69395  89.0012 351.9082 0001840 102.2246 257.9111 13.51026444 14968
QIANFAN-179             
1 69396U 26124Q   26263.59311581  .00000100  00000+0  13634-3 0  9990
2 69396  89.0044 351.9256 0001822 101.7215 258.4141 13.51030097 14965
QIANFAN-180             
1 69397U 26124R   26263.59724410  .00000095  00000+0  12824-3 0  9993
2 69397  89.0050 351.9462 0001796  97.5717 262.5639 13.51022320 14958
QIANFAN-181             
1 69398U 26124S   26263.56431297  .00000108  00000+0  14837-3 0  9990
2 69398  89.0072 352.0431 0002177 105.7209 254.4183 13.51024121 14903
QIANFAN-182             
1 69399U 26124T   26263.56835773  .00000104  00000+0  14302-3 0  9991
2 69399  89.0047 352.0130 0001834 104.9166 255.2189 13.51028630 14908
QIANFAN-183             
1 69401U 26125A   26263.60298120  .00000041  00000+0  44176-4 0  9993
2 69401  88.9832 270.2930 0002055 101.3904 258.7479 13.51027519 14824
QIANFAN-184             
1 69402U 26125B   26263.61122594  .00000046  00000+0  52947-4 0  9996
2 69402  88.9883 270.3197 0001989  97.5613 262.5764 13.51028793 14820
QIANFAN-185             
1 69403U 26125C   26260.52372312 -.01777842  00000+0 -31393+1 0  9995
2 69403  88.9894 270.5744 0009178 115.9164 244.2932 13.46850617 14441
QIANFAN-186             
1 69404U 26125D   26263.45906735  .00000035  00000+0  35507-4 0  9998
2 69404  88.9886 270.3353 0002026  95.9290 264.2092 13.51008263 14806
QIANFAN-187             
1 69405U 26125E   26263.61537351  .00000026  00000+0  22403-4 0  9992
2 69405  88.9885 270.3021 0002190  99.1385 261.0014 13.51007351 14830
QIANFAN-188             
1 69406U 26125F   26263.54942436  .00000029  00000+0  26750-4 0  9991
2 69406  88.9884 270.3085 0002084 102.4621 257.6764 13.51029434 14821
QIANFAN-189             
1 69407U 26125G   26263.55760439  .00000031  00000+0  28889-4 0  9992
2 69407  88.9866 270.3022 0002147 107.3548 252.7838 13.51019127 14810
QIANFAN-190             
1 69408U 26125H   26263.61931609  .00000026  00000+0  21758-4 0  9991
2 69408  88.9867 270.2938 0001923  96.6952 263.4419 13.51018992 14832
QIANFAN-191             
1 69409U 26125J   26263.56999980  .00000039  00000+0  41400-4 0  9992
2 69409  88.9881 270.3109 0002046 102.3673 257.7708 13.51032954 14822
QIANFAN-192             
1 69410U 26125K   26263.55349629  .00000022  00000+0  15315-4 0  9990
2 69410  88.9888 270.3132 0002177 105.1526 254.9866 13.51019623 14822
QIANFAN-193             
1 69411U 26125L   26263.57831805  .00000036  00000+0  37109-4 0  9995
2 69411  88.9866 270.2868 0001959 103.4141 256.7229 13.51027516 14839
QIANFAN-194             
1 69412U 26125M   26263.57419081  .00000036  00000+0  36616-4 0  9996
2 69412  88.9899 270.3020 0002077 101.9889 258.1496 13.51026137 14820
QIANFAN-195             
1 69413U 26125N   26263.58247292  .00000036  00000+0  36976-4 0  9990
2 69413  88.9900 270.2861 0001925  89.1253 271.0119 13.51011854 14847
QIANFAN-196             
1 69414U 26125P   26263.59056916  .00000024  00000+0  18919-4 0  9997
2 69414  88.9905 270.2893 0001868  93.6931 266.4434 13.51035274 14847
QIANFAN-197             
1 69415U 26125Q   26263.59892311  .00000032  00000+0  30659-4 0  9999
2 69415  88.9879 270.2597 0002036 100.2027 259.9354 13.51023737 14847
QIANFAN-198             
1 69416U 26125R   26263.58653060  .00000028  00000+0  24030-4 0  9996
2 69416  88.9873 270.2736 0002079 102.6886 257.4498 13.51028194 14847
QIANFAN-199             
1 69417U 26125S   26263.59481070  .00000036  00000+0  37048-4 0  9990
2 69417  88.9877 270.2230 0002266 100.5168 259.6239 13.51025765 14870
QIANFAN-200             
1 69418U 26125T   26263.56595313  .00000037  00000+0  38151-4 0  9991
2 69418  88.9884 270.3115 0002097 105.5107 254.6276 13.51026241 14823
QIANFAN-201             
1 69800U 26153A   26263.30445506  .00000048  00000+0  22894-4 0  9996
2 69800  88.9977 351.4840 0005013   8.9515 351.1752 14.00290774 11027
QIANFAN-202             
1 69801U 26153B   26263.59147163  .00000282  00000+0  16284-3 0  9991
2 69801  88.9978 351.4152 0006979 344.1655  15.9308 14.06321407 11078
QIANFAN-203             
1 69802U 26153C   26262.87496598 -.01784701  00000+0 -12284+1 0  9992
2 69802  88.9973 351.5313 0010759 335.7645  24.3028 14.03597517 10964
QIANFAN-204             
1 69803U 26153D   26263.54949093  .00000109  00000+0  58765-4 0  9999
2 69803  88.9979 351.4472 0005624 339.0708  21.0243 14.05218165 11064
QIANFAN-205             
1 69804U 26153E   26262.79332794 -.01794648  00000+0 -13466+1 0  9996
2 69804  88.9971 351.5556 0003424  20.2703 339.8610 13.98780198 10946
QIANFAN-206             
1 69805U 26153F   26263.58372995  .00000039  00000+0  15108-4 0  9992
2 69805  88.9977 351.4144 0006188 355.8714   4.2417 14.07660632 11089
QIANFAN-207             
1 69806U 26153G   26263.58198233  .00000031  00000+0  11012-4 0  9996
2 69806  88.9978 351.4510 0006556 348.9913  11.1124 14.04604651 11067
QIANFAN-208             
1 69807U 26153H   26263.56942264 -.00000020  00000+0 -21666-4 0  9992
2 69807  88.9975 351.4493 0005922  31.6306 328.5229 14.03357314 11075
QIANFAN-209             
1 69808U 26153J   26263.18083655 -.00000050  00000+0 -40916-4 0  9993
2 69808  88.9982 351.5035 0006592 340.4768  19.6159 14.02902201 11007
QIANFAN-210             
1 69809U 26153K   26262.86445514 -.01770622  00000+0 -13186+1 0  9999
2 69809  88.9973 351.5303 0004686  35.4753 324.6736 13.99150769 10966
QIANFAN-211             
1 69810U 26153L   26263.57467689  .00000299  00000+0  14858-3 0  9990
2 69810  88.9979 351.4134 0006643 345.2345  14.8647 14.14541011 11084
QIANFAN-212             
1 69811U 26153M   26263.27902485 -.00000008  00000+0 -12987-4 0  9998
2 69811  88.9977 351.4614 0008146 350.3580   9.7446 14.08612396 11037
QIANFAN-213             
1 69812U 26153N   26262.87408773 -.01799611  00000+0 -12834+1 0  9998
2 69812  88.9974 351.5120 0008128 317.1707  42.8838 14.01653787 10977
QIANFAN-214             
1 69813U 26153P   26262.90287799 -.01795309  00000+0 -12163+1 0  9991
2 69813  88.9972 351.4608 0009853 315.8657  44.1737 14.04513462 11007
QIANFAN-215             
1 69814U 26153Q   26262.92740323  .00000041  00000+0  13839-4 0  9995
2 69814  88.9976 351.4071 0006815 358.6058   1.5109 14.15196393 11036
QIANFAN-216             
1 69815U 26153R   26263.26868907  .00000232  00000+0  12156-3 0  9995
2 69815  88.9977 351.4039 0006363   1.5557 358.5647 14.10942668 11062
QIANFAN-217             
1 69816U 26153S   26263.59567373  .00000372  00000+0  15975-3 0  9992
2 69816  88.9977 351.2840 0007245 357.4305   2.6848 14.22764594 11158
QIANFAN-218             
1 69817U 26153T   26263.59465845  .00000379  00000+0  16413-3 0  9999
2 69817  88.9980 351.2865 0005835 359.6773   0.4414 14.22320532 11151
QIANFAN-219             
1 69848U 26155A   26263.60964610  .00000094  00000+0  12143-3 0  9991
2 69848  89.0086  53.6884 0037092  10.1334 350.0558 13.53480372 10750
QIANFAN-220             
1 69849U 26155B   26262.81159607 -.01920665  00000+0 -32185+1 0  9999
2 69849  89.0089  53.7964 0035820  13.6977 346.5138 13.50317053 10635
QIANFAN-221             
1 69850U 26155C   26262.74960344 -.01871803  00000+0 -22183+1 0  9997
2 69850  89.0083  53.5671 0029442  18.7622 341.4619 13.71899379 10750
QIANFAN-222             
1 69851U 26155D   26262.83223653 -.01819272  00000+0 -30594+1 0  9990
2 69851  89.0085  53.8142 0036184  11.4677 348.7290 13.49844585 10625
QIANFAN-223             
1 69852U 26155E   26263.59395533  .00000071  00000+0  92808-4 0  9998
2 69852  89.0092  53.7439 0034678  11.3688 348.8238 13.49929263 10720
QIANFAN-224             
1 69853U 26155F   26262.83836649 -.01816590  00000+0 -30266+1 0  9993
2 69853  89.0066  53.7650 0037117  17.7990 342.4451 13.50418947 10646
QIANFAN-225             
1 69854U 26155G   26262.83878916 -.01704552  00000+0 -28789+1 0  9998
2 69854  89.0079  53.8111 0033777  21.5342 338.7220 13.49325804 10623
QIANFAN-226             
1 69855U 26155H   26262.77368566 -.01813144  00000+0 -29777+1 0  9993
2 69855  89.0078  53.8014 0036319  16.6338 343.5996 13.51339567 10628
QIANFAN-227             
1 69856U 26155J   26263.58403439  .00000085  00000+0  11451-3 0  9995
2 69856  89.0085  53.7215 0035623  14.4899 345.7264 13.49925510 10734
QIANFAN-228             
1 69857U 26155K   26262.79605182 -.01773867  00000+0 -28271+1 0  9990
2 69857  89.0085  53.7907 0033910  18.1080 342.1272 13.53189769 10635
QIANFAN-229             
1 69858U 26155L   26262.78706105 -.01877480  00000+0 -32123+1 0  9994
2 69858  89.0090  53.7705 0038013   8.9911 351.1911 13.48849488 10643
QIANFAN-230             
1 69859U 26155M   26263.41749771  .00000044  00000+0  50117-4 0  9990
2 69859  89.0088  53.7502 0034685  12.8054 347.3970 13.51016651 10700
QIANFAN-231             
1 69860U 26155N   26262.90297294  .00000045  00000+0  45820-4 0  9999
2 69860  89.0087  53.7512 0036827   8.9579 351.2225 13.57849306 10669
QIANFAN-232             
1 69861U 26155P   26263.58445180  .00000070  00000+0  90057-4 0  9994
2 69861  89.0083  53.6831 0026181  10.1237 350.0436 13.50451937 10750
QIANFAN-233             
1 69862U 26155Q   26262.80869671 -.01822722  00000+0 -29961+1 0  9995
2 69862  89.0084  53.7555 0037180  14.0399 346.1777 13.51294682 10655
QIANFAN-234             
1 69863U 26155R   26262.81180670 -.01839708  00000+0 -27950+1 0  9990
2 69863  89.0076  53.7016 0032146  12.8444 347.3522 13.56400445 10688
QIANFAN-235             
1 69864U 26155S   26262.83681368 -.01861903  00000+0 -17940+1 0  9993
2 69864  89.0086  53.5091 0029458  21.8127 338.4290 13.84271764 10797
QIANFAN-236             
1 69865U 26155T   26263.57042996  .00000044  00000+0  44730-4 0  9993
2 69865  89.0093  53.7042 0034474  10.0195 350.1640 13.57140017 10744
QIANFAN-237             
1 69866U 26155U   26262.82255542 -.01804373  00000+0 -29100+1 0  9994
2 69866  89.0086  53.7411 0034788  16.7510 343.4782 13.52496755 10659
QIANFAN-238             
1 69867U 26155V   26262.82830697 -.01832833  00000+0 -29998+1 0  9992
2 69867  89.0086  53.7592 0027073  13.6111 346.5765 13.51721159 10655
