QIANFAN-1               
1 60379U 24140A   26256.54025184  .00000022  00000+0  15188-4 0  9996
2 60379  88.9665 270.7518 0019007 136.3285 223.9374 13.51025808104451
QIANFAN-2               
1 60380U 24140B   26256.56905681  .00000016  00000+0  64462-5 0  9992
2 60380  88.9652 270.5508 0014775 110.6145 249.6593 13.51020238104510
QIANFAN-3               
1 60381U 24140C   26256.57745877  .00000017  00000+0  68051-5 0  9992
2 60381  88.9644 270.6617 0015755 121.7424 238.5265 13.51022941104422
QIANFAN-4               
1 60382U 24140D   26256.55263618  .00000015  00000+0  49695-5 0  9990
2 60382  88.9669 270.6312 0014996 112.8757 247.3979 13.51021034104543
QIANFAN-5               
1 60383U 24140E   26256.45382947  .00000031  00000+0  28949-4 0  9993
2 60383  88.9644 270.6990 0016758 132.4939 227.7631 13.51031194104395
QIANFAN-6               
1 60384U 24140F   26256.54852408  .00000017  00000+0  77134-5 0  9993
2 60384  88.9671 270.5100 0015031 118.0498 242.2176 13.51024040104603
QIANFAN-7               
1 60385U 24140G   26256.53906576  .00000122  00000+0  43474-4 0  9995
2 60385  88.9718 261.3747 0013683 207.8328 152.2136 14.27892202109609
QIANFAN-8               
1 60386U 24140H   26256.55688995  .00000021  00000+0  13608-4 0  9994
2 60386  88.9672 270.7499 0018447 120.7062 239.5910 13.51026017104454
QIANFAN-9               
1 60387U 24140J   26256.45804036  .00000024  00000+0  17813-4 0  9995
2 60387  88.9670 270.8300 0018143 120.7030 239.5912 13.51021631104429
QIANFAN-10              
1 60388U 24140K   26256.53621194  .00000018  00000+0  85560-5 0  9995
2 60388  88.9681 270.1981 0016835 100.2697 260.0353 13.51021670104564
QIANFAN-11              
1 60389U 24140L   26256.57336152  .00000008  00000+0 -59905-5 0  9991
2 60389  88.9606 270.5744 0016179 119.7651 240.5112 13.51021043104222
QIANFAN-12              
1 60390U 24140M   26256.59388797  .00000032  00000+0  30195-4 0  9992
2 60390  88.9648 270.7352 0014869 126.6372 233.6149 13.51023597104351
QIANFAN-13              
1 60391U 24140N   26256.56504463  .00000021  00000+0  14085-4 0  9998
2 60391  88.9909 270.9645 0014649 128.6835 231.5629 13.51023651104374
QIANFAN-14              
1 60392U 24140P   26256.58982712  .00000023  00000+0  15868-4 0  9990
2 60392  88.9639 270.7083 0018304 129.9937 230.2825 13.51018796104387
QIANFAN-15              
1 60393U 24140Q   26256.59796175  .00000039  00000+0  41899-4 0  9998
2 60393  88.9663 270.7293 0014351 116.6588 243.6035 13.51027941104373
QIANFAN-16              
1 60394U 24140R   26256.58557511  .00000020  00000+0  11985-4 0  9990
2 60394  88.9666 270.8584 0016165 132.8813 227.3699 13.51025229104289
QIANFAN-17              
1 60395U 24140S   26256.58158484  .00000011  00000+0 -22011-5 0  9991
2 60395  88.9676 270.9348 0016684 127.3289 232.9386 13.51021471105249
QIANFAN-18              
1 60396U 24140T   26256.56101789  .00000015  00000+0  44135-5 0  9990
2 60396  88.9671 270.4527 0016297 111.9025 248.3860 13.51020927104631
QIANFAN-19              
1 61552U 24185A   26256.56912559  .00000324  00000+0  16129-3 0  9992
2 61552  88.9846  46.4519 0008441 130.9682 229.2237 14.14528209108517
QIANFAN-20              
1 61553U 24185B   26256.59954819  .00000253  00000+0  13786-3 0  9998
2 61553  88.9841  47.0435 0006002 164.2465 195.8907 14.09068874108194
QIANFAN-21              
1 61554U 24185C   26256.59739856  .00000474  00000+0  20457-3 0  9999
2 61554  88.9767  44.7916 0010663 176.0167 184.1111 14.22928681109058
QIANFAN-22              
1 61555U 24185D   26256.56125793  .00000203  00000+0  16404-3 0  9993
2 61555  88.9820  49.1373 0005047 220.1235 139.9564 13.86427922107017
QIANFAN-23              
1 61556U 24185E   26256.57797509  .00000308  00000+0  14732-3 0  9993
2 61556  88.9840  46.1326 0008810 138.5833 221.6024 14.16550156108653
QIANFAN-24              
1 61557U 24185F   26256.57738381  .00000420  00000+0  17593-3 0  9990
2 61557  88.9824  45.0901 0011512 117.0075 243.2295 14.24152180109134
QIANFAN-25              
1 61558U 24185G   26256.56872573  .00000359  00000+0  20983-3 0  9990
2 61558  88.9831  47.0903 0012289 190.4272 169.6657 14.06126612108125
QIANFAN-26              
1 61559U 24185H   26256.61239080  .00000195  00000+0  18140-3 0  9997
2 61559  88.9825  50.0821 0003821 253.7671 106.3075 13.77942670106521
QIANFAN-27              
1 61560U 24185J   26256.60296868  .00000378  00000+0  14779-3 0  9992
2 61560  88.9837  44.7280 0009508 104.0269 256.1983 14.27599516109375
QIANFAN-28              
1 61561U 24185K   26256.57006968  .00000558  00000+0  21700-3 0  9991
2 61561  88.9854  44.7466 0009402 102.4756 257.7491 14.28480806109404
QIANFAN-29              
1 61562U 24185L   26256.57599045  .00000123  00000+0  17161-3 0  9999
2 61562  88.9792  52.9005 0009160 346.5558  13.5347 13.51092713104907
QIANFAN-30              
1 61563U 24185M   26256.53652115  .00000123  00000+0  17394-3 0  9992
2 61563  88.9812  52.5353 0006561 334.5822  25.5006 13.50074552105148
QIANFAN-31              
1 61564U 24185N   26256.58511690  .00000137  00000+0  17303-3 0  9995
2 61564  88.9798  51.8960 0005591 317.4733  42.5989 13.58062766105467
QIANFAN-32              
1 61565U 24185P   26256.57683843  .00000107  00000+0  14795-3 0  9994
2 61565  88.9852  52.7456 0009522   4.8860 355.2382 13.50805233105147
QIANFAN-33              
1 61566U 24185Q   26256.58662887  .00000263  00000+0  17968-3 0  9999
2 61566  88.9822  48.1676 0007760 172.6297 187.4995 13.96750335107529
QIANFAN-34              
1 61567U 24185R   26256.56539086  .00000423  00000+0  26589-3 0  9999
2 61567  88.9801  47.3700 0006080 162.4612 197.6780 14.02516620107876
QIANFAN-35              
1 61568U 24185S   26256.55668665  .00000486  00000+0  18890-3 0  9990
2 61568  88.9835  44.6268 0008553 100.1343 260.0817 14.28353117109405
QIANFAN-36              
1 61569U 24185T   26256.61337336  .00000060  00000+0  68636-4 0  9998
2 61569  88.9789  52.3985 0005332 340.3721  19.7227 13.55646682105160
QIANFAN-37              
1 62238U 24232B   26256.54386293  .00000096  00000+0  12995-3 0  9998
2 62238  89.0151  13.7317 0002115  87.7339 272.4055 13.51029423136279
QIANFAN-38              
1 62239U 24232C   26256.56862336  .00000080  00000+0  10480-3 0  9998
2 62239  89.0158  13.6637 0016411 119.4276 240.8516 13.51027642136337
QIANFAN-39              
1 62240U 24232D   26256.59402037  .00000367  00000+0  14924-3 0  9996
2 62240  89.0139   6.0241 0013967 254.8802 105.0846 14.25557804140543
QIANFAN-40              
1 62241U 24232E   26256.60154350  .00000101  00000+0  13706-3 0  9994
2 62241  89.0186  13.3216 0015413 126.1624 234.0956 13.51027949136708
QIANFAN-41              
1 62242U 24232F   26256.60975331  .00000089  00000+0  11868-3 0  9997
2 62242  89.0156  13.6060 0015839 115.7705 244.5083 13.51029055136361
QIANFAN-42              
1 62243U 24232G   26256.55660746  .00000346  00000+0  14277-3 0  9996
2 62243  89.0137   6.1161 0012704 263.1058  96.8690 14.24644961140498
QIANFAN-43              
1 62244U 24232H   26256.60564112  .00000072  00000+0  93197-4 0  9998
2 62244  89.0160  13.6839 0017340 120.5654 239.7211 13.51028524104979
QIANFAN-44              
1 62245U 24232J   26256.59332403  .00000082  00000+0  10856-3 0  9994
2 62245  89.0159  13.4913 0015580 117.7669 242.5064 13.51028858136442
QIANFAN-45              
1 62246U 24232K   26256.56041896  .00000068  00000+0  86174-4 0  9996
2 62246  89.0162  13.6509 0016246 117.6002 242.6801 13.51027574136365
QIANFAN-46              
1 62247U 24232L   26256.58504603  .00000076  00000+0  99248-4 0  9994
2 62247  89.0158  13.7062 0016250 122.4574 237.8151 13.51028601136321
QIANFAN-47              
1 62248U 24232M   26256.58920139  .00000085  00000+0  11270-3 0  9999
2 62248  89.0154  13.6277 0016678 121.7410 238.5369 13.51027895136356
QIANFAN-48              
1 62249U 24232N   26256.62629895  .00000086  00000+0  11460-3 0  9992
2 62249  89.0158  13.6366 0018922 124.2547 236.0400 13.51022248136360
QIANFAN-49              
1 62250U 24232P   26256.61389656  .00000082  00000+0  10882-3 0  9994
2 62250  89.0157  13.6481 0016048 119.1206 241.1554 13.51029339104956
QIANFAN-50              
1 62251U 24232Q   26256.56448214  .00000085  00000+0  11298-3 0  9990
2 62251  89.0163  13.6762 0017695 120.6242 239.6657 13.51028834104979
QIANFAN-51              
1 62252U 24232R   26256.62211958  .00000086  00000+0  11425-3 0  9994
2 62252  89.0157  13.6474 0015121 123.5104 236.7495 13.51027852104971
QIANFAN-52              
1 62253U 24232S   26256.57684565  .00000087  00000+0  11637-3 0  9993
2 62253  89.0153  13.5148 0017219 116.8760 243.4153 13.51029835105057
QIANFAN-53              
1 62254U 24232T   26256.55633096  .00000073  00000+0  93616-4 0  9998
2 62254  89.0160  13.6421 0016088 117.8031 242.4754 13.51026625105012
QIANFAN-54              
1 62255U 24232U   26256.59742267  .00000079  00000+0  10433-3 0  9995
2 62255  89.0151  13.2923 0003563 134.9179 225.2262 13.51028409136528
QIANFAN-55              
1 62785U 25016A   26256.54944432  .00000028  00000+0  24183-4 0  9999
2 62785  88.9668  74.6822 0015508 274.9694  84.9686 13.51024559 84293
QIANFAN-56              
1 62786U 25016B   26256.56574924  .00000043  00000+0  47746-4 0  9994
2 62786  88.9642  74.4436 0014112 277.9851  81.9698 13.51027751 84346
QIANFAN-57              
1 62787U 25016C   26256.59883175  .00000041  00000+0  44998-4 0  9993
2 62787  88.9673  74.6792 0002520  85.4848 274.6591 13.51027460 84313
QIANFAN-58              
1 62788U 25016D   26256.57001450  .00000034  00000+0  34258-4 0  9990
2 62788  88.9643  74.4302 0011985 269.3844  90.5933 13.51019833 84354
QIANFAN-59              
1 62789U 25016E   26256.59454236  .00000041  00000+0  45554-4 0  9996
2 62789  88.9666  74.5662 0012370 273.6826  86.2910 13.51024209 84357
QIANFAN-60              
1 62790U 25016F   26256.55341549  .00000039  00000+0  42516-4 0  9998
2 62790  88.9648  74.4896 0013905 269.6978  90.2579 13.51027615 84333
QIANFAN-61              
1 62791U 25016G   26256.58637457  .00000032  00000+0  30409-4 0  9999
2 62791  88.9713  74.8351 0012879 269.0592  90.9084 13.51027191 84351
QIANFAN-62              
1 62792U 25016H   26256.59057297  .00000036  00000+0  37610-4 0  9994
2 62792  88.9661  74.5554 0014214 269.2814  90.6709 13.51019611 84348
QIANFAN-63              
1 62793U 25016J   26256.61520556  .00000039  00000+0  42190-4 0  9993
2 62793  88.9668  74.5229 0014292 275.2743  84.6777 13.51022741 84389
QIANFAN-64              
1 62794U 25016K   26256.58228515  .00000027  00000+0  23509-4 0  9990
2 62794  88.9655  74.4637 0012200 267.3842  92.5912 13.51027178 84374
QIANFAN-65              
1 62795U 25016L   26256.57805105  .00000028  00000+0  24599-4 0  9997
2 62795  88.9651  74.4803 0012067 269.3298  90.6470 13.51023339 84355
QIANFAN-66              
1 62796U 25016M   26256.60685104  .00000039  00000+0  41703-4 0  9995
2 62796  88.9671  74.5014 0013155 264.2453  95.7198 13.51019477 84406
QIANFAN-67              
1 62797U 25016N   26256.61098081  .00000036  00000+0  37999-4 0  9998
2 62797  88.9661  74.4995 0013125 272.1085  87.8563 13.51028859 84377
QIANFAN-68              
1 62798U 25016P   26256.60282234  .00000048  00000+0  55202-4 0  9993
2 62798  88.9664  74.5553 0013195 269.7320  90.2319 13.51021619 84355
QIANFAN-69              
1 62799U 25016Q   26256.54512667  .00000023  00000+0  17634-4 0  9993
2 62799  88.9644  74.3724 0013933 271.4912  88.4643 13.51023978 84381
QIANFAN-70              
1 62800U 25016R   26256.56171598  .00000053  00000+0  63908-4 0  9990
2 62800  88.9664  74.5663 0013550 260.4896  99.4723 13.51023456 84342
QIANFAN-71              
1 62801U 25016S   26256.55756691  .00000033  00000+0  32677-4 0  9990
2 62801  88.9658  74.5297 0013869 275.4847  84.4722 13.51026519 84340
QIANFAN-72              
1 62802U 25016T   26256.57411392  .00000034  00000+0  33668-4 0  9991
2 62802  88.9648  74.5145 0017179 283.2257  76.6977 13.51020458 84332
QIANFAN-73              
1 63159U 25046A   26256.45296580  .00000029  00000+0  26029-4 0  9994
2 63159  88.9652 291.5026 0016554  55.1349 305.1356 13.51024953 84500
QIANFAN-74              
1 63160U 25046B   26256.58462892  .00000001  00000+0 -17260-4 0  9999
2 63160  88.9654 291.3784 0001825  96.0264 264.1095 13.51018752 84580
QIANFAN-75              
1 63161U 25046C   26256.57237951  .00000090  00000+0  12098-3 0  9995
2 63161  88.9655 291.6174 0017747  57.7651 302.5217 13.51030147 84453
QIANFAN-76              
1 63162U 25046D   26256.56829129 -.00000090  00000+0 -15860-3 0  9991
2 63162  88.9655 291.5974 0015194  58.7812 301.4826 13.51020864 84465
QIANFAN-77              
1 63163U 25046E   26256.53345666  .00000095  00000+0  59589-4 0  9998
2 63163  88.9657 287.3427 0012813 308.0080  51.9939 13.96245937 86796
QIANFAN-78              
1 63164U 25046F   26256.53580089  .00000058  00000+0  70718-4 0  9995
2 63164  88.9654 291.4627 0016716  60.3677 299.9137 13.51011739 84534
QIANFAN-79              
1 63165U 25046G   26256.56404895  .00000022  00000+0  14775-4 0  9991
2 63165  88.9657 291.5767 0016379  59.0730 301.2028 13.51021070 84483
QIANFAN-80              
1 63166U 25046H   26256.58055086  .00000072  00000+0  92176-4 0  9994
2 63166  88.9654 291.2744 0015384  63.3875 296.8850 13.51029336 84649
QIANFAN-81              
1 63167U 25046J   26256.55990044  .00000081  00000+0  10678-3 0  9990
2 63167  88.9653 291.3439 0016331  53.6576 306.6080 13.51019864 84598
QIANFAN-82              
1 63168U 25046K   26256.59289582  .00000059  00000+0  72345-4 0  9998
2 63168  88.9654 291.3848 0014377  60.2937 299.9643 13.51020126 84588
QIANFAN-83              
1 63169U 25046L   26256.45428454  .00000075  00000+0  81605-4 0  9994
2 63169  88.9656 290.6340 0014879  32.7091 327.4985 13.62064590 84998
QIANFAN-84              
1 63170U 25046M   26256.54762432 -.00000053  00000+0 -10134-3 0  9999
2 63170  88.9655 291.5219 0017245  56.2805 303.9987 13.51017681 84503
QIANFAN-85              
1 63171U 25046N   26256.54347138  .00000083  00000+0  10942-3 0  9990
2 63171  88.9653 291.3921 0014905  59.1851 301.0765 13.51020254 84573
QIANFAN-86              
1 63172U 25046P   26256.55169663  .00000074  00000+0  95463-4 0  9999
2 63172  88.9655 291.2599 0012887  63.6844 296.5629 13.51025164 84656
QIANFAN-87              
1 63173U 25046Q   26256.59697366  .00000020  00000+0  11765-4 0  9994
2 63173  88.9652 291.3566 0013277  58.9478 301.2975 13.51031966 84591
QIANFAN-88              
1 63174U 25046R   26256.53934434  .00000077  00000+0  10026-3 0  9999
2 63174  88.9654 291.3239 0013901  66.4518 293.8092 13.51029274 84612
QIANFAN-89              
1 63175U 25046S   26256.57636713  .00000075  00000+0  97582-4 0  9994
2 63175  88.9654 291.5089 0018205  56.3989 303.8897 13.51024589 84518
QIANFAN-90              
1 63176U 25046T   26256.45709761  .00000024  00000+0  17710-4 0  9995
2 63176  88.9655 291.4947 0015108  56.2954 303.9635 13.51019721 84515
QIANFAN-91              
1 66033U 25233A   26256.63765949  .00000071  00000+0  91201-4 0  9997
2 66033  89.0044  34.2443 0001862  91.5788 268.5576 13.51028686 45121
QIANFAN-92              
1 66034U 25233B   26256.34986899  .00000065  00000+0  82633-4 0  9997
2 66034  89.0027  34.2306 0001959  99.3196 260.8177 13.50998526 45082
QIANFAN-93              
1 66035U 25233C   26256.35803758  .00000053  00000+0  63440-4 0  9993
2 66035  89.0054  34.3055 0002002  92.1067 268.0313 13.51000353 45088
QIANFAN-94              
1 66036U 25233D   26256.64182587  .00000071  00000+0  92128-4 0  9991
2 66036  89.0052  34.1773 0001814  97.5525 262.5832 13.51027073 45173
QIANFAN-95              
1 66037U 25233E   26256.35381601  .00000060  00000+0  74003-4 0  9998
2 66037  89.0049  33.7478 0001731  91.8285 268.3064 13.51021558 45381
QIANFAN-96              
1 66038U 25233F   26256.37845508  .00000067  00000+0  84538-4 0  9993
2 66038  89.0046  34.2863 0001866  89.0700 271.0665 13.51028223 45084
QIANFAN-97              
1 66039U 25233G   26256.65826906  .00000063  00000+0  78536-4 0  9993
2 66039  89.0050  34.2451 0001871  91.9982 268.1384 13.51028306 45125
QIANFAN-98              
1 66040U 25233H   26256.37026123  .00000059  00000+0  73226-4 0  9993
2 66040  89.0037  33.9954 0001511 108.1657 251.9659 13.51028455 45239
QIANFAN-99              
1 66041U 25233J   26256.37432736  .00000072  00000+0  92967-4 0  9993
2 66041  89.0050  34.2782 0001463  99.6336 260.4981 13.51034889 45097
QIANFAN-100             
1 66042U 25233K   26256.36613297  .00000054  00000+0  64367-4 0  9999
2 66042  89.0061  34.2159 0001898  92.2599 267.8769 13.51019521 45147
QIANFAN-101             
1 66043U 25233L   26256.65815026  .00000329  00000+0  12946-3 0  9996
2 66043  89.0052  30.4135 0014127 206.3033 153.7445 14.26858563 47247
QIANFAN-102             
1 66044U 25233M   26256.38670252  .00000063  00000+0  79355-4 0  9990
2 66044  89.0047  34.1847 0001757  97.4426 262.6925 13.51027778 45146
QIANFAN-103             
1 66045U 25233N   26256.61303227  .00000058  00000+0  71687-4 0  9996
2 66045  89.0051  34.2595 0001903  92.2338 267.9031 13.51020715 45129
QIANFAN-104             
1 66046U 25233P   26256.61705519  .00000055  00000+0  66978-4 0  9991
2 66046  89.0055  34.1652 0001810 100.0491 260.0864 13.51025825 45172
QIANFAN-105             
1 66047U 25233Q   26256.40318009  .00000058  00000+0  71327-4 0  9990
2 66047  89.0068  34.0413 0001867  96.3497 263.7867 13.50988204 45256
QIANFAN-106             
1 66048U 25233R   26256.39900973  .00000055  00000+0  65879-4 0  9998
2 66048  89.0037  34.2272 0001556 104.9029 255.2295 13.51029420 45090
QIANFAN-107             
1 66049U 25233S   26256.40725142  .00000062  00000+0  77195-4 0  9996
2 66049  89.0052  34.2727 0001899  93.3629 266.7739 13.51028612 45104
QIANFAN-108             
1 66050U 25233T   26256.41142177  .00000068  00000+0  86775-4 0  9990
2 66050  89.0047  34.2540 0001664 105.6276 254.5059 13.51028867 45100
QIANFAN-109             
1 68636U 26075A   26256.57337597  .00000069  00000+0  88665-4 0  9997
2 68636  88.9876 311.9955 0002242  85.3613 274.7795 13.51020323 21729
QIANFAN-110             
1 68637U 26075B   26256.58158292  .00000071  00000+0  92023-4 0  9998
2 68637  88.9876 312.0163 0002277  99.0242 261.1167 13.51031379 21727
QIANFAN-111             
1 68638U 26075C   26256.56946764  .00000073  00000+0  93786-4 0  9995
2 68638  88.9875 311.9764 0002262  98.5198 261.6209 13.51020770 21747
QIANFAN-112             
1 68639U 26075D   26256.60641218  .00000071  00000+0  91662-4 0  9996
2 68639  88.9874 311.9805 0002460  87.6717 272.4716 13.51023221 21746
QIANFAN-113             
1 68640U 26075E   26256.50338267  .00000075  00000+0  97362-4 0  9991
2 68640  88.9880 311.9898 0002356  96.6556 263.4863 13.51029308 21736
QIANFAN-114             
1 68641U 26075F   26256.58570870  .00000075  00000+0  97478-4 0  9996
2 68641  88.9875 311.9963 0002259  98.1945 261.9463 13.51027389 21731
QIANFAN-115             
1 68642U 26075G   26256.61457775  .00000064  00000+0  80539-4 0  9997
2 68642  88.9875 312.0005 0002163  94.8056 265.3342 13.51024053 21730
QIANFAN-116             
1 68643U 26075H   26256.60221025  .00000076  00000+0  99241-4 0  9997
2 68643  88.9868 311.9557 0002463  90.9330 269.2103 13.51024726 21744
QIANFAN-117             
1 68644U 26075J   26256.58995053  .00000082  00000+0  10797-3 0  9999
2 68644  88.9873 311.9767 0002256  91.5693 268.5717 13.51022498 21740
QIANFAN-118             
1 68645U 26075K   26256.62279642  .00000070  00000+0  89471-4 0  9997
2 68645  88.9877 311.9856 0002331 101.0503 259.0910 13.51024274 21749
QIANFAN-119             
1 68646U 26075L   26256.59800985  .00000082  00000+0  10760-3 0  9991
2 68646  88.9877 311.9838 0002130  87.8530 272.2865 13.51037397 21744
QIANFAN-120             
1 68647U 26075M   26256.61039400  .00000064  00000+0  80700-4 0  9993
2 68647  88.9879 311.9690 0002072  86.9036 273.2353 13.51019794 21754
QIANFAN-121             
1 68648U 26075N   26256.56115783  .00000074  00000+0  96536-4 0  9992
2 68648  88.9877 311.9770 0002251  99.8912 260.2493 13.51023336 21744
QIANFAN-122             
1 68649U 26075P   26256.62695358  .00000075  00000+0  98146-4 0  9991
2 68649  88.9875 311.9673 0002269  89.4624 270.6787 13.51026849 21742
QIANFAN-123             
1 68650U 26075Q   26256.00140472  .00000077  00000+0  10062-3 0  9999
2 68650  88.9873 312.0184 0002312  84.0815 276.0600 13.51032005 21647
QIANFAN-124             
1 68651U 26075R   26256.61874696  .00000064  00000+0  80748-4 0  9994
2 68651  88.9875 311.9667 0002306  88.3844 271.7572 13.51026414 21755
QIANFAN-125             
1 68652U 26075S   26256.55704428  .00000080  00000+0  10461-3 0  9995
2 68652  88.9875 311.9750 0002281  99.6608 260.4801 13.51023444 21743
QIANFAN-126             
1 68653U 26075T   26256.56511750  .00000082  00000+0  10853-3 0  9998
2 68653  88.9879 311.9433 0002271  84.2395 275.9015 13.51028845 21768
QIANFAN-127             
1 69073U 26104A   26256.57054264  .00000121  00000+0  16904-3 0  9998
2 69073  88.9931 332.4597 0002526 106.1958 253.9471 13.50993635 17095
QIANFAN-128             
1 69074U 26104B   26256.57865514  .00000128  00000+0  18025-3 0  9990
2 69074  88.9909 332.4841 0002145 114.3639 245.7736 13.51022843 17073
QIANFAN-129             
1 69075U 26104C   26256.60327368  .00000119  00000+0  16567-3 0  9994
2 69075  88.9911 332.4157 0002269 110.2445 249.8951 13.51022714 17110
QIANFAN-130             
1 69076U 26104D   26256.56622932  .00000117  00000+0  16198-3 0  9993
2 69076  88.9914 332.4852 0002559 100.7294 259.4146 13.51033345 17074
QIANFAN-131             
1 69077U 26104E   26256.51292447  .00000114  00000+0  15739-3 0  9990
2 69077  88.9907 332.4516 0002024 107.1927 252.9446 13.51024973 17084
QIANFAN-132             
1 69078U 26104F   26256.57446807  .00000124  00000+0  17368-3 0  9999
2 69078  88.9910 332.5018 0002416 102.6158 257.5264 13.51021133 17060
QIANFAN-133             
1 69079U 26104G   26256.50878419  .00000126  00000+0  17669-3 0  9997
2 69079  88.9913 332.4584 0001897 112.5504 247.5848 13.51029972 17075
QIANFAN-134             
1 69080U 26104H   26256.61161431  .00000123  00000+0  17188-3 0  9993
2 69080  88.9917 332.4741 0002100 113.3789 246.7583 13.51028278 17084
QIANFAN-135             
1 69081U 26104J   26256.51686395  .00000111  00000+0  15270-3 0  9991
2 69081  88.9911 332.4748 0002331 115.0038 245.1356 13.51021440 17072
QIANFAN-136             
1 69082U 26104K   26256.59923555  .00000114  00000+0  15722-3 0  9997
2 69082  88.9913 332.4694 0001950 113.1904 246.9453 13.51031384 17088
QIANFAN-137             
1 69083U 26104L   26256.59511291  .00000112  00000+0  15487-3 0  9994
2 69083  88.9922 332.3459 0002327 102.1685 257.9728 13.51031123 17156
QIANFAN-138             
1 69084U 26104M   26256.61972074  .00000124  00000+0  17405-3 0  9993
2 69084  88.9906 332.4676 0002477 109.7986 250.3433 13.51020926 17085
QIANFAN-139             
1 69085U 26104N   26256.60759605  .00000121  00000+0  16891-3 0  9991
2 69085  88.9908 332.4504 0002495 104.2507 255.8921 13.51029652 17095
QIANFAN-140             
1 69086U 26104P   26256.61562555  .00000133  00000+0  18722-3 0  9997
2 69086  88.9909 332.4531 0002421 114.3789 245.7615 13.51022013 17092
QIANFAN-141             
1 69087U 26104Q   26256.25360128  .00000127  00000+0  17761-3 0  9995
2 69087  88.9906 332.4545 0002220 113.6012 246.5372 13.51028001 17062
QIANFAN-142             
1 69088U 26104R   26256.55801095  .00000122  00000+0  17026-3 0  9991
2 69088  88.9905 332.4229 0002420 110.1156 250.0256 13.51030557 17109
QIANFAN-143             
1 69089U 26104S   26256.62808026  .00000110  00000+0  15195-3 0  9993
2 69089  88.9916 332.4217 0001969 106.0964 254.0404 13.51026544 17118
QIANFAN-144             
1 69090U 26104T   26256.63617691  .00000112  00000+0  15499-3 0  9991
2 69090  88.9914 332.4391 0002509 107.0403 253.1023 13.51030780 17104
QIANFAN-145             
1 69104U 26108A   26256.56644073  .00000085  00000+0  11307-3 0  9990
2 69104  89.0188  13.2216 0001620  99.0249 261.1085 13.51033239 16373
QIANFAN-146             
1 69105U 26108B   26256.59945359  .00000095  00000+0  12778-3 0  9999
2 69105  89.0190  13.0554 0001995  99.2768 260.8609 13.51038814 16476
QIANFAN-147             
1 69106U 26108C   26256.57483981  .00000098  00000+0  13332-3 0  9996
2 69106  89.0190  13.2251 0002079 103.5735 256.5648 13.51023829 16363
QIANFAN-148             
1 69107U 26108D   26256.56242701  .00000087  00000+0  11557-3 0  9994
2 69107  89.0183  13.2167 0001936 109.1677 250.9684 13.51023373 16362
QIANFAN-149             
1 69108U 26108E   26256.57058792  .00000088  00000+0  11768-3 0  9996
2 69108  89.0183  13.2372 0002227 110.5324 249.6066 13.51022844 16361
QIANFAN-150             
1 69109U 26108F   26256.57878885  .00000091  00000+0  12230-3 0  9999
2 69109  89.0188  13.1893 0002249 109.4189 250.7206 13.51023373 16383
QIANFAN-151             
1 69110U 26108G   26256.60777902  .00000094  00000+0  12633-3 0  9993
2 69110  89.0188  13.2101 0001818 101.4359 258.6997 13.51026511 16370
QIANFAN-152             
1 69111U 26108H   26256.58701454  .00000095  00000+0  12882-3 0  9997
2 69111  89.0184  13.2042 0002275  99.0466 261.0942 13.51027771 16388
QIANFAN-153             
1 69112U 26108J   26256.58289421  .00000094  00000+0  12763-3 0  9990
2 69112  89.0180  13.1812 0002212 105.1089 255.0307 13.51023713 16380
QIANFAN-154             
1 69113U 26108K   26256.59126731  .00000085  00000+0  11342-3 0  9998
2 69113  89.0191  13.2286 0002104 106.6880 253.4502 13.51025698 16376
QIANFAN-155             
1 69114U 26108L   26256.59525297  .00000087  00000+0  11614-3 0  9993
2 69114  89.0188  13.1928 0002239 106.9119 253.2278 13.51022588 16386
QIANFAN-156             
1 69115U 26108M   26256.54173267  .00000095  00000+0  12905-3 0  9998
2 69115  89.0203  13.1985 0001861 106.7987 253.3369 13.51022489 16392
QIANFAN-157             
1 69116U 26108N   26256.60364562  .00000091  00000+0  12184-3 0  9991
2 69116  89.0185  13.1170 0002003 111.5478 248.5887 13.51027188 16433
QIANFAN-158             
1 69117U 26108P   26255.87496874 -.02101120  00000+0 -34464+1 0  9993
2 69117  89.0185  13.2465 0036373 279.2462  80.4574 13.48013696 16312
QIANFAN-159             
1 69118U 26108Q   26256.61171158  .00000103  00000+0  14122-3 0  9999
2 69118  89.0178  13.1642 0001881 102.7546 257.3815 13.51022475 16402
QIANFAN-160             
1 69119U 26108R   26256.62830517  .00000088  00000+0  11837-3 0  9994
2 69119  89.0193  13.1990 0002350 107.9317 252.2090 13.51022671 16396
QIANFAN-161             
1 69120U 26108S   26255.89162697  .00000020  00000+0  12178-4 0  9997
2 69120  89.0199  13.1882 0001829 102.9991 257.1365 13.51037198 16341
QIANFAN-162             
1 69121U 26108T   26256.62405448  .00000089  00000+0  11978-3 0  9995
2 69121  89.0189  13.1416 0002163 100.0832 260.0563 13.51021905 16419
QIANFAN-163             
1 69325U 26121A   26256.51462725  .00000019  00000+0  10932-4 0  9998
2 69325  89.0110 291.7238 0002215 123.3613 236.7751 13.51022145 14096
QIANFAN-164             
1 69326U 26121B   26256.55577771  .00000040  00000+0  43716-4 0  9991
2 69326  89.0109 291.7102 0001928 111.3399 248.7959 13.51021223 14104
QIANFAN-165             
1 69382U 26124A   26256.56546724  .00000134  00000+0  18865-3 0  9991
2 69382  89.0073 352.7190 0001745 119.5329 240.5996 13.51020863 13975
QIANFAN-166             
1 69383U 26124B   26256.56961844  .00000136  00000+0  19148-3 0  9993
2 69383  89.0091 352.7282 0001831 102.1044 258.0313 13.51021406 13977
QIANFAN-167             
1 69384U 26124C   26256.57365492  .00000123  00000+0  17211-3 0  9997
2 69384  89.0065 352.7351 0002173 108.1277 252.0112 13.51030434 13961
QIANFAN-168             
1 69385U 26124D   26256.57766166  .00000119  00000+0  16615-3 0  9993
2 69385  89.0061 352.7149 0001623 103.7457 256.3875 13.51019079 13979
QIANFAN-169             
1 69386U 26124E   26256.58193504  .00000129  00000+0  18153-3 0  9995
2 69386  89.0059 352.7143 0001888  98.5946 261.5419 13.51022364 13971
QIANFAN-170             
1 69387U 26124F   26256.58601291  .00000127  00000+0  17884-3 0  9991
2 69387  89.0077 352.6850 0001861  96.3183 263.8180 13.51024787 13999
QIANFAN-171             
1 69388U 26124G   26256.59431088  .00000131  00000+0  18375-3 0  9999
2 69388  89.0092 352.6958 0002113 104.1990 255.9396 13.51017797 13995
QIANFAN-172             
1 69389U 26124H   26256.59013397  .00000136  00000+0  19213-3 0  9996
2 69389  89.0075 352.6872 0001692 115.0418 245.0909 13.51028386 13995
QIANFAN-173             
1 69390U 26124J   26256.59822163  .00000139  00000+0  19726-3 0  9999
2 69390  89.0064 352.6835 0001644  98.9772 261.1565 13.51021381 13998
QIANFAN-174             
1 69391U 26124K   26256.61065276  .00000121  00000+0  16938-3 0  9990
2 69391  89.0044 352.6410 0002168 110.3041 249.8343 13.51029207 14001
QIANFAN-175             
1 69392U 26124L   26256.61484809  .00000125  00000+0  17448-3 0  9999
2 69392  89.0096 352.6822 0001842 100.6415 259.4944 13.51019286 14001
QIANFAN-176             
1 69393U 26124M   26256.54488448  .00000120  00000+0  16670-3 0  9996
2 69393  89.0058 352.6716 0001852 100.7604 259.3756 13.51020032 13981
QIANFAN-177             
1 69394U 26124N   26256.55313875  .00000129  00000+0  18157-3 0  9990
2 69394  89.0068 352.6587 0002059 109.7881 250.3492 13.51029101 14003
QIANFAN-178             
1 69395U 26124P   26256.54894591  .00000127  00000+0  17748-3 0  9992
2 69395  89.0014 352.6185 0001869 100.1736 259.9626 13.51025027 14019
QIANFAN-179             
1 69396U 26124Q   26256.55725839  .00000130  00000+0  18291-3 0  9990
2 69396  89.0046 352.6336 0001856  99.4159 260.7202 13.51028680 14016
QIANFAN-180             
1 69397U 26124R   26256.56134653  .00000132  00000+0  18518-3 0  9994
2 69397  89.0052 352.6538 0001885  95.4013 264.7353 13.51020983 14003
QIANFAN-181             
1 69398U 26124S   26256.60248609  .00000135  00000+0  19052-3 0  9994
2 69398  89.0075 352.7417 0002138 106.6165 253.5222 13.51022683 13965
QIANFAN-182             
1 69399U 26124T   26256.60655429  .00000133  00000+0  18753-3 0  9992
2 69399  89.0049 352.7133 0001831 102.3392 257.7964 13.51027246 13965
QIANFAN-183             
1 69401U 26125A   26256.56711303  .00000013  00000+0  21194-5 0  9998
2 69401  88.9833 271.0153 0001938 101.8046 258.3322 13.51027441 13873
QIANFAN-184             
1 69402U 26125B   26256.57536402  .00000019  00000+0  10350-4 0  9992
2 69402  88.9884 271.0383 0001917  97.3768 262.7601 13.51028551 13874
QIANFAN-185             
1 69403U 26125C   26256.45196768  .00000024  00000+0  18997-4 0  9998
2 69403  88.9899 270.9899 0001833  98.8313 261.3045 13.51017602 13894
QIANFAN-186             
1 69404U 26125D   26256.57122475  .00000008  00000+0 -60360-5 0  9991
2 69404  88.9886 271.0386 0001977  96.2843 263.8534 13.51008231 13879
QIANFAN-187             
1 69405U 26125E   26256.57940041  .00000011  00000+0 -11755-5 0  9997
2 69405  88.9886 271.0205 0002090 100.8410 259.2976 13.51007254 13883
QIANFAN-188             
1 69406U 26125F   26256.58762767  .00000027  00000+0  22614-4 0  9997
2 69406  88.9884 271.0196 0001945 103.1642 256.9726 13.51029241 13889
QIANFAN-189             
1 69407U 26125G   26256.59578839  .00000012  00000+0  17996-6 0  9997
2 69407  88.9867 271.0145 0001941 108.8519 251.2843 13.51028411 13871
QIANFAN-190             
1 69408U 26125H   26256.58346831  .00000017  00000+0  84296-5 0  9993
2 69408  88.9868 271.0135 0001866  95.8323 264.3041 13.51033207 13881
QIANFAN-191             
1 69409U 26125J   26256.53415979  .00000011  00000+0 -13052-5 0  9996
2 69409  88.9882 271.0297 0001914 102.5429 257.5936 13.51032860 13874
QIANFAN-192             
1 69410U 26125K   26256.59165659  .00000014  00000+0  22907-5 0  9992
2 69410  88.9888 271.0239 0002006 106.7109 253.4263 13.51030057 13887
QIANFAN-193             
1 69411U 26125L   26256.61651148  .00000014  00000+0  23739-5 0  9993
2 69411  88.9867 270.9990 0001821 102.7075 257.4280 13.51027364 13890
QIANFAN-194             
1 69412U 26125M   26256.53831533  .00000009  00000+0 -52751-5 0  9994
2 69412  88.9899 271.0195 0001948 102.5954 257.5415 13.51026053 13872
QIANFAN-195             
1 69413U 26125N   26256.62058579  .00000008  00000+0 -61312-5 0  9998
2 69413  88.9905 270.9960 0001895  88.2477 271.8892 13.51011373 13901
QIANFAN-196             
1 69414U 26125P   26256.55474189  .00000015  00000+0  41317-5 0  9990
2 69414  88.9906 271.0064 0001854  92.1552 267.9812 13.51035219 13894
QIANFAN-197             
1 69415U 26125Q   26256.56303545  .00000018  00000+0  87781-5 0  9997
2 69415  88.9880 270.9786 0001932 100.3386 259.7983 13.51023705 13894
QIANFAN-198             
1 69416U 26125R   26256.62472770  .00000017  00000+0  75866-5 0  9992
2 69416  88.9874 270.9853 0001944 103.2641 256.8728 13.51028025 13909
QIANFAN-199             
1 69417U 26125S   26256.55893343  .00000020  00000+0  12563-4 0  9996
2 69417  88.9878 270.9419 0002144 102.5040 257.6352 13.51025656 13921
QIANFAN-200             
1 69418U 26125T   26256.45601636  .00000017  00000+0  69873-5 0  9991
2 69418  88.9885 271.0376 0001920 106.0831 254.0531 13.51026149 13863
QIANFAN-201             
1 69800U 26153A   26256.37326102  .00000007  00000+0 -46856-5 0  9996
2 69800  88.9980 352.2472 0005977  29.6834 330.4683 14.00502405 10056
QIANFAN-202             
1 69801U 26153B   26255.76944429 -.01880225  00000+0 -12315+1 0  9995
2 69801  88.9973 352.2867 0010354 352.2795   7.8226 14.05921694  9970
QIANFAN-203             
1 69802U 26153C   26255.69709863 -.01922427  00000+0 -13016+1 0  9999
2 69802  88.9977 352.3320 0008710 329.9817  30.0863 14.04167785  9954
QIANFAN-204             
1 69803U 26153D   26255.79332583 -.01905563  00000+0 -12649+1 0  9995
2 69803  88.9974 352.3095 0008689 353.5900   6.5169 14.05234417  9979
QIANFAN-205             
1 69804U 26153E   26255.81086797 -.01894938  00000+0 -13145+1 0  9997
2 69804  88.9971 352.3299 0009689 335.7598  24.3126 14.02748808  9960
QIANFAN-206             
1 69805U 26153F   26255.76993200 -.01887813  00000+0 -12044+1 0  9999
2 69805  88.9972 352.2870 0007365  29.8502 330.3100 14.07404191  9984
QIANFAN-207             
1 69806U 26153G   26256.60358032  .00000057  00000+0  25752-4 0  9990
2 69806  88.9980 352.2257 0007367   3.4208 356.7024 14.07266403 10088
QIANFAN-208             
1 69807U 26153H   26255.86780632 -.01768352  00000+0 -13130+1 0  9998
2 69807  88.9973 352.3017 0005761  96.2906 263.8928 13.99307258  9990
QIANFAN-209             
1 69808U 26153J   26255.69695529 -.01903673  00000+0 -13219+1 0  9995
2 69808  88.9975 352.3318 0010108 328.8045  31.2534 14.02708941  9951
QIANFAN-210             
1 69809U 26153K   26255.81454802 -.02008429  00000+0 -13665+1 0  9998
2 69809  88.9974 352.3125 0007526 320.0559  40.0067 14.04072116  9972
QIANFAN-211             
1 69810U 26153L   26256.57151212  .00000310  00000+0  15454-3 0  9991
2 69810  88.9982 352.2027 0007545   8.7794 351.3523 14.14537974 10094
QIANFAN-212             
1 69811U 26153M   26256.60314083  .00000056  00000+0  23543-4 0  9999
2 69811  88.9981 352.2066 0008966   9.2427 350.8921 14.10361090 10090
QIANFAN-213             
1 69812U 26153N   26255.83325485 -.01883897  00000+0 -12613+1 0  9999
2 69812  88.9975 352.2964 0010762 342.5977  17.4834 14.04702723  9981
QIANFAN-214             
1 69813U 26153P   26255.80747646 -.01879970  00000+0 -11758+1 0  9990
2 69813  88.9973 352.2548 0008486  40.8891 319.2928 14.08481155 10000
QIANFAN-215             
1 69814U 26153Q   26255.79014727 -.01998857  00000+0 -11218+1 0  9993
2 69814  88.9973 352.2140 0006499  17.5644 342.5767 14.14653876 10028
QIANFAN-216             
1 69815U 26153R   26255.82698203 -.01908414  00000+0 -11483+1 0  9999
2 69815  88.9974 352.2392 0006286  98.1097 262.0802 14.10675742 10017
QIANFAN-217             
1 69816U 26153S   26255.78813626 -.01839272  00000+0 -94087+0 0  9998
2 69816  88.9974 352.1761 0010313   1.1434 358.9777 14.19295702 10044
QIANFAN-218             
1 69817U 26153T   26255.85586365 -.01869650  00000+0 -94711+0 0  9991
2 69817  88.9976 352.1701 0009092   5.8997 354.2299 14.19885194 10057
QIANFAN-219             
1 69848U 26155A   26255.93419433  .00000004  00000+0 -10801-4 0  9998
2 69848  89.0074  54.4639 0037630  31.1786 329.1590 13.57836569  9710
QIANFAN-220             
1 69849U 26155B   26255.80675509 -.01849914  00000+0 -27774+1 0  9999
2 69849  89.0077  54.5052 0034424  34.2223 326.1141 13.57140094  9688
QIANFAN-221             
1 69850U 26155C   26255.85781183 -.01913111  00000+0 -19547+1 0  9992
2 69850  89.0074  54.2918 0031928  43.9418 316.4280 13.80200443  9805
QIANFAN-222             
1 69851U 26155D   26255.89725986  .00000010  00000+0 -34974-5 0  9995
2 69851  89.0080  54.5147 0034968  30.8168 329.5030 13.57844050  9680
QIANFAN-223             
1 69852U 26155E   26255.81314820 -.01861145  00000+0 -31519+1 0  9992
2 69852  89.0077  54.5223 0037515  29.9736 330.3551 13.49473844  9670
QIANFAN-224             
1 69853U 26155F   26256.34666771  .00000011  00000+0 -14435-5 0  9995
2 69853  89.0059  54.4226 0035947  34.2432 326.1031 13.57849981  9766
QIANFAN-225             
1 69854U 26155G   26255.75446395 -.01902212  00000+0 -30856+1 0  9994
2 69854  89.0069  54.5275 0039319  39.2339 321.1651 13.52294811  9664
QIANFAN-226             
1 69855U 26155H   26255.91672919  .00000019  00000+0  87140-5 0  9990
2 69855  89.0072  54.4960 0036417  31.9107 328.4244 13.57849848  9699
QIANFAN-227             
1 69856U 26155J   26255.80792295 -.01881600  00000+0 -31005+1 0  9999
2 69856  89.0070  54.5011 0037000  37.2728 323.0981 13.51279880  9688
QIANFAN-228             
1 69857U 26155K   26256.53320524  .00000017  00000+0  59188-5 0  9992
2 69857  89.0079  54.4255 0036410  31.4104 328.9215 13.57843890  9784
QIANFAN-229             
1 69858U 26155L   26255.84419612 -.01823840  00000+0 -28901+1 0  9997
2 69858  89.0077  54.4703 0033063  37.4866 322.8583 13.53684208  9708
QIANFAN-230             
1 69859U 26155M   26255.80214761 -.01830051  00000+0 -29257+1 0  9999
2 69859  89.0071  54.5168 0035326  39.5652 320.8069 13.53107896  9675
QIANFAN-231             
1 69860U 26155N   26255.82704623 -.01789649  00000+0 -28200+1 0  9997
2 69860  89.0069  54.4682 0034387  32.0824 328.2413 13.53941825  9706
QIANFAN-232             
1 69861U 26155P   26255.81133715 -.01872532  00000+0 -30446+1 0  9994
2 69861  89.0065  54.4638 0026562  37.4305 322.8691 13.52243588  9701
QIANFAN-233             
1 69862U 26155Q   26255.80304092 -.01845382  00000+0 -28814+1 0  9991
2 69862  89.0074  54.4645 0037770  36.7173 323.6556 13.54604810  9708
QIANFAN-234             
1 69863U 26155R   26255.76644509 -.01854663  00000+0 -25003+1 0  9996
2 69863  89.0069  54.4230 0036231  27.4674 332.8389 13.63850804  9721
QIANFAN-235             
1 69864U 26155S   26255.85709555 -.01889323  00000+0 -16432+1 0  9997
2 69864  89.0075  54.2567 0030956  27.0208 333.2569 13.89628931  9825
QIANFAN-236             
1 69865U 26155T   26255.82969154 -.01772859  00000+0 -27950+1 0  9990
2 69865  89.0077  54.4881 0032102  34.3905 325.9316 13.53900288  9691
QIANFAN-237             
1 69866U 26155U   26255.82104559 -.01835824  00000+0 -28098+1 0  9997
2 69866  89.0076  54.4509 0034492  32.4253 327.9010 13.55892144  9705
QIANFAN-238             
1 69867U 26155V   26255.97144311 -.01768412  00000+0 -27971+1 0  9991
2 69867  89.0079  54.4533 0025012  37.2347 323.0534 13.53763994  9729
