IRIDIUM 106             
1 41917U 17003A   26260.95738755  .00000012  00000+0 -26487-5 0  9993
2 41917  86.3943  49.7383 0001789  86.3862 273.7538 14.34216255506503
IRIDIUM 103             
1 41918U 17003B   26261.36331417 -.00000021  00000+0 -14403-4 0  9999
2 41918  86.3946  49.4684 0002170  89.3098 270.8347 14.34216515506580
IRIDIUM 109             
1 41919U 17003C   26261.64873980  .00000168  00000+0  53103-4 0  9997
2 41919  86.3948  49.4095 0002152  91.8452 268.2990 14.34214869506597
IRIDIUM 102             
1 41920U 17003D   26261.68678354  .00000487  00000+0  16670-3 0  9992
2 41920  86.3948  49.3153 0002043  92.5195 267.6235 14.34218056506681
IRIDIUM 105             
1 41921U 17003E   26261.29654189  .00000067  00000+0  16997-4 0  9997
2 41921  86.4011  17.9334 0002338  97.7546 262.3915 14.34218005508481
IRIDIUM 104             
1 41922U 17003F   26261.35063723  .00000180  00000+0  57049-4 0  9992
2 41922  86.3948  49.4997 0002433  93.3742 266.7732 14.34220478506627
IRIDIUM 114             
1 41923U 17003G   26261.35697573  .00000187  00000+0  59803-4 0  9996
2 41923  86.3949  49.4801 0002206  91.0329 269.1119 14.34217044506606
IRIDIUM 108             
1 41924U 17003H   26261.59456610  .00000048  00000+0  10155-4 0  9991
2 41924  86.4008  17.6936 0002177  96.4022 263.7422 14.34217540508493
IRIDIUM 112             
1 41925U 17003J   26260.92567418  .00000129  00000+0  39127-4 0  9997
2 41925  86.3944  49.4983 0002210  92.8851 267.2598 14.34218925506562
IRIDIUM 111             
1 41926U 17003K   26260.91299304  .00000184  00000+0  58790-4 0  9991
2 41926  86.3946  49.5763 0002139  90.7922 269.3518 14.34216881506540
IRIDIUM 113             
1 42803U 17039A   26260.61387904 -.00000001  00000+0 -75181-5 0  9990
2 42803  86.3920 283.5434 0002228  93.0397 267.1053 14.34217472484433
IRIDIUM 123             
1 42804U 17039B   26261.42281155  .00000075  00000+0  19892-4 0  9997
2 42804  86.3976 314.6856 0002224  90.3510 269.7940 14.34217879483312
IRIDIUM 120             
1 42805U 17039C   26261.72383256  .00000007  00000+0 -44329-5 0  9996
2 42805  86.3906 282.8488 0002031  90.7244 269.4185 14.34217442484581
IRIDIUM 115             
1 42806U 17039D   26261.71520256  .00000069  00000+0  14556-4 0  9994
2 42806  86.4445 282.9943 0002308  86.4213 273.7252 14.43281699487753
IRIDIUM 118             
1 42807U 17039E   26260.68707118  .00000114  00000+0  33656-4 0  9997
2 42807  86.3977 314.9908 0002224  95.1162 265.0287 14.34217858483201
IRIDIUM 117             
1 42808U 17039F   26261.40378380  .00000074  00000+0  19392-4 0  9990
2 42808  86.3974 314.6479 0002237  92.5404 267.6048 14.34217744483334
IRIDIUM 126             
1 42809U 17039G   26261.15008059  .00000054  00000+0  12220-4 0  9997
2 42809  86.3976 314.8067 0002344  93.1927 266.9537 14.34217604483271
IRIDIUM 124             
1 42810U 17039H   26261.23303801  .00000126  00000+0  31336-4 0  9990
2 42810  86.4438 251.4340 0002354  86.8737 273.2733 14.43280253488539
IRIDIUM 128             
1 42811U 17039J   26261.21058641  .00000374  00000+0  12647-3 0  9996
2 42811  86.4022 346.2795 0001802  93.1912 266.9490 14.34219152483319
IRIDIUM 121             
1 42812U 17039K   26260.68072926 -.00000022  00000+0 -14898-4 0  9992
2 42812  86.3977 315.0309 0002058  94.9268 265.2163 14.34216951483087
IRIDIUM 133             
1 42955U 17061A   26261.52137413  .00000062  00000+0  14902-4 0  9990
2 42955  86.4027 346.2700 0002176  94.2214 265.9230 14.34217934468153
IRIDIUM 100             
1 42956U 17061B   26261.51503122  .00000115  00000+0  34118-4 0  9994
2 42956  86.4025 346.1890 0002182  94.8556 265.2889 14.34218176468155
IRIDIUM 122             
1 42957U 17061C   26261.55308747  .00000094  00000+0  26502-4 0  9999
2 42957  86.4024 346.1736 0002246  93.0199 267.1253 14.34217333468160
IRIDIUM 129             
1 42958U 17061D   26261.50868935  .00000065  00000+0  16002-4 0  9997
2 42958  86.4025 346.2601 0002388  98.0744 262.0723 14.34217814468173
IRIDIUM 119             
1 42959U 17061E   26261.47697622  .00000086  00000+0  23757-4 0  9995
2 42959  86.4023 346.2695 0002282  94.2760 265.8697 14.34217869468186
IRIDIUM 107             
1 42960U 17061F   26261.49600338  .00000072  00000+0  18616-4 0  9990
2 42960  86.4025 346.2833 0002232  88.6315 271.5136 14.34218110468195
IRIDIUM 132             
1 42961U 17061G   26261.50234628  .00000040  00000+0  72716-5 0  9995
2 42961  86.4026 346.2596 0002223  94.9129 265.2321 14.34217846468197
IRIDIUM 136             
1 42962U 17061H   26260.76660547  .00000071  00000+0  18154-4 0  9995
2 42962  86.4026 346.5738 0002171  95.3213 264.8231 14.34217909468106
IRIDIUM 139             
1 42963U 17061J   26260.77294815  .00000062  00000+0  15019-4 0  9995
2 42963  86.4028 346.6346 0002166  94.0174 266.1269 14.34217809468117
IRIDIUM 125             
1 42964U 17061K   26261.52771751  .00000016  00000+0 -12390-5 0  9999
2 42964  86.4028 346.3822 0002611  87.0337 273.1158 14.34217764468230
IRIDIUM 135             
1 43070U 17083A   26261.01346225  .00000022  00000+0  87838-6 0  9996
2 43070  86.3913 283.2071 0002259  91.8180 268.3275 14.34217699457458
IRIDIUM 138             
1 43071U 17083B   26261.31790719 -.00000001  00000+0 -75845-5 0  9994
2 43071  86.3927 282.7892 0002272  91.3434 268.8022 14.34217311457480
IRIDIUM 116             
1 43072U 17083C   26261.35596160  .00000018  00000+0 -48843-6 0  9999
2 43072  86.3912 283.0484 0001999  89.4981 270.6443 14.34217708457529
IRIDIUM 130             
1 43073U 17083D   26261.32424963 -.00000003  00000+0 -81301-5 0  9998
2 43073  86.3921 283.3461 0002017  86.8945 273.2482 14.34217369457469
IRIDIUM 151             
1 43074U 17083E   26261.57795361 -.00000031  00000+0 -18146-4 0  9996
2 43074  86.3912 283.0151 0002090  91.9976 268.1459 14.34217051457527
IRIDIUM 134             
1 43075U 17083F   26261.05786057 -.00000015  00000+0 -12404-4 0  9995
2 43075  86.3915 283.2424 0002114  90.4030 269.7408 14.34217337457414
IRIDIUM 137             
1 43076U 17083G   26261.69846220 -.00000051  00000+0 -25153-4 0  9990
2 43076  86.3916 283.0690 0001879  97.8972 262.2437 14.34217155457577
IRIDIUM 141             
1 43077U 17083H   26261.06420263  .00000005  00000+0 -52586-5 0  9996
2 43077  86.3912 283.1597 0002196  92.4377 267.7070 14.34217576457484
IRIDIUM 153             
1 43078U 17083J   26261.50475938  .00000036  00000+0  58292-5 0  9998
2 43078  86.3916 251.4362 0002398  87.1172 273.0299 14.34217489458651
IRIDIUM 131             
1 43079U 17083K   26261.33059193 -.00000074  00000+0 -33534-4 0  9996
2 43079  86.3919 283.2407 0002141  92.8883 267.2558 14.34216841457457
IRIDIUM 144             
1 43249U 18030A   26261.58087221  .00000020  00000+0  15462-6 0  9999
2 43249  86.3913 251.3312 0002147  87.8851 272.2590 14.34217667443528
IRIDIUM 149             
1 43250U 18030B   26261.72675205  .00000055  00000+0  12448-4 0  9999
2 43250  86.3912 251.2362 0002347  88.6003 271.5461 14.34217736443563
IRIDIUM 157             
1 43251U 18030C   26261.53647381  .00000103  00000+0  29627-4 0  9994
2 43251  86.3913 251.3710 0002267  88.1108 272.0347 14.34217791443510
IRIDIUM 140             
1 43252U 18030D   26261.69503728  .00000092  00000+0  25962-4 0  9993
2 43252  86.3913 251.3170 0002275  87.5173 272.6283 14.34217776443591
IRIDIUM 145             
1 43253U 18030E   26261.68235345  .00000022  00000+0  94318-6 0  9996
2 43253  86.3913 251.2944 0002025  86.0958 274.0469 14.34217462443525
IRIDIUM 146             
1 43254U 18030F   26261.38424933  .00000104  00000+0  30121-4 0  9998
2 43254  86.3912 251.4311 0002179  87.7784 272.3661 14.34217532443499
IRIDIUM 148             
1 43255U 18030G   26261.49207506  .00000083  00000+0  22483-4 0  9994
2 43255  86.3914 251.4305 0002231  90.8531 269.2920 14.34217996443542
IRIDIUM 142             
1 43256U 18030H   26261.25105484  .00000045  00000+0  88997-5 0  9992
2 43256  86.3911 251.4170 0002122  88.5252 271.6187 14.34217676443472
IRIDIUM 150             
1 43257U 18030J   26260.45188877  .00000002  00000+0 -63068-5 0  9997
2 43257  86.3912 251.8711 0002113  86.7749 273.3689 14.34217444443389
IRIDIUM 143             
1 43258U 18030K   26261.68869440 -.00000025  00000+0 -16116-4 0  9993
2 43258  86.3917 251.4498 0002104  85.2978 274.8458 14.34216842443494
IRIDIUM 161             
1 43478U 18047C   26261.34964095  .00000093  00000+0  21760-4 0  9994
2 43478  86.4468  49.4826 0002285  95.6428 264.5033 14.43278767438577
IRIDIUM 152             
1 43479U 18047D   26261.66141514  .00000176  00000+0  55818-4 0  9996
2 43479  86.3943  49.2146 0002170  92.2521 267.8923 14.34218393435882
IRIDIUM 147             
1 43480U 18047E   26260.97008673  .00000179  00000+0  56911-4 0  9997
2 43480  86.3943  49.5107 0002027  91.3096 268.8332 14.34213757435785
IRIDIUM 110             
1 43481U 18047F   26261.39502633  .00000005  00000+0 -54247-5 0  9990
2 43481  86.3941  49.4271 0002230  95.2784 264.8666 14.34217646435831
IRIDIUM 162             
1 43482U 18047G   26261.41265804  .00000234  00000+0  63697-4 0  9991
2 43482  86.4466  49.3464 0002185  90.9498 269.1953 14.43281181438577
IRIDIUM 160             
1 43569U 18061A   26261.61993465  .00000106  00000+0  30660-4 0  9998
2 43569  86.4010  17.7233 0002153  95.7966 264.3475 14.34218012426766
IRIDIUM 166             
1 43570U 18061B   26261.57553701  .00000110  00000+0  32092-4 0  9996
2 43570  86.4009  17.6912 0002091  94.1941 265.9494 14.34217711426781
IRIDIUM 158             
1 43571U 18061C   26261.26475090  .00000101  00000+0  29051-4 0  9998
2 43571  86.4009  17.8309 0002203  92.9111 267.2337 14.34218199426708
IRIDIUM 165             
1 43572U 18061D   26261.56919494  .00000085  00000+0  23291-4 0  9994
2 43572  86.4013  17.7521 0002109  93.6731 266.4705 14.34218092426779
IRIDIUM 155             
1 43573U 18061E   26261.60090799  .00000069  00000+0  17446-4 0  9995
2 43573  86.4007  17.6032 0002149  92.0923 268.0519 14.34217872426742
IRIDIUM 154             
1 43574U 18061F   26261.58188044  .00000024  00000+0  15051-5 0  9996
2 43574  86.4010  17.7492 0002067  94.3833 265.7599 14.34217680426796
IRIDIUM 163             
1 43575U 18061G   26261.56285267  .00000098  00000+0  27999-4 0  9994
2 43575  86.4009  17.6695 0002216  94.8144 265.3305 14.34218080426768
IRIDIUM 156             
1 43576U 18061H   26261.32817359  .00000177  00000+0  56002-4 0  9997
2 43576  86.4009  17.7751 0002128  90.7274 269.4166 14.34218185426726
IRIDIUM 164             
1 43577U 18061J   26261.30914759  .00000111  00000+0  32429-4 0  9993
2 43577  86.4010  17.8248 0002007  94.7053 265.4372 14.34218365426765
IRIDIUM 159             
1 43578U 18061K   26261.27743601  .00000074  00000+0  19507-4 0  9996
2 43578  86.4007  17.7730 0002218  95.0365 265.1084 14.34217793426728
IRIDIUM 180             
1 43922U 19002A   26260.71878417  .00000085  00000+0  23193-4 0  9995
2 43922  86.3975 314.9396 0002235  95.8740 264.2711 14.34217961402254
IRIDIUM 176             
1 43923U 19002B   26261.68256625  .00000425  00000+0  63483-4 0  9998
2 43923  86.6094 314.4671 0002402  92.7820 267.3672 14.72249166413001
IRIDIUM 168             
1 43924U 19002C   26261.13105176  .00000093  00000+0  26131-4 0  9993
2 43924  86.3975 314.8473 0002227  96.0589 264.0860 14.34216942402291
IRIDIUM 173             
1 43925U 19002D   26261.67651605  .00000010  00000+0 -34493-5 0  9997
2 43925  86.3971 314.5040 0002264  93.5966 266.5488 14.34217254402354
IRIDIUM 169             
1 43926U 19002E   26261.52653131  .00000210  00000+0  62018-4 0  9992
2 43926  86.4282 346.1917 0002254  85.0263 275.1193 14.38606582403642
IRIDIUM 172             
1 43927U 19002F   26261.67017294  .00000133  00000+0  40549-4 0  9992
2 43927  86.3973 314.5151 0002262  94.7983 265.3471 14.34218585402369
IRIDIUM 175             
1 43928U 19002G   26260.94852350  .00000118  00000+0  28983-4 0  9993
2 43928  86.4467 251.7257 0000982 293.5614  66.5484 14.43646107412366
IRIDIUM 171             
1 43929U 19002H   26261.09299686  .00000143  00000+0  44104-4 0  9999
2 43929  86.3982 315.0727 0002154  93.2486 266.8956 14.34218138402276
IRIDIUM 170             
1 43930U 19002J   26261.28092468  .00000049  00000+0  38098-5 0  9992
2 43930  86.6095 314.6368 0002466  94.9315 265.2184 14.72250462412957
IRIDIUM 167             
1 43931U 19002K   26260.87734842  .00000083  00000+0  22424-4 0  9999
2 43931  86.3974 314.8695 0002075  89.6101 270.5332 14.34217472402243
IRIDIUM 181             
1 56726U 23068S   26261.56247527  .00000209  00000+0  56148-4 0  9998
2 56726  86.4544  17.7500 0002162  98.4418 261.7028 14.43309422175904
IRIDIUM 177             
1 56727U 23068T   26261.04474761  .00000358  00000+0  46953-4 0  9992
2 56727  86.1919 284.7385 0002566  90.6996 269.4517 14.77165542180092
IRIDIUM 174             
1 56728U 23068U   26261.13263003  .00000508  00000+0  76593-4 0  9998
2 56728  86.6109 314.8568 0002368  86.3799 273.7689 14.72249367179695
IRIDIUM 178             
1 56729U 23068V   26261.20730113  .00000723  00000+0  92062-4 0  9996
2 56729  86.6595 346.5177 0002566  93.3069 266.8446 14.80043220180124
IRIDIUM 179             
1 56730U 23068W   26261.53997469  .00000722  00000+0  92071-4 0  9992
2 56730  86.6839 355.6294 0002318  90.0334 270.1153 14.80035795180178
