KUIPER-00008            
1 63724U 25088A   26254.57811665 -.00000258  00000+0 -49068-5 0  9991
2 63724  51.9033 346.0101 0000417  98.5536 261.5473 14.79927696 75570
KUIPER-00009            
1 63725U 25088B   26254.51719069  .00005243  00000+0  35517-3 0  9990
2 63725  51.9034 355.3880 0000631 116.6118 243.4922 15.07976949 75435
KUIPER-00010            
1 63726U 25088C   26254.48224140 -.00000181  00000+0  52114-5 0  9999
2 63726  51.9033 341.5438 0000444  96.6873 263.4140 14.79928473 75248
KUIPER-00011            
1 63727U 25088D   26254.50792396 -.00000398  00000+0 -23253-4 0  9998
2 63727  51.9025 348.9727 0000403  95.0270 265.0739 14.79927093 75273
KUIPER-00012            
1 63728U 25088E   26254.42279490 -.00000259  00000+0 -49290-5 0  9991
2 63728  51.9036 334.2896 0000235  61.9409 298.1577 14.79923492 75423
KUIPER-00013            
1 63729U 25088F   26254.55656910 -.00000297  00000+0 -99615-5 0  9990
2 63729  51.9033   6.2165 0000522 109.5239 250.5780 14.79921331 75096
KUIPER-00014            
1 63730U 25088G   26254.59031569 -.00000372  00000+0 -19830-4 0  9997
2 63730  51.9033   6.0103 0000376 100.8950 259.2055 14.79918522 74918
KUIPER-00015            
1 63731U 25088H   26254.61331006 -.00000108  00000+0  14832-4 0  9993
2 63731  51.9011  15.9567 0000395 128.2400 231.8598 14.79928907 75235
KUIPER-00016            
1 63732U 25088J   26254.58762516  .00002478  00000+0  35389-3 0  9994
2 63732  51.9014   8.5286 0000406 122.7286 237.3716 14.79933751 74874
KUIPER-00018            
1 63733U 25088K   26254.49712224 -.00000807  00000+0 -76929-4 0  9998
2 63733  51.9054 358.9735 0000353  68.0727 292.0273 14.79924016 75009
KUIPER-00019            
1 63734U 25088L   26254.59131095  .00001142  00000+0  17871-3 0  9992
2 63734  51.9015 357.3044 0000306 142.6798 217.4185 14.79932232 75033
KUIPER-00020            
1 63735U 25088M   26254.49442778  .00000514  00000+0  96455-4 0  9993
2 63735  51.9049   1.4830 0000326  90.8604 269.2396 14.79925988 75177
KUIPER-00021            
1 63736U 25088N   26254.52817925  .00000737  00000+0  12570-3 0  9990
2 63736  51.9027   1.2830 0000340 116.8375 243.2622 14.79928594 75015
KUIPER-00023            
1 63737U 25088P   26254.35666525 -.00000554  00000+0 -43651-4 0  9994
2 63737  51.9039   4.5318 0000624  93.2790 266.8244 14.79930281 75253
KUIPER-00024            
1 63738U 25088Q   26254.57275242 -.00001023  00000+0 -10517-3 0  9997
2 63738  51.9047 351.1886 0000371  91.8175 268.2830 14.79925607 75583
KUIPER-00025            
1 63739U 25088R   26254.59842700  .00000352  00000+0  75136-4 0  9990
2 63739  51.9070 358.5572 0000724 115.3163 244.7874 14.79930187 75344
KUIPER-00027            
1 63740U 25088S   26254.57005753  .00000077  00000+0  39110-4 0  9995
2 63740  51.9039 353.6413 0000522  82.9793 277.1229 14.79926265 75149
KUIPER-00028            
1 63741U 25088T   26254.47144825 -.00000142  00000+0  10327-4 0  9992
2 63741  51.9021 351.5193 0000257 124.3281 235.7706 14.79921467 75577
KUIPER-00029            
1 63742U 25088U   26254.51494921  .00000454  00000+0  88576-4 0  9999
2 63742  51.9041 350.0211 0000330 172.7859 187.3108 14.79918356 75127
KUIPER-00030            
1 63743U 25088V   26254.55386918  .00001096  00000+0  17279-3 0  9994
2 63743  51.9024   8.6713 0000459 104.9630 255.1384 14.79925647 75152
KUIPER-00031            
1 63744U 25088W   26254.46875928 -.00000130  00000+0  11907-4 0  9991
2 63744  51.9037 354.0724 0000230  94.6117 265.4872 14.79926139 75062
KUIPER-00032            
1 63745U 25088X   26254.26734025  .00013378  00000+0  31367-3 0  9990
2 63745  51.8663 203.2094 0005230  63.7649 296.3877 15.42380202 78140
KUIPER-00033            
1 63746U 25088Y   26254.63896595  .00002508  00000+0  35779-3 0  9997
2 63746  51.9025  23.3161 0000176 128.3851 231.7127 14.79937605 75150
KUIPER-00034            
1 63747U 25088Z   26254.54437504 -.00000337  00000+0 -15152-4 0  9993
2 63747  51.9055 346.2743 0000609  98.7510 261.3522 14.79928122 75343
KUIPER-00035            
1 63748U 25088AA  26254.58490883  .00001393  00000+0  21176-3 0  9990
2 63748  51.9026  11.0584 0000517  80.0559 280.0462 14.79922320 75050
KUIPER-00037            
1 63749U 25088AB  26254.51032867 -.00000102  00000+0  15666-4 0  9994
2 63749  51.9015  10.2479 0000491 118.1555 241.9457 14.79927849 75841
KUIPER-00038            
1 63750U 25088AC  26254.56734081  .00001161  00000+0  18131-3 0  9992
2 63750  51.9035 356.1695 0000608 105.3930 254.7100 14.79922347 75049
KUIPER-00039            
1 64500U 25134A   26254.40485334 -.00001102  00000+0 -11558-3 0  9998
2 64500  51.8982 131.8840 0001037 114.4953 245.6117 14.79929527 67579
KUIPER-00040            
1 64501U 25134B   26254.42785306  .00002193  00000+0  31665-3 0  9993
2 64501  51.8969 141.8459 0001093  92.2944 267.8144 14.79930780 67431
KUIPER-00041            
1 64502U 25134C   26254.39136579  .00000188  00000+0  53704-4 0  9993
2 64502  51.8969 144.3972 0000759  93.7790 266.3260 14.79924966 67390
KUIPER-00042            
1 64503U 25134D   26254.09286674  .00002371  00000+0  33986-3 0  9998
2 64503  51.8987 140.6947 0000824 107.9921 252.1131 14.79933813 67424
KUIPER-00043            
1 64504U 25134E   26254.37107668  .00001772  00000+0  26145-3 0  9998
2 64504  51.9000 131.9785 0000751 105.1604 254.9442 14.79928034 67572
KUIPER-00044            
1 64505U 25134F   26254.08748976 -.00000362  00000+0 -18450-4 0  9997
2 64505  51.8995 145.7243 0000898  88.9737 271.1328 14.79925025 67351
KUIPER-00046            
1 64506U 25134G   26254.05641941  .00000629  00000+0  11156-3 0  9998
2 64506  51.8981 143.3313 0001110  94.3781 265.7308 14.79927999 67389
KUIPER-00047            
1 64507U 25134H   26254.05230847  .00000435  00000+0  86110-4 0  9996
2 64507  51.8962 115.8796 0000981  96.0353 264.0721 14.79922724 67761
KUIPER-00048            
1 64508U 25134J   26254.01849334  .00000919  00000+0  14956-3 0  9995
2 64508  51.8991 116.0395 0000841  88.0823 272.0235 14.79916308 67760
KUIPER-00049            
1 64509U 25134K   26254.37647650 -.00000032  00000+0  24856-4 0  9990
2 64509  51.9023 126.9293 0000701  98.2935 261.8107 14.79925639 67645
KUIPER-00050            
1 64510U 25134L   26253.99014627  .00000164  00000+0  50494-4 0  9993
2 64510  51.9005 111.1565 0000651 100.7322 259.3713 14.79919422 67837
KUIPER-00051            
1 64511U 25134M   26254.35250524  .00000294  00000+0  67567-4 0  9996
2 64511  51.9006 125.7326 0000885 109.0079 251.0980 14.79928486 67650
KUIPER-00053            
1 64513U 25134P   26254.37014018  .00001699  00000+0  24182-3 0  9991
2 64513  51.9000 120.1702 0002500  93.6033 266.5216 14.81706180 67737
KUIPER-00054            
1 64514U 25134Q   26254.62361891  .00001964  00000+0  28664-3 0  9998
2 64514  51.8977 115.8382 0000942  95.1245 264.9825 14.79928134 67814
KUIPER-00055            
1 64515U 25134R   26254.50604791  .00000110  00000+0  43495-4 0  9997
2 64515  51.9019  69.0072 0000689 113.3892 246.7143 14.79927530 68460
KUIPER-00056            
1 64516U 25134S   26254.04424340 -.00001252  00000+0 -13528-3 0  9990
2 64516  51.9030 123.5165 0001048  97.7070 262.4012 14.79923036 67664
KUIPER-00057            
1 64517U 25134T   26254.03612764  .00001505  00000+0  22640-3 0  9993
2 64517  51.8988 130.9688 0000792  89.2615 270.8438 14.79934565 67556
KUIPER-00058            
1 64518U 25134U   26252.92728328  .00000485  00000+0  92677-4 0  9998
2 64518  51.9032 130.8481 0001220 114.4794 245.6295 14.79928895 67464
KUIPER-00059            
1 64519U 25134V   26254.35081898  .00000593  00000+0  10681-3 0  9996
2 64519  51.8998 119.5916 0000815  99.5919 260.5136 14.79921301 67749
KUIPER-00060            
1 64520U 25134W   26253.97940833  .00000645  00000+0  11363-3 0  9994
2 64520  51.9034 121.3173 0001024 130.5607 229.5445 14.79926381 67675
KUIPER-00061            
1 64521U 25134X   26254.07260861 -.00000031  00000+0  24938-4 0  9996
2 64521  51.9020 128.3393 0001201 112.5864 247.5226 14.79927692 67587
KUIPER-00062            
1 64522U 25134Y   26254.61013660  .00000844  00000+0  13971-3 0  9995
2 64522  51.8957 128.4126 0000935 103.8922 256.2144 14.79924791 67642
KUIPER-00063            
1 64523U 25134Z   26254.06181838  .00001091  00000+0  17215-3 0  9998
2 64523  51.9011 138.4283 0001013 101.2613 258.8463 14.79930239 67452
KUIPER-00064            
1 64524U 25134AA  26254.40216076  .00001556  00000+0  23310-3 0  9999
2 64524  51.8996 134.3505 0001512  96.4406 263.6728 14.79932105 67547
KUIPER-00065            
1 64525U 25134AB  26254.39677834  .00000919  00000+0  14959-3 0  9992
2 64525  51.9054 139.5477 0000789  97.9902 262.1150 14.79931268 67453
KUIPER-00066            
1 64526U 25134AC  26254.09273234  .00002043  00000+0  29691-3 0  9995
2 64526  51.9006  78.1590 0000682  99.6217 260.4822 14.79929619 68304
KUIPER-00069            
1 64816U 25151A   26254.15105037  .00000849  00000+0  14046-3 0  9998
2 64816  51.8992 180.5421 0001224  90.3932 269.7171 14.79927312 64229
KUIPER-00070            
1 64817U 25151B   26254.29291996  .00018504  00000+0  24517-2 0  9994
2 64817  51.9006 204.8157 0002109  63.3723 296.7455 14.79895832 63904
KUIPER-00071            
1 64818U 25151C   26254.22806393 -.00000772  00000+0 -72298-4 0  9992
2 64818  51.8999 202.6480 0000717  92.0306 268.0738 14.79921967 62745
KUIPER-00072            
1 64819U 25151D   26254.48597717  .00001037  00000+0  16499-3 0  9991
2 64819  51.8955 181.4318 0000960  67.7517 292.3547 14.79931371 63069
KUIPER-00073            
1 64820U 25151E   26254.26182166  .00000735  00000+0  12544-3 0  9998
2 64820  51.9010 202.4762 0000714  52.2239 307.8788 14.79932426 63935
KUIPER-00075            
1 64822U 25151G   26254.40788414  .00028008  00000+0  72906-3 0  9995
2 64822  51.8666  36.0447 0003233 191.9897 168.1014 15.38673297 65075
KUIPER-00076            
1 64823U 25151H   26254.27260783  .00001372  00000+0  20900-3 0  9997
2 64823  51.9005 192.4534 0000742  82.3060 277.7987 14.79925588 62895
KUIPER-00077            
1 64824U 25151J   26254.19967205  .00000039  00000+0  34160-4 0  9995
2 64824  51.9002 197.7964 0000891  63.3436 296.7618 14.79937421 62812
KUIPER-00078            
1 64825U 25151K   26254.23615185  .00000639  00000+0  11284-3 0  9995
2 64825  51.9007 195.1078 0001004  76.2753 283.8321 14.79926866 62851
KUIPER-00079            
1 64826U 25151L   26254.19698900  .00001934  00000+0  28264-3 0  9992
2 64826  51.8993 200.2353 0000953  56.0483 304.0570 14.79934050 63977
KUIPER-00080            
1 64827U 25151M   26254.23075174  .00001069  00000+0  16918-3 0  9992
2 64827  51.8998 200.0994 0000691  92.6926 267.4116 14.79933264 62781
KUIPER-00082            
1 64828U 25151N   26254.54812578  .00000203  00000+0  55581-4 0  9993
2 64828  51.9008 186.2573 0000836  71.4899 288.6154 14.79929941 63008
KUIPER-00083            
1 64829U 25151P   26254.20239310  .00001186  00000+0  18459-3 0  9997
2 64829  51.8998 195.2675 0000992  66.2588 293.8479 14.79930339 64034
KUIPER-00084            
1 64830U 25151Q   26254.25912394 -.00000382  00000+0 -21161-4 0  9998
2 64830  51.9002 205.0031 0000713  92.2289 267.8755 14.79924407 62717
KUIPER-00085            
1 64831U 25151R   26254.51436651 -.00000103  00000+0  15513-4 0  9999
2 64831  51.9046 186.4615 0000724  87.9672 272.1373 14.79927817 62998
KUIPER-00086            
1 64832U 25151S   26254.57109312  .00002329  00000+0  33453-3 0  9990
2 64832  51.9019 196.1465 0000771  79.2785 280.8264 14.79925241 62861
KUIPER-00087            
1 64833U 25151T   26254.52228310  .00002798  00000+0  39547-3 0  9996
2 64833  51.8992 178.8165 0001101  64.0053 296.1022 14.79980822 63097
KUIPER-00089            
1 64834U 25151U   26254.24693714  .00000216  00000+0  57310-4 0  9992
2 64834  51.9004 185.0612 0000617  97.2992 262.8041 14.79925986 62990
KUIPER-00090            
1 64835U 25151V   26254.18748666  .00000993  00000+0  15925-3 0  9990
2 64835  51.8986 177.8192 0000810  97.1111 262.9943 14.79928537 63086
KUIPER-00091            
1 64836U 25151W   26254.51974997  .00000784  00000+0  13184-3 0  9999
2 64836  51.9059 181.3754 0000618  87.0399 273.0634 14.79931102 63065
KUIPER-00092            
1 64837U 25151X   26254.51166090  .00000881  00000+0  14458-3 0  9990
2 64837  51.9010 188.8987 0000798  88.4408 271.6645 14.79928614 64171
KUIPER-00093            
1 64838U 25151Y   26254.23882148 -.00002109  00000+0 -24775-3 0  9999
2 64838  51.9031 192.5763 0000081  88.7729 271.3243 14.79922861 62888
KUIPER-00094            
1 64839U 25151Z   26254.42245757  .00001180  00000+0  18383-3 0  9994
2 64839  51.9033 146.8793 0001146  86.0071 274.1022 14.79932707 63540
KUIPER-00081            
1 65132U 25171A   26254.42900438  .00000690  00000+0  11949-3 0  9993
2 65132  51.9011  46.7331 0000507 115.1602 244.9413 14.79927892 60548
KUIPER-00088            
1 65133U 25171B   26254.47765755  .00002154  00000+0  31141-3 0  9993
2 65133  51.8991  64.0170 0000623 108.7656 251.3374 14.79930530 60300
KUIPER-00095            
1 65134U 25171C   26254.56676617  .00000677  00000+0  11782-3 0  9999
2 65134  51.8997  43.6596 0000736 130.6783 229.4243 14.79927163 60592
KUIPER-00096            
1 65135U 25171D   26254.45198252  .00000423  00000+0  84486-4 0  9993
2 65135  51.8994  56.6262 0000607 126.1678 233.9340 14.79930058 60409
KUIPER-00097            
1 65136U 25171E   26254.44930310  .00002403  00000+0  34408-3 0  9990
2 65136  51.9001  59.3062 0000645  70.1892 289.9140 14.79934904 60353
KUIPER-00098            
1 65137U 25171F   26254.51412383  .00002067  00000+0  30010-3 0  9995
2 65137  51.8989  61.3773 0000653 118.1733 241.9296 14.79931234 59683
KUIPER-00099            
1 65138U 25171G   26254.49115251  .00001087  00000+0  17156-3 0  9994
2 65138  51.9031  51.4936 0000690 122.2169 237.8861 14.79931981 60474
KUIPER-00100            
1 65139U 25171H   26254.46006575 -.00002305  00000+0 -27344-3 0  9996
2 65139  51.9034  49.0963 0000587  95.9231 264.1798 14.79931319 60503
KUIPER-00102            
1 65140U 25171J   26254.38984135  .00000998  00000+0  15994-3 0  9998
2 65140  51.8996  51.8783 0000762 131.2526 228.8502 14.79932272 60451
KUIPER-00103            
1 65141U 25171K   26254.47225306  .00000389  00000+0  80100-4 0  9993
2 65141  51.8993  69.0183 0000702 106.2910 253.8130 14.79929652 60225
KUIPER-00104            
1 65142U 25171L   26254.48575686  .00007546  00000+0  10183-2 0  9998
2 65142  51.9001  56.4708 0000947 121.9011 238.2043 14.79906956 60409
KUIPER-00105            
1 65143U 25171M   26254.51143128  .00000675  00000+0  11751-3 0  9994
2 65143  51.9012  63.9521 0000577 107.8645 252.2381 14.79929377 60305
KUIPER-00106            
1 65144U 25171N   26254.42460474  .00002255  00000+0  32482-3 0  9991
2 65144  51.9019  43.1037 0000759  99.6501 260.4547 14.79918238 60596
KUIPER-00107            
1 65145U 25171P   26254.46276406  .00000360  00000+0  76164-4 0  9997
2 65145  51.9023  46.6095 0000496 109.3573 250.7443 14.79928413 60548
KUIPER-00108            
1 65146U 25171Q   26254.48305465  .00002053  00000+0  29817-3 0  9991
2 65146  51.9023  59.0655 0000593 119.7347 240.3675 14.79935082 60374
KUIPER-00109            
1 65147U 25171R   26254.45466624  .00002145  00000+0  31031-3 0  9997
2 65147  51.9031  54.1339 0000521 108.8406 251.2613 14.79927113 60431
KUIPER-00110            
1 65148U 25171S   26254.47496849  .00000870  00000+0  14312-3 0  9998
2 65148  51.9002  66.5945 0000558  46.0105 314.0904 14.79929458 60254
KUIPER-00111            
1 65149U 25171T   26254.50332477  .00002224  00000+0  32065-3 0  9999
2 65149  51.8966  71.3277 0000707 119.3119 240.7914 14.79932126 60195
KUIPER-00112            
1 65150U 25171U   26254.48844153  .00002264  00000+0  32596-3 0  9990
2 65150  51.9012  54.0279 0000702 121.1681 238.9350 14.79925491 60437
KUIPER-00114            
1 65151U 25171V   26253.69027645 -.00000057  00000+0  21577-4 0  9999
2 65151  51.8988  77.5178 0000684 114.2715 245.8318 14.79927122 60037
KUIPER-00115            
1 65152U 25171W   26254.50873239  .00000316  00000+0  70459-4 0  9999
2 65152  51.9008  66.4061 0000749 116.9395 243.1644 14.79927555 60263
KUIPER-00116            
1 65153U 25171X   26254.46958025  .00001836  00000+0  26979-3 0  9997
2 65153  51.8993  71.6118 0000690 101.3577 258.7463 14.79929981 60189
KUIPER-00118            
1 65154U 25171Y   26254.53439636 -.00000015  00000+0  26980-4 0  9990
2 65154  51.8969  73.7718 0000448 100.0794 260.0219 14.79926675 60160
KUIPER-00119            
1 65155U 25171Z   26254.48035926  .00001776  00000+0  26193-3 0  9998
2 65155  51.9013  61.6132 0000621 124.3279 235.7743 14.79926218 60320
KUIPER-00120            
1 65762U 25217A   26254.44705212  .00001918  00000+0  28051-3 0  9994
2 65762  51.9003 311.6297 0000438  84.4526 275.6487 14.79931739 52244
KUIPER-00132            
1 65763U 25217B   26254.16929090  .00021113  00000+0  54179-3 0  9995
2 65763  51.8508 180.7180 0004751 266.2785  93.7659 15.39274321 54032
KUIPER-00133            
1 65764U 25217C   26254.54837322  .00001860  00000+0  27299-3 0  9994
2 65764  51.9047 311.3177 0000529  94.1639 265.9384 14.79929536 52264
KUIPER-00139            
1 65765U 25217D   26254.51587322  .00001794  00000+0  26438-3 0  9994
2 65765  51.8989 278.8891 0000531  38.2463 321.8537 14.79923448 52714
KUIPER-00142            
1 65766U 25217E   26254.39839165  .00001818  00000+0  26740-3 0  9999
2 65766  51.9005 294.3759 0000437  76.7055 283.3956 14.79928934 52486
KUIPER-00145            
1 65767U 25217F   26254.32816736 -.00000175  00000+0  60859-5 0  9999
2 65767  51.8996 297.2114 0000578  75.4654 284.6373 14.79920292 52430
KUIPER-00147            
1 65768U 25217G   26254.42676885  .00001851  00000+0  27183-3 0  9992
2 65768  51.9000 299.2491 0000263  50.6200 309.4786 14.79924259 52410
KUIPER-00148            
1 65769U 25217H   26254.37812667  .00000172  00000+0  51523-4 0  9998
2 65769  51.9055 282.0103 0000286  75.9050 284.1944 14.79932192 52655
KUIPER-00150            
1 65770U 25217J   26254.34846877  .00000313  00000+0  70041-4 0  9990
2 65770  51.9032 309.6431 0000605  83.6204 276.4828 14.79933162 52264
KUIPER-00151            
1 65771U 25217K   26254.49161100  .00001780  00000+0  26243-3 0  9999
2 65771  51.9031 301.5077 0000461  95.4547 264.6468 14.79933560 52397
KUIPER-00152            
1 65772U 25217L   26254.53884796  .00001767  00000+0  26076-3 0  9997
2 65772  51.9019 288.7790 0000302  44.0349 316.0637 14.79930818 52579
KUIPER-00153            
1 65773U 25217M   26254.47673467  .00000334  00000+0  72767-4 0  9990
2 65773  51.9037 284.1411 0000575 100.7429 259.3599 14.79925894 52632
KUIPER-00155            
1 65774U 25217N   26254.03367094  .00001893  00000+0  27727-3 0  9995
2 65774  51.9014 258.5624 0000600  84.0087 276.0943 14.79928744 52953
KUIPER-00156            
1 65775U 25217P   26254.37543409  .00001633  00000+0  24312-3 0  9998
2 65775  51.9041 284.5718 0000415  74.7863 285.3145 14.79929658 52614
KUIPER-00165            
1 65778U 25217S   26254.49967973  .00003488  00000+0  48617-3 0  9994
2 65778  51.9003 293.9552 0000434  42.2553 317.8442 14.79943394 52492
KUIPER-00166            
1 65779U 25217T   26254.07422917  .00004121  00000+0  56925-3 0  9999
2 65779  51.9035 283.3966 0000440  97.7802 262.3211 14.79936739 52605
KUIPER-00167            
1 65780U 25217U   26254.55643863  .00000371  00000+0  77710-4 0  9998
2 65780  51.8966 303.5872 0000449  73.1837 286.9175 14.79924009 52366
KUIPER-00168            
1 65781U 25217V   26253.29224845  .00001988  00000+0  28976-3 0  9998
2 65781  51.9011 291.8005 0000443  70.1500 289.9510 14.79924891 52426
KUIPER-00169            
1 65782U 25217W   26254.36733554  .00001681  00000+0  24946-3 0  9993
2 65782  51.9025 292.0584 0000563  97.0436 263.0590 14.79924975 52510
KUIPER-00170            
1 65783U 25217X   26254.49698746  .00001775  00000+0  26177-3 0  9993
2 65783  51.9000 296.4287 0000427  84.0521 276.0490 14.79927609 52466
KUIPER-00172            
1 65785U 25217Z   26254.48210107  .00001155  00000+0  18046-3 0  9993
2 65785  51.8997 279.0273 0000737   9.8281 350.2696 14.79926364 52703
KUIPER-00173            
1 65786U 25217AA  26254.46863614  .00001731  00000+0  25605-3 0  9998
2 65786  51.9019 291.6014 0000282  57.1004 302.9985 14.79926518 52523
KUIPER-00174            
1 65787U 25217AB  26254.40648327  .00001719  00000+0  25445-3 0  9993
2 65787  51.9042 286.9401 0000703  68.4169 291.6868 14.79925987 52581
KUIPER-00176            
1 65788U 25217AC  26254.39030811  .00001803  00000+0  26540-3 0  9996
2 65788  51.9010 301.9278 0000536  54.5979 305.5033 14.79930220 52378
KUIPER-00101            
1 65947U 25228A   26254.06473048  .00001726  00000+0  25546-3 0  9991
2 65947  51.8969 260.8131 0000575  75.0446 285.0580 14.79920508 50687
KUIPER-00113            
1 65948U 25228B   26254.03635033  .00001800  00000+0  26503-3 0  9990
2 65948  51.8979 255.9609 0000601  46.1403 313.9609 14.79939269 50740
KUIPER-00117            
1 65949U 25228C   26254.06743160  .00001794  00000+0  26427-3 0  9992
2 65949  51.8996 258.3232 0000534  47.0995 313.0012 14.79934212 50719
KUIPER-00121            
1 65950U 25228D   26254.37671166  .00000178  00000+0  52334-4 0  9996
2 65950  51.9006 251.9771 0000631  48.7288 311.3729 14.79929057 50832
KUIPER-00122            
1 65951U 25228E   26254.02827948  .00001756  00000+0  25927-3 0  9990
2 65951  51.8980 263.4872 0000831  65.8476 294.2573 14.79930209 50640
KUIPER-00123            
1 65952U 25228F   26254.39968883  .00001257  00000+0  19390-3 0  9998
2 65952  51.9007 261.8538 0000490  48.1462 311.9542 14.79925477 50692
KUIPER-00124            
1 65953U 25228G   26254.00260018  .00001661  00000+0  24682-3 0  9991
2 65953  51.9004 256.0997 0000602  40.6527 319.4480 14.79933334 50740
KUIPER-00125            
1 65954U 25228H   26254.35643568  .00000530  00000+0  98573-4 0  9990
2 65954  51.8999 239.5868 0000884  56.1048 303.9999 14.79925551 51003
KUIPER-00126            
1 65955U 25228J   26254.43615161  .00001536  00000+0  23044-3 0  9995
2 65955  51.8991 259.2143 0000463  72.3434 287.7579 14.79936037 50736
KUIPER-00127            
1 65956U 25228K   26254.35983017  .00000342  00000+0  73898-4 0  9992
2 65956  51.9005 252.0336 0000830  50.6122 309.4914 14.79924278 50830
KUIPER-00128            
1 65957U 25228L   26254.00530772  .00001685  00000+0  24999-3 0  9999
2 65957  51.8989 253.6653 0000597  74.1139 285.9889 14.79934147 50777
KUIPER-00129            
1 65958U 25228M   26254.04444076  .00001741  00000+0  25727-3 0  9998
2 65958  51.8993 248.4713 0000535  64.9520 295.1497 14.79930161 50854
KUIPER-00130            
1 65959U 25228N   26254.41318521  .00000193  00000+0  54307-4 0  9992
2 65959  51.9009 249.3867 0001013  77.9787 282.1288 14.79922834 41161
KUIPER-00134            
1 65960U 25228P   26254.10788739  .00027873  00000+0  74657-3 0  9995
2 65960  51.8704 140.0935 0004240 235.2265 124.8323 15.37791950 52366
KUIPER-00135            
1 65961U 25228Q   26254.37940320 -.00001847  00000+0 -21335-3 0  9991
2 65961  51.9027 249.5863 0000425  56.0887 304.0116 14.79932268 50860
KUIPER-00136            
1 65962U 25228R   26254.01069205  .00000510  00000+0  95862-4 0  9998
2 65962  51.9008 248.6644 0000588  41.0789 319.0217 14.79932895 50844
KUIPER-00137            
1 65963U 25228S   26254.41857921  .00000511  00000+0  96002-4 0  9991
2 65963  51.9035 244.3703 0000650  32.6175 327.4828 14.79930046 50947
KUIPER-00138            
1 65964U 25228T   26254.38749560 -.00000115  00000+0  13856-4 0  9994
2 65964  51.8982 241.9077 0000615  56.8946 303.2075 14.79927101 50977
KUIPER-00140            
1 65965U 25228U   26254.38480635  .00001732  00000+0  25621-3 0  9997
2 65965  51.8975 244.5127 0000831  60.1211 299.9834 14.79932421 50939
KUIPER-00141            
1 65966U 25228V   26252.63441254 -.00010700  00000+0 -13754-2 0  9998
2 65966  51.9043 247.3259 0000413  57.8155 302.2847 14.79976291 50744
KUIPER-00146            
1 65967U 25228W   26254.35375162  .00000815  00000+0  13585-3 0  9991
2 65967  51.9029 242.2385 0000713  45.5893 314.5128 14.79929803 50968
KUIPER-00149            
1 65968U 25228X   26253.98770989  .00001880  00000+0  27550-3 0  9996
2 65968  51.8996 238.7306 0000635  60.3201 299.7824 14.79931759 50987
KUIPER-00154            
1 65969U 25228Y   26254.36182924  .00007781  00000+0  10486-2 0  9991
2 65969  51.8959 234.5600 0000855  93.2532 266.8528 14.79925857 51073
KUIPER-00157            
1 65970U 25228Z   26252.67994886  .00001829  00000+0  26060-3 0  9996
2 65970  51.9023 244.0479 0000230 253.0514 107.0424 14.81287340 50791
KUIPER-00144            
1 67133U 25301A   26254.61318310 -.00000551  00000+0 -43238-4 0  9999
2 67133  51.9025 313.4720 0000578  73.9317 286.1710 14.79931377 41409
KUIPER-00164            
1 67134U 25301B   26254.46465300  .00000658  00000+0  11525-3 0  9994
2 67134  51.9050 326.6468 0000423  94.9723 265.1287 14.79932030 41386
KUIPER-00175            
1 67135U 25301C   26254.44975891  .00000205  00000+0  55877-4 0  9991
2 67135  51.9009 309.1479 0000346  70.3086 289.7913 14.79930124 41529
KUIPER-00179            
1 67136U 25301D   26254.39981348  .00000193  00000+0  54387-4 0  9991
2 67136  51.9002 324.3683 0001288 105.8180 254.2924 14.79922763 41411
KUIPER-00181            
1 67137U 25301E   26254.52140086  .00000514  00000+0  96463-4 0  9991
2 67137  51.9040 336.3928 0000306  37.0685 323.0299 14.79930581 41232
KUIPER-00183            
1 67138U 25301F   26254.51999719  .00001822  00000+0  26799-3 0  9993
2 67138  51.9029 306.4050 0000340  82.0030 278.0972 14.79928221 41668
KUIPER-00184            
1 67139U 25301G   26254.43897044  .00000416  00000+0  83514-4 0  9990
2 67139  51.9006 319.2057 0000394  90.6124 269.4884 14.79929708 41589
KUIPER-00186            
1 67140U 25301H   26254.62268688  .00000429  00000+0  85357-4 0  9990
2 67140  51.9048 335.9541 0000435  81.2024 278.8988 14.79918738 41097
KUIPER-00187            
1 67141U 25301J   26254.61999961  .00000684  00000+0  11875-3 0  9991
2 67141  51.9069 338.4937 0000634 101.7235 258.3799 14.79927664 41058
KUIPER-00188            
1 67142U 25301K   26254.55375780  .00001257  00000+0  19394-3 0  9993
2 67142  51.9035 306.3720 0000427  75.6054 284.4956 14.79922493 41492
KUIPER-00191            
1 67143U 25301L   26254.59433024  .00001290  00000+0  19817-3 0  9991
2 67143  51.9026 331.0821 0000381  94.1824 265.9182 14.79925203 41183
KUIPER-00196            
1 67144U 25301M   26254.50508963  .00001726  00000+0  25544-3 0  9996
2 67144  51.8996 288.9299 0000506  87.1425 272.9596 14.79926624 41732
KUIPER-00204            
1 67145U 25301N   26254.52268138  .00001798  00000+0  26481-3 0  9996
2 67145  51.9023 303.8876 0000444  81.9961 278.1051 14.79929705 41648
KUIPER-00210            
1 67146U 25301P   26254.42549275  .00000365  00000+0  76907-4 0  9998
2 67146  51.9017 331.7757 0000330  78.3064 281.7936 14.79929867 41302
KUIPER-00221            
1 67147U 25301Q   26254.51869536  .00000636  00000+0  11246-3 0  9999
2 67147  51.9035 338.8981 0000724  74.2335 285.8707 14.79923265 41041
KUIPER-00232            
1 67148U 25301R   26254.56864450  .00000897  00000+0  14661-3 0  9998
2 67148  51.9004 323.6880 0000514  90.6574 269.4447 14.79926013 41258
KUIPER-00241            
1 67149U 25301S   26254.52408586  .00002142  00000+0  30990-3 0  9997
2 67149  51.9048 333.9063 0000459  96.6040 263.4975 14.79932815 41444
KUIPER-00245            
1 67150U 25301T   26254.44847815  .00002363  00000+0  33888-3 0  9996
2 67150  51.9047 341.7497 0000473 109.3308 250.7705 14.79935191 40997
KUIPER-00246            
1 67151U 25301U   26254.49841547  .00000625  00000+0  11101-3 0  9991
2 67151  51.8995 326.4665 0000406  80.9495 279.1514 14.79929167 41230
KUIPER-00247            
1 67152U 25301V   26254.44166117  .00000182  00000+0  52833-4 0  9996
2 67152  51.8975 316.6665 0000383  80.5223 279.5782 14.79922902 41342
KUIPER-00248            
1 67153U 25301W   26254.52808352  .00000597  00000+0  10736-3 0  9995
2 67153  51.8988 298.9268 0000464  93.1541 266.9474 14.79925968 41760
KUIPER-00249            
1 67154U 25301X   26254.37684047  .00001954  00000+0  28519-3 0  9998
2 67154  51.9009 314.5292 0000303  71.9202 288.1794 14.79935197 41360
KUIPER-00250            
1 67155U 25301Y   26254.39442034  .00000397  00000+0  81131-4 0  9999
2 67155  51.9007 329.4043 0000520  91.4130 268.6892 14.79926142 41199
KUIPER-00251            
1 67156U 25301Z   26254.47544211  .00001987  00000+0  28962-3 0  9997
2 67156  51.9026 316.6219 0000332  85.3073 274.7927 14.79931385 41533
KUIPER-00252            
1 67157U 25301AA  26254.47274190  .00000686  00000+0  11904-3 0  9997
2 67157  51.9015 319.0842 0000353  60.4328 299.6669 14.79931402 41316
KUIPER-00261            
1 67158U 25301AB  26254.56326251  .00000457  00000+0  88982-4 0  9991
2 67158  51.9039 328.7471 0000329 100.7928 259.3071 14.79926724 41181
KUIPER-00265            
1 67159U 25301AC  26254.44574398 -.00002222  00000+0 -26247-3 0  9995
2 67159  51.9045 344.2410 0000540 333.3375  26.7559 14.79939211 40990
KUIPER-00159            
1 67764U 26030A   26254.49710255  .00001461  00000+0  23797-3 0  9995
2 67764  51.9009  62.5046 0000256 119.9980 240.1006 14.76569189 33374
KUIPER-00160            
1 67765U 26030B   26254.58336806 -.00055706  00000+0 -55906-2 0  9991
2 67765  51.8972  43.9479 0011167 335.8061 229.9167 14.91000907  5612
KUIPER-00177            
1 67766U 26030C   26254.59521953  .00002022  00000+0  29419-3 0  9994
2 67766  51.9000 111.0529 0000807  89.3633 270.7422 14.79922988 32700
KUIPER-00178            
1 67767U 26030D   26254.62902717 -.00000176  00000+0  59222-5 0  9996
2 67767  51.9009 110.8845 0000715 107.5092 252.5949 14.79925983 32719
KUIPER-00180            
1 67768U 26030E   26253.95911278  .00002225  00000+0  32084-3 0  9995
2 67768  51.8970 108.8408 0000841 109.7608 250.3445 14.79932114 32682
KUIPER-00197            
1 67769U 26030F   26254.52091937  .00000523  00000+0  97650-4 0  9991
2 67769  51.8965  86.3724 0001010 112.4984 247.6086 14.79928158 33049
KUIPER-00198            
1 67770U 26030G   26254.00096712  .00002090  00000+0  30315-3 0  9997
2 67770  51.8965 101.1463 0000887 107.7301 252.3758 14.79931047 32799
KUIPER-00199            
1 67771U 26030H   26254.58336806 -.00727792  00000+0 -25921-1 0  9992
2 67771  51.8832  42.4214 0009429 358.3664 300.6794 15.30992340  5902
KUIPER-00200            
1 67772U 26030J   26254.55738110  .00002051  00000+0  29793-3 0  9999
2 67772  51.8974  83.7293 0000568 107.6680 252.4345 14.79932155 33089
KUIPER-00203            
1 67773U 26030K   26253.98209343 -.00000321  00000+0 -13119-4 0  9993
2 67773  51.9067 118.8417 0001113  95.9337 264.1753 14.79920717 32541
KUIPER-00205            
1 67774U 26030L   26253.95230727  .00000618  00000+0  11014-3 0  9999
2 67774  51.9007  83.8688 0000876 108.4209 251.6849 14.79924535 33034
KUIPER-00208            
1 67775U 26030M   26254.02394934  .00000472  00000+0  90977-4 0  9994
2 67775  51.8970 111.0518 0001390 102.3071 257.8047 14.79925893 32654
KUIPER-00209            
1 67776U 26030N   26253.99289071 -.00000109  00000+0  14683-4 0  9993
2 67776  51.8990 108.7899 0000857 106.1578 253.9479 14.79929453 32688
KUIPER-00213            
1 67777U 26030P   26254.56958675  .00001381  00000+0  21018-3 0  9992
2 67777  51.8969 103.6975 0000792 105.3521 254.7529 14.79930912 32802
KUIPER-00214            
1 67778U 26030Q   26254.60605830  .00002011  00000+0  29273-3 0  9992
2 67778  51.8993 101.0702 0000670 106.4246 253.6790 14.79926508 32849
KUIPER-00215            
1 67779U 26030R   26254.58574441  .00002040  00000+0  29653-3 0  9997
2 67779  51.8985  88.5141 0000730 110.3301 249.7740 14.79924686 33027
KUIPER-00218            
1 67780U 26030S   26253.99556498  .00002158  00000+0  31201-3 0  9997
2 67780  51.8974 106.1643 0000871 101.1818 258.9242 14.79933555 32728
KUIPER-00220            
1 67781U 26030T   26254.49524313  .00001643  00000+0  24456-3 0  9997
2 67781  51.8938  78.9790 0000643  97.3824 262.7211 14.79927848 33142
KUIPER-00222            
1 67782U 26030U   26254.57497616 -.00000479  00000+0 -33825-4 0  9991
2 67782  51.8967  98.7613 0001143 106.1959 253.9129 14.79923830 32879
KUIPER-00223            
1 67783U 26030V   26254.54925656  .00001989  00000+0  28996-3 0  9996
2 67783  51.9004  91.1830 0000849 116.6997 243.4052 14.79919608 32980
KUIPER-00225            
1 67784U 26030W   26254.00366970  .00002142  00000+0  30991-3 0  9996
2 67784  51.8973  98.7460 0000696  98.5284 261.5757 14.79927164 32826
KUIPER-00226            
1 67785U 26030X   26254.58336806  .00003215  00000+0  46183-3 0  9997
2 67785  51.8996  83.5743 0001973 123.2529 188.9003 14.78869369  4966
KUIPER-00259            
1 67786U 26030Y   26254.57766598  .00001995  00000+0  29058-3 0  9997
2 67786  51.8976  96.1090 0000700 109.9551 250.1487 14.79929516 32919
KUIPER-00260            
1 67787U 26030Z   26254.51285096  .00002018  00000+0  29366-3 0  9990
2 67787  51.9003  94.0046 0000918 113.8997 246.2062 14.79925370 32840
KUIPER-00262            
1 67788U 26030AA  26253.93882701  .00002890  00000+0  40784-3 0  9997
2 67788  51.8995  96.4606 0001376  96.3576 263.7543 14.79940259 32857
KUIPER-00266            
1 67789U 26030AB  26254.58306727  .00001036  00000+0  16492-3 0  9999
2 67789  51.9011  91.1032 0001218 101.9227 258.1872 14.79924466 32983
KUIPER-00268            
1 67790U 26030AC  26253.94422817  .00002206  00000+0  31829-3 0  9990
2 67790  51.9031  91.4694 0000972 107.2210 252.8859 14.79934321 32922
KUIPER-00270            
1 67791U 26030AD  26254.52899730  .00006396  00000+0  86682-3 0  9999
2 67791  51.8981  78.8329 0000713 109.1383 250.9657 14.79949013 33150
KUIPER-00274            
1 67792U 26030AE  26254.03203008  .00002452  00000+0  35046-3 0  9990
2 67792  51.9013 103.5462 0000821 102.9139 257.1916 14.79943099 32763
KUIPER-00275            
1 67793U 26030AF  26253.78348068  .00001982  00000+0  28892-3 0  9996
2 67793  51.8995  84.6391 0001054 127.5964 232.5094 14.79927521 33004
KUIPER-00276            
1 67794U 26030AG  26253.94691800  .00001157  00000+0  18082-3 0  9994
2 67794  51.8977  88.8951 0000999  85.3727 274.7350 14.79925100 32966
KUIPER-00279            
1 67795U 26030AH  26254.53171825  .00002209  00000+0  31880-3 0  9991
2 67795  51.9025  76.3572 0000879 114.8014 245.3040 14.79925318 33183
KUIPER-00131            
1 68573U 26072A   26254.19020182 -.00000079  00000+0  18624-4 0  9999
2 68573  51.9006 175.3470 0000826  79.9055 280.2001 14.79929454 23855
KUIPER-00189            
1 68574U 26072B   26254.49136694  .00000332  00000+0  72623-4 0  9999
2 68574  51.8997 176.4915 0000906  86.0338 274.0728 14.79929655 23863
KUIPER-00192            
1 68575U 26072C   26254.19289896  .00001203  00000+0  18676-3 0  9995
2 68575  51.9002 172.8292 0000999  88.3958 271.7119 14.79930751 23895
KUIPER-00193            
1 68576U 26072D   26254.13615926  .00001579  00000+0  23609-3 0  9995
2 68576  51.9052 163.1246 0001305  89.3004 270.8108 14.79931454 24023
KUIPER-00194            
1 68577U 26072E   26254.16183352  .00000698  00000+0  12053-3 0  9994
2 68577  51.9020 170.4927 0001033  77.5927 282.5151 14.79930153 23928
KUIPER-00229            
1 68578U 26072F   26254.15643765 -.00000576  00000+0 -46541-4 0  9990
2 68578  51.9009 175.4981 0000700 107.2801 252.8238 14.79924638 23852
KUIPER-00230            
1 68579U 26072G   26254.58336806  .00019925  00000+0  16980-2 0  9991
2 68579  51.8913 121.3168 0003536 353.3025  36.6920 14.97731306  1305
KUIPER-00231            
1 68580U 26072H   26254.11857848  .00000412  00000+0  83152-4 0  9994
2 68580  51.8978 148.2392 0002009  94.3589 265.7603 14.79930057 24229
KUIPER-00234            
1 68581U 26072J   26254.19557816  .00002585  00000+0  36790-3 0  9993
2 68581  51.9000 170.3082 0001247  73.6149 286.4951 14.79934252 23927
KUIPER-00236            
1 68582U 26072K   26254.58336806 -.00007581  00000+0 -84083-3 0  9992
2 68582  51.8967 123.5126 0004664 336.8759  71.3439 14.85630038  5929
KUIPER-00244            
1 68583U 26072L   26254.44273792  .00000410  00000+0  82843-4 0  9997
2 68583  51.8990 159.2381 0000703  82.1868 277.9175 14.79929852 24107
KUIPER-00253            
1 68584U 26072M   26254.44004323  .00002310  00000+0  33190-3 0  9991
2 68584  51.9036 161.7752 0000928  89.4714 270.6355 14.79928704 24069
KUIPER-00254            
1 68585U 26072N   26254.13345546  .00000483  00000+0  92354-4 0  9990
2 68585  51.9030 165.6283 0001192  47.1601 312.9461 14.79928764 23980
KUIPER-00263            
1 68586U 26072P   26254.41975606  .00000680  00000+0  11818-3 0  9992
2 68586  51.9019 149.4294 0001034  88.1668 271.9413 14.79930954 24237
KUIPER-00269            
1 68587U 26072Q   26254.14693510  .00000696  00000+0  12027-3 0  9994
2 68587  51.8981 153.0457 0001435  86.8162 273.2964 14.79931682 24163
KUIPER-00272            
1 68588U 26072R   26254.49677499  .00001601  00000+0  23898-3 0  9996
2 68588  51.8956 171.4650 0001284  86.1622 273.9487 14.79927237 23933
KUIPER-00285            
1 68589U 26072S   26254.45083507 -.00000499  00000+0 -36447-4 0  9995
2 68589  51.9039 151.7798 0001544  58.4326 301.6787 14.79920327 24209
KUIPER-00286            
1 68590U 26072T   26254.11586779  .00000563  00000+0  10291-3 0  9997
2 68590  51.9019 150.6927 0000759  91.7741 268.3308 14.79927533 24191
KUIPER-00289            
1 68591U 26072U   26254.44543059  .00001965  00000+0  28669-3 0  9993
2 68591  51.8989 156.7132 0001079  88.5991 271.5095 14.79927683 24138
KUIPER-00290            
1 68592U 26072V   26254.13282406  .00001256  00000+0  20959-3 0  9993
2 68592  51.9014 158.0117 0001537  33.9532 326.1527 14.76417255 24099
KUIPER-00293            
1 68593U 26072W   26254.16451997 -.00000423  00000+0 -26444-4 0  9993
2 68593  51.8981 167.9350 0001661  29.1543 330.9512 14.79926968 23957
KUIPER-00294            
1 68594U 26072X   26254.44812472  .00000704  00000+0  12143-3 0  9994
2 68594  51.8999 154.2030 0000702  94.8595 265.2447 14.79924145 24179
KUIPER-00296            
1 68595U 26072Y   26254.36570200  .00001953  00000+0  28515-3 0  9993
2 68595  51.8999 137.0856 0000704  99.2024 260.9018 14.79925150 24402
KUIPER-00297            
1 68596U 26072Z   26254.26581047  .00001655  00000+0  24614-3 0  9999
2 68596  51.9007 167.4857 0001432  93.3828 266.7298 14.79930906 23978
KUIPER-00300            
1 68597U 26072AA  26254.16722222  .00000467  00000+0  90288-4 0  9992
2 68597  51.9013 165.4549 0000759 105.7717 254.3329 14.79928283 23993
KUIPER-00301            
1 68598U 26072AB  26254.03081266  .00001144  00000+0  19337-3 0  9993
2 68598  51.9019 135.3748 0002064 165.8653 194.2366 14.76490645 24395
KUIPER-00304            
1 68599U 26072AC  26254.06133368  .00001267  00000+0  21024-3 0  9990
2 68599  51.9000 137.1997 0000342 357.1937   2.9022 14.76606827 24373
KUIPER-00317            
1 68600U 26072AD  26254.07670662  .00000359  00000+0  76143-4 0  9991
2 68600  51.8975 155.8510 0000715  95.9319 264.1725 14.79924909 24110
KUIPER-00320            
1 68601U 26072AE  26254.47650207  .00001940  00000+0  28340-3 0  9991
2 68601  51.9012 159.0971 0001035  93.2991 266.8089 14.79931386 24102
KUIPER-00299            
1 68864U 26095A   26252.60674362  .00001050  00000+0  17994-3 0  9993
2 68864  51.8994 237.2796 0002472  76.5745 283.5491 14.76488440 20117
KUIPER-00353            
1 68865U 26095B   26254.28211072  .00000388  00000+0  79859-4 0  9997
2 68865  51.8991 214.9470 0000720  65.7741 294.3297 14.79926295 20578
KUIPER-00357            
1 68866U 26095C   26254.30777820  .00001207  00000+0  18735-3 0  9995
2 68866  51.9019 222.3427 0000942  29.5443 330.5573 14.79934002 20473
KUIPER-00364            
1 68867U 26095D   26254.33885438  .00000563  00000+0  10292-3 0  9998
2 68867  51.9016 224.7281 0001213  32.4728 327.6309 14.79927388 20446
KUIPER-00375            
1 68868U 26095E   26254.31317919  .00002184  00000+0  31531-3 0  9991
2 68868  51.9001 217.3149 0000828  71.5923 288.5129 14.79936470 20542
KUIPER-00433            
1 68869U 26095F   26253.95935017 -.00000897  00000+0 -88664-4 0  9997
2 68869  51.8988 233.8738 0000796  36.0116 324.0899 14.79923455 20287
KUIPER-00437            
1 68870U 26095G   26254.58336806  .00003644  00000+0  20054-3 0  9999
2 68870  51.8840 185.3396 0006751 258.8076  44.1275 15.16473299  5002
KUIPER-00448            
1 68871U 26095H   26253.97647779  .00001166  00000+0  19727-3 0  9998
2 68871  51.9029 223.5192 0003004  26.5824 333.5291 14.76322995 20428
KUIPER-00459            
1 68872U 26095J   26254.59139688  .00001788  00000+0  26346-3 0  9998
2 68872  51.9014 208.6459 0000726  81.7424 278.3621 14.79932414 20687
KUIPER-00468            
1 68873U 26095K   26254.30296567  .00001571  00000+0  25329-3 0  9998
2 68873  51.8978 207.2558 0001043 157.3956 202.7051 14.76617001 20681
KUIPER-00476            
1 68874U 26095L   26254.58336806 -.01864413  00000+0 -13707+0 0  9998
2 68874  51.8875 189.5599 0010115 238.9576 111.8605 15.06558334  5033
KUIPER-00478            
1 68875U 26095M   26254.25103326  .00000996  00000+0  15961-3 0  9995
2 68875  51.8957 212.5878 0000999  65.1744 294.9322 14.79932431 20600
KUIPER-00480            
1 68876U 26095N   26254.28751494  .00000652  00000+0  11452-3 0  9994
2 68876  51.9037 209.9397 0000801  95.0553 265.0500 14.79923512 20640
KUIPER-00482            
1 68877U 26095P   26254.61437135  .00002038  00000+0  29634-3 0  9996
2 68877  51.9017 218.4817 0001135   2.3785 357.7182 14.79926149 20554
KUIPER-00483            
1 68878U 26095Q   26253.99297848  .00001916  00000+0  28003-3 0  9995
2 68878  51.8975 233.6926 0001605 312.2378  47.8448 14.79964574 20286
KUIPER-00488            
1 68879U 26095R   26254.31588114  .00000615  00000+0  10971-3 0  9992
2 68879  51.8983 214.8093 0001109  60.6506 299.4567 14.79927490 20573
KUIPER-00489            
1 68880U 26095S   26254.32396333  .00002045  00000+0  29722-3 0  9998
2 68880  51.8946 207.2564 0001251  66.1619 293.9474 14.79934316 20680
KUIPER-00499            
1 68881U 26095T   26254.28482144  .00000138  00000+0  47168-4 0  9996
2 68881  51.8987 212.4879 0000830  47.9768 312.1265 14.79925224 20609
KUIPER-00500            
1 68882U 26095U   26254.33346054  .00002081  00000+0  30197-3 0  9994
2 68882  51.9006 229.7234 0000698  81.7462 278.3580 14.79925321 20373
KUIPER-00502            
1 68883U 26095V   26254.55321952  .00002355  00000+0  33781-3 0  9995
2 68883  51.8992 205.0039 0001125  50.9919 309.1143 14.79930835 20732
KUIPER-00503            
1 68884U 26095W   26254.30239160  .00000309  00000+0  69596-4 0  9999
2 68884  51.8977 227.3351 0000790  57.5998 302.5041 14.79926865 20403
KUIPER-00504            
1 68885U 26095X   26254.32804559  .00003928  00000+0  54379-3 0  9994
2 68885  51.8945 234.7456 0002083 117.7202 242.3972 14.79944895 20307
KUIPER-00505            
1 68886U 26095Y   26254.30506440  .00007335  00000+0  98956-3 0  9996
2 68886  51.9005 224.8539 0000787  91.5110 268.5942 14.79955217 20435
KUIPER-00507            
1 68887U 26095Z   26254.29899052  .00000606  00000+0  10856-3 0  9996
2 68887  51.9004 214.8661 0000906  74.7553 285.3509 14.79928663 20573
KUIPER-00511            
1 68888U 26095AA  26254.22267905  .00002408  00000+0  34480-3 0  9997
2 68888  51.8967 207.8176 0001028  28.4948 331.6070 14.79935083 20666
KUIPER-00512            
1 68889U 26095AB  26254.33615972  .00000997  00000+0  15977-3 0  9992
2 68889  51.8995 227.2186 0001030  71.3429 288.7646 14.79926929 20401
KUIPER-00519            
1 68890U 26095AC  26254.27941395  .00000842  00000+0  13940-3 0  9995
2 68890  51.9015 217.5335 0000581  93.7557 266.3471 14.79933364 20538
KUIPER-00521            
1 68891U 26095AD  26254.27773186 -.00000593  00000+0 -48737-4 0  9995
2 68891  51.9012 211.2360 0000933  83.9275 276.1794 14.79916557 20626
KUIPER-00524            
1 68892U 26095AE  26254.31049116  .00001665  00000+0  24737-3 0  9992
2 68892  51.8972 219.8075 0000713  27.9687 332.1314 14.79935948 20502
KUIPER-00370            
1 68919U 26098A   26254.40600714  .00000112  00000+0  43747-4 0  9991
2 68919  51.9003  36.7633 0000401 112.2531 247.8474 14.79926508 20257
KUIPER-00380            
1 68920U 26098B   26254.54918365  .00000685  00000+0  11881-3 0  9990
2 68920  51.8993  28.7690 0000486  88.8010 271.3008 14.79925201 20370
KUIPER-00386            
1 68921U 26098C   26254.56336759 -.00000626  00000+0 -53061-4 0  9998
2 68921  51.9011  31.2000 0000541  99.5652 260.5372 14.79929382 20345
KUIPER-00388            
1 68922U 26098D   26254.40065789  .00002316  00000+0  33270-3 0  9999
2 68922  51.9008  42.0803 0000502 104.1682 255.9336 14.79926828 20177
KUIPER-00405            
1 68923U 26098E   26254.42022098  .00000869  00000+0  14299-3 0  9999
2 68923  51.9018  39.3462 0001170 177.5891 182.5077 14.79929421 20211
KUIPER-00408            
1 68924U 26098F   26254.54647012  .00002527  00000+0  36040-3 0  9993
2 68924  51.9006  31.2033 0000542 107.5565 252.5457 14.79932193 20341
KUIPER-00409            
1 68925U 26098G   26253.71384078 -.00000218  00000+0  35677-6 0  9996
2 68925  51.9033  39.9624 0000581 104.8407 255.2619 14.79927672 20145
KUIPER-00410            
1 68926U 26098H   26254.39184600  .00000435  00000+0  86121-4 0  9999
2 68926  51.8976  34.4491 0001499 131.4411 228.6681 14.79926624 20287
KUIPER-00412            
1 68927U 26098J   26254.51810622  .00002483  00000+0  35456-3 0  9993
2 68927  51.9043  26.4218 0000779 123.0260 237.0778 14.79944528 20409
KUIPER-00413            
1 68928U 26098K   26254.40333720  .00002582  00000+0  36756-3 0  9995
2 68928  51.9001  39.4053 0000880 142.7079 217.3944 14.79932308 20212
KUIPER-00414            
1 68929U 26098L   26254.62891597  .00000557  00000+0  10213-3 0  9991
2 68929  51.8967  48.4930 0001768 115.1939 244.9207 14.79929257 20107
KUIPER-00415            
1 68930U 26098M   26254.64778186 -.00001094  00000+0 -11459-3 0  9995
2 68930  51.9012  30.8384 0000597 103.0955 257.0074 14.79923340 20353
KUIPER-00416            
1 68931U 26098N   26254.53069212  .00025387  00000+0  33504-2 0  9990
2 68931  51.9036  22.7101 0000685  99.9056 260.1984 14.79883822 20456
KUIPER-00420            
1 68932U 26098P   26254.52080201 -.00001294  00000+0 -14076-3 0  9998
2 68932  51.9040  23.8639 0000479 114.8065 245.2948 14.79923868 20446
KUIPER-00421            
1 68933U 26098Q   26254.38035497  .00000041  00000+0  34373-4 0  9990
2 68933  51.9026  29.4661 0000746 106.0577 254.0468 14.79927398 20353
KUIPER-00425            
1 68934U 26098R   26254.57485792  .00000243  00000+0  60927-4 0  9997
2 68934  51.8993  36.1529 0000508 117.6613 242.4401 14.79928131 20274
KUIPER-00430            
1 68935U 26098S   26254.57214130  .00002368  00000+0  33959-3 0  9998
2 68935  51.9040  38.5625 0001015 135.1196 224.9849 14.79931009 20243
KUIPER-00431            
1 68936U 26098T   26254.56946689  .00000472  00000+0  90867-4 0  9995
2 68936  51.8983  41.1643 0000683 128.7273 231.3750 14.79925415 20206
KUIPER-00432            
1 68937U 26098U   26254.57754485 -.00000090  00000+0  17167-4 0  9997
2 68937  51.9010  33.5278 0000417  87.8529 272.2481 14.79929865 20312
KUIPER-00434            
1 68938U 26098V   26254.40507975  .00001995  00000+0  31433-3 0  9995
2 68938  51.9013  38.1506 0001829 111.8650 248.2506 14.76500018 20236
KUIPER-00436            
1 68939U 26098W   26254.55795921  .00007811  00000+0  10519-2 0  9996
2 68939  51.9000  36.2288 0000378  98.6422 261.4583 14.79953673 20274
KUIPER-00438            
1 68940U 26098X   26254.56067198  .00002523  00000+0  35989-3 0  9991
2 68940  51.9040  33.7384 0000584 103.2942 256.8085 14.79933589 20301
KUIPER-00439            
1 68941U 26098Y   26254.54383578  .00002362  00000+0  33764-3 0  9993
2 68941  51.9037  33.8042 0001007  73.7578 286.3495 14.80070688 20304
KUIPER-00440            
1 68942U 26098Z   26254.63629298  .00000452  00000+0  88276-4 0  9993
2 68942  51.9027  25.8930 0000185 355.2380   4.8581 14.79929971 20424
KUIPER-00442            
1 68943U 26098AA  26254.62892459  .00001452  00000+0  23695-3 0  9998
2 68943  51.9030  28.3981 0001714 112.8359 247.2783 14.76530864 20383
KUIPER-00446            
1 68944U 26098AB  26254.52959932 -.00000490  00000+0 -35264-4 0  9997
2 68944  51.9009  31.3688 0000898 220.9650 139.1245 14.79924933 20339
KUIPER-00451            
1 68945U 26098AC  26254.45128563  .00002228  00000+0  32122-3 0  9996
2 68945  51.8996  41.6952 0000707 124.9716 235.1313 14.79925329 20183
KUIPER-00452            
1 68946U 26098AD  26254.53230848  .00000373  00000+0  77963-4 0  9998
2 68946  51.9053  28.8531 0000647  95.2747 264.8289 14.79927682 20372
KUIPER-00453            
1 68947U 26098AE  26254.55186338  .00002553  00000+0  36386-3 0  9990
2 68947  51.9001  26.1877 0002291 120.1120 240.0069 14.79933677 20418
KUIPER-00454            
1 68948U 26098AF  26254.46257365  .00045309  00000+0  64011-2 0  9991
2 68948  51.9013  44.1088 0001901  74.0009 286.1161 14.76707968 20150
KUIPER-00455            
1 68949U 26098AG  26253.60716442  .00002238  00000+0  32254-3 0  9992
2 68949  51.9008  45.4324 0002074 113.1634 246.9547 14.79934120 20060
KUIPER-00458            
1 68950U 26098AH  26254.53497497  .00005117  00000+0  69949-3 0  9993
2 68950  51.9030  26.3532 0000351 106.6478 253.4523 14.79942320 20401
KUIPER-00282            
1 69267U 26118A   26254.61061020 -.00001298  00000+0 -14135-3 0  9991
2 69267  51.8978  18.4758 0000660 146.0782 214.0223 14.79926324 16955
KUIPER-00383            
1 69268U 26118B   26254.56267148  .00000388  00000+0  79932-4 0  9999
2 69268  51.8973  16.2077 0000726 119.0455 241.0580 14.79929205 16981
KUIPER-00527            
1 69269U 26118C   26254.59644909  .00002582  00000+0  36761-3 0  9997
2 69269  51.8997  16.1921 0000511 107.6753 252.4265 14.79930258 16987
KUIPER-00562            
1 69270U 26118D   26254.57060481  .00002278  00000+0  32734-3 0  9992
2 69270  51.9045   8.6150 0000521 142.5384 217.5615 14.79980321 17093
KUIPER-00570            
1 69271U 26118E   26254.52352004  .00000145  00000+0  48051-4 0  9994
2 69271  51.9012  21.4847 0000405 116.3731 243.7273 14.79924653 16894
KUIPER-00572            
1 69272U 26118F   26254.64707854  .00000624  00000+0  11084-3 0  9992
2 69272  51.9019  15.8301 0000481 107.8041 252.2974 14.79923076 16999
KUIPER-00581            
1 69273U 26118G   26254.64167340  .00002419  00000+0  34617-3 0  9994
2 69273  51.9029  20.8616 0001577 159.6368 200.4657 14.79933468 17013
KUIPER-00584            
1 69274U 26118H   26254.62212046  .00000581  00000+0  10516-3 0  9997
2 69274  51.9015  23.5588 0000511 115.7555 244.3461 14.79926863 16880
KUIPER-00587            
1 69275U 26118J   26254.51471586  .00002538  00000+0  36186-3 0  9997
2 69275  51.9032  13.9246 0000811  78.0852 282.0201 14.79927281 17010
KUIPER-00590            
1 69276U 26118K   26254.50932667  .00000649  00000+0  11418-3 0  9991
2 69276  51.9036  18.9569 0000818 128.1159 231.9877 14.79923683 16947
KUIPER-00592            
1 69277U 26118L   26254.56006774  .00001746  00000+0  25814-3 0  9993
2 69277  51.9042  18.6130 0000590  99.9576 260.1453 14.79908467 16959
KUIPER-00593            
1 69278U 26118M   26254.58336806 -.00056189  00000+0 -70749-2 0  9997
2 69278  51.9009   1.1464 0001552 205.3273 170.8759 14.81825613  5505
KUIPER-00594            
1 69279U 26118N   26254.50589427  .00000247  00000+0  61480-4 0  9995
2 69279  51.9033   6.4759 0001576  61.0048 299.1072 14.79914161 17118
KUIPER-00595            
1 69280U 26118P   26254.58336806 -.00051734  00000+0 -62194-2 0  9996
2 69280  51.8992   1.1381 0004571  83.7829  93.2820 14.83690494  5231
KUIPER-00596            
1 69281U 26118Q   26254.53770511  .00000460  00000+0  89351-4 0  9991
2 69281  51.9046  23.8262 0000536 107.8375 252.2646 14.79928647 16877
KUIPER-00597            
1 69282U 26118R   26252.58132028  .00056467  00000+0  79243-2 0  9995
2 69282  51.8992  12.4514 0000788 124.9876 235.1159 14.76882147 16865
KUIPER-00599            
1 69283U 26118S   26254.63288691  .00000042  00000+0  34550-4 0  9994
2 69283  51.9043  13.3183 0000413 143.3837 216.7154 14.79927927 17032
KUIPER-00600            
1 69284U 26118T   26254.58336806 -.00015913  00000+0 -20641-2 0  9990
2 69284  51.8995   3.5407 0001717  27.2225  11.1845 14.79914682  1656
KUIPER-00601            
1 69285U 26118U   26254.52619333  .00002634  00000+0  37425-3 0  9997
2 69285  51.9042  18.8741 0000427 107.3733 252.7277 14.79942117 16946
KUIPER-00602            
1 69286U 26118V   26254.60181432  .00000754  00000+0  12796-3 0  9996
2 69286  51.9030  10.9551 0000810 175.8353 184.2616 14.79931516 17061
KUIPER-00603            
1 69287U 26118W   26254.61600282  .00002434  00000+0  34810-3 0  9995
2 69287  51.9050  13.4805 0000505  92.6014 267.5006 14.79935618 17026
KUIPER-00605            
1 69288U 26118X   26254.60791943 -.00000657  00000+0 -57154-4 0  9994
2 69288  51.9006  20.9974 0000442 108.0270 252.0741 14.79924401 16925
KUIPER-00606            
1 69289U 26118Y   26254.59912924  .00000389  00000+0  80076-4 0  9996
2 69289  51.9036  13.5531 0000302  87.5760 272.5237 14.79929101 17027
KUIPER-00607            
1 69290U 26118Z   26254.59307591  .00004943  00000+0  67691-3 0  9993
2 69290  51.9014   3.5870 0001252   0.4760 359.6204 14.79936745 17167
KUIPER-00608            
1 69291U 26118AA  26254.53976604  .00008978  00000+0  12052-2 0  9997
2 69291  51.9029   6.1809 0001301  71.3580 288.7523 14.79929476 17122
KUIPER-00610            
1 69292U 26118AB  26254.56806172  .00002546  00000+0  36286-3 0  9994
2 69292  51.9033  11.1890 0000444 105.5685 254.5326 14.79928337 17056
KUIPER-00613            
1 69293U 26118AC  26254.62480753  .00000153  00000+0  49031-4 0  9990
2 69293  51.9023  20.9381 0000424  98.9796 261.1214 14.79924815 16927
KUIPER-00618            
1 69294U 26118AD  26254.60450495  .00002375  00000+0  34048-3 0  9998
2 69294  51.9042   8.5345 0002173 159.5378 200.5671 14.79931370 17091
KUIPER-00620            
1 69295U 26118AE  26254.61871220 -.00000103  00000+0  15461-4 0  9990
2 69295  51.9049  10.9756 0000250 111.2791 248.8198 14.79927994 17063
KUIPER-00423            
1 69592U 26140A   26254.58336806 -.00024755  00000+0 -24108-2 0  9993
2 69592  51.8991 343.7035 0014355 101.4791 333.9821 14.91760465  5740
KUIPER-00428            
1 69593U 26140B   26254.46763426  .00013541  00000+0  36957-3 0  9998
2 69593  51.8808 341.7833 0005648 236.5846 123.4602 15.37718700 14507
KUIPER-00481            
1 69594U 26140C   26254.58336806 -.00004308  00000+0 -58284-3 0  9990
2 69594  51.9018 348.2485 0001567 312.8547 107.1112 14.76489097  3610
KUIPER-00490            
1 69595U 26140D   26254.58690324  .00000151  00000+0  48782-4 0  9992
2 69595  51.9045 353.5594 0000549  85.0217 275.0808 14.79918099 14355
KUIPER-00493            
1 69596U 26140E   26254.48024812  .00002437  00000+0  34853-3 0  9997
2 69596  51.9057 359.0829 0000610 247.3180 112.7718 14.79930635 14269
KUIPER-00496            
1 69597U 26140F   26254.58336806 -.01391561  00000+0 -85386-1 0  9995
2 69597  51.8864 344.4331 0008791 248.0917 226.6643 15.12666567  5007
KUIPER-00513            
1 69598U 26140G   26254.48560888 -.00000216  00000+0  61466-6 0  9994
2 69598  51.9009 354.0562 0000799 100.5507 259.5546 14.79914528 14338
KUIPER-00516            
1 69599U 26140H   26254.47214371 -.00293885  00000+0 -11262-1 0  9998
2 69599  51.8813 341.8336 0007715 191.8369 168.2434 15.27246581 14500
KUIPER-00517            
1 69600U 26140J   26254.62474296  .00018057  00000+0  49889-3 0  9994
2 69600  51.8786 340.5648 0009624 138.5769 221.5949 15.37070752 14530
KUIPER-00520            
1 69601U 26140K   26254.58181340  .00001404  00000+0  22977-3 0  9992
2 69601  51.9037 355.4046 0001213 162.8577 197.2425 14.76597662 14322
KUIPER-00522            
1 69602U 26140L   26254.58336806 -.00015253  00000+0 -13722-2 0  9998
2 69602  51.8944 344.0922 0013605 102.6731 208.9587 14.94577427  5807
KUIPER-00528            
1 69603U 26140M   26254.53359485  .00000611  00000+0  10918-3 0  9997
2 69603  51.9034 356.3577 0000505 101.1228 258.9792 14.79925760 14309
KUIPER-00532            
1 69604U 26140N   26254.58336806 -.01401358  00000+0 -90630-1 0  9998
2 69604  51.8918 342.8772 0003455 203.8990  24.5804 15.10865916  5617
KUIPER-00533            
1 69605U 26140P   26254.45461798  .00002319  00000+0  33266-3 0  9999
2 69605  51.9031 351.7019 0000362 121.8006 238.2992 14.79980944 14366
KUIPER-00534            
1 69606U 26140Q   26254.50385953  .00023542  00000+0  76234-3 0  9997
2 69606  51.8840 342.0186 0012756 102.1013 258.1402 15.31840601 14509
KUIPER-00537            
1 69607U 26140R   26254.44648159 -.00000071  00000+0  19724-4 0  9996
2 69607  51.9021 359.1512 0000496 322.1046  37.9881 14.79931084 14266
KUIPER-00538            
1 69608U 26140S   26254.48275987  .00002608  00000+0  37183-3 0  9991
2 69608  51.9036 356.5130 0000149 160.0300 200.0669 14.79828725 14306
KUIPER-00540            
1 69609U 26140T   26254.52228989  .00023394  00000+0  62107-3 0  9996
2 69609  51.8822 341.4113 0005304 238.1368 121.9104 15.38162139 14516
KUIPER-00541            
1 69610U 26140U   26254.58336806 -.01751983  00000+0 -59936-1 0  9991
2 69610  51.8855 340.7017 0007403 154.6938  20.0869 15.32970037  5768
KUIPER-00542            
1 69611U 26140V   26254.54356466  .00018356  00000+0  49826-3 0  9998
2 69611  51.8803 340.7884 0007661 143.1473 217.0042 15.37624046 14523
KUIPER-00543            
1 69612U 26140W   26254.58336806 -.01858958  00000+0 -12668+0 0  9992
2 69612  51.8923 342.7375 0004524 248.8316 317.5223 15.09376814  5284
KUIPER-00544            
1 69613U 26140X   26254.58336806 -.01321673  00000+0 -47461-1 0  9993
2 69613  51.8813 340.7457 0004873 151.3045   8.1276 15.31090623  5845
KUIPER-00546            
1 69614U 26140Y   26254.58336806 -.00011407  00000+0 -10004-2 0  9998
2 69614  51.8967 344.0913 0019574  98.6303 282.7486 14.95232814  5273
KUIPER-00547            
1 69615U 26140Z   26254.58336806  .00023782  00000+0  65893-3 0  9993
2 69615  51.8815 340.5199 0009247 129.9882 142.3800 15.36802416  4210
KUIPER-00549            
1 69616U 26140AA  26254.58336806 -.02118966  00000+0 -10118+0 0  9993
2 69616  51.8874 341.5092 0005465 227.3960 242.3334 15.22249178  5575
KUIPER-00550            
1 69617U 26140AB  26254.58336806 -.02246230  00000+0 -11570+0 0  9993
2 69617  51.8810 345.2386 0006840 268.8274 205.4155 15.19898248  5237
KUIPER-00551            
1 69618U 26140AC  26254.52250442  .00023639  00000+0  62338-3 0  9993
2 69618  51.8788 340.6498 0012348 119.1862 241.0363 15.38305367 14521
KUIPER-00554            
1 69619U 26140AD  26254.46954348 -.00003585  00000+0 -85996-4 0  9999
2 69619  51.8789 341.0411 0010009 130.9409 229.2446 15.37226498 14518
KUIPER-00555            
1 69620U 26140AE  26254.58336806  .00023585  00000+0  64850-3 0  9992
2 69620  51.8824 340.4440 0010855 119.7854 189.7111 15.37029446  2153
KUIPER-00556            
1 69621U 26140AF  26254.58336806 -.00041334  00000+0 -48390-2 0  9997
2 69621  51.8991 346.2043 0021248 101.8484 335.2144 14.84503211  3378
KUIPER-00557            
1 69622U 26140AG  26254.54732119  .00021031  00000+0  55307-3 0  9998
2 69622  51.8818 340.8357 0008831 134.8210 225.3497 15.38499780 14525
KUIPER-00560            
1 69623U 26140AH  26254.51176442  .00019100  00000+0  52812-3 0  9999
2 69623  51.8802 341.3147 0008335 158.3272 201.8069 15.37017314 14511
KUIPER-00561            
1 69624U 26140AJ  26254.55594643  .00001410  00000+0  21415-3 0  9991
2 69624  51.9029 351.2224 0001017 106.1109 253.9965 14.79892684 14384
KUIPER-00564            
1 69625U 26140AK  26254.58336806 -.00003864  00000+0 -51850-3 0  9993
2 69625  51.8985 348.4268 0002080  96.9997 311.7079 14.76570399  5914
KUIPER-00567            
1 69626U 26140AL  26254.58336806 -.00036599  00000+0 -44837-2 0  9991
2 69626  51.8970 346.1629 0013284 103.4887 179.2905 14.82681533  5808
KUIPER-00573            
1 69627U 26140AM  26254.58336806 -.00010905  00000+0 -14028-2 0  9994
2 69627  51.9021 348.6381 0001067  89.8865  42.7314 14.79961881  5865
KUIPER-00258            
1 69763U 26151A   26254.58336806 -.01573756  00000+0 -95994-1 0  9996
2 69763  51.8785 260.5851 0011065  23.2855 321.9922 15.13242949  5397
KUIPER-00526            
1 69764U 26151B   26254.35244534  .00001723  00000+0  25491-3 0  9992
2 69764  51.8990 274.7188 0000535  72.0454 288.0567 14.79928964 10745
KUIPER-00558            
1 69765U 26151C   26254.11610068  .00000577  00000+0  10475-3 0  9998
2 69765  51.8993 275.6851 0000595  80.0603 280.0426 14.79926270 10718
KUIPER-00569            
1 69766U 26151D   26254.06815390  .00001701  00000+0  25208-3 0  9998
2 69766  51.9012 273.3881 0000641  44.3745 315.7268 14.79932755 10740
KUIPER-00589            
1 69767U 26151E   26254.36192424  .00001418  00000+0  23222-3 0  9997
2 69767  51.9024 274.9467 0002468  43.4759 316.6396 14.76521294 10746
KUIPER-00598            
1 69768U 26151F   26254.58336806 -.00003475  00000+0 -42715-3 0  9991
2 69768  51.8967 266.1295 0000836  99.8125   7.9846 14.79920296  4249
KUIPER-00604            
1 69769U 26151G   26253.99998672  .00001981  00000+0  31197-3 0  9991
2 69769  51.8998 271.1651 0003014 345.4671  14.6202 14.76547590 10767
KUIPER-00609            
1 69770U 26151H   26254.33970816 -.00001491  00000+0 -18103-3 0  9992
2 69770  51.9030 266.8096 0002195  13.3343 346.7676 14.76618935 10853
KUIPER-00611            
1 69771U 26151J   26254.03708314 -.00005027  00000+0 -63069-3 0  9992
2 69771  51.8976 271.0268 0000634  41.3770 318.7240 14.79948461 10772
KUIPER-00612            
1 69772U 26151K   26254.47529648  .00000938  00000+0  16352-3 0  9999
2 69772  51.9009 271.4541 0000594  56.6806 303.4212 14.76632573 10808
KUIPER-00614            
1 69773U 26151L   26254.49295395  .00001781  00000+0  26254-3 0  9990
2 69773  51.8989 269.0792 0000888  53.3197 306.7847 14.79939112 10834
KUIPER-00615            
1 69774U 26151M   26254.49958660  .00001227  00000+0  20455-3 0  9994
2 69774  51.9030 273.8816 0000551 240.5102 119.5804 14.76608938 10778
KUIPER-00616            
1 69775U 26151N   26254.58336806 -.00026168  00000+0 -18975-2 0  9993
2 69775  51.8927 259.8187 0003809  89.3415 213.6049 15.03239686  5416
KUIPER-00617            
1 69776U 26151P   26254.58336806 -.00042750  00000+0 -53578-2 0  9997
2 69776  51.8986 263.6454 0001426 336.1213 198.8920 14.81883927  5302
KUIPER-00619            
1 69777U 26151Q   26254.58336806  .00002291  00000+0  35579-3 0  9994
2 69777  51.8990 265.6790 0001796 131.5574  55.9063 14.76570519  5844
KUIPER-00621            
1 69778U 26151R   26254.58336806  .00000448  00000+0  87820-4 0  9994
2 69778  51.8983 268.6247 0000926 127.1285 175.0823 14.79892347  3835
KUIPER-00622            
1 69779U 26151S   26254.48655546  .00001089  00000+0  18518-3 0  9998
2 69779  51.9003 272.8106 0000999  74.7407 285.3664 14.76554111 10785
KUIPER-00623            
1 69780U 26151T   26254.58336806  .00049564  00000+0  64867-2 0  9993
2 69780  51.8960 271.1420 0001417  80.4793 234.7256 14.79906878  5780
KUIPER-00626            
1 69781U 26151U   26254.58336806 -.00042192  00000+0 -54654-2 0  9999
2 69781  51.8964 266.1084 0002049   0.2935 196.3811 14.80499796  5323
KUIPER-00627            
1 69782U 26151V   26254.58336806 -.00083993  00000+0 -67499-2 0  9995
2 69782  51.8878 262.0346 0008537  42.1280 230.2154 14.99904965  2188
KUIPER-00629            
1 69783U 26151W   26254.46792910 -.00000308  00000+0 -11451-4 0  9993
2 69783  51.9019 276.5740 0000489  63.7042 296.3970 14.79926304 10736
KUIPER-00631            
1 69784U 26151X   26254.48477501 -.00002380  00000+0 -28325-3 0  9991
2 69784  51.9011 276.5584 0000609  81.2047 278.8985 14.79947732 10738
KUIPER-00634            
1 69785U 26151Y   26254.03437993  .00000219  00000+0  57770-4 0  9998
2 69785  51.8985 273.5572 0001153  85.4976 274.6118 14.79929779 10737
KUIPER-00639            
1 69786U 26151Z   26254.58336806 -.00020318  00000+0 -16489-2 0  9994
2 69786  51.8899 261.8214 0010050  20.2351 109.1408 14.98790921  4738
KUIPER-00641            
1 69787U 26151AA  26254.58336806 -.00040708  00000+0 -44706-2 0  9993
2 69787  51.8975 263.7763 0010993  30.4026 165.0168 14.87230739  4011
KUIPER-00644            
1 69788U 26151AB  26254.58336806 -.01890507  00000+0 -95011-1 0  9999
2 69788  51.8815 259.0326 0009177  22.4838  19.9849 15.20063001  4794
KUIPER-00646            
1 69789U 26151AC  26254.58336806 -.00045574  00000+0 -51329-2 0  9990
2 69789  51.8987 263.8604 0012085  39.7053 347.8321 14.86248754  3089
KUIPER-00647            
1 69790U 26151AD  26254.58336806 -.00003836  00000+0 -35527-3 0  9990
2 69790  51.8930 263.8038 0010647  33.3274 197.6472 14.91416111  5481
KUIPER-00662            
1 69791U 26151AE  26254.51493362  .00001440  00000+0  23565-3 0  9991
2 69791  51.9019 276.3854 0001876 345.7702  14.3205 14.76442312 10734
