EUTELSAT 174A           
1 28924U 05052A   26282.77035755  .00000003  00000+0  00000+0 0  9997
2 28924   4.5040  75.0438 0006013 123.8422 270.8395  1.00272960 53480
EUTELSAT 33F            
1 29270U 06032A   26282.96074833  .00000148  00000+0  00000+0 0  9992
2 29270   1.9523  80.7758 0003291 118.2349 198.5533  1.00274080 48457
EUTELSAT HOTBIRD 13C    
1 33459U 08065A   26282.86855131 -.00000289  00000+0  00000+0 0  9998
2 33459   3.2399  77.7320 0003769 125.8466  77.3180  1.00272447 48493
EUTELSAT 36B            
1 36101U 09065A   26282.88848472  .00000104  00000+0  00000+0 0  9993
2 36101   0.7756  80.9746 0005885 114.9332 192.9733  1.00269527 61857
EUTELSAT KA-SAT 9A      
1 37258U 10069A   26282.59520344  .00000051  00000+0  00000+0 0  9997
2 37258   0.0794 352.9225 0005191 177.4419  71.1689  1.00271792 45150
EUTELSAT 7 WEST A       
1 37816U 11051A   26282.87704466 -.00000070  00000+0  00000+0 0  9991
2 37816   0.0671   1.5114 0006404 189.5473 135.8691  1.00271832 55023
EUTELSAT 16A            
1 37836U 11057A   26282.87869134 -.00000048  00000+0  00000+0 0  9998
2 37836   0.1540  71.1812 0005646 125.3051 139.6495  1.00024270  8480
EUTELSAT 21B            
1 38992U 12062B   26282.98987796  .00000121  00000+0  00000+0 0  9997
2 38992   0.0717 348.5379 0002981 201.9960 206.0568  1.00269459 50978
EUTELSAT 70B            
1 39020U 12069A   26282.89238473 -.00000053  00000+0  00000+0 0  9993
2 39020   0.0676  10.1030 0003824 188.4288 211.7532  1.00271884 50654
EUTELSAT 117 WEST A     
1 39122U 13012A   26282.92661823 -.00000022  00000+0  00000+0 0  9994
2 39122   0.0552  55.7951 0002800 142.8651  36.6730  1.00272168 49588
EUTELSAT 7B             
1 39163U 13022A   26282.88163802  .00000094  00000+0  00000+0 0  9997
2 39163   0.0716 354.6174 0002560 120.6581 236.6168  1.00270575 49095
EXPRESS-AT1             
1 39612U 14010A   26282.96539494 -.00000145  00000+0  00000+0 0  9995
2 39612   0.5480  84.0478 0004660  96.7793 264.3406  1.00313885 45966
EXPRESS-AT2             
1 39613U 14010B   26282.88952472  .00000069  00000+0  00000+0 0  9996
2 39613   0.0189 233.6670 0000233 219.6123 301.4716  1.00272230 45649
EUTELSAT 3B             
1 39773U 14030A   26282.87912468  .00000011  00000+0  00000+0 0  9992
2 39773   0.0674  14.2804 0004189 179.0859 144.7236  1.00272429 45214
EUTELSAT 115 WEST B     
1 40425U 15010B   26282.92696490 -.00000034  00000+0  00000+0 0  9993
2 40425   0.0183  55.3049 0000127 136.3666  45.6907  1.00273032 42539
EUTELSAT 8 WEST B       
1 40875U 15039B   26282.87687133 -.00000075  00000+0  00000+0 0  9996
2 40875   0.0692 349.9497 0003643 209.6134 126.6115  1.00271686 40804
EUTELSAT 9B             
1 41310U 16005A   26282.88016469  .00000053  00000+0  00000+0 0  9999
2 41310   0.0707  66.4566 0003308 162.1701 115.7359  1.00272826 39269
EUTELSAT 65 WEST A      
1 41382U 16014A   26282.86560463 -.00000286  00000+0  00000+0 0  9993
2 41382   0.0696 316.1261 0002191 237.2648  71.5254  1.00273516 38679
EUTELSAT 117 WEST B     
1 41589U 16038B   26282.92661823 -.00000021  00000+0  00000+0 0  9994
2 41589   0.0213  47.2702 0000042 214.8797 333.0212  1.00271436 37818
EUTELSAT 172B           
1 42741U 17029B   26282.84125119 -.00000015  00000+0  00000+0 0  9993
2 42741   0.0287 137.7396 0000203 238.6168 116.9732  1.00271782 34905
EUTELSAT 7C             
1 44334U 19034B   26282.87981801  .00000039  00000+0  00000+0 0  9997
2 44334   0.0688 183.2566 0003158 358.4328 160.5451  1.00271033  7986
EUTELSAT 5 WEST B       
1 44624U 19067A   26282.87747801 -.00000052  00000+0  00000+0 0  9991
2 44624   0.0681  16.9585 0003056 179.7406 132.7042  1.00271169 25574
EUTELSAT KONNECT        
1 45027U 20005B   26282.87990468  .00000040  00000+0  00000+0 0  9998
2 45027   0.0708  94.1030 0001348 152.0484  96.3292  1.00269222 25486
EUTELSAT QUANTUM        
1 49056U 21069B   26282.88787804  .00000117  00000+0  00000+0 0  9999
2 49056   0.0046 187.2308 0002221  10.8885 187.7301  1.00272099 19076
EUTELSAT KONNECT VHTS   
1 53765U 22110A   26282.30877287  .00000006  00000+0  00000+0 0  9998
2 53765   0.0589  99.5169 0002422  77.3031 314.9630  1.00272051  7988
EUTELSAT HOTBIRD 13F    
1 54048U 22134A   26282.52454338  .00000077  00000+0  00000+0 0  9999
2 54048   0.0594 286.6773 0002114  73.7614 219.5603  1.00272063 14525
EUTELSAT HOTBIRD 13G    
1 54225U 22146A   26282.85572642  .00000078  00000+0  00000+0 0  9995
2 54225   0.0471 238.3663 0002017 293.1787 168.0033  1.00275601  8618
EUTELSAT 10B            
1 54259U 22157A   26282.88042469  .00000060  00000+0  00000+0 0  9997
2 54259   0.0575  96.3718 0001924  42.9008 206.1986  1.00274286 14172
EUTELSAT 36D            
1 59346U 24059A   26282.81429773  .00000146  00000+0  00000+0 0  9997
2 59346   0.0173 218.6444 0000177 193.7090 295.1156  1.00274211  9290
