IRIDIUM 106             
1 41917U 17003A   26281.19025666  .00000162  00000+0  50833-4 0  9998
2 41917  86.3983  41.2790 0001847 100.3568 259.7836 14.34217647509404
IRIDIUM 103             
1 41918U 17003B   26280.82873378  .00000137  00000+0  41786-4 0  9998
2 41918  86.3980  41.3297 0002076  89.2398 270.9035 14.34216475509376
IRIDIUM 109             
1 41919U 17003C   26280.83509203  .00000061  00000+0  14885-4 0  9999
2 41919  86.3984  41.3884 0002065  94.0872 266.0560 14.34217621509342
IRIDIUM 102             
1 41920U 17003D   26280.87312735 -.00000001  00000+0 -75274-5 0  9993
2 41920  86.3980  41.2941 0002004  96.2831 263.8593 14.34217574509433
IRIDIUM 105             
1 41921U 17003E   26280.76195588  .00000166  00000+0  52126-4 0  9997
2 41921  86.4025   9.8077 0002403  92.8085 267.3386 14.34217682511275
IRIDIUM 104             
1 41922U 17003F   26280.88581345  .00000045  00000+0  91663-5 0  9997
2 41922  86.3982  41.3325 0002285  88.3773 271.7684 14.34217698509427
IRIDIUM 114             
1 41923U 17003G   26280.89215550 -.00000074  00000+0 -33489-4 0  9996
2 41923  86.3982  41.3133 0001986  91.8008 268.3415 14.34217231509407
IRIDIUM 108             
1 41924U 17003H   26280.78090606  .00000092  00000+0  25915-4 0  9991
2 41924  86.4021   9.6829 0002228  96.0992 264.0458 14.34218797511244
IRIDIUM 112             
1 41925U 17003J   26280.87946981  .00000133  00000+0  40460-4 0  9996
2 41925  86.3977  41.1550 0002132  92.6547 267.4893 14.34217512509429
IRIDIUM 111             
1 41926U 17003K   26280.86678466 -.00000028  00000+0 -17137-4 0  9996
2 41926  86.3979  41.2340 0001971  93.3639 266.7782 14.34217585509407
IRIDIUM 113             
1 42803U 17039A   26280.98628524  .00000007  00000+0 -44601-5 0  9996
2 42803  86.3911 275.0149 0002187  87.9219 272.2227 14.34217651487354
IRIDIUM 123             
1 42804U 17039B   26281.02776465  .00000158  00000+0  49216-4 0  9993
2 42804  86.3940 306.4872 0002101  91.6047 268.5390 14.34218714486120
IRIDIUM 120             
1 42805U 17039C   26281.18924534  .00000114  00000+0  33597-4 0  9990
2 42805  86.3901 274.6975 0002167  91.4909 268.6536 14.34218592487370
IRIDIUM 115             
1 42806U 17039D   26281.12783829  .00000118  00000+0  28936-4 0  9990
2 42806  86.4438 274.8674 0002114  87.3051 272.8392 14.43280254490554
IRIDIUM 118             
1 42807U 17039E   26281.05947757  .00000108  00000+0  31519-4 0  9995
2 42807  86.3941 306.4715 0002267  93.3653 266.7802 14.34218513486120
IRIDIUM 117             
1 42808U 17039F   26280.59012338  .00000161  00000+0  50271-4 0  9997
2 42808  86.3939 306.6244 0002172  91.7056 268.4389 14.34219261486086
IRIDIUM 126             
1 42809U 17039G   26281.03410735  .00000038  00000+0  63957-5 0  9990
2 42809  86.3941 306.4918 0002231  90.1487 269.9964 14.34217948486123
IRIDIUM 124             
1 42810U 17039H   26280.92299372  .00000183  00000+0  48328-4 0  9996
2 42810  86.4467 243.1949 0002229  84.5549 275.5906 14.43281561491377
IRIDIUM 128             
1 42811U 17039J   26281.09461516  .00000153  00000+0  47746-4 0  9997
2 42811  86.3999 337.9771 0002057  93.8881 266.2550 14.34217379486162
IRIDIUM 121             
1 42812U 17039K   26281.05313541  .00000050  00000+0  10742-4 0  9990
2 42812  86.3941 306.5124 0002229  93.9269 266.2181 14.34218020486003
IRIDIUM 133             
1 42955U 17061A   26280.70771608  .00000117  00000+0  34579-4 0  9994
2 42955  86.4002 338.2592 0002164  95.5528 264.5914 14.34217971470906
IRIDIUM 100             
1 42956U 17061B   26281.11998532  .00000069  00000+0  17681-4 0  9999
2 42956  86.4000 338.0030 0002198  94.9385 265.2061 14.34218058470965
IRIDIUM 122             
1 42957U 17061C   26281.08827205 -.00000043  00000+0 -22276-4 0  9994
2 42957  86.3995 338.0165 0002058  92.8495 267.2936 14.34217606470962
IRIDIUM 129             
1 42958U 17061D   26281.11364299  .00000021  00000+0  49721-6 0  9998
2 42958  86.3996 338.0741 0002295  92.5253 267.6205 14.34217743470983
IRIDIUM 119             
1 42959U 17061E   26281.15169429  .00000147  00000+0  45428-4 0  9998
2 42959  86.4003 338.0547 0002169  92.9679 267.1765 14.34216818471006
IRIDIUM 107             
1 42960U 17061F   26281.17072584  .00000064  00000+0  15928-4 0  9997
2 42960  86.4000 338.0687 0001997  92.0626 268.0798 14.34217615471014
IRIDIUM 132             
1 42961U 17061G   26281.10729977 -.00000012  00000+0 -11353-4 0  9999
2 42961  86.3997 338.0737 0002099  94.4126 265.7309 14.34217532471009
IRIDIUM 136             
1 42962U 17061H   26281.13901316  .00000162  00000+0  50884-4 0  9998
2 42962  86.4002 338.0680 0002185  96.1914 263.9531 14.34217830471025
IRIDIUM 139             
1 42963U 17061J   26280.65697489  .00000061  00000+0  14858-4 0  9997
2 42963  86.4004 338.3330 0002165  94.9824 265.1619 14.34218212470965
IRIDIUM 125             
1 42964U 17061K   26281.13267024  .00000041  00000+0  76669-5 0  9997
2 42964  86.4005 338.1974 0002129  82.1377 278.0061 14.34217823471042
IRIDIUM 135             
1 43070U 17083A   26280.96725789 -.00000032  00000+0 -18491-4 0  9997
2 43070  86.3906 274.8524 0002134  89.0314 271.1126 14.34217177460316
IRIDIUM 138             
1 43071U 17083B   26280.50424821 -.00000001  00000+0 -75884-5 0  9997
2 43071  86.3918 274.7587 0002184  86.4681 273.6765 14.34217545460237
IRIDIUM 116             
1 43072U 17083C   26280.96091475  .00000153  00000+0  47403-4 0  9994
2 43072  86.3903 274.8397 0002063  95.2161 264.9270 14.34217667460339
IRIDIUM 130             
1 43073U 17083D   26280.51059108  .00000015  00000+0 -17929-5 0  9992
2 43073  86.3912 275.3146 0001940  90.2278 269.9140 14.34217451460214
IRIDIUM 151             
1 43074U 17083E   26280.48522072  .00000014  00000+0 -22113-5 0  9994
2 43074  86.3907 275.0991 0002231  90.9239 269.2212 14.34217327460239
IRIDIUM 134             
1 43075U 17083F   26280.52327699  .00000075  00000+0  19554-4 0  9998
2 43075  86.3907 275.0927 0002169  88.9856 271.1588 14.34217917460201
IRIDIUM 137             
1 43076U 17083G   26280.95457325  .00000174  00000+0  55027-4 0  9991
2 43076  86.3911 275.0072 0002316  96.7775 263.3685 14.34217301460331
IRIDIUM 141             
1 43077U 17083H   26280.94822842  .00000057  00000+0  13393-4 0  9991
2 43077  86.3905 274.8341 0002266  88.1881 271.9574 14.34218222460333
IRIDIUM 153             
1 43078U 17083J   26280.41202958  .00000168  00000+0  52885-4 0  9996
2 43078  86.3943 243.5253 0002296  82.8067 277.3389 14.34216923461365
IRIDIUM 131             
1 43079U 17083K   26280.51693300 -.00000025  00000+0 -15931-4 0  9998
2 43079  86.3909 275.2083 0002170  89.6360 270.5085 14.34217481460203
IRIDIUM 144             
1 43249U 18030A   26280.76721348  .00000149  00000+0  46213-4 0  9993
2 43249  86.3942 243.3031 0002171  88.3887 271.7558 14.34219033446273
IRIDIUM 149             
1 43250U 18030B   26280.98286346  .00000147  00000+0  45498-4 0  9995
2 43250  86.3941 243.1787 0002274  83.9183 276.2272 14.34217813446327
IRIDIUM 157             
1 43251U 18030C   26280.37397414  .00000032  00000+0  42398-5 0  9998
2 43251  86.3942 243.4892 0002210  85.3326 274.8122 14.34217895446210
IRIDIUM 140             
1 43252U 18030D   26280.39300218  .00000036  00000+0  57667-5 0  9996
2 43252  86.3941 243.4934 0002200  85.5245 274.6202 14.34217749446279
IRIDIUM 145             
1 43253U 18030E   26280.72915834  .00000136  00000+0  41640-4 0  9994
2 43253  86.3941 243.3250 0002048  90.9873 269.1558 14.34217246446250
IRIDIUM 146             
1 43254U 18030F   26280.77989938  .00000069  00000+0  17719-4 0  9991
2 43254  86.3943 243.3155 0002165  87.8587 272.2857 14.34218418446275
IRIDIUM 148             
1 43255U 18030G   26280.39934495  .00000036  00000+0  56379-5 0  9998
2 43255  86.3942 243.5195 0002277  87.5312 272.6145 14.34217539446253
IRIDIUM 142             
1 43256U 18030H   26280.43740026  .00000043  00000+0  84593-5 0  9996
2 43256  86.3939 243.3885 0002149  89.0999 271.0443 14.34218094446228
IRIDIUM 150             
1 43257U 18030J   26280.40568714  .00000176  00000+0  55694-4 0  9992
2 43257  86.3941 243.5215 0002154  86.4658 273.6784 14.34217892446243
IRIDIUM 143             
1 43258U 18030K   26280.45642788  .00000135  00000+0  41023-4 0  9998
2 43258  86.3945 243.5974 0002138  86.2374 273.9067 14.34217474446181
IRIDIUM 161             
1 43478U 18047C   26280.83160656  .00000189  00000+0  50058-4 0  9998
2 43478  86.4502  41.3364 0002315  93.1684 266.9782 14.43280888441382
IRIDIUM 152             
1 43479U 18047D   26280.77798616  .00000154  00000+0  48025-4 0  9998
2 43479  86.3976  41.2214 0002131  93.2401 266.9039 14.34219225438629
IRIDIUM 147             
1 43480U 18047E   26280.85410117  .00000083  00000+0  22657-4 0  9990
2 43480  86.3978  41.1965 0002041  97.7196 262.4232 14.34219753438638
IRIDIUM 110             
1 43481U 18047F   26280.79067404  .00000055  00000+0  12633-4 0  9993
2 43481  86.3983  41.3181 0002370  92.1117 268.0350 14.34218301438613
IRIDIUM 162             
1 43482U 18047G   26280.89463456  .00000149  00000+0  38345-4 0  9994
2 43482  86.4501  41.1999 0002118  93.0554 267.0889 14.43279408441380
IRIDIUM 160             
1 43569U 18061A   26280.80627670  .00000108  00000+0  31369-4 0  9991
2 43569  86.4024   9.7135 0002201  96.1058 264.0388 14.34218814429510
IRIDIUM 166             
1 43570U 18061B   26281.18049199 -.00000022  00000+0 -14885-4 0  9990
2 43570  86.4017   9.5062 0002039  97.6173 262.5254 14.34217402429599
IRIDIUM 158             
1 43571U 18061C   26280.79993539  .00000016  00000+0 -12406-5 0  9993
2 43571  86.4023   9.6751 0002143  93.8511 266.2930 14.34218070429508
IRIDIUM 165             
1 43572U 18061D   26280.75553794  .00000010  00000+0 -34609-5 0  9998
2 43572  86.4024   9.7421 0002087  96.7264 263.4169 14.34217801429525
IRIDIUM 155             
1 43573U 18061E   26281.20586826  .00000160  00000+0  50013-4 0  9993
2 43573  86.4019   9.4177 0002101  95.2898 264.8537 14.34217561429559
IRIDIUM 154             
1 43574U 18061F   26281.18683394  .00000009  00000+0 -38205-5 0  9992
2 43574  86.4024   9.5648 0002126  97.4836 262.6602 14.34217796429608
IRIDIUM 163             
1 43575U 18061G   26280.74919530 -.00000002  00000+0 -78871-5 0  9995
2 43575  86.4017   9.6591 0002070  94.4955 265.6478 14.34217774429516
IRIDIUM 156             
1 43576U 18061H   26281.21220441 -.00000017  00000+0 -13028-4 0  9993
2 43576  86.4017   9.4733 0001931  95.3892 264.7524 14.34217520429575
IRIDIUM 164             
1 43577U 18061J   26280.77456548  .00000014  00000+0 -20777-5 0  9999
2 43577  86.4018   9.6979 0002058  99.0290 261.1138 14.34217707429552
IRIDIUM 159             
1 43578U 18061K   26281.09169501  .00000018  00000+0 -78066-6 0  9995
2 43578  86.4016   9.5002 0002100  94.3400 265.8035 14.34217857429560
IRIDIUM 180             
1 43922U 19002A   26281.09119138  .00000038  00000+0  63725-5 0  9991
2 43922  86.3939 306.4202 0002264  92.9602 267.1853 14.34217907405176
IRIDIUM 176             
1 43923U 19002B   26281.05334297  .00000406  00000+0  60439-4 0  9990
2 43923  86.6061 306.3634 0002376  92.2051 267.9438 14.72255717415855
IRIDIUM 168             
1 43924U 19002C   26281.01507981  .00000071  00000+0  18151-4 0  9991
2 43924  86.3941 306.5324 0002248  92.8029 267.3424 14.34218167405143
IRIDIUM 173             
1 43925U 19002D   26281.00239486  .00000044  00000+0  87300-5 0  9996
2 43925  86.3938 306.4219 0002207  92.2476 267.8972 14.34217874405122
IRIDIUM 169             
1 43926U 19002E   26281.14125741  .00000230  00000+0  68766-4 0  9991
2 43926  86.4256 338.0013 0001891  89.1738 270.9677 14.38607748406466
IRIDIUM 172             
1 43927U 19002F   26280.57743950  .00000137  00000+0  41784-4 0  9993
2 43927  86.3939 306.6080 0002255  92.2491 267.8963 14.34218800405077
IRIDIUM 175             
1 43928U 19002G   26280.98002808  .00000204  00000+0  54226-4 0  9999
2 43928  86.4496 243.3455 0002716 166.1051 194.0226 14.43651791415259
IRIDIUM 171             
1 43929U 19002H   26281.04679248  .00000066  00000+0  16503-4 0  9998
2 43929  86.3949 306.7306 0002167  94.4157 265.7287 14.34218154405132
IRIDIUM 170             
1 43930U 19002J   26281.05953752  .00000425  00000+0  63466-4 0  9995
2 43930  86.6060 306.3622 0002396  91.1640 268.9852 14.72253100415869
IRIDIUM 167             
1 43931U 19002K   26281.04044944  .00000068  00000+0  17078-4 0  9990
2 43931  86.3940 306.4377 0002026  94.7682 265.3745 14.34218211405130
IRIDIUM 181             
1 56726U 23068S   26280.76672737  .00000201  00000+0  53863-4 0  9999
2 56726  86.4560   9.7348 0002341  97.1359 263.0108 14.43309034178672
IRIDIUM 177             
1 56727U 23068T   26280.01235837  .00000280  00000+0  35922-4 0  9997
2 56727  86.1909 275.7619 0002463  86.3827 273.7674 14.77173851182896
IRIDIUM 174             
1 56728U 23068U   26280.57139917  .00000429  00000+0  64185-4 0  9999
2 56728  86.6070 306.7253 0002374  88.3003 271.8486 14.72254186182558
IRIDIUM 178             
1 56729U 23068V   26280.67906649  .00000561  00000+0  70650-4 0  9996
2 56729  86.6570 338.3932 0002403  89.6839 270.4658 14.80040843183002
IRIDIUM 179             
1 56730U 23068W   26280.67366969  .00000678  00000+0  86141-4 0  9994
2 56730  86.6819 347.7044 0001967  86.3502 273.7944 14.80036014183002
