GLOBALSTAR M069         
1 31573U 07020C   26256.57573168 -.00000062  00000+0  27863-3 0  9998
2 31573  52.0064   1.9501 0001361 344.7772  28.2015 12.23474592889629
GLOBALSTAR M072         
1 31574U 07020D   26256.31200867 -.00000095  00000+0 -15177-3 0  9996
2 31574  51.9909 225.6328 0001318 105.3108  42.7230 11.91660081885488
GLOBALSTAR M066         
1 32265U 07048C   26256.78011740 -.00000131  00000+0 -30750-3 0  9990
2 32265  51.9579 163.5873 0004144 226.0578 166.8053 12.30390576871137
GLOBALSTAR M079         
1 37188U 10054A   26256.81269307 -.00000093  00000+0  61769-4 0  9999
2 37188  52.0029 198.8807 0000369  94.9140 282.0603 12.62267399733745
GLOBALSTAR M074         
1 37189U 10054B   26256.55651023 -.00000099  00000+0  26295-4 0  9992
2 37189  52.0002 198.9134 0000402  50.0620 121.2564 12.62263068734318
GLOBALSTAR M076         
1 37190U 10054C   26256.58283696 -.00000101  00000+0  15016-4 0  9997
2 37190  52.0017 199.0442 0000202  65.8304 105.2000 12.62263562734036
GLOBALSTAR M077         
1 37191U 10054D   26256.58530411 -.00000076  00000+0  30745-4 0  9995
2 37191  51.9979 314.9309 0002523 343.2381 185.5393 11.67548012731468
GLOBALSTAR M075         
1 37192U 10054E   26256.67505012 -.00000117  00000+0 -74247-4 0  9997
2 37192  51.9929 240.7680 0000435  70.9443 100.3477 12.62260490733114
GLOBALSTAR M073         
1 37193U 10054F   26256.72091462 -.00000075  00000+0  16331-3 0  9994
2 37193  52.0052 154.7961 0000472  85.8139 292.7387 12.62267958735112
GLOBALSTAR M083         
1 37739U 11033A   26256.57572358 -.00000077  00000+0  14718-3 0  9998
2 37739  51.9844 103.3468 0000636 102.4399 275.7328 12.62259127704114
GLOBALSTAR M088         
1 37740U 11033B   26256.73937485 -.00000103  00000+0  22717-5 0  9994
2 37740  52.0242   9.4871 0000642  98.8965  63.8774 12.62270193699679
GLOBALSTAR M091         
1 37741U 11033C   26256.41792073 -.00000087  00000+0  93636-4 0  9990
2 37741  52.0019 333.3045 0000635 114.2540 326.7736 12.62264764700420
GLOBALSTAR M085         
1 37742U 11033D   26256.58349824 -.00000095  00000+0  51429-4 0  9994
2 37742  52.0122 284.1708 0000492 117.0639  56.6282 12.62265270700952
GLOBALSTAR M081         
1 37743U 11033E   26256.52841965 -.00000087  00000+0  91673-4 0  9998
2 37743  51.9954 286.6733 0000293 118.9979  44.5659 12.62266253701097
GLOBALSTAR M089         
1 37744U 11033F   26256.32469784 -.00000105  00000+0 -45829-5 0  9997
2 37744  51.9913 241.4338 0000368  26.0718 112.3605 12.62263566701916
GLOBALSTAR M084         
1 38040U 11080A   26256.54844308 -.00000088  00000+0  90704-4 0  9992
2 38040  51.9995 108.2789 0000518  69.2762 306.4550 12.62264135679924
GLOBALSTAR M080         
1 38041U 11080B   26255.90609226 -.00000075  00000+0  16185-3 0  9996
2 38041  52.0047 111.9868 0001171  86.1304  17.1068 12.62258765679966
GLOBALSTAR M082         
1 38042U 11080C   26256.88452421 -.00000112  00000+0 -47092-4 0  9993
2 38042  52.0074  64.5132 0000961 103.4023  60.1657 12.62262844680799
GLOBALSTAR M092         
1 38043U 11080D   26256.75047448 -.00000083  00000+0  11331-3 0  9991
2 38043  52.0072 155.3254 0000655  68.6441 324.8750 12.62265895679238
GLOBALSTAR M090         
1 38044U 11080E   26256.48678931 -.00000117  00000+0 -75393-4 0  9997
2 38044  52.0121  59.7076 0000890 111.0675 283.2508 12.62268232680864
GLOBALSTAR M086         
1 38045U 11080F   26256.42407903 -.00000109  00000+0 -27934-4 0  9990
2 38045  51.9897  59.6821 0000602 208.8649 168.5295 12.62289063680804
GLOBALSTAR M097         
1 39072U 13005A   26256.61127714 -.00000093  00000+0  61363-4 0  9995
2 39072  52.0070 334.1637 0000597 119.5484 240.5442 12.62271214628079
GLOBALSTAR M093         
1 39073U 13005B   26256.66393236 -.00000084  00000+0  11129-3 0  9999
2 39073  52.0124 327.3871 0000643 137.9896 222.1020 12.62267086628033
GLOBALSTAR M094         
1 39074U 13005C   26256.66385311 -.00000119  00000+0 -87764-4 0  9994
2 39074  51.9939 241.4154 0000319 109.6070 250.4831 12.62264788629644
GLOBALSTAR M096         
1 39075U 13005D   26256.83552495 -.00000095  00000+0  51383-4 0  9993
2 39075  52.0072 289.7639 0000534 115.3313 244.7609 12.62264459628587
GLOBALSTAR M078         
1 39076U 13005E   26256.57149347 -.00000167  00000+0 -35529-3 0  9997
2 39076  51.9901  14.4559 0001570 100.8154 259.2889 12.62259407627176
GLOBALSTAR M095         
1 39077U 13005F   26256.36049032 -.00000112  00000+0 -45732-4 0  9993
2 39077  52.0106  12.8254 0001049 115.3232 244.7744 12.62264429627000
GLOBALSTAR M087         
1 52888U 22064A   26256.45279959 -.00000070  00000+0  19019-3 0  9996
2 52888  51.9986 153.7344 0000709  89.7339 270.3609 12.62262919202284
