QIANFAN-1               
1 60379U 24140A   26262.83551808  .00000037  00000+0  38629-4 0  9993
2 60379  88.9664 270.0949 0019387 119.6446 240.6638 13.51025926105300
QIANFAN-2               
1 60380U 24140B   26262.79028044  .00000031  00000+0  28636-4 0  9992
2 60380  88.9651 269.9009 0014899  95.0402 265.2450 13.51020318105354
QIANFAN-3               
1 60381U 24140C   26262.79867220  .00000036  00000+0  37441-4 0  9999
2 60381  88.9643 270.0113 0015985 105.8407 254.4508 13.51023071105260
QIANFAN-4               
1 60382U 24140D   26262.77385660  .00000010  00000+0 -28408-5 0  9998
2 60382  88.9668 269.9823 0015141  97.2186 263.0687 13.51021017105380
QIANFAN-5               
1 60383U 24140E   26262.74906891  .00000034  00000+0  33401-4 0  9994
2 60383  88.9643 270.0407 0017099 116.0907 244.2007 13.51031278105242
QIANFAN-6               
1 60384U 24140F   26262.76973146  .00000022  00000+0  14488-4 0  9995
2 60384  88.9670 269.8612 0015228 102.3081 257.9776 13.51024120105444
QIANFAN-7               
1 60385U 24140G   26262.77602858  .00000128  00000+0  45892-4 0  9996
2 60385  88.9721 260.6384 0014484 186.2106 173.8911 14.27893436110495
QIANFAN-8               
1 60386U 24140H   26262.77808971  .00000016  00000+0  52973-5 0  9996
2 60386  88.9671 270.1012 0018669 104.5291 255.7933 13.51026046105298
QIANFAN-9               
1 60387U 24140J   26262.82738464  .00000038  00000+0  40392-4 0  9997
2 60387  88.9669 270.1657 0018370 104.1778 256.1415 13.51021707105284
QIANFAN-10              
1 60388U 24140K   26262.83148905  .00000048  00000+0  55209-4 0  9998
2 60388  88.9680 269.5423 0016845  84.2151 276.0920 13.51021845105419
QIANFAN-11              
1 60389U 24140L   26262.79458360  .00000025  00000+0  20084-4 0  9991
2 60389  88.9605 269.9215 0016394 103.8585 256.4391 13.51021062105064
QIANFAN-12              
1 60390U 24140M   26262.81509895  .00000024  00000+0  17557-4 0  9996
2 60390  88.9648 270.0851 0015154 110.7758 249.5018 13.51023648105199
QIANFAN-13              
1 60391U 24140N   26262.78625593  .00000032  00000+0  30048-4 0  9996
2 60391  88.9908 270.3307 0014950 112.8275 247.4457 13.51023746105214
QIANFAN-14              
1 60392U 24140P   26262.81105652  .00000022  00000+0  14994-4 0  9991
2 60392  88.9639 270.0576 0018622 113.6814 246.6294 13.51025851105229
QIANFAN-15              
1 60393U 24140Q   26262.74508889  .00000038  00000+0  39765-4 0  9993
2 60393  88.9662 270.0879 0014538 101.2402 259.0384 13.51028116105203
QIANFAN-16              
1 60394U 24140R   26262.80678028  .00000024  00000+0  18071-4 0  9996
2 60394  88.9665 270.2093 0016500 116.7208 243.5634 13.51025270105128
QIANFAN-17              
1 60395U 24140S   26262.80280627  .00000030  00000+0  27350-4 0  9998
2 60395  88.9675 270.2864 0016974 111.2239 249.0727 13.51021595106081
QIANFAN-18              
1 60396U 24140T   26262.78223897  .00000017  00000+0  66287-5 0  9990
2 60396  88.9670 269.8040 0016430  96.0904 264.2120 13.51020899105477
QIANFAN-19              
1 61552U 24185A   26262.79421142  .00000275  00000+0  13577-3 0  9996
2 61552  88.9855  45.7414 0008804 115.8628 244.3468 14.14531524109393
QIANFAN-20              
1 61553U 24185B   26262.77772025  .00000343  00000+0  18964-3 0  9995
2 61553  88.9850  46.3444 0006660 148.1059 212.0529 14.09072324109060
QIANFAN-21              
1 61554U 24185C   26262.78576740  .00000399  00000+0  17074-3 0  9995
2 61554  88.9776  44.0699 0011446 157.2519 202.9182 14.22933130109930
QIANFAN-22              
1 61555U 24185D   26262.76806705  .00000070  00000+0  49345-4 0  9994
2 61555  88.9829  48.4595 0005707 198.0192 162.0777 13.86429410107873
QIANFAN-23              
1 61556U 24185E   26262.79418462  .00000245  00000+0  11562-3 0  9990
2 61556  88.9848  45.4203 0009248 122.8577 237.3502 14.16553101109530
QIANFAN-24              
1 61557U 24185F   26262.76043396  .00000430  00000+0  18020-3 0  9990
2 61557  88.9834  44.3716 0011723 100.7306 259.5207 14.24157156110011
QIANFAN-25              
1 61558U 24185G   26262.75981655  .00000351  00000+0  20536-3 0  9996
2 61558  88.9842  46.3925 0013011 172.5790 187.5587 14.06130814108998
QIANFAN-26              
1 61559U 24185H   26262.78476904  .00000135  00000+0  12159-3 0  9998
2 61559  88.9834  49.4181 0004254 227.1876 132.8933 13.77945041107371
QIANFAN-27              
1 61560U 24185J   26262.77110256  .00000325  00000+0  12620-3 0  9998
2 61560  88.9845  44.0081 0009466  88.8452 271.3826 14.27602821110250
QIANFAN-28              
1 61561U 24185K   26262.80444304  .00000531  00000+0  20635-3 0  9991
2 61561  88.9863  44.0191 0009417  87.0437 273.1835 14.28487351110297
QIANFAN-29              
1 61562U 24185L   26262.79686905  .00000141  00000+0  19892-3 0  9995
2 61562  88.9801  52.2591 0008618 326.6055  33.4552 13.51094246105744
QIANFAN-30              
1 61563U 24185M   26262.76208951  .00000137  00000+0  19656-3 0  9997
2 61563  88.9822  51.8959 0006094 312.8057  47.2581 13.50076085105987
QIANFAN-31              
1 61564U 24185N   26262.77409574  .00000165  00000+0  21125-3 0  9998
2 61564  88.9807  51.2506 0005319 293.3088  66.7507 13.58064702106301
QIANFAN-32              
1 61565U 24185P   26262.79904012  .00000096  00000+0  13102-3 0  9997
2 61565  88.9861  52.1081 0008887 346.2410  13.8497 13.50806286105987
QIANFAN-33              
1 61566U 24185Q   26262.74760631  .00000282  00000+0  19322-3 0  9997
2 61566  88.9832  47.4832 0008456 155.4081 204.7501 13.96753171108381
QIANFAN-34              
1 61567U 24185R   26262.77239701  .00000418  00000+0  26275-3 0  9996
2 61567  88.9812  46.6726 0006560 148.7843 211.3727 14.02521554108748
QIANFAN-35              
1 61568U 24185S   26262.79161933  .00000445  00000+0  17223-3 0  9993
2 61568  88.9844  43.8981 0008508  85.3637 274.8529 14.28358415110296
QIANFAN-36              
1 61569U 24185T   26262.73956580  .00000080  00000+0  97218-4 0  9996
2 61569  88.9799  51.7617 0004840 317.8887  42.1894 13.55647417105999
QIANFAN-37              
1 62238U 24232B   26262.76503950  .00000091  00000+0  12208-3 0  9992
2 62238  89.0156  13.1126 0001933  87.2644 272.8728 13.51030515137116
QIANFAN-38              
1 62239U 24232C   26262.78981286  .00000112  00000+0  15435-3 0  9996
2 62239  89.0163  13.0450 0016498 103.6624 256.6366 13.51028758137177
QIANFAN-39              
1 62240U 24232D   26262.77098368  .00000321  00000+0  12963-3 0  9992
2 62240  89.0141   5.3265 0014463 231.9110 128.0779 14.25561616141428
QIANFAN-40              
1 62241U 24232E   26262.74867120  .00000127  00000+0  17767-3 0  9991
2 62241  89.0191  12.7119 0015576 110.7366 249.5456 13.51029068137533
QIANFAN-41              
1 62242U 24232F   26262.75687372  .00000100  00000+0  13536-3 0  9993
2 62242  89.0161  12.9945 0015891 100.2880 260.0063 13.51030156137199
QIANFAN-42              
1 62243U 24232G   26262.73752378  .00000304  00000+0  12450-3 0  9991
2 62243  89.0140   5.4191 0013100 239.6302 120.3596 14.24648593141379
QIANFAN-43              
1 62244U 24232H   26262.75276529  .00000115  00000+0  15851-3 0  9991
2 62244  89.0166  13.0726 0017446 104.8780 255.4305 13.51029668105808
QIANFAN-44              
1 62245U 24232J   26262.74044597  .00000111  00000+0  15239-3 0  9995
2 62245  89.0164  12.8800 0015655 102.3162 257.9743 13.51029888137277
QIANFAN-45              
1 62246U 24232K   26262.78160853  .00000111  00000+0  15341-3 0  9998
2 62246  89.0167  13.0325 0016312 101.8612 258.4369 13.51028652137202
QIANFAN-46              
1 62247U 24232L   26262.80623141  .00000098  00000+0  13249-3 0  9995
2 62247  89.0164  13.0875 0016379 106.6706 253.6245 13.51029697137165
QIANFAN-47              
1 62248U 24232M   26262.73632856  .00000102  00000+0  13896-3 0  9995
2 62248  89.0160  13.0161 0016794 106.0969 254.2032 13.51028925137182
QIANFAN-48              
1 62249U 24232N   26262.77345306  .00000093  00000+0  12433-3 0  9996
2 62249  89.0163  13.0253 0019058 108.3677 251.9549 13.51023256137195
QIANFAN-49              
1 62250U 24232P   26262.76101625  .00000082  00000+0  10863-3 0  9994
2 62250  89.0163  13.0367 0016128 103.5976 256.6973 13.51030387105783
QIANFAN-50              
1 62251U 24232Q   26262.78566692  .00000102  00000+0  13872-3 0  9992
2 62251  89.0168  13.0578 0017786 104.7123 255.6001 13.51029861105811
QIANFAN-51              
1 62252U 24232R   26262.76924683  .00000089  00000+0  11867-3 0  9995
2 62252  89.0162  13.0360 0015256 108.1007 252.1807 13.51028828105801
QIANFAN-52              
1 62253U 24232S   26262.79802449  .00000099  00000+0  13360-3 0  9995
2 62253  89.0158  12.8957 0017278 101.0187 259.2908 13.51030953105894
QIANFAN-53              
1 62254U 24232T   26262.77752501  .00000100  00000+0  13603-3 0  9990
2 62254  89.0165  13.0236 0016166 102.0965 258.1999 13.51027618105854
QIANFAN-54              
1 62255U 24232U   26262.74454448  .00000113  00000+0  15610-3 0  9991
2 62255  89.0157  12.6805 0003857 125.9496 234.2013 13.51029464137352
QIANFAN-55              
1 62785U 25016A   26262.84470844  .00000054  00000+0  64600-4 0  9997
2 62785  88.9671  74.0253 0015582 254.4511 105.4920 13.51024843 85143
QIANFAN-56              
1 62786U 25016B   26262.78693579  .00000052  00000+0  62391-4 0  9996
2 62786  88.9646  73.7929 0014162 257.4571 102.4996 13.51028067 85180
QIANFAN-57              
1 62787U 25016C   26262.82001897  .00000048  00000+0  55602-4 0  9990
2 62787  88.9676  74.0305 0002430  81.9582 278.1845 13.51027784 85159
QIANFAN-58              
1 62788U 25016D   26262.79122978  .00000035  00000+0  34902-4 0  9997
2 62788  88.9647  73.7796 0012133 248.5241 111.4617 13.51027244 85193
QIANFAN-59              
1 62789U 25016E   26262.81574586  .00000057  00000+0  70232-4 0  9997
2 62789  88.9670  73.9169 0012465 252.8542 107.1244 13.51024577 85190
QIANFAN-60              
1 62790U 25016F   26262.84866581  .00000061  00000+0  75852-4 0  9999
2 62790  88.9651  73.8315 0014047 248.9603 111.0046 13.51028042 85189
QIANFAN-61              
1 62791U 25016G   26262.80756543  .00000066  00000+0  84304-4 0  9999
2 62791  88.9717  74.1888 0013013 248.3729 111.6037 13.51027553 85190
QIANFAN-62              
1 62792U 25016H   26262.81179860  .00000065  00000+0  82869-4 0  9995
2 62792  88.9665  73.9059 0014362 248.8556 111.1061 13.51019998 85186
QIANFAN-63              
1 62793U 25016J   26262.83641617  .00000057  00000+0  69954-4 0  9993
2 62793  88.9671  73.8739 0014364 254.7912 105.1651 13.51022971 85220
QIANFAN-64              
1 62794U 25016K   26262.80347604  .00000064  00000+0  81005-4 0  9999
2 62794  88.9658  73.8137 0012369 246.5516 113.4335 13.51027535 85211
QIANFAN-65              
1 62795U 25016L   26262.79925939  .00000054  00000+0  64701-4 0  9994
2 62795  88.9655  73.8301 0012209 248.4766 111.5084 13.51023639 85191
QIANFAN-66              
1 62796U 25016M   26262.82807794  .00000048  00000+0  56215-4 0  9991
2 62796  88.9674  73.8525 0013353 243.7047 116.2733 13.51019782 85245
QIANFAN-67              
1 62797U 25016N   26262.83216323  .00000057  00000+0  70025-4 0  9990
2 62797  88.9664  73.8500 0013244 251.4520 108.5192 13.51029192 85215
QIANFAN-68              
1 62798U 25016P   26262.82403843  .00000049  00000+0  57564-4 0  9999
2 62798  88.9668  73.9060 0013340 249.1017 110.8707 13.51021940 85192
QIANFAN-69              
1 62799U 25016Q   26262.84039391  .00000059  00000+0  73155-4 0  9990
2 62799  88.9647  73.7140 0014063 250.7168 109.2462 13.51024284 85234
QIANFAN-70              
1 62800U 25016R   26262.85698704  .00000060  00000+0  74858-4 0  9996
2 62800  88.9667  73.9092 0013781 239.8155 120.1631 13.51023922 85190
QIANFAN-71              
1 62801U 25016S   26262.85282138  .00000053  00000+0  63408-4 0  9998
2 62801  88.9661  73.8722 0013943 254.7045 105.2565 13.51026886 85190
QIANFAN-72              
1 62802U 25016T   26262.79532800  .00000069  00000+0  88035-4 0  9996
2 62802  88.9652  73.8642 0017169 263.1465  96.7733 13.51028585 85173
QIANFAN-73              
1 63159U 25046A   26262.74821760  .00000054  00000+0  64849-4 0  9997
2 63159  88.9643 290.8444 0016049  38.3242 321.9046 13.51025425 85351
QIANFAN-74              
1 63160U 25046B   26262.80585730  .00000006  00000+0 -91472-5 0  9991
2 63160  88.9644 290.7283 0001883  97.7816 262.3549 13.51018606 85427
QIANFAN-75              
1 63161U 25046C   26262.71948307  .00000075  00000+0  97986-4 0  9995
2 63161  88.9646 290.9748 0017267  41.3251 318.9203 13.51030949 85282
QIANFAN-76              
1 63162U 25046D   26262.78949756 -.00000081  00000+0 -14438-3 0  9991
2 63162  88.9644 290.9472 0014741  42.3580 317.8707 13.51021452 85304
QIANFAN-77              
1 63163U 25046E   26262.83998094  .00000109  00000+0  69179-4 0  9999
2 63163  88.9650 286.6312 0012569 285.0661  74.9125 13.96246957 87674
QIANFAN-78              
1 63164U 25046F   26262.83111429  .00000053  00000+0  62828-4 0  9991
2 63164  88.9645 290.8046 0016229  43.6700 316.5732 13.51012353 85386
QIANFAN-79              
1 63165U 25046G   26262.78525845  .00000015  00000+0  40633-5 0  9996
2 63165  88.9648 290.9266 0015908  42.5765 317.6616 13.51021121 85327
QIANFAN-80              
1 63166U 25046H   26262.80172227  .00000068  00000+0  86668-4 0  9997
2 63166  88.9645 290.6241 0014937  47.1424 313.0979 13.51029902 85483
QIANFAN-81              
1 63167U 25046J   26262.78111269  .00000097  00000+0  13122-3 0  9990
2 63167  88.9645 290.6935 0015826  36.9942 323.2297 13.51020828 85432
QIANFAN-82              
1 63168U 25046K   26262.81410972  .00000079  00000+0  10379-3 0  9999
2 63168  88.9645 290.7344 0013917  44.0975 316.1283 13.51020736 85426
QIANFAN-83              
1 63169U 25046L   26262.77201412  .00000044  00000+0  40915-4 0  9994
2 63169  88.9647 289.9610 0014234  14.8000 345.3571 13.62064864 85855
QIANFAN-84              
1 63170U 25046M   26262.76885032 -.00000055  00000+0 -10338-3 0  9990
2 63170  88.9644 290.8717 0016771  39.6205 320.6168 13.51016953 85349
QIANFAN-85              
1 63171U 25046N   26262.83874602  .00000068  00000+0  86411-4 0  9998
2 63171  88.9644 290.7340 0014428  42.6532 317.5737 13.51020900 85428
QIANFAN-86              
1 63172U 25046P   26262.84694990  .00000086  00000+0  11365-3 0  9995
2 63172  88.9647 290.6019 0012447  47.5783 312.6419 13.51025920 85504
QIANFAN-87              
1 63173U 25046Q   26262.74407323  .00000020  00000+0  11919-4 0  9991
2 63173  88.9643 290.7138 0012814  43.0336 317.1814 13.51031974 85423
QIANFAN-88              
1 63174U 25046R   26262.83459380  .00000063  00000+0  77967-4 0  9994
2 63174  88.9646 290.6658 0013480  50.5311 309.7030 13.51019355 85469
QIANFAN-89              
1 63175U 25046S   26262.79756878  .00000020  00000+0  12092-4 0  9993
2 63175  88.9645 290.8586 0017704  39.6365 320.6077 13.51020013 85355
QIANFAN-90              
1 63176U 25046T   26262.82643720  .00000017  00000+0  83051-5 0  9999
2 63176  88.9646 290.8289 0014601  39.4562 320.7649 13.51019882 85377
QIANFAN-91              
1 66033U 25233A   26262.63665524  .00000078  00000+0  10259-3 0  9992
2 66033  89.0053  33.6410 0001759  93.3986 266.7366 13.51029477 45938
QIANFAN-92              
1 66034U 25233B   26262.64515287  .00000035  00000+0  36362-4 0  9991
2 66034  89.0038  33.5965 0001988 100.6496 259.4879 13.51016049 45937
QIANFAN-93              
1 66035U 25233C   26260.35705125 -.01893751  00000+0 -34531+1 0  9990
2 66035  89.0038  33.9026 0006262  26.1590 333.9873 13.45060301 45628
QIANFAN-94              
1 66036U 25233D   26262.34458192  .00000079  00000+0  10436-3 0  9992
2 66036  89.0060  33.6042 0001772  99.7637 260.3714 13.51027840 45948
QIANFAN-95              
1 66037U 25233E   26260.35280701 -.01881968  00000+0 -34325+1 0  9998
2 66037  89.0070  33.3481 0009145  41.7698 318.4146 13.45007786 45922
QIANFAN-96              
1 66038U 25233F   26262.59963803  .00000077  00000+0  10046-3 0  9996
2 66038  89.0055  33.6608 0001731  91.6128 268.5222 13.51029010 45926
QIANFAN-97              
1 66039U 25233G   26262.73130814  .00000044  00000+0  49682-4 0  9994
2 66039  89.0058  33.6346 0001820  94.0120 266.1239 13.51038877 45942
QIANFAN-98              
1 66040U 25233H   26262.66550523  .00000080  00000+0  10528-3 0  9997
2 66040  89.0048  33.3620 0001634 112.9310 247.2014 13.51029282 46086
QIANFAN-99              
1 66041U 25233J   26262.66954109  .00000080  00000+0  10531-3 0  9990
2 66041  89.0059  33.6455 0001480 107.1084 253.0229 13.51035738 45941
QIANFAN-100             
1 66042U 25233K   26262.66141844  .00000082  00000+0  10893-3 0  9998
2 66042  89.0070  33.5840 0001811  94.2867 265.8491 13.51020298 45997
QIANFAN-101             
1 66043U 25233L   26262.61910911  .00000272  00000+0  10611-3 0  9992
2 66043  89.0059  29.7331 0014901 186.0166 174.0851 14.26861413 48093
QIANFAN-102             
1 66044U 25233M   26262.31164095  .00000082  00000+0  10769-3 0  9997
2 66044  89.0056  33.5890 0001717 100.5611 259.5734 13.51028511 45942
QIANFAN-103             
1 66045U 25233N   26262.68610125  .00000040  00000+0  43201-4 0  9990
2 66045  89.0061  33.6490 0001804  94.3166 265.8192 13.51028448 45945
QIANFAN-104             
1 66046U 25233P   26262.69012617  .00000087  00000+0  11626-3 0  9990
2 66046  89.0065  33.5552 0001804 102.4947 257.6406 13.51026546 45995
QIANFAN-105             
1 66047U 25233Q   26262.69848167  .00000043  00000+0  47895-4 0  9998
2 66047  89.0077  33.4098 0001820  99.0441 261.0916 13.51029730 46108
QIANFAN-106             
1 66048U 25233R   26262.32394145  .00000089  00000+0  11852-3 0  9994
2 66048  89.0046  33.6308 0001620 109.9435 250.1891 13.51030124 45898
QIANFAN-107             
1 66049U 25233S   26262.70249433  .00000087  00000+0  11671-3 0  9993
2 66049  89.0063  33.6403 0001840  95.0309 265.1053 13.51029477 45955
QIANFAN-108             
1 66050U 25233T   26262.63260451  .00000076  00000+0  98700-4 0  9997
2 66050  89.0055  33.6282 0001661 108.8901 251.2430 13.51029124 45948
QIANFAN-109             
1 68636U 26075A   26262.79459527  .00000049  00000+0  57500-4 0  9998
2 68636  88.9865 311.3588 0002057  83.7047 276.4339 13.51020827 22565
QIANFAN-110             
1 68637U 26075B   26262.80276560  .00000042  00000+0  46177-4 0  9996
2 68637  88.9865 311.3795 0002251  97.1382 263.0025 13.51021765 22569
QIANFAN-111             
1 68638U 26075C   26262.79068528  .00000045  00000+0  50409-4 0  9994
2 68638  88.9864 311.3397 0002223  96.6832 263.4572 13.51021245 22586
QIANFAN-112             
1 68639U 26075D   26262.82761843  .00000043  00000+0  47667-4 0  9999
2 68639  88.9863 311.3437 0002291  84.3946 275.7466 13.51023641 22586
QIANFAN-113             
1 68640U 26075E   26262.79866821  .00000060  00000+0  74219-4 0  9991
2 68640  88.9869 311.3456 0002290  94.2161 265.9252 13.51020249 22588
QIANFAN-114             
1 68641U 26075F   26262.80689580  .00000040  00000+0  43273-4 0  9993
2 68641  88.9864 311.3595 0002216  96.4175 263.7229 13.51027891 22574
QIANFAN-115             
1 68642U 26075G   26262.83578021  .00000053  00000+0  62872-4 0  9994
2 68642  88.9864 311.3637 0002084  94.1289 266.0101 13.51024566 22577
QIANFAN-116             
1 68643U 26075H   26262.74934767  .00000033  00000+0  32577-4 0  9995
2 68643  88.9857 311.3260 0002334  87.7762 272.3657 13.51025130 22578
QIANFAN-117             
1 68644U 26075J   26262.81115994  .00000034  00000+0  34187-4 0  9997
2 68644  88.9861 311.3398 0002148  89.9153 270.2244 13.51022976 22582
QIANFAN-118             
1 68645U 26075K   26262.25150272  .00000044  00000+0  49989-4 0  9991
2 68645  88.9867 311.4096 0002316  98.9750 261.1664 13.51024730 22502
QIANFAN-119             
1 68646U 26075L   26262.30079530  .00000038  00000+0  40365-4 0  9997
2 68646  88.9867 311.4003 0001991  87.0586 273.0793 13.51020417 22519
QIANFAN-120             
1 68647U 26075M   26262.23911865  .00000045  00000+0  50629-4 0  9998
2 68647  88.9869 311.3931 0001929  86.6002 273.5369 13.51020240 22518
QIANFAN-121             
1 68648U 26075N   26262.26392976  .00000032  00000+0  30642-4 0  9997
2 68648  88.9867 311.3934 0002228  98.2259 261.9145 13.51023776 22516
QIANFAN-122             
1 68649U 26075P   26262.25564863  .00000045  00000+0  50406-4 0  9997
2 68649  88.9865 311.3913 0002142  87.7822 272.3575 13.51027356 22506
QIANFAN-123             
1 68650U 26075Q   26262.29668955  .00000033  00000+0  31921-4 0  9998
2 68650  88.9862 311.3740 0002109  81.5890 278.5501 13.51020268 22493
QIANFAN-124             
1 68651U 26075R   26262.24744407  .00000051  00000+0  59884-4 0  9999
2 68651  88.9865 311.3906 0002166  86.4748 273.6651 13.51026885 22516
QIANFAN-125             
1 68652U 26075S   26262.25981573  .00000036  00000+0  37451-4 0  9997
2 68652  88.9865 311.3912 0002257  97.8334 262.3074 13.51023913 22515
QIANFAN-126             
1 68653U 26075T   26262.26786578  .00000046  00000+0  53230-4 0  9991
2 68653  88.9869 311.3598 0002088  82.3198 277.8190 13.51029351 22533
QIANFAN-127             
1 69073U 26104A   26262.79175635  .00000059  00000+0  72173-4 0  9996
2 69073  88.9923 331.8263 0002542 102.6521 257.4914 13.51028131 17939
QIANFAN-128             
1 69074U 26104B   26262.79986260  .00000051  00000+0  59772-4 0  9993
2 69074  88.9901 331.8494 0002264 112.8255 247.3135 13.51023658 17910
QIANFAN-129             
1 69075U 26104C   26262.82448171  .00000068  00000+0  86765-4 0  9992
2 69075  88.9903 331.7812 0002337 108.0334 252.1072 13.51023605 17952
QIANFAN-130             
1 69076U 26104D   26262.78743394  .00000071  00000+0  90881-4 0  9991
2 69076  88.9906 331.8508 0002517  97.1199 263.0238 13.51021777 17915
QIANFAN-131             
1 69077U 26104E   26262.80818395  .00000060  00000+0  74967-4 0  9994
2 69077  88.9899 331.8092 0002078 107.0303 253.1076 13.51025800 17938
QIANFAN-132             
1 69078U 26104F   26262.72162089  .00000052  00000+0  61778-4 0  9995
2 69078  88.9901 331.8747 0002394  99.9446 260.1975 13.51022000 17898
QIANFAN-133             
1 69079U 26104G   26262.80402031  .00000058  00000+0  71159-4 0  9999
2 69079  88.9904 331.8164 0002013 113.0428 247.0936 13.51030839 17925
QIANFAN-134             
1 69080U 26104H   26262.83279660  .00000058  00000+0  71292-4 0  9992
2 69080  88.9908 331.8399 0002211 112.1450 247.9936 13.51029159 17928
QIANFAN-135             
1 69081U 26104J   26262.81214010  .00000064  00000+0  81168-4 0  9999
2 69081  88.9902 331.8327 0002454 112.0725 248.0687 13.51022289 17929
QIANFAN-136             
1 69082U 26104K   26262.74634228  .00000068  00000+0  87027-4 0  9993
2 69082  88.9904 331.8424 0002064 113.1444 246.9924 13.51032249 17914
QIANFAN-137             
1 69083U 26104L   26262.74226500  .00000071  00000+0  91344-4 0  9995
2 69083  88.9913 331.7195 0002262 100.3823 259.7583 13.51021981 17989
QIANFAN-138             
1 69084U 26104M   26262.84093698  .00000056  00000+0  68121-4 0  9997
2 69084  88.9898 331.8326 0002529 106.2628 253.8802 13.51021742 17921
QIANFAN-139             
1 69085U 26104N   26262.82877187  .00000062  00000+0  77848-4 0  9992
2 69085  88.9900 331.8157 0002490 100.8072 259.3359 13.51030539 17931
QIANFAN-140             
1 69086U 26104P   26262.76277477  .00000057  00000+0  70194-4 0  9993
2 69086  88.9901 331.8260 0002530 111.0524 249.0898 13.51022866 17926
QIANFAN-141             
1 69087U 26104Q   26262.84513378  .00000064  00000+0  79912-4 0  9991
2 69087  88.9897 331.7818 0002336 112.3217 247.8182 13.51020655 17955
QIANFAN-142             
1 69088U 26104R   26262.77920934  .00000027  00000+0  23926-4 0  9997
2 69088  88.9897 331.7879 0002504 107.1223 253.0202 13.51019779 17945
QIANFAN-143             
1 69089U 26104S   26262.84927078  .00000068  00000+0  86326-4 0  9990
2 69089  88.9907 331.7873 0002012 106.4503 253.6869 13.51027337 17954
QIANFAN-144             
1 69090U 26104T   26262.78332530  .00000071  00000+0  90661-4 0  9999
2 69090  88.9905 331.8122 0002538 103.5481 256.5953 13.51020783 17930
QIANFAN-145             
1 69104U 26108A   26261.89886374  .00000040  00000+0  43079-4 0  9997
2 69104  89.0192  12.6929 0001601 103.7460 256.3869 13.51033885 17092
QIANFAN-146             
1 69105U 26108B   26262.82058735  .00000125  00000+0  17518-3 0  9996
2 69105  89.0195  12.4386 0001956  99.9408 260.1964 13.51040063 17312
QIANFAN-147             
1 69106U 26108C   26262.79604242  .00000109  00000+0  14981-3 0  9996
2 69106  89.0195  12.6084 0002074 103.2862 256.8521 13.51025046 17208
QIANFAN-148             
1 69107U 26108D   26262.78363213  .00000133  00000+0  18788-3 0  9992
2 69107  89.0188  12.5997 0002006 109.9288 250.2079 13.51024617 17202
QIANFAN-149             
1 69108U 26108E   26262.79179522  .00000114  00000+0  15749-3 0  9995
2 69108  89.0189  12.6201 0002298 108.7402 251.3999 13.51024098 17207
QIANFAN-150             
1 69109U 26108F   26262.79999370  .00000103  00000+0  14117-3 0  9993
2 69109  89.0194  12.5725 0002313 107.5037 252.6367 13.51024556 17227
QIANFAN-151             
1 69110U 26108G   26262.75490747  .00000115  00000+0  15899-3 0  9996
2 69110  89.0193  12.6006 0001816 103.7387 256.3967 13.51027756 17204
QIANFAN-152             
1 69111U 26108H   26262.73413735  .00000111  00000+0  15408-3 0  9999
2 69111  89.0189  12.5945 0002222  97.5575 262.5829 13.51028925 17218
QIANFAN-153             
1 69112U 26108J   26262.80409744  .00000117  00000+0  16230-3 0  9993
2 69112  89.0186  12.5639 0002226 103.6888 256.4511 13.51024925 17223
QIANFAN-154             
1 69113U 26108K   26262.73839979  .00000117  00000+0  16325-3 0  9998
2 69113  89.0196  12.6193 0002146 106.0014 254.1374 13.51026875 17206
QIANFAN-155             
1 69114U 26108L   26262.74239977  .00000118  00000+0  16425-3 0  9994
2 69114  89.0194  12.5834 0002278 105.3200 254.8203 13.51023735 17212
QIANFAN-156             
1 69115U 26108M   26262.76294153  .00000102  00000+0  13941-3 0  9997
2 69115  89.0208  12.5826 0001911 108.3447 251.7912 13.51023685 17238
QIANFAN-157             
1 69116U 26108N   26262.75077138  .00000119  00000+0  16572-3 0  9990
2 69116  89.0190  12.5072 0002099 111.2361 248.9015 13.51028420 17265
QIANFAN-158             
1 69117U 26108P   26262.76703470  .00000104  00000+0  14285-3 0  9990
2 69117  89.0191  12.5468 0001866 106.5656 253.5701 13.51023929 17242
QIANFAN-159             
1 69118U 26108Q   26262.75885837  .00000112  00000+0  15480-3 0  9995
2 69118  89.0183  12.5540 0001891 104.1838 255.9523 13.51023720 17235
QIANFAN-160             
1 69119U 26108R   26262.77545154  .00000118  00000+0  16435-3 0  9990
2 69119  89.0198  12.5898 0002392 105.5825 254.5590 13.51023837 17223
QIANFAN-161             
1 69120U 26108S   26262.77940676  .00000121  00000+0  16858-3 0  9993
2 69120  89.0205  12.5061 0001844 105.3190 254.8165 13.51022202 17271
QIANFAN-162             
1 69121U 26108T   26262.77120404  .00000113  00000+0  15571-3 0  9995
2 69121  89.0194  12.5322 0002132  99.3756 260.7637 13.51023061 17241
QIANFAN-163             
1 69325U 26121A   26262.80990338  .00000010  00000+0 -25414-5 0  9997
2 69325  89.0100 291.0946 0002411 120.1607 239.9784 13.51022041 14940
QIANFAN-164             
1 69326U 26121B   26262.77699487  .00000045  00000+0  51314-4 0  9999
2 69326  89.0099 291.0885 0002073 110.9862 249.1511 13.51021485 14946
QIANFAN-165             
1 69382U 26124A   26262.78668323  .00000099  00000+0  13447-3 0  9993
2 69382  89.0070 352.0947 0001930 120.9300 239.2041 13.51022138 14813
QIANFAN-166             
1 69383U 26124B   26262.79083156  .00000104  00000+0  14312-3 0  9999
2 69383  89.0089 352.1050 0001828 104.6192 255.5162 13.51022710 14815
QIANFAN-167             
1 69384U 26124C   26262.72076524  .00000102  00000+0  13977-3 0  9998
2 69384  89.0062 352.1178 0002212 107.0665 253.0728 13.51031689 14791
QIANFAN-168             
1 69385U 26124D   26262.79888569  .00000111  00000+0  15385-3 0  9991
2 69385  89.0059 352.0898 0001647 108.5910 251.5420 13.51020352 14816
QIANFAN-169             
1 69386U 26124E   26262.72908198  .00000108  00000+0  14910-3 0  9995
2 69386  89.0058 352.0966 0001834 100.4686 259.6672 13.51023599 14804
QIANFAN-170             
1 69387U 26124F   26262.73314859  .00000105  00000+0  14386-3 0  9996
2 69387  89.0075 352.0685 0001787  98.6558 261.4796 13.51026059 14829
QIANFAN-171             
1 69388U 26124G   26262.81551222  .00000110  00000+0  15130-3 0  9997
2 69388  89.0090 352.0727 0002118 103.7492 256.3895 13.51029170 14839
QIANFAN-172             
1 69389U 26124H   26262.73725369  .00000100  00000+0  13659-3 0  9997
2 69389  89.0073 352.0704 0001834 117.4528 242.6810 13.51029635 14822
QIANFAN-173             
1 69390U 26124J   26262.74537282  .00000098  00000+0  13361-3 0  9991
2 69390  89.0062 352.0661 0001619 103.5790 256.5541 13.51022604 14826
QIANFAN-174             
1 69391U 26124K   26262.75776867  .00000108  00000+0  14917-3 0  9997
2 69391  89.0042 352.0224 0002233 108.8632 251.2761 13.51030483 14837
QIANFAN-175             
1 69392U 26124L   26262.76200906  .00000107  00000+0  14726-3 0  9992
2 69392  89.0094 352.0668 0001818 102.7327 257.4027 13.51020526 14839
QIANFAN-176             
1 69393U 26124M   26262.76610405  .00000105  00000+0  14401-3 0  9990
2 69393  89.0056 352.0464 0001837 102.9099 257.2258 13.51021303 14828
QIANFAN-177             
1 69394U 26124N   26262.77431669  .00000092  00000+0  12405-3 0  9992
2 69394  89.0066 352.0341 0002129 109.4498 250.6883 13.51030360 14840
QIANFAN-178             
1 69395U 26124P   26262.77014236  .00000101  00000+0  13854-3 0  9990
2 69395  89.0012 351.9905 0001839 102.0006 258.1351 13.51026306 14856
QIANFAN-179             
1 69396U 26124Q   26262.77843794  .00000085  00000+0  11375-3 0  9997
2 69396  89.0044 352.0076 0001822 101.4311 258.7045 13.51029913 14850
QIANFAN-180             
1 69397U 26124R   26262.78256154  .00000087  00000+0  11654-3 0  9999
2 69397  89.0050 352.0282 0001806  97.4154 262.7202 13.51022165 14849
QIANFAN-181             
1 69398U 26124S   26262.74963147  .00000103  00000+0  14059-3 0  9994
2 69398  89.0072 352.1249 0002168 105.8091 254.3299 13.51023951 14795
QIANFAN-182             
1 69399U 26124T   26262.75367896  .00000103  00000+0  14111-3 0  9994
2 69399  89.0047 352.0950 0001830 104.7447 255.3907 13.51028477 14799
QIANFAN-183             
1 69401U 26125A   26262.78830172  .00000022  00000+0  14989-4 0  9998
2 69401  88.9832 270.3766 0002041 101.3766 258.7614 13.51027451 14717
QIANFAN-184             
1 69402U 26125B   26262.79654727  .00000041  00000+0  44880-4 0  9994
2 69402  88.9883 270.4029 0001981  97.5390 262.5986 13.51028734 14718
QIANFAN-185             
1 69403U 26125C   26260.52372312 -.01777842  00000+0 -31393+1 0  9995
2 69403  88.9894 270.5744 0009178 115.9164 244.2932 13.46850617 14441
QIANFAN-186             
1 69404U 26125D   26262.79250193  .00000027  00000+0  23463-4 0  9993
2 69404  88.9885 270.4033 0002022  95.9736 264.1646 13.51008227 14716
QIANFAN-187             
1 69405U 26125E   26262.80068192  .00000027  00000+0  23754-4 0  9995
2 69405  88.9885 270.3853 0002178  99.3935 260.7462 13.51007330 14720
QIANFAN-188             
1 69406U 26125F   26262.80880773  .00000030  00000+0  27551-4 0  9996
2 69406  88.9883 270.3842 0002069 102.4852 257.6531 13.51029400 14724
QIANFAN-189             
1 69407U 26125G   26261.92823185  .00000020  00000+0  12925-4 0  9991
2 69407  88.9866 270.4689 0002094 107.8292 252.3088 13.51028501 14596
QIANFAN-190             
1 69408U 26125H   26262.65650707  .00000029  00000+0  26555-4 0  9994
2 69408  88.9867 270.3923 0001912  96.5937 263.5432 13.51033361 14706
QIANFAN-191             
1 69409U 26125J   26262.82938509  .00000041  00000+0  44666-4 0  9990
2 69409  88.9881 270.3866 0002033 102.4075 257.7304 13.51032925 14724
QIANFAN-192             
1 69410U 26125K   26262.81287428  .00000018  00000+0  10011-4 0  9999
2 69410  88.9887 270.3888 0002159 105.2892 254.8498 13.51019590 14728
QIANFAN-193             
1 69411U 26125L   26262.83770037  .00000031  00000+0  29518-4 0  9992
2 69411  88.9866 270.3625 0001947 103.3584 256.7784 13.51027468 14739
QIANFAN-194             
1 69412U 26125M   26262.83357237  .00000035  00000+0  36085-4 0  9997
2 69412  88.9898 270.3776 0002067 102.1874 257.9508 13.51026105 14728
QIANFAN-195             
1 69413U 26125N   26262.84184669  .00000042  00000+0  46962-4 0  9999
2 69413  88.9900 270.3616 0001931  89.0576 271.0796 13.51011841 14746
QIANFAN-196             
1 69414U 26125P   26262.77589440  .00000012  00000+0 -47346-7 0  9996
2 69414  88.9905 270.3723 0001868  93.3972 266.7393 13.51035237 14736
QIANFAN-197             
1 69415U 26125Q   26262.78424134  .00000020  00000+0  12551-4 0  9991
2 69415  88.9879 270.3429 0002024 100.2028 259.9352 13.51023698 14732
QIANFAN-198             
1 69416U 26125R   26262.84591328  .00000022  00000+0  14817-4 0  9998
2 69416  88.9873 270.3493 0002066 102.7687 257.3695 13.51028162 14746
QIANFAN-199             
1 69417U 26125S   26262.78013015  .00000024  00000+0  18414-4 0  9993
2 69417  88.9877 270.3062 0002255 100.8259 259.3146 13.51025713 14761
QIANFAN-200             
1 69418U 26125T   26262.75127288  .00000036  00000+0  36707-4 0  9997
2 69418  88.9884 270.3947 0002078 105.6503 254.4877 13.51026211 14716
QIANFAN-201             
1 69800U 26153A   26262.66133105  .00000047  00000+0  22265-4 0  9994
2 69800  88.9977 351.5546 0005054  10.8897 349.2391 14.00290424 10939
QIANFAN-202             
1 69801U 26153B   26262.73764701  .00000117  00000+0  62500-4 0  9999
2 69801  88.9978 351.5101 0007045 347.0617  13.0383 14.06320237 10956
QIANFAN-203             
1 69802U 26153C   26262.45028119  .00000059  00000+0  26738-4 0  9993
2 69802  88.9978 351.5791 0005591 351.5550   8.5538 14.07838722 10902
QIANFAN-204             
1 69803U 26153D   26262.76620443  .00000129  00000+0  71194-4 0  9990
2 69803  88.9978 351.5342 0005718 342.4154  17.6829 14.05217913 10955
QIANFAN-205             
1 69804U 26153E   26261.86625360 -.01800669  00000+0 -13568+1 0  9991
2 69804  88.9971 351.6581 0005692  77.5638 282.6177 13.98554870 10811
QIANFAN-206             
1 69805U 26153F   26261.80490655 -.01788284  00000+0 -12369+1 0  9999
2 69805  88.9973 351.6123 0010813 338.1395  21.9323 14.03331798 10831
QIANFAN-207             
1 69806U 26153G   26262.79835383  .00000031  00000+0  10586-4 0  9997
2 69806  88.9977 351.5379 0006635 351.1225   8.9838 14.04604414 10950
QIANFAN-208             
1 69807U 26153H   26262.78509819 -.00000022  00000+0 -22760-4 0  9998
2 69807  88.9975 351.5361 0005994  33.5237 326.6322 14.03357182 10966
QIANFAN-209             
1 69808U 26153J   26261.82395904 -.01774796  00000+0 -13377+1 0  9998
2 69808  88.9976 351.6528 0004300  66.5372 293.6258 13.98476722 10810
QIANFAN-210             
1 69809U 26153K   26261.86637764 -.01791838  00000+0 -13307+1 0  9995
2 69809  88.9973 351.6408 0004874   4.2278 355.8941 13.99355610 10829
QIANFAN-211             
1 69810U 26153L   26262.79654838  .00000244  00000+0  11977-3 0  9996
2 69810  88.9979 351.5010 0006730 348.1226  11.9801 14.14540384 10974
QIANFAN-212             
1 69811U 26153M   26262.78177027 -.00000004  00000+0 -10225-4 0  9998
2 69811  88.9977 351.5170 0008186 352.2605   7.8451 14.08612201 10969
QIANFAN-213             
1 69812U 26153N   26261.80650700 -.01793961  00000+0 -12767+1 0  9996
2 69812  88.9974 351.6307 0009296 326.1310  33.9275 14.01753421 10828
QIANFAN-214             
1 69813U 26153P   26261.83745286 -.01790602  00000+0 -12123+1 0  9999
2 69813  88.9973 351.5798 0011318 336.2836  23.7822 14.04530016 10858
QIANFAN-215             
1 69814U 26153Q   26261.86504622 -.01784701  00000+0 -10758+1 0  9995
2 69814  88.9971 351.5268 0006546  96.7026 263.4904 14.10966493 10881
QIANFAN-216             
1 69815U 26153R   26262.77225463  .00000039  00000+0  13910-4 0  9999
2 69815  88.9977 351.4595 0006388   3.1740 356.9485 14.10941984 10991
QIANFAN-217             
1 69816U 26153S   26262.75170866  .00000326  00000+0  13887-3 0  9995
2 69816  88.9977 351.3805 0007360   0.3302 359.7894 14.22763740 11035
QIANFAN-218             
1 69817U 26153T   26262.82078228  .00000363  00000+0  15681-3 0  9998
2 69817  88.9980 351.3748 0005935   2.4107 357.7112 14.22319917 11043
QIANFAN-219             
1 69848U 26155A   26262.72125735 -.01926619  00000+0 -32229+1 0  9997
2 69848  89.0082  53.7774 0038007  13.2366 346.9773 13.50409772 10633
QIANFAN-220             
1 69849U 26155B   26262.81159606 -.01920665  00000+0 -32185+1 0  9998
2 69849  89.0089  53.7964 0035820  13.6977 346.5137 13.50317053 10634
QIANFAN-221             
1 69850U 26155C   26262.74960344 -.01871803  00000+0 -22183+1 0  9997
2 69850  89.0083  53.5671 0029442  18.7622 341.4619 13.71899379 10750
QIANFAN-222             
1 69851U 26155D   26262.83223653 -.01819272  00000+0 -30594+1 0  9990
2 69851  89.0085  53.8142 0036184  11.4677 348.7289 13.49844585 10623
QIANFAN-223             
1 69852U 26155E   26262.77861691  .00000069  00000+0  90057-4 0  9991
2 69852  89.0091  53.8253 0034760  13.7126 346.4961 13.49929170 10611
QIANFAN-224             
1 69853U 26155F   26262.83836648 -.01816590  00000+0 -30266+1 0  9992
2 69853  89.0066  53.7650 0037117  17.7990 342.4451 13.50418947 10646
QIANFAN-225             
1 69854U 26155G   26262.83878916 -.01704552  00000+0 -28789+1 0  9998
2 69854  89.0079  53.8111 0033778  21.5342 338.7220 13.49325804 10624
QIANFAN-226             
1 69855U 26155H   26262.77368566 -.01813144  00000+0 -29777+1 0  9993
2 69855  89.0078  53.8014 0036320  16.6338 343.5996 13.51339567 10620
QIANFAN-227             
1 69856U 26155J   26262.84108167 -.01777029  00000+0 -31727+1 0  9990
2 69856  89.0080  53.7958 0037319  11.3010 348.8968 13.45879698 10633
QIANFAN-228             
1 69857U 26155K   26262.79605182 -.01773867  00000+0 -28271+1 0  9990
2 69857  89.0085  53.7907 0033910  18.1080 342.1271 13.53189769 10634
QIANFAN-229             
1 69858U 26155L   26262.78706104 -.01877480  00000+0 -32123+1 0  9993
2 69858  89.0090  53.7705 0038014   8.9911 351.1911 13.48849488 10644
QIANFAN-230             
1 69859U 26155M   26262.82500220  .00000049  00000+0  57135-4 0  9990
2 69859  89.0088  53.8095 0034651  14.4835 345.7301 13.51033409 10627
QIANFAN-231             
1 69860U 26155N   26262.82767007 -.01795647  00000+0 -28420+1 0  9999
2 69860  89.0083  53.7586 0033662  12.7629 347.4368 13.53684893 10657
QIANFAN-232             
1 69861U 26155P   26262.84352102  .00000086  00000+0  11539-3 0  9997
2 69861  89.0082  53.7573 0026253  12.2763 347.9022 13.50451905 10650
QIANFAN-233             
1 69862U 26155Q   26262.80869670 -.01822722  00000+0 -29961+1 0  9994
2 69862  89.0084  53.7555 0037181  14.0399 346.1777 13.51294682 10656
QIANFAN-234             
1 69863U 26155R   26262.81180669 -.01839708  00000+0 -27950+1 0  9998
2 69863  89.0076  53.7016 0032147  12.8444 347.3522 13.56400445 10689
QIANFAN-235             
1 69864U 26155S   26262.83681367 -.01861903  00000+0 -17940+1 0  9992
2 69864  89.0085  53.5091 0029458  21.8127 338.4290 13.84271764 10796
QIANFAN-236             
1 69865U 26155T   26261.87297838 -.01808282  00000+0 -28787+1 0  9994
2 69865  89.0086  53.8758 0031090  16.8110 343.4065 13.53379883 10515
QIANFAN-237             
1 69866U 26155U   26261.86361227 -.01772327  00000+0 -28448+1 0  9992
2 69866  89.0086  53.8381 0036839  19.8422 340.4153 13.52692602 10525
QIANFAN-238             
1 69867U 26155V   26261.86818367 -.01739936  00000+0 -27896+1 0  9990
2 69867  89.0088  53.8560 0025849  14.6998 345.4900 13.52827301 10528
