QIANFAN-1               
1 60379U 24140A   26279.57349677  .00000040  00000+0  43006-4 0  9990
2 60379  88.9669 268.3480 0019645  75.9891 284.3443 13.51026542107564
QIANFAN-2               
1 60380U 24140B   26279.60237780  .00000049  00000+0  56520-4 0  9991
2 60380  88.9657 268.1441 0014481  52.6013 307.6454 13.51020903107622
QIANFAN-3               
1 60381U 24140C   26279.53667835  .00000048  00000+0  55328-4 0  9996
2 60381  88.9649 268.2610 0015870  63.3183 296.9591 13.51023679107527
QIANFAN-4               
1 60382U 24140D   26279.58594835  .00000037  00000+0  38791-4 0  9994
2 60382  88.9674 268.2285 0014780  54.7400 305.5132 13.51021244107657
QIANFAN-5               
1 60383U 24140E   26279.56103949  .00000061  00000+0  75293-4 0  9990
2 60383  88.9648 268.2826 0017266  72.9313 287.3728 13.51032028107512
QIANFAN-6               
1 60384U 24140F   26279.58178613  .00000033  00000+0  32447-4 0  9996
2 60384  88.9676 268.1077 0015010  59.8592 300.4044 13.51024512107718
QIANFAN-7               
1 60385U 24140G   26279.59477143  .00000196  00000+0  72917-4 0  9994
2 60385  88.9737 258.6540 0016604 133.0114 227.2475 14.27898256112898
QIANFAN-8               
1 60386U 24140H   26279.59012024  .00000048  00000+0  55039-4 0  9990
2 60386  88.9676 268.3478 0018497  60.9626 299.3375 13.51026472107563
QIANFAN-9               
1 60387U 24140J   26279.56540559  .00000052  00000+0  61521-4 0  9995
2 60387  88.9674 268.4197 0018196  60.8714 299.4255 13.51022347107547
QIANFAN-10              
1 60388U 24140K   26279.56949830  .00000038  00000+0  40041-4 0  9999
2 60388  88.9686 267.7984 0016128  40.9226 319.3132 13.51022448107679
QIANFAN-11              
1 60389U 24140L   26279.60663686  .00000039  00000+0  41510-4 0  9990
2 60389  88.9610 268.1569 0016216  60.9701 299.3073 13.51026560107332
QIANFAN-12              
1 60390U 24140M   26279.62716291  .00000049  00000+0  57104-4 0  9992
2 60390  88.9653 268.3278 0015179  68.3878 291.8889 13.51024164107468
QIANFAN-13              
1 60391U 24140N   26279.59832010  .00000050  00000+0  58553-4 0  9998
2 60391  88.9913 268.6175 0015033  70.4674 289.8100 13.51024348107483
QIANFAN-14              
1 60392U 24140P   26279.54903372  .00000039  00000+0  41632-4 0  9991
2 60392  88.9644 268.3065 0018717  70.3168 290.0001 13.51026172107480
QIANFAN-15              
1 60393U 24140Q   26279.55709028  .00000063  00000+0  78955-4 0  9990
2 60393  88.9668 268.3330 0014301  59.0838 301.1717 13.51029053107473
QIANFAN-16              
1 60394U 24140R   26279.54476707  .00000038  00000+0  39336-4 0  9997
2 60394  88.9670 268.4626 0016693  73.9547 286.3441 13.51025554107384
QIANFAN-17              
1 60395U 24140S   26279.54081590  .00000034  00000+0  33612-4 0  9997
2 60395  88.9681 268.5415 0017008  68.3588 291.9373 13.51026233108346
QIANFAN-18              
1 60396U 24140T   26279.59429201  .00000046  00000+0  52907-4 0  9999
2 60396  88.9676 268.0505 0016030  53.0891 307.1727 13.51026413107744
QIANFAN-19              
1 61552U 24185A   26279.63015600  .00000289  00000+0  14332-3 0  9990
2 61552  88.9885  43.8238 0008805  75.2534 284.9628 14.14540560111778
QIANFAN-20              
1 61553U 24185B   26279.60780240  .00000250  00000+0  13636-3 0  9991
2 61553  88.9879  44.4436 0007729 109.4125 250.7895 14.09085119111437
QIANFAN-21              
1 61554U 24185C   26279.59270217  .00000382  00000+0  16321-3 0  9998
2 61554  88.9804  42.1137 0012738 110.5587 249.6973 14.22946179112320
QIANFAN-22              
1 61555U 24185D   26279.65632286  .00000217  00000+0  17561-3 0  9998
2 61555  88.9858  46.6191 0007530 150.2446 209.9155 13.86434924110214
QIANFAN-23              
1 61556U 24185E   26279.60613336  .00000261  00000+0  12365-3 0  9995
2 61556  88.9877  43.4976 0009460  81.3978 278.8281 14.16560960111917
QIANFAN-24              
1 61557U 24185F   26279.62317266  .00000436  00000+0  18312-3 0  9993
2 61557  88.9864  42.4162 0011118  56.0218 304.2030 14.24170842112416
QIANFAN-25              
1 61558U 24185G   26279.62509515  .00000361  00000+0  21115-3 0  9996
2 61558  88.9874  44.4956 0014349 124.6709 235.5828 14.06143896111360
QIANFAN-26              
1 61559U 24185H   26279.63169166  .00000203  00000+0  18997-3 0  9991
2 61559  88.9864  47.6092 0006029 172.1973 187.9289 13.77950660109699
QIANFAN-27              
1 61560U 24185J   26279.59316920  .00000475  00000+0  18706-3 0  9999
2 61560  88.9874  42.0485 0008406  45.6034 314.5847 14.27616265112654
QIANFAN-28              
1 61561U 24185K   26279.61607796  .00000469  00000+0  18153-3 0  9996
2 61561  88.9892  42.0615 0008237  43.7233 316.4613 14.28504680112696
QIANFAN-29              
1 61562U 24185L   26279.60801536  .00000137  00000+0  19341-3 0  9996
2 61562  88.9832  50.5294 0008055 267.5801  92.4428 13.51099820108019
QIANFAN-30              
1 61563U 24185M   26279.58592163  .00000040  00000+0  43596-4 0  9990
2 61563  88.9853  50.1715 0005988 248.7912 111.2599 13.50079148108258
QIANFAN-31              
1 61564U 24185N   26279.64639013  .00000055  00000+0  59752-4 0  9991
2 61564  88.9838  49.4948 0005780 227.2613 132.8056 13.58069284108593
QIANFAN-32              
1 61565U 24185P   26279.61377717  .00000137  00000+0  19398-3 0  9991
2 61565  88.9892  50.3892 0007778 289.4455  70.5856 13.50810109108257
QIANFAN-33              
1 61566U 24185Q   26279.58275482  .00000259  00000+0  17681-3 0  9992
2 61566  88.9862  45.6171 0009684 112.3061 247.9144 13.96762565110735
QIANFAN-34              
1 61567U 24185R   26279.60968655  .00000378  00000+0  23672-3 0  9996
2 61567  88.9839  44.7847 0007952 111.5176 248.6853 14.02533697111101
QIANFAN-35              
1 61568U 24185S   26279.60479162  .00000427  00000+0  16509-3 0  9993
2 61568  88.9873  41.9369 0007342  43.4290 316.7482 14.28373111112692
QIANFAN-36              
1 61569U 24185T   26279.64193671  .00000131  00000+0  17055-3 0  9995
2 61569  88.9828  50.0084 0004714 248.4333 111.6318 13.55650568108286
QIANFAN-37              
1 62238U 24232B   26279.57700110  .00000094  00000+0  12735-3 0  9994
2 62238  89.0167  11.4410 0001506  95.5350 264.5973 13.51033798139384
QIANFAN-38              
1 62239U 24232C   26279.60179266  .00000087  00000+0  11572-3 0  9991
2 62239  89.0174  11.3745 0015862  60.5756 299.6976 13.51031967139440
QIANFAN-39              
1 62240U 24232D   26279.54698469  .00000308  00000+0  12405-3 0  9999
2 62240  89.0144   3.4327 0016600 175.0844 185.0516 14.25572062143810
QIANFAN-40              
1 62241U 24232E   26279.56065142  .00000095  00000+0  12770-3 0  9996
2 62241  89.0201  11.0460 0015148  68.3622 291.9141 13.51032376139804
QIANFAN-41              
1 62242U 24232F   26279.56883428  .00000085  00000+0  11350-3 0  9994
2 62242  89.0172  11.3237 0015165  57.2968 302.9643 13.51033411139469
QIANFAN-42              
1 62243U 24232G   26279.59450212  .00000292  00000+0  11941-3 0  9995
2 62243  89.0142   3.5186 0015160 181.3806 178.7348 14.24658650143777
QIANFAN-43              
1 62244U 24232H   26279.49069098  .00000083  00000+0  10993-3 0  9997
2 62244  89.0176  11.4099 0016852  61.7129 298.5721 13.51020698108067
QIANFAN-44              
1 62245U 24232J   26279.55241204  .00000091  00000+0  12256-3 0  9999
2 62245  89.0175  11.2097 0015004  59.5006 300.7624 13.51032989139541
QIANFAN-45              
1 62246U 24232K   26279.59359005  .00000089  00000+0  11980-3 0  9993
2 62246  89.0178  11.3627 0015646  58.7859 301.4823 13.51031693139476
QIANFAN-46              
1 62247U 24232L   26279.54414049  .00000093  00000+0  12486-3 0  9996
2 62247  89.0174  11.4245 0015849  63.9313 296.3468 13.51032773139420
QIANFAN-47              
1 62248U 24232M   26279.54830765  .00000093  00000+0  12582-3 0  9991
2 62248  89.0170  11.3450 0016247  62.9941 297.2866 13.51032117139450
QIANFAN-48              
1 62249U 24232N   26279.58550299  .00000094  00000+0  12613-3 0  9993
2 62249  89.0174  11.3548 0018544  64.6627 295.6442 13.51026499139464
QIANFAN-49              
1 62250U 24232P   26279.57297584  .00000088  00000+0  11745-3 0  9997
2 62250  89.0173  11.3661 0015500  60.6572 299.6125 13.51033602108052
QIANFAN-50              
1 62251U 24232Q   26279.59763237  .00000088  00000+0  11768-3 0  9998
2 62251  89.0179  11.3881 0017182  61.2396 299.0479 13.51033160108080
QIANFAN-51              
1 62252U 24232R   26279.58122836  .00000093  00000+0  12481-3 0  9991
2 62252  89.0173  11.3653 0014769  65.6465 294.6226 13.51032020108079
QIANFAN-52              
1 62253U 24232S   26279.60997602  .00000086  00000+0  11453-3 0  9996
2 62253  89.0169  11.2244 0016584  57.5808 302.6945 13.51034063108165
QIANFAN-53              
1 62254U 24232T   26279.58951887  .00000091  00000+0  12263-3 0  9995
2 62254  89.0176  11.3535 0015502  59.0984 301.1689 13.51030729108129
QIANFAN-54              
1 62255U 24232U   26279.55652315  .00000095  00000+0  12845-3 0  9997
2 62255  89.0167  11.0089 0004147 101.2004 258.9614 13.51032660139629
QIANFAN-55              
1 62785U 25016A   26279.65677580  .00000032  00000+0  30768-4 0  9994
2 62785  88.9691  72.2734 0016769 201.9528 158.0906 13.51025702 87417
QIANFAN-56              
1 62786U 25016B   26279.59898024  .00000048  00000+0  55502-4 0  9996
2 62786  88.9665  72.0366 0015295 204.3618 155.6811 13.51020953 87453
QIANFAN-57              
1 62787U 25016C   26279.55796589  .00000032  00000+0  31367-4 0  9992
2 62787  88.9695  72.2870 0001933  75.0909 285.0456 13.51028653 87413
QIANFAN-58              
1 62788U 25016D   26279.60326429  .00000048  00000+0  55163-4 0  9998
2 62788  88.9666  72.0235 0013436 195.5894 164.4846 13.51028157 87464
QIANFAN-59              
1 62789U 25016E   26279.55375051  .00000035  00000+0  35066-4 0  9994
2 62789  88.9689  72.1724 0013678 199.8142 160.2480 13.51025539 87453
QIANFAN-60              
1 62790U 25016F   26279.66070260  .00000035  00000+0  35890-4 0  9997
2 62790  88.9671  72.0761 0015326 196.4710 163.5945 13.51022151 87451
QIANFAN-61              
1 62791U 25016G   26279.54553506  .00000040  00000+0  43826-4 0  9998
2 62791  88.9736  72.4522 0014306 195.9077 164.1627 13.51028584 87450
QIANFAN-62              
1 62792U 25016H   26279.54977667  .00000034  00000+0  33723-4 0  9995
2 62792  88.9684  72.1605 0015627 196.6875 163.3764 13.51027936 87445
QIANFAN-63              
1 62793U 25016J   26279.64850515  .00000038  00000+0  40434-4 0  9990
2 62793  88.9691  72.1219 0015554 201.9628 158.0858 13.51023831 87490
QIANFAN-64              
1 62794U 25016K   26279.54144547  .00000042  00000+0  46864-4 0  9999
2 62794  88.9678  72.0673 0013687 194.0848 165.9924 13.51028544 87475
QIANFAN-65              
1 62795U 25016L   26279.61133829  .00000045  00000+0  50765-4 0  9997
2 62795  88.9674  72.0754 0013504 195.5603 164.5135 13.51024631 87466
QIANFAN-66              
1 62796U 25016M   26279.56614613  .00000041  00000+0  44291-4 0  9990
2 62796  88.9694  72.1087 0014717 191.7672 168.3137 13.51020695 87505
QIANFAN-67              
1 62797U 25016N   26279.57021999  .00000043  00000+0  48090-4 0  9994
2 62797  88.9684  72.1046 0014492 198.8190 161.2428 13.51020950 87478
QIANFAN-68              
1 62798U 25016P   26279.63614020  .00000040  00000+0  43564-4 0  9993
2 62798  88.9687  72.1535 0014630 196.4596 163.6083 13.51022881 87460
QIANFAN-69              
1 62799U 25016Q   26279.65248988  .00000032  00000+0  31288-4 0  9993
2 62799  88.9667  71.9580 0015315 198.1261 161.9346 13.51021692 87502
QIANFAN-70              
1 62800U 25016R   26279.59500387  .00000047  00000+0  54076-4 0  9999
2 62800  88.9687  72.1643 0015195 188.3460 171.7440 13.51025163 87453
QIANFAN-71              
1 62801U 25016S   26279.66486086  .00000031  00000+0  29465-4 0  9994
2 62801  88.9681  72.1186 0015125 201.7447 158.3064 13.51027791 87461
QIANFAN-72              
1 62802U 25016T   26279.60734537  .00000048  00000+0  55223-4 0  9995
2 62802  88.9671  72.1089 0018175 210.4284 149.5814 13.51029635 87449
QIANFAN-73              
1 63159U 25046A   26279.56022901  .00000028  00000+0  24396-4 0  9999
2 63159  88.9625 289.0836 0014425 350.7634   9.3250 13.51025999 87620
QIANFAN-74              
1 63160U 25046B   26279.54392537  .00000033  00000+0  32346-4 0  9994
2 63160  88.9626 288.9754 0001983  98.8049 261.3327 13.51018561 87683
QIANFAN-75              
1 63161U 25046C   26279.60547356  .00000095  00000+0  12790-3 0  9991
2 63161  88.9627 289.2066 0015661 353.7130   6.3823 13.51033535 87560
QIANFAN-76              
1 63162U 25046D   26279.60159563  .00000067  00000+0  84821-4 0  9995
2 63162  88.9627 289.1871 0013189 355.6127   4.4906 13.51018063 87575
QIANFAN-77              
1 63163U 25046E   26279.60959693  .00000096  00000+0  59696-4 0  9992
2 63163  88.9636 284.7366 0013150 224.5087 135.5034 13.96249896 90013
QIANFAN-78              
1 63164U 25046F   26279.56921993  .00000075  00000+0  96764-4 0  9994
2 63164  88.9626 289.0518 0014628 356.7554   3.3500 13.51014103 87645
QIANFAN-79              
1 63165U 25046G   26279.52326495  .00000030  00000+0  27189-4 0  9993
2 63165  88.9630 289.1744 0014318 355.6618   4.4407 13.51021423 87582
QIANFAN-80              
1 63166U 25046H   26279.53966440  .00000090  00000+0  12102-3 0  9999
2 63166  88.9627 288.8714 0013369   1.0927 359.0251 13.51019702 87743
QIANFAN-81              
1 63167U 25046J   26279.59316819  .00000093  00000+0  12490-3 0  9998
2 63167  88.9627 288.9329 0014203 349.2632  10.8214 13.51023654 87703
QIANFAN-82              
1 63168U 25046K   26279.55211422  .00000074  00000+0  95905-4 0  9991
2 63168  88.9627 288.9817 0012350 357.6131   2.4959 13.51022747 87686
QIANFAN-83              
1 63169U 25046L   26279.59479735  .00000056  00000+0  56418-4 0  9995
2 63169  88.9630 288.1662 0012589 323.2799  36.7495 13.62066065 88144
QIANFAN-84              
1 63170U 25046M   26279.58098469 -.00000037  00000+0 -76272-4 0  9998
2 63170  88.9625 289.1114 0015223 352.1095   7.9815 13.51014782 87615
QIANFAN-85              
1 63171U 25046N   26279.57674576  .00000085  00000+0  11357-3 0  9990
2 63171  88.9626 288.9811 0012846 355.9385   4.1660 13.51023133 87683
QIANFAN-86              
1 63172U 25046P   26279.58493189  .00000093  00000+0  12549-3 0  9994
2 63172  88.9628 288.8494 0010893   2.0476 358.0718 13.51021256 87761
QIANFAN-87              
1 63173U 25046Q   26279.55613982  .00000024  00000+0  17798-4 0  9993
2 63173  88.9625 288.9531 0011236 356.0844   4.0217 13.51020522 87694
QIANFAN-88              
1 63174U 25046R   26279.57261460  .00000091  00000+0  12147-3 0  9992
2 63174  88.9627 288.9132 0011968   4.9657 355.1610 13.51021769 87722
QIANFAN-89              
1 63175U 25046S   26279.53557131  .00000089  00000+0  11960-3 0  9991
2 63175  88.9627 289.1059 0016103 352.2427   7.8473 13.51022405 87618
QIANFAN-90              
1 63176U 25046T   26279.63852286  .00000028  00000+0  25204-4 0  9992
2 63176  88.9628 289.0685 0012996 352.0889   8.0055 13.51020216 87640
QIANFAN-91              
1 66033U 25233A   26279.59675882  .00000078  00000+0  10290-3 0  9998
2 66033  89.0081  31.9386 0001610 104.0881 256.0450 13.51031938 48228
QIANFAN-92              
1 66034U 25233B   26279.60542857  .00000091  00000+0  12191-3 0  9993
2 66034  89.0064  31.8914 0002161  98.9160 261.2236 13.51029412 48223
QIANFAN-93              
1 66035U 25233C   26279.61341955  .00000085  00000+0  11293-3 0  9996
2 66035  89.0090  31.9724 0001639 101.8542 258.2793 13.51041220 48225
QIANFAN-94              
1 66036U 25233D   26279.37876811  .00000091  00000+0  12169-3 0  9994
2 66036  89.0087  31.8955 0001792 107.0413 253.0935 13.51030397 48248
QIANFAN-95              
1 66037U 25233E   26279.60920116  .00000084  00000+0  11212-3 0  9999
2 66037  89.0085  31.4135 0001597 108.9396 251.1929 13.51030280 48520
QIANFAN-96              
1 66038U 25233F   26279.55974820  .00000077  00000+0  10133-3 0  9998
2 66038  89.0082  31.9587 0001552 103.5105 256.6219 13.51031384 48218
QIANFAN-97              
1 66039U 25233G   26279.61726526  .00000074  00000+0  96758-4 0  9999
2 66039  89.0087  31.9407 0001671 101.8396 258.2943 13.51022246 48220
QIANFAN-98              
1 66040U 25233H   26279.55155199  .00000071  00000+0  90736-4 0  9993
2 66040  89.0075  31.6662 0002004 117.4626 242.6729 13.51031612 48360
QIANFAN-99              
1 66041U 25233J   26279.55557537  .00000064  00000+0  80186-4 0  9996
2 66041  89.0086  31.9516 0001793 118.0623 242.0709 13.51021008 48227
QIANFAN-100             
1 66042U 25233K   26279.54728568  .00000063  00000+0  78506-4 0  9992
2 66042  89.0096  31.8919 0001495 102.1681 257.9637 13.51021683 48271
QIANFAN-101             
1 66043U 25233L   26279.59025102  .00000160  00000+0  59904-4 0  9991
2 66043  89.0085  27.7998 0016914 133.6154 226.6446 14.26867736 50518
QIANFAN-102             
1 66044U 25233M   26279.34581914  .00000092  00000+0  12457-3 0  9998
2 66044  89.0083  31.8797 0001777 108.6736 251.4608 13.51030999 48242
QIANFAN-103             
1 66045U 25233N   26279.57215431  .00000091  00000+0  12263-3 0  9996
2 66045  89.0086  31.9552 0001652 102.4436 257.6900 13.51031111 48225
QIANFAN-104             
1 66046U 25233P   26279.57620556  .00000084  00000+0  11075-3 0  9997
2 66046  89.0091  31.8620 0001881 107.5102 252.6255 13.51029012 48277
QIANFAN-105             
1 66047U 25233Q   26279.58451980  .00000075  00000+0  98154-4 0  9996
2 66047  89.0104  31.7192 0001775 104.6936 255.4412 13.51032288 48388
QIANFAN-106             
1 66048U 25233R   26279.58028418  .00000080  00000+0  10579-3 0  9993
2 66048  89.0073  31.8975 0001948 115.7839 244.3514 13.51032619 48222
QIANFAN-107             
1 66049U 25233S   26279.58853716  .00000071  00000+0  90912-4 0  9991
2 66049  89.0088  31.9467 0001678 102.7264 257.4075 13.51031865 48234
QIANFAN-108             
1 66050U 25233T   26279.59271323  .00000077  00000+0  99975-4 0  9996
2 66050  89.0082  31.9262 0001942 114.3059 245.8295 13.51031618 48239
QIANFAN-109             
1 68636U 26075A   26279.53262671  .00000056  00000+0  67812-4 0  9995
2 68636  88.9835 309.6419 0001595  87.0225 273.1109 13.51022087 24826
QIANFAN-110             
1 68637U 26075B   26279.54078663  .00000043  00000+0  48220-4 0  9991
2 68637  88.9835 309.6626 0002095  93.2435 266.8956 13.51022930 24821
QIANFAN-111             
1 68638U 26075C   26279.60274060  .00000054  00000+0  65627-4 0  9990
2 68638  88.9834 309.6150 0002067  93.4264 266.7124 13.51025483 24859
QIANFAN-112             
1 68639U 26075D   26279.56561589  .00000057  00000+0  69184-4 0  9996
2 68639  88.9833 309.6264 0001767  81.7348 278.4003 13.51024748 24842
QIANFAN-113             
1 68640U 26075E   26279.53670678  .00000053  00000+0  63822-4 0  9994
2 68640  88.9839 309.6293 0002046  89.9970 270.1415 13.51021620 24846
QIANFAN-114             
1 68641U 26075F   26279.54491874  .00000037  00000+0  39279-4 0  9996
2 68641  88.9833 309.6423 0002060  93.1837 266.9550 13.51019981 24830
QIANFAN-115             
1 68642U 26075G   26279.57376663  .00000048  00000+0  55666-4 0  9998
2 68642  88.9834 309.6466 0001894  94.1288 266.0079 13.51025723 24832
QIANFAN-116             
1 68643U 26075H   26279.56138908  .00000052  00000+0  62592-4 0  9997
2 68643  88.9827 309.6001 0001905  83.6642 276.4726 13.51026163 24844
QIANFAN-117             
1 68644U 26075J   26279.54916629  .00000041  00000+0  44773-4 0  9999
2 68644  88.9831 309.6222 0001832  89.7016 270.4345 13.51024033 24841
QIANFAN-118             
1 68645U 26075K   26279.58198354  .00000049  00000+0  57405-4 0  9995
2 68645  88.9836 309.6322 0002185  93.1441 266.9961 13.51025759 24841
QIANFAN-119             
1 68646U 26075L   26279.55726695  .00000056  00000+0  67415-4 0  9998
2 68646  88.9836 309.6305 0001650  91.7043 268.4297 13.51021682 24841
QIANFAN-120             
1 68647U 26075M   26279.56965476  .00000050  00000+0  59501-4 0  9993
2 68647  88.9838 309.6160 0001589  93.4096 266.7237 13.51021456 24856
QIANFAN-121             
1 68648U 26075N   26279.59442219  .00000064  00000+0  80962-4 0  9992
2 68648  88.9835 309.6159 0002115  94.1787 265.9606 13.51024909 24850
QIANFAN-122             
1 68649U 26075P   26279.58609406  .00000061  00000+0  76033-4 0  9996
2 68649  88.9834 309.6135 0001765  88.2117 271.9236 13.51028582 24841
QIANFAN-123             
1 68650U 26075Q   26279.55316387  .00000053  00000+0  62809-4 0  9995
2 68650  88.9831 309.6034 0001564  84.2462 275.8867 13.51021359 24820
QIANFAN-124             
1 68651U 26075R   26279.57789616  .00000051  00000+0  60232-4 0  9993
2 68651  88.9834 309.6128 0001721  86.5619 273.5729 13.51027969 24850
QIANFAN-125             
1 68652U 26075S   26279.59030618  .00000058  00000+0  71747-4 0  9997
2 68652  88.9834 309.6134 0002126  93.2934 266.8460 13.51025066 24856
QIANFAN-126             
1 68653U 26075T   26279.59840672  .00000071  00000+0  91298-4 0  9995
2 68653  88.9838 309.5827 0001572  85.2738 274.8592 13.51020840 24878
QIANFAN-127             
1 69073U 26104A   26279.52969457  .00000051  00000+0  61060-4 0  9993
2 69073  88.9896 330.1192 0002412  93.6655 266.4772 13.51029993 20195
QIANFAN-128             
1 69074U 26104B   26279.53785775  .00000049  00000+0  57109-4 0  9990
2 69074  88.9874 330.1386 0002472 105.4076 254.7349 13.51025371 20176
QIANFAN-129             
1 69075U 26104C   26279.56247574  .00000053  00000+0  62861-4 0  9990
2 69075  88.9877 330.0708 0002396 100.8572 259.2849 13.51025545 20215
QIANFAN-130             
1 69076U 26104D   26279.52545069  .00000047  00000+0  54367-4 0  9992
2 69076  88.9879 330.1408 0002234  89.3603 270.7804 13.51023593 20178
QIANFAN-131             
1 69077U 26104E   26279.54615144  .00000058  00000+0  71787-4 0  9994
2 69077  88.9872 330.0980 0002194 104.5199 255.6195 13.51027646 20191
QIANFAN-132             
1 69078U 26104F   26279.53369649  .00000055  00000+0  66712-4 0  9999
2 69078  88.9874 330.1563 0002220  93.5905 266.5500 13.51023896 20165
QIANFAN-133             
1 69079U 26104G   26279.54196619  .00000058  00000+0  71135-4 0  9994
2 69079  88.9877 330.1062 0002346 108.9553 251.1853 13.51022431 20189
QIANFAN-134             
1 69080U 26104H   26279.57072270  .00000060  00000+0  74886-4 0  9994
2 69080  88.9882 330.1304 0002414 105.6640 254.4778 13.51031048 20189
QIANFAN-135             
1 69081U 26104J   26279.62421310  .00000058  00000+0  71477-4 0  9994
2 69081  88.9875 330.1145 0002605 101.8919 258.2525 13.51024183 20199
QIANFAN-136             
1 69082U 26104K   26279.55836088  .00000056  00000+0  67984-4 0  9995
2 69082  88.9877 330.1247 0002336 107.3844 252.7563 13.51020966 20189
QIANFAN-137             
1 69083U 26104L   26279.62840348  .00000056  00000+0  67388-4 0  9996
2 69083  88.9886 329.9957 0002142  96.2393 263.9003 13.51023824 20262
QIANFAN-138             
1 69084U 26104M   26279.57895427  .00000067  00000+0  84456-4 0  9996
2 69084  88.9871 330.1213 0002504  96.5993 263.5444 13.51023637 20185
QIANFAN-139             
1 69085U 26104N   26279.56668077  .00000044  00000+0  48839-4 0  9995
2 69085  88.9873 330.1047 0002323  92.7925 267.3492 13.51032262 20195
QIANFAN-140             
1 69086U 26104P   26279.57484032  .00000060  00000+0  74730-4 0  9991
2 69086  88.9874 330.1075 0002632 100.1196 260.0252 13.51024794 20190
QIANFAN-141             
1 69087U 26104Q   26279.58316509  .00000063  00000+0  78837-4 0  9991
2 69087  88.9871 330.0704 0002519 103.8351 256.3081 13.51022540 20211
QIANFAN-142             
1 69088U 26104R   26279.59131228  .00000058  00000+0  71241-4 0  9992
2 69088  88.9869 330.0686 0002497  97.5450 262.5985 13.51021752 20218
QIANFAN-143             
1 69089U 26104S   26279.58721925  .00000065  00000+0  81354-4 0  9995
2 69089  88.9880 330.0775 0002135 105.3419 254.7968 13.51029214 20218
QIANFAN-144             
1 69090U 26104T   26279.59541729  .00000044  00000+0  49396-4 0  9997
2 69090  88.9878 330.0945 0002439  94.1032 266.0398 13.51022538 20203
QIANFAN-145             
1 69104U 26108A   26279.59968468  .00000090  00000+0  12100-3 0  9993
2 69104  89.0204  10.9394 0001784 114.4115 245.7223 13.51025037 19482
QIANFAN-146             
1 69105U 26108B   26279.55855162  .00000097  00000+0  13207-3 0  9992
2 69105  89.0205  10.7809 0001876 103.3013 256.8348 13.51023068 19572
QIANFAN-147             
1 69106U 26108C   26279.60807223  .00000091  00000+0  12272-3 0  9999
2 69106  89.0206  10.9433 0002055 102.5743 257.5638 13.51028479 19470
QIANFAN-148             
1 69107U 26108D   26279.59566726  .00000098  00000+0  13340-3 0  9992
2 69107  89.0199  10.9334 0002173 108.0225 252.1163 13.51028167 19477
QIANFAN-149             
1 69108U 26108E   26279.60383710  .00000090  00000+0  12024-3 0  9995
2 69108  89.0199  10.9538 0002352 102.2128 257.9287 13.51027541 19476
QIANFAN-150             
1 69109U 26108F   26279.61205297  .00000093  00000+0  12589-3 0  9999
2 69109  89.0204  10.9072 0002334 101.0625 259.0789 13.51021349 19498
QIANFAN-151             
1 69110U 26108G   26279.56690377  .00000088  00000+0  11763-3 0  9999
2 69110  89.0203  10.9352 0001898 108.8313 251.3045 13.51031197 19473
QIANFAN-152             
1 69111U 26108H   26279.54621730  .00000103  00000+0  14134-3 0  9998
2 69111  89.0200  10.9284 0001985  95.4265 264.7113 13.51023912 19480
QIANFAN-153             
1 69112U 26108J   26279.54209837  .00000098  00000+0  13301-3 0  9997
2 69112  89.0196  10.9046 0002169  99.9013 260.2384 13.51025072 19486
QIANFAN-154             
1 69113U 26108K   26279.55040700  .00000101  00000+0  13849-3 0  9993
2 69113  89.0207  10.9544 0002178 102.9151 257.2244 13.51030339 19473
QIANFAN-155             
1 69114U 26108L   26279.55444653  .00000096  00000+0  12970-3 0  9996
2 69114  89.0204  10.9180 0002253 100.0815 260.0590 13.51027109 19485
QIANFAN-156             
1 69115U 26108M   26279.57502684  .00000098  00000+0  13246-3 0  9997
2 69115  89.0218  10.9198 0002073 109.3292 250.8083 13.51022854 19500
QIANFAN-157             
1 69116U 26108N   26279.56275922  .00000085  00000+0  11368-3 0  9998
2 69116  89.0200  10.8412 0002273 107.5722 252.5678 13.51031913 19538
QIANFAN-158             
1 69117U 26108P   26279.57909844  .00000103  00000+0  14021-3 0  9997
2 69117  89.0201  10.8811 0001998 109.1732 250.9636 13.51025167 19513
QIANFAN-159             
1 69118U 26108Q   26279.57090431  .00000095  00000+0  12870-3 0  9991
2 69118  89.0193  10.8868 0001953 107.3858 252.7507 13.51027243 19509
QIANFAN-160             
1 69119U 26108R   26279.58749637  .00000097  00000+0  13236-3 0  9991
2 69119  89.0208  10.9252 0002345  98.3414 261.8004 13.51027294 19495
QIANFAN-161             
1 69120U 26108S   26279.59147220  .00000097  00000+0  13212-3 0  9998
2 69120  89.0215  10.8427 0001960 108.6642 251.4722 13.51025640 19549
QIANFAN-162             
1 69121U 26108T   26279.58325863  .00000099  00000+0  13550-3 0  9996
2 69121  89.0205  10.8670 0001984  98.6899 261.4477 13.51026435 19515
QIANFAN-163             
1 69325U 26121A   26279.54793190  .00000030  00000+0  28097-4 0  9993
2 69325  89.0082 289.4191 0002956 104.3762 255.7717 13.51022057 17203
QIANFAN-164             
1 69326U 26121B   26279.58908401  .00000057  00000+0  69772-4 0  9995
2 69326  89.0080 289.4051 0002460 103.6828 256.4597 13.51022647 17212
QIANFAN-165             
1 69382U 26124A   26279.59875121  .00000078  00000+0  10268-3 0  9991
2 69382  89.0059 350.4064 0002406 116.2753 243.8646 13.51025277 17082
QIANFAN-166             
1 69383U 26124B   26279.60289033  .00000083  00000+0  11035-3 0  9994
2 69383  89.0077 350.4199 0001932 108.8358 251.3003 13.51025985 17080
QIANFAN-167             
1 69384U 26124C   26279.01428374  .00000022  00000+0  16226-4 0  9994
2 69384  89.0051 350.4803 0002264 102.6466 257.4939 13.51034540 16997
QIANFAN-168             
1 69385U 26124D   26279.53691327  .00000081  00000+0  10738-3 0  9998
2 69385  89.0048 350.4071 0001924 115.2873 244.8477 13.51023500 17076
QIANFAN-169             
1 69386U 26124E   26279.54113099  .00000075  00000+0  97345-4 0  9998
2 69386  89.0046 350.4062 0001841 106.1139 254.0215 13.51026681 17073
QIANFAN-170             
1 69387U 26124F   26279.61922876  .00000074  00000+0  96166-4 0  9997
2 69387  89.0064 350.3736 0001760 106.4711 253.6634 13.51029144 17101
QIANFAN-171             
1 69388U 26124G   26279.62749368  .00000078  00000+0  10232-3 0  9995
2 69388  89.0078 350.3877 0002109 101.8962 258.2426 13.51032097 17109
QIANFAN-172             
1 69389U 26124H   26279.62329073  .00000075  00000+0  97276-4 0  9994
2 69389  89.0061 350.3751 0002263 115.8101 244.3284 13.51032645 17101
QIANFAN-173             
1 69390U 26124J   26279.48337278  .00000081  00000+0  10642-3 0  9994
2 69390  89.0050 350.3838 0001803 113.2777 246.8564 13.51025696 17080
QIANFAN-174             
1 69391U 26124K   26279.56977113  .00000078  00000+0  10173-3 0  9997
2 69391  89.0031 350.3293 0002327 103.5630 256.5781 13.51020468 17101
QIANFAN-175             
1 69392U 26124L   26279.57404962  .00000077  00000+0  10109-3 0  9994
2 69392  89.0083 350.3826 0001881 108.1937 251.9419 13.51030605 17107
QIANFAN-176             
1 69393U 26124M   26279.57818235  .00000070  00000+0  89471-4 0  9999
2 69393  89.0044 350.3556 0001894 107.9328 252.2030 13.51024294 17098
QIANFAN-177             
1 69394U 26124N   26279.58628250  .00000071  00000+0  90762-4 0  9993
2 69394  89.0054 350.3450 0002269 105.6186 254.5216 13.51033403 17113
QIANFAN-178             
1 69395U 26124P   26279.58215850  .00000062  00000+0  77095-4 0  9996
2 69395  89.0000 350.2922 0001890 107.0598 253.0760 13.51029256 17120
QIANFAN-179             
1 69396U 26124Q   26279.59040894  .00000075  00000+0  98093-4 0  9997
2 69396  89.0032 350.3148 0001864 107.2954 252.8401 13.51032921 17128
QIANFAN-180             
1 69397U 26124R   26279.59462932  .00000073  00000+0  94219-4 0  9993
2 69397  89.0038 350.3364 0001742 105.3124 254.8220 13.51025062 17116
QIANFAN-181             
1 69398U 26124S   26279.56167617  .00000089  00000+0  11964-3 0  9995
2 69398  89.0061 350.4369 0002185 102.6995 257.4400 13.51027070 17061
QIANFAN-182             
1 69399U 26124T   26279.56566691  .00000091  00000+0  12246-3 0  9998
2 69399  89.0036 350.4027 0001943 108.9222 251.2140 13.51031699 17063
QIANFAN-183             
1 69401U 26125A   26279.60031968  .00000044  00000+0  48979-4 0  9993
2 69401  88.9837 268.6505 0002349  95.7095 264.4324 13.51027967 16980
QIANFAN-184             
1 69402U 26125B   26279.60854781  .00000049  00000+0  57462-4 0  9992
2 69402  88.9888 268.6855 0002212  94.3386 265.8018 13.51029519 16982
QIANFAN-185             
1 69403U 26125C   26279.55924506  .00000052  00000+0  61589-4 0  9999
2 69403  88.9903 268.6329 0002232  96.9555 263.1850 13.51029042 17016
QIANFAN-186             
1 69404U 26125D   26279.60454156  .00000035  00000+0  35801-4 0  9994
2 69404  88.9890 268.6863 0002205  92.6251 267.5153 13.51028427 16986
QIANFAN-187             
1 69405U 26125E   26279.53870961  .00000037  00000+0  39384-4 0  9995
2 69405  88.9890 268.6758 0002401  92.3040 267.8386 13.51029138 16982
QIANFAN-188             
1 69406U 26125F   26279.54674956  .00000046  00000+0  52464-4 0  9997
2 69406  88.9888 268.6744 0002403  96.3177 263.8247 13.51018367 16986
QIANFAN-189             
1 69407U 26125G   26279.62910646  .00000043  00000+0  47515-4 0  9994
2 69407  88.9871 268.6577 0002559  98.6739 261.4702 13.51019402 16985
QIANFAN-190             
1 69408U 26125H   26279.54269362  .00000041  00000+0  44656-4 0  9999
2 69408  88.9872 268.6646 0002146  95.0882 265.0514 13.51019465 16986
QIANFAN-191             
1 69409U 26125J   26279.56734328  .00000053  00000+0  63195-4 0  9993
2 69409  88.9886 268.6764 0002368  96.4441 263.6980 13.51020079 16989
QIANFAN-192             
1 69410U 26125K   26279.55092933  .00000044  00000+0  48743-4 0  9995
2 69410  88.9893 268.6797 0002538  96.7029 263.4411 13.51020000 16980
QIANFAN-193             
1 69411U 26125L   26279.57565715  .00000039  00000+0  41391-4 0  9997
2 69411  88.9871 268.6498 0002328  98.5798 261.5617 13.51027999 16997
QIANFAN-194             
1 69412U 26125M   26279.57154650  .00000042  00000+0  45826-4 0  9991
2 69412  88.9904 268.6703 0002388  95.7705 264.3718 13.51026567 16989
QIANFAN-195             
1 69413U 26125N   26279.57985702  .00000035  00000+0  35351-4 0  9996
2 69413  88.9905 268.6547 0001970  90.0508 270.0869 13.51028335 17002
QIANFAN-196             
1 69414U 26125P   26279.58791686  .00000038  00000+0  39821-4 0  9993
2 69414  88.9910 268.6586 0002030  94.2897 265.8486 13.51020488 17005
QIANFAN-197             
1 69415U 26125Q   26279.59630667  .00000042  00000+0  46267-4 0  9993
2 69415  88.9884 268.6249 0002306  95.3931 264.7483 13.51024114 17004
QIANFAN-198             
1 69416U 26125R   26279.58386122  .00000036  00000+0  36508-4 0  9997
2 69416  88.9878 268.6378 0002396  96.3703 263.7721 13.51028655 17006
QIANFAN-199             
1 69417U 26125S   26279.59216966  .00000048  00000+0  56392-4 0  9993
2 69417  88.9882 268.5878 0002487  91.9493 268.1943 13.51026281 17035
QIANFAN-200             
1 69418U 26125T   26279.56330673  .00000056  00000+0  68103-4 0  9995
2 69418  88.9889 268.6774 0002478  97.8142 262.3290 13.51026825 16983
QIANFAN-201             
1 69800U 26153A   26278.64079780 -.01845814  00000+0 -16945+1 0  9993
2 69800  88.9960 349.8058 0005309 253.7802 106.2786 13.87269169 13169
QIANFAN-202             
1 69801U 26153B   26278.73043303 -.01848259  00000+0 -15704+1 0  9994
2 69801  88.9965 349.7449 0006915 292.4260  67.6181 13.91776640 13194
QIANFAN-203             
1 69802U 26153C   26278.78619657 -.01812594  00000+0 -15202+1 0  9997
2 69802  88.9964 349.7723 0005420 304.1339  55.9322 13.92448719 13198
QIANFAN-204             
1 69803U 26153D   26278.92286100 -.01859204  00000+0 -16329+1 0  9997
2 69803  88.9961 349.7561 0006781 246.2551 113.7912 13.89880676 13218
QIANFAN-205             
1 69804U 26153E   26278.68274405 -.01856827  00000+0 -16533+1 0  9991
2 69804  88.9959 349.8116 0009163 297.1225  62.9013 13.89070131 13161
QIANFAN-206             
1 69805U 26153F   26278.80086626 -.01855012  00000+0 -15967+1 0  9997
2 69805  88.9963 349.7371 0007739 284.2535  75.7779 13.91039677 13217
QIANFAN-207             
1 69806U 26153G   26279.47746836  .00000037  00000+0  18817-4 0  9995
2 69806  88.9967 349.7078 0004062 297.5510  62.5252 13.91970435 13285
QIANFAN-208             
1 69807U 26153H   26278.67700985 -.01852771  00000+0 -16864+1 0  9991
2 69807  88.9959 349.7918 0008616 357.2930   2.8193 13.87776082 13186
QIANFAN-209             
1 69808U 26153J   26278.79388366 -.01832785  00000+0 -16816+1 0  9990
2 69808  88.9964 349.7929 0006535 210.0330 150.0468 13.87266495 13186
QIANFAN-210             
1 69809U 26153K   26278.90767940 -.01828997  00000+0 -16797+1 0  9991
2 69809  88.9962 349.7724 0007848 202.4122 157.6707 13.87201251 13201
QIANFAN-211             
1 69810U 26153L   26279.63237515  .00000315  00000+0  15711-3 0  9995
2 69810  88.9967 349.6024 0005528 277.8579  82.1980 14.14549756 13352
QIANFAN-212             
1 69811U 26153M   26278.90341161 -.01828101  00000+0 -15477+1 0  9998
2 69811  88.9957 349.7330 0008238 290.1927  69.8361 13.91930115 13227
QIANFAN-213             
1 69812U 26153N   26278.81325123 -.01847459  00000+0 -16091+1 0  9999
2 69812  88.9967 349.7574 0009311 296.0676  63.9538 13.90330049 13206
QIANFAN-214             
1 69813U 26153P   26278.78778929 -.01791821  00000+0 -14150+1 0  9997
2 69813  88.9965 349.6983 0002789 117.4728 242.6732 13.95863547 13238
QIANFAN-215             
1 69814U 26153Q   26279.54329659  .00000334  00000+0  16459-3 0  9991
2 69814  88.9965 349.5308 0005382 290.7104  69.3506 14.15207550 13382
QIANFAN-216             
1 69815U 26153R   26278.79342211 -.01808307  00000+0 -14657+1 0  9991
2 69815  88.9963 349.6803 0004908  70.1117 290.0587 13.94403439 13246
QIANFAN-217             
1 69816U 26153S   26278.80684033 -.01868094  00000+0 -10970+1 0  9998
2 69816  88.9959 349.5499 0000741 240.1414 119.9698 14.11936156 13319
QIANFAN-218             
1 69817U 26153T   26278.88547860 -.01845482  00000+0 -10977+1 0  9996
2 69817  88.9962 349.5467 0003298 141.9921 218.1498 14.11184528 13329
QIANFAN-219             
1 69848U 26155A   26279.60422098  .00000067  00000+0  85930-4 0  9992
2 69848  89.0115  52.0882 0001617 110.1110 250.0215 13.51030331 12914
QIANFAN-220             
1 69849U 26155B   26279.62429470  .00000085  00000+0  11300-3 0  9995
2 69849  89.0121  52.1162 0033322 324.7892  35.1058 13.50936219 12907
QIANFAN-221             
1 69850U 26155C   26278.65344914 -.01889670  00000+0 -24831+1 0  9996
2 69850  89.0118  51.9205 0030184 337.0354  22.9454 13.65603416 12936
QIANFAN-222             
1 69851U 26155D   26279.64125594  .00000068  00000+0  87349-4 0  9998
2 69851  89.0122  52.1332 0001729 100.6325 259.5021 13.51025804 12898
QIANFAN-223             
1 69852U 26155E   26279.59593243  .00000080  00000+0  10543-3 0  9998
2 69852  89.0121  52.1457 0001804 101.4085 258.7269 13.51032433 12882
QIANFAN-224             
1 69853U 26155F   26279.64533768  .00000066  00000+0  84241-4 0  9992
2 69853  89.0105  52.0809 0001759 102.7955 257.3393 13.51028811 12916
QIANFAN-225             
1 69854U 26155G   26279.64943051  .00000067  00000+0  84756-4 0  9995
2 69854  89.0113  52.1292 0001746 103.9811 256.1535 13.51032512 12898
QIANFAN-226             
1 69855U 26155H   26279.57955328  .00000075  00000+0  98059-4 0  9998
2 69855  89.0115  52.1190 0001704 105.9301 254.2038 13.51033678 12899
QIANFAN-227             
1 69856U 26155J   26278.99101950  .00000031  00000+0  30448-4 0  9998
2 69856  89.0112  52.1810 0034047 328.4838  31.4273 13.51040233 12812
QIANFAN-228             
1 69857U 26155K   26278.84536874 -.01783863  00000+0 -31388+1 0  9994
2 69857  89.0116  52.1810 0011480 335.6021  24.4584 13.47082815 12800
QIANFAN-229             
1 69858U 26155L   26279.60007514  .00000065  00000+0  82792-4 0  9996
2 69858  89.0122  52.0903 0001780 101.0133 259.1219 13.51036837 12913
QIANFAN-230             
1 69859U 26155M   26279.63704986  .00000071  00000+0  91011-4 0  9998
2 69859  89.0118  52.1286 0001733 104.0174 256.1170 13.51035031 12895
QIANFAN-231             
1 69860U 26155N   26278.86579551 -.01760313  00000+0 -30925+1 0  9990
2 69860  89.0114  52.1468 0021918 330.6696  29.3221 13.47060836 12824
QIANFAN-232             
1 69861U 26155P   26279.66264199  .00000077  00000+0  10138-3 0  9997
2 69861  89.0112  52.0763 0024745 322.2522  37.6892 13.50453831 12928
QIANFAN-233             
1 69862U 26155Q   26279.61247029  .00000070  00000+0  89420-4 0  9990
2 69862  89.0117  52.0732 0001720 108.7731 251.3607 13.51036075 12924
QIANFAN-234             
1 69863U 26155R   26278.80880279 -.01970737  00000+0 -30991+1 0  9995
2 69863  89.0101  52.0832 0026432 319.1865  40.7307 13.53892994 12853
QIANFAN-235             
1 69864U 26155S   26278.87870131 -.01887301  00000+0 -20512+1 0  9991
2 69864  89.0117  51.8109 0032239 324.1358  35.7643 13.77129816 13018
QIANFAN-236             
1 69865U 26155T   26278.87826708 -.01757707  00000+0 -30949+1 0  9994
2 69865  89.0117  52.1689 0005485 249.1024 110.9538 13.46995968 12816
QIANFAN-237             
1 69866U 26155U   26278.66037642 -.01782691  00000+0 -31481+1 0  9995
2 69866  89.0116  52.1554 0009427 171.7194 188.4112 13.46856601 12790
QIANFAN-238             
1 69867U 26155V   26279.62889590  .00000035  00000+0  35993-4 0  9998
2 69867  89.0123  52.0776 0001912  94.3404 265.7965 13.51024921 12927
