EUTELSAT 174A           
1 28924U 05052A   26265.59277833  .00000010  00000+0  00000+0 0  9991
2 28924   4.4582  75.2652 0006059 106.1388 207.5080  1.00275145 53302
EUTELSAT 33F            
1 29270U 06032A   26265.77867543  .00000154  00000+0  00000+0 0  9997
2 29270   1.9059  81.0040 0003385  96.3376 137.7213  1.00272532 48280
EUTELSAT HOTBIRD 13C    
1 33459U 08065A   26265.76212203 -.00000283  00000+0  00000+0 0  9999
2 33459   3.1937  77.9495 0003711 109.1467  38.6087  1.00271151 48327
EUTELSAT 36B            
1 36101U 09065A   26265.74858022  .00000110  00000+0  00000+0 0  9998
2 36101   0.7299  81.0930 0005813  99.3216 141.2051  1.00274326 61688
EUTELSAT KA-SAT 9A      
1 37258U 10069A   26265.20360465  .00000058  00000+0  00000+0 0  9999
2 37258   0.0754 354.9077 0005153 167.9965 280.4606  1.00269013 44988
EUTELSAT 7 WEST A       
1 37816U 11051A   26265.84194238 -.00000062  00000+0  00000+0 0  9990
2 37816   0.0677   9.7580 0006109 169.5795 118.1684  1.00272780 54852
EUTELSAT 16A            
1 37836U 11057A   26265.70396843  .00000102  00000+0  00000+0 0  9993
2 37836   0.1125  66.4296 0005492 115.6136  88.9639  1.00273951  8317
EUTELSAT 21B            
1 38992U 12062B   26265.84574589  .00000128  00000+0  00000+0 0  9992
2 38992   0.0718 344.2209 0002878 195.6693 147.9021  1.00274325 50808
EUTELSAT 70B            
1 39020U 12069A   26265.72873837 -.00000046  00000+0  00000+0 0  9997
2 39020   0.0658   1.1581 0003687 181.6489 151.6327  1.00271432 50484
EUTELSAT 117 WEST A     
1 39122U 13012A   26265.89142927  .00000000  00000+0  00000+0 0  9995
2 39122   0.0125 160.6379 0002983  23.8988  21.3266  1.00269780 49410
EUTELSAT 7B             
1 39163U 13022A   26265.70396843  .00000102  00000+0  00000+0 0  9992
2 39163   0.0693 345.0275 0004447 121.1328 164.8853  1.00274873 48925
EXPRESS-AT1             
1 39612U 14010A   26265.96174701 -.00000113  00000+0  00000+0 0  9997
2 39612   0.5023  84.3747 0004947  82.1255 257.9784  1.00315743 45794
EXPRESS-AT2             
1 39613U 14010B   26265.89163172  .00000076  00000+0  00000+0 0  9997
2 39613   0.0192 244.3471 0000441 218.0131 276.3850  1.00272360 45478
EUTELSAT 3B             
1 39773U 14030A   26265.93169785  .00000018  00000+0  00000+0 0  9993
2 39773   0.0639 359.1751 0004213 179.9092 161.2274  1.00271844 45040
EUTELSAT 115 WEST B     
1 40425U 15010B   26265.56029825 -.00000028  00000+0  00000+0 0  9999
2 40425   0.0384  14.8642 0000249 284.3147 149.0575  1.00270884 42356
EUTELSAT 8 WEST B       
1 40875U 15039B   26265.69920175 -.00000068  00000+0  00000+0 0  9995
2 40875   0.0695 343.5716 0003603 198.2488  63.4666  1.00271232 40639
EUTELSAT 9B             
1 41310U 16005A   26265.90755081  .00000059  00000+0  00000+0 0  9999
2 41310   0.0528  66.2914 0002637 150.2840 120.9128  1.00272016 39095
EUTELSAT 65 WEST A      
1 41382U 16014A   26265.54537146 -.00000279  00000+0  00000+0 0  9993
2 41382   0.1037 296.0186 0002371 254.5361 301.9775  1.00266724 38508
EUTELSAT 117 WEST B     
1 41589U 16038B   26265.89142927 -.00000014  00000+0  00000+0 0  9992
2 41589   0.0399  13.4422 0000195 297.0011 255.2332  1.00272068 37649
EUTELSAT 172B           
1 42741U 17029B   26265.87747588 -.00000008  00000+0  00000+0 0  9999
2 42741   0.0212 150.4859 0000315 289.6963  49.4697  1.00272786 34738
EUTELSAT 7C             
1 44334U 19034B   26265.34578657  .00000045  00000+0  00000+0 0  9998
2 44334   0.0685 181.2473 0003278 341.9162 329.5440  1.00271937  7814
EUTELSAT 5 WEST B       
1 44624U 19067A   26265.62856809 -.00000045  00000+0  00000+0 0  9996
2 44624   0.0686 339.1476 0003221 199.9501  43.6985  1.00272866 25405
EUTELSAT KONNECT        
1 45027U 20005B   26265.55967153  .00000048  00000+0  00000+0 0  9997
2 45027   0.0645  99.1922 0002308 110.8237   0.1178  1.00276849 25317
EUTELSAT QUANTUM        
1 49056U 21069B   26265.63896814  .00000000  00000+0  00000+0 0  9996
2 49056   0.0146 162.7272 0002109  16.7084  99.7985  1.00274440 18909
EUTELSAT KONNECT VHTS   
1 53765U 22110A   26265.93169808  .00000015  00000+0  00000+0 0  9991
2 53765   0.0545 104.8741 0002719  48.1503 186.9292  1.00270278  7817
EUTELSAT HOTBIRD 13F    
1 54048U 22134A   26265.84592906  .00000085  00000+0  00000+0 0  9998
2 54048   0.0691 286.2662 0001898  83.2881 309.7049  1.00272435 14356
EUTELSAT HOTBIRD 13G    
1 54225U 22146A   26265.77468875  .00000085  00000+0  00000+0 0  9997
2 54225   0.0546 238.2623 0002161 294.2147 121.0722  1.00272220  8447
EUTELSAT 10B            
1 54259U 22157A   26265.77408207  .00000066  00000+0  00000+0 0  9998
2 54259   0.0542 101.9028 0001470   1.8489 186.5533  1.00271702 14007
EUTELSAT 36D            
1 59346U 24059A   26265.85132617  .00000153  00000+0  00000+0 0  9998
2 59346   0.0012 171.4800 0000103 265.5156 267.0714  1.00271689  9120
