KUIPER-00008            
1 63724U 25088A   26256.26636924 -.00000680  00000+0 -60257-4 0  9993
2 63724  51.9026 338.5444 0000418  96.6373 263.4637 14.79923659 75823
KUIPER-00009            
1 63725U 25088B   26256.24027449  .00004877  00000+0  33149-3 0  9997
2 63725  51.9037 347.4290 0000482 114.0394 246.0631 15.07994040 75693
KUIPER-00010            
1 63726U 25088C   26256.23801565  .00000979  00000+0  15740-3 0  9992
2 63726  51.9035 333.7797 0000424  99.0223 261.0787 14.79932387 75504
KUIPER-00011            
1 63727U 25088D   26256.26369788  .00000839  00000+0  13908-3 0  9991
2 63727  51.9024 341.2091 0000379  93.3438 266.7568 14.79928375 75532
KUIPER-00012            
1 63728U 25088E   26256.17857449  .00000689  00000+0  11937-3 0  9991
2 63728  51.9033 326.5256 0000268  57.1405 302.9583 14.79927043 75688
KUIPER-00013            
1 63729U 25088F   26256.24481790  .00000814  00000+0  13582-3 0  9990
2 63729  51.9035 358.7511 0000489 106.0183 254.0833 14.79924616 75345
KUIPER-00014            
1 63730U 25088G   26255.67079891  .00000454  00000+0  88571-4 0  9994
2 63730  51.9040   1.2337 0000442 100.1994 259.9018 14.79918982 75071
KUIPER-00015            
1 63731U 25088H   26256.30156063 -.00000231  00000+0 -12744-5 0  9998
2 63731  51.9010   8.4918 0000351 119.0936 241.0062 14.79924991 75480
KUIPER-00016            
1 63732U 25088J   26256.00575819  .00000540  00000+0  99782-4 0  9997
2 63732  51.9026   2.2580 0000288 126.2776 233.8213 14.79928350 75082
KUIPER-00018            
1 63733U 25088K   26256.25290374  .00000742  00000+0  12635-3 0  9990
2 63733  51.9057 351.2123 0000224  94.4149 265.6839 14.79922521 75268
KUIPER-00019            
1 63734U 25088L   26256.00945307 -.00000674  00000+0 -59481-4 0  9994
2 63734  51.9026 351.0346 0000065 134.3977 225.6991 14.79924047 75244
KUIPER-00020            
1 63735U 25088M   26255.98008773  .00000375  00000+0  78183-4 0  9994
2 63735  51.9046 354.9138 0000320  87.1619 272.9380 14.79925955 75392
KUIPER-00021            
1 63736U 25088N   26255.67619990 -.00000354  00000+0 -17425-4 0  9991
2 63736  51.9030 356.2082 0000368 109.8842 250.2160 14.79919420 75183
KUIPER-00023            
1 63737U 25088P   26255.50465669  .00002679  00000+0  38022-3 0  9991
2 63737  51.9038 359.4624 0001144  89.6252 270.4842 14.79942402 75426
KUIPER-00024            
1 63738U 25088Q   26255.65323215  .00000174  00000+0  51829-4 0  9997
2 63738  51.9053 346.4113 0000395  97.5221 262.5786 14.79923798 75745
KUIPER-00025            
1 63739U 25088R   26255.67890433  .00001528  00000+0  22944-3 0  9990
2 63739  51.9051 353.7788 0000536 106.2672 253.8349 14.79930469 75503
KUIPER-00027            
1 63740U 25088S   26255.98818484  .00001104  00000+0  17386-3 0  9996
2 63740  51.9038 347.3702 0000469  98.8041 261.2975 14.79929917 75353
KUIPER-00028            
1 63741U 25088T   26256.22722706  .00000713  00000+0  12258-3 0  9994
2 63741  51.9021 343.7545 0000225 102.9137 257.1851 14.79924710 75830
KUIPER-00029            
1 63742U 25088U   26256.27074676  .00000462  00000+0  89591-4 0  9992
2 63742  51.9038 342.2591 0000054 137.8857 222.2110 14.79914158 75386
KUIPER-00030            
1 63743U 25088V   26255.70187118 -.00001140  00000+0 -12054-3 0  9991
2 63743  51.9031   3.5950 0000372  91.7951 268.3054 14.79944144 75322
KUIPER-00031            
1 63744U 25088W   26256.29206338  .00001152  00000+0  18004-3 0  9995
2 63744  51.9033 346.0085 0000284 105.9733 254.1261 14.79931859 75330
KUIPER-00032            
1 63745U 25088X   26256.08152090  .00012168  00000+0  28574-3 0  9990
2 63745  51.8681 194.3689 0005283  68.6281 291.5271 15.42429432 78429
KUIPER-00033            
1 63746U 25088Y   26255.65193307  .00009550  00000+0  12808-2 0  9992
2 63746  51.9032  18.8391 0000463 113.6889 246.4122 14.79904487 75306
KUIPER-00034            
1 63747U 25088Z   26255.96250072  .00000849  00000+0  14040-3 0  9993
2 63747  51.9036 340.0021 0000460  89.9609 270.1406 14.79929701 75555
KUIPER-00035            
1 63748U 25088AA  26256.27317130  .00000016  00000+0  31124-4 0  9997
2 63748  51.9032   3.5923 0000628 111.6096 248.4934 14.79919891 75309
KUIPER-00037            
1 63749U 25088AB  26255.99598599  .00000607  00000+0  10862-3 0  9997
2 63749  51.9022   3.6783 0000437 100.5707 259.5304 14.79928168 76063
KUIPER-00038            
1 63750U 25088AC  26255.64781830  .00001227  00000+0  18988-3 0  9999
2 63750  51.9037 351.3921 0000566 104.1697 255.9329 14.79929243 75206
KUIPER-00039            
1 64500U 25134A   26256.02557588  .00002259  00000+0  32535-3 0  9999
2 64500  51.9019 124.7187 0000766 108.8916 251.2130 14.79925810 67816
KUIPER-00040            
1 64501U 25134B   26255.98104387  .00001143  00000+0  17889-3 0  9995
2 64501  51.8991 134.9775 0001108  82.6835 277.4253 14.79930416 67668
KUIPER-00041            
1 64502U 25134C   26255.87702731  .00002230  00000+0  32140-3 0  9996
2 64502  51.8991 137.8268 0000813  99.5148 260.5907 14.79928243 67613
KUIPER-00042            
1 64503U 25134D   26255.91618223  .00000875  00000+0  14384-3 0  9997
2 64503  51.8984 132.6297 0000796 116.3210 243.7834 14.79929066 67693
KUIPER-00043            
1 64504U 25134E   26256.05933687  .00001180  00000+0  18377-3 0  9994
2 64504  51.9038 124.5131 0000944  99.6392 260.4677 14.79925568 67820
KUIPER-00044            
1 64505U 25134F   26256.04585755  .00002343  00000+0  33628-3 0  9991
2 64505  51.8986 137.0628 0000896  97.9670 262.1394 14.79931310 67645
KUIPER-00046            
1 64506U 25134G   26256.01478151  .00002198  00000+0  31723-3 0  9992
2 64506  51.8989 134.6710 0001157 102.3807 257.7285 14.79936571 67674
KUIPER-00047            
1 64507U 25134H   26255.87561805  .00002109  00000+0  30556-3 0  9990
2 64507  51.8989 107.8149 0000804 103.7679 256.3373 14.79929970 68032
KUIPER-00048            
1 64508U 25134J   26255.97687395  .00002062  00000+0  29946-3 0  9994
2 64508  51.8979 107.3789 0000793  98.0705 262.0348 14.79920827 68050
KUIPER-00049            
1 64509U 25134K   26255.99719843  .00002250  00000+0  32407-3 0  9996
2 64509  51.8998 119.7624 0000784 102.8301 257.2749 14.79928595 67884
KUIPER-00050            
1 64510U 25134L   26255.94853365  .00002262  00000+0  32568-3 0  9992
2 64510  51.8990 102.4969 0000723 107.7884 252.3158 14.79917201 68122
KUIPER-00051            
1 64511U 25134M   26256.04075386  .00002167  00000+0  31313-3 0  9995
2 64511  51.9003 118.2669 0000874 107.2443 252.8616 14.79930498 67906
KUIPER-00053            
1 64513U 25134P   26255.98891393  .00001562  00000+0  22463-3 0  9997
2 64513  51.8994 112.9911 0002634  99.0429 261.0832 14.81707777 67979
KUIPER-00054            
1 64514U 25134Q   26255.97421295  .00002207  00000+0  31835-3 0  9997
2 64514  51.8986 109.8666 0000986 105.7250 254.3821 14.79935632 68017
KUIPER-00055            
1 64515U 25134R   26255.65405889  .00002412  00000+0  34539-3 0  9996
2 64515  51.9020  63.9313 0000613 112.6308 247.4720 14.79926535 68636
KUIPER-00056            
1 64516U 25134S   26255.32731619  .00000697  00000+0  12045-3 0  9995
2 64516  51.9030 117.8433 0000995 100.2673 259.8401 14.79927030 67858
KUIPER-00057            
1 64517U 25134T   26255.99450860  .00001641  00000+0  24428-3 0  9993
2 64517  51.8995 122.3084 0000810 103.5981 256.5071 14.79923019 67844
KUIPER-00058            
1 64518U 25134U   26256.03366212  .00001915  00000+0  28019-3 0  9991
2 64518  51.8998 117.1118 0000910 114.3182 245.7875 14.79931904 67925
KUIPER-00059            
1 64519U 25134V   26255.90401493  .00002178  00000+0  31470-3 0  9995
2 64519  51.8985 112.7220 0000799 105.1348 254.9703 14.79922483 67973
KUIPER-00060            
1 64520U 25134W   26255.87024464  .00002085  00000+0  30248-3 0  9991
2 64520  51.9016 112.9497 0000716 105.4414 254.6627 14.79933266 67956
KUIPER-00061            
1 64521U 25134X   26255.89591969  .00002160  00000+0  31229-3 0  9997
2 64521  51.8997 120.2772 0000885 108.2502 251.8556 14.79926450 67854
KUIPER-00062            
1 64522U 25134Y   26256.02826799  .00002258  00000+0  32513-3 0  9991
2 64522  51.8949 122.1407 0000852 104.5094 255.5963 14.79925901 67850
KUIPER-00063            
1 64523U 25134Z   26255.95266569  .00001605  00000+0  23959-3 0  9995
2 64523  51.9021 130.0692 0000745  99.3965 260.7081 14.79923703 67730
KUIPER-00064            
1 64524U 25134AA  26256.02286946  .00002326  00000+0  33392-3 0  9999
2 64524  51.9019 127.1845 0001246  95.0559 265.0545 14.79940235 67781
KUIPER-00065            
1 64525U 25134AB  26255.88244429  .00000223  00000+0  58286-4 0  9997
2 64525  51.9030 132.9803 0000812 102.6610 257.4443 14.79929105 67677
KUIPER-00066            
1 64526U 25134AC  26256.11865158  .00004817  00000+0  66067-3 0  9991
2 64526  51.9000  69.2033 0000961 102.3128 257.7942 14.79913829 68605
KUIPER-00069            
1 64816U 25151A   26256.04188059  .00002509  00000+0  35794-3 0  9991
2 64816  51.9012 172.1814 0000832  93.7054 266.4003 14.79938776 64507
KUIPER-00070            
1 64817U 25151B   26256.25126445  .00002590  00000+0  36859-3 0  9999
2 64817  51.8995 196.1551 0001089  69.4771 290.6308 14.79930993 64197
KUIPER-00071            
1 64818U 25151C   26256.18643126  .00002500  00000+0  35684-3 0  9998
2 64818  51.9002 193.9882 0000786  94.9421 265.1631 14.79933841 63031
KUIPER-00072            
1 64819U 25151D   26256.17423034  .00002275  00000+0  32732-3 0  9992
2 64819  51.8983 173.9669 0001045  77.5739 282.5340 14.79928217 63310
KUIPER-00073            
1 64820U 25151E   26256.08513647  .00000077  00000+0  39147-4 0  9990
2 64820  51.9002 194.4132 0000965  62.5827 297.5234 14.79925773 64201
KUIPER-00075            
1 64822U 25151G   26255.77182096  .00027672  00000+0  71995-3 0  9993
2 64822  51.8674  29.4360 0002839 210.0014 150.0811 15.38695919 65282
KUIPER-00076            
1 64823U 25151H   26256.23098111  .00002596  00000+0  36939-3 0  9997
2 64823  51.9002 183.7932 0000919  81.4709 278.6358 14.79928770 63184
KUIPER-00077            
1 64824U 25151J   26256.09052606  .00002361  00000+0  33877-3 0  9999
2 64824  51.9018 189.4357 0000942  74.8565 285.2501 14.79919453 63090
KUIPER-00078            
1 64825U 25151K   26256.19451651  .00002643  00000+0  37561-3 0  9991
2 64825  51.9000 186.4474 0000998  79.8974 280.2101 14.79933216 63149
KUIPER-00079            
1 64826U 25151L   26256.02030309  .00001866  00000+0  27370-3 0  9990
2 64826  51.8992 192.1731 0000890  67.0916 293.0140 14.79926160 64242
KUIPER-00080            
1 64827U 25151M   26256.12158503  .00002598  00000+0  36959-3 0  9995
2 64827  51.8993 191.7371 0000766  95.8293 264.2757 14.79937319 63069
KUIPER-00082            
1 64828U 25151N   26256.16884285  .00002617  00000+0  37219-3 0  9995
2 64828  51.9008 179.0909 0000935  77.6687 282.4380 14.79933400 63248
KUIPER-00083            
1 64829U 25151P   26256.22829157  .00002546  00000+0  36284-3 0  9992
2 64829  51.9004 186.3089 0001012  72.7598 287.3475 14.79932477 64332
KUIPER-00084            
1 64830U 25151Q   26256.21749681  .00002537  00000+0  36171-3 0  9991
2 64830  51.9003 196.3426 0000673  99.9575 260.1464 14.79927452 63004
KUIPER-00085            
1 64831U 25151R   26256.20262102  .00002564  00000+0  36521-3 0  9998
2 64831  51.9022 178.9980 0000842  86.2574 273.8484 14.79928614 63243
KUIPER-00086            
1 64832U 25151S   26256.19181003  .00002559  00000+0  36453-3 0  9995
2 64832  51.9003 188.9800 0000994  84.7901 275.3175 14.79934400 63109
KUIPER-00087            
1 64833U 25151T   26256.14293854  .00002684  00000+0  38046-3 0  9998
2 64833  51.8996 171.6495 0001358  67.9102 292.2004 14.79990471 63334
KUIPER-00089            
1 64834U 25151U   26256.00271876  .00002523  00000+0  35987-3 0  9997
2 64834  51.9005 177.2979 0000766  93.7156 266.3894 14.79929637 63250
KUIPER-00090            
1 64835U 25151V   26256.14585970  .00000313  00000+0  70105-4 0  9993
2 64835  51.8996 169.1590 0000952  89.8171 270.2901 14.79926212 63370
KUIPER-00091            
1 64836U 25151W   26256.20799700  .00002739  00000+0  38816-3 0  9995
2 64836  51.9012 173.9115 0001051  86.1907 273.9175 14.79938068 63314
KUIPER-00092            
1 64837U 25151X   26256.19991439  .00001707  00000+0  25296-3 0  9999
2 64837  51.8994 181.4348 0000840  92.6769 267.4290 14.79927170 64429
KUIPER-00093            
1 64838U 25151Y   26256.06214783  .00002337  00000+0  33560-3 0  9999
2 64838  51.8998 184.5141 0000793  96.6486 263.4567 14.79920483 63158
KUIPER-00094            
1 64839U 25151Z   26256.11069940  .00002407  00000+0  34456-3 0  9992
2 64839  51.9022 139.4146 0001185  90.2369 269.8730 14.79939453 63797
KUIPER-00081            
1 65132U 25171A   26256.11725852  .00001537  00000+0  23059-3 0  9992
2 65132  51.9018  39.2668 0000543 112.2594 247.8426 14.79927119 60798
KUIPER-00088            
1 65133U 25171B   26255.69319167  .00002308  00000+0  33156-3 0  9999
2 65133  51.8992  58.6420 0000579 107.6647 252.4379 14.79936267 60485
KUIPER-00095            
1 65134U 25171C   26256.11995857  .00001857  00000+0  27258-3 0  9998
2 65134  51.8996  36.7922 0000511 116.7508 243.3507 14.79928974 60823
KUIPER-00096            
1 65135U 25171D   26255.66752625  .00000911  00000+0  14856-3 0  9992
2 65135  51.8992  51.2478 0000627 120.3513 239.7512 14.79925459 60586
KUIPER-00097            
1 65136U 25171E   26255.66484357 -.00000296  00000+0 -97751-5 0  9992
2 65136  51.9012  53.9299 0000528 117.6581 242.4435 14.79927259 60535
KUIPER-00098            
1 65137U 25171F   26255.86471467 -.00000503  00000+0 -36929-4 0  9993
2 65137  51.9002  55.4054 0000595 100.2170 259.8860 14.79929854 59880
KUIPER-00099            
1 65138U 25171G   26256.11187416  .00001447  00000+0  21879-3 0  9994
2 65138  51.9024  44.3267 0000408 108.2291 251.8716 14.79930451 60714
KUIPER-00100            
1 65139U 25171H   26255.60808081  .00000593  00000+0  10673-3 0  9997
2 65139  51.9022  44.0198 0000532 100.2084 259.8938 14.79926766 60676
KUIPER-00102            
1 65140U 25171J   26256.14562572  .00002723  00000+0  38615-3 0  9994
2 65140  51.8995  44.1129 0000638 131.0309 229.0709 14.79926707 60715
KUIPER-00103            
1 65141U 25171K   26255.82285992  .00000889  00000+0  14567-3 0  9998
2 65141  51.8996  63.0436 0000673 107.2653 252.8383 14.79923813 60429
KUIPER-00104            
1 65142U 25171L   26255.63376404  .00002361  00000+0  33862-3 0  9993
2 65142  51.9027  51.3961 0000572 110.2913 249.8111 14.79925712 60571
KUIPER-00105            
1 65143U 25171M   26255.65944422  .00000636  00000+0  11239-3 0  9994
2 65143  51.9017  58.8760 0000660 115.8578 244.2453 14.79929791 60474
KUIPER-00106            
1 65144U 25171N   26255.77520795  .00002674  00000+0  37974-3 0  9999
2 65144  51.9025  37.1319 0000747  99.9636 260.1410 14.79926281 60793
KUIPER-00107            
1 65145U 25171P   26255.61077681  .00000686  00000+0  11893-3 0  9997
2 65145  51.9018  41.5323 0000551 102.8128 257.2896 14.79927240 60716
KUIPER-00108            
1 65146U 25171Q   26255.69859688 -.00000272  00000+0 -66425-5 0  9997
2 65146  51.9024  53.6913 0000532 113.2066 246.8952 14.79926574 60557
KUIPER-00109            
1 65147U 25171R   26256.14291283  .00001102  00000+0  17357-3 0  9999
2 65147  51.9014  46.6655 0000565 123.5564 236.5453 14.79930897 60684
KUIPER-00110            
1 65148U 25171S   26255.69051203  .00001121  00000+0  17612-3 0  9990
2 65148  51.9001  61.2144 0000763 119.9487 240.1551 14.79924912 60434
KUIPER-00111            
1 65149U 25171T   26255.92144558  .00002312  00000+0  33220-3 0  9999
2 65149  51.8966  65.0547 0000791 134.8755 225.2271 14.79938212 60406
KUIPER-00112            
1 65150U 25171U   26255.63645020  .00002510  00000+0  35811-3 0  9997
2 65150  51.9021  48.9519 0000595 123.1963 236.9057 14.79931300 60608
KUIPER-00114            
1 65151U 25171V   26255.91877227  .00002435  00000+0  34829-3 0  9999
2 65151  51.8990  67.6630 0000711 119.9892 240.1141 14.79927115 60362
KUIPER-00115            
1 65152U 25171W   26255.85933428  .00002436  00000+0  34843-3 0  9996
2 65152  51.9004  60.4339 0000609 116.7894 243.3131 14.79927060 60464
KUIPER-00116            
1 65153U 25171X   26255.88770527  .00002313  00000+0  33227-3 0  9998
2 65153  51.8997  65.3407 0000638 108.9899 251.1132 14.79934856 60396
KUIPER-00118            
1 65154U 25171Y   26255.74991966  .00003676  00000+0  51074-3 0  9999
2 65154  51.9008  68.3966 0000575  91.1359 268.9669 14.79945979 60342
KUIPER-00119            
1 65155U 25171Z   26256.16860794  .00001747  00000+0  25809-3 0  9995
2 65155  51.9009  54.1489 0000571 106.4998 253.6027 14.79930997 60570
KUIPER-00120            
1 65762U 25217A   26256.13530876  .00000572  00000+0  10408-3 0  9996
2 65762  51.9001 304.1643 0000487  82.9871 277.1147 14.79927218 52498
KUIPER-00132            
1 65763U 25217B   26256.18191954  .00028540  00000+0  72714-3 0  9995
2 65763  51.8521 170.9553 0005000 277.9177  82.1242 15.39314967 54349
KUIPER-00133            
1 65764U 25217C   26256.16908500  .00001947  00000+0  28426-3 0  9990
2 65764  51.9047 304.1515 0000519  87.1642 272.9380 14.79937798 52505
KUIPER-00139            
1 65765U 25217D   26255.66388423  .00001810  00000+0  26643-3 0  9999
2 65765  51.8988 273.8123 0000546  43.4721 316.6284 14.79927777 52885
KUIPER-00142            
1 65766U 25217E   26256.08664701 -.00000025  00000+0  25716-4 0  9992
2 65766  51.8999 286.9100 0000470  73.8309 286.2705 14.79922967 52733
KUIPER-00145            
1 65767U 25217F   26256.08395420  .00001797  00000+0  26475-3 0  9990
2 65767  51.9010 289.4473 0000437  68.3793 291.7216 14.79924550 52692
KUIPER-00147            
1 65768U 25217G   26255.50724901  .00001797  00000+0  26470-3 0  9992
2 65768  51.8992 294.4706 0000360  31.7514 328.3470 14.79928464 52570
KUIPER-00148            
1 65769U 25217H   26255.32354577  .00000792  00000+0  13286-3 0  9996
2 65769  51.9039 277.8294 0000489  94.7754 265.3264 14.79929136 52790
KUIPER-00150            
1 65770U 25217J   26256.17177269  .00001920  00000+0  28077-3 0  9991
2 65770  51.9021 301.5800 0000484  94.4305 265.6712 14.79935195 52530
KUIPER-00151            
1 65771U 25217K   26255.84221898  .00000149  00000+0  48550-4 0  9994
2 65771  51.9021 295.5355 0000504  86.6844 273.4176 14.79925660 52595
KUIPER-00152            
1 65772U 25217L   26256.09203219  .00001778  00000+0  26209-3 0  9995
2 65772  51.9014 281.9107 0000353  45.4253 314.6738 14.79935918 52804
KUIPER-00153            
1 65773U 25217M   26255.28709642  .00001614  00000+0  24065-3 0  9994
2 65773  51.9033 280.5572 0000544  87.2314 272.8710 14.79924312 52756
KUIPER-00155            
1 65774U 25217N   26255.38426817  .00001859  00000+0  27284-3 0  9993
2 65774  51.9022 252.5900 0000580  73.9940 286.1086 14.79932751 53151
KUIPER-00156            
1 65775U 25217P   26256.06367765  .00001739  00000+0  25698-3 0  9990
2 65775  51.9024 277.1056 0000488  73.3210 286.7806 14.79935641 52864
KUIPER-00165            
1 65778U 25217S   26256.05268145  .00011123  00000+0  14812-2 0  9997
2 65778  51.9001 287.0859 0000906  62.0165 298.0889 14.80059007 52729
KUIPER-00166            
1 65779U 25217T   26255.76247041  .00001144  00000+0  17905-3 0  9996
2 65779  51.9029 275.9334 0000667 105.3940 254.7096 14.79931424 52853
KUIPER-00167            
1 65780U 25217U   26255.83951154  .00001745  00000+0  25794-3 0  9995
2 65780  51.8967 297.9135 0000451  67.3341 292.7669 14.79925145 52559
KUIPER-00168            
1 65781U 25217V   26256.06097849  .00000939  00000+0  15218-3 0  9998
2 65781  51.9000 279.5562 0000493  63.9399 296.1614 14.79928339 52837
KUIPER-00169            
1 65782U 25217W   26256.12311278  .00001800  00000+0  26510-3 0  9996
2 65782  51.9018 284.2939 0000586 104.0311 256.0717 14.79931723 52775
KUIPER-00170            
1 65783U 25217X   26255.50993507  .00001821  00000+0  26777-3 0  9997
2 65783  51.8996 291.9491 0000432  80.1309 279.9702 14.79931931 52611
KUIPER-00172            
1 65785U 25217Z   26256.30540522  .00003119  00000+0  43791-3 0  9990
2 65785  51.8983 270.9630 0000738  38.5036 321.5979 14.79933845 52979
KUIPER-00173            
1 65786U 25217AA  26256.08935382  .00001826  00000+0  26842-3 0  9999
2 65786  51.9009 284.4343 0000340  50.6761 309.4232 14.79932381 52768
KUIPER-00174            
1 65787U 25217AB  26256.02718759  .00002895  00000+0  40822-3 0  9992
2 65787  51.9002 279.7716 0000762  86.5679 273.5370 14.79967867 52825
KUIPER-00176            
1 65788U 25217AC  26256.14609619  .00000698  00000+0  12056-3 0  9997
2 65788  51.9000 294.1639 0000554  53.7261 306.3752 14.79924895 52633
KUIPER-00101            
1 65947U 25228A   26256.02310388  .00001918  00000+0  28056-3 0  9998
2 65947  51.8978 252.1533 0000633  77.7897 282.3136 14.79927815 50978
KUIPER-00113            
1 65948U 25228B   26256.12973992 -.00002637  00000+0 -31694-3 0  9999
2 65948  51.8989 246.7018 0000537  75.7050 284.3972 14.79946049 51050
KUIPER-00117            
1 65949U 25228C   26255.41802301  .00001852  00000+0  27184-3 0  9991
2 65949  51.8981 252.3495 0000600  42.2825 317.8183 14.79938732 50915
KUIPER-00121            
1 65950U 25228D   26256.26755317  .00001907  00000+0  27908-3 0  9996
2 65950  51.8982 243.6154 0000548  62.6962 297.4057 14.79926930 51115
KUIPER-00122            
1 65951U 25228E   26255.98664092  .00001873  00000+0  27456-3 0  9994
2 65951  51.8989 254.8263 0000885  64.1358 295.9696 14.79937069 50934
KUIPER-00123            
1 65952U 25228F   26256.02040899  .00001924  00000+0  28131-3 0  9992
2 65952  51.8994 254.6865 0000613  45.4942 314.6071 14.79929176 50933
KUIPER-00124            
1 65953U 25228G   26255.96096689  .00000544  00000+0  10032-3 0  9991
2 65953  51.8962 247.4376 0000868  42.9437 317.1593 14.79929994 51036
KUIPER-00125            
1 65954U 25228H   26256.11222006  .00002191  00000+0  31634-3 0  9995
2 65954  51.8992 231.8223 0000826  68.9358 291.1693 14.79924204 51268
KUIPER-00126            
1 65955U 25228J   26255.71922667  .00001431  00000+0  21670-3 0  9996
2 65955  51.8997 253.5404 0000474  74.2525 285.8490 14.79923934 50927
KUIPER-00127            
1 65956U 25228K   26256.11561190  .00001943  00000+0  28385-3 0  9990
2 65956  51.9005 244.2678 0000579  51.3835 308.7179 14.79928092 51093
KUIPER-00128            
1 65957U 25228L   26255.96367874  .00000578  00000+0  10486-3 0  9992
2 65957  51.9020 245.0082 0000646  82.9429 277.1607 14.79931375 51063
KUIPER-00129            
1 65958U 25228M   26256.13787876  .00001001  00000+0  16035-3 0  9999
2 65958  51.9017 239.2156 0000643  79.3144 280.7891 14.79926143 51161
KUIPER-00130            
1 65959U 25228N   26255.96637353  .00001996  00000+0  29079-3 0  9999
2 65959  51.9023 242.5188 0000610  72.0474 288.0555 14.79928059 41391
KUIPER-00134            
1 65960U 25228P   26256.05748278  .00031600  00000+0  84382-3 0  9994
2 65960  51.8710 130.6581 0004000 242.1302 117.9280 15.37820417 52667
KUIPER-00135            
1 65961U 25228Q   26256.27025659  .00002103  00000+0  30488-3 0  9994
2 65961  51.9018 241.2257 0000577  79.9167 280.1860 14.79919936 51148
KUIPER-00136            
1 65962U 25228R   26256.10411658  .00002076  00000+0  30118-3 0  9994
2 65962  51.9011 239.4082 0000693  42.5438 317.5578 14.79936868 51158
KUIPER-00137            
1 65963U 25228S   26256.10682934  .00002150  00000+0  31092-3 0  9997
2 65963  51.9024 236.9047 0000698  43.7015 316.4003 14.79932927 51192
KUIPER-00138            
1 65964U 25228T   26256.14328178  .00001998  00000+0  29111-3 0  9997
2 65964  51.8976 234.1428 0000675  59.9362 300.1668 14.79926122 51232
KUIPER-00140            
1 65965U 25228U   26256.14059038  .00000251  00000+0  61918-4 0  9997
2 65965  51.8990 236.7489 0000963  62.2626 297.8434 14.79926042 51193
KUIPER-00141            
1 65966U 25228V   26256.28104302 -.00000391  00000+0 -22278-4 0  9991
2 65966  51.9012 231.2020 0001040  86.9664 273.1417 14.79921853 51286
KUIPER-00146            
1 65967U 25228W   26256.10953253  .00002391  00000+0  34257-3 0  9999
2 65967  51.9014 234.4742 0000866  52.1886 307.9155 14.79933421 51224
KUIPER-00149            
1 65968U 25228X   26256.28373690  .00000957  00000+0  15453-3 0  9993
2 65968  51.9006 228.5776 0000729  71.1057 288.9985 14.79927746 51329
KUIPER-00154            
1 65969U 25228Y   26256.11760622  .00002177  00000+0  31450-3 0  9992
2 65969  51.8989 226.7954 0000804  69.8766 290.2282 14.79933623 51330
KUIPER-00157            
1 65970U 25228Z   26256.25002315 -.00043407  00000+0 -61193-2 0  9996
2 65970  51.9030 228.2661 0001386  93.2501 217.5540 14.76950180  5440
KUIPER-00144            
1 67133U 25301A   26256.30143185  .00001911  00000+0  27966-3 0  9991
2 67133  51.9023 306.0066 0000603  72.8963 287.2065 14.79927081 41651
KUIPER-00164            
1 67134U 25301B   26256.22043568  .00000898  00000+0  14682-3 0  9991
2 67134  51.9057 318.8842 0000310  71.3439 288.7557 14.79927269 41648
KUIPER-00175            
1 67135U 25301C   26256.13800847  .00001881  00000+0  27569-3 0  9994
2 67135  51.9005 301.6821 0000319  46.7197 313.3792 14.79931048 41775
KUIPER-00179            
1 67136U 25301D   26256.15559546  .00002004  00000+0  29185-3 0  9998
2 67136  51.9000 316.6039 0000430  94.2367 265.8645 14.79926584 41675
KUIPER-00181            
1 67137U 25301E   26256.20964596  .00002180  00000+0  31489-3 0  9995
2 67137  51.9046 328.9275 0000273  77.3455 282.7538 14.79934977 41482
KUIPER-00183            
1 67138U 25301F   26255.66800365  .00001966  00000+0  28674-3 0  9991
2 67138  51.9031 301.3288 0000326  77.4766 282.6233 14.79933131 41832
KUIPER-00184            
1 67139U 25301G   26255.58697893  .00001934  00000+0  28257-3 0  9995
2 67139  51.9007 314.1292 0000416  87.1814 272.9196 14.79930298 41757
KUIPER-00186            
1 67140U 25301H   26256.17585997  .00005266  00000+0  71906-3 0  9995
2 67140  51.9039 329.0857 0000419  99.4339 260.6671 14.79943136 41327
KUIPER-00187            
1 67141U 25301J   26256.24071799  .00002366  00000+0  33923-3 0  9999
2 67141  51.9039 331.3272 0000499 100.5921 259.5098 14.79931856 41296
KUIPER-00188            
1 67142U 25301K   26255.83683017  .00001814  00000+0  26687-3 0  9992
2 67142  51.9038 300.6985 0000408  64.4426 295.6579 14.79926360 41686
KUIPER-00191            
1 67143U 25301L   26255.87740020  .00002116  00000+0  30644-3 0  9999
2 67143  51.9026 325.4087 0000376  89.4069 270.6937 14.79928567 41374
KUIPER-00196            
1 67144U 25301M   26255.38297923  .00001664  00000+0  24720-3 0  9990
2 67144  51.8993 285.0483 0000527  79.3412 280.7610 14.79929456 41868
KUIPER-00204            
1 67145U 25301N   26255.67068774  .00001607  00000+0  23968-3 0  9993
2 67145  51.9024 298.8112 0000445  78.6182 281.4830 14.79933475 41814
KUIPER-00210            
1 67146U 25301P   26256.18126828  .00002097  00000+0  30400-3 0  9999
2 67146  51.9017 324.0111 0000391  87.7037 272.3971 14.79934114 41566
KUIPER-00221            
1 67147U 25301Q   26256.20695074  .00002073  00000+0  30089-3 0  9994
2 67147  51.9035 331.4329 0000598  73.2056 286.8972 14.79922883 41291
KUIPER-00232            
1 67148U 25301R   26256.18936507  .00000414  00000+0  83280-4 0  9990
2 67148  51.8994 316.5203 0000518  95.0758 265.0264 14.79928039 41497
KUIPER-00241            
1 67149U 25301S   26256.21234419  .00000653  00000+0  11464-3 0  9997
2 67149  51.9048 326.4417 0000513  87.3531 272.7490 14.79927150 41695
KUIPER-00245            
1 67150U 25301T   26256.20426140  .00000881  00000+0  14450-3 0  9993
2 67150  51.9041 333.9862 0000401  95.6635 264.4373 14.79930739 41257
KUIPER-00246            
1 67151U 25301U   26256.18666029  .00002054  00000+0  29838-3 0  9993
2 67151  51.9018 319.0014 0000350  86.0748 274.0254 14.79934109 41483
KUIPER-00247            
1 67152U 25301V   26255.52214019  .00000631  00000+0  11177-3 0  9995
2 67152  51.8970 311.8882 0000429  75.0399 285.0610 14.79926221 41507
KUIPER-00248            
1 67153U 25301W   26255.67609490  .00001778  00000+0  26217-3 0  9997
2 67153  51.8995 293.8504 0000474  89.8100 270.2917 14.79926854 41933
KUIPER-00249            
1 67154U 25301X   26255.52485763  .00000097  00000+0  41753-4 0  9993
2 67154  51.9010 309.4549 0000265  95.3046 264.7947 14.79927217 41536
KUIPER-00250            
1 67155U 25301Y   26255.60995297  .00000218  00000+0  57658-4 0  9997
2 67155  51.9005 324.0285 0000664  71.6478 288.4556 14.79926740 41371
KUIPER-00251            
1 67156U 25301Z   26255.89357936  .00000584  00000+0  10566-3 0  9993
2 67156  51.9019 310.3512 0000407  82.1168 277.9841 14.79925451 41745
KUIPER-00252            
1 67157U 25301AA  26255.35063016  .00002012  00000+0  29287-3 0  9996
2 67157  51.9021 315.2020 0000275  77.4123 282.6870 14.79930920 41447
KUIPER-00261            
1 67158U 25301AB  26255.57621229  .00001403  00000+0  21301-3 0  9999
2 67158  51.9036 324.2679 0000337  95.4165 264.6836 14.79927145 41334
KUIPER-00265            
1 67159U 25301AC  26256.20153371  .00002172  00000+0  31399-3 0  9991
2 67159  51.9044 336.4790 0000760  99.3176 260.7872 14.79913559 41250
KUIPER-00159            
1 67764U 26030A   26255.71540851  .00001718  00000+0  27440-3 0  9998
2 67764  51.9010  57.1455 0000287 123.2614 236.8374 14.76571854 33558
KUIPER-00160            
1 67765U 26030B   26256.25002315  .00004804  00000+0  54273-3 0  9990
2 67765  51.8987  36.4487 0008773 353.5847 158.4347 14.88050284  5875
KUIPER-00177            
1 67766U 26030C   26256.01335156  .00001198  00000+0  18614-3 0  9999
2 67766  51.9016 104.7833 0000831  85.8569 274.2488 14.79926023 32918
KUIPER-00178            
1 67767U 26030D   26255.57445114  .00002097  00000+0  30403-3 0  9995
2 67767  51.9003 106.7038 0000666 100.6370 259.4668 14.79920929 32853
KUIPER-00180            
1 67768U 26030E   26256.25513397  .00000092  00000+0  41073-4 0  9990
2 67768  51.8992  98.6865 0000921 119.0255 241.0800 14.79927626 33023
KUIPER-00197            
1 67769U 26030F   26255.93905602  .00000749  00000+0  12721-3 0  9995
2 67769  51.8978  80.1002 0000786 109.4845 250.6202 14.79923575 33250
KUIPER-00198            
1 67770U 26030G   26255.95933778 -.00000629  00000+0 -53567-4 0  9997
2 67770  51.8964  92.4853 0000993 115.9142 244.1923 14.79923826 33087
KUIPER-00199            
1 67771U 26030H   26256.25002315 -.01983555  00000+0 -78534-1 0  9993
2 67771  51.8830  34.4476 0011114   4.9894 116.3937 15.28117676  4834
KUIPER-00200            
1 67772U 26030J   26255.90798670 -.00000591  00000+0 -48527-4 0  9992
2 67772  51.8976  77.7559 0000722 109.2530 250.8511 14.79921945 33287
KUIPER-00203            
1 67773U 26030K   26256.27812121  .00002258  00000+0  32517-3 0  9993
2 67773  51.9052 108.6898 0000982 101.9618 258.1455 14.79925726 32882
KUIPER-00205            
1 67774U 26030L   26255.70809131  .00002074  00000+0  30102-3 0  9992
2 67774  51.8995  76.1045 0000703 104.6693 255.4347 14.79927143 33296
KUIPER-00208            
1 67775U 26030M   26255.84726392  .00001998  00000+0  29105-3 0  9990
2 67775  51.8973 102.9873 0001308 107.2822 252.8283 14.79923506 32923
KUIPER-00209            
1 67776U 26030N   26256.08632058  .00002080  00000+0  30184-3 0  9995
2 67776  51.8994  99.5302 0000915 116.7021 243.4035 14.79930243 32998
KUIPER-00213            
1 67777U 26030P   26256.25783398  .00001366  00000+0  20813-3 0  9993
2 67777  51.8955  96.2314 0000628 106.3235 253.7797 14.79931316 33055
KUIPER-00214            
1 67778U 26030Q   26255.95665518  .00002153  00000+0  31128-3 0  9999
2 67778  51.8988  95.0974 0000677 105.9552 254.1485 14.79932553 33044
KUIPER-00215            
1 67779U 26030R   26255.93634340  .00002146  00000+0  31046-3 0  9998
2 67779  51.8977  82.5412 0000720 113.7286 246.3752 14.79930350 33224
KUIPER-00218            
1 67780U 26030S   26255.81888448  .00001136  00000+0  17805-3 0  9992
2 67780  51.8964  98.1003 0000787 101.4975 258.6076 14.79924674 32993
KUIPER-00220            
1 67781U 26030T   26255.71078100  .00001916  00000+0  28030-3 0  9996
2 67781  51.8938  73.6032 0000443  78.4794 281.6218 14.79932175 33323
KUIPER-00222            
1 67782U 26030U   26255.92558167 -.00000291  00000+0 -91991-5 0  9991
2 67782  51.8979  92.7892 0000996 114.8342 245.2724 14.79923848 33079
KUIPER-00223            
1 67783U 26030V   26255.89986007  .00002126  00000+0  30788-3 0  9998
2 67783  51.9004  85.2116 0000810 110.1745 249.9305 14.79925467 33184
KUIPER-00225            
1 67784U 26030W   26255.96203214  .00002208  00000+0  31851-3 0  9992
2 67784  51.8973  90.0849 0000710 114.3986 245.7050 14.79935811 33116
KUIPER-00226            
1 67785U 26030X   26256.25002315 -.00010631  00000+0 -13496-2 0  9990
2 67785  51.8984  76.2076 0002292 306.9254 248.6060 14.80483376  5210
KUIPER-00259            
1 67786U 26030Y   26255.92825969  .00002174  00000+0  31412-3 0  9992
2 67786  51.8972  90.1361 0000740 112.6206 247.4835 14.79935794 33116
KUIPER-00260            
1 67787U 26030Z   26255.52579969  .00002116  00000+0  30651-3 0  9995
2 67787  51.8996  89.5256 0000889 112.3367 247.7689 14.79930017 32995
KUIPER-00262            
1 67788U 26030AA  26255.69460758 -.00004877  00000+0 -61089-3 0  9996
2 67788  51.9008  88.6971 0001025 107.9197 252.1877 14.79952316 33119
KUIPER-00266            
1 67789U 26030AB  26255.93366795  .00002148  00000+0  31077-3 0  9991
2 67789  51.8988  85.1307 0001053 103.5193 256.5887 14.79926659 33187
KUIPER-00268            
1 67790U 26030AC  26255.97012644  .00000870  00000+0  14316-3 0  9995
2 67790  51.9045  82.5100 0000975 121.5343 238.5715 14.79931273 33228
KUIPER-00270            
1 67791U 26030AD  26255.67700398 -.00001330  00000+0 -14545-3 0  9991
2 67791  51.8995  73.7592 0000671  92.2226 267.8813 14.79939094 33320
KUIPER-00274            
1 67792U 26030AE  26255.92287345 -.00001053  00000+0 -10912-3 0  9998
2 67792  51.9031  95.1864 0000723 112.9024 247.2015 14.79936000 33046
KUIPER-00275            
1 67793U 26030AF  26255.87690280  .00002803  00000+0  39655-3 0  9996
2 67793  51.9011  75.3843 0000932 122.3784 237.7269 14.79936785 33317
KUIPER-00276            
1 67794U 26030AG  26255.90528768  .00002110  00000+0  30573-3 0  9993
2 67794  51.8978  80.2350 0001095  83.8444 276.2643 14.79931058 33257
KUIPER-00279            
1 67795U 26030AH  26255.88231571  .00002159  00000+0  31213-3 0  9999
2 67795  51.9028  70.3852 0000841 112.3303 247.7749 14.79932105 33380
KUIPER-00131            
1 68573U 26072A   26256.01350906  .00002534  00000+0  36130-3 0  9990
2 68573  51.9002 167.2836 0000885  95.1097 264.9967 14.79932492 24125
KUIPER-00189            
1 68574U 26072B   26256.04456278  .00000084  00000+0  40088-4 0  9999
2 68574  51.8989 169.6236 0000838  94.5510 265.5548 14.79920206 24098
KUIPER-00192            
1 68575U 26072C   26256.15127175  .00000494  00000+0  93838-4 0  9999
2 68575  51.8996 164.1702 0001119  88.0771 272.0319 14.79927234 24182
KUIPER-00193            
1 68576U 26072D   26256.16206180  .00000331  00000+0  72454-4 0  9996
2 68576  51.9054 154.1671 0001181  96.9210 263.1887 14.79927708 24321
KUIPER-00194            
1 68577U 26072E   26256.12020406  .00000856  00000+0  14136-3 0  9992
2 68577  51.9026 161.8326 0000880  91.8835 268.2229 14.79930004 24212
KUIPER-00229            
1 68578U 26072F   26256.04727509  .00002738  00000+0  38799-3 0  9994
2 68578  51.9007 167.1370 0000750 101.6092 258.4955 14.79932702 24136
KUIPER-00230            
1 68579U 26072G   26256.25002315 -.00064406  00000+0 -60578-2 0  9990
2 68579  51.8933 113.7669 0004688   9.2881   6.3946 14.93686727  1308
KUIPER-00231            
1 68580U 26072H   26255.94189095  .00000840  00000+0  13927-3 0  9995
2 68580  51.8978 140.1769 0002124  95.4660 264.6545 14.79927014 24499
KUIPER-00234            
1 68581U 26072J   26256.15395743  .00001243  00000+0  19213-3 0  9991
2 68581  51.8992 161.6489 0001291  81.2113 278.8995 14.79924180 24210
KUIPER-00236            
1 68582U 26072K   26256.25002315 -.00086808  00000+0 -10795-1 0  9999
2 68582  51.9010 116.1038 0001384 254.8949  65.3914 14.82588051  5649
KUIPER-00244            
1 68583U 26072L   26256.13098717  .00002681  00000+0  38061-3 0  9991
2 68583  51.8990 151.7742 0000950  89.0938 271.0133 14.79931184 24350
KUIPER-00253            
1 68584U 26072M   26256.12828501  .00002704  00000+0  38357-3 0  9997
2 68584  51.9030 154.3108 0001015  91.1742 268.9337 14.79938916 24319
KUIPER-00254            
1 68585U 26072N   26256.15935116  .00002330  00000+0  33455-3 0  9991
2 68585  51.9018 156.6709 0001430  57.1503 302.9597 14.79936537 24286
KUIPER-00263            
1 68586U 26072P   26255.97294923  .00001380  00000+0  21008-3 0  9990
2 68586  51.9026 142.5635 0000903 101.6327 258.4737 14.79926745 24462
KUIPER-00269            
1 68587U 26072Q   26256.10530943  .00001633  00000+0  24319-3 0  9991
2 68587  51.8988 144.3843 0000999 102.9685 257.1389 14.79925735 24452
KUIPER-00272            
1 68588U 26072R   26256.04996055  .00002451  00000+0  35038-3 0  9994
2 68588  51.8977 164.5974 0001015  86.5611 273.5468 14.79934602 24167
KUIPER-00285            
1 68589U 26072S   26256.07155916  .00002471  00000+0  35314-3 0  9990
2 68589  51.9040 144.6148 0001406  60.8126 299.2977 14.79926362 24447
KUIPER-00286            
1 68590U 26072T   26255.93917685  .00002317  00000+0  33287-3 0  9991
2 68590  51.9009 142.6296 0000796 101.9670 258.1381 14.79930971 24464
KUIPER-00289            
1 68591U 26072U   26255.99861369  .00002636  00000+0  37461-3 0  9997
2 68591  51.8982 149.8450 0001097  90.6181 269.4907 14.79936918 24366
KUIPER-00290            
1 68592U 26072V   26255.96047290  .00001329  00000+0  21992-3 0  9994
2 68592  51.9019 149.9749 0001573  38.2862 321.8211 14.76419669 24361
KUIPER-00293            
1 68593U 26072W   26256.12288602  .00002540  00000+0  36214-3 0  9997
2 68593  51.8974 159.2752 0001822  32.7680 327.3395 14.79933574 24243
KUIPER-00294            
1 68594U 26072X   26256.00131692  .00002413  00000+0  34539-3 0  9998
2 68594  51.8986 147.3346 0000737  98.0451 262.0595 14.79928211 24406
KUIPER-00296            
1 68595U 26072Y   26255.91888950  .00002125  00000+0  30770-3 0  9997
2 68595  51.9005 130.2166 0000792 100.6552 259.4500 14.79932629 24633
KUIPER-00297            
1 68596U 26072Z   26256.02159421  .00000343  00000+0  74017-4 0  9998
2 68596  51.9003 159.7218 0001440  95.6860 264.4266 14.79926248 24233
KUIPER-00300            
1 68597U 26072AA  26256.12559316  .00000635  00000+0  11237-3 0  9995
2 68597  51.9024 156.7967 0000725  90.7881 269.3165 14.79927832 24286
KUIPER-00301            
1 68598U 26072AB  26256.06143062  .00001484  00000+0  24163-3 0  9991
2 68598  51.9029 126.4438 0002101 171.3264 188.7734 14.76493595 24692
KUIPER-00304            
1 68599U 26072AC  26256.02411104  .00001585  00000+0  25528-3 0  9991
2 68599  51.9009 128.5665 0000493   6.6626 353.4342 14.76609526 24666
KUIPER-00317            
1 68600U 26072AD  26256.10260844  .00002622  00000+0  37284-3 0  9991
2 68600  51.8980 146.8920 0000701  98.0581 262.0461 14.79929584 24412
KUIPER-00320            
1 68601U 26072AE  26256.02969564  .00000823  00000+0  13704-3 0  9990
2 68601  51.9032 152.2299 0000801  96.7516 263.3538 14.79927154 24337
KUIPER-00299            
1 68864U 26095A   26256.25002315  .00064424  00000+0  84274-2 0  9999
2 68864  51.8988 221.2174 0000903 148.8525 168.8166 14.79790520  3695
KUIPER-00353            
1 68865U 26095B   26256.24047940  .00002496  00000+0  35630-3 0  9996
2 68865  51.8997 206.2866 0000793  70.7227 289.3821 14.79933521 20861
KUIPER-00357            
1 68866U 26095C   26256.26615836  .00000299  00000+0  68308-4 0  9992
2 68866  51.9014 213.6819 0001047  45.9021 314.2027 14.79924317 20760
KUIPER-00364            
1 68867U 26095D   26256.09463602  .00002312  00000+0  33220-3 0  9998
2 68867  51.9032 216.9628 0001257  37.8684 322.2367 14.79929944 20704
KUIPER-00375            
1 68868U 26095E   26256.27155560  .00001956  00000+0  28551-3 0  9994
2 68868  51.9003 208.6548 0000782  76.1297 283.9753 14.79926451 20836
KUIPER-00433            
1 68869U 26095F   26256.18784392  .00001865  00000+0  27363-3 0  9995
2 68869  51.9006 224.0200 0000846  37.2933 322.8088 14.79928573 20610
KUIPER-00437            
1 68870U 26095G   26256.25002315 -.01766667  00000+0 -10365+0 0  9994
2 68870  51.8839 177.5546 0007032 258.2769 146.4703 15.14512095  5251
KUIPER-00448            
1 68871U 26095H   26256.27810983  .00001649  00000+0  26611-3 0  9999
2 68871  51.9030 213.3982 0003181  32.8414 327.2744 14.76326467 20763
KUIPER-00459            
1 68872U 26095J   26256.27965216  .00000467  00000+0  90231-4 0  9997
2 68872  51.9014 201.1814 0000746  83.9627 276.1420 14.79927325 20937
KUIPER-00468            
1 68873U 26095K   26256.26572931  .00001683  00000+0  26921-3 0  9990
2 68873  51.8980 198.6210 0000931 160.9715 199.1281 14.76620356 20973
KUIPER-00476            
1 68874U 26095L   26256.25002315 -.00038460  00000+0 -29548-2 0  9996
2 68874  51.8885 181.9223 0009819 241.2854 141.6893 15.01215568  5280
KUIPER-00478            
1 68875U 26095M   26256.20940994  .00002020  00000+0  29392-3 0  9995
2 68875  51.8995 203.9280 0000849  76.7958 283.3099 14.79925367 20896
KUIPER-00480            
1 68876U 26095N   26256.24585969  .00007024  00000+0  94889-3 0  9999
2 68876  51.9042 201.2785 0000578  99.3531 260.7497 14.79955860 20936
KUIPER-00482            
1 68877U 26095P   26256.16756050  .00002407  00000+0  34464-3 0  9995
2 68877  51.9004 211.6137 0001293  15.0993 345.0008 14.79932244 20782
KUIPER-00483            
1 68878U 26095Q   26256.08634941  .00002305  00000+0  33097-3 0  9999
2 68878  51.8983 224.4355 0001670 322.7566  37.3281 14.79973494 20590
KUIPER-00488            
1 68879U 26095R   26256.27424496  .00002588  00000+0  36831-3 0  9995
2 68879  51.8994 206.1492 0001063  66.6995 293.4079 14.79936553 20863
KUIPER-00489            
1 68880U 26095S   26256.28234060  .00002140  00000+0  30966-3 0  9991
2 68880  51.8977 198.5947 0001095  73.5743 286.5340 14.79925185 20973
KUIPER-00499            
1 68881U 26095T   26256.04060439  .00002537  00000+0  36167-3 0  9992
2 68881  51.8996 204.7234 0000919  52.4229 307.6817 14.79927958 20865
KUIPER-00500            
1 68882U 26095U   26256.08923704  .00002325  00000+0  33389-3 0  9998
2 68882  51.9001 221.9593 0000743  83.1206 276.9841 14.79933727 20635
KUIPER-00502            
1 68883U 26095V   26256.24147866  .00000233  00000+0  59616-4 0  9992
2 68883  51.8997 197.5387 0001229  59.9438 300.1646 14.79923305 20988
KUIPER-00503            
1 68884U 26095W   26256.26076161  .00002384  00000+0  34171-3 0  9991
2 68884  51.8969 218.6742 0000788  63.0360 297.0683 14.79928237 20699
KUIPER-00504            
1 68885U 26095X   26256.08382327 -.00011021  00000+0 -14178-2 0  9990
2 68885  51.9013 226.9888 0000390  95.3941 264.7066 14.79970176 20567
KUIPER-00505            
1 68886U 26095Y   26256.26342744 -.00015624  00000+0 -20243-2 0  9993
2 68886  51.9022 216.1948 0000554 105.3035 254.7988 14.79951566 20726
KUIPER-00507            
1 68887U 26095Z   26256.25735559  .00002453  00000+0  35070-3 0  9992
2 68887  51.8998 206.2065 0000782  73.8469 286.2580 14.79934736 20864
KUIPER-00511            
1 68888U 26095AA  26256.24857487 -.00000683  00000+0 -60569-4 0  9994
2 68888  51.8996 198.8580 0001105  48.5633 311.5424 14.79929011 20963
KUIPER-00512            
1 68889U 26095AB  26256.09194596  .00002294  00000+0  32993-3 0  9990
2 68889  51.9017 219.4552 0000730  71.5175 288.5866 14.79925108 20661
KUIPER-00519            
1 68890U 26095AC  26256.17024517  .00008858  00000+0  11887-2 0  9996
2 68890  51.9017 209.1712 0000756  94.8705 265.2343 14.79957408 20819
KUIPER-00521            
1 68891U 26095AD  26256.10103788  .00002593  00000+0  36904-3 0  9996
2 68891  51.9039 203.1732 0000708  83.4218 276.6825 14.79928002 20897
KUIPER-00524            
1 68892U 26095AE  26256.06627245  .00000365  00000+0  76831-4 0  9990
2 68892  51.8976 212.0431 0000914  52.2134 307.8911 14.79930864 20760
KUIPER-00370            
1 68919U 26098A   26255.82414337  .00001358  00000+0  20715-3 0  9994
2 68919  51.9008  30.4910 0000456 101.1738 258.9276 14.79924012 20461
KUIPER-00380            
1 68920U 26098B   26256.30496825  .00002675  00000+0  37982-3 0  9999
2 68920  51.8997  21.0050 0000452  79.6026 280.4988 14.79926535 20636
KUIPER-00386            
1 68921U 26098C   26255.57632202  .00000876  00000+0  14394-3 0  9992
2 68921  51.9023  26.7213 0000619 102.4783 257.6248 14.79927387 20496
KUIPER-00388            
1 68922U 26098D   26255.68372495  .00002313  00000+0  33228-3 0  9995
2 68922  51.9004  36.4061 0000477  87.1742 272.9275 14.79933099 20364
KUIPER-00405            
1 68923U 26098E   26256.10847371  .00002501  00000+0  35707-3 0  9997
2 68923  51.9031  31.8815 0001122 178.1499 181.9468 14.79927413 20466
KUIPER-00408            
1 68924U 26098F   26255.62695566 -.00000495  00000+0 -35978-4 0  9994
2 68924  51.8988  26.4250 0000641 100.4294 259.6741 14.79922496 20504
KUIPER-00409            
1 68925U 26098G   26255.67220992  .00002774  00000+0  39275-3 0  9990
2 68925  51.9030  31.3096 0000502 106.9913 253.1105 14.79934595 20430
KUIPER-00410            
1 68926U 26098H   26256.08009330 -.00003433  00000+0 -42150-3 0  9999
2 68926  51.8992  26.9834 0001261 133.0250 227.0818 14.79936704 20531
KUIPER-00412            
1 68927U 26098J   26255.73365110  .00000279  00000+0  65572-4 0  9999
2 68927  51.9050  21.0477 0000488 120.9870 239.1141 14.79932261 20582
KUIPER-00413            
1 68928U 26098K   26256.09158750  .00000435  00000+0  86022-4 0  9997
2 68928  51.9001  31.9393 0000801 153.8507 206.2496 14.79928236 20469
KUIPER-00414            
1 68929U 26098L   26255.70940152  .00001254  00000+0  19356-3 0  9995
2 68929  51.8962  43.7129 0001692 115.7219 244.3918 14.79924855 20262
KUIPER-00415            
1 68930U 26098M   26255.72826418  .00000527  00000+0  98157-4 0  9996
2 68930  51.9009  26.0603 0000581  96.7389 263.3640 14.79924810 20512
KUIPER-00416            
1 68931U 26098N   26255.74623834  .00029388  00000+0  38701-2 0  9999
2 68931  51.9032  17.3346 0001142  92.6591 267.4502 14.79900037 20630
KUIPER-00420            
1 68932U 26098P   26256.07399460  .00002588  00000+0  36846-3 0  9994
2 68932  51.9016  16.9940 0000495 109.2646 250.8370 14.79922479 20671
KUIPER-00421            
1 68933U 26098Q   26256.06860577  .00002509  00000+0  35802-3 0  9990
2 68933  51.9031  22.0022 0000550 103.9325 256.1699 14.79931123 20607
KUIPER-00425            
1 68934U 26098R   26256.06052294  .00002614  00000+0  37176-3 0  9993
2 68934  51.8998  29.5836 0000522 113.5401 246.5617 14.79924729 20499
KUIPER-00430            
1 68935U 26098S   26255.58509567  .00000248  00000+0  61572-4 0  9999
2 68935  51.9028  34.0826 0001153 131.4908 228.6153 14.79924503 20392
KUIPER-00431            
1 68936U 26098T   26255.64994894  .00002627  00000+0  37347-3 0  9993
2 68936  51.8992  36.3867 0000619 129.2524 230.8493 14.79927974 20361
KUIPER-00432            
1 68937U 26098U   26255.79308676  .00000870  00000+0  14310-3 0  9990
2 68937  51.9007  28.1525 0000514  99.7523 260.3498 14.79927935 20498
KUIPER-00434            
1 68938U 26098V   26255.75881431  .00002073  00000+0  32532-3 0  9995
2 68938  51.9020  32.1965 0001859 119.0380 241.0768 14.76505076 20432
KUIPER-00436            
1 68939U 26098W   26256.11114919 -.00001154  00000+0 -12238-3 0  9999
2 68939  51.8989  29.3618 0000596  89.1181 270.9849 14.79928627 20505
KUIPER-00438            
1 68940U 26098X   26255.57362523 -.00000003  00000+0  28639-4 0  9990
2 68940  51.9039  29.2592 0000628 111.5940 248.5089 14.79925833 20450
KUIPER-00439            
1 68941U 26098Y   26256.09689128 -.00004192  00000+0 -51972-3 0  9991
2 68941  51.9027  26.9348 0001197  77.4514 282.6582 14.80045876 20538
KUIPER-00440            
1 68942U 26098Z   26255.71677271  .00002583  00000+0  36768-3 0  9992
2 68942  51.9036  21.1158 0000266 348.7674  11.3282 14.79932337 20586
KUIPER-00442            
1 68943U 26098AA  26255.77925583  .00097960  00000+0  13603-1 0  9995
2 68943  51.9028  23.3353 0000549 108.7395 251.3626 14.76997566 20554
KUIPER-00446            
1 68944U 26098AB  26255.74514323  .00001346  00000+0  20552-3 0  9995
2 68944  51.9008  25.9933 0000818 226.1543 133.9352 14.79924045 20516
KUIPER-00451            
1 68945U 26098AC  26255.66682341  .00002428  00000+0  34743-3 0  9992
2 68945  51.9002  36.3206 0000644 129.1317 230.9703 14.79931854 20365
KUIPER-00452            
1 68946U 26098AD  26256.08549871  .00002193  00000+0  31653-3 0  9996
2 68946  51.9036  21.9840 0000670 115.9600 244.1431 14.79930840 20600
KUIPER-00453            
1 68947U 26098AE  26256.30764825  .00000660  00000+0  11561-3 0  9993
2 68947  51.8991  18.4240 0002343 129.3893 230.7277 14.79924764 20671
KUIPER-00454            
1 68948U 26098AF  26256.25002315  .00118652  00000+0  15700-1 0  9995
2 68948  51.9002  36.2272 0001081 110.5462  45.4716 14.78897907  5692
KUIPER-00455            
1 68949U 26098AG  26255.70059898  .00001315  00000+0  20149-3 0  9995
2 68949  51.9011  36.1756 0001973 118.0274 242.0888 14.79926229 20371
KUIPER-00458            
1 68950U 26098AH  26255.75052089  .00001798  00000+0  26487-3 0  9993
2 68950  51.9024  20.9786 0000358 136.9713 223.1278 14.79925829 20585
KUIPER-00282            
1 69267U 26118A   26256.02874677  .00001094  00000+0  17253-3 0  9994
2 69267  51.8983  12.2068 0000527 140.0464 220.0537 14.79923606 17169
KUIPER-00383            
1 69268U 26118B   26256.04832901  .00002441  00000+0  34900-3 0  9996
2 69268  51.8995   9.6391 0000434 118.3997 241.7009 14.79934023 17202
KUIPER-00527            
1 69269U 26118C   26256.01457420  .00001448  00000+0  21885-3 0  9997
2 69269  51.8984   9.9198 0000439 107.3069 252.7941 14.79932766 17199
KUIPER-00562            
1 69270U 26118D   26255.98867846  .00002510  00000+0  35765-3 0  9994
2 69270  51.9036   2.3438 0000405 146.8015 213.2973 14.79988509 17302
KUIPER-00570            
1 69271U 26118E   26255.73906070  .00001840  00000+0  27034-3 0  9996
2 69271  51.9013  16.1087 0000381 114.8307 245.2695 14.79927965 17072
KUIPER-00572            
1 69272U 26118F   26255.59250156  .00002688  00000+0  38153-3 0  9993
2 69272  51.9023  11.6493 0000457 113.6146 246.4865 14.79925592 17130
KUIPER-00581            
1 69273U 26118G   26255.58709706  .00000140  00000+0  47349-4 0  9992
2 69273  51.9017  16.6806 0001511 161.0924 199.0095 14.79926030 17158
KUIPER-00584            
1 69274U 26118H   26255.63507222  .00002531  00000+0  36091-3 0  9995
2 69274  51.9019  19.0798 0000453 114.8958 245.2052 14.79928535 17031
KUIPER-00587            
1 69275U 26118J   26255.73025207  .00002760  00000+0  39082-3 0  9992
2 69275  51.9024   8.5496 0000836  80.8503 279.2554 14.79934639 17192
KUIPER-00590            
1 69276U 26118K   26255.52227916  .00002569  00000+0  36597-3 0  9996
2 69276  51.9042  14.4780 0000711 131.4388 228.6636 14.79926685 17091
KUIPER-00592            
1 69277U 26118L   26255.70808979  .00002342  00000+0  33624-3 0  9998
2 69277  51.9047  13.5365 0000590 102.8088 257.2940 14.79913550 17127
KUIPER-00593            
1 69278U 26118M   26256.25002315 -.00017405  00000+0 -22436-2 0  9996
2 69278  51.9000 353.7608 0002744 199.1155  69.4064 14.80230887  5767
KUIPER-00594            
1 69279U 26118N   26255.51885317  .00000677  00000+0  11782-3 0  9990
2 69279  51.9048   1.9980 0001496  66.0206 294.0913 14.79915409 17262
KUIPER-00595            
1 69280U 26118P   26256.25002315 -.00031455  00000+0 -39258-2 0  9990
2 69280  51.8991 353.7312 0001943 205.1926 235.7480 14.81907778  5495
KUIPER-00596            
1 69281U 26118Q   26255.61818454  .00002741  00000+0  38837-3 0  9996
2 69281  51.9029  19.0483 0000516 107.2028 252.8991 14.79931366 17037
KUIPER-00597            
1 69282U 26118R   26256.25002315  .00025524  00000+0  33604-2 0  9999
2 69282  51.8991 356.2554 0002060  35.0649  68.9002 14.79982265  4649
KUIPER-00599            
1 69283U 26118S   26256.05101555  .00002728  00000+0  38677-3 0  9991
2 69283  51.9034   7.0473 0000289 149.2715 210.8264 14.79930574 17247
KUIPER-00600            
1 69284U 26118T   26256.25002315  .00024037  00000+0  31726-2 0  9992
2 69284  51.8994 356.1697 0001545  33.1450 250.0664 14.79907775  1892
KUIPER-00601            
1 69285U 26118U   26256.01183948  .00000745  00000+0  12667-3 0  9993
2 69285  51.9005  12.3027 0000336 101.4076 258.6924 14.79940877 17165
KUIPER-00602            
1 69286U 26118V   26256.29006303  .00000606  00000+0  10845-3 0  9995
2 69286  51.9042   3.4897 0000826 185.7298 174.3656 14.79929118 17316
KUIPER-00603            
1 69287U 26118W   26256.30425774  .00000463  00000+0  89676-4 0  9995
2 69287  51.9051   6.0166 0000532  92.8611 267.2413 14.79927554 17276
KUIPER-00605            
1 69288U 26118X   26256.29617415  .00002357  00000+0  33818-3 0  9999
2 69288  51.9001  13.5312 0000393 105.1160 254.9846 14.79925094 17179
KUIPER-00606            
1 69289U 26118Y   26256.01725841 -.00001094  00000+0 -11455-3 0  9995
2 69289  51.9030   7.2812 0000346  91.9997 268.1005 14.79933382 17235
KUIPER-00607            
1 69290U 26118Z   26255.53848292  .00002347  00000+0  33667-3 0  9998
2 69290  51.9013 359.4063 0001323 358.5038   1.5920 14.79947805 17300
KUIPER-00608            
1 69291U 26118AA  26255.68778186  .00027820  00000+0  36652-2 0  9998
2 69291  51.9027   1.1045 0001499  73.3021 286.8106 14.79909760 17295
KUIPER-00610            
1 69292U 26118AB  26256.25631100  .00000053  00000+0  35905-4 0  9998
2 69292  51.9023   3.7235 0000455 100.3050 259.7964 14.79926430 17301
KUIPER-00613            
1 69293U 26118AC  26256.04293939  .00001682  00000+0  24960-3 0  9997
2 69293  51.9022  14.6671 0000411  92.9471 267.1538 14.79927360 17135
KUIPER-00618            
1 69294U 26118AD  26256.29276021  .00000686  00000+0  11906-3 0  9997
2 69294  51.9040   1.0697 0002032 166.1546 193.9473 14.79925861 17343
KUIPER-00620            
1 69295U 26118AE  26256.30696252  .00002468  00000+0  35262-3 0  9993
2 69295  51.9042   3.5106 0000317  94.3536 265.7463 14.79929950 17310
KUIPER-00423            
1 69592U 26140A   26256.25002315 -.00037007  00000+0 -40371-2 0  9998
2 69592  51.9003 336.1982 0014908  96.7531 287.1094 14.87413527  4205
KUIPER-00428            
1 69593U 26140B   26255.63744111  .00020212  00000+0  54532-3 0  9990
2 69593  51.8824 336.1251 0005436 245.0356 115.0067 15.37756577 14688
KUIPER-00481            
1 69594U 26140C   26256.19660382  .00001431  00000+0  23409-3 0  9991
2 69594  51.9030 341.1519 0001584 314.1447  45.9383 14.76494284 14667
KUIPER-00490            
1 69595U 26140D   26256.27516412  .00002356  00000+0  33802-3 0  9990
2 69595  51.9047 346.0954 0000534  88.5610 271.5413 14.79920144 14608
KUIPER-00493            
1 69596U 26140E   26255.69578013  .00002658  00000+0  37742-3 0  9993
2 69596  51.9053 353.7081 0000579 257.4734 102.6163 14.79939327 14446
KUIPER-00496            
1 69597U 26140F   26256.25002315 -.00060085  00000+0 -38120-2 0  9994
2 69597  51.8858 336.6899 0009470 256.6725 289.4929 15.08545304  5250
KUIPER-00513            
1 69598U 26140G   26256.24140410  .00002240  00000+0  32281-3 0  9993
2 69598  51.9015 346.2918 0000514 109.1855 250.9163 14.79918761 14590
KUIPER-00516            
1 69599U 26140H   26256.25002315 -.02227474  00000+0 -98642-1 0  9999
2 69599  51.8818 333.3957 0006969 197.1512 216.5023 15.24930423  4017
KUIPER-00517            
1 69600U 26140J   26256.18515417  .00016805  00000+0  46476-3 0  9996
2 69600  51.8786 333.0265 0009794 144.3017 215.8627 15.37092939 14777
KUIPER-00520            
1 69601U 26140K   26256.27387555  .00001479  00000+0  24036-3 0  9996
2 69601  51.9038 347.9622 0001099 165.5489 194.5504 14.76598493 14571
KUIPER-00522            
1 69602U 26140L   26256.25002315 -.00025772  00000+0 -25081-2 0  9997
2 69602  51.8961 336.5642 0017165  94.7733 185.9045 14.91775658  5489
KUIPER-00528            
1 69603U 26140M   26256.28937431  .00002398  00000+0  34349-3 0  9992
2 69603  51.9043 348.5953 0000389 101.7705 258.3301 14.79932386 14566
KUIPER-00532            
1 69604U 26140N   26256.25002315 -.00010851  00000+0 -70012-3 0  9996
2 69604  51.8907 335.1707 0002761 202.2057  86.8033 15.06916973  5872
KUIPER-00533            
1 69605U 26140P   26256.21036251 -.00004961  00000+0 -62207-3 0  9991
2 69605  51.9043 343.9399 0000121 141.6172 218.4799 14.79948550 14621
KUIPER-00534            
1 69606U 26140Q   26255.48248364 -.00010224  00000+0 -31570-3 0  9998
2 69606  51.8826 337.3288 0014315 112.8051 247.4447 15.31775701 14650
KUIPER-00537            
1 69607U 26140R   26255.99966745  .00001553  00000+0  23264-3 0  9999
2 69607  51.9023 352.2823 0000357 336.7177  23.3769 14.79933127 14498
KUIPER-00538            
1 69608U 26140S   26256.23868743 -.00004577  00000+0 -57367-3 0  9999
2 69608  51.9028 348.7503 0000128   1.6269 358.4694 14.79796604 14569
KUIPER-00540            
1 69609U 26140T   26256.21152441  .00018525  00000+0  49371-3 0  9991
2 69609  51.8818 333.2357 0004485 239.0892 120.9655 15.38201262 14770
KUIPER-00541            
1 69610U 26140U   26256.25002315 -.01676764  00000+0 -62323-1 0  9999
2 69610  51.8843 332.7099 0007758 165.7828 202.3119 15.30188095  3809
KUIPER-00542            
1 69611U 26140V   26256.23386573 -.00256341  00000+0 -73423-2 0  9997
2 69611  51.8780 332.6169 0009126 154.2003 205.9440 15.36340677 14783
KUIPER-00543            
1 69612U 26140W   26256.25002315 -.01064379  00000+0 -79774-1 0  9992
2 69612  51.9011 335.0329 0004778 240.3926  14.2018 15.05140749  5546
KUIPER-00544            
1 69613U 26140X   26256.25002315 -.01219241  00000+0 -45799-1 0  9993
2 69613  51.8807 332.7810 0005309 152.6162 193.6788 15.29411867  5832
KUIPER-00546            
1 69614U 26140Y   26256.25002315 -.00025060  00000+0 -24181-2 0  9990
2 69614  51.8983 336.5653 0019588 109.1726 242.4604 14.92061207  5537
KUIPER-00547            
1 69615U 26140Z   26256.22493636  .00024029  00000+0  66532-3 0  9997
2 69615  51.8822 332.5896 0009268 135.4962 224.6771 15.36817139 14789
KUIPER-00549            
1 69616U 26140AA  26256.25002315 -.01258312  00000+0 -67522-1 0  9996
2 69616  51.8902 333.6516 0005367 221.9526  11.8735 15.17595575  5831
KUIPER-00550            
1 69617U 26140AB  26256.25002315 -.01280280  00000+0 -71282-1 0  9994
2 69617  51.8806 337.4308 0006531 277.7925 308.2565 15.16359007  5495
KUIPER-00551            
1 69618U 26140AC  26256.21158615  .00022661  00000+0  59742-3 0  9999
2 69618  51.8775 332.4700 0011731 125.6043 234.6039 15.38346736 14781
KUIPER-00554            
1 69619U 26140AD  26256.22491337  .00034912  00000+0  94893-3 0  9990
2 69619  51.8791 332.5579 0010347 136.4348 223.7458 15.37180898 14783
KUIPER-00555            
1 69620U 26140AE  26256.25002315  .00011308  00000+0  31680-3 0  9998
2 69620  51.8831 332.3883 0010929 126.9342  50.6176 15.37050953  2419
KUIPER-00556            
1 69621U 26140AF  26256.25002315 -.00040119  00000+0 -48931-2 0  9999
2 69621  51.8973 338.7929 0017332 113.4977 232.3389 14.82861061  3637
KUIPER-00557            
1 69622U 26140AG  26255.91141161  .00017636  00000+0  46534-3 0  9999
2 69622  51.8815 334.2263 0008765 139.3617 220.8026 15.38522505 14735
KUIPER-00560            
1 69623U 26140AH  26256.20226130  .00021095  00000+0  58128-3 0  9999
2 69623  51.8799 333.1473 0008322 160.7135 199.4168 15.37055403 14779
KUIPER-00561            
1 69624U 26140AJ  26256.24420858  .00009234  00000+0  12386-2 0  9993
2 69624  51.9032 343.7574 0000461 169.6778 190.4194 14.79932892 14633
KUIPER-00564            
1 69625U 26140AK  26256.26632184  .00001324  00000+0  21857-3 0  9999
2 69625  51.8993 341.0219 0001969 103.7209 256.3971 14.76575003 14671
KUIPER-00567            
1 69626U 26140AL  26256.25002315 -.00044830  00000+0 -57506-2 0  9996
2 69626  51.8980 338.7663 0005066  95.3108  84.9004 14.80928558  5887
KUIPER-00573            
1 69627U 26140AM  26255.97663480 -.00004451  00000+0 -55516-3 0  9996
2 69627  51.9023 342.4758 0000843  95.8034 264.3025 14.79936434 14624
KUIPER-00258            
1 69763U 26151A   26256.25002315 -.00086203  00000+0 -55011-2 0  9999
2 69763  51.8819 252.8616 0010605  33.0043  25.6271 15.08506124  5651
KUIPER-00526            
1 69764U 26151B   26256.31082194  .00000280  00000+0  65715-4 0  9993
2 69764  51.9006 266.0593 0000633  69.8725 290.2305 14.79924025 11034
KUIPER-00558            
1 69765U 26151C   26255.73682020 -.00001944  00000+0 -22610-3 0  9999
2 69765  51.8980 268.5174 0000634  72.6216 287.4815 14.79936190 10955
KUIPER-00569            
1 69766U 26151D   26256.29664285  .00000269  00000+0  64319-4 0  9995
2 69766  51.9014 263.5322 0000654  53.2524 306.8498 14.79928908 11079
KUIPER-00589            
1 69767U 26151E   26256.05407185  .00001353  00000+0  22291-3 0  9991
2 69767  51.9010 267.5037 0002558  47.4054 312.7122 14.76523926 10999
KUIPER-00598            
1 69768U 26151F   26256.25002315 -.00023664  00000+0 -30878-2 0  9990
2 69768  51.8979 258.7593 0000755 113.1858 239.3475 14.79909458  4496
KUIPER-00604            
1 69769U 26151G   26254.06766117  .00003192  00000+0  48375-3 0  9999
2 69769  51.9025 270.8723 0003393   5.1560 354.9436 14.76559401 10776
KUIPER-00609            
1 69770U 26151H   26256.30248724  .00001488  00000+0  24163-3 0  9994
2 69770  51.9020 258.1755 0002031  16.3332 343.7694 14.76610344 11144
KUIPER-00611            
1 69771U 26151J   26256.06298365  .00000119  00000+0  44627-4 0  9992
2 69771  51.8986 262.0664 0000645  59.1025 301.0000 14.79926732 11075
KUIPER-00612            
1 69772U 26151K   26256.30267930  .00001512  00000+0  24480-3 0  9996
2 69772  51.9010 263.4149 0000700  41.7223 318.3791 14.76635324 11076
KUIPER-00614            
1 69773U 26151L   26256.04612833  .00001876  00000+0  27492-3 0  9993
2 69773  51.8984 262.2103 0000936  59.2052 300.9002 14.79944631 11066
KUIPER-00615            
1 69774U 26151M   26255.51465036  .00024571  00000+0  34895-2 0  9997
2 69774  51.9025 269.4147 0002033   4.5035 355.5944 14.76786230 10926
KUIPER-00616            
1 69775U 26151N   26256.25002315 -.00038016  00000+0 -30181-2 0  9992
2 69775  51.8946 252.1707 0003572 105.2557 216.5826 15.00001821  5671
KUIPER-00617            
1 69776U 26151P   26256.25002315 -.00078661  00000+0 -10303-1 0  9996
2 69776  51.8986 256.2598 0001772  53.6054  13.9831 14.80367028  5561
KUIPER-00619            
1 69777U 26151Q   26256.25002315 -.00025225  00000+0 -35644-2 0  9991
2 69777  51.8995 258.3474 0001833 135.4673 276.7152 14.76582298  5481
KUIPER-00621            
1 69778U 26151R   26256.01236086  .00005136  00000+0  70238-3 0  9996
2 69778  51.9009 262.3026 0000919 139.6143 220.4888 14.79923281 11066
KUIPER-00622            
1 69779U 26151S   26256.04329419  .00001398  00000+0  22913-3 0  9996
2 69779  51.9006 265.9629 0000979  72.4328 287.6740 14.76557470 11014
KUIPER-00623            
1 69780U 26151T   26256.25002315 -.00023364  00000+0 -30379-2 0  9997
2 69780  51.8959 263.7696 0001846  98.2536 102.3823 14.80047707  4720
KUIPER-00626            
1 69781U 26151U   26256.25002315 -.00030503  00000+0 -39950-2 0  9995
2 69781  51.8964 258.7349 0000914 105.9023 336.7549 14.79884385  5580
KUIPER-00627            
1 69782U 26151V   26256.25002315 -.01114403  00000+0 -10159+0 0  9996
2 69782  51.8909 254.4297 0007343  59.1827 212.7594 14.97875323  2436
KUIPER-00629            
1 69783U 26151W   26255.75100076  .00000754  00000+0  12789-3 0  9999
2 69783  51.9016 270.9009 0000489  77.7171 282.3847 14.79924963 10925
KUIPER-00631            
1 69784U 26151X   26256.30810011 -.00000337  00000+0 -15275-4 0  9992
2 69784  51.9010 268.4960 0000665  84.6273 275.4765 14.79919319 11005
KUIPER-00634            
1 69785U 26151Y   26256.06028924  .00001831  00000+0  26922-3 0  9998
2 69785  51.9000 264.5978 0000878  97.3842 262.7220 14.79923624 11032
KUIPER-00639            
1 69786U 26151Z   26256.25002315 -.00053907  00000+0 -48006-2 0  9995
2 69786  51.8915 254.2540 0010256  27.8745  94.6159 14.95700571  4980
KUIPER-00641            
1 69787U 26151AA  26256.25002315 -.00076229  00000+0 -90790-2 0  9995
2 69787  51.9002 256.3373 0013611  34.8256  84.0046 14.84213755  4269
KUIPER-00644            
1 69788U 26151AB  26256.25002315 -.01378929  00000+0 -75658-1 0  9994
2 69788  51.8822 251.2193 0009343  27.9790 127.9893 15.16562457  5053
KUIPER-00646            
1 69789U 26151AC  26256.25002315 -.00020258  00000+0 -23914-2 0  9992
2 69789  51.9018 256.4156 0008833  45.9916 259.0600 14.83940673  3336
KUIPER-00647            
1 69790U 26151AD  26256.25002315 -.00062103  00000+0 -62316-2 0  9998
2 69790  51.8943 256.3014 0006396  22.8525 162.0928 14.91097391  5739
KUIPER-00662            
1 69791U 26151AE  26254.51493362  .00001440  00000+0  23565-3 0  9991
2 69791  51.9019 276.3854 0001876 345.7702  14.3205 14.76442312 10734
