KUIPER-00008            
1 63724U 25088A   26263.15443009 -.00000354  00000+0 -17508-4 0  9998
2 63724  51.9015 308.0857 0000392  76.0639 284.0367 14.79925883 76842
KUIPER-00009            
1 63725U 25088B   26261.21057610  .00004298  00000+0  29392-3 0  9995
2 63725  51.9028 324.4667 0000266  85.3135 274.7870 15.08053709 76445
KUIPER-00010            
1 63726U 25088C   26262.85595676 -.00000181  00000+0  52379-5 0  9997
2 63726  51.9024 304.5175 0000437  73.7865 286.3146 14.79926340 76482
KUIPER-00011            
1 63727U 25088D   26263.15174912  .00000537  00000+0  99489-4 0  9994
2 63727  51.9021 310.7515 0000366  45.4031 314.6961 14.79927356 76555
KUIPER-00012            
1 63728U 25088E   26263.13414661  .00000437  00000+0  86291-4 0  9997
2 63728  51.9021 295.7693 0000381  73.1278 286.9726 14.79925904 76718
KUIPER-00013            
1 63729U 25088F   26262.79522142 -.00000684  00000+0 -60749-4 0  9999
2 63729  51.9030 329.7875 0000414  94.0555 266.0455 14.79928388 76319
KUIPER-00014            
1 63730U 25088G   26262.89644661 -.00001110  00000+0 -11664-3 0  9999
2 63730  51.8999 329.2812 0000287  49.6734 310.4253 14.79942080 76149
KUIPER-00015            
1 63731U 25088H   26262.78442108  .00000747  00000+0  12695-3 0  9998
2 63731  51.9008 339.8239 0000179  69.5558 290.5424 14.79932057 76441
KUIPER-00016            
1 63732U 25088J   26262.48863130  .00000350  00000+0  74930-4 0  9999
2 63732  51.9019 333.5907 0000499  91.2357 268.8663 14.79931204 76043
KUIPER-00018            
1 63733U 25088K   26262.73577994 -.00000757  00000+0 -70306-4 0  9994
2 63733  51.9044 322.5469 0000374  38.7001 321.3988 14.79928090 76221
KUIPER-00019            
1 63734U 25088L   26262.89750753  .00000335  00000+0  72966-4 0  9992
2 63734  51.9022 320.5758 0000050 350.5838   9.5123 14.79932584 76264
KUIPER-00020            
1 63735U 25088M   26262.46295330 -.00001047  00000+0 -10838-3 0  9993
2 63735  51.9034 326.2464 0000226  36.6774 323.4204 14.79931344 76352
KUIPER-00021            
1 63736U 25088N   26262.69931046 -.00000306  00000+0 -11168-4 0  9995
2 63736  51.9013 325.1515 0000387  64.8736 295.2267 14.79927339 76224
KUIPER-00023            
1 63737U 25088P   26263.20308197  .00000619  00000+0  11020-3 0  9990
2 63737  51.9010 325.4130 0000552  91.8767 268.2259 14.79929338 76565
KUIPER-00024            
1 63738U 25088Q   26262.81140907 -.00000490  00000+0 -35226-4 0  9994
2 63738  51.9044 314.7607 0000451  87.3754 272.7260 14.79925038 76809
KUIPER-00025            
1 63739U 25088R   26263.17472590 -.00000092  00000+0  16957-4 0  9998
2 63739  51.9048 320.6360 0000503  84.6541 275.4479 14.79928285 76616
KUIPER-00027            
1 63740U 25088S   26263.14634931  .00000701  00000+0  12099-3 0  9994
2 63740  51.9028 315.7185 0000363  75.5269 284.5733 14.79926351 76410
KUIPER-00028            
1 63741U 25088T   26262.84515637 -.00000843  00000+0 -81657-4 0  9998
2 63741  51.9020 314.4915 0000306  84.4335 275.6663 14.79925940 76810
KUIPER-00029            
1 63742U 25088U   26262.82115661  .00000271  00000+0  64603-4 0  9995
2 63742  51.9029 313.2933 0000085 218.0662 142.0294 14.79925185 76356
KUIPER-00030            
1 63743U 25088V   26263.19768889  .00000212  00000+0  56769-4 0  9992
2 63743  51.9027 330.4509 0000354  70.1948 289.9052 14.79932439 76430
KUIPER-00031            
1 63744U 25088W   26263.18011434  .00000226  00000+0  58661-4 0  9997
2 63744  51.9023 315.5511 0000272  53.0533 307.0454 14.79930868 76356
KUIPER-00032            
1 63745U 25088X   26262.94897429  .00010209  00000+0  23996-3 0  9991
2 63745  51.8655 160.8965 0005303  93.2279 266.9317 15.42601896 79489
KUIPER-00033            
1 63746U 25088Y   26262.81009459  .00001910  00000+0  27943-3 0  9991
2 63746  51.9034 347.1849 0000136  67.4256 292.6721 14.79935042 76361
KUIPER-00034            
1 63747U 25088Z   26262.85049687 -.00002816  00000+0 -34058-3 0  9996
2 63747  51.9032 309.5442 0000573  91.6405 268.4623 14.79922527 76570
KUIPER-00035            
1 63748U 25088AA  26262.48591225 -.00002137  00000+0 -25152-3 0  9997
2 63748  51.9012 336.1163 0000195   9.5285 350.5681 14.79927799 76224
KUIPER-00037            
1 63749U 25088AB  26262.88403304  .00000649  00000+0  11415-3 0  9993
2 63749  51.9029 333.2214 0000350  85.7834 274.3168 14.79931767 77085
KUIPER-00038            
1 63750U 25088AC  26263.14365576  .00000710  00000+0  12209-3 0  9994
2 63750  51.9035 318.2478 0000422  89.3555 270.7456 14.79927376 76315
KUIPER-00039            
1 64500U 25134A   26263.04869029  .00001847  00000+0  27123-3 0  9994
2 64500  51.9016  93.6632 0000797 111.5059 248.5988 14.79934670 68854
KUIPER-00040            
1 64501U 25134B   26263.00414417  .00001920  00000+0  28076-3 0  9998
2 64501  51.8982 103.9185 0001107 112.4690 247.6390 14.79931470 68707
KUIPER-00041            
1 64502U 25134C   26262.08978176  .00002034  00000+0  29566-3 0  9995
2 64502  51.8991 110.3545 0000877 103.3960 256.7100 14.79936698 68530
KUIPER-00042            
1 64503U 25134D   26262.93929551  .00001844  00000+0  27087-3 0  9997
2 64503  51.8989 101.5748 0000813 112.5344 247.5705 14.79935848 68730
KUIPER-00043            
1 64504U 25134E   26262.94738580 -.00000162  00000+0  78097-5 0  9991
2 64504  51.8987  94.0557 0001192 122.0360 238.0718 14.79930988 68849
KUIPER-00044            
1 64505U 25134F   26262.05601992  .00000466  00000+0  90108-4 0  9992
2 64505  51.8989 110.4864 0000859 109.6285 250.4771 14.79929929 68538
KUIPER-00046            
1 64506U 25134G   26263.17291355  .00004713  00000+0  64634-3 0  9998
2 64506  51.8967 103.0123 0001393 125.5132 234.5961 14.79960042 68730
KUIPER-00047            
1 64507U 25134H   26263.16885203  .00001859  00000+0  27275-3 0  9997
2 64507  51.8981  75.5635 0000728 125.9720 234.1310 14.79939878 69116
KUIPER-00048            
1 64508U 25134J   26262.93249535  .00001803  00000+0  26546-3 0  9993
2 64508  51.8989  76.6201 0000748 114.3981 245.7060 14.79928307 69080
KUIPER-00049            
1 64509U 25134K   26262.95275352  .00004720  00000+0  64746-3 0  9997
2 64509  51.8989  89.0028 0001183  57.8671 302.2406 14.79946998 68917
KUIPER-00050            
1 64510U 25134L   26262.97165428 -.00000269  00000+0 -62377-5 0  9999
2 64510  51.9010  71.4378 0001010 156.3371 203.7638 14.79932449 69165
KUIPER-00051            
1 64511U 25134M   26262.92879416  .00001843  00000+0  27070-3 0  9990
2 64511  51.9003  87.8079 0000849 121.6185 238.4860 14.79937058 68920
KUIPER-00053            
1 64513U 25134P   26262.86867403  .00001575  00000+0  22626-3 0  9992
2 64513  51.8999  82.4826 0002546 119.4619 240.6599 14.81716183 68997
KUIPER-00054            
1 64514U 25134Q   26262.99732440  .00001736  00000+0  25662-3 0  9991
2 64514  51.8978  78.8084 0000876 119.3840 240.7210 14.79940014 69057
KUIPER-00055            
1 64515U 25134R   26262.94721743  .00002124  00000+0  30730-3 0  9995
2 64515  51.9027  31.6813 0000337 121.4322 238.6673 14.79959884 69719
KUIPER-00056            
1 64516U 25134S   26263.02571769  .00001830  00000+0  26897-3 0  9999
2 64516  51.9030  83.8009 0000946 112.9127 247.1936 14.79929817 68993
KUIPER-00057            
1 64517U 25134T   26262.07219655  .00002102  00000+0  30473-3 0  9995
2 64517  51.8986  95.4319 0000677 109.6645 250.4391 14.79928916 68749
KUIPER-00058            
1 64518U 25134U   26263.12429882  .00001925  00000+0  28137-3 0  9994
2 64518  51.9005  85.7583 0000773 115.9227 244.1815 14.79938710 68970
KUIPER-00059            
1 64519U 25134V   26262.92709567  .00001667  00000+0  24757-3 0  9990
2 64519  51.8979  81.6659 0000456 124.1599 235.9407 14.79937309 69015
KUIPER-00060            
1 64520U 25134W   26263.02841241  .00001887  00000+0  27640-3 0  9998
2 64520  51.9021  81.2969 0000717 112.7186 247.3852 14.79938303 69017
KUIPER-00061            
1 64521U 25134X   26263.05407769  .00001812  00000+0  26661-3 0  9995
2 64521  51.9006  88.6235 0000927 118.3953 241.7103 14.79934717 68915
KUIPER-00062            
1 64522U 25134Y   26263.05137979  .00001844  00000+0  27086-3 0  9996
2 64522  51.8957  91.0808 0000832 115.5079 244.5970 14.79934807 68897
KUIPER-00063            
1 64523U 25134Z   26262.90824398  .00001935  00000+0  28269-3 0  9993
2 64523  51.9022  99.3115 0000683 118.9339 241.1692 14.79933823 68761
KUIPER-00064            
1 64524U 25134AA  26263.04598054  .00001760  00000+0  25977-3 0  9996
2 64524  51.9023  96.1285 0001111 120.3160 239.7913 14.79940359 68820
KUIPER-00065            
1 64525U 25134AB  26263.17567411  .00001600  00000+0  23880-3 0  9998
2 64525  51.9020 100.7307 0001006 146.8199 213.2827 14.79935729 68751
KUIPER-00066            
1 64526U 25134AC  26263.07422838  .00002099  00000+0  30428-3 0  9990
2 64526  51.9024  38.4454 0000605 114.7107 245.3918 14.79933082 69638
KUIPER-00069            
1 64816U 25151A   26263.06498455  .00001999  00000+0  29109-3 0  9990
2 64816  51.9014 141.1264 0000836 118.4041 241.7006 14.79938127 65543
KUIPER-00070            
1 64817U 25151B   26262.26141806  .00001419  00000+0  21512-3 0  9994
2 64817  51.8966 169.5804 0001320  84.6814 275.4299 14.79925333 65086
KUIPER-00071            
1 64818U 25151C   26263.00694660  .00002061  00000+0  29923-3 0  9997
2 64818  51.8994 163.8295 0000761  99.5504 260.5544 14.79935030 64046
KUIPER-00072            
1 64819U 25151D   26263.06227796 -.00000093  00000+0  16805-4 0  9996
2 64819  51.8995 143.5066 0000691 123.0658 237.0371 14.79929395 64330
KUIPER-00073            
1 64820U 25151E   26263.17577520  .00000545  00000+0  10058-3 0  9997
2 64820  51.9013 163.0594 0001210  77.1632 282.9465 14.79929693 65252
KUIPER-00075            
1 64822U 25151G   26262.98082492  .00023163  00000+0  60206-3 0  9997
2 64822  51.8670 354.4969 0002844 245.9543 114.1147 15.38828250 66396
KUIPER-00076            
1 64823U 25151H   26263.11903185  .00000777  00000+0  13098-3 0  9998
2 64823  51.8999 153.3351 0001155  98.5899 261.5194 14.79932789 64206
KUIPER-00077            
1 64824U 25151J   26263.11364516  .00000665  00000+0  11621-3 0  9994
2 64824  51.9030 158.3807 0001140  70.3474 289.7611 14.79928711 64134
KUIPER-00078            
1 64825U 25151K   26263.01503350  .00002064  00000+0  29972-3 0  9998
2 64825  51.9000 156.2879 0001034  98.4483 261.6597 14.79931534 64152
KUIPER-00079            
1 64826U 25151L   26263.11093957  .00000644  00000+0  11346-3 0  9995
2 64826  51.8998 160.8179 0001161  69.9171 290.1916 14.79929877 65295
KUIPER-00080            
1 64827U 25151M   26263.14469691  .00001861  00000+0  27302-3 0  9992
2 64827  51.8990 160.6800 0000611  70.4032 289.6997 14.79933178 64109
KUIPER-00082            
1 64828U 25151N   26262.98935853  .00002083  00000+0  30218-3 0  9999
2 64828  51.9014 148.9312 0000927  98.8694 261.2373 14.79933489 64258
KUIPER-00083            
1 64829U 25151P   26263.11633625  .00001370  00000+0  20873-3 0  9992
2 64829  51.9034 155.8502 0001418  79.4414 280.6708 14.79931997 65351
KUIPER-00084            
1 64830U 25151Q   26263.17304962  .00002147  00000+0  31042-3 0  9992
2 64830  51.9011 165.5857 0000809  98.8923 261.2131 14.79950253 64037
KUIPER-00085            
1 64831U 25151R   26262.95561145  .00001971  00000+0  28746-3 0  9997
2 64831  51.9037 149.1382 0000928  96.6572 263.4496 14.79932257 64240
KUIPER-00086            
1 64832U 25151S   26262.13445871  .00000895  00000+0  14643-3 0  9990
2 64832  51.9016 162.7029 0000979  94.3272 265.7803 14.79930805 63989
KUIPER-00087            
1 64833U 25151T   26263.03130543  .00010062  00000+0  13487-2 0  9999
2 64833  51.8996 141.1933 0001436  88.6895 271.4232 14.79876450 64354
KUIPER-00089            
1 64834U 25151U   26262.95828955  .00000592  00000+0  10664-3 0  9993
2 64834  51.9003 146.5404 0000829  99.8760 260.2296 14.79926728 64289
KUIPER-00090            
1 64835U 25151V   26263.03389431 -.00000140  00000+0  10600-4 0  9996
2 64835  51.8953 138.7002 0000775 115.2101 244.8942 14.79923247 64393
KUIPER-00091            
1 64836U 25151W   26262.96099323  .00001920  00000+0  28087-3 0  9999
2 64836  51.9019 144.0506 0000995  97.5091 262.5984 14.79930595 64310
KUIPER-00092            
1 64837U 25151X   26262.21007658  .00000347  00000+0  74508-4 0  9990
2 64837  51.8998 154.8586 0000914  99.6592 260.4473 14.79931660 65318
KUIPER-00093            
1 64838U 25151Y   26263.08526715  .00001125  00000+0  17661-3 0  9998
2 64838  51.8982 153.4558 0001123  92.6730 267.4361 14.79927243 64196
KUIPER-00094            
1 64839U 25151Z   26262.12087329  .00000099  00000+0  42026-4 0  9999
2 64839  51.9040 112.8397 0001184  93.4356 266.6742 14.79929233 64682
KUIPER-00081            
1 65132U 25171A   26262.60012034  .00002270  00000+0  32662-3 0  9999
2 65132  51.9014  10.6000 0000361  95.9594 264.1410 14.79929701 61753
KUIPER-00088            
1 65133U 25171B   26263.05395890  .00001243  00000+0  19202-3 0  9998
2 65133  51.9020  26.0927 0000487 103.9510 256.1506 14.79931306 61578
KUIPER-00095            
1 65134U 25171C   26262.94048044  .00001542  00000+0  23129-3 0  9997
2 65134  51.9010   6.6313 0000322 117.3767 242.7228 14.79929914 61835
KUIPER-00096            
1 65135U 25171D   26263.02827664  .00000057  00000+0  36519-4 0  9999
2 65135  51.8986  18.6988 0000280 130.4872 229.6114 14.79931835 61679
KUIPER-00097            
1 65136U 25171E   26262.95807955  .00000156  00000+0  49521-4 0  9999
2 65136  51.9032  21.6815 0000677  98.1306 261.9733 14.79929006 61615
KUIPER-00098            
1 65137U 25171F   26263.02288919  .00001927  00000+0  28163-3 0  9997
2 65137  51.9021  23.7536 0000635  98.3385 261.7649 14.79935710 60948
KUIPER-00099            
1 65138U 25171G   26262.99992060  .00000388  00000+0  79890-4 0  9996
2 65138  51.9041  13.8695 0000621 114.8060 245.2967 14.79927975 61738
KUIPER-00100            
1 65139U 25171H   26263.03637544  .00000594  00000+0  10693-3 0  9990
2 65139  51.9035  11.1744 0000443  97.0025 263.0988 14.79931412 61779
KUIPER-00102            
1 65140U 25171J   26262.96614834  .00001921  00000+0  28096-3 0  9991
2 65140  51.9002  13.9522 0000467 134.9220 225.1780 14.79926077 61728
KUIPER-00103            
1 65141U 25171K   26262.37324259  .00006662  00000+0  90158-3 0  9991
2 65141  51.8985  34.0762 0000278 113.2731 246.8261 14.79952456 61392
KUIPER-00104            
1 65142U 25171L   26263.06205281  .00000186  00000+0  53448-4 0  9999
2 65142  51.9057  18.5517 0000484 103.7540 256.3477 14.79930297 61675
KUIPER-00105            
1 65143U 25171M   26262.61502114  .00002205  00000+0  31815-3 0  9992
2 65143  51.9021  28.1192 0000541 111.4685 248.6335 14.79926836 61506
KUIPER-00106            
1 65144U 25171N   26263.00092156  .00001455  00000+0  21984-3 0  9999
2 65144  51.9024   5.1811 0000505  99.8874 260.2146 14.79930292 61862
KUIPER-00107            
1 65145U 25171P   26263.03904154  .00002152  00000+0  31127-3 0  9998
2 65145  51.9017   8.6852 0000767  78.6672 281.4376 14.79925732 61817
KUIPER-00108            
1 65146U 25171Q   26262.04640897  .00002473  00000+0  35324-3 0  9999
2 65146  51.9038  25.6227 0000411 103.6153 256.4855 14.79930252 61496
KUIPER-00109            
1 65147U 25171R   26262.69332949  .00002273  00000+0  32702-3 0  9992
2 65147  51.9034  17.7038 0000475 112.0715 248.0298 14.79931703 61651
KUIPER-00110            
1 65148U 25171S   26263.05126877 -.00000090  00000+0  17185-4 0  9990
2 65148  51.9002  28.6655 0000474 115.6092 244.4919 14.79929668 61522
KUIPER-00111            
1 65149U 25171T   26262.40432960  .00000466  00000+0  90155-4 0  9996
2 65149  51.8992  36.3874 0000364 129.4469 230.6526 14.79929900 61360
KUIPER-00112            
1 65150U 25171U   26262.59203979  .00000440  00000+0  86759-4 0  9991
2 65150  51.9030  18.1961 0000461 114.5241 245.5770 14.79930928 61630
KUIPER-00114            
1 65151U 25171V   26263.00939611  .00001079  00000+0  17052-3 0  9996
2 65151  51.9002  36.3073 0000418 130.0402 230.0597 14.79925267 61412
KUIPER-00115            
1 65152U 25171W   26263.08503494 -.00000430  00000+0 -27454-4 0  9991
2 65152  51.9030  28.4847 0000408 103.8355 256.2653 14.79927604 61532
KUIPER-00116            
1 65153U 25171X   26263.04586897  .00001683  00000+0  24967-3 0  9990
2 65153  51.8988  33.6869 0000300  91.9777 268.1220 14.79940221 61455
KUIPER-00118            
1 65154U 25171Y   26263.04316569  .00002200  00000+0  31747-3 0  9998
2 65154  51.9005  36.1457 0000469 104.2031 255.8983 14.79936337 61424
KUIPER-00119            
1 65155U 25171Z   26262.92159831  .00002181  00000+0  31508-3 0  9995
2 65155  51.9021  24.2878 0000571  82.6182 277.4845 14.79930548 61579
KUIPER-00120            
1 65762U 25217A   26263.02335987  .00001633  00000+0  24319-3 0  9993
2 65762  51.9004 273.7045 0000511  62.8599 297.2415 14.79927808 53510
KUIPER-00132            
1 65763U 25217B   26263.12830552  .00011124  00000+0  28898-3 0  9995
2 65763  51.8514 137.2469 0004890 299.6297  60.4203 15.39447714 55415
KUIPER-00133            
1 65764U 25217C   26263.05713734  .00001623  00000+0  24181-3 0  9994
2 65764  51.9039 273.6943 0000504  71.2288 288.8729 14.79938097 53524
KUIPER-00139            
1 65765U 25217D   26262.68698850  .00001902  00000+0  27847-3 0  9996
2 65765  51.8981 242.7544 0000790  58.1125 301.9914 14.79924984 53922
KUIPER-00142            
1 65766U 25217E   26262.63706087  .00000155  00000+0  49325-4 0  9999
2 65766  51.9034 257.9429 0001264  33.1405 326.9637 14.79925260 53707
KUIPER-00145            
1 65767U 25217F   26262.97201044  .00001751  00000+0  25869-3 0  9999
2 65767  51.9005 258.9874 0000636  50.7314 309.3705 14.79922675 53716
KUIPER-00147            
1 65768U 25217G   26262.53029877  .00001649  00000+0  24508-3 0  9999
2 65768  51.8973 263.4134 0000659  33.4264 326.6740 14.79952793 53611
KUIPER-00148            
1 65769U 25217H   26262.48171687  .00001909  00000+0  27937-3 0  9999
2 65769  51.9048 246.1798 0000648  78.2029 281.9006 14.79933560 53859
KUIPER-00150            
1 65770U 25217J   26263.05982674  .00001687  00000+0  25020-3 0  9995
2 65770  51.9003 271.1199 0000594  87.9836 272.1194 14.79937915 53553
KUIPER-00151            
1 65771U 25217K   26262.32509165  .00000302  00000+0  68659-4 0  9994
2 65771  51.9011 266.8679 0000519  49.9349 310.1659 14.79931395 53556
KUIPER-00152            
1 65772U 25217L   26262.64245792  .00001769  00000+0  26096-3 0  9999
2 65772  51.9001 252.9446 0000661  48.0170 312.0848 14.79932496 53772
KUIPER-00153            
1 65773U 25217M   26262.98549843  .00001663  00000+0  24710-3 0  9995
2 65773  51.9022 246.5158 0000859  75.4241 284.6817 14.79924118 53892
KUIPER-00155            
1 65774U 25217N   26263.15021788 -.00001802  00000+0 -20748-3 0  9993
2 65774  51.9010 218.2508 0000915  62.2279 297.8777 14.79925504 54301
KUIPER-00156            
1 65775U 25217P   26263.01926365  .00001685  00000+0  24988-3 0  9991
2 65775  51.9024 246.3489 0000547  69.1380 290.9641 14.79938290 53890
KUIPER-00165            
1 65778U 25217S   26263.00849146  .00010324  00000+0  13819-2 0  9994
2 65778  51.8901 256.3215 0001399 102.8966 257.2152 14.79913576 53753
KUIPER-00166            
1 65779U 25217T   26262.51545868 -.00002056  00000+0 -24067-3 0  9997
2 65779  51.9026 246.0698 0000630  82.4716 277.6318 14.79939833 53852
KUIPER-00167            
1 65780U 25217U   26262.72754362  .00001638  00000+0  24384-3 0  9998
2 65780  51.8965 267.4514 0000692  48.8060 311.2961 14.79933455 53577
KUIPER-00168            
1 65781U 25217V   26262.54385425  .00000809  00000+0  13513-3 0  9990
2 65781  51.9009 250.8879 0000415 108.9612 251.1396 14.79932170 53793
KUIPER-00169            
1 65782U 25217W   26263.01117848  .00001591  00000+0  23766-3 0  9996
2 65782  51.9004 253.8344 0000633  85.7765 274.3270 14.79935566 53792
KUIPER-00170            
1 65783U 25217X   26262.73566169  .00001806  00000+0  26588-3 0  9993
2 65783  51.8988 259.9957 0000578  62.3706 297.7315 14.79931566 53687
KUIPER-00172            
1 65785U 25217Z   26262.51816870  .00001654  00000+0  24595-3 0  9995
2 65785  51.8984 243.4905 0000924  43.5429 316.5606 14.79935730 53897
KUIPER-00173            
1 65786U 25217AA  26262.70729141  .00001194  00000+0  18563-3 0  9998
2 65786  51.8997 255.1710 0000638  42.9107 317.1905 14.79933066 53747
KUIPER-00174            
1 65787U 25217AB  26262.64514379  .00002702  00000+0  38329-3 0  9995
2 65787  51.9014 250.5096 0000869  72.7121 287.3937 14.79932437 53809
KUIPER-00176            
1 65788U 25217AC  26263.03415190  .00000944  00000+0  15288-3 0  9996
2 65788  51.8994 263.7037 0000823  45.1747 314.9282 14.79925514 53656
KUIPER-00101            
1 65947U 25228A   26263.18108806 -.00011247  00000+0 -14472-2 0  9997
2 65947  51.8966 220.4956 0001189  85.0985 275.0113 14.79978206 52032
KUIPER-00113            
1 65948U 25228B   26263.15287740  .00002029  00000+0  29516-3 0  9992
2 65948  51.8966 215.6449 0000948  78.1032 282.0037 14.79928170 52098
KUIPER-00117            
1 65949U 25228C   26263.18395611 -.00000450  00000+0 -29996-4 0  9994
2 65949  51.8974 218.0060 0000923  59.1375 300.9678 14.79928991 52065
KUIPER-00121            
1 65950U 25228D   26263.15560503 -.00000664  00000+0 -58051-4 0  9998
2 65950  51.8998 213.1543 0000931  67.3092 292.7969 14.79926322 52136
KUIPER-00122            
1 65951U 25228E   26262.53703151  .00001965  00000+0  28671-3 0  9995
2 65951  51.8983 225.8596 0000767  72.3710 287.7336 14.79930421 51900
KUIPER-00123            
1 65952U 25228F   26262.63833615  .00001772  00000+0  26139-3 0  9999
2 65952  51.9002 225.4181 0000856  50.8025 309.3013 14.79935208 51911
KUIPER-00124            
1 65953U 25228G   26262.57889854 -.00001530  00000+0 -17171-3 0  9999
2 65953  51.8985 218.1709 0001168  62.0429 298.0652 14.79939398 52015
KUIPER-00125            
1 65954U 25228H   26262.52751511  .00002327  00000+0  33394-3 0  9991
2 65954  51.8994 203.4536 0001085  73.3123 286.7958 14.79955846 52216
KUIPER-00126            
1 65955U 25228J   26262.60728461  .00000784  00000+0  13187-3 0  9992
2 65955  51.8954 223.0804 0001076  82.2500 277.8584 14.79924207 51949
KUIPER-00127            
1 65956U 25228K   26262.46341908  .00001548  00000+0  23196-3 0  9994
2 65956  51.9005 216.1962 0000852  74.7607 285.3450 14.79933971 52036
KUIPER-00128            
1 65957U 25228L   26262.91926181  .00002042  00000+0  29689-3 0  9990
2 65957  51.8996 214.2483 0000816  79.0422 281.0632 14.79926594 52099
KUIPER-00129            
1 65958U 25228M   26262.55323042  .00002116  00000+0  30644-3 0  9993
2 65958  51.8989 210.8455 0000744  74.7212 285.3833 14.79931591 52118
KUIPER-00130            
1 65959U 25228N   26263.12455281 -.00000030  00000+0  25099-4 0  9992
2 65959  51.9015 210.8666 0000913  76.2955 283.8109 14.79930085 42455
KUIPER-00134            
1 65960U 25228P   26262.94569860  .00016848  00000+0  45387-3 0  9996
2 65960  51.8697  97.3250 0003899 275.4377  84.6165 15.37941836 53728
KUIPER-00135            
1 65961U 25228Q   26263.15831907  .00002026  00000+0  29478-3 0  9991
2 65961  51.9017 210.7679 0000656  81.5637 278.5399 14.79927576 52165
KUIPER-00136            
1 65962U 25228R   26263.12711102  .00001889  00000+0  27647-3 0  9995
2 65962  51.8996 208.3500 0000985  57.5362 302.5695 14.79968458 52194
KUIPER-00137            
1 65963U 25228S   26263.12994774  .00000828  00000+0  13764-3 0  9991
2 65963  51.9039 205.8509 0001053  59.9747 300.1320 14.79930885 52232
KUIPER-00138            
1 65964U 25228T   26263.09886355 -.00000397  00000+0 -23009-4 0  9990
2 65964  51.8986 203.3836 0000903  74.2232 285.8829 14.79927138 52264
KUIPER-00140            
1 65965U 25228U   26262.55593966  .00001100  00000+0  17337-3 0  9991
2 65965  51.8994 208.3784 0001420  76.4076 283.7045 14.79928948 52140
KUIPER-00141            
1 65966U 25228V   26262.49379986 -.00001577  00000+0 -17796-3 0  9998
2 65966  51.9009 203.7321 0001036  76.0817 284.0260 14.79926617 52208
KUIPER-00146            
1 65967U 25228W   26262.32227924  .00002199  00000+0  31731-3 0  9999
2 65967  51.9017 207.0028 0001022  68.2087 291.8984 14.79935301 52148
KUIPER-00149            
1 65968U 25228X   26263.10425654  .00001803  00000+0  26543-3 0  9993
2 65968  51.8996 198.4180 0000838  71.7265 288.3788 14.79935173 52338
KUIPER-00154            
1 65969U 25228Y   26263.07319806  .00000517  00000+0  96877-4 0  9990
2 65969  51.9013 196.0382 0000882  77.7454 282.3607 14.79930437 52368
KUIPER-00157            
1 65970U 25228Z   26263.09491598  .00001763  00000+0  28034-3 0  9996
2 65970  51.9019 198.1535 0001716 130.7983 229.3127 14.76652280 52332
KUIPER-00144            
1 67133U 25301A   26263.05442779  .00001643  00000+0  24442-3 0  9990
2 67133  51.9014 276.1448 0000642  64.3702 295.7326 14.79931958 42655
KUIPER-00164            
1 67134U 25301B   26263.10848747  .00000108  00000+0  43147-4 0  9991
2 67134  51.9036 288.4264 0000436  63.0138 297.0869 14.79929724 42668
KUIPER-00175            
1 67135U 25301C   26263.02606231  .00001526  00000+0  22910-3 0  9992
2 67135  51.9008 271.2229 0000536  36.4924 323.6075 14.79934758 42799
KUIPER-00179            
1 67136U 25301D   26262.77351121  .00001553  00000+0  23261-3 0  9999
2 67136  51.8990 287.3381 0000469  58.3796 301.7212 14.79933647 42652
KUIPER-00181            
1 67137U 25301E   26262.76005213 -.00000095  00000+0  16483-4 0  9997
2 67137  51.9044 299.9647 0000360  68.2883 291.8118 14.79928414 42453
KUIPER-00183            
1 67138U 25301F   26263.02876063  .00001661  00000+0  24676-3 0  9998
2 67138  51.9016 268.7798 0000471  64.6343 295.4668 14.79939490 42926
KUIPER-00184            
1 67139U 25301G   26263.01527418  .00001649  00000+0  24524-3 0  9993
2 67139  51.8996 281.2800 0000450  69.3898 290.7112 14.79937146 42851
KUIPER-00186            
1 67140U 25301H   26263.13145220  .00000829  00000+0  13773-3 0  9998
2 67140  51.9053 298.3307 0000327  71.0815 289.0183 14.79931406 42358
KUIPER-00187            
1 67141U 25301J   26263.12870757  .00002384  00000+0  34147-3 0  9994
2 67141  51.9025 300.8679 0000954 119.3492 240.7566 14.79959169 42313
KUIPER-00188            
1 67142U 25301K   26263.06254017  .00001707  00000+0  25291-3 0  9991
2 67142  51.9023 268.7461 0000554  57.1859 302.9156 14.79934128 42757
KUIPER-00191            
1 67143U 25301L   26262.83297304  .00001375  00000+0  20933-3 0  9991
2 67143  51.8999 294.6508 0000494  80.5827 279.5191 14.79936814 42401
KUIPER-00196            
1 67144U 25301M   26262.67622644  .00001683  00000+0  24972-3 0  9992
2 67144  51.8983 252.7953 0000627  66.2006 293.9022 14.79932990 42945
KUIPER-00204            
1 67145U 25301N   26262.49120248  .00001734  00000+0  25632-3 0  9997
2 67145  51.9011 268.6511 0000501  60.2676 299.8336 14.79941416 42826
KUIPER-00210            
1 67146U 25301P   26262.79919126  .00001631  00000+0  24282-3 0  9998
2 67146  51.9005 294.7465 0000363  53.1721 306.9275 14.79941072 42545
KUIPER-00221            
1 67147U 25301Q   26262.41969858  .00000993  00000+0  15927-3 0  9991
2 67147  51.9025 303.9611 0000615  68.4031 291.6997 14.79935296 42213
KUIPER-00232            
1 67148U 25301R   26262.80730278  .00001658  00000+0  24648-3 0  9996
2 67148  51.8997 287.2562 0000422  67.9395 292.1612 14.79927903 42477
KUIPER-00241            
1 67149U 25301S   26262.83026476  .00000161  00000+0  50106-4 0  9995
2 67149  51.9033 297.1794 0000713  64.8116 295.2920 14.79932763 42675
KUIPER-00245            
1 67150U 25301T   26262.14688810  .00001829  00000+0  26886-3 0  9996
2 67150  51.9051 307.7109 0000433  89.0825 271.0187 14.79935348 42130
KUIPER-00246            
1 67151U 25301U   26262.80459047  .00001015  00000+0  16212-3 0  9997
2 67151  51.9024 289.7376 0000355  71.6779 288.4222 14.79935333 42466
KUIPER-00247            
1 67152U 25301V   26262.74784378  .00000516  00000+0  96689-4 0  9991
2 67152  51.8963 279.9321 0000460  69.8721 290.2290 14.79930865 42575
KUIPER-00248            
1 67153U 25301W   26262.69921067  .00001631  00000+0  24290-3 0  9991
2 67153  51.8991 262.7929 0000557  65.3113 294.7907 14.79930439 42979
KUIPER-00249            
1 67154U 25301X   26262.75055841  .00000131  00000+0  46205-4 0  9992
2 67154  51.8982 277.5003 0000610  43.8713 316.2297 14.79930118 42600
KUIPER-00250            
1 67155U 25301Y   26262.56554193  .00000438  00000+0  86507-4 0  9995
2 67155  51.9022 293.2698 0000753  66.6560 293.4482 14.79928555 42405
KUIPER-00251            
1 67156U 25301Z   26262.71409535  .00001107  00000+0  17420-3 0  9993
2 67156  51.9001 280.1913 0000386  57.1212 302.9787 14.79931099 42758
KUIPER-00252            
1 67157U 25301AA  26263.04902830  .00001636  00000+0  24360-3 0  9995
2 67157  51.9008 281.1595 0000523  83.2368 276.8654 14.79935013 42581
KUIPER-00261            
1 67158U 25301AB  26262.80190647  .00001074  00000+0  16990-3 0  9990
2 67158  51.9028 292.3181 0000407  53.8503 306.2497 14.79936755 42402
KUIPER-00265            
1 67159U 25301AC  26262.75195681  .00001625  00000+0  24210-3 0  9994
2 67159  51.9036 307.5156 0000469  89.1618 270.9398 14.79927078 42225
KUIPER-00159            
1 67764U 26030A   26262.82193820  .00030410  00000+0  43058-2 0  9991
2 67764  51.9029  25.8853 0000841 130.3121 229.7914 14.76806610 34609
KUIPER-00160            
1 67765U 26030B   26262.91668981 -.00058896  00000+0 -77640-2 0  9991
2 67765  51.8982   6.7745 0002473  82.9417  61.0508 14.79932157  4891
KUIPER-00177            
1 67766U 26030C   26262.90144389  .00001702  00000+0  25224-3 0  9996
2 67766  51.8993  74.3225 0000851  99.2913 260.8146 14.79931394 33934
KUIPER-00178            
1 67767U 26030D   26261.98978539  .00000185  00000+0  53236-4 0  9995
2 67767  51.8997  78.3346 0000587 100.2734 259.8294 14.79932117 33809
KUIPER-00180            
1 67768U 26030E   26262.87306538  .00000277  00000+0  65397-4 0  9992
2 67768  51.8993  69.4171 0000779 140.3363 219.7657 14.79929629 34004
KUIPER-00197            
1 67769U 26030F   26262.96216539  .00002049  00000+0  29766-3 0  9992
2 67769  51.8990  49.0433 0000639 122.0194 238.0830 14.79931460 34295
KUIPER-00198            
1 67770U 26030G   26262.71232586 -.00001514  00000+0 -16970-3 0  9998
2 67770  51.8976  62.6212 0000826 114.0740 246.0309 14.79926788 34087
KUIPER-00199            
1 67771U 26030H   26262.91668981 -.01265177  00000+0 -75661-1 0  9991
2 67771  51.8870   2.9882 0012211  29.4886 241.4918 15.13737915  5862
KUIPER-00200            
1 67772U 26030J   26262.93110384 -.00000895  00000+0 -88433-4 0  9990
2 67772  51.8991  46.6997 0000719 111.0770 249.0269 14.79929226 34324
KUIPER-00203            
1 67773U 26030K   26262.89605676  .00001850  00000+0  27159-3 0  9996
2 67773  51.9041  79.4284 0000999 114.3097 245.7970 14.79931511 33863
KUIPER-00205            
1 67774U 26030L   26262.39355195  .00002126  00000+0  30770-3 0  9990
2 67774  51.9013  46.5418 0000560 107.6094 252.4930 14.79936256 34282
KUIPER-00208            
1 67775U 26030M   26262.06000905  .00000073  00000+0  38649-4 0  9994
2 67775  51.8975  75.5133 0001343 115.6759 244.4342 14.79928338 33843
KUIPER-00209            
1 67776U 26030N   26262.83931020  .00001918  00000+0  28057-3 0  9991
2 67776  51.8986  69.6678 0000747 123.6723 236.4311 14.79934654 33992
KUIPER-00213            
1 67777U 26030P   26262.94328356  .00001920  00000+0  28071-3 0  9995
2 67777  51.8958  66.6642 0000733 122.7544 237.3490 14.79943116 34044
KUIPER-00214            
1 67778U 26030Q   26262.03434351  .00002141  00000+0  30977-3 0  9993
2 67778  51.8993  68.2211 0000623 112.2744 247.8285 14.79937728 33946
KUIPER-00215            
1 67779U 26030R   26262.14910460  .00001957  00000+0  28559-3 0  9993
2 67779  51.8984  55.0674 0000617 121.9124 238.1898 14.79934805 34145
KUIPER-00218            
1 67780U 26030S   26261.96410240 -.00000123  00000+0  12880-4 0  9991
2 67780  51.8970  70.9248 0000675 111.7666 248.3369 14.79930953 33906
KUIPER-00220            
1 67781U 26030T   26262.93649387  .00000280  00000+0  65683-4 0  9998
2 67781  51.8959  41.6481 0000599 112.4704 247.6322 14.79929574 34396
KUIPER-00222            
1 67782U 26030U   26262.88117290  .00000656  00000+0  11509-3 0  9990
2 67782  51.8999  62.0300 0001162 141.8904 218.2141 14.79931351 34101
KUIPER-00223            
1 67783U 26030V   26262.92300079  .00002063  00000+0  29950-3 0  9998
2 67783  51.9005  54.1553 0000603 119.7742 240.3280 14.79934700 34220
KUIPER-00225            
1 67784U 26030W   26262.78256786 -.00000652  00000+0 -56487-4 0  9998
2 67784  51.8964  59.9248 0000538  90.5125 269.5899 14.79923198 34123
KUIPER-00226            
1 67785U 26030X   26259.92611342  .00002393  00000+0  33846-3 0  9999
2 67785  51.8996  59.9374 0002437 320.9208  39.1578 14.80496066 33889
KUIPER-00259            
1 67786U 26030Y   26262.41113537  .00001299  00000+0  19935-3 0  9998
2 67786  51.8980  61.4677 0000651 122.6849 237.4176 14.79936059 34079
KUIPER-00260            
1 67787U 26030Z   26262.00866713  .00002246  00000+0  32355-3 0  9999
2 67787  51.9003  60.8587 0000792 126.2184 233.8852 14.79938220 33957
KUIPER-00262            
1 67788U 26030AA  26262.92031144  .00002038  00000+0  29629-3 0  9992
2 67788  51.8996  56.7459 0000931 114.0945 246.0115 14.79934186 34186
KUIPER-00266            
1 67789U 26030AB  26262.14641135  .00002103  00000+0  30475-3 0  9998
2 67789  51.8996  57.6569 0000846 120.6659 239.4387 14.79933213 34108
KUIPER-00268            
1 67790U 26030AC  26262.92571443  .00001891  00000+0  27704-3 0  9994
2 67790  51.9039  51.7543 0000810 132.9509 227.1522 14.79927815 34259
KUIPER-00270            
1 67791U 26030AD  26262.90273150  .00004502  00000+0  61938-3 0  9996
2 67791  51.8993  41.8025 0000948 113.4329 246.6733 14.79920254 34394
KUIPER-00274            
1 67792U 26030AE  26262.87845113  .00001675  00000+0  24869-3 0  9997
2 67792  51.9014  64.4279 0000556 125.4780 234.6235 14.79931180 34070
KUIPER-00275            
1 67793U 26030AF  26262.96755748  .00000375  00000+0  78258-4 0  9990
2 67793  51.9012  44.0277 0000604 130.1455 229.9561 14.79930232 34365
KUIPER-00276            
1 67794U 26030AG  26262.38815426  .00001942  00000+0  28360-3 0  9996
2 67794  51.8993  51.5664 0000949  95.2667 264.8403 14.79938873 34210
KUIPER-00279            
1 67795U 26030AH  26262.90541967  .00001955  00000+0  28525-3 0  9998
2 67795  51.9035  39.3317 0000491  47.1691 312.9313 14.79941889 34422
KUIPER-00131            
1 68573U 26072A   26263.10414851  .00001920  00000+0  28080-3 0  9991
2 68573  51.9011 135.9298 0000839 107.3835 252.7220 14.79930679 25172
KUIPER-00189            
1 68574U 26072B   26262.25731951  .00001530  00000+0  22974-3 0  9993
2 68574  51.9002 142.1499 0000713 118.7571 241.3463 14.79925053 25016
KUIPER-00192            
1 68575U 26072C   26263.03930640  .00001961  00000+0  28609-3 0  9996
2 68575  51.9000 133.7113 0001070 101.0749 259.0333 14.79937964 25200
KUIPER-00193            
1 68576U 26072D   26262.98257383  .00001961  00000+0  28619-3 0  9997
2 68576  51.9048 124.0111 0001073 110.3425 249.7653 14.79933888 25337
KUIPER-00194            
1 68577U 26072E   26263.00824473  .00001792  00000+0  26400-3 0  9990
2 68577  51.9017 131.3756 0000880 101.1672 258.9389 14.79925758 25231
KUIPER-00229            
1 68578U 26072F   26263.00285411 -.00000181  00000+0  52074-5 0  9994
2 68578  51.9003 136.3802 0000644 117.4969 242.6059 14.79932147 25167
KUIPER-00230            
1 68579U 26072G   26263.16670139 -.00084439  00000+0 -10602-1 0  9993
2 68579  51.9026  82.8762 0001223  52.8425 298.5983 14.82171163  1376
KUIPER-00231            
1 68580U 26072H   26263.16758191  .00001849  00000+0  27151-3 0  9991
2 68580  51.8982 108.2209 0002046 114.8871 245.2304 14.79930319 25560
KUIPER-00234            
1 68581U 26072J   26262.90695337 -.00000049  00000+0  22601-4 0  9993
2 68581  51.9009 131.7864 0001014  98.9682 261.1395 14.79923562 25217
KUIPER-00236            
1 68582U 26072K   26263.00003471  .00030168  00000+0  42976-2 0  9997
2 68582  51.9025  86.3259 0001437 201.4142  67.4828 14.76551518  4513
KUIPER-00244            
1 68583U 26072L   26263.01903991  .00000949  00000+0  15346-3 0  9991
2 68583  51.8995 121.3162 0001358  88.7203 271.3915 14.79929197 25373
KUIPER-00253            
1 68584U 26072M   26262.94880902  .00001881  00000+0  27571-3 0  9998
2 68584  51.9044 124.1524 0001058  94.8762 265.2321 14.79931204 25328
KUIPER-00254            
1 68585U 26072N   26262.97987288  .00001797  00000+0  26475-3 0  9995
2 68585  51.9025 126.5123 0001306  79.3925 280.7184 14.79930887 25295
KUIPER-00263            
1 68586U 26072P   26262.99606154  .00001772  00000+0  26141-3 0  9991
2 68586  51.9017 111.5068 0000743 111.4422 248.6620 14.79931728 25500
KUIPER-00269            
1 68587U 26072Q   26262.99335110  .00001842  00000+0  27050-3 0  9991
2 68587  51.8998 113.9254 0001108 106.9124 253.1960 14.79939194 25474
KUIPER-00272            
1 68588U 26072R   26263.07306961  .00001917  00000+0  28035-3 0  9991
2 68588  51.8990 133.5390 0001029 117.9863 242.1204 14.79933692 25207
KUIPER-00285            
1 68589U 26072S   26262.95959221  .00001861  00000+0  27300-3 0  9993
2 68589  51.9046 114.1578 0001460  83.5279 276.5850 14.79941436 25463
KUIPER-00286            
1 68590U 26072T   26263.16487897  .00001011  00000+0  16162-3 0  9995
2 68590  51.9002 110.6780 0000967 133.0739 227.0304 14.79930698 25537
KUIPER-00289            
1 68591U 26072U   26263.15678280  .00001882  00000+0  27581-3 0  9996
2 68591  51.8984 118.1902 0001078 106.1449 253.9632 14.79931372 25428
KUIPER-00290            
1 68592U 26072V   26262.11001900 -.00003333  00000+0 -40840-3 0  9999
2 68592  51.9010 122.8269 0000744  57.5446 302.5588 14.79937780 25276
KUIPER-00293            
1 68593U 26072W   26263.01093527  .00001927  00000+0  28178-3 0  9991
2 68593  51.8982 128.8149 0001779  59.6780 300.4358 14.79931262 25260
KUIPER-00294            
1 68594U 26072X   26263.02442843  .00000521  00000+0  97416-4 0  9993
2 68594  51.9004 116.2756 0000765 119.0877 241.0162 14.79929141 25440
KUIPER-00296            
1 68595U 26072Y   26262.26669279  .00001345  00000+0  20534-3 0  9994
2 68595  51.9012 102.1460 0000359 136.7833 223.3158 14.79937871 25574
KUIPER-00297            
1 68596U 26072Z   26263.04469799  .00001844  00000+0  27083-3 0  9997
2 68596  51.8994 128.6654 0001375 109.8403 250.2708 14.79936690 25279
KUIPER-00300            
1 68597U 26072AA  26263.01363101  .00001874  00000+0  27476-3 0  9994
2 68597  51.9028 126.3390 0000828 110.9273 249.1778 14.79937811 25305
KUIPER-00301            
1 68598U 26072AB  26263.03319088  .00001210  00000+0  20264-3 0  9994
2 68598  51.9017  95.7818 0001877 193.9033 166.1876 14.76502916 25722
KUIPER-00304            
1 68599U 26072AC  26262.92764647  .00001432  00000+0  23365-3 0  9998
2 68599  51.9006  98.1982 0000664  34.0017 326.0986 14.76617257 25689
KUIPER-00317            
1 68600U 26072AD  26262.92312992  .00000165  00000+0  50618-4 0  9997
2 68600  51.9003 116.7315 0000919 103.4830 256.6235 14.79930997 25422
KUIPER-00320            
1 68601U 26072AE  26262.98525141 -.00000504  00000+0 -37133-4 0  9992
2 68601  51.9021 121.4732 0000794 105.9380 254.1670 14.79929962 25366
KUIPER-00299            
1 68864U 26095A   26261.52538800  .00007164  00000+0  96823-3 0  9990
2 68864  51.9000 197.8905 0001203 102.1023 258.0074 14.79912269 21439
KUIPER-00353            
1 68865U 26095B   26263.12853108  .00000045  00000+0  34876-4 0  9992
2 68865  51.8998 175.8275 0001003 135.6911 224.4131 14.79926670 21887
KUIPER-00357            
1 68866U 26095C   26263.15420581  .00002256  00000+0  32484-3 0  9999
2 68866  51.9014 183.2242 0001162  67.5101 292.5984 14.79933732 21783
KUIPER-00364            
1 68867U 26095D   26262.30739716  .00000146  00000+0  48188-4 0  9994
2 68867  51.9036 189.4929 0001422  56.5156 303.5943 14.79928199 21627
KUIPER-00375            
1 68868U 26095E   26262.48429859 -.00000009  00000+0  27804-4 0  9999
2 68868  51.9016 181.1808 0000523 104.5867 255.5153 14.79934886 21758
KUIPER-00433            
1 68869U 26095F   26262.19800401 -.00000585  00000+0 -47672-4 0  9999
2 68869  51.8977 197.4432 0000933  49.7388 310.3656 14.79929453 21505
KUIPER-00437            
1 68870U 26095G   26263.16670139 -.00041331  00000+0 -33095-2 0  9998
2 68870  51.8889 145.7249 0009823 286.4913 214.0036 14.99676154  2322
KUIPER-00448            
1 68871U 26095H   26263.04757870  .00001201  00000+0  20218-3 0  9998
2 68871  51.9041 183.6367 0003489  55.0253 305.1035 14.76334868 21763
KUIPER-00459            
1 68872U 26095J   26263.03264110 -.00000728  00000+0 -66463-4 0  9996
2 68872  51.9025 171.3215 0000803  91.0078 269.0976 14.79925802 21932
KUIPER-00468            
1 68873U 26095K   26262.22168116  .00001390  00000+0  22759-3 0  9999
2 68873  51.8986 172.4191 0000850 167.6942 192.4040 14.76625847 21850
KUIPER-00476            
1 68874U 26095L   26263.16670139 -.00013386  00000+0 -14697-2 0  9998
2 68874  51.8965 150.7101 0011620 276.3257 253.4606 14.86583520  5627
KUIPER-00478            
1 68875U 26095M   26263.02993973  .00000135  00000+0  46683-4 0  9996
2 68875  51.9027 173.7675 0000812  85.9458 274.1597 14.79923657 21906
KUIPER-00480            
1 68876U 26095N   26262.99885395  .00001936  00000+0  28290-3 0  9993
2 68876  51.9040 171.4207 0000887  91.2902 268.8162 14.79931626 21930
KUIPER-00482            
1 68877U 26095P   26263.19067045  .00000684  00000+0  11871-3 0  9997
2 68877  51.9007 180.5596 0001600  43.4041 316.7047 14.79932773 21820
KUIPER-00483            
1 68878U 26095Q   26263.17712501  .00002271  00000+0  32734-3 0  9995
2 68878  51.8984 193.0809 0001682   6.5579 353.5405 14.79860867 21647
KUIPER-00488            
1 68879U 26095R   26263.16229755  .00002108  00000+0  30542-3 0  9993
2 68879  51.8984 175.6908 0001226  80.4588 279.6512 14.79934610 21880
KUIPER-00489            
1 68880U 26095S   26262.96778848  .00002119  00000+0  30680-3 0  9999
2 68880  51.8957 169.0310 0001346  86.5870 273.5246 14.79938183 21965
KUIPER-00499            
1 68881U 26095T   26263.06368454  .00004234  00000+0  58378-3 0  9994
2 68881  51.8983 173.6680 0001139  75.2039 284.9050 14.79955297 21906
KUIPER-00500            
1 68882U 26095U   26263.17988655  .00000088  00000+0  40524-4 0  9996
2 68882  51.9007 190.6033 0000788  76.9308 283.1742 14.79930847 21680
KUIPER-00502            
1 68883U 26095V   26262.45423815  .00002310  00000+0  33188-3 0  9996
2 68883  51.8996 170.0666 0001395  71.5000 288.6114 14.79933280 21908
KUIPER-00503            
1 68884U 26095W   26263.14881514  .00000786  00000+0  13218-3 0  9995
2 68884  51.8989 188.2148 0001018  77.6173 282.4903 14.79930150 21717
KUIPER-00504            
1 68885U 26095X   26262.22907275  .00002159  00000+0  31209-3 0  9993
2 68885  51.9008 199.8150 0000756  83.1065 276.9983 14.79929502 21470
KUIPER-00505            
1 68886U 26095Y   26263.15150545  .00002273  00000+0  32700-3 0  9991
2 68886  51.9007 185.7364 0000696  85.3608 274.7434 14.79936521 21747
KUIPER-00507            
1 68887U 26095Z   26262.26753057  .00000261  00000+0  63280-4 0  9993
2 68887  51.8992 179.6284 0000954  86.1068 274.0003 14.79928117 21757
KUIPER-00511            
1 68888U 26095AA  26262.46133292  .00000719  00000+0  12333-3 0  9999
2 68888  51.9014 171.3818 0001068  76.4425 283.6656 14.79928091 21887
KUIPER-00512            
1 68889U 26095AB  26263.18258251 -.00000779  00000+0 -73211-4 0  9994
2 68889  51.9007 188.1020 0000900  82.9914 277.1150 14.79927814 21711
KUIPER-00519            
1 68890U 26095AC  26262.51806754  .00000928  00000+0  15068-3 0  9998
2 68890  51.9006 181.1069 0000582  65.8473 294.2551 14.79929827 21759
KUIPER-00521            
1 68891U 26095AD  26263.19164978  .00002057  00000+0  29884-3 0  9995
2 68891  51.9024 171.8202 0000723  92.1202 267.9843 14.79928327 21941
KUIPER-00524            
1 68892U 26095AE  26263.15690479 -.00000407  00000+0 -24451-4 0  9997
2 68892  51.8949 180.6870 0000702  58.6113 301.4918 14.79926825 21815
KUIPER-00370            
1 68919U 26098A   26262.57712705  .00002162  00000+0  31243-3 0  9996
2 68919  51.9001   0.6312 0000300 103.4583 256.6413 14.79939825 21467
KUIPER-00380            
1 68920U 26098B   26263.19301531  .00000852  00000+0  14076-3 0  9997
2 68920  51.9006 350.5468 0000283  87.2839 272.8155 14.79933957 21650
KUIPER-00386            
1 68921U 26098C   26262.80202254  .00000183  00000+0  53025-4 0  9992
2 68921  51.9005 354.7702 0000515  91.6341 268.4680 14.79927629 21565
KUIPER-00388            
1 68922U 26098D   26262.77436418  .00002090  00000+0  30310-3 0  9990
2 68922  51.9016   5.0533 0000374  98.8431 261.2574 14.79935381 21419
KUIPER-00405            
1 68923U 26098E   26262.99652330  .00000715  00000+0  12283-3 0  9999
2 68923  51.9021   1.4264 0000628 197.3635 162.7306 14.79927994 21486
KUIPER-00408            
1 68924U 26098F   26262.24488683  .00002216  00000+0  31957-3 0  9993
2 68924  51.9010 357.1614 0000445  96.4855 263.6158 14.79932190 21485
KUIPER-00409            
1 68925U 26098G   26262.96544257  .00001998  00000+0  29107-3 0  9993
2 68925  51.9033 359.0622 0000486  95.8187 264.2831 14.79930486 21512
KUIPER-00410            
1 68926U 26098H   26262.63049844  .00000683  00000+0  11861-3 0  9998
2 68926  51.8990 358.0163 0000710 154.7105 205.3892 14.79928098 21506
KUIPER-00412            
1 68927U 26098J   26262.95935262  .00000970  00000+0  15619-3 0  9996
2 68927  51.9040 349.0986 0000241 135.1823 224.9159 14.79930276 21656
KUIPER-00413            
1 68928U 26098K   26262.97963655  .00000842  00000+0  13938-3 0  9996
2 68928  51.9013   1.4805 0000438 185.2426 174.8531 14.79929726 21485
KUIPER-00414            
1 68929U 26098L   26262.80003728  .00000635  00000+0  11226-3 0  9993
2 68929  51.8990  12.3571 0001235 138.8572 221.2484 14.79929355 21316
KUIPER-00415            
1 68930U 26098M   26262.95396757 -.00000069  00000+0  19950-4 0  9993
2 68930  51.9037 354.1124 0000487  99.8108 260.2910 14.79927756 21580
KUIPER-00416            
1 68931U 26098N   26262.56668011  .00001060  00000+0  16801-3 0  9998
2 68931  51.9032 347.1757 0000498 113.3245 246.7770 14.79929239 21644
KUIPER-00420            
1 68932U 26098P   26262.96201907  .00002374  00000+0  34014-3 0  9995
2 68932  51.9049 346.5389 0000187 261.4186  98.6755 14.79955508 21691
KUIPER-00421            
1 68933U 26098Q   26262.95665321  .00001311  00000+0  20092-3 0  9990
2 68933  51.9023 351.5446 0000424  86.3082 273.7929 14.79930190 21629
KUIPER-00425            
1 68934U 26098R   26263.21869297  .00000873  00000+0  14355-3 0  9996
2 68934  51.8978 357.9277 0000770 102.8370 257.2678 14.79935667 21552
KUIPER-00430            
1 68935U 26098S   26262.94584476  .00001336  00000+0  20415-3 0  9998
2 68935  51.9022   1.5385 0000117 108.4655 251.6320 14.79932015 21487
KUIPER-00431            
1 68936U 26098T   26263.01070740  .00001368  00000+0  20840-3 0  9999
2 68936  51.9008   3.8376 0000514 121.4693 238.6320 14.79932091 21451
KUIPER-00432            
1 68937U 26098U   26262.27595075 -.00000069  00000+0  20019-4 0  9997
2 68937  51.8988 359.4841 0000776 116.4095 243.6947 14.79932394 21452
KUIPER-00434            
1 68938U 26098V   26262.32471981  .00001294  00000+0  21512-3 0  9991
2 68938  51.9027   3.3225 0001521 133.5811 226.5276 14.76392810 21404
KUIPER-00436            
1 68939U 26098W   26262.32391157  .00002053  00000+0  29830-3 0  9993
2 68939  51.9003   1.8872 0000502  95.5693 264.5327 14.79927705 21424
KUIPER-00438            
1 68940U 26098X   26262.79932712 -.00000172  00000+0  64183-5 0  9997
2 68940  51.9041 357.3107 0000497  87.9580 272.1439 14.79924492 21521
KUIPER-00439            
1 68941U 26098Y   26262.91748932  .00002236  00000+0  32225-3 0  9993
2 68941  51.9038 356.7788 0000683  74.2551 285.8487 14.79919753 21540
KUIPER-00440            
1 68942U 26098Z   26262.94246794  .00002022  00000+0  29414-3 0  9995
2 68942  51.9048 349.1672 0000463   6.7386 353.3582 14.79932508 21654
KUIPER-00442            
1 68943U 26098AA  26262.53444794  .00001919  00000+0  28049-3 0  9998
2 68943  51.9016 353.4884 0000221 175.2847 184.8118 14.79952674 21556
KUIPER-00446            
1 68944U 26098AB  26262.76825662 -.00000410  00000+0 -24758-4 0  9992
2 68944  51.9014 354.9374 0000557 221.1569 138.9351 14.79930841 21550
KUIPER-00451            
1 68945U 26098AC  26262.62240700  .00000907  00000+0  14792-3 0  9997
2 68945  51.9015   5.5641 0000352 133.4554 226.6438 14.79932494 21399
KUIPER-00452            
1 68946U 26098AD  26262.97354404  .00000500  00000+0  94565-4 0  9999
2 68946  51.9038 351.5291 0000426  91.3959 268.7052 14.79931856 21629
KUIPER-00453            
1 68947U 26098AE  26263.19569385  .00001472  00000+0  22208-3 0  9994
2 68947  51.8991 347.9637 0001960 140.5852 219.5253 14.79937021 21697
KUIPER-00454            
1 68948U 26098AF  26262.63654547  .00000963  00000+0  15545-3 0  9998
2 68948  51.9015   7.9907 0000933 102.9495 257.1572 14.79910933 21362
KUIPER-00455            
1 68949U 26098AG  26262.99382309  .00000199  00000+0  55078-4 0  9999
2 68949  51.9023   3.9250 0001522 142.8320 217.2748 14.79931393 21459
KUIPER-00458            
1 68950U 26098AH  26262.77364638  .00001154  00000+0  18037-3 0  9997
2 68950  51.9007 349.9225 0000642  94.7306 265.3730 14.79930110 21629
KUIPER-00282            
1 69267U 26118A   26262.91679679  .00000387  00000+0  79811-4 0  9997
2 69267  51.8996 341.7450 0000238 216.0620 144.0326 14.79928365 18186
KUIPER-00383            
1 69268U 26118B   26263.20650081  .00000419  00000+0  83970-4 0  9994
2 69268  51.9002 337.9861 0000257  91.3321 268.7671 14.79929707 18269
KUIPER-00527            
1 69269U 26118C   26262.49744538  .00000977  00000+0  15712-3 0  9993
2 69269  51.8983 341.2529 0000473  91.2020 268.8997 14.79931141 18156
KUIPER-00562            
1 69270U 26118D   26263.21465021  .00051256  00000+0  67173-2 0  9996
2 69270  51.9041 330.3968 0001411  59.6133 300.4968 14.79832570 18377
KUIPER-00570            
1 69271U 26118E   26262.49204999  .00000499  00000+0  94396-4 0  9993
2 69271  51.9001 346.2473 0000272  62.0310 298.0680 14.79931622 18078
KUIPER-00572            
1 69272U 26118F   26262.95323365  .00002426  00000+0  34702-3 0  9990
2 69272  51.9021 339.1019 0000315  67.8803 292.2192 14.79949747 18224
KUIPER-00581            
1 69273U 26118G   26263.21795874  .00003783  00000+0  52471-3 0  9999
2 69273  51.9068 342.9404 0001060 190.4394 169.6547 14.79949920 18282
KUIPER-00584            
1 69274U 26118H   26262.92829807  .00001226  00000+0  18976-3 0  9993
2 69274  51.9021 346.8316 0000250  86.4021 273.6970 14.79932471 18119
KUIPER-00587            
1 69275U 26118J   26262.48324811  .00002070  00000+0  30047-3 0  9991
2 69275  51.9025 338.6893 0000619  95.8249 264.2784 14.79932937 18192
KUIPER-00590            
1 69276U 26118K   26261.26231531  .00002028  00000+0  29490-3 0  9996
2 69276  51.9034 349.0972 0000541 129.8640 230.2370 14.79935604 17944
KUIPER-00592            
1 69277U 26118L   26262.73114836  .00005889  00000+0  79983-3 0  9998
2 69277  51.9026 342.4829 0000550 122.4181 237.6835 14.79985868 18162
KUIPER-00593            
1 69278U 26118M   26263.15514200  .00001705  00000+0  25273-3 0  9991
2 69278  51.9013 323.2258 0001293 172.1495 187.9488 14.79925068 18524
KUIPER-00594            
1 69279U 26118N   26263.21727113  .00001637  00000+0  24373-3 0  9992
2 69279  51.9036 327.9580 0001269  83.9450 276.1656 14.79939301 18402
KUIPER-00595            
1 69280U 26118P   26262.71627099  .00001724  00000+0  25517-3 0  9998
2 69280  51.9016 325.1240 0001165 182.1933 177.9024 14.79920267 18439
KUIPER-00596            
1 69281U 26118Q   26262.70881591  .00002073  00000+0  30077-3 0  9992
2 69281  51.9035 347.6953 0000351  97.4798 262.6205 14.79935157 18082
KUIPER-00597            
1 69282U 26118R   26263.18617130  .00003983  00000+0  55118-3 0  9996
2 69282  51.8987 325.5834 0001991  49.3525 310.7610 14.79935183 18439
KUIPER-00599            
1 69283U 26118S   26262.80400074  .00000008  00000+0  30052-4 0  9998
2 69283  51.9038 337.1874 0000121 149.8599 210.2370 14.79929088 18245
KUIPER-00600            
1 69284U 26118T   26262.67974241 -.00002995  00000+0 -36381-3 0  9995
2 69284  51.9022 327.7399 0001785  49.0645 311.0472 14.79948156 18369
KUIPER-00601            
1 69285U 26118U   26262.69732865  .00001091  00000+0  17206-3 0  9991
2 69285  51.9015 342.7420 0000363  87.9951 272.1053 14.79926328 18152
KUIPER-00602            
1 69286U 26118V   26262.77292490  .00001881  00000+0  27570-3 0  9998
2 69286  51.9024 334.8234 0000416 217.8588 142.2345 14.79933721 18276
KUIPER-00603            
1 69287U 26118W   26262.51700665  .00001966  00000+0  28677-3 0  9992
2 69287  51.9060 338.5469 0000335  87.6546 272.4455 14.79935416 18197
KUIPER-00605            
1 69288U 26118X   26262.50892153  .00000807  00000+0  13489-3 0  9994
2 69288  51.9010 346.0584 0000315  87.1865 272.9133 14.79928902 18091
KUIPER-00606            
1 69289U 26118Y   26263.17543537  .00001858  00000+0  27266-3 0  9993
2 69289  51.9028 335.6304 0000331  87.3727 272.7273 14.79927733 18298
KUIPER-00607            
1 69290U 26118Z   26263.16932995  .00001729  00000+0  25579-3 0  9996
2 69290  51.9022 325.6641 0001359  17.7277 342.3732 14.79936963 18430
KUIPER-00608            
1 69291U 26118AA  26262.91338139 -.00001099  00000+0 -11515-3 0  9996
2 69291  51.9017 329.1554 0001035  76.0589 284.0488 14.79930746 18367
KUIPER-00610            
1 69292U 26118AB  26263.21188878  .00000186  00000+0  53431-4 0  9992
2 69292  51.9027 332.9685 0000322  72.6685 287.4313 14.79930903 18339
KUIPER-00613            
1 69293U 26118AC  26263.20111174  .00001895  00000+0  27754-3 0  9993
2 69293  51.9035 343.0157 0000305  85.0621 275.0376 14.79927195 18190
KUIPER-00618            
1 69294U 26118AD  26263.18081619  .00000131  00000+0  46177-4 0  9994
2 69294  51.9052 330.6139 0001604 193.9652 166.1266 14.79929268 18368
KUIPER-00620            
1 69295U 26118AE  26263.19500910 -.00000434  00000+0 -28008-4 0  9997
2 69295  51.9048 333.0565 0000301  56.2812 303.8179 14.79928149 18333
KUIPER-00423            
1 69592U 26140A   26263.16670139 -.00004708  00000+0 -63856-3 0  9997
2 69592  51.9013 305.5401 0001509 131.9738  74.3003 14.76572004  5252
KUIPER-00428            
1 69593U 26140B   26263.11062154  .00023993  00000+0  64094-3 0  9995
2 69593  51.8790 299.9655 0004919 269.5999  90.4424 15.37956749 15837
KUIPER-00481            
1 69594U 26140C   26263.16837432  .00000671  00000+0  12598-3 0  9990
2 69594  51.9015 310.4904 0001926 340.4685  19.6202 14.76499259 15692
KUIPER-00490            
1 69595U 26140D   26262.42039513  .00001853  00000+0  27199-3 0  9999
2 69595  51.9054 318.9246 0000405  77.2561 282.8447 14.79931795 15512
KUIPER-00493            
1 69596U 26140E   26263.19159918  .00001721  00000+0  25465-3 0  9995
2 69596  51.9047 320.5643 0000647 301.2961  58.7938 14.79934446 15552
KUIPER-00496            
1 69597U 26140F   26263.16670139 -.00035349  00000+0 -31532-2 0  9992
2 69597  51.8960 304.9666 0005639 280.6215 262.2801 14.95466585  4343
KUIPER-00513            
1 69598U 26140G   26262.85934457  .00001663  00000+0  24706-3 0  9990
2 69598  51.9008 317.0280 0000373  78.4377 281.6627 14.79932696 15578
KUIPER-00516            
1 69599U 26140H   26263.16670139 -.00084213  00000+0 -58587-2 0  9997
2 69599  51.8882 301.1269 0006546 202.4658 169.6809 15.05348761  5073
KUIPER-00517            
1 69600U 26140J   26263.16670139 -.01453186  00000+0 -61457-1 0  9999
2 69600  51.8844 299.5820 0009831 172.4194 196.6968 15.26033256  5718
KUIPER-00520            
1 69601U 26140K   26263.17746718  .00000665  00000+0  12487-3 0  9996
2 69601  51.9024 317.5961 0000863 193.6524 166.4414 14.76603771 15592
KUIPER-00522            
1 69602U 26140L   26263.16670139 -.00006138  00000+0 -73495-3 0  9998
2 69602  51.9024 305.6807 0008507 140.4705  86.8661 14.82180383  3743
KUIPER-00528            
1 69603U 26140M   26263.17740988  .00001878  00000+0  27526-3 0  9998
2 69603  51.9038 318.1388 0000323  66.4370 293.6627 14.79944701 15588
KUIPER-00532            
1 69604U 26140N   26263.16670139 -.00040893  00000+0 -37810-2 0  9996
2 69604  51.8958 303.5959 0004184 237.2638  13.2759 14.94139205  5162
KUIPER-00533            
1 69605U 26140P   26262.15298443 -.00000006  00000+0  28223-4 0  9990
2 69605  51.9025 317.6635 0000393  69.7213 290.3791 14.79931300 15503
KUIPER-00534            
1 69606U 26140Q   26263.16670139 -.00003042  00000+0 -91734-4 0  9990
2 69606  51.8811 300.5473 0013035 131.2397 122.0241 15.29609695  4988
KUIPER-00537            
1 69607U 26140R   26262.88771277 -.00000518  00000+0 -38912-4 0  9998
2 69607  51.9013 321.8263 0000733   2.8009 357.2957 14.79927520 15512
KUIPER-00538            
1 69608U 26140S   26262.85676706  .00001733  00000+0  25618-3 0  9993
2 69608  51.9041 319.4888 0000707  20.2099 339.8892 14.79945452 15545
KUIPER-00540            
1 69609U 26140T   26262.70821204  .00014604  00000+0  38990-3 0  9991
2 69609  51.8821 301.7827 0005050 268.0567  91.9841 15.38334333 15777
KUIPER-00541            
1 69610U 26140U   26263.16670139 -.01895365  00000+0 -10625+0 0  9998
2 69610  51.8896 299.9448 0006863 184.0592 332.5310 15.16342117  4864
KUIPER-00542            
1 69611U 26140V   26263.16670139 -.00252116  00000+0 -10956-1 0  9998
2 69611  51.8864 299.4407 0008024 162.3714 240.8748 15.22876303  4565
KUIPER-00543            
1 69612U 26140W   26263.16670139 -.00036966  00000+0 -36597-2 0  9992
2 69612  51.8987 303.5061 0003169 213.8424 294.5003 14.91394533  4565
KUIPER-00544            
1 69613U 26140X   26263.16670139 -.01859464  00000+0 -11276+0 0  9994
2 69613  51.8850 300.2266 0006645 173.7514 268.2650 15.13525066  4267
KUIPER-00546            
1 69614U 26140Y   26263.16670139 -.00064487  00000+0 -81303-2 0  9998
2 69614  51.9004 305.6894 0015011 124.9388 187.8795 14.81753148  2701
KUIPER-00547            
1 69615U 26140Z   26263.16670139 -.01884640  00000+0 -61298-1 0  9991
2 69615  51.8817 299.0653 0011019 159.3295 101.6732 15.34740138  5538
KUIPER-00549            
1 69616U 26140AA  26263.16670139 -.00031919  00000+0 -25158-2 0  9990
2 69616  51.8958 301.5679 0004536 226.9805 174.9566 15.00189249  5784
KUIPER-00550            
1 69617U 26140AB  26263.16670139 -.00021926  00000+0 -15983-2 0  9993
2 69617  51.8870 305.4219 0003540 298.7217 109.3365 15.02943342  1935
KUIPER-00551            
1 69618U 26140AC  26262.70771584  .00018960  00000+0  50013-3 0  9995
2 69618  51.8785 301.0146 0010979 146.8724 213.2953 15.38458258 15784
KUIPER-00554            
1 69619U 26140AD  26262.72615761  .00009708  00000+0  27258-3 0  9997
2 69619  51.8777 301.1329 0009702 157.9334 202.2073 15.37169600 15782
KUIPER-00555            
1 69620U 26140AE  26263.10970838  .00017688  00000+0  48827-3 0  9992
2 69620  51.8871 299.2432 0010170 149.6451 210.5127 15.37108191 15847
KUIPER-00556            
1 69621U 26140AF  26263.13765015  .00008635  00000+0  11645-2 0  9994
2 69621  51.8987 308.3014 0000419  66.9991 293.1015 14.79775721 15723
KUIPER-00557            
1 69622U 26140AG  26263.16670139 -.00003281  00000+0 -81128-4 0  9999
2 69622  51.8807 299.1005 0008908 166.6735  79.5686 15.36008139  3348
KUIPER-00560            
1 69623U 26140AH  26262.76891726  .00009820  00000+0  27633-3 0  9995
2 69623  51.8793 301.4105 0008174 186.5114 173.5767 15.37097804 15782
KUIPER-00561            
1 69624U 26140AJ  26263.13213552  .00001611  00000+0  24036-3 0  9997
2 69624  51.9027 313.2992 0000629  90.4493 269.6541 14.79916968 15658
KUIPER-00564            
1 69625U 26140AK  26261.20718696  .00003404  00000+0  51350-3 0  9994
2 69625  51.8983 319.2870 0002494 115.6463 244.4756 14.76595908 15405
KUIPER-00567            
1 69626U 26140AL  26263.17128488 -.00000877  00000+0 -85957-4 0  9991
2 69626  51.8987 308.1525 0002287 135.2669 224.8478 14.79935213 15728
KUIPER-00573            
1 69627U 26140AM  26263.13485103  .00001622  00000+0  24169-3 0  9992
2 69627  51.9028 310.8238 0000383 114.7240 245.3762 14.79931105 15684
KUIPER-00258            
1 69763U 26151A   26263.16670139 -.00037757  00000+0 -33162-2 0  9995
2 69763  51.8896 221.1983 0010925  56.6280  10.1824 14.96063432  2961
KUIPER-00526            
1 69764U 26151B   26263.19888657 -.00000322  00000+0 -13210-4 0  9997
2 69764  51.8995 235.5991 0000709  57.4412 302.6619 14.79925810 12055
KUIPER-00558            
1 69765U 26151C   26262.96251135  .00005692  00000+0  77471-3 0  9998
2 69765  51.8948 236.5632 0000530  38.5613 321.5387 14.79949209 12029
KUIPER-00569            
1 69766U 26151D   26262.30680257  .00000323  00000+0  71339-4 0  9992
2 69766  51.8992 236.9541 0001092  33.9952 326.1080 14.79929813 11963
KUIPER-00589            
1 69767U 26151E   26262.95800177  .00001364  00000+0  22447-3 0  9990
2 69767  51.9000 237.1379 0002885  62.0528 298.0725 14.76534243 12016
KUIPER-00598            
1 69768U 26151F   26263.20697109 -.00003947  00000+0 -48888-3 0  9997
2 69768  51.8970 227.9926 0000738  97.9639 262.1407 14.79940351 12161
KUIPER-00604            
1 69769U 26151G   26263.18749752  .00001675  00000+0  24855-3 0  9999
2 69769  51.9012 230.5773 0000479  62.1910 297.9101 14.79948964 12129
KUIPER-00609            
1 69770U 26151H   26263.20601392  .00001571  00000+0  25334-3 0  9999
2 69770  51.9016 227.8074 0002398  36.6812 323.4313 14.76620788 12169
KUIPER-00611            
1 69771U 26151J   26263.22115124 -.00002544  00000+0 -30474-3 0  9999
2 69771  51.8986 230.4104 0000835  36.2438 323.8580 14.79941311 12131
KUIPER-00612            
1 69772U 26151K   26263.20146303  .00049082  00000+0  64630-2 0  9997
2 69772  51.9008 233.0197 0001333  81.7851 278.3262 14.79654526 12092
KUIPER-00614            
1 69773U 26151L   26262.93416183  .00000255  00000+0  62453-4 0  9995
2 69773  51.8987 231.7507 0001254  48.7787 311.3284 14.79929506 12085
KUIPER-00615            
1 69774U 26151M   26262.67551142  .00002418  00000+0  34596-3 0  9991
2 69774  51.8997 237.7761 0001114 131.5094 228.5964 14.79941745 11983
KUIPER-00616            
1 69775U 26151N   26263.16670139 -.00055263  00000+0 -60873-2 0  9999
2 69775  51.8972 220.8457 0006070 140.8857 330.9406 14.87291971  2738
KUIPER-00617            
1 69776U 26151P   26263.19284104  .00001968  00000+0  28687-3 0  9995
2 69776  51.8989 225.5564 0000475 172.2909 187.8061 14.79955045 12195
KUIPER-00619            
1 69777U 26151Q   26263.21160816  .00001463  00000+0  23820-3 0  9996
2 69777  51.9015 227.7254 0001538 150.7587 209.3460 14.76584661 12160
KUIPER-00621            
1 69778U 26151R   26262.63026462 -.00000799  00000+0 -75861-4 0  9996
2 69778  51.9020 233.0391 0000731  96.1022 264.0024 14.79938079 12040
KUIPER-00622            
1 69779U 26151S   26263.21779927  .00001540  00000+0  24919-3 0  9993
2 69779  51.9000 234.4040 0001247  71.5360 288.5737 14.76569193 12079
KUIPER-00623            
1 69780U 26151T   26262.55997487  .00000350  00000+0  74948-4 0  9990
2 69780  51.8973 235.8619 0001229 102.5062 257.6038 14.79915960 11991
KUIPER-00626            
1 69781U 26151U   26263.19009294 -.00002269  00000+0 -26867-3 0  9991
2 69781  51.8990 228.0437 0001123 110.2478 249.8605 14.79944388 12162
KUIPER-00627            
1 69782U 26151V   26263.16670139 -.00055671  00000+0 -66066-2 0  9990
2 69782  51.8986 223.2476 0008277  84.5667 266.0509 14.84240044  3470
KUIPER-00629            
1 69783U 26151W   26262.63903830  .00000772  00000+0  13023-3 0  9995
2 69783  51.9008 240.4401 0000425  97.5071 262.5939 14.79928069 11949
KUIPER-00631            
1 69784U 26151X   26262.92605236 -.00002312  00000+0 -27435-3 0  9993
2 69784  51.8993 239.2297 0000837 116.2928 243.8120 14.79940964 11984
KUIPER-00634            
1 69785U 26151Y   26262.94834095  .00001971  00000+0  28747-3 0  9998
2 69785  51.8999 234.1377 0000826  96.8739 263.2317 14.79927889 12059
KUIPER-00639            
1 69786U 26151Z   26263.16670139 -.00020680  00000+0 -24410-2 0  9993
2 69786  51.9013 223.2218 0009504  41.5908 129.9984 14.83949961  5654
KUIPER-00641            
1 69787U 26151AA  26263.16670139 -.00015288  00000+0 -19814-2 0  9994
2 69787  51.8984 225.6787 0002320 125.2350 185.9653 14.79919588  5324
KUIPER-00644            
1 69788U 26151AB  26263.16670139 -.00031286  00000+0 -22966-2 0  9993
2 69788  51.8881 219.2056 0009469  53.0815 284.8708 15.02834884  4910
KUIPER-00646            
1 69789U 26151AC  26263.00705405 -.00000919  00000+0 -91543-4 0  9990
2 69789  51.8978 226.4651 0000605  92.7990 267.3041 14.79925634 12165
KUIPER-00647            
1 69790U 26151AD  26263.16670139 -.00064295  00000+0 -79225-2 0  9992
2 69790  51.9004 225.3056 0006263  64.0131 139.7513 14.82775822  4512
KUIPER-00662            
1 69791U 26151AE  26262.95989198  .00001515  00000+0  22780-3 0  9996
2 69791  51.9002 239.0787 0000073  25.8564 334.2402 14.79910480 11987
