GLOBALSTAR M069         
1 31573U 07020C   26279.13056740 -.00000056  00000+0  33917-3 0  9997
2 31573  52.0032 298.1128 0001897  20.2390  22.0470 12.23475259892380
GLOBALSTAR M072         
1 31574U 07020D   26279.04069822 -.00000086  00000+0 -33782-4 0  9998
2 31574  51.9916 165.1231 0001371 126.7918  10.7238 11.91660206888195
GLOBALSTAR M066         
1 32265U 07048C   26278.79081341 -.00000093  00000+0  11965-4 0  9993
2 32265  51.9563 100.3985 0003777 273.3545  99.8236 12.30390324873842
GLOBALSTAR M079         
1 37188U 10054A   26279.01641513 -.00000099  00000+0  25741-4 0  9995
2 37188  52.0017 131.2898 0000655  94.3148  68.8083 12.62262873736548
GLOBALSTAR M074         
1 37189U 10054B   26279.04327523 -.00000097  00000+0  38786-4 0  9992
2 37189  51.9996 130.4578 0000842  73.9966  90.1873 12.62263546737159
GLOBALSTAR M076         
1 37190U 10054C   26278.89767652 -.00000091  00000+0  73715-4 0  9992
2 37190  52.0008 131.1139 0000612  71.5885  30.7090 12.62264073736850
GLOBALSTAR M077         
1 37191U 10054D   26279.16662144 -.00000085  00000+0 -13685-3 0  9997
2 37191  51.9946 257.6134 0003087  22.9858  60.5549 11.67547348734107
GLOBALSTAR M075         
1 37192U 10054E   26279.16009041 -.00000102  00000+0  10122-4 0  9992
2 37192  51.9936 172.3067 0000832  77.4288  78.7114 12.62261035735957
GLOBALSTAR M073         
1 37193U 10054F   26278.83972721 -.00000095  00000+0  50026-4 0  9998
2 37193  52.0046  87.4632 0000592 101.7905  37.1643 12.62268469737907
GLOBALSTAR M083         
1 37739U 11033A   26278.77735090 -.00000098  00000+0  33098-4 0  9994
2 37739  51.9878  35.7318 0000369 118.0326  37.0281 12.62269382706910
GLOBALSTAR M088         
1 37740U 11033B   26279.03809448 -.00000074  00000+0  16653-3 0  9996
2 37740  52.0214 301.6350 0000358  80.4242 300.7585 12.62270712702491
GLOBALSTAR M091         
1 37741U 11033C   26279.20808661 -.00000088  00000+0  85875-4 0  9990
2 37741  51.9990 263.9205 0000336  86.0967 287.3071 12.62265166703300
GLOBALSTAR M085         
1 37742U 11033D   26279.13529380 -.00000107  00000+0 -15808-4 0  9993
2 37742  52.0120 215.5302 0000480  80.6761  21.6533 12.62265503703803
GLOBALSTAR M081         
1 37743U 11033E   26279.16233516 -.00000111  00000+0 -42784-4 0  9998
2 37743  51.9951 217.7566 0000515  55.7272  49.9928 12.62266654703954
GLOBALSTAR M089         
1 37744U 11033F   26279.13508589 -.00000106  00000+0 -13196-4 0  9990
2 37744  51.9919 171.9788 0000936  57.3997 105.2880 12.62264024704790
GLOBALSTAR M084         
1 38040U 11080A   26278.75269882 -.00000105  00000+0 -69749-5 0  9994
2 38040  52.0028  40.6791 0000511  82.9990  81.2790 12.62264111682723
GLOBALSTAR M080         
1 38041U 11080B   26278.80368840 -.00000105  00000+0 -48810-5 0  9991
2 38041  52.0075  42.2831 0001029 117.4713  46.7334 12.62268643682859
GLOBALSTAR M082         
1 38042U 11080C   26278.56914784 -.00000098  00000+0  30523-4 0  9990
2 38042  52.0106 358.5099 0000563 134.4540 335.0764 12.62262730683531
GLOBALSTAR M092         
1 38043U 11080D   26279.19004293 -.00000088  00000+0  85713-4 0  9996
2 38043  52.0066  87.0199 0000828  94.0507  77.9763 12.62266596682062
GLOBALSTAR M090         
1 38044U 11080E   26278.51498284 -.00000089  00000+0  82336-4 0  9998
2 38044  52.0154 352.6656 0000455 143.7395 318.9318 12.62268140683649
GLOBALSTAR M086         
1 38045U 11080F   26278.53541323 -.00000103  00000+0  35460-5 0  9998
2 38045  51.9922 352.3498 0000647 299.0328 166.4967 12.62289315683593
GLOBALSTAR M097         
1 39072U 13005A   26279.09946958 -.00000102  00000+0  10001-4 0  9995
2 39072  52.0044 265.7059 0000259  85.2042 274.8854 12.62271636630912
GLOBALSTAR M093         
1 39073U 13005B   26279.15220449 -.00000085  00000+0  10721-3 0  9991
2 39073  52.0096 258.9378 0000099  82.9401 277.1477 12.62267545630879
GLOBALSTAR M094         
1 39074U 13005C   26278.99378726 -.00000095  00000+0  49826-4 0  9995
2 39074  51.9953 173.4271 0000554  78.5726 281.5202 12.62264832632468
GLOBALSTAR M096         
1 39075U 13005D   26279.16547361 -.00000106  00000+0 -12084-4 0  9999
2 39075  52.0067 221.7905 0000491  82.0614 278.0309 12.62264649631402
GLOBALSTAR M078         
1 39076U 13005E   26279.05987869 -.00000061  00000+0  23850-3 0  9990
2 39076  51.9878 305.9758 0001161 134.4166 225.6796 12.62260941630016
GLOBALSTAR M095         
1 39077U 13005F   26279.08636255 -.00000074  00000+0  16880-3 0  9993
2 39077  52.0082 303.6536 0000482 146.0943 213.9955 12.62264897629875
GLOBALSTAR M087         
1 52888U 22064A   26278.86194871 -.00000097  00000+0  40077-4 0  9992
2 52888  51.9981  85.5083 0000756 113.7499 246.3447 12.62263269205115
