QIANFAN-1               
1 60379U 24140A   26281.57316428  .00000031  00000+0  28395-4 0  9995
2 60379  88.9671 268.1394 0019599  70.7669 289.5601 13.51026632107836
QIANFAN-2               
1 60380U 24140B   26281.60205271  .00000027  00000+0  22479-4 0  9996
2 60380  88.9658 267.9353 0014368  47.4421 312.7941 13.51020989107892
QIANFAN-3               
1 60381U 24140C   26281.53634963  .00000031  00000+0  29448-4 0  9991
2 60381  88.9650 268.0520 0015792  58.1807 302.0880 13.51023750107794
QIANFAN-4               
1 60382U 24140D   26281.58562269  .00000012  00000+0 -47729-6 0  9990
2 60382  88.9675 268.0200 0014619  49.4084 310.8336 13.51021228107920
QIANFAN-5               
1 60383U 24140E   26281.63476026  .00000038  00000+0  39260-4 0  9998
2 60383  88.9649 268.0658 0017209  67.5801 292.7171 13.51032127107795
QIANFAN-6               
1 60384U 24140F   26281.58145610  .00000033  00000+0  31833-4 0  9998
2 60384  88.9677 267.8993 0014920  54.7433 305.5112 13.51024605107983
QIANFAN-7               
1 60385U 24140G   26281.55695315  .00000211  00000+0  79117-4 0  9993
2 60385  88.9739 258.4227 0016797 127.1876 233.0855 14.27899120113172
QIANFAN-8               
1 60386U 24140H   26281.58978694  .00000036  00000+0  36516-4 0  9992
2 60386  88.9677 268.1393 0018406  55.7150 304.5741 13.51026550107835
QIANFAN-9               
1 60387U 24140J   26281.56507834  .00000026  00000+0  21799-4 0  9991
2 60387  88.9675 268.2112 0018103  55.6314 304.6546 13.51022422107815
QIANFAN-10              
1 60388U 24140K   26281.56917018  .00000026  00000+0  20854-4 0  9992
2 60388  88.9688 267.5901 0015983  35.6106 324.6108 13.51022535107943
QIANFAN-11              
1 60389U 24140L   26281.60630364  .00000022  00000+0  15107-4 0  9995
2 60389  88.9612 267.9471 0016124  55.8006 304.4670 13.51026615107604
QIANFAN-12              
1 60390U 24140M   26281.55277191  .00000038  00000+0  40555-4 0  9998
2 60390  88.9654 268.1265 0015117  63.4607 296.8092 13.51024267107725
QIANFAN-13              
1 60391U 24140N   26281.59799087  .00000035  00000+0  36041-4 0  9998
2 60391  88.9914 268.4138 0014974  65.3975 294.8734 13.51024460107755
QIANFAN-14              
1 60392U 24140P   26281.54870145  .00000033  00000+0  32869-4 0  9991
2 60392  88.9646 268.0974 0018657  65.0884 295.2203 13.51026256107751
QIANFAN-15              
1 60393U 24140Q   26281.55675348  .00000050  00000+0  58052-4 0  9992
2 60393  88.9669 268.1243 0014202  53.9805 306.2660 13.51029208107747
QIANFAN-16              
1 60394U 24140R   26281.54443621  .00000023  00000+0  16716-4 0  9990
2 60394  88.9671 268.2540 0016644  68.8130 291.4798 13.51025582107658
QIANFAN-17              
1 60395U 24140S   26281.54048353  .00000034  00000+0  33222-4 0  9997
2 60395  88.9682 268.3331 0016937  63.1954 297.0928 13.51026339108612
QIANFAN-18              
1 60396U 24140T   26281.59395862  .00000035  00000+0  34806-4 0  9993
2 60396  88.9677 267.8421 0015916  47.8647 312.3854 13.51026503108011
QIANFAN-19              
1 61552U 24185A   26281.61084721  .00000289  00000+0  14324-3 0  9992
2 61552  88.9888  43.5986 0008678  70.4411 289.7713 14.14541767112057
QIANFAN-20              
1 61553U 24185B   26281.59615695  .00000258  00000+0  14069-3 0  9992
2 61553  88.9883  44.2194 0007832 104.7006 255.5047 14.09086311111710
QIANFAN-21              
1 61554U 24185C   26281.56170433  .00000397  00000+0  16974-3 0  9997
2 61554  88.9808  41.8848 0012774 105.3088 254.9517 14.22947840112607
QIANFAN-22              
1 61555U 24185D   26281.60496365  .00000171  00000+0  13592-3 0  9991
2 61555  88.9862  46.4071 0007728 145.2844 214.8833 13.86435582110487
QIANFAN-23              
1 61556U 24185E   26281.58400223  .00000279  00000+0  13294-3 0  9995
2 61556  88.9881  43.2718 0009377  76.5338 283.6895 14.16562184112193
QIANFAN-24              
1 61557U 24185F   26281.59048016  .00000507  00000+0  21398-3 0  9993
2 61557  88.9867  42.1885 0010952  50.6443 309.5718 14.24173013112697
QIANFAN-25              
1 61558U 24185G   26281.61760660  .00000328  00000+0  19123-3 0  9997
2 61558  88.9878  44.2718 0014484 119.0616 241.2019 14.06145251111647
QIANFAN-26              
1 61559U 24185H   26281.59232061  .00000148  00000+0  13511-3 0  9999
2 61559  88.9868  47.3990 0006237 166.9945 193.1383 13.77951227109962
QIANFAN-27              
1 61560U 24185J   26281.62582451  .00000502  00000+0  19805-3 0  9992
2 61560  88.9878  41.8122 0008197  40.1279 320.0519 14.27618469112949
QIANFAN-28              
1 61561U 24185K   26281.57742207  .00000522  00000+0  20255-3 0  9997
2 61561  88.9896  41.8335 0008013  38.2496 321.9266 14.28506916112978
QIANFAN-29              
1 61562U 24185L   26281.60757537  .00000143  00000+0  20259-3 0  9997
2 61562  88.9836  50.3240 0008106 260.4225  99.6011 13.51100537108285
QIANFAN-30              
1 61563U 24185M   26281.58699314  .00000003  00000+0 -13466-4 0  9992
2 61563  88.9857  49.9667 0006124 241.5337 118.5198 13.50079132108527
QIANFAN-31              
1 61564U 24185N   26281.56202006  .00000014  00000+0  21497-5 0  9994
2 61564  88.9842  49.2958 0005953 220.6162 139.4550 13.58069309108854
QIANFAN-32              
1 61565U 24185P   26281.61376509  .00000140  00000+0  19850-3 0  9999
2 61565  88.9896  50.1851 0007748 282.2041  77.8242 13.50810768108523
QIANFAN-33              
1 61566U 24185Q   26281.58863678  .00000217  00000+0  14641-3 0  9992
2 61566  88.9866  45.3952 0009752 107.4120 252.8124 13.96763502111017
QIANFAN-34              
1 61567U 24185R   26281.60732115  .00000455  00000+0  28672-3 0  9990
2 61567  88.9843  44.5610 0008118 106.6003 253.6070 14.02535634111381
QIANFAN-35              
1 61568U 24185S   26281.56631657  .00000477  00000+0  18504-3 0  9992
2 61568  88.9877  41.7085 0007127  38.1014 322.0684 14.28375148112972
QIANFAN-36              
1 61569U 24185T   26281.56098104  .00000089  00000+0  11099-3 0  9998
2 61569  88.9832  49.8097 0004828 240.9140 119.1531 13.55650912108542
QIANFAN-37              
1 62238U 24232B   26281.57665914  .00000111  00000+0  15381-3 0  9999
2 62238  89.0168  11.2422 0001479  97.6277 262.5042 13.51034215139656
QIANFAN-38              
1 62239U 24232C   26281.60145137  .00000102  00000+0  13989-3 0  9996
2 62239  89.0175  11.1758 0015711  55.3079 304.9550 13.51032358139719
QIANFAN-39              
1 62240U 24232D   26281.58255884  .00000334  00000+0  13489-3 0  9998
2 62240  89.0144   3.2029 0016858 168.7250 191.4324 14.25573469144105
QIANFAN-40              
1 62241U 24232E   26281.56031017  .00000089  00000+0  11908-3 0  9998
2 62241  89.0201  10.8480 0015019  63.2006 297.0680 13.51032713140071
QIANFAN-41              
1 62242U 24232F   26281.56849077  .00000104  00000+0  14245-3 0  9997
2 62242  89.0172  11.1250 0015007  52.0342 308.2162 13.51033823139738
QIANFAN-42              
1 62243U 24232G   26281.56114289  .00000317  00000+0  12986-3 0  9994
2 62243  89.0142   3.2968 0015423 175.1339 185.0007 14.24659923144055
QIANFAN-43              
1 62244U 24232H   26281.26818024  .00000084  00000+0  11171-3 0  9996
2 62244  89.0177  11.2334 0016709  56.9610 303.3144 13.51020977108301
QIANFAN-44              
1 62245U 24232J   26281.55206924  .00000101  00000+0  13812-3 0  9993
2 62245  89.0175  11.0110 0014848  54.2630 305.9900 13.51033381139816
QIANFAN-45              
1 62246U 24232K   26281.59324901  .00000105  00000+0  14441-3 0  9997
2 62246  89.0179  11.1642 0015492  53.5096 306.7480 13.51032104139742
QIANFAN-46              
1 62247U 24232L   26281.61785959  .00000105  00000+0  14338-3 0  9990
2 62247  89.0175  11.2185 0015702  58.5097 301.7586 13.51033186139701
QIANFAN-47              
1 62248U 24232M   26281.62202757  .00000103  00000+0  14073-3 0  9996
2 62248  89.0171  11.1389 0016100  57.5448 302.7257 13.51032550139738
QIANFAN-48              
1 62249U 24232N   26281.58516958  .00000126  00000+0  17554-3 0  9995
2 62249  89.0175  11.1562 0018408  59.3544 300.9419 13.51026999139736
QIANFAN-49              
1 62250U 24232P   26281.57264870  .00000066  00000+0  84041-4 0  9998
2 62250  89.0174  11.1675 0015350  55.4130 304.8467 13.51020865108326
QIANFAN-50              
1 62251U 24232Q   26281.59728915  .00000103  00000+0  14060-3 0  9991
2 62251  89.0179  11.1895 0017034  55.9411 304.3354 13.51033562108355
QIANFAN-51              
1 62252U 24232R   26281.58088738  .00000110  00000+0  15218-3 0  9997
2 62252  89.0173  11.1666 0014635  60.4721 299.7887 13.51032435108340
QIANFAN-52              
1 62253U 24232S   26281.60963138  .00000110  00000+0  15107-3 0  9994
2 62253  89.0169  11.0256 0016432  52.2667 307.9970 13.51034486108438
QIANFAN-53              
1 62254U 24232T   26281.58917929  .00000104  00000+0  14202-3 0  9997
2 62254  89.0177  11.1549 0015352  53.8224 306.4344 13.51031148108396
QIANFAN-54              
1 62255U 24232U   26281.63024445  .00000087  00000+0  11544-3 0  9992
2 62255  89.0167  10.8027 0004126  98.1473 262.0147 13.51033016139903
QIANFAN-55              
1 62785U 25016A   26281.58238754  .00000024  00000+0  19178-4 0  9998
2 62785  88.9694  72.0730 0016955 196.2794 163.7815 13.51025797 87676
QIANFAN-56              
1 62786U 25016B   26281.59866059  .00000049  00000+0  56781-4 0  9993
2 62786  88.9669  71.8280 0015490 198.4204 161.6388 13.51021115 87727
QIANFAN-57              
1 62787U 25016C   26281.55763137  .00000037  00000+0  38338-4 0  9998
2 62787  88.9699  72.0790 0001857  74.9070 285.2286 13.51028787 87688
QIANFAN-58              
1 62788U 25016D   26281.60293368  .00000046  00000+0  52378-4 0  9999
2 62788  88.9670  71.8149 0013634 189.7410 170.3479 13.51028325 87734
QIANFAN-59              
1 62789U 25016E   26281.62748581  .00000046  00000+0  52217-4 0  9996
2 62789  88.9693  71.9566 0013884 193.6777 166.4000 13.51025706 87737
QIANFAN-60              
1 62790U 25016F   26281.58631934  .00000044  00000+0  49209-4 0  9991
2 62790  88.9674  71.8754 0015525 190.8793 169.2025 13.51022197 87714
QIANFAN-61              
1 62791U 25016G   26281.61926589  .00000034  00000+0  33413-4 0  9998
2 62791  88.9740  72.2374 0014511 189.8359 170.2510 13.51028711 87733
QIANFAN-62              
1 62792U 25016H   26281.62350879  .00000033  00000+0  32281-4 0  9994
2 62792  88.9688  71.9446 0015836 190.6352 169.4467 13.51028070 87723
QIANFAN-63              
1 62793U 25016J   26281.57411922  .00000033  00000+0  32433-4 0  9995
2 62793  88.9694  71.9216 0015740 196.2658 163.7991 13.51023974 87751
QIANFAN-64              
1 62794U 25016K   26281.61517614  .00000036  00000+0  36661-4 0  9996
2 62794  88.9682  71.8513 0013894 188.0600 172.0330 13.51028697 87759
QIANFAN-65              
1 62795U 25016L   26281.61101289  .00000034  00000+0  34320-4 0  9992
2 62795  88.9678  71.8669 0013703 189.7162 170.3726 13.51024767 87739
QIANFAN-66              
1 62796U 25016M   26281.56582689  .00000048  00000+0  55225-4 0  9996
2 62796  88.9697  71.9007 0014909 185.9928 174.1047 13.51020885 87774
QIANFAN-67              
1 62797U 25016N   26281.56990019  .00000049  00000+0  56493-4 0  9996
2 62797  88.9688  71.8964 0014688 192.9245 167.1532 13.51021155 87749
QIANFAN-68              
1 62798U 25016P   26281.56175552  .00000050  00000+0  58837-4 0  9990
2 62798  88.9691  71.9530 0014819 190.8294 169.2541 13.51023080 87721
QIANFAN-69              
1 62799U 25016Q   26281.57810699  .00000030  00000+0  27790-4 0  9992
2 62799  88.9671  71.7572 0015505 192.4852 167.5917 13.51021840 87769
QIANFAN-70              
1 62800U 25016R   26281.59467820  .00000055  00000+0  66013-4 0  9999
2 62800  88.9690  71.9561 0015393 182.5992 177.5082 13.51025370 87725
QIANFAN-71              
1 62801U 25016S   26281.59046927  .00000045  00000+0  50246-4 0  9991
2 62801  88.9684  71.9180 0015313 196.0502 164.0166 13.51027959 87724
QIANFAN-72              
1 62802U 25016T   26281.60701322  .00000049  00000+0  57523-4 0  9990
2 62802  88.9675  71.9004 0018364 204.4531 155.5751 13.51029838 87717
QIANFAN-73              
1 63159U 25046A   26281.55989535  .00000031  00000+0  30130-4 0  9993
2 63159  88.9624 288.8739 0014238 344.7850  15.2871 13.51026079 87897
QIANFAN-74              
1 63160U 25046B   26281.61766804  .00000011  00000+0 -10040-5 0  9992
2 63160  88.9623 288.7579 0001937  98.5371 261.5999 13.51018537 87968
QIANFAN-75              
1 63161U 25046C   26281.60512828  .00000105  00000+0  14314-3 0  9996
2 63161  88.9626 288.9971 0015474 347.7875  12.2899 13.51033880 87833
QIANFAN-76              
1 63162U 25046D   26281.60127405 -.00000034  00000+0 -70469-4 0  9997
2 63162  88.9625 288.9774 0013013 349.3923  10.6952 13.51017781 87848
QIANFAN-77              
1 63163U 25046E   26281.61621695  .00000087  00000+0  53720-4 0  9996
2 63163  88.9635 284.5097 0013314 217.5941 142.4306 13.96250265 90295
QIANFAN-78              
1 63164U 25046F   26281.56890365  .00000077  00000+0  99827-4 0  9990
2 63164  88.9625 288.8422 0014444 350.8446   9.2439 13.51014351 87917
QIANFAN-79              
1 63165U 25046G   26281.59699999  .00000028  00000+0  25067-4 0  9995
2 63165  88.9628 288.9570 0014125 349.5231  10.5624 13.51021484 87869
QIANFAN-80              
1 63166U 25046H   26281.61340213  .00000083  00000+0  11006-3 0  9999
2 63166  88.9626 288.6540 0013175 355.0331   5.0687 13.51019977 88020
QIANFAN-81              
1 63167U 25046J   26281.59283779  .00000100  00000+0  13658-3 0  9995
2 63167  88.9625 288.7233 0014021 343.2625  16.8061 13.51024028 87978
QIANFAN-82              
1 63168U 25046K   26281.62584751  .00000072  00000+0  92955-4 0  9990
2 63168  88.9626 288.7643 0012150 351.4915   8.6028 13.51023013 87963
QIANFAN-83              
1 63169U 25046L   26281.57826938  .00000056  00000+0  56082-4 0  9994
2 63169  88.9628 287.9543 0012443 316.8339  43.1842 13.62066255 88412
QIANFAN-84              
1 63170U 25046M   26281.58065003  .00000081  00000+0  10717-3 0  9997
2 63170  88.9626 288.9019 0014947 346.5003  13.5746 13.51028364 87881
QIANFAN-85              
1 63171U 25046N   26281.57641644  .00000092  00000+0  12382-3 0  9990
2 63171  88.9625 288.7715 0012662 350.0098  10.0800 13.51023461 87952
QIANFAN-86              
1 63172U 25046P   26281.58460574  .00000095  00000+0  12901-3 0  9993
2 63172  88.9627 288.6398 0010699 356.2039   3.9029 13.51021603 88032
QIANFAN-87              
1 63173U 25046Q   26281.55581496  .00000021  00000+0  14008-4 0  9998
2 63173  88.9624 288.7434 0011047 350.1370   9.9563 13.51020560 87962
QIANFAN-88              
1 63174U 25046R   26281.57228754  .00000097  00000+0  13128-3 0  9990
2 63174  88.9626 288.7036 0011781 359.1645   0.9485 13.51022095 87994
QIANFAN-89              
1 63175U 25046S   26281.60930428  .00000097  00000+0  13092-3 0  9993
2 63175  88.9626 288.8885 0015914 346.0884  13.9826 13.51022733 87891
QIANFAN-90              
1 63176U 25046T   26281.56413603  .00000032  00000+0  30859-4 0  9990
2 63176  88.9626 288.8667 0012813 346.3251  13.7551 13.51020296 87903
QIANFAN-91              
1 66033U 25233A   26281.30017356  .00000083  00000+0  10922-3 0  9994
2 66033  89.0083  31.7679 0001600 105.4476 254.6852 13.51032240 48459
QIANFAN-92              
1 66034U 25233B   26281.30884645  .00000090  00000+0  12071-3 0  9993
2 66034  89.0066  31.7203 0002146  98.5585 261.5810 13.51029745 48450
QIANFAN-93              
1 66035U 25233C   26281.31682262  .00000075  00000+0  98147-4 0  9998
2 66035  89.0092  31.8018 0001626 103.0605 257.0728 13.51041479 48458
QIANFAN-94              
1 66036U 25233D   26281.30436970  .00000086  00000+0  11481-3 0  9998
2 66036  89.0090  31.7026 0001804 107.6849 252.4499 13.51030694 48500
QIANFAN-95              
1 66037U 25233E   26281.31261798  .00000082  00000+0  10822-3 0  9998
2 66037  89.0088  31.2429 0001617 110.1530 249.9795 13.51030600 48752
QIANFAN-96              
1 66038U 25233F   26281.33722527  .00000082  00000+0  10783-3 0  9999
2 66038  89.0085  31.7806 0001560 104.9996 255.1328 13.51031672 48456
QIANFAN-97              
1 66039U 25233G   26281.32069221  .00000064  00000+0  80231-4 0  9990
2 66039  89.0088  31.7700 0001658 102.8789 257.2548 13.51022498 48451
QIANFAN-98              
1 66040U 25233H   26281.32902889  .00000076  00000+0  99111-4 0  9998
2 66040  89.0077  31.4880 0002063 117.1542 242.9820 13.51031897 48608
QIANFAN-99              
1 66041U 25233J   26281.33306609  .00000080  00000+0  10488-3 0  9992
2 66041  89.0088  31.7735 0001847 118.3470 241.7868 13.51021347 48467
QIANFAN-100             
1 66042U 25233K   26281.32477539  .00000079  00000+0  10317-3 0  9992
2 66042  89.0099  31.7140 0001521 104.0959 256.0361 13.51022041 48518
QIANFAN-101             
1 66043U 25233L   26281.27333516  .00000163  00000+0  60847-4 0  9991
2 66043  89.0087  27.6083 0017063 128.6944 231.5780 14.26868271 50758
QIANFAN-102             
1 66044U 25233M   26281.27141978  .00000090  00000+0  12064-3 0  9997
2 66044  89.0086  31.6867 0001805 109.2604 250.8743 13.51031345 48502
QIANFAN-103             
1 66045U 25233N   26281.27557011  .00000083  00000+0  11037-3 0  9998
2 66045  89.0089  31.7846 0001640 103.5860 256.5474 13.51031388 48457
QIANFAN-104             
1 66046U 25233P   26281.27962401  .00000077  00000+0  10024-3 0  9990
2 66046  89.0093  31.6915 0001884 107.8562 252.2795 13.51029295 48504
QIANFAN-105             
1 66047U 25233Q   26281.28793414  .00000073  00000+0  94856-4 0  9990
2 66047  89.0106  31.5489 0001778 105.3620 254.7728 13.51032566 48615
QIANFAN-106             
1 66048U 25233R   26281.28369817  .00000073  00000+0  94317-4 0  9999
2 66048  89.0076  31.7266 0001978 115.8595 244.2761 13.51032883 48451
QIANFAN-107             
1 66049U 25233S   26281.29195204  .00000072  00000+0  93511-4 0  9992
2 66049  89.0091  31.7761 0001681 103.6986 256.4353 13.51032143 48461
QIANFAN-108             
1 66050U 25233T   26281.29612851  .00000080  00000+0  10517-3 0  9999
2 66050  89.0084  31.7555 0001977 114.3450 245.7908 13.51031910 48467
QIANFAN-109             
1 68636U 26075A   26281.60636424  .00000041  00000+0  44182-4 0  9996
2 68636  88.9831 309.4288 0001558  88.3463 271.7867 13.51022177 25108
QIANFAN-110             
1 68637U 26075B   26281.61452301  .00000029  00000+0  26864-4 0  9991
2 68637  88.9832 309.4495 0002080  92.9196 267.2194 13.51022967 25105
QIANFAN-111             
1 68638U 26075C   26281.60241108  .00000047  00000+0  53429-4 0  9999
2 68638  88.9831 309.4095 0002051  93.0778 267.0607 13.51025593 25124
QIANFAN-112             
1 68639U 26075D   26281.56528744  .00000045  00000+0  51493-4 0  9996
2 68639  88.9829 309.4209 0001712  82.2428 277.8917 13.51024814 25111
QIANFAN-113             
1 68640U 26075E   26281.61045315  .00000039  00000+0  41815-4 0  9992
2 68640  88.9835 309.4163 0002067  90.1423 269.9965 13.51011781 25121
QIANFAN-114             
1 68641U 26075F   26281.61865966  .00000030  00000+0  27824-4 0  9990
2 68641  88.9830 309.4292 0002047  92.9677 267.1709 13.51020017 25116
QIANFAN-115             
1 68642U 26075G   26281.57343680  .00000039  00000+0  41277-4 0  9997
2 68642  88.9830 309.4410 0001886  94.4562 265.6805 13.51025805 25108
QIANFAN-116             
1 68643U 26075H   26281.56105853  .00000044  00000+0  48795-4 0  9993
2 68643  88.9823 309.3944 0001860  83.8151 276.3213 13.51026245 25112
QIANFAN-117             
1 68644U 26075J   26281.54883899  .00000050  00000+0  58210-4 0  9995
2 68644  88.9828 309.4167 0001807  90.1718 269.9640 13.51024142 25113
QIANFAN-118             
1 68645U 26075K   26281.58165373  .00000039  00000+0  42350-4 0  9995
2 68645  88.9833 309.4267 0002172  92.7212 267.4188 13.51025815 25112
QIANFAN-119             
1 68646U 26075L   26281.63100513  .00000057  00000+0  70121-4 0  9994
2 68646  88.9833 309.4174 0001632  92.9363 267.1975 13.51021834 25128
QIANFAN-120             
1 68647U 26075M   26281.56933120  .00000042  00000+0  45643-4 0  9990
2 68647  88.9835 309.4105 0001580  94.8988 265.2343 13.51021552 25126
QIANFAN-121             
1 68648U 26075N   26281.59409371  .00000044  00000+0  49170-4 0  9991
2 68648  88.9832 309.4104 0002109  93.8413 266.2979 13.51024943 25126
QIANFAN-122             
1 68649U 26075P   26281.58576002  .00000054  00000+0  65027-4 0  9997
2 68649  88.9831 309.4080 0001736  88.9672 271.1678 13.51028689 25117
QIANFAN-123             
1 68650U 26075Q   26281.55284055  .00000047  00000+0  53852-4 0  9995
2 68650  88.9828 309.3978 0001523  85.7462 274.3863 13.51021422 25092
QIANFAN-124             
1 68651U 26075R   26281.57756303  .00000036  00000+0  36502-4 0  9999
2 68651  88.9830 309.4072 0001690  87.5545 272.5800 13.51028014 25128
QIANFAN-125             
1 68652U 26075S   26281.58997737  .00000048  00000+0  55247-4 0  9999
2 68652  88.9830 309.4078 0002113  92.9526 267.1867 13.51025150 25126
QIANFAN-126             
1 68653U 26075T   26281.59808400  .00000060  00000+0  74272-4 0  9992
2 68653  88.9834 309.3772 0001533  86.6871 273.4456 13.51020998 25140
QIANFAN-127             
1 69073U 26104A   26281.60342007  .00000059  00000+0  72868-4 0  9997
2 69073  88.9892 329.9073 0002376  92.5227 267.6196 13.51030151 20479
QIANFAN-128             
1 69074U 26104B   26281.61159029  .00000081  00000+0  10750-3 0  9995
2 69074  88.9870 329.9262 0002470 104.2034 255.9392 13.51025641 20452
QIANFAN-129             
1 69075U 26104C   26281.56214620  .00000061  00000+0  75243-4 0  9996
2 69075  88.9873 329.8660 0002384  99.9460 260.1961 13.51025708 20481
QIANFAN-130             
1 69076U 26104D   26281.59918590  .00000053  00000+0  63901-4 0  9996
2 69076  88.9875 329.9285 0002184  88.6951 271.4451 13.51023751 20458
QIANFAN-131             
1 69077U 26104E   26281.61988050  .00000065  00000+0  82462-4 0  9994
2 69077  88.9868 329.8856 0002198 103.9505 256.1891 13.51027847 20475
QIANFAN-132             
1 69078U 26104F   26281.60743134  .00000060  00000+0  73828-4 0  9997
2 69078  88.9871 329.9440 0002185  92.9791 267.1611 13.51024047 20448
QIANFAN-133             
1 69079U 26104G   26281.61570323  .00000077  00000+0  10085-3 0  9990
2 69079  88.9874 329.8939 0002359 107.9363 252.2046 13.51022705 20467
QIANFAN-134             
1 69080U 26104H   26281.57038513  .00000066  00000+0  83266-4 0  9997
2 69080  88.9879 329.9257 0002421 104.6194 255.5226 13.51031208 20457
QIANFAN-135             
1 69081U 26104J   26281.62388544  .00000072  00000+0  93081-4 0  9999
2 69081  88.9872 329.9097 0002593 100.4766 259.6678 13.51024426 20463
QIANFAN-136             
1 69082U 26104K   26281.55803818  .00000059  00000+0  72150-4 0  9997
2 69082  88.9874 329.9200 0002352 106.5172 253.6238 13.51021118 20453
QIANFAN-137             
1 69083U 26104L   26281.62807635  .00000063  00000+0  79317-4 0  9994
2 69083  88.9883 329.7912 0002112  95.7274 264.4118 13.51024025 20534
QIANFAN-138             
1 69084U 26104M   26281.57862753  .00000075  00000+0  97177-4 0  9998
2 69084  88.9868 329.9165 0002478  95.3251 264.8183 13.51023826 20451
QIANFAN-139             
1 69085U 26104N   26281.56634115  .00000070  00000+0  89196-4 0  9994
2 69085  88.9870 329.8999 0002283  91.9241 268.2172 13.51032491 20469
QIANFAN-140             
1 69086U 26104P   26281.57451190  .00000076  00000+0  99785-4 0  9997
2 69086  88.9871 329.9028 0002617  98.6874 261.4574 13.51024999 20467
QIANFAN-141             
1 69087U 26104Q   26281.58283998  .00000066  00000+0  83121-4 0  9994
2 69087  88.9867 329.8656 0002519 102.6305 257.5128 13.51022729 20487
QIANFAN-142             
1 69088U 26104R   26281.59098832  .00000057  00000+0  69292-4 0  9990
2 69088  88.9866 329.8638 0002480  96.4388 263.7045 13.51021904 20486
QIANFAN-143             
1 69089U 26104S   26281.58688430  .00000062  00000+0  76936-4 0  9998
2 69089  88.9877 329.8729 0002139 104.9255 255.2134 13.51029375 20484
QIANFAN-144             
1 69090U 26104T   26281.59509210  .00000057  00000+0  69514-4 0  9997
2 69090  88.9875 329.8899 0002408  93.0585 267.0842 13.51022712 20479
QIANFAN-145             
1 69104U 26108A   26281.59935842  .00000013  00000+0  22940-5 0  9996
2 69104  89.0204  10.7413 0001827 115.2793 244.8548 13.51023326 19750
QIANFAN-146             
1 69105U 26108B   26281.55822553  .00000105  00000+0  14353-3 0  9996
2 69105  89.0206  10.5829 0001871 103.8824 256.2536 13.51023490 19845
QIANFAN-147             
1 69106U 26108C   26281.60773818  .00000117  00000+0  16218-3 0  9997
2 69106  89.0206  10.7453 0002050 102.4473 257.6908 13.51028942 19740
QIANFAN-148             
1 69107U 26108D   26281.59533366  .00000112  00000+0  15502-3 0  9998
2 69107  89.0200  10.7353 0002187 107.7202 252.4188 13.51028616 19744
QIANFAN-149             
1 69108U 26108E   26281.60350445  .00000109  00000+0  15081-3 0  9994
2 69108  89.0199  10.7557 0002345 101.4844 258.6571 13.51027974 19747
QIANFAN-150             
1 69109U 26108F   26281.61172947  .00000115  00000+0  15974-3 0  9993
2 69109  89.0205  10.7091 0002329 100.3536 259.7878 13.51021798 19769
QIANFAN-151             
1 69110U 26108G   26281.56656576  .00000108  00000+0  14835-3 0  9991
2 69110  89.0204  10.7371 0001913 109.3306 250.8052 13.51031617 19748
QIANFAN-152             
1 69111U 26108H   26281.61995181  .00000120  00000+0  16767-3 0  9996
2 69111  89.0200  10.7229 0001956  95.6053 264.5321 13.51024414 19760
QIANFAN-153             
1 69112U 26108J   26281.61583120  .00000116  00000+0  16181-3 0  9998
2 69112  89.0197  10.6990 0002154  99.5325 260.6069 13.51025541 19764
QIANFAN-154             
1 69113U 26108K   26281.62413172  .00000111  00000+0  15366-3 0  9998
2 69113  89.0207  10.7490 0002172 102.5596 257.5798 13.51030805 19750
QIANFAN-155             
1 69114U 26108L   26281.55411444  .00000104  00000+0  14225-3 0  9996
2 69114  89.0204  10.7200 0002234  99.6135 260.5269 13.51027518 19755
QIANFAN-156             
1 69115U 26108M   26281.57470118  .00000120  00000+0  16673-3 0  9999
2 69115  89.0219  10.7220 0002092 109.1572 250.9806 13.51023306 19771
QIANFAN-157             
1 69116U 26108N   26281.56242011  .00000106  00000+0  14529-3 0  9990
2 69116  89.0200  10.6431 0002285 107.0537 253.0865 13.51032351 19800
QIANFAN-158             
1 69117U 26108P   26281.28252182  .00000119  00000+0  16623-3 0  9991
2 69117  89.0202  10.7124 0002018 109.1105 251.0265 13.51025580 19742
QIANFAN-159             
1 69118U 26108Q   26281.57057217  .00000117  00000+0  16205-3 0  9990
2 69118  89.0193  10.6886 0001962 107.5822 252.5544 13.51027677 19779
QIANFAN-160             
1 69119U 26108R   26281.58716393  .00000115  00000+0  15999-3 0  9996
2 69119  89.0209  10.7272 0002326  97.5635 262.5781 13.51027773 19763
QIANFAN-161             
1 69120U 26108S   26281.59114230  .00000114  00000+0  15836-3 0  9990
2 69120  89.0216  10.6449 0001978 108.8760 251.2606 13.51026106 19811
QIANFAN-162             
1 69121U 26108T   26281.58292751  .00000119  00000+0  16533-3 0  9995
2 69121  89.0205  10.6690 0001968  98.7981 261.3393 13.51026897 19787
QIANFAN-163             
1 69325U 26121A   26281.47354556  .00000028  00000+0  24925-4 0  9990
2 69325  89.0081 289.2261 0002992 102.3364 257.8123 13.51022141 17460
QIANFAN-164             
1 69326U 26121B   26281.07032458  .00000053  00000+0  63323-4 0  9994
2 69326  89.0079 289.2566 0002485 102.5737 257.5692 13.51022784 17415
QIANFAN-165             
1 69382U 26124A   26281.59842209  .00000089  00000+0  11935-3 0  9999
2 69382  89.0057 350.2054 0002446 115.1653 244.9752 13.51025605 17353
QIANFAN-166             
1 69383U 26124B   26281.60256008  .00000090  00000+0  12138-3 0  9996
2 69383  89.0075 350.2192 0001949 109.0845 251.0517 13.51026299 17357
QIANFAN-167             
1 69384U 26124C   26281.60646541  .00000028  00000+0  24737-4 0  9992
2 69384  89.0049 350.2194 0002256 101.9015 258.2389 13.51019535 17343
QIANFAN-168             
1 69385U 26124D   26281.61064870  .00000087  00000+0  11597-3 0  9997
2 69385  89.0046 350.1983 0001961 115.3957 244.7397 13.51023826 17350
QIANFAN-169             
1 69386U 26124E   26281.61486153  .00000080  00000+0  10456-3 0  9996
2 69386  89.0044 350.1974 0001847 106.6318 253.5036 13.51026961 17357
QIANFAN-170             
1 69387U 26124F   26281.61889386  .00000083  00000+0  11068-3 0  9995
2 69387  89.0062 350.1727 0001770 107.3199 252.8146 13.51029431 17375
QIANFAN-171             
1 69388U 26124G   26281.62715442  .00000098  00000+0  13316-3 0  9992
2 69388  89.0077 350.1871 0002100 101.5954 258.5433 13.51032417 17375
QIANFAN-172             
1 69389U 26124H   26281.62295082  .00000087  00000+0  11651-3 0  9994
2 69389  89.0059 350.1741 0002303 115.0223 245.1167 13.51032925 17376
QIANFAN-173             
1 69390U 26124J   26281.63116674  .00000102  00000+0  13866-3 0  9994
2 69390  89.0048 350.1677 0001838 113.8676 246.2668 13.51026053 17377
QIANFAN-174             
1 69391U 26124K   26281.56944895  .00000089  00000+0  11872-3 0  9990
2 69391  89.0029 350.1277 0002322 102.8558 257.2853 13.51020798 17377
QIANFAN-175             
1 69392U 26124L   26281.57371255  .00000076  00000+0  98931-4 0  9994
2 69392  89.0081 350.1821 0001894 108.5459 251.5898 13.51030876 17371
QIANFAN-176             
1 69393U 26124M   26281.57785461  .00000079  00000+0  10351-3 0  9995
2 69393  89.0042 350.1543 0001908 108.3864 251.7495 13.51024582 17365
QIANFAN-177             
1 69394U 26124N   26281.58594139  .00000083  00000+0  10976-3 0  9995
2 69394  89.0052 350.1439 0002274 104.9579 255.1824 13.51033678 17385
QIANFAN-178             
1 69395U 26124P   26281.58182342  .00000084  00000+0  11115-3 0  9992
2 69395  88.9998 350.0899 0001901 107.4879 252.6480 13.51029562 17397
QIANFAN-179             
1 69396U 26124Q   26281.59006853  .00000087  00000+0  11658-3 0  9991
2 69396  89.0030 350.1132 0001874 107.6869 252.4487 13.51033195 17390
QIANFAN-180             
1 69397U 26124R   26281.59430047  .00000086  00000+0  11515-3 0  9999
2 69397  89.0037 350.1350 0001746 106.1527 253.9817 13.51025348 17386
QIANFAN-181             
1 69398U 26124S   26281.56134428  .00000096  00000+0  13061-3 0  9990
2 69398  89.0059 350.2360 0002181 102.2171 257.9224 13.51027404 17335
QIANFAN-182             
1 69399U 26124T   26281.56532826  .00000080  00000+0  10580-3 0  9991
2 69399  89.0034 350.2012 0001953 109.0595 251.0768 13.51031946 17338
QIANFAN-183             
1 69401U 26125A   26281.59998650  .00000027  00000+0  23226-4 0  9993
2 69401  88.9838 268.4453 0002378  94.6738 265.4685 13.51028036 17255
QIANFAN-184             
1 69402U 26125B   26281.60821232  .00000033  00000+0  31969-4 0  9997
2 69402  88.9889 268.4813 0002239  93.5007 266.6400 13.51029626 17259
QIANFAN-185             
1 69403U 26125C   26281.63297202  .00000030  00000+0  27165-4 0  9995
2 69403  88.9904 268.4214 0002259  95.9811 264.1598 13.51029105 17291
QIANFAN-186             
1 69404U 26125D   26281.60420765  .00000023  00000+0  17640-4 0  9994
2 69404  88.9891 268.4821 0002223  91.8427 268.2979 13.51028512 17255
QIANFAN-187             
1 69405U 26125E   26281.61243641  .00000024  00000+0  18259-4 0  9990
2 69405  88.9891 268.4640 0002422  91.0350 269.1078 13.51029196 17263
QIANFAN-188             
1 69406U 26125F   26281.62049283  .00000052  00000+0  62030-4 0  9995
2 69406  88.9889 268.4626 0002434  94.8450 265.2979 13.51018564 17264
QIANFAN-189             
1 69407U 26125G   26281.62878603  .00000031  00000+0  29802-4 0  9999
2 69407  88.9872 268.4531 0002602  97.0383 263.1064 13.51019480 17258
QIANFAN-190             
1 69408U 26125H   26281.61643526  .00000035  00000+0  35109-4 0  9994
2 69408  88.9874 268.4525 0002175  94.3794 265.7606 13.51019560 17265
QIANFAN-191             
1 69409U 26125J   26281.56702181  .00000026  00000+0  21468-4 0  9995
2 69409  88.9887 268.4722 0002401  95.2600 264.8825 13.51020144 17259
QIANFAN-192             
1 69410U 26125K   26281.62467016  .00000043  00000+0  47325-4 0  9998
2 69410  88.9894 268.4681 0002567  95.1842 264.9602 13.51020118 17269
QIANFAN-193             
1 69411U 26125L   26281.57532401  .00000031  00000+0  28656-4 0  9997
2 69411  88.9872 268.4453 0002368  97.4607 262.6814 13.51028082 17264
QIANFAN-194             
1 69412U 26125M   26281.57121548  .00000019  00000+0  10253-4 0  9994
2 69412  88.9905 268.4664 0002415  94.5375 265.6052 13.51026598 17255
QIANFAN-195             
1 69413U 26125N   26281.57952334  .00000030  00000+0  28061-4 0  9999
2 69413  88.9906 268.4508 0001981  90.0080 270.1298 13.51028411 17276
QIANFAN-196             
1 69414U 26125P   26281.58759486  .00000024  00000+0  19033-4 0  9996
2 69414  88.9911 268.4548 0002060  93.8565 266.2822 13.51020534 17272
QIANFAN-197             
1 69415U 26125Q   26281.59597924  .00000026  00000+0  21195-4 0  9999
2 69415  88.9885 268.4206 0002337  94.2874 265.8544 13.51024175 17270
QIANFAN-198             
1 69416U 26125R   26281.58352716  .00000036  00000+0  37525-4 0  9992
2 69416  88.9879 268.4334 0002427  95.1509 264.9919 13.51028734 17272
QIANFAN-199             
1 69417U 26125S   26281.59183902  .00000035  00000+0  36015-4 0  9995
2 69417  88.9883 268.3835 0002507  90.6179 269.5260 13.51026360 17302
QIANFAN-200             
1 69418U 26125T   26281.56297531  .00000023  00000+0  17484-4 0  9993
2 69418  88.9890 268.4732 0002506  96.5027 263.6410 13.51026865 17250
QIANFAN-201             
1 69800U 26153A   26281.59169600 -.01844430  00000+0 -17466+1 0  9994
2 69800  88.9958 349.4858 0016144 170.9970 189.1494 13.85390199 13572
QIANFAN-202             
1 69801U 26153B   26281.60106579 -.01852891  00000+0 -16517+1 0  9999
2 69801  88.9961 349.4319 0009730 269.3527  90.6531 13.88991314 13592
QIANFAN-203             
1 69802U 26153C   26281.58339542 -.01837638  00000+0 -16024+1 0  9990
2 69802  88.9961 349.4668 0007648 291.6384  68.3974 13.90246452 13586
QIANFAN-204             
1 69803U 26153D   26281.58156055 -.01838746  00000+0 -16765+1 0  9990
2 69803  88.9957 349.4671 0005793 259.7656 100.2863 13.87652672 13586
QIANFAN-205             
1 69804U 26153E   26281.55905948 -.01858049  00000+0 -17346+1 0  9995
2 69804  88.9956 349.4990 0003345 267.7837  92.2951 13.86319388 13560
QIANFAN-206             
1 69805U 26153F   26281.52862610 -.01850311  00000+0 -16565+1 0  9997
2 69805  88.9959 349.4396 0006578 292.0836  67.9638 13.88747231 13593
QIANFAN-207             
1 69806U 26153G   26281.56198251 -.01846654  00000+0 -17206+1 0  9993
2 69806  88.9962 349.4818 0004663 272.5901  87.4737 13.86405131 13579
QIANFAN-208             
1 69807U 26153H   26281.55494662 -.01815141  00000+0 -17113+1 0  9992
2 69807  88.9955 349.4795 0004465  65.3254 294.8382 13.85635653 13589
QIANFAN-209             
1 69808U 26153J   26281.52995948 -.01848449  00000+0 -17754+1 0  9991
2 69808  88.9963 349.4969 0002815 216.3160 143.7820 13.84622970 13567
QIANFAN-210             
1 69809U 26153K   26281.57089428 -.01831745  00000+0 -17386+1 0  9996
2 69809  88.9961 349.4838 0016907 192.8585 167.2157 13.85219406 13579
QIANFAN-211             
1 69810U 26153L   26281.61305436  .00000334  00000+0  16693-3 0  9995
2 69810  88.9965 349.3787 0005537 268.7967  91.2586 14.14551048 13634
QIANFAN-212             
1 69811U 26153M   26281.55820236 -.01827639  00000+0 -16066+1 0  9998
2 69811  88.9955 349.4434 0009604 294.4761  65.5410 13.89741644 13590
QIANFAN-213             
1 69812U 26153N   26281.47168137 -.01849633  00000+0 -16886+1 0  9993
2 69812  88.9963 349.4678 0007968 217.2353 142.8267 13.87595358 13575
QIANFAN-214             
1 69813U 26153P   26281.57701048 -.01835465  00000+0 -14920+1 0  9994
2 69813  88.9962 349.3914 0009175 155.0537 205.1084 13.94291698 13626
QIANFAN-215             
1 69814U 26153Q   26281.59376094  .00000344  00000+0  17000-3 0  9998
2 69814  88.9963 349.2990 0005390 281.1521  78.9061 14.15209025 13673
QIANFAN-216             
1 69815U 26153R   26281.58513841 -.01849749  00000+0 -15386+1 0  9996
2 69815  88.9961 349.3738 0012187 217.4838 142.5488 13.92983974 13631
QIANFAN-217             
1 69816U 26153S   26281.56520742 -.01862183  00000+0 -11394+1 0  9995
2 69816  88.9957 349.2389 0002549 222.9494 137.1491 14.09670989 13708
QIANFAN-218             
1 69817U 26153T   26281.57576126  .00000048  00000+0  17975-4 0  9990
2 69817  88.9962 349.2440 0003134 294.7210  65.3650 14.13152961 13706
QIANFAN-219             
1 69848U 26155A   26281.60388418  .00000065  00000+0  81554-4 0  9998
2 69848  89.0120  51.8886 0001648 111.5524 248.5803 13.51030615 13189
QIANFAN-220             
1 69849U 26155B   26281.62409073  .00000084  00000+0  11159-3 0  9996
2 69849  89.0126  51.9167 0033194 318.7409  41.1234 13.50936565 13175
QIANFAN-221             
1 69850U 26155C   26281.50706369 -.01860195  00000+0 -25650+1 0  9991
2 69850  89.0125  51.6275 0030398 315.3811  44.4900 13.62542978 13323
QIANFAN-222             
1 69851U 26155D   26281.64092580  .00000064  00000+0  81311-4 0  9998
2 69851  89.0126  51.9337 0001724 101.7051 258.4294 13.51026073 13167
QIANFAN-223             
1 69852U 26155E   26281.59559246  .00000064  00000+0  80029-4 0  9995
2 69852  89.0125  51.9462 0001801 102.1593 257.9760 13.51032706 13159
QIANFAN-224             
1 69853U 26155F   26281.57094140  .00000070  00000+0  89356-4 0  9990
2 69853  89.0109  51.8884 0001764 103.6245 256.5102 13.51029110 13179
QIANFAN-225             
1 69854U 26155G   26281.57502899  .00000072  00000+0  92598-4 0  9990
2 69854  89.0117  51.9370 0001758 104.9151 255.2195 13.51032807 13156
QIANFAN-226             
1 69855U 26155H   26281.57921158  .00000071  00000+0  91824-4 0  9994
2 69855  89.0119  51.9193 0001719 107.0099 253.1240 13.51033948 13160
QIANFAN-227             
1 69856U 26155J   26281.58223926 -.01988586  00000+0 -34255+1 0  9994
2 69856  89.0115  51.9221 0022680 309.1871  50.7263 13.48150428 13167
QIANFAN-228             
1 69857U 26155K   26281.58741574  .00000072  00000+0  92446-4 0  9991
2 69857  89.0124  51.9076 0007971 316.4999  43.5522 13.51027699 13170
QIANFAN-229             
1 69858U 26155L   26281.59972866  .00000062  00000+0  76686-4 0  9990
2 69858  89.0126  51.8908 0001777 101.7833 258.3518 13.51037114 13181
QIANFAN-230             
1 69859U 26155M   26281.56264475  .00000062  00000+0  77759-4 0  9990
2 69859  89.0122  51.9365 0001742 105.0426 255.0918 13.51035281 13151
QIANFAN-231             
1 69860U 26155N   26281.53315483 -.02027274  00000+0 -34734+1 0  9995
2 69860  89.0117  51.8805 0005307 226.1139 133.9573 13.48671369 13185
QIANFAN-232             
1 69861U 26155P   26281.58728389 -.01759847  00000+0 -31223+1 0  9991
2 69861  89.0111  51.8840 0027608 308.8295  51.0389 13.46369040 13181
QIANFAN-233             
1 69862U 26155Q   26281.61212506  .00000071  00000+0  91157-4 0  9996
2 69862  89.0121  51.8736 0001745 109.7330 250.4010 13.51036352 13199
QIANFAN-234             
1 69863U 26155R   26281.54317648 -.01769194  00000+0 -29962+1 0  9994
2 69863  89.0106  51.8087 0035777 315.9699  43.8603 13.49279091 13225
QIANFAN-235             
1 69864U 26155S   26281.56178847 -.01935845  00000+0 -21713+1 0  9997
2 69864  89.0123  51.5294 0030221 309.1723  50.6757 13.74682588 13384
QIANFAN-236             
1 69865U 26155T   26281.54487089 -.01795812  00000+0 -31878+1 0  9998
2 69865  89.0122  51.9032 0001977 240.3144 119.7808 13.46569524 13171
QIANFAN-237             
1 69866U 26155U   26281.62445655  .00000023  00000+0  17468-4 0  9994
2 69866  89.0125  51.8599 0001909  94.1221 266.0148 13.51036562 13190
QIANFAN-238             
1 69867U 26155V   26281.55450487  .00000074  00000+0  96065-4 0  9992
2 69867  89.0127  51.8855 0001881  94.6360 265.5006 13.51025317 13188
