EUTELSAT 174A           
1 28924U 05052A   26259.81918562  .00000005  00000+0  00000+0 0  9994
2 28924   4.4446  75.3417 0005959  98.5868 290.7395  1.00274077 53256
EUTELSAT 33F            
1 29270U 06032A   26259.77834771  .00000151  00000+0  00000+0 0  9994
2 29270   1.8917  81.0887 0003354  85.6223 142.3326  1.00269751 48229
EUTELSAT HOTBIRD 13C    
1 33459U 08065A   26259.70357175 -.00000287  00000+0  00000+0 0  9998
2 33459   3.1794  78.0303 0003566  99.3677  21.2420  1.00273770 48260
EUTELSAT 36B            
1 36101U 09065A   26259.79474550  .00000107  00000+0  00000+0 0  9992
2 36101   0.7160  81.1441 0005736  91.1540 160.0409  1.00271983 61623
EUTELSAT KA-SAT 9A      
1 37258U 10069A   26259.64394479  .00000057  00000+0  00000+0 0  9991
2 37258   0.0743 353.0748 0005405 176.1837  67.1690  1.00272461 44929
EUTELSAT 7 WEST A       
1 37816U 11051A   26259.64073811 -.00000065  00000+0  00000+0 0  9997
2 37816   0.0635 358.5220 0006027 175.8496  44.5675  1.00272491 54793
EUTELSAT 16A            
1 37836U 11057A   26259.64533146  .00000099  00000+0  00000+0 0  9993
2 37836   0.0977  63.8967 0005515 110.6881  69.3210  1.00271566  8256
EUTELSAT 21B            
1 38992U 12062B   26259.64645814  .00000125  00000+0  00000+0 0  9990
2 38992   0.0688 354.7076 0002950 176.1288  79.0770  1.00271537 50748
EUTELSAT 70B            
1 39020U 12069A   26259.77311181 -.00000049  00000+0  00000+0 0  9997
2 39020   0.0653 348.2091 0003796 190.7898 165.5578  1.00273175 50428
EUTELSAT 117 WEST A     
1 39122U 13012A   26259.61907133 -.00000018  00000+0  00000+0 0  9996
2 39122   0.0392 322.5975 0002815 207.4278 291.6213  1.00270639 49355
EUTELSAT 7B             
1 39163U 13022A   26259.64533146  .00000099  00000+0  00000+0 0  9992
2 39163   0.0662 348.3937 0004903 115.6479 139.8762  1.00272657 48866
EXPRESS-AT1             
1 39612U 14010A   26259.97038833 -.00000106  00000+0  00000+0 0  9998
2 39612   0.4882  84.4999 0004933  79.5441 256.6874  1.00315552 45736
EXPRESS-AT2             
1 39613U 14010B   26259.65330483  .00000074  00000+0  00000+0 0  9993
2 39613   0.0191 246.8838 0000374 200.1247 199.7927  1.00271291 45415
EUTELSAT 3B             
1 39773U 14030A   26259.64281811  .00000016  00000+0  00000+0 0  9997
2 39773   0.0626 347.6513 0004352 183.5238  58.9488  1.00274208 44989
EUTELSAT 115 WEST B     
1 40425U 15010B   26259.40563509 -.00000030  00000+0  00000+0 0  9990
2 40425   0.0328  25.5940 0000151  66.7612 294.1441  1.00271538 42299
EUTELSAT 8 WEST B       
1 40875U 15039B   26259.64065145 -.00000070  00000+0  00000+0 0  9993
2 40875   0.0666 355.7447 0003655 179.5912  42.9156  1.00271024 40572
EUTELSAT 9B             
1 41310U 16005A   26259.35883488  .00000057  00000+0  00000+0 0  9992
2 41310   0.0392  61.6795 0002624 145.3339 286.5028  1.00274938 39031
EUTELSAT 65 WEST A      
1 41382U 16014A   26259.55797104 -.00000281  00000+0  00000+0 0  9992
2 41382   0.0682 318.3629 0002216 209.3019 323.5312  1.00271997 38447
EUTELSAT 117 WEST B     
1 41589U 16038B   26259.40520176 -.00000017  00000+0  00000+0 0  9991
2 41589   0.0324  23.4332 0000260 215.0981 145.7030  1.00272789 37577
EUTELSAT 172B           
1 42741U 17029B   26259.81883896 -.00000010  00000+0  00000+0 0  9992
2 42741   0.0225 143.9516 0000365 302.3715  16.2290  1.00271408 34665
EUTELSAT 7C             
1 44334U 19034B   26259.21592635  .00000043  00000+0  00000+0 0  9997
2 44334   0.0689 179.9501 0003212 337.0383 282.9069  1.00271919  7744
EUTELSAT 5 WEST B       
1 44624U 19067A   26259.64117145 -.00000047  00000+0  00000+0 0  9996
2 44624   0.0742 327.6876 0003157 203.7815  49.9425  1.00272342 25344
EUTELSAT KONNECT        
1 45027U 20005B   26259.35848822  .00000044  00000+0  00000+0 0  9995
2 45027   0.0658  98.8503 0001312  94.0903 298.6125  1.00270052 25258
EUTELSAT QUANTUM        
1 49056U 21069B   26259.58033115  .00000121  00000+0  00000+0 0  9994
2 49056   0.0133 119.4973 0002264  58.6361  74.0289  1.00273427 18847
EUTELSAT KONNECT VHTS   
1 53765U 22110A   26259.64273145  .00000012  00000+0  00000+0 0  9999
2 53765   0.0548 104.3575 0002881  39.5113  85.8377  1.00271024  7755
EUTELSAT HOTBIRD 13F    
1 54048U 22134A   26259.64472479  .00000082  00000+0  00000+0 0  9998
2 54048   0.0624 289.2325 0002084  79.6491 231.8097  1.00271653 14297
EUTELSAT HOTBIRD 13G    
1 54225U 22146A   26259.64472479  .00000082  00000+0  00000+0 0  9998
2 54225   0.0505 236.1816 0002005 296.0816  68.4323  1.00272252  8382
EUTELSAT 10B            
1 54259U 22157A   26259.64420479  .00000063  00000+0  00000+0 0  9999
2 54259   0.0555 101.6757 0001724 358.6464 137.1704  1.00269917 13944
EUTELSAT 36D            
1 59346U 24059A   26259.64931815  .00000151  00000+0  00000+0 0  9993
2 59346   0.0171 161.3555 0000136 312.5753 151.2954  1.00273443  9066
