KUIPER-00008            
1 63724U 25088A   26267.07115501  .00000579  00000+0  10499-3 0  9994
2 63724  51.9007 290.7656 0000417  68.3208 291.7799 14.79933714 77422
KUIPER-00009            
1 63725U 25088B   26267.10847234  .00005652  00000+0  38015-3 0  9995
2 63725  51.9011 297.2155 0000426  48.7161 311.3850 15.08102686 77330
KUIPER-00010            
1 63726U 25088C   26267.11032813  .00000681  00000+0  11831-3 0  9990
2 63726  51.9026 285.7046 0000446  58.9777 301.1229 14.79936914 77115
KUIPER-00011            
1 63727U 25088D   26267.13600654  .00000499  00000+0  94430-4 0  9991
2 63727  51.9017 293.1329 0000421  55.0460 305.0542 14.79923912 77141
KUIPER-00012            
1 63728U 25088E   26267.05086725  .00000536  00000+0  99336-4 0  9992
2 63728  51.9021 278.4491 0000782  74.5003 285.6046 14.79927311 77297
KUIPER-00013            
1 63729U 25088F   26267.11712886 -.00000322  00000+0 -13190-4 0  9993
2 63729  51.9045 310.6796 0000400  56.6151 303.4850 14.79931084 76959
KUIPER-00014            
1 63730U 25088G   26267.15085840 -.00000390  00000+0 -22127-4 0  9997
2 63730  51.9035 310.4721 0000480  69.2919 290.8095 14.79922688 76776
KUIPER-00015            
1 63731U 25088H   26267.17384788  .00001200  00000+0  18630-3 0  9995
2 63731  51.9042 320.4170 0000502  27.1436 332.9553 14.79942264 77091
KUIPER-00016            
1 63732U 25088J   26267.14818996  .00000993  00000+0  15921-3 0  9994
2 63732  51.8991 312.9859 0000402  76.8822 283.2185 14.79933234 76739
KUIPER-00018            
1 63733U 25088K   26267.05767843 -.00000279  00000+0 -76174-5 0  9997
2 63733  51.9052 303.4360 0000247  32.1078 327.9899 14.79930834 76861
KUIPER-00019            
1 63734U 25088L   26267.15188566  .00000587  00000+0  10597-3 0  9993
2 63734  51.9025 301.7642 0000336   7.7652 352.3315 14.79928073 76891
KUIPER-00020            
1 63735U 25088M   26267.12251630 -.00000601  00000+0 -49849-4 0  9996
2 63735  51.9028 305.6455 0000504  34.5317 325.5678 14.79926860 77047
KUIPER-00021            
1 63736U 25088N   26266.41345176 -.00000372  00000+0 -19781-4 0  9994
2 63736  51.9027 308.7290 0000283  54.2216 305.8773 14.79928760 76776
KUIPER-00023            
1 63737U 25088P   26265.43155555  .00000733  00000+0  12511-3 0  9998
2 63737  51.9020 315.5602 0000398  61.7289 298.3714 14.79939024 76892
KUIPER-00024            
1 63738U 25088Q   26267.06578203  .00000537  00000+0  99450-4 0  9999
2 63738  51.9035 295.9482 0000379  61.3025 298.7975 14.79935875 77433
KUIPER-00025            
1 63739U 25088R   26266.41615686  .00001211  00000+0  18784-3 0  9995
2 63739  51.9051 306.3030 0000346  76.1160 283.9841 14.79935316 77096
KUIPER-00027            
1 63740U 25088S   26267.13059152  .00000997  00000+0  15973-3 0  9994
2 63740  51.9038 298.1023 0000449   2.5057 357.5907 14.79942538 77001
KUIPER-00028            
1 63741U 25088T   26267.09952624  .00000888  00000+0  14549-3 0  9993
2 63741  51.9005 295.6770 0000352  21.1529 338.9448 14.79938401 77446
KUIPER-00029            
1 63742U 25088U   26267.07553807 -.00000776  00000+0 -72800-4 0  9995
2 63742  51.9044 294.4835 0000698  69.5533 290.5504 14.79929412 76989
KUIPER-00030            
1 63743U 25088V   26267.18195521  .00000671  00000+0  11708-3 0  9994
2 63743  51.9033 312.8335 0000326  46.0184 314.0805 14.79924838 77027
KUIPER-00031            
1 63744U 25088W   26267.09684490 -.00000106  00000+0  15102-4 0  9990
2 63744  51.9030 298.2319 0000336  44.2167 315.8823 14.79929094 76933
KUIPER-00032            
1 63745U 25088X   26267.09501595  .00011378  00000+0  26548-3 0  9992
2 63745  51.8653 140.6853 0005206 107.6367 252.5191 15.42695125 80121
KUIPER-00033            
1 63746U 25088Y   26267.19953956  .00001928  00000+0  28180-3 0  9990
2 63746  51.9034 327.7763 0000202  41.3511 318.7467 14.79937829 77014
KUIPER-00034            
1 63747U 25088Z   26267.03738198  .00000873  00000+0  14355-3 0  9990
2 63747  51.9030 291.0309 0000515  84.1296 275.9725 14.79922238 77190
KUIPER-00035            
1 63748U 25088AA  26267.14549838  .00000902  00000+0  14737-3 0  9991
2 63748  51.9019 315.5160 0000381  86.3980 273.7026 14.79925917 76916
KUIPER-00037            
1 63749U 25088AB  26267.13841380  .00000686  00000+0  11900-3 0  9996
2 63749  51.9022 314.4085 0000278  77.7997 282.2997 14.79923331 77711
KUIPER-00038            
1 63750U 25088AC  26267.12791760 -.00000126  00000+0  12518-4 0  9990
2 63750  51.9023 300.6296 0000454  75.9431 284.1582 14.79928573 76908
KUIPER-00039            
1 64500U 25134A   26267.16800551  .00000649  00000+0  11416-3 0  9993
2 64500  51.9007  75.4473 0000812 122.4757 237.6284 14.79933603 69460
KUIPER-00040            
1 64501U 25134B   26267.19099370  .00000691  00000+0  11972-3 0  9990
2 64501  51.8998  85.4020 0001123 120.3119 239.7954 14.79932724 69328
KUIPER-00041            
1 64502U 25134C   26266.95192522  .00002328  00000+0  33427-3 0  9995
2 64502  51.8986  88.8524 0000733 111.4595 248.6445 14.79931410 69254
KUIPER-00042            
1 64503U 25134D   26267.19367227  .00001764  00000+0  26042-3 0  9997
2 64503  51.8976  82.7599 0001077 150.0480 210.0544 14.79925066 69368
KUIPER-00043            
1 64504U 25134E   26266.86411259  .00002394  00000+0  34290-3 0  9990
2 64504  51.9019  76.7337 0000693 125.8087 234.2940 14.79939733 69428
KUIPER-00044            
1 64505U 25134F   26266.71557609  .00002050  00000+0  29776-3 0  9997
2 64505  51.8997  89.8792 0000727 114.7340 245.3698 14.79939392 69222
KUIPER-00046            
1 64506U 25134G   26266.75200208  .00002004  00000+0  29183-3 0  9993
2 64506  51.8992  87.1875 0000618 102.6392 257.4640 14.79935199 69269
KUIPER-00047            
1 64507U 25134H   26266.68040677  .00002251  00000+0  32423-3 0  9993
2 64507  51.8991  60.0348 0000583 124.3332 235.7686 14.79929958 69636
KUIPER-00048            
1 64508U 25134J   26266.64663531  .00000451  00000+0  88173-4 0  9994
2 64508  51.9002  60.1942 0000560 123.1646 236.9370 14.79932469 69636
KUIPER-00049            
1 64509U 25134K   26266.86948854  .00002462  00000+0  35189-3 0  9995
2 64509  51.8998  71.6839 0000848 105.2404 254.8653 14.79932061 69499
KUIPER-00050            
1 64510U 25134L   26266.68579904  .00002414  00000+0  34544-3 0  9994
2 64510  51.9003  55.0156 0000501 127.6842 232.4166 14.79938793 69711
KUIPER-00051            
1 64511U 25134M   26267.18317198  .00002385  00000+0  34177-3 0  9995
2 64511  51.9009  68.9928 0000799 143.9524 216.1492 14.79933851 69558
KUIPER-00053            
1 64513U 25134P   26266.71325597 -.00005709  00000+0 -69049-3 0  9998
2 64513  51.9001  65.4343 0002497 133.4957 226.6214 14.81683371 69567
KUIPER-00054            
1 64514U 25134Q   26266.84652836  .00002651  00000+0  37654-3 0  9990
2 64514  51.8986  61.7864 0000721 121.7992 238.3041 14.79937464 69620
KUIPER-00055            
1 64515U 25134R   26267.26914687  .00001367  00000+0  20840-3 0  9995
2 64515  51.9035  12.5720 0000460  95.1939 264.9076 14.79916424 70355
KUIPER-00056            
1 64516U 25134S   26266.73985355  .00000553  00000+0  10153-3 0  9999
2 64516  51.9030  67.3782 0000796 132.5905 227.5125 14.79934619 69543
KUIPER-00057            
1 64517U 25134T   26266.73175032  .00000363  00000+0  76644-4 0  9990
2 64517  51.8985  74.8280 0000835 109.4444 250.6609 14.79933744 69433
KUIPER-00058            
1 64518U 25134U   26266.70338019  .00002103  00000+0  30478-3 0  9992
2 64518  51.9008  69.9303 0000669 120.3401 239.7628 14.79931539 69509
KUIPER-00059            
1 64519U 25134V   26266.84383523  .00002677  00000+0  38002-3 0  9995
2 64519  51.8998  64.3449 0000310 104.7436 255.3560 14.79935742 69592
KUIPER-00060            
1 64520U 25134W   26266.74255587  .00002171  00000+0  31373-3 0  9997
2 64520  51.9026  64.8730 0000579 109.1241 250.9785 14.79930968 69567
KUIPER-00061            
1 64521U 25134X   26266.76819023  .00002404  00000+0  34417-3 0  9992
2 64521  51.8996  72.1986 0000814 125.9597 234.1441 14.79949151 69466
KUIPER-00062            
1 64522U 25134Y   26266.76551474  .00000704  00000+0  12138-3 0  9993
2 64522  51.8968  74.6545 0000941 124.7689 235.3362 14.79933604 69443
KUIPER-00063            
1 64523U 25134Z   26266.75744064  .00001012  00000+0  16178-3 0  9993
2 64523  51.9021  82.2917 0000730 106.7077 253.3965 14.79933893 69337
KUIPER-00064            
1 64524U 25134AA  26266.82765992  .00002372  00000+0  34006-3 0  9995
2 64524  51.9022  79.4067 0000931 116.4128 243.6929 14.79934556 69385
KUIPER-00065            
1 64525U 25134AB  26266.75474550 -.00000421  00000+0 -26258-4 0  9991
2 64525  51.9027  84.9036 0000641 110.0428 250.0603 14.79933716 69286
KUIPER-00066            
1 64526U 25134AC  26266.58577578  .00000502  00000+0  94872-4 0  9992
2 64526  51.9043  22.9194 0000642 108.4698 251.6335 14.79935216 70157
KUIPER-00069            
1 64816U 25151A   26266.98172264  .00002136  00000+0  30916-3 0  9993
2 64816  51.9009 123.8070 0000823 116.2837 243.8210 14.79934778 66127
KUIPER-00070            
1 64817U 25151B   26267.12356580  .00001210  00000+0  18779-3 0  9991
2 64817  51.9004 148.0781 0001295  94.8550 265.2560 14.79931581 65807
KUIPER-00071            
1 64818U 25151C   26267.05873118  .00000871  00000+0  14325-3 0  9990
2 64818  51.9018 145.9113 0000838 102.5560 257.5496 14.79937032 64648
KUIPER-00072            
1 64819U 25151D   26267.04652148  .00000701  00000+0  12088-3 0  9994
2 64819  51.8978 125.8860 0000902 111.1849 248.9210 14.79936963 64928
KUIPER-00073            
1 64820U 25151E   26267.02496442  .00002348  00000+0  33689-3 0  9996
2 64820  51.9004 146.0374 0001149  94.2591 265.8503 14.79943243 65827
KUIPER-00075            
1 64822U 25151G   26266.81245836  .00021527  00000+0  56166-3 0  9998
2 64822  51.8669 335.9252 0002791 259.4313 100.6360 15.38757735 66980
KUIPER-00076            
1 64823U 25151H   26267.03575838  .00001497  00000+0  22534-3 0  9998
2 64823  51.8998 136.0156 0001014 101.5884 258.5192 14.79932498 64783
KUIPER-00077            
1 64824U 25151J   26267.03036734  .00002197  00000+0  31703-3 0  9992
2 64824  51.9013 141.0618 0001162  99.9935 260.1159 14.79941087 64712
KUIPER-00078            
1 64825U 25151K   26266.99929004  .00002126  00000+0  30776-3 0  9999
2 64825  51.9002 138.6695 0001085 105.3689 254.7393 14.79934894 64740
KUIPER-00079            
1 64826U 25151L   26267.09518745  .00002178  00000+0  31458-3 0  9993
2 64826  51.8994 143.1996 0001175  94.0126 266.0971 14.79943381 65880
KUIPER-00080            
1 64827U 25151M   26267.06141156  .00000180  00000+0  52588-4 0  9998
2 64827  51.8979 143.3630 0000608 164.4543 195.6438 14.79936994 64680
KUIPER-00082            
1 64828U 25151N   26267.04115368  .00001939  00000+0  28323-3 0  9995
2 64828  51.9004 131.0149 0000996 101.0006 259.1068 14.79935877 64854
KUIPER-00083            
1 64829U 25151P   26267.03305934  .00000684  00000+0  11880-3 0  9991
2 64829  51.9009 138.5319 0001158  95.4310 264.6785 14.79934609 65935
KUIPER-00084            
1 64830U 25151Q   26267.02226479  .00002030  00000+0  29516-3 0  9990
2 64830  51.9015 148.5653 0000795 101.1441 258.9611 14.79932578 64602
KUIPER-00085            
1 64831U 25151R   26267.07493043  .00002223  00000+0  32054-3 0  9994
2 64831  51.9034 130.9240 0000917 108.3362 251.7700 14.79933650 64857
KUIPER-00086            
1 64832U 25151S   26267.06413310  .00002175  00000+0  31415-3 0  9999
2 64832  51.9008 140.9041 0001024 102.9297 257.1780 14.79935302 64715
KUIPER-00087            
1 64833U 25151T   26266.81290594  .00001944  00000+0  28369-3 0  9996
2 64833  51.8992 124.4685 0000900 100.4219 259.6844 14.79970032 64916
KUIPER-00089            
1 64834U 25151U   26267.01007578  .00002045  00000+0  29717-3 0  9999
2 64834  51.9004 128.6231 0000810 106.6157 253.4894 14.79941058 64883
KUIPER-00090            
1 64835U 25151V   26267.01816597  .00002030  00000+0  29519-3 0  9993
2 64835  51.8986 121.0798 0000977 117.4838 242.6224 14.79934238 64987
KUIPER-00091            
1 64836U 25151W   26267.01277979  .00001458  00000+0  22024-3 0  9996
2 64836  51.9002 126.1344 0001135 106.2709 253.8378 14.79931623 64913
KUIPER-00092            
1 64837U 25151X   26267.07222154  .00000643  00000+0  11334-3 0  9995
2 64837  51.8991 133.3602 0000839 117.3615 242.7433 14.79933964 66030
KUIPER-00093            
1 64838U 25151Y   26267.06952292  .00000412  00000+0  83070-4 0  9999
2 64838  51.8994 135.8404 0000900 110.8890 249.2169 14.79933534 64784
KUIPER-00094            
1 64839U 25151Z   26266.78043141  .00001984  00000+0  28913-3 0  9991
2 64839  51.9040  92.2351 0001111 117.8713 242.2362 14.79938667 65377
KUIPER-00081            
1 65132U 25171A   26267.19214299  .00002298  00000+0  33032-3 0  9997
2 65132  51.9033 350.2955 0000279  85.0053 275.0941 14.79934338 62432
KUIPER-00088            
1 65133U 25171B   26267.24080799  .00002439  00000+0  34878-3 0  9996
2 65133  51.9028   7.5783 0000419  87.9185 272.1825 14.79933437 62192
KUIPER-00095            
1 65134U 25171C   26267.19485698  .00002227  00000+0  32096-3 0  9993
2 65134  51.9008 347.8183 0000274 106.7978 253.3014 14.79933357 62466
KUIPER-00096            
1 65135U 25171D   26267.28265763  .00000021  00000+0  31725-4 0  9992
2 65135  51.9028 359.8901 0000186  87.7050 272.3934 14.79931067 62302
KUIPER-00097            
1 65136U 25171E   26267.27999065  .00001002  00000+0  16047-3 0  9990
2 65136  51.9050   2.5732 0000450  61.9942 298.1066 14.79931417 62255
KUIPER-00098            
1 65137U 25171F   26267.27722858 -.00005833  00000+0 -73662-3 0  9999
2 65137  51.9024   4.9409 0000743  68.1434 291.9607 14.79939440 61574
KUIPER-00099            
1 65138U 25171G   26267.25429945  .00000664  00000+0  11608-3 0  9996
2 65138  51.9052 355.0591 0000202  55.6945 304.4037 14.79933488 62367
KUIPER-00100            
1 65139U 25171H   26267.22322284  .00000976  00000+0  15703-3 0  9998
2 65139  51.9021 352.6604 0000437  78.6777 281.4235 14.79934743 62392
KUIPER-00102            
1 65140U 25171J   26267.22052054  .00000865  00000+0  14248-3 0  9995
2 65140  51.9020 355.1403 0000080 178.5707 181.5256 14.79933730 62359
KUIPER-00103            
1 65141U 25171K   26267.30293648  .00000421  00000+0  84227-4 0  9994
2 65141  51.9016  12.2787 0000265  83.8787 276.2205 14.79925886 62126
KUIPER-00104            
1 65142U 25171L   26267.31643080  .00000722  00000+0  12374-3 0  9992
2 65142  51.9047 359.7392 0000281 109.8283 250.2710 14.79933762 62305
KUIPER-00105            
1 65143U 25171M   26267.27458141  .00002517  00000+0  35905-3 0  9999
2 65143  51.9027   7.5152 0000290  91.3204 268.7792 14.79932462 62191
KUIPER-00106            
1 65144U 25171N   26267.25529964  .00002408  00000+0  34470-3 0  9995
2 65144  51.9030 346.3698 0000341  87.4071 272.6930 14.79933803 62491
KUIPER-00107            
1 65145U 25171P   26266.55061299  .00002259  00000+0  32528-3 0  9996
2 65145  51.9027 353.1591 0000535  73.7960 286.3062 14.79924837 62334
KUIPER-00108            
1 65146U 25171Q   26267.31373722  .00000266  00000+0  63911-4 0  9996
2 65146  51.9044   2.3329 0000289  81.2031 278.8964 14.79927490 62273
KUIPER-00109            
1 65147U 25171R   26267.28535824  .00000192  00000+0  54187-4 0  9999
2 65147  51.9055 357.4001 0000562 114.0280 246.0741 14.79929732 62330
KUIPER-00110            
1 65148U 25171S   26267.30564676  .00000240  00000+0  60437-4 0  9999
2 65148  51.9013   9.8535 0000271 112.8335 247.2657 14.79932711 62159
KUIPER-00111            
1 65149U 25171T   26267.26647134  .00001568  00000+0  23467-3 0  9991
2 65149  51.9004  14.8865 0000262 116.6820 243.4169 14.79930943 62086
KUIPER-00112            
1 65150U 25171U   26266.57628830  .00000726  00000+0  12419-3 0  9998
2 65150  51.9047   0.5792 0000557 146.8917 213.2080 14.79934254 62227
KUIPER-00114            
1 65151U 25171V   26267.26378424  .00001098  00000+0  17303-3 0  9997
2 65151  51.9009  17.4951 0000124  51.1046 308.9927 14.79930864 62046
KUIPER-00115            
1 65152U 25171W   26267.27187602  .00000272  00000+0  64708-4 0  9990
2 65152  51.9011   9.9688 0000320  94.1817 265.9182 14.79935311 62153
KUIPER-00116            
1 65153U 25171X   26267.30025329  .00000281  00000+0  65824-4 0  9992
2 65153  51.9019  14.8751 0000430  98.2312 261.8699 14.79931522 62085
KUIPER-00118            
1 65154U 25171Y   26267.29754932  .00000988  00000+0  15858-3 0  9995
2 65154  51.9016  17.3350 0000527  87.7235 272.3788 14.79930544 62056
KUIPER-00119            
1 65155U 25171Z   26267.24351159  .00002604  00000+0  37046-3 0  9995
2 65155  51.9031   5.1781 0000436  58.3345 301.7660 14.79929277 62217
KUIPER-00120            
1 65762U 25217A   26267.00761758  .00000802  00000+0  13426-3 0  9998
2 65762  51.8936 256.0849 0000847  70.6468 289.4586 14.79933708 54107
KUIPER-00132            
1 65763U 25217B   26267.02322411  .00019492  00000+0  49701-3 0  9990
2 65763  51.8527 118.3434 0005050 314.1756  45.8816 15.39523343 56010
KUIPER-00133            
1 65764U 25217C   26267.24398737  .00000958  00000+0  15467-3 0  9998
2 65764  51.9039 255.1815 0000633  60.5626 299.5400 14.79936878 54146
KUIPER-00139            
1 65765U 25217D   26267.27902344  .00000933  00000+0  15143-3 0  9991
2 65765  51.8986 222.4474 0000887  62.3896 297.7156 14.79932278 54604
KUIPER-00142            
1 65766U 25217E   26267.29661590  .00002394  00000+0  34284-3 0  9999
2 65766  51.8992 237.3385 0000739  55.5909 304.5124 14.79938358 54396
KUIPER-00145            
1 65767U 25217F   26267.29391677  .00002534  00000+0  36120-3 0  9993
2 65767  51.8989 239.8753 0000791  55.3968 304.7069 14.79940511 54350
KUIPER-00147            
1 65768U 25217G   26265.36649894  .00001823  00000+0  26793-3 0  9992
2 65768  51.8985 250.8698 0000791  32.6258 327.4753 14.79963333 54032
KUIPER-00148            
1 65769U 25217H   26267.27633427  .00001614  00000+0  24062-3 0  9995
2 65769  51.9040 224.9802 0000682  76.0573 284.0465 14.79933287 54567
KUIPER-00150            
1 65770U 25217J   26266.97656089  .00002110  00000+0  30565-3 0  9999
2 65770  51.9013 253.8015 0000602  76.0846 284.0184 14.79935269 54134
KUIPER-00151            
1 65771U 25217K   26266.64699874  .00002170  00000+0  31348-3 0  9999
2 65771  51.9010 247.7578 0000684  59.3262 300.7768 14.79938793 54199
KUIPER-00152            
1 65772U 25217L   26267.30201021  .00001090  00000+0  17193-3 0  9999
2 65772  51.9003 232.3399 0000810  54.4602 305.6436 14.79937836 54461
KUIPER-00153            
1 65773U 25217M   26267.23988021 -.00000061  00000+0  21076-4 0  9998
2 65773  51.9005 227.7085 0003627  63.6317 296.5018 14.79930760 54528
KUIPER-00155            
1 65774U 25217N   26267.20201299  .00002264  00000+0  32585-3 0  9993
2 65774  51.9024 200.3341 0000865  81.9278 278.1783 14.79937126 54902
KUIPER-00156            
1 65775U 25217P   26267.27364345  .00002424  00000+0  34678-3 0  9996
2 65775  51.9018 227.5373 0000700  69.8591 290.2447 14.79938224 54523
KUIPER-00165            
1 65778U 25217S   26266.65508816  .00001403  00000+0  21305-3 0  9992
2 65778  51.8983 240.2030 0000866  95.0659 265.0402 14.79937774 54291
KUIPER-00166            
1 65779U 25217T   26267.24256229 -.00000073  00000+0  19407-4 0  9991
2 65779  51.8995 225.1675 0000767  84.3200 275.7850 14.79920848 54553
KUIPER-00167            
1 65780U 25217U   26266.98192194  .00002219  00000+0  31999-3 0  9995
2 65780  51.8962 248.6355 0000854  57.6955 302.4090 14.79932464 54204
KUIPER-00168            
1 65781U 25217V   26267.27094153  .00000820  00000+0  13650-3 0  9995
2 65781  51.8997 229.9851 0000822  62.5714 297.5332 14.79933756 54498
KUIPER-00169            
1 65782U 25217W   26267.26555523  .00002503  00000+0  35722-3 0  9992
2 65782  51.9005 235.0228 0000704  78.5844 281.5198 14.79933867 54425
KUIPER-00170            
1 65783U 25217X   26266.65238584  .00000528  00000+0  98238-4 0  9997
2 65783  51.8966 242.6737 0000719  69.2591 290.8449 14.79935102 54260
KUIPER-00172            
1 65785U 25217Z   26267.24527249 -.00000130  00000+0  11916-4 0  9992
2 65785  51.8958 222.5839 0000969  59.5801 300.5257 14.79924580 54596
KUIPER-00173            
1 65786U 25217AA  26267.29932026  .00002402  00000+0  34404-3 0  9990
2 65786  51.8996 234.8637 0000910  49.6596 310.4445 14.79933500 54421
KUIPER-00174            
1 65787U 25217AB  26267.30471523  .00003338  00000+0  46666-3 0  9995
2 65787  51.9009 229.9054 0000931  78.1328 281.9739 14.79932193 54491
KUIPER-00176            
1 65788U 25217AC  26267.28852052  .00002343  00000+0  33619-3 0  9992
2 65788  51.8980 244.8891 0000792  57.5364 302.5675 14.79939359 54287
KUIPER-00101            
1 65947U 25228A   26266.21997713  .00003764  00000+0  52262-3 0  9990
2 65947  51.8983 207.0571 0000852  60.8216 299.2832 14.79923798 52480
KUIPER-00113            
1 65948U 25228B   26267.20467495 -.00000663  00000+0 -57928-4 0  9992
2 65948  51.8986 197.7259 0001050  88.1685 271.9398 14.79922858 52699
KUIPER-00117            
1 65949U 25228C   26267.16821192  .00002606  00000+0  37073-3 0  9991
2 65949  51.8971 200.3874 0000926  78.4863 281.6204 14.79933123 52656
KUIPER-00121            
1 65950U 25228D   26267.20739934 -.00000049  00000+0  22585-4 0  9993
2 65950  51.8986 195.2381 0001018  81.0379 279.0699 14.79927888 52733
KUIPER-00122            
1 65951U 25228E   26267.19659972  .00002596  00000+0  36938-3 0  9999
2 65951  51.8997 205.2523 0000693  96.3917 263.7125 14.79934979 52598
KUIPER-00123            
1 65952U 25228F   26267.23035441  .00000243  00000+0  60883-4 0  9998
2 65952  51.8988 205.1114 0001695  65.3189 294.7949 14.79934997 52592
KUIPER-00124            
1 65953U 25228G   26267.17093684  .00006030  00000+0  81950-3 0  9992
2 65953  51.8974 197.8668 0001937  65.8907 294.2258 14.79923702 52692
KUIPER-00125            
1 65954U 25228H   26267.11953010  .00002691  00000+0  38201-3 0  9995
2 65954  51.9004 183.1467 0001173  88.1605 271.9492 14.79918359 52894
KUIPER-00126            
1 65955U 25228J   26267.19930986  .00001789  00000+0  26356-3 0  9996
2 65955  51.8992 202.7699 0000991  94.3743 265.7332 14.79934630 52629
KUIPER-00127            
1 65956U 25228K   26267.25804786 -.00000086  00000+0  17742-4 0  9992
2 65956  51.9008 194.9956 0001155  67.7061 292.4024 14.79928564 52744
KUIPER-00128            
1 65957U 25228L   26267.17363867  .00001534  00000+0  23020-3 0  9997
2 65957  51.8988 195.4355 0001010  90.5404 269.5674 14.79935196 52728
KUIPER-00129            
1 65958U 25228M   26267.14524812 -.00000606  00000+0 -50537-4 0  9999
2 65958  51.9001 190.5385 0000676  73.4006 286.7030 14.79921983 52793
KUIPER-00130            
1 65959U 25228N   26267.17633955 -.00000049  00000+0  22541-4 0  9996
2 65959  51.9035 192.9500 0000882  84.2561 275.8502 14.79932389 43055
KUIPER-00134            
1 65960U 25228P   26266.77961444  .00019002  00000+0  51148-3 0  9992
2 65960  51.8695  78.7668 0004235 286.4149  73.6373 15.37876645 54316
KUIPER-00135            
1 65961U 25228Q   26267.14257665 -.00000051  00000+0  22320-4 0  9994
2 65961  51.9005 193.1501 0000898  83.5522 276.5543 14.79929847 52750
KUIPER-00136            
1 65962U 25228R   26267.24649292  .00002701  00000+0  38329-3 0  9995
2 65962  51.9002 190.1342 0000977  69.3752 290.7316 14.79912164 52809
KUIPER-00137            
1 65963U 25228S   26267.18173168 -.00000758  00000+0 -70358-4 0  9994
2 65963  51.9052 187.9335 0001092  56.9930 303.1138 14.79931891 52832
KUIPER-00138            
1 65964U 25228T   26267.21816273  .00002584  00000+0  36784-3 0  9991
2 65964  51.9002 185.1671 0001022  88.8401 271.2679 14.79935420 52872
KUIPER-00140            
1 65965U 25228U   26267.14796094  .00000151  00000+0  48825-4 0  9990
2 65965  51.8987 188.0711 0001122  90.3638 269.7453 14.79930262 52828
KUIPER-00141            
1 65966U 25228V   26267.15336163  .00002682  00000+0  38058-3 0  9996
2 65966  51.9023 183.1282 0000697 103.7013 256.4027 14.79941172 52891
KUIPER-00146            
1 65967U 25228W   26267.18443836 -.00000269  00000+0 -62963-5 0  9991
2 65967  51.9032 185.5036 0001299  79.3542 280.7567 14.79927578 52869
KUIPER-00149            
1 65968U 25228X   26267.15605542 -.00000038  00000+0  24051-4 0  9991
2 65968  51.9008 180.5005 0001042  83.9719 276.1362 14.79926497 52936
KUIPER-00154            
1 65969U 25228Y   26267.12498016 -.00000512  00000+0 -38189-4 0  9990
2 65969  51.9001 178.1200 0000934  93.4809 266.6260 14.79931150 52961
KUIPER-00157            
1 65970U 25228Z   26267.15572309 -.00001367  00000+0 -16333-3 0  9998
2 65970  51.9018 180.2902 0001623 139.5682 220.5400 14.76639232 52936
KUIPER-00144            
1 67133U 25301A   26266.70103876  .00000232  00000+0  59420-4 0  9995
2 67133  51.9008 260.0204 0000781  61.3599 298.7442 14.79931564 43190
KUIPER-00164            
1 67134U 25301B   26267.02521983  .00002005  00000+0  29189-3 0  9993
2 67134  51.9042 271.1079 0000531  50.4143 309.6866 14.79937574 43244
KUIPER-00175            
1 67135U 25301C   26267.01031885  .00000432  00000+0  85644-4 0  9991
2 67135  51.8993 253.6032 0000687  53.3124 306.7902 14.79933724 43383
KUIPER-00179            
1 67136U 25301D   26266.01495189  .00000426  00000+0  84839-4 0  9990
2 67136  51.8988 273.0031 0000532  56.9765 303.1249 14.79929862 43138
KUIPER-00181            
1 67137U 25301E   26267.01442850  .00001903  00000+0  27852-3 0  9991
2 67137  51.9042 281.1516 0000536  34.6699 325.4299 14.79939983 43083
KUIPER-00183            
1 67138U 25301F   26267.21561097  .00002040  00000+0  29646-3 0  9995
2 67138  51.9018 250.2669 0000681  60.1578 299.9452 14.79936690 43543
KUIPER-00184            
1 67139U 25301G   26266.99953365  .00002180  00000+0  31489-3 0  9996
2 67139  51.8996 263.6610 0000578  66.5379 293.5644 14.79930584 43444
KUIPER-00186            
1 67140U 25301H   26267.04817309  .00002112  00000+0  30584-3 0  9992
2 67140  51.9042 281.0110 0000470 344.3995  15.6953 14.79944211 42931
KUIPER-00187            
1 67141U 25301J   26266.09998542  .00001103  00000+0  17353-3 0  9994
2 67141  51.9037 287.7308 0000545  78.3168 281.7855 14.79955604 42752
KUIPER-00188            
1 67142U 25301K   26266.97926620  .00000607  00000+0  10865-3 0  9999
2 67142  51.9053 251.4297 0000380  53.0992 307.0005 14.79933343 43338
KUIPER-00191            
1 67143U 25301L   26267.01982562  .00002013  00000+0  29300-3 0  9990
2 67143  51.9017 276.1373 0000475  52.3310 307.7695 14.79934297 43026
KUIPER-00196            
1 67144U 25301M   26267.26824680  .00000504  00000+0  95072-4 0  9997
2 67144  51.8963 232.4877 0000931  76.8571 283.2495 14.79931697 43620
KUIPER-00204            
1 67145U 25301N   26267.21828211 -.00000386  00000+0 -21604-4 0  9997
2 67145  51.9021 247.7487 0000673  65.5018 294.6014 14.79931202 43521
KUIPER-00210            
1 67146U 25301P   26267.05351771  .00001971  00000+0  28734-3 0  9991
2 67146  51.9001 275.9322 0000497  48.7766 311.3239 14.79957720 43178
KUIPER-00221            
1 67147U 25301Q   26267.07925466  .00001942  00000+0  28367-3 0  9992
2 67147  51.9028 283.3568 0000570  69.3346 290.7677 14.79932108 42907
KUIPER-00232            
1 67148U 25301R   26267.06167829  .00000572  00000+0  10408-3 0  9998
2 67148  51.8987 268.4421 0000585  70.8252 289.2773 14.79933540 43106
KUIPER-00241            
1 67149U 25301S   26267.08464605  .00000127  00000+0  45726-4 0  9991
2 67149  51.9036 278.3675 0000725  60.9192 299.1843 14.79929963 43307
KUIPER-00245            
1 67150U 25301T   26267.07657520  .00001916  00000+0  28027-3 0  9993
2 67150  51.9035 285.9110 0000474  89.1221 270.9796 14.79935442 42866
KUIPER-00246            
1 67151U 25301U   26266.04603083  .00000631  00000+0  11175-3 0  9994
2 67151  51.9018 275.4036 0000500  77.9684 282.1335 14.79932609 42942
KUIPER-00247            
1 67152U 25301V   26267.00222224  .00000618  00000+0  11002-3 0  9990
2 67152  51.8961 261.1162 0000609  69.2726 290.8302 14.79932896 43200
KUIPER-00248            
1 67153U 25301W   26267.29123526  .00000799  00000+0  13377-3 0  9994
2 67153  51.8987 242.4864 0000750  68.9462 291.1581 14.79934278 43658
KUIPER-00249            
1 67154U 25301X   26267.00493131  .00001900  00000+0  27817-3 0  9995
2 67154  51.8988 258.6858 0000588  60.0389 300.0631 14.79941161 43231
KUIPER-00250            
1 67155U 25301Y   26266.41474197  .00001802  00000+0  26534-3 0  9997
2 67155  51.8998 276.2484 0000768  57.1129 302.9907 14.79938995 42971
KUIPER-00251            
1 67156U 25301Z   26267.03598986  .00002133  00000+0  30864-3 0  9999
2 67156  51.9005 261.0783 0000594  55.6879 304.4140 14.79945079 43392
KUIPER-00252            
1 67157U 25301AA  26267.03329004  .00000523  00000+0  97662-4 0  9994
2 67157  51.9011 263.5411 0000560  78.8026 281.2999 14.79933053 43178
KUIPER-00261            
1 67158U 25301AB  26267.05628265  .00002018  00000+0  29365-3 0  9993
2 67158  51.9021 273.5051 0000534  47.8766 312.2241 14.79931067 43032
KUIPER-00265            
1 67159U 25301AC  26267.07386948  .00000450  00000+0  88005-4 0  9990
2 67159  51.9051 288.4067 0000333  54.0435 306.0559 14.79931020 42860
KUIPER-00159            
1 67764U 26030A   26267.25002315  .00081432  00000+0  10700-1 0  9998
2 67764  51.9021   6.3594 0000726  82.2087  96.0315 14.79464032  4221
KUIPER-00160            
1 67765U 26030B   26267.21173603 -.00000213  00000+0  11000-5 0  9991
2 67765  51.9001 347.7815 0000831 129.7232 230.3804 14.79937913 35519
KUIPER-00177            
1 67766U 26030C   26266.75063919  .00000911  00000+0  14853-3 0  9999
2 67766  51.9028  57.3021 0000981 109.6390 250.4678 14.79936137 34507
KUIPER-00178            
1 67767U 26030D   26266.71687109  .00002631  00000+0  37392-3 0  9993
2 67767  51.9008  57.4299 0000548 116.8899 243.2119 14.79940371 34502
KUIPER-00180            
1 67768U 26030E   26266.85731778  .00002959  00000+0  41688-3 0  9997
2 67768  51.8996  51.8013 0000461 127.8113 232.2892 14.79943904 34595
KUIPER-00197            
1 67769U 26030F   26266.54124176  .00000844  00000+0  13968-3 0  9993
2 67769  51.8998  33.2163 0000442 132.7307 227.3693 14.79934692 34821
KUIPER-00198            
1 67770U 26030G   26266.69658794  .00002201  00000+0  31759-3 0  9996
2 67770  51.8981  45.0022 0000557 134.8826 225.2182 14.79936452 34675
KUIPER-00199            
1 67771U 26030H   26267.25002315 -.00062838  00000+0 -44079-2 0  9994
2 67771  51.8932 342.8739 0012259  54.2192  22.9111 15.04838764  4349
KUIPER-00200            
1 67772U 26030J   26267.32054298  .00000479  00000+0  91760-4 0  9992
2 67772  51.8993  27.2879 0000383 112.6130 247.4873 14.79931918 34979
KUIPER-00203            
1 67773U 26030K   26266.74525581  .00001269  00000+0  19540-3 0  9999
2 67773  51.9067  62.4087 0000745 126.3253 233.7778 14.79933141 34438
KUIPER-00205            
1 67774U 26030L   26267.32322972  .00000221  00000+0  58048-4 0  9998
2 67774  51.9028  24.7448 0000355 106.0961 254.0040 14.79932820 35012
KUIPER-00208            
1 67775U 26030M   26266.85462926  .00000403  00000+0  81830-4 0  9997
2 67775  51.8976  54.3091 0000977 133.8550 226.2493 14.79931987 34553
KUIPER-00209            
1 67776U 26030N   26266.68850397  .00000613  00000+0  10943-3 0  9991
2 67776  51.9004  52.6468 0000723 127.5258 232.5771 14.79934689 34562
KUIPER-00213            
1 67777U 26030P   26267.06258450 -.00001291  00000+0 -14038-3 0  9991
2 67777  51.8961  48.4478 0000484 139.5234 220.5764 14.79928252 34657
KUIPER-00214            
1 67778U 26030Q   26266.69390179  .00002549  00000+0  36315-3 0  9992
2 67778  51.8998  47.6159 0000419 116.2782 243.8224 14.79936577 34639
KUIPER-00215            
1 67779U 26030R   26266.67359673  .00002582  00000+0  36760-3 0  9996
2 67779  51.8997  35.0583 0000293 102.8474 257.2521 14.79934348 34813
KUIPER-00218            
1 67780U 26030S   26266.69119187  .00000279  00000+0  65609-4 0  9990
2 67780  51.8982  50.0199 0000470 127.2697 232.8309 14.79931931 34609
KUIPER-00220            
1 67781U 26030T   26267.32592807  .00000407  00000+0  82413-4 0  9991
2 67781  51.8974  22.2369 0000122  98.0173 262.0803 14.79934560 35043
KUIPER-00222            
1 67782U 26030U   26266.66283522  .00002553  00000+0  36370-3 0  9993
2 67782  51.8988  45.3074 0000730 132.2080 227.8944 14.79942869 34664
KUIPER-00223            
1 67783U 26030V   26267.31243167  .00002547  00000+0  36302-3 0  9996
2 67783  51.9035  34.7463 0000441 130.3908 229.7093 14.79934033 34873
KUIPER-00225            
1 67784U 26030W   26266.56423412  .00002300  00000+0  33057-3 0  9997
2 67784  51.8988  43.1989 0000514 130.7208 229.3799 14.79940228 34686
KUIPER-00226            
1 67785U 26030X   26266.54393590  .00000915  00000+0  14898-3 0  9991
2 67785  51.9011  30.6736 0001308  22.7998 337.3023 14.79942736 34860
KUIPER-00259            
1 67786U 26030Y   26266.66551650  .00002342  00000+0  33601-3 0  9997
2 67786  51.8989  42.6533 0000522 124.2369 235.8643 14.79940106 34701
KUIPER-00260            
1 67787U 26030Z   26266.66822635  .00002574  00000+0  36638-3 0  9992
2 67787  51.9022  40.2548 0000401 136.8064 223.2930 14.79941267 34640
KUIPER-00262            
1 67788U 26030AA  26266.56692315  .00002488  00000+0  35522-3 0  9997
2 67788  51.9007  40.6188 0000748 124.6634 235.4399 14.79932208 34728
KUIPER-00266            
1 67789U 26030AB  26266.67090707  .00002522  00000+0  35968-3 0  9990
2 67789  51.9007  37.6495 0000603 123.6741 236.4279 14.79933696 34779
KUIPER-00268            
1 67790U 26030AC  26267.31514960  .00000676  00000+0  11772-3 0  9991
2 67790  51.9066  32.3474 0000518 136.5816 223.5187 14.79934646 34902
KUIPER-00270            
1 67791U 26030AD  26267.29216575  .00001526  00000+0  22916-3 0  9997
2 67791  51.8981  22.3930 0000426  98.2179 261.8832 14.79930965 35046
KUIPER-00274            
1 67792U 26030AE  26266.66012033  .00001256  00000+0  19370-3 0  9991
2 67792  51.9006  47.7045 0000505 114.1915 245.9100 14.79931792 34632
KUIPER-00275            
1 67793U 26030AF  26267.28946276  .00000820  00000+0  13652-3 0  9999
2 67793  51.9003  24.9181 0000308 154.6478 205.4499 14.79933724 35003
KUIPER-00276            
1 67794U 26030AG  26267.31783669  .00002629  00000+0  37372-3 0  9993
2 67794  51.8995  29.7667 0000720 108.2700 251.8341 14.79937894 34941
KUIPER-00279            
1 67795U 26030AH  26267.29486257  .00002734  00000+0  38738-3 0  9998
2 67795  51.9032  19.9209 0000418 113.0849 247.0158 14.79939659 35079
KUIPER-00131            
1 68573U 26072A   26267.02087712  .00000936  00000+0  15173-3 0  9993
2 68573  51.8994 118.6110 0001073 111.5479 248.5598 14.79932845 25756
KUIPER-00189            
1 68574U 26072B   26266.98440989 -.00000272  00000+0 -66546-5 0  9994
2 68574  51.8977 121.2481 0000778 107.5942 252.5105 14.79929653 25718
KUIPER-00192            
1 68575U 26072C   26267.02357126  .00002110  00000+0  30573-3 0  9991
2 68575  51.9001 116.0923 0000997 108.1510 251.9561 14.79936149 25797
KUIPER-00193            
1 68576U 26072D   26266.83176784  .00000853  00000+0  14094-3 0  9991
2 68576  51.9048 106.9900 0001141 117.2475 242.8604 14.79935831 25902
KUIPER-00194            
1 68577U 26072E   26266.99250590  .00000496  00000+0  94112-4 0  9990
2 68577  51.9030 113.7562 0000849 121.7077 238.3969 14.79932175 25829
KUIPER-00229            
1 68578U 26072F   26266.98710955  .00002120  00000+0  30697-3 0  9999
2 68578  51.9007 118.7613 0000790 124.0968 236.0070 14.79941240 25759
KUIPER-00230            
1 68579U 26072G   26267.25002315  .00019239  00000+0  27561-2 0  9999
2 68579  51.9025  64.8408 0001113  97.8600  50.5709 14.76552871  1985
KUIPER-00231            
1 68580U 26072H   26266.94924717  .00000423  00000+0  84564-4 0  9998
2 68580  51.8980  91.4975 0002020 133.7333 226.3797 14.79933613 26125
KUIPER-00234            
1 68581U 26072J   26267.02626999  .00002198  00000+0  31727-3 0  9993
2 68581  51.8993 113.5712 0001233 108.4927 251.6170 14.79937841 25827
KUIPER-00236            
1 68582U 26072K   26267.25002315  .00064846  00000+0  84749-2 0  9998
2 68582  51.9028  67.5906 0001478  83.4592 131.1307 14.79825451  5164
KUIPER-00244            
1 68583U 26072L   26266.73317034  .00001477  00000+0  22263-3 0  9993
2 68583  51.9000 104.8910 0001117 104.7235 255.3851 14.79939827 25928
KUIPER-00253            
1 68584U 26072M   26267.00059744  .00001252  00000+0  19320-3 0  9997
2 68584  51.9034 106.2359 0001041 119.9931 240.1135 14.79931636 25923
KUIPER-00254            
1 68585U 26072N   26266.76153028  .00002083  00000+0  30215-3 0  9999
2 68585  51.9005 109.7881 0001114  94.7540 265.3550 14.79943634 25850
KUIPER-00263            
1 68586U 26072P   26266.98031455  .00000211  00000+0  56674-4 0  9992
2 68586  51.9046  93.8858 0000999 132.4970 227.6077 14.79932939 26098
KUIPER-00269            
1 68587U 26072Q   26266.97761369  .00002146  00000+0  31034-3 0  9997
2 68587  51.9015  96.3062 0001018 113.4657 246.6413 14.79936981 26067
KUIPER-00272            
1 68588U 26072R   26266.98979914  .00000674  00000+0  11747-3 0  9999
2 68588  51.8979 116.2182 0001194  99.4400 260.6698 14.79931053 25789
KUIPER-00285            
1 68589U 26072S   26266.94386045  .00001987  00000+0  28962-3 0  9998
2 68589  51.9047  96.5403 0001382  99.4397 260.6722 14.79935180 26051
KUIPER-00286            
1 68590U 26072T   26266.94654310  .00002030  00000+0  29511-3 0  9994
2 68590  51.9015  93.9550 0000721 119.0922 241.0112 14.79941947 26099
KUIPER-00289            
1 68591U 26072U   26266.73585837  .00000176  00000+0  52167-4 0  9992
2 68591  51.9000 102.3611 0001100 112.5870 247.5209 14.79932179 25958
KUIPER-00290            
1 68592U 26072V   26266.83713941  .00002031  00000+0  29536-3 0  9998
2 68592  51.9025 101.9246 0000790 127.6440 232.4594 14.79931828 25971
KUIPER-00293            
1 68593U 26072W   26266.99519469  .00001057  00000+0  16763-3 0  9990
2 68593  51.8967 111.1960 0001996  72.1552 287.9628 14.79931871 25857
KUIPER-00294            
1 68594U 26072X   26266.73856248  .00001912  00000+0  27974-3 0  9998
2 68594  51.8995  99.8519 0000819 117.1408 242.9637 14.79940561 25996
KUIPER-00296            
1 68595U 26072Y   26267.19638104  .00002318  00000+0  33293-3 0  9991
2 68595  51.9010  80.3468 0000669 125.9916 234.1109 14.79936336 26306
KUIPER-00297            
1 68596U 26072Z   26267.02895829  .00002014  00000+0  29318-3 0  9999
2 68596  51.8998 111.0467 0001330 117.9565 242.1532 14.79932273 25864
KUIPER-00300            
1 68597U 26072AA  26266.99789807  .00002085  00000+0  30243-3 0  9990
2 68597  51.9024 108.7212 0000742 114.0080 246.0960 14.79935515 25896
KUIPER-00301            
1 68598U 26072AB  26266.68827106  .00001559  00000+0  25231-3 0  9998
2 68598  51.9025  79.7067 0001925 204.3075 155.7795 14.76508809 26267
KUIPER-00304            
1 68599U 26072AC  26266.78548643  .00001466  00000+0  23840-3 0  9997
2 68599  51.9006  81.2273 0000714  41.6800 318.4216 14.76623505 26253
KUIPER-00317            
1 68600U 26072AD  26266.97492042  .00002030  00000+0  29521-3 0  9992
2 68600  51.8984  98.8118 0000662 109.5886 250.5148 14.79937207 26027
KUIPER-00320            
1 68601U 26072AE  26266.96950990  .00002051  00000+0  29791-3 0  9995
2 68601  51.9023 103.8556 0000880  93.9838 266.1225 14.79932870 25952
KUIPER-00299            
1 68864U 26095A   26267.13037159  .00000888  00000+0  14547-3 0  9993
2 68864  51.8961 173.1056 0000946 109.9090 250.1974 14.79931670 22261
KUIPER-00353            
1 68865U 26095B   26267.11278742  .00002350  00000+0  33712-3 0  9998
2 68865  51.8991 158.2092 0000803 106.9232 253.1818 14.79941360 22476
KUIPER-00357            
1 68866U 26095C   26267.13846166  .00002393  00000+0  34278-3 0  9997
2 68866  51.9008 165.6072 0001154  77.1782 282.9309 14.79936275 22379
KUIPER-00364            
1 68867U 26095D   26267.10200846  .00000382  00000+0  79149-4 0  9997
2 68867  51.9030 168.2937 0001264  77.3500 282.7603 14.79932225 22338
KUIPER-00375            
1 68868U 26095E   26267.07633201  .00000898  00000+0  14684-3 0  9993
2 68868  51.9016 160.8767 0000836 105.4093 254.6962 14.79935281 22438
KUIPER-00433            
1 68869U 26095F   26267.12767804  .00000862  00000+0  14213-3 0  9996
2 68869  51.9005 175.6449 0001222  74.1196 285.9901 14.79935537 22236
KUIPER-00437            
1 68870U 26095G   26267.25002315 -.00052359  00000+0 -50988-2 0  9999
2 68870  51.8938 127.2151 0009072 303.4175 253.4383 14.92183947  2946
KUIPER-00448            
1 68871U 26095H   26267.25002315  .00011485  00000+0  15350-2 0  9997
2 68871  51.9035 165.1114 0001114 106.7797 308.2121 14.79878161  2391
KUIPER-00459            
1 68872U 26095J   26267.08443165  .00000384  00000+0  79363-4 0  9993
2 68872  51.9026 153.4054 0000842  98.7718 261.3340 14.79931916 22533
KUIPER-00468            
1 68873U 26095K   26266.89167635  .00001470  00000+0  23888-3 0  9994
2 68873  51.8977 151.8755 0000666 169.5880 190.5095 14.76629309 22547
KUIPER-00476            
1 68874U 26095L   26267.25002315 -.00070352  00000+0 -89091-2 0  9993
2 68874  51.8994 132.5407 0005325 294.9714 105.9361 14.81695468  4836
KUIPER-00478            
1 68875U 26095M   26267.08171904  .00002757  00000+0  39041-3 0  9999
2 68875  51.8985 155.8517 0000977  92.0128 268.0946 14.79942409 22502
KUIPER-00480            
1 68876U 26095N   26267.05065127  .00002283  00000+0  32833-3 0  9992
2 68876  51.9033 153.5062 0000815 100.4294 259.6760 14.79936448 22536
KUIPER-00482            
1 68877U 26095P   26267.10739649  .00001230  00000+0  19032-3 0  9993
2 68877  51.9015 163.2394 0001580  52.6768 307.4338 14.79937015 22407
KUIPER-00483            
1 68878U 26095Q   26267.16147611  .00005704  00000+0  77674-3 0  9998
2 68878  51.8986 175.4633 0001807  15.2041 344.8975 14.79924732 22231
KUIPER-00488            
1 68879U 26095R   26267.07902795  .00002553  00000+0  36377-3 0  9995
2 68879  51.8996 158.3715 0001265  88.9267 271.1840 14.79933731 22466
KUIPER-00489            
1 68880U 26095S   26267.08710805  .00002141  00000+0  30970-3 0  9993
2 68880  51.8962 150.8141 0001357  95.4347 264.6770 14.79938744 22575
KUIPER-00499            
1 68881U 26095T   26267.11548555  .00000770  00000+0  13002-3 0  9992
2 68881  51.9010 155.7494 0000841  98.8165 261.2892 14.79927007 22509
KUIPER-00500            
1 68882U 26095U   26267.09661145 -.00001527  00000+0 -17123-3 0  9992
2 68882  51.9027 173.2845 0001025 112.0796 248.0276 14.79941314 22266
KUIPER-00502            
1 68883U 26095V   26267.04624921 -.00002736  00000+0 -32983-3 0  9993
2 68883  51.9013 149.7601 0001343  89.8798 270.2319 14.79945864 22580
KUIPER-00503            
1 68884U 26095W   26267.13307283 -.00000696  00000+0 -62247-4 0  9993
2 68884  51.8984 170.5931 0002163  87.0510 273.0700 14.79930103 22303
KUIPER-00504            
1 68885U 26095X   26267.15874078  .00000017  00000+0  31259-4 0  9991
2 68885  51.8997 178.0178 0000691  90.3185 269.7857 14.79923339 22200
KUIPER-00505            
1 68886U 26095Y   26267.13576686  .00002472  00000+0  35310-3 0  9992
2 68886  51.9018 168.1198 0000826  93.5666 266.5391 14.79939426 22333
KUIPER-00507            
1 68887U 26095Z   26267.12967546  .00000180  00000+0  52568-4 0  9990
2 68887  51.9007 158.1290 0000941  90.9375 269.1695 14.79932380 22473
KUIPER-00511            
1 68888U 26095AA  26267.05336070  .00000018  00000+0  31345-4 0  9995
2 68888  51.8994 151.0789 0001197  89.8201 270.2898 14.79932733 22562
KUIPER-00512            
1 68889U 26095AB  26267.16684204  .00000188  00000+0  53709-4 0  9999
2 68889  51.9007 170.4847 0000857  99.1870 260.9189 14.79931618 22309
KUIPER-00519            
1 68890U 26095AC  26267.11010573  .00000392  00000+0  80451-4 0  9999
2 68890  51.9026 160.7999 0000839  95.8810 264.2248 14.79931018 22430
KUIPER-00521            
1 68891U 26095AD  26267.04085398  .00000647  00000+0  11394-3 0  9991
2 68891  51.9040 154.8005 0000793  91.5807 268.5246 14.79931521 22510
KUIPER-00524            
1 68892U 26095AE  26267.07362536  .00002543  00000+0  36233-3 0  9993
2 68892  51.8975 163.3654 0000857  89.5246 270.5814 14.79944550 22393
KUIPER-00370            
1 68919U 26098A   26267.23668492  .00002090  00000+0  30303-3 0  9993
2 68919  51.9011 340.0270 0000224  73.9495 286.1492 14.79933993 22152
KUIPER-00380            
1 68920U 26098B   26267.17727224  .00001135  00000+0  17781-3 0  9991
2 68920  51.9001 332.9261 0000259  52.8311 307.2675 14.79930326 22249
KUIPER-00386            
1 68921U 26098C   26267.19145852  .00000645  00000+0  11354-3 0  9990
2 68921  51.9011 335.3596 0000293  65.2078 294.8915 14.79933625 22215
KUIPER-00388            
1 68922U 26098D   26267.23133055  .00002084  00000+0  30224-3 0  9994
2 68922  51.9032 345.3456 0000265  73.8260 286.2731 14.79936466 22073
KUIPER-00405            
1 68923U 26098E   26267.18336935  .00001343  00000+0  20521-3 0  9997
2 68923  51.9041 342.9110 0000707 245.5666 114.5222 14.79931047 22105
KUIPER-00408            
1 68924U 26098F   26266.49926200  .00002057  00000+0  29877-3 0  9997
2 68924  51.9004 338.3481 0000332  75.1943 284.9056 14.79934614 22115
KUIPER-00409            
1 68925U 26098G   26267.21982369  .00002096  00000+0  30382-3 0  9993
2 68925  51.9043 340.2507 0000457  84.5119 275.5895 14.79931267 22148
KUIPER-00410            
1 68926U 26098H   26267.22250549  .00002137  00000+0  30924-3 0  9991
2 68926  51.9006 337.7113 0000541 176.5195 183.5771 14.79935382 22189
KUIPER-00412            
1 68927U 26098J   26266.47090410  .00002004  00000+0  29172-3 0  9993
2 68927  51.9047 333.5721 0000296  91.7991 268.3006 14.79936814 22176
KUIPER-00413            
1 68928U 26098K   26267.23401579  .00000742  00000+0  12625-3 0  9993
2 68928  51.9027 342.6696 0000212 250.2952 109.7987 14.79934178 22115
KUIPER-00414            
1 68929U 26098L   26267.25700145  .00000740  00000+0  12610-3 0  9999
2 68929  51.8992 352.6483 0000903 153.7628 206.3380 14.79934886 21975
KUIPER-00415            
1 68930U 26098M   26267.20834552  .00001204  00000+0  18692-3 0  9998
2 68930  51.9039 335.2979 0000342  93.6962 266.4040 14.79936551 22216
KUIPER-00416            
1 68931U 26098N   26267.22621013  .00001981  00000+0  28868-3 0  9995
2 68931  51.9043 326.5732 0000309  97.3766 262.7231 14.79949721 22335
KUIPER-00420            
1 68932U 26098P   26266.47358492  .00001954  00000+0  28528-3 0  9993
2 68932  51.9015 331.0089 0000470  92.5604 267.5412 14.79933263 22213
KUIPER-00421            
1 68933U 26098Q   26267.21100846 -.00003172  00000+0 -38710-3 0  9995
2 68933  51.9057 332.7318 0000451 118.8281 241.2726 14.79945982 22257
KUIPER-00425            
1 68934U 26098R   26266.93279765  .00002764  00000+0  39123-3 0  9994
2 68934  51.9005 341.5075 0000679 119.1540 240.9491 14.79948454 22109
KUIPER-00430            
1 68935U 26098S   26266.93011678  .00001404  00000+0  21316-3 0  9997
2 68935  51.9051 343.9217 0000273  98.0824 262.0169 14.79933231 22075
KUIPER-00431            
1 68936U 26098T   26267.26507759  .00002235  00000+0  32210-3 0  9993
2 68936  51.9008 345.0257 0000051  90.1957 269.9012 14.79935010 22080
KUIPER-00432            
1 68937U 26098U   26267.20563058  .00001088  00000+0  17172-3 0  9997
2 68937  51.9006 337.6862 0000328  63.0602 297.0393 14.79936616 22189
KUIPER-00434            
1 68938U 26098V   26267.19852768  .00001434  00000+0  23507-3 0  9999
2 68938  51.9029 341.8915 0001264 148.7956 211.3080 14.76395531 22122
KUIPER-00436            
1 68939U 26098W   26267.25358915  .00002102  00000+0  30461-3 0  9992
2 68939  51.9016 340.0893 0000321  88.1582 271.9417 14.79930406 22158
KUIPER-00438            
1 68940U 26098X   26267.18877043  .00001084  00000+0  17116-3 0  9994
2 68940  51.9050 337.9033 0000410  75.4985 284.6023 14.79931670 22174
KUIPER-00439            
1 68941U 26098Y   26266.49656033 -.00001110  00000+0 -11661-3 0  9993
2 68941  51.9039 340.9545 0000601  70.9429 289.1598 14.79940463 22075
KUIPER-00440            
1 68942U 26098Z   26267.12931799  .00002015  00000+0  29316-3 0  9999
2 68942  51.9049 330.6545 0000569   2.1194 357.9770 14.79936415 22272
KUIPER-00442            
1 68943U 26098AA  26267.19406751  .00001779  00000+0  26233-3 0  9993
2 68943  51.9035 332.8860 0000034 317.8659  42.2300 14.79915938 22248
KUIPER-00446            
1 68944U 26098AB  26267.22522086  .00000234  00000+0  59683-4 0  9999
2 68944  51.9032 335.2295 0000247 195.4135 164.6820 14.79934469 22213
KUIPER-00451            
1 68945U 26098AC  26267.21443367  .00002361  00000+0  33857-3 0  9990
2 68945  51.9030 345.2591 0000158  97.5732 262.5248 14.79932777 22074
KUIPER-00452            
1 68946U 26098AD  26267.16039267  .00001053  00000+0  16708-3 0  9998
2 68946  51.9033 333.0147 0000558  92.3933 267.7093 14.79936066 22249
KUIPER-00453            
1 68947U 26098AE  26267.17995776  .00001108  00000+0  17440-3 0  9991
2 68947  51.9014 330.3467 0001484 156.6614 203.4416 14.79932596 22287
KUIPER-00454            
1 68948U 26098AF  26266.48577492  .00002187  00000+0  31586-3 0  9991
2 68948  51.9015 350.9689 0000588 119.7709 240.3312 14.79927395 21939
KUIPER-00455            
1 68949U 26098AG  26267.24820276  .00000849  00000+0  14036-3 0  9992
2 68949  51.9012 345.1133 0001087 158.3406 201.7602 14.79932284 22088
KUIPER-00458            
1 68950U 26098AH  26267.29812183  .00005316  00000+0  72548-3 0  9993
2 68950  51.9052 329.9160 0000185  73.3795 286.7187 14.79952092 22292
KUIPER-00282            
1 69267U 26118A   26266.15822818  .00001964  00000+0  28649-3 0  9996
2 69267  51.8988 327.4113 0000117 290.7265  69.3685 14.79935926 18665
KUIPER-00383            
1 69268U 26118B   26267.19075012  .00001406  00000+0  21335-3 0  9994
2 69268  51.8994 320.3664 0000322  79.3773 280.7226 14.79940541 18859
KUIPER-00527            
1 69269U 26118C   26266.41417443  .00001804  00000+0  26554-3 0  9997
2 69269  51.8994 323.9335 0000385  81.4039 278.6967 14.79938550 18734
KUIPER-00562            
1 69270U 26118D   26266.45602411  .00003017  00000+0  42457-3 0  9992
2 69270  51.9048 316.0641 0000698  66.7659 293.3376 14.79928593 18858
KUIPER-00570            
1 69271U 26118E   26267.15160802  .00000720  00000+0  12343-3 0  9993
2 69271  51.9011 325.6460 0000492  57.5276 302.5734 14.79935015 18767
KUIPER-00572            
1 69272U 26118F   26267.14009245  .00001090  00000+0  17195-3 0  9997
2 69272  51.9041 320.5900 0000346  52.2543 307.8450 14.79932534 18846
KUIPER-00581            
1 69273U 26118G   26266.86457804  .00002028  00000+0  29490-3 0  9997
2 69273  51.9024 326.8162 0000437 217.3943 142.6989 14.79935200 18829
KUIPER-00584            
1 69274U 26118H   26267.18267446  .00000807  00000+0  13487-3 0  9997
2 69274  51.9026 328.0193 0000210  47.7528 312.3452 14.79935168 18748
KUIPER-00587            
1 69275U 26118J   26266.46750468  .00001916  00000+0  28029-3 0  9999
2 69275  51.9043 321.0730 0000346  74.7907 285.3093 14.79934153 18786
KUIPER-00590            
1 69276U 26118K   26267.13741329  .00000798  00000+0  13371-3 0  9992
2 69276  51.9040 323.1218 0000305  56.5964 303.5028 14.79934194 18814
KUIPER-00592            
1 69277U 26118L   26267.18802386 -.00002815  00000+0 -34032-3 0  9990
2 69277  51.9036 322.7751 0000358  86.3834 273.7169 14.79949140 18824
KUIPER-00593            
1 69278U 26118M   26267.13940107  .00000524  00000+0  97704-4 0  9999
2 69278  51.8997 305.6055 0001411 168.6128 191.4866 14.79932248 19112
KUIPER-00594            
1 69279U 26118N   26267.13401004  .00000845  00000+0  13980-3 0  9997
2 69279  51.9060 310.6425 0001100  80.5268 279.5818 14.79935063 18981
KUIPER-00595            
1 69280U 26118P   26267.10571125  .00001728  00000+0  25559-3 0  9994
2 69280  51.9004 305.7120 0000993 207.2195 152.8716 14.79937481 19082
KUIPER-00596            
1 69281U 26118Q   26267.16578466  .00000965  00000+0  15553-3 0  9991
2 69281  51.9028 327.9887 0000335  62.4526 297.6470 14.79930240 18747
KUIPER-00597            
1 69282U 26118R   26267.10291174  .00003412  00000+0  47627-3 0  9991
2 69282  51.9009 308.2615 0001478  52.5872 307.5225 14.79940844 19012
KUIPER-00599            
1 69283U 26118S   26267.19344170  .00001796  00000+0  26456-3 0  9996
2 69283  51.9029 317.7777 0000253 337.1993  22.8958 14.79930805 18896
KUIPER-00600            
1 69284U 26118T   26266.39387016  .00000160  00000+0  50042-4 0  9997
2 69284  51.9015 311.3148 0001871  48.2275 311.8847 14.79933848 18915
KUIPER-00601            
1 69285U 26118U   26267.15429989  .00000518  00000+0  96987-4 0  9994
2 69285  51.9044 323.0369 0000390  67.7978 292.3026 14.79931420 18819
KUIPER-00602            
1 69286U 26118V   26267.16236485  .00001876  00000+0  27503-3 0  9998
2 69286  51.9032 315.4146 0000476 278.2614  81.8295 14.79934772 18920
KUIPER-00603            
1 69287U 26118W   26267.17657331  .00001855  00000+0  27222-3 0  9992
2 69287  51.9051 317.9433 0000358  73.8554 286.2448 14.79936646 18887
KUIPER-00605            
1 69288U 26118X   26267.16848033  .00000595  00000+0  10703-3 0  9999
2 69288  51.9012 325.4559 0000637  73.6414 286.4619 14.79934304 18781
KUIPER-00606            
1 69289U 26118Y   26267.15969500  .00000205  00000+0  55824-4 0  9994
2 69289  51.9039 318.0132 0000241  64.2990 295.7997 14.79931727 18881
KUIPER-00607            
1 69290U 26118Z   26267.08605778  .00002008  00000+0  29234-3 0  9990
2 69290  51.9031 308.3458 0001516  17.6395 342.4620 14.79936987 19017
KUIPER-00608            
1 69291U 26118AA  26266.42493451  .00001834  00000+0  26947-3 0  9995
2 69291  51.9026 313.6282 0000708  67.8419 292.2619 14.79936728 18889
KUIPER-00610            
1 69292U 26118AB  26267.12861900  .00000524  00000+0  97695-4 0  9996
2 69292  51.9038 315.6514 0000349  66.8053 293.2947 14.79933722 18917
KUIPER-00613            
1 69293U 26118AC  26267.18535295  .00002766  00000+0  39151-3 0  9990
2 69293  51.9027 325.4022 0000897  35.6978 324.4044 14.79946663 18785
KUIPER-00618            
1 69294U 26118AD  26267.16507163  .00001287  00000+0  19779-3 0  9993
2 69294  51.9038 312.9962 0001435 207.2724 152.8163 14.79938124 18954
KUIPER-00620            
1 69295U 26118AE  26267.17926885  .00000544  00000+0  10038-3 0  9995
2 69295  51.9047 315.4384 0000331  58.8288 301.2707 14.79932730 18928
KUIPER-00423            
1 69592U 26140A   26266.78286377  .00001290  00000+0  21364-3 0  9994
2 69592  51.9020 289.6343 0001203 138.0589 222.0464 14.76570887 16296
KUIPER-00428            
1 69593U 26140B   26266.55446865  .00014138  00000+0  38145-3 0  9990
2 69593  51.8793 283.3015 0005135 285.6614  74.3807 15.38036089 16363
KUIPER-00481            
1 69594U 26140C   26267.09421573  .00001299  00000+0  21532-3 0  9996
2 69594  51.9013 293.2240 0002173 351.9796   8.1130 14.76504003 16278
KUIPER-00490            
1 69595U 26140D   26266.40462772  .00001859  00000+0  27273-3 0  9997
2 69595  51.9064 301.3078 0000373  41.9682 318.1309 14.79948588 16102
KUIPER-00493            
1 69596U 26140E   26267.10833488  .00001870  00000+0  27424-3 0  9993
2 69596  51.9041 303.2456 0000843 325.3860  34.7048 14.79933763 16131
KUIPER-00496            
1 69597U 26140F   26267.25002315 -.00063852  00000+0 -69401-2 0  9997
2 69597  51.8985 286.5469 0005680 296.8276 233.8884 14.87908977  4979
KUIPER-00513            
1 69598U 26140G   26267.11372593  .00001687  00000+0  25026-3 0  9993
2 69598  51.9017 298.2151 0000348  58.6395 301.4602 14.79928815 16200
KUIPER-00516            
1 69599U 26140H   26267.25002315 -.00027068  00000+0 -23204-2 0  9999
2 69599  51.9182 282.4990 0007593 225.1208 267.9547 14.96866687  5707
KUIPER-00517            
1 69600U 26140J   26267.25002315 -.00154754  00000+0 -76958-2 0  9999
2 69600  51.8865 280.3257 0010552 183.6175 253.5888 15.17769081  5208
KUIPER-00520            
1 69601U 26140K   26267.10303144  .00001285  00000+0  21281-3 0  9996
2 69601  51.9020 300.3283 0000645 220.1574 139.9339 14.76607427 16172
KUIPER-00522            
1 69602U 26140L   26267.25002315 -.00029585  00000+0 -39049-2 0  9994
2 69602  51.9021 287.6131 0000099  11.9681  29.4272 14.79543957  4357
KUIPER-00528            
1 69603U 26140M   26266.41884148  .00000787  00000+0  13214-3 0  9992
2 69603  51.9027 303.8066 0000292  51.7452 308.3537 14.79938579 16067
KUIPER-00532            
1 69604U 26140N   26267.25002315 -.00061970  00000+0 -68919-2 0  9998
2 69604  51.8982 285.2083 0004811 244.7478 357.9667 14.86967211  5797
KUIPER-00533            
1 69605U 26140P   26267.08266649  .00001781  00000+0  26250-3 0  9997
2 69605  51.9028 295.8627 0000381  53.9428 306.1570 14.79938813 16232
KUIPER-00534            
1 69606U 26140Q   26267.04107399  .00000950  00000+0  45314-4 0  9990
2 69606  51.8753 282.0363 0013218 140.5800 219.6148 15.29429410 16426
KUIPER-00537            
1 69607U 26140R   26267.14209275  .00000457  00000+0  88926-4 0  9996
2 69607  51.9012 303.0125 0000845   9.3230 350.7748 14.79932144 16146
KUIPER-00538            
1 69608U 26140S   26267.11100594 -.00001017  00000+0 -10409-3 0  9993
2 69608  51.9041 300.6762 0001958  98.0831 262.0354 14.80033524 16174
KUIPER-00540            
1 69609U 26140T   26267.06070613  .00022801  00000+0  60079-3 0  9996
2 69609  51.8800 280.7068 0004808 282.9815  77.0635 15.38412626 16441
KUIPER-00541            
1 69610U 26140U   26267.25002315 -.00088707  00000+0 -62526-2 0  9990
2 69610  51.8925 280.9524 0008714 183.8736 238.6850 15.04876879  5495
KUIPER-00542            
1 69611U 26140V   26267.25002315 -.01718128  00000+0 -96667-1 0  9991
2 69611  51.8879 280.1959 0008640 175.6441 265.9024 15.16424995  5192
KUIPER-00543            
1 69612U 26140W   26267.25002315 -.00075330  00000+0 -90458-2 0  9995
2 69612  51.9013 285.1947 0003531 271.9553 165.5578 14.83941249  5192
KUIPER-00544            
1 69613U 26140X   26267.25002315 -.00100649  00000+0 -71339-2 0  9995
2 69613  51.8882 281.3429 0003161 161.0071 163.8106 15.04778489  4894
KUIPER-00546            
1 69614U 26140Y   26267.25002315 -.00029806  00000+0 -39226-2 0  9990
2 69614  51.9032 287.6156 0001388 184.7002 305.6097 14.79669726  3319
KUIPER-00547            
1 69615U 26140Z   26267.25002315 -.02032023  00000+0 -75689-1 0  9990
2 69615  51.8835 279.4722 0009552 170.8448 301.3351 15.30190290  5556
KUIPER-00549            
1 69616U 26140AA  26267.25002315 -.00054861  00000+0 -53465-2 0  9992
2 69616  51.8981 283.0051 0002415 239.5158 218.4605 14.92211417  5751
KUIPER-00550            
1 69617U 26140AB  26267.25002315 -.00052526  00000+0 -46622-2 0  9996
2 69617  51.8910 286.8215 0003666 308.0210 202.5763 14.95856898  2552
KUIPER-00551            
1 69618U 26140AC  26266.08551302  .00029525  00000+0  77035-3 0  9996
2 69618  51.8706 284.6561 0011465 156.5526 203.5987 15.38516213 16307
KUIPER-00554            
1 69619U 26140AD  26267.08192259  .00018145  00000+0  49829-3 0  9996
2 69619  51.8797 280.0786 0009484 172.3557 187.7576 15.37256721 16452
KUIPER-00555            
1 69620U 26140AE  26267.07560303  .00028129  00000+0  76746-3 0  9997
2 69620  51.8819 280.0722 0010579 162.0994 198.0367 15.37172323 16455
KUIPER-00556            
1 69621U 26140AF  26267.05435279  .00001858  00000+0  27247-3 0  9991
2 69621  51.8984 290.9792 0000834  95.2808 264.8250 14.79972910 16302
KUIPER-00557            
1 69622U 26140AG  26267.25002315 -.02074244  00000+0 -73256-1 0  9997
2 69622  51.8827 279.4827 0007248 182.9967 303.9770 15.31988152  3971
KUIPER-00560            
1 69623U 26140AH  26267.06008071  .00020571  00000+0  56639-3 0  9990
2 69623  51.8745 280.6730 0008157 196.0217 164.0513 15.37098979 16444
KUIPER-00561            
1 69624U 26140AJ  26267.11640941  .00001886  00000+0  27636-3 0  9998
2 69624  51.9022 295.6816 0000612  86.0490 274.0542 14.79933156 16246
KUIPER-00564            
1 69625U 26140AK  26267.25002315 -.00028691  00000+0 -37504-2 0  9990
2 69625  51.8966 292.5974 0000809 111.7741  46.4639 14.79935166  5651
KUIPER-00567            
1 69626U 26140AL  26267.08802785  .00002694  00000+0  38225-3 0  9996
2 69626  51.8976 290.8318 0002001 150.2058 209.9019 14.79933538 16304
KUIPER-00573            
1 69627U 26140AM  26267.11912277  .00001835  00000+0  26973-3 0  9992
2 69627  51.9016 293.2059 0000401  87.2475 272.8533 14.79925687 16276
KUIPER-00258            
1 69763U 26151A   26267.25002315  .00018157  00000+0  19391-2 0  9993
2 69763  51.8958 202.7931 0010710  69.3786   0.5743 14.88796070  3586
KUIPER-00526            
1 69764U 26151B   26267.25067251  .00002542  00000+0  36229-3 0  9995
2 69764  51.8978 217.6807 0000927  71.2733 288.8330 14.79939259 12658
KUIPER-00558            
1 69765U 26151C   26266.60911597  .00001322  00000+0  20237-3 0  9992
2 69765  51.8963 220.4350 0000621  82.1646 277.9387 14.79930731 12560
KUIPER-00569            
1 69766U 26151D   26267.23645639  .00008361  00000+0  11233-2 0  9999
2 69766  51.9006 215.1579 0001197  62.2700 297.8383 14.79973651 12692
KUIPER-00589            
1 69767U 26151E   26266.88374071  .00001699  00000+0  27199-3 0  9995
2 69767  51.9015 219.8698 0002920  72.8852 287.2429 14.76543165 12599
KUIPER-00598            
1 69768U 26151F   26267.25875630  .00002578  00000+0  36698-3 0  9996
2 69768  51.8989 210.0759 0000635  90.5012 269.6024 14.79941047 12764
KUIPER-00604            
1 69769U 26151G   26267.23920861  .00002466  00000+0  35200-3 0  9996
2 69769  51.9014 212.6604 0000607  62.5481 297.5543 14.79968798 12724
KUIPER-00609            
1 69770U 26151H   26267.26688775  .00001690  00000+0  27011-3 0  9995
2 69770  51.9015 209.9444 0002572  48.5817 311.5365 14.76628212 12762
KUIPER-00611            
1 69771U 26151J   26267.27293655  .00002588  00000+0  36827-3 0  9998
2 69771  51.8970 212.4920 0000933  76.7192 283.3874 14.79942770 12737
KUIPER-00612            
1 69772U 26151K   26267.25337660  .00002562  00000+0  36499-3 0  9999
2 69772  51.8997 215.1030 0001267 119.2751 240.8339 14.79931858 12698
KUIPER-00614            
1 69773U 26151L   26267.25606942  .00000111  00000+0  43634-4 0  9990
2 69773  51.8968 212.6366 0001245  76.3714 283.7387 14.79929097 12724
KUIPER-00615            
1 69774U 26151M   26267.26753169  .00002511  00000+0  35823-3 0  9992
2 69774  51.9001 217.4703 0001021 130.5009 229.6043 14.79940079 12668
KUIPER-00616            
1 69775U 26151N   26267.25002315  .00006442  00000+0  83028-3 0  9999
2 69775  51.9002 202.6380 0001818 178.7695 171.6650 14.82066599  3341
KUIPER-00617            
1 69776U 26151P   26266.23161647  .00002347  00000+0  33646-3 0  9992
2 69776  51.8989 212.1177 0000433 189.0304 171.0650 14.79969401 12646
KUIPER-00619            
1 69777U 26151Q   26266.93416482  .00001570  00000+0  25336-3 0  9994
2 69777  51.9011 211.3505 0001518 158.1998 201.9027 14.76592457 12710
KUIPER-00621            
1 69778U 26151R   26266.54699744  .00002513  00000+0  35852-3 0  9998
2 69778  51.8996 215.7189 0000788  98.9465 261.1586 14.79938898 12620
KUIPER-00622            
1 69779U 26151S   26267.27881510  .00001678  00000+0  26867-3 0  9991
2 69779  51.9000 216.5420 0001293  79.9025 280.2081 14.76576471 12677
KUIPER-00623            
1 69780U 26151T   26267.28710284  .00000053  00000+0  36008-4 0  9998
2 69780  51.8960 214.9571 0001257 106.3046 253.8054 14.79918152 12697
KUIPER-00626            
1 69781U 26151U   26267.24187159  .00002394  00000+0  34289-3 0  9992
2 69781  51.8972 210.1249 0000991 110.5427 249.5642 14.79939340 12760
KUIPER-00627            
1 69782U 26151V   26267.25002315  .00001798  00000+0  26317-3 0  9994
2 69782  51.9002 205.1192 0000873 149.5464  44.7296 14.80197581  4091
KUIPER-00629            
1 69783U 26151W   26267.29860115  .00002310  00000+0  33190-3 0  9997
2 69783  51.8996 219.8360 0000704  96.6134 263.4909 14.79938127 12638
KUIPER-00631            
1 69784U 26151X   26267.24796331  .00000301  00000+0  68427-4 0  9991
2 69784  51.9008 220.1209 0000503  93.2219 266.8801 14.79930187 12620
KUIPER-00634            
1 69785U 26151Y   26267.27025059  .00001162  00000+0  18147-3 0  9996
2 69785  51.9023 215.0214 0001042  97.4094 262.6987 14.79929320 12696
KUIPER-00639            
1 69786U 26151Z   26267.25002315  .00001691  00000+0  24970-3 0  9993
2 69786  51.9008 205.1005 0001010 110.5884 263.7132 14.80111754  5431
KUIPER-00641            
1 69787U 26151AA  26267.22768288  .00002521  00000+0  35961-3 0  9994
2 69787  51.8993 207.7201 0002262 137.6634 222.4504 14.79934141 12796
KUIPER-00644            
1 69788U 26151AB  26267.25002315  .00027530  00000+0  24926-2 0  9995
2 69788  51.8926 200.6037 0007657  71.1326   6.5169 14.95166627  5542
KUIPER-00646            
1 69789U 26151AC  26267.26144205  .00002670  00000+0  37902-3 0  9999
2 69789  51.8981 207.6527 0000722  95.9541 264.1504 14.79935570 12797
KUIPER-00647            
1 69790U 26151AD  26267.25002315  .00036122  00000+0  51385-2 0  9994
2 69790  51.8989 207.2474 0002171 335.0421  36.9037 14.76522822  5123
KUIPER-00662            
1 69791U 26151AE  26267.28183204  .00002446  00000+0  34978-3 0  9997
2 69791  51.9009 219.9679 0000308  45.0612 315.0375 14.79929620 12624
