KUIPER-00008            
1 63724U 25088A   26277.20062978  .00000556  00000+0  10191-3 0  9993
2 63724  51.9001 245.9717 0000715  54.0491 306.0537 14.79932265 78929
KUIPER-00009            
1 63725U 25088B   26276.78329318  .00002582  00000+0  18343-3 0  9998
2 63725  51.9022 252.5101 0000998  27.0362 333.0665 15.08163332 78795
KUIPER-00010            
1 63726U 25088C   26277.17227124  .00000641  00000+0  11302-3 0  9997
2 63726  51.9024 241.2110 0000809  58.2004 301.9037 14.79935597 78607
KUIPER-00011            
1 63727U 25088D   26277.19795977 -.00000351  00000+0 -17036-4 0  9997
2 63727  51.9004 248.6383 0000829  53.3910 306.7129 14.79928438 78637
KUIPER-00012            
1 63728U 25088E   26277.18036762 -.00000514  00000+0 -38442-4 0  9992
2 63728  51.9011 233.6574 0000979  77.6497 282.4575 14.79925970 78797
KUIPER-00013            
1 63729U 25088F   26277.24660200 -.00000524  00000+0 -39725-4 0  9996
2 63729  51.9018 265.8828 0000769 101.3315 258.7734 14.79924788 78457
KUIPER-00014            
1 63730U 25088G   26277.28035884 -.00000656  00000+0 -57023-4 0  9993
2 63730  51.9026 265.6797 0000699  44.9655 315.1364 14.79926441 78277
KUIPER-00015            
1 63731U 25088H   26277.30335204  .00000469  00000+0  90598-4 0  9990
2 63731  51.8995 275.6196 0000772  53.0518 307.0515 14.79926640 78591
KUIPER-00016            
1 63732U 25088J   26277.27767162  .00001728  00000+0  25564-3 0  9998
2 63732  51.9011 268.1946 0000664  40.9347 319.1666 14.79937915 78236
KUIPER-00018            
1 63733U 25088K   26277.25469683 -.00000164  00000+0  74650-5 0  9990
2 63733  51.9045 258.3476 0000729  67.8217 292.2823 14.79925217 78372
KUIPER-00019            
1 63734U 25088L   26277.21377000  .00000460  00000+0  89409-4 0  9993
2 63734  51.9008 257.2679 0000754  35.7377 324.3636 14.79917305 78383
KUIPER-00020            
1 63735U 25088M   26277.25200296  .00000698  00000+0  12055-3 0  9995
2 63735  51.9016 260.8517 0000726  52.1327 307.9701 14.79932764 78545
KUIPER-00021            
1 63736U 25088N   26277.21822206 -.00001273  00000+0 -13804-3 0  9998
2 63736  51.8988 260.9476 0000549  65.8776 294.2244 14.79924717 78370
KUIPER-00023            
1 63737U 25088P   26277.24928595  .00000522  00000+0  97442-4 0  9995
2 63737  51.9008 263.3015 0000733  48.9679 311.1346 14.79933866 78647
KUIPER-00024            
1 63738U 25088Q   26277.19526156  .00000444  00000+0  87275-4 0  9993
2 63738  51.9029 251.1581 0000754  54.2667 305.8366 14.79930224 78933
KUIPER-00025            
1 63739U 25088R   26277.22093327  .00000735  00000+0  12535-3 0  9996
2 63739  51.9041 258.5262 0000644  56.0060 304.0964 14.79932280 78692
KUIPER-00027            
1 63740U 25088S   26277.19256456  .00000821  00000+0  13669-3 0  9993
2 63740  51.9004 253.6061 0000630  69.9368 290.1662 14.79926094 78499
KUIPER-00028            
1 63741U 25088T   26277.22901142 -.00000843  00000+0 -81546-4 0  9993
2 63741  51.8971 250.8821 0000758  40.0746 320.0272 14.79927015 78940
KUIPER-00029            
1 63742U 25088U   26277.27255780 -.00000657  00000+0 -57249-4 0  9995
2 63742  51.9020 249.3917 0000866  38.1687 321.9337 14.79925955 78491
KUIPER-00030            
1 63743U 25088V   26277.24390280 -.00001190  00000+0 -12708-3 0  9991
2 63743  51.9001 268.3400 0000668  48.5239 311.5780 14.79924616 78510
KUIPER-00031            
1 63744U 25088W   26277.22632318  .00000043  00000+0  34692-4 0  9992
2 63744  51.9002 253.4377 0000909  53.6629 306.4417 14.79926934 78434
KUIPER-00032            
1 63745U 25088X   26277.19990966  .00009078  00000+0  21227-3 0  9991
2 63745  51.8657  91.4095 0004970 140.0653 220.0703 15.42910212 81680
KUIPER-00033            
1 63746U 25088Y   26277.32901652  .00001577  00000+0  23583-3 0  9994
2 63746  51.9017 282.9844 0000621  33.1083 326.9918 14.79939524 78517
KUIPER-00034            
1 63747U 25088Z   26276.62664537 -.00001205  00000+0 -12906-3 0  9992
2 63747  51.9031 248.6281 0000651  63.8742 296.2287 14.79924366 78610
KUIPER-00035            
1 63748U 25088AA  26277.27497379 -.00000108  00000+0  14839-4 0  9991
2 63748  51.8997 270.7222 0000677  54.2906 305.8119 14.79926686 78412
KUIPER-00037            
1 63749U 25088AB  26277.26789729 -.00000853  00000+0 -82942-4 0  9992
2 63749  51.9014 269.6166 0000602  47.8730 312.2283 14.79926381 79214
KUIPER-00038            
1 63750U 25088AC  26277.25739606  .00000675  00000+0  11761-3 0  9992
2 63750  51.9024 255.8383 0000677  79.6797 280.4242 14.79921255 78409
KUIPER-00039            
1 64500U 25134A   26277.29749096  .00001857  00000+0  27255-3 0  9994
2 64500  51.9024  30.6558 0000335 110.8233 249.2765 14.79932690 70961
KUIPER-00040            
1 64501U 25134B   26277.05034864  .00001205  00000+0  18703-3 0  9994
2 64501  51.9003  41.8034 0000565 144.0401 216.0599 14.79938391 70784
KUIPER-00041            
1 64502U 25134C   26277.08141211  .00000378  00000+0  78654-4 0  9995
2 64502  51.9008  44.0591 0000543 117.8256 242.2761 14.79928172 70750
KUIPER-00042            
1 64503U 25134D   26276.64785181  .00001804  00000+0  26550-3 0  9999
2 64503  51.9010  40.9530 0000388 125.6256 234.4743 14.79941805 70768
KUIPER-00043            
1 64504U 25134E   26277.06112341  .00001076  00000+0  17011-3 0  9992
2 64504  51.9033  31.6442 0000283 141.4932 218.6051 14.79937393 70936
KUIPER-00044            
1 64505U 25134F   26277.04764379  .00001814  00000+0  26683-3 0  9990
2 64505  51.9018  44.1901 0000481 129.8371 230.2634 14.79932123 70759
KUIPER-00046            
1 64506U 25134G   26277.08410016  .00001926  00000+0  28165-3 0  9992
2 64506  51.9004  41.4982 0000442 106.5219 253.5792 14.79929326 70792
KUIPER-00047            
1 64507U 25134H   26277.01246542  .00001838  00000+0  27005-3 0  9991
2 64507  51.9019  14.3459 0000226 111.7967 248.3019 14.79937494 71166
KUIPER-00048            
1 64508U 25134J   26276.97870685  .00001073  00000+0  16971-3 0  9998
2 64508  51.8997  14.5061 0000195  95.0670 265.0315 14.79931818 71161
KUIPER-00049            
1 64509U 25134K   26276.99897961  .00001853  00000+0  27197-3 0  9995
2 64509  51.9020  26.8913 0000445 112.3437 247.7573 14.79933008 70990
KUIPER-00050            
1 64510U 25134L   26277.28794762  .00001717  00000+0  25423-3 0  9994
2 64510  51.9028   8.1338 0000262  87.4699 272.6293 14.79910577 71288
KUIPER-00051            
1 64511U 25134M   26277.04252410  .00001534  00000+0  23017-3 0  9992
2 64511  51.9036  25.3979 0000320 120.3015 239.7979 14.79922142 71011
KUIPER-00053            
1 64513U 25134P   26276.56107175  .00001512  00000+0  21858-3 0  9994
2 64513  51.9042  21.7699 0002104 170.9539 189.1463 14.81669958 71026
KUIPER-00054            
1 64514U 25134Q   26276.30071090  .00000499  00000+0  94455-4 0  9990
2 64514  51.9020  19.9800 0000398 134.1317 225.9678 14.79931067 71022
KUIPER-00055            
1 64515U 25134R   26277.12852766  .00001525  00000+0  22906-3 0  9991
2 64515  51.9024 328.9755 0000610  77.4693 282.6337 14.79913119 71819
KUIPER-00056            
1 64516U 25134S   26277.00439367  .00000059  00000+0  36730-4 0  9999
2 64516  51.9067  21.9914 0000267 173.1340 186.9626 14.79933324 71069
KUIPER-00057            
1 64517U 25134T   26276.59108885  .00001882  00000+0  27577-3 0  9994
2 64517  51.9019  31.2273 0000273 136.4576 223.6408 14.79945371 70891
KUIPER-00058            
1 64518U 25134U   26277.03544575  .00001137  00000+0  17814-3 0  9991
2 64518  51.9030  24.2436 0000238 137.7180 222.3801 14.79935785 71032
KUIPER-00059            
1 64519U 25134V   26276.97332108  .00000137  00000+0  46974-4 0  9990
2 64519  51.9036  19.5512 0000534 104.0809 256.0212 14.79930044 71094
KUIPER-00060            
1 64520U 25134W   26277.00708810  .00001298  00000+0  19920-3 0  9993
2 64520  51.9052  19.4865 0000230  98.3189 261.7800 14.79936656 71083
KUIPER-00061            
1 64521U 25134X   26277.03275935  .00001864  00000+0  27351-3 0  9990
2 64521  51.9024  26.8106 0000370 128.5530 231.5465 14.79927554 70981
KUIPER-00062            
1 64522U 25134Y   26277.03005184  .00001848  00000+0  27134-3 0  9999
2 64522  51.8975  29.2609 0000364 123.2845 236.8152 14.79930974 70964
KUIPER-00063            
1 64523U 25134Z   26277.29209876  .00001751  00000+0  25867-3 0  9996
2 64523  51.9045  35.7094 0000339 113.5213 246.5786 14.79933804 70895
KUIPER-00064            
1 64524U 25134AA  26277.02466746  .00001724  00000+0  25509-3 0  9992
2 64524  51.9059  34.3190 0000509 139.4722 220.6278 14.79934244 70892
KUIPER-00065            
1 64525U 25134AB  26276.61411674 -.00000084  00000+0  17923-4 0  9998
2 64525  51.9050  41.3107 0000515 109.5139 250.5880 14.79928107 70743
KUIPER-00066            
1 64526U 25134AC  26277.12044564  .00001603  00000+0  23924-3 0  9990
2 64526  51.9038 336.3375 0000337  79.5798 280.5202 14.79927432 71712
KUIPER-00069            
1 64816U 25151A   26277.17872453  .00001609  00000+0  24009-3 0  9993
2 64816  51.9011  78.7166 0000678 118.8638 241.2392 14.79928919 67639
KUIPER-00070            
1 64817U 25151B   26277.25305150  .00001585  00000+0  23694-3 0  9990
2 64817  51.8990 103.2844 0001193 116.5789 243.5295 14.79933221 67300
KUIPER-00071            
1 64818U 25151C   26277.25574818  .00001708  00000+0  25300-3 0  9993
2 64818  51.9005 100.8203 0000660 115.0016 245.1015 14.79933569 66151
KUIPER-00072            
1 64819U 25151D   26277.17601526  .00001507  00000+0  22666-3 0  9991
2 64819  51.8988  81.0899 0000852 116.6691 243.4359 14.79936836 66423
KUIPER-00073            
1 64820U 25151E   26277.22198220  .00001505  00000+0  22634-3 0  9994
2 64820  51.8996 100.9455 0001165 114.6406 245.4678 14.79938062 67333
KUIPER-00075            
1 64822U 25151G   26277.26810128  .00012891  00000+0  33885-3 0  9998
2 64822  51.8636 285.2426 0002664 305.6454  54.4285 15.38935488 68597
KUIPER-00076            
1 64823U 25151H   26276.89511525  .00000891  00000+0  14582-3 0  9996
2 64823  51.9002  92.4154 0000831 125.9493 234.1546 14.79929945 66244
KUIPER-00077            
1 64824U 25151J   26277.22738000  .00001586  00000+0  23695-3 0  9991
2 64824  51.8999  95.9709 0001126 118.6985 241.4091 14.79936088 66226
KUIPER-00078            
1 64825U 25151K   26277.19630302  .00001508  00000+0  22680-3 0  9991
2 64825  51.9004  93.5773 0000971 121.3000 238.8057 14.79934612 66252
KUIPER-00079            
1 64826U 25151L   26277.22467749  .00001547  00000+0  23185-3 0  9993
2 64826  51.8987  98.4052 0001167 115.9981 244.1102 14.79934816 67383
KUIPER-00080            
1 64827U 25151M   26276.24548944  .00001424  00000+0  21571-3 0  9993
2 64827  51.9001 102.7478 0000720 117.7470 242.3565 14.79934686 66040
KUIPER-00082            
1 64828U 25151N   26277.17063814  .00001543  00000+0  23134-3 0  9994
2 64828  51.9036  86.2222 0000857 118.5289 241.5760 14.79930607 66351
KUIPER-00083            
1 64829U 25151P   26277.23007707  .00001654  00000+0  24589-3 0  9999
2 64829  51.9005  93.4404 0001064 119.0208 241.0861 14.79928910 67440
KUIPER-00084            
1 64830U 25151Q   26277.21928463  .00001472  00000+0  22208-3 0  9994
2 64830  51.9006 103.4740 0000741 115.3178 244.7861 14.79932759 66113
KUIPER-00085            
1 64831U 25151R   26277.20440776  .00000293  00000+0  67449-4 0  9997
2 64831  51.9028  86.1332 0000864 117.9552 242.1498 14.79928470 66351
KUIPER-00086            
1 64832U 25151S   26277.19361452  .00001442  00000+0  21813-3 0  9990
2 64832  51.9015  96.1112 0000909 120.4656 239.6396 14.79929484 66218
KUIPER-00087            
1 64833U 25151T   26277.14495938  .00001549  00000+0  23211-3 0  9995
2 64833  51.9007  78.7781 0000670 117.9623 242.1407 14.79935546 66441
KUIPER-00089            
1 64834U 25151U   26277.20708571  .00001695  00000+0  25129-3 0  9995
2 64834  51.9005  83.5310 0000644 127.0963 233.0058 14.79937794 66394
KUIPER-00090            
1 64835U 25151V   26277.14765478  .00000028  00000+0  32631-4 0  9994
2 64835  51.9000  76.2860 0000792 132.1172 227.9858 14.79930793 66484
KUIPER-00091            
1 64836U 25151W   26276.87214142  .00000273  00000+0  64802-4 0  9998
2 64836  51.9007  82.5364 0000912 123.4488 236.6561 14.79930106 66372
KUIPER-00092            
1 64837U 25151X   26277.20170552  .00001665  00000+0  24740-3 0  9995
2 64837  51.9004  88.5655 0000843 119.4887 240.6160 14.79936912 67530
KUIPER-00093            
1 64838U 25151Y   26277.19900199  .00001474  00000+0  22224-3 0  9995
2 64838  51.9003  91.0459 0000858 125.1622 234.9421 14.79936772 66289
KUIPER-00094            
1 64839U 25151Z   26276.63978307  .00001828  00000+0  26869-3 0  9992
2 64839  51.9050  48.6393 0000731 146.2026 213.8983 14.79931847 66837
KUIPER-00081            
1 65132U 25171A   26277.32162530  .00001511  00000+0  22718-3 0  9999
2 65132  51.9011 305.5026 0000443  48.5242 311.5759 14.79939055 63937
KUIPER-00088            
1 65133U 25171B   26277.30275457  .00001486  00000+0  22390-3 0  9998
2 65133  51.9019 323.0859 0000333  61.6123 298.4873 14.79932753 63687
KUIPER-00095            
1 65134U 25171C   26277.25679522  .00001387  00000+0  21096-3 0  9996
2 65134  51.8995 303.3228 0000502  84.7562 275.3458 14.79930175 63951
KUIPER-00096            
1 65135U 25171D   26277.27708083  .00001651  00000+0  24556-3 0  9992
2 65135  51.9007 315.6916 0000356  69.1324 290.9677 14.79926379 63785
KUIPER-00097            
1 65136U 25171E   26277.27440541  .00000122  00000+0  44945-4 0  9992
2 65136  51.9028 318.3776 0000316  73.9462 286.1535 14.79929651 63736
KUIPER-00098            
1 65137U 25171F   26277.27168779  .00001485  00000+0  22369-3 0  9991
2 65137  51.9017 320.7470 0000532  62.0099 298.0917 14.79933123 63058
KUIPER-00099            
1 65138U 25171G   26277.31624823 -.00000002  00000+0  28723-4 0  9990
2 65138  51.9043 310.5686 0000330  47.3196 312.7794 14.79929860 63852
KUIPER-00100            
1 65139U 25171H   26277.28517241  .00001445  00000+0  21855-3 0  9991
2 65139  51.9025 308.1689 0000408  52.2205 307.8794 14.79936870 63888
KUIPER-00102            
1 65140U 25171J   26277.28246367  .00001549  00000+0  23209-3 0  9991
2 65140  51.8999 310.6444 0000338  12.0017 348.0953 14.79938574 63846
KUIPER-00103            
1 65141U 25171K   26277.16230848  .00001433  00000+0  21697-3 0  9997
2 65141  51.9004 328.6797 0000308  53.8734 306.2257 14.79929591 63584
KUIPER-00104            
1 65142U 25171L   26277.31084329  .00001498  00000+0  22544-3 0  9999
2 65142  51.9035 315.5461 0000356  49.2842 310.8151 14.79938808 63781
KUIPER-00105            
1 65143U 25171M   26277.13394826  .00001516  00000+0  22780-3 0  9999
2 65143  51.9021 323.9187 0000321  58.5028 301.5965 14.79931247 63652
KUIPER-00106            
1 65144U 25171N   26277.31724834  .00001397  00000+0  21217-3 0  9997
2 65144  51.9022 301.8774 0000450  51.3832 308.7171 14.79938553 63989
KUIPER-00107            
1 65145U 25171P   26277.28787354  .00001501  00000+0  22589-3 0  9990
2 65145  51.9016 305.6796 0000493  65.3973 294.7041 14.79936679 63928
KUIPER-00108            
1 65146U 25171Q   26277.30816593  .00001516  00000+0  22788-3 0  9999
2 65146  51.9037 318.1402 0000347  51.7324 308.3670 14.79928139 63755
KUIPER-00109            
1 65147U 25171R   26277.27978498  .00001514  00000+0  22757-3 0  9993
2 65147  51.9038 313.2074 0000407  53.6934 306.4066 14.79927479 63814
KUIPER-00110            
1 65148U 25171S   26277.30006856  .00001530  00000+0  22964-3 0  9996
2 65148  51.9010 325.6587 0000290  72.1089 287.9905 14.79928842 63638
KUIPER-00111            
1 65149U 25171T   26277.19335505  .00001500  00000+0  22572-3 0  9992
2 65149  51.8989 330.9873 0000368  34.9449 325.1538 14.79924579 63553
KUIPER-00112            
1 65150U 25171U   26277.31355216  .00000046  00000+0  34990-4 0  9991
2 65150  51.9020 313.1008 0000365  50.4190 309.6804 14.79929105 63810
KUIPER-00114            
1 65151U 25171V   26277.32573880 -.00000020  00000+0  26385-4 0  9994
2 65151  51.9009 333.0017 0000317  48.3271 311.7719 14.79927956 63532
KUIPER-00115            
1 65152U 25171W   26277.19877624  .00001536  00000+0  23048-3 0  9997
2 65152  51.9027 326.0748 0000338  65.8696 294.2302 14.79926543 63628
KUIPER-00116            
1 65153U 25171X   26277.15961893  .00001527  00000+0  22929-3 0  9993
2 65153  51.9016 331.2780 0000373  72.0054 288.0949 14.79927318 63548
KUIPER-00118            
1 65154U 25171Y   26277.15689914  .00001552  00000+0  23249-3 0  9999
2 65154  51.9019 333.7373 0000331  70.1160 289.9838 14.79933888 63511
KUIPER-00119            
1 65155U 25171Z   26277.30547236  .00001521  00000+0  22850-3 0  9990
2 65155  51.9026 320.6853 0000363  69.1046 290.9955 14.79930406 63700
KUIPER-00120            
1 65762U 25217A   26277.27216148  .00001853  00000+0  27209-3 0  9997
2 65762  51.8990 210.6932 0000928  76.4437 283.6629 14.79927785 55626
KUIPER-00132            
1 65763U 25217B   26277.14910521  .00019786  00000+0  50109-3 0  9999
2 65763  51.8533  69.1881 0005430 347.3161  12.7689 15.39719300 57579
KUIPER-00133            
1 65764U 25217C   26277.17087582  .00001867  00000+0  27382-3 0  9993
2 65764  51.9049 211.2875 0000914  78.5567 281.5498 14.79938639 55619
KUIPER-00139            
1 65765U 25217D   26277.13839835 -.00000230  00000+0 -11320-5 0  9998
2 65765  51.8979 178.8481 0001244  84.9304 275.1800 14.79926388 56063
KUIPER-00142            
1 65766U 25217E   26277.15598139  .00001025  00000+0  16346-3 0  9992
2 65766  51.8976 193.7390 0001145  87.7085 272.4009 14.79931366 55852
KUIPER-00145            
1 65767U 25217F   26277.15328844 -.00000100  00000+0  15859-4 0  9990
2 65767  51.8993 196.2758 0000973  88.1366 271.9708 14.79928309 55812
KUIPER-00147            
1 65768U 25217G   26277.18432232  .00001798  00000+0  26495-3 0  9991
2 65768  51.8988 198.6102 0001156  73.8770 286.2319 14.79916618 55783
KUIPER-00148            
1 65769U 25217H   26277.13570334 -.00000211  00000+0  12831-5 0  9994
2 65769  51.9044 181.3867 0000956  93.5627 266.5445 14.79928821 56020
KUIPER-00150            
1 65770U 25217J   26277.17356235  .00001815  00000+0  26704-3 0  9994
2 65770  51.9016 208.7106 0000877  83.3807 276.7255 14.79939649 55649
KUIPER-00151            
1 65771U 25217K   26277.18164666  .00001915  00000+0  28017-3 0  9991
2 65771  51.9013 201.1735 0000756  90.8239 269.2810 14.79924662 55755
KUIPER-00152            
1 65772U 25217L   26277.16136718  .00001879  00000+0  27541-3 0  9997
2 65772  51.9005 188.7419 0001155  78.9899 281.1193 14.79938900 55925
KUIPER-00153            
1 65773U 25217M   26277.16677834  .00001840  00000+0  27032-3 0  9990
2 65773  51.9026 183.8091 0001051  94.1562 265.9520 14.79931589 55990
KUIPER-00155            
1 65774U 25217N   26277.06137698  .00001638  00000+0  24391-3 0  9999
2 65774  51.9022 156.7383 0000931  99.2782 260.8286 14.79928215 56363
KUIPER-00156            
1 65775U 25217P   26277.13301497  .00001819  00000+0  26751-3 0  9991
2 65775  51.9027 183.9422 0000988  90.4775 269.6301 14.79930667 55988
KUIPER-00165            
1 65778U 25217S   26277.12221426  .00001920  00000+0  28084-3 0  9990
2 65778  51.9016 193.9169 0000695  91.9183 268.1859 14.79934195 55849
KUIPER-00166            
1 65779U 25217T   26277.16947136  .00000646  00000+0  11371-3 0  9993
2 65779  51.9027 181.2743 0000915  96.0956 264.0111 14.79928843 56029
KUIPER-00167            
1 65780U 25217U   26277.17893856  .00001931  00000+0  28220-3 0  9994
2 65780  51.8968 203.5400 0001123  74.2545 285.8541 14.79932590 55713
KUIPER-00168            
1 65781U 25217V   26277.13030308  .00001766  00000+0  26063-3 0  9995
2 65781  51.9021 186.3872 0000845 100.2600 259.8458 14.79929079 55950
KUIPER-00169            
1 65782U 25217W   26277.12490592  .00001920  00000+0  28071-3 0  9993
2 65782  51.9016 191.4256 0000879  91.2268 268.8795 14.79939123 55881
KUIPER-00170            
1 65783U 25217X   26277.18704822 -.00000201  00000+0  26964-5 0  9997
2 65783  51.8988 196.0884 0000993  87.7289 272.3787 14.79926956 55822
KUIPER-00172            
1 65785U 25217Z   26277.10462852  .00001814  00000+0  26690-3 0  9999
2 65785  51.8996 178.9870 0001325  81.8657 278.2456 14.79932140 56057
KUIPER-00173            
1 65786U 25217AA  26277.15867914 -.00000090  00000+0  17246-4 0  9997
2 65786  51.9004 191.2661 0001214  76.4354 283.6743 14.79926933 55888
KUIPER-00174            
1 65787U 25217AB  26277.16407598  .00001361  00000+0  20762-3 0  9994
2 65787  51.9011 186.3097 0001149  96.3935 263.7158 14.79916816 55954
KUIPER-00176            
1 65788U 25217AC  26277.14788840  .00000572  00000+0  10403-3 0  9999
2 65788  51.9001 201.2925 0001001  80.4582 279.6494 14.79929572 55749
KUIPER-00101            
1 65947U 25228A   26277.02488268 -.00000331  00000+0 -14442-4 0  9999
2 65947  51.8981 159.2783 0001220  83.0534 277.0567 14.79920557 54088
KUIPER-00113            
1 65948U 25228B   26277.06405996  .00001472  00000+0  22215-3 0  9992
2 65948  51.8988 154.1279 0001068  99.8480 260.2603 14.79926184 54150
KUIPER-00117            
1 65949U 25228C   26277.09512931  .00000254  00000+0  62282-4 0  9990
2 65949  51.8979 156.4893 0001126  96.5045 263.6046 14.79930355 54124
KUIPER-00121            
1 65950U 25228D   26277.06675218  .00001581  00000+0  23639-3 0  9993
2 65950  51.8996 151.6395 0001109  99.8705 260.2383 14.79936914 54190
KUIPER-00122            
1 65951U 25228E   26277.05595028  .00003071  00000+0  43151-3 0  9990
2 65951  51.8988 161.6539 0001044 102.5959 257.5120 14.79948204 54052
KUIPER-00123            
1 65952U 25228F   26277.08973426  .00001733  00000+0  25622-3 0  9992
2 65952  51.8981 161.5129 0001105  93.4379 266.6709 14.79935897 54050
KUIPER-00124            
1 65953U 25228G   26277.03029426  .00000598  00000+0  10744-3 0  9997
2 65953  51.8987 154.2668 0001337  93.7312 266.3803 14.79927381 54153
KUIPER-00125            
1 65954U 25228H   26276.97895140  .00001552  00000+0  23263-3 0  9995
2 65954  51.8994 139.5501 0001228 106.5454 253.5643 14.79924047 54351
KUIPER-00126            
1 65955U 25228J   26277.12620262  .00000582  00000+0  10531-3 0  9991
2 65955  51.8984 158.8762 0001022  99.0441 261.0637 14.79926773 54094
KUIPER-00127            
1 65956U 25228K   26277.04987174  .00001551  00000+0  23242-3 0  9991
2 65956  51.9006 151.6978 0001194  92.8786 267.2313 14.79932710 54192
KUIPER-00128            
1 65957U 25228L   26277.03300367  .00000774  00000+0  13049-3 0  9994
2 65957  51.9003 151.8390 0001049 101.4894 258.6186 14.79929188 54182
KUIPER-00129            
1 65958U 25228M   26277.00462726  .00001547  00000+0  23194-3 0  9991
2 65958  51.9013 146.9426 0001015  93.2063 266.9016 14.79929955 54252
KUIPER-00130            
1 65959U 25228N   26277.10323051 -.00000109  00000+0  14750-4 0  9993
2 65959  51.9029 149.0569 0001009  98.7378 261.3699 14.79928953 44526
KUIPER-00134            
1 65960U 25228P   26277.04626125  .00016073  00000+0  43163-3 0  9991
2 65960  51.8699  29.0729 0004712 328.5669  31.5036 15.38073386 55897
KUIPER-00135            
1 65961U 25228Q   26277.00194096  .00000237  00000+0  60126-4 0  9999
2 65961  51.9021 149.5539 0000976 101.4697 258.6376 14.79928133 54219
KUIPER-00136            
1 65962U 25228R   26277.03838869  .00001589  00000+0  23741-3 0  9998
2 65962  51.9006 146.8367 0001133  93.2852 266.8240 14.79924611 54251
KUIPER-00137            
1 65963U 25228S   26277.04109491  .00001527  00000+0  22933-3 0  9996
2 65963  51.9032 144.3398 0001214  90.6703 269.4399 14.79931423 54291
KUIPER-00138            
1 65964U 25228T   26277.01000594  .00001491  00000+0  22452-3 0  9994
2 65964  51.8985 141.8675 0001121 101.4241 258.6847 14.79939441 54323
KUIPER-00140            
1 65965U 25228U   26277.07485948  .00000376  00000+0  78307-4 0  9993
2 65965  51.8986 144.1752 0001276 102.2655 257.8451 14.79929931 54297
KUIPER-00141            
1 65966U 25228V   26277.01272689  .00001492  00000+0  22471-3 0  9994
2 65966  51.9021 139.5326 0000839 108.5177 251.5877 14.79932896 54350
KUIPER-00146            
1 65967U 25228W   26277.04373999  .00001465  00000+0  22110-3 0  9994
2 65967  51.9031 141.9081 0001227  98.6846 261.4256 14.79953523 54329
KUIPER-00149            
1 65968U 25228X   26277.01540857  .00001495  00000+0  22513-3 0  9991
2 65968  51.9003 136.9036 0001030 103.7392 256.3685 14.79932103 54396
KUIPER-00154            
1 65969U 25228Y   26277.05187071  .00001374  00000+0  20920-3 0  9997
2 65969  51.8994 134.2243 0001077 104.0168 256.0914 14.79931212 54439
KUIPER-00157            
1 65970U 25228Z   26277.04127464  .00001188  00000+0  20287-3 0  9997
2 65970  51.9009 136.8474 0000907  92.9930 267.1135 14.75732109 54399
KUIPER-00144            
1 67133U 25301A   26277.10065161  .00000177  00000+0  52250-4 0  9997
2 67133  51.9005 214.0334 0001037  76.1003 284.0075 14.79928099 44739
KUIPER-00164            
1 67134U 25301B   26277.15468295  .00001952  00000+0  28496-3 0  9994
2 67134  51.9035 226.3173 0000769  63.1883 296.9158 14.79928746 44747
KUIPER-00175            
1 67135U 25301C   26277.07226440  .00001761  00000+0  25992-3 0  9996
2 67135  51.9007 209.1094 0000991  61.1399 298.9663 14.79938357 44871
KUIPER-00179            
1 67136U 25301D   26277.15738367  .00001892  00000+0  27708-3 0  9994
2 67136  51.8984 223.7288 0000899  70.1759 289.9300 14.79934176 44782
KUIPER-00181            
1 67137U 25301E   26277.14390290  .00001783  00000+0  26279-3 0  9994
2 67137  51.9024 236.3603 0000937  51.8959 308.2088 14.79939800 44586
KUIPER-00183            
1 67138U 25301F   26277.07497223  .00001830  00000+0  26906-3 0  9991
2 67138  51.9027 206.6701 0000962  73.9046 286.2022 14.79932438 45000
KUIPER-00184            
1 67139U 25301G   26276.92642515  .00001753  00000+0  25892-3 0  9998
2 67139  51.8998 219.7628 0000866  72.2079 287.8978 14.79932032 44917
KUIPER-00186            
1 67140U 25301H   26277.17764000  .00004844  00000+0  66358-3 0  9998
2 67140  51.9031 236.2201 0000551  40.7890 319.3113 14.79957373 44435
KUIPER-00187            
1 67141U 25301J   26277.17496632  .00000287  00000+0  66701-4 0  9992
2 67141  51.9031 238.7609 0000826  85.3227 274.7830 14.79924247 44398
KUIPER-00188            
1 67142U 25301K   26277.17627329  .00001975  00000+0  28791-3 0  9993
2 67142  51.9032 206.3391 0001073  72.2449 287.8630 14.79940987 44847
KUIPER-00191            
1 67143U 25301L   26277.14930440  .00001746  00000+0  25792-3 0  9996
2 67143  51.9008 231.3445 0000810  61.4828 298.6216 14.79932866 44520
KUIPER-00196            
1 67144U 25301M   26277.12759817  .00001910  00000+0  27946-3 0  9998
2 67144  51.8989 188.8877 0001007  86.6679 273.4399 14.79934566 45089
KUIPER-00204            
1 67145U 25301N   26277.14518678  .00002000  00000+0  29135-3 0  9992
2 67145  51.9016 203.8526 0000814  77.6088 282.4966 14.79925106 44999
KUIPER-00210            
1 67146U 25301P   26276.91267023 -.00006282  00000+0 -79605-3 0  9997
2 67146  51.9001 232.3318 0000815  54.1323 305.9715 14.79920420 44631
KUIPER-00221            
1 67147U 25301Q   26277.27627118  .00000599  00000+0  10763-3 0  9996
2 67147  51.9015 238.2669 0000755  88.5461 271.5588 14.79929656 44410
KUIPER-00232            
1 67148U 25301R   26277.12362760  .00001871  00000+0  27442-3 0  9996
2 67148  51.9000 223.9470 0000804  74.0387 286.0664 14.79925239 44596
KUIPER-00241            
1 67149U 25301S   26277.14660888  .00000241  00000+0  60580-4 0  9992
2 67149  51.9024 233.8745 0001133  71.1848 288.9237 14.79928321 44798
KUIPER-00245            
1 67150U 25301T   26277.20605109  .00001837  00000+0  26984-3 0  9997
2 67150  51.9027 241.1214 0000744  70.9944 289.1099 14.79933169 44365
KUIPER-00246            
1 67151U 25301U   26277.12092199  .00001890  00000+0  27690-3 0  9992
2 67151  51.9000 226.4292 0000900  66.3637 293.7419 14.79934400 44581
KUIPER-00247            
1 67152U 25301V   26277.13170835  .00000830  00000+0  13789-3 0  9995
2 67152  51.8960 216.3209 0000920  75.2430 284.8634 14.79929472 44701
KUIPER-00248            
1 67153U 25301W   26277.15059138  .00002019  00000+0  29372-3 0  9996
2 67153  51.8996 198.8861 0000932  81.4389 278.6679 14.79940103 45114
KUIPER-00249            
1 67154U 25301X   26276.52664667  .00000389  00000+0  80067-4 0  9993
2 67154  51.8998 216.5807 0000990  67.1260 292.9807 14.79927833 44642
KUIPER-00250            
1 67155U 25301Y   26277.15198727  .00001830  00000+0  26900-3 0  9990
2 67155  51.9011 228.7665 0000940  63.2323 296.8735 14.79938823 44564
KUIPER-00251            
1 67156U 25301Z   26276.96289779  .00000604  00000+0  10829-3 0  9998
2 67156  51.9005 217.1816 0001037  67.3916 292.7156 14.79929431 44869
KUIPER-00252            
1 67157U 25301AA  26277.09524794  .00001686  00000+0  25009-3 0  9990
2 67157  51.9009 219.0467 0000819  81.3024 278.8031 14.79933719 44669
KUIPER-00261            
1 67158U 25301AB  26276.57799159  .00001209  00000+0  18753-3 0  9991
2 67158  51.8991 231.4007 0000643  55.9560 304.1464 14.79933211 44440
KUIPER-00265            
1 67159U 25301AC  26277.20334441  .00000297  00000+0  68003-4 0  9992
2 67159  51.9028 243.6115 0000969  85.8966 274.2107 14.79935258 44366
KUIPER-00159            
1 67764U 26030A   26277.27879343  .00001513  00000+0  22748-3 0  9993
2 67764  51.9019 322.0170 0001469 359.7473   0.3488 14.79927125 36740
KUIPER-00160            
1 67765U 26030B   26277.27369132 -.00000277  00000+0 -73671-5 0  9995
2 67765  51.8984 303.2860 0000169  95.7808 264.3173 14.79928351 37008
KUIPER-00177            
1 67766U 26030C   26276.54246824  .00000967  00000+0  15589-3 0  9993
2 67766  51.9035  14.0034 0000660  97.4953 262.6085 14.79931710 35951
KUIPER-00178            
1 67767U 26030D   26276.98141293  .00001052  00000+0  16701-3 0  9999
2 67767  51.9032  12.0426 0000438  95.8117 264.2896 14.79928355 36027
KUIPER-00180            
1 67768U 26030E   26276.98678884  .00002844  00000+0  40182-3 0  9991
2 67768  51.9001   7.0075 0000422 100.0299 260.0711 14.79947038 36097
KUIPER-00197            
1 67769U 26030F   26277.14343535  .00001809  00000+0  26628-3 0  9992
2 67769  51.9017 346.3347 0000183  56.3570 303.7410 14.79931894 36392
KUIPER-00198            
1 67770U 26030G   26276.96112793  .00001741  00000+0  25736-3 0  9997
2 67770  51.9004 359.6115 0000179  96.6254 263.4729 14.79931423 36192
KUIPER-00199            
1 67771U 26030H   26277.25002315 -.00077741  00000+0 -86264-2 0  9996
2 67771  51.8989 297.4011 0012784  99.8710 246.6000 14.87124347  5880
KUIPER-00200            
1 67772U 26030J   26277.17990076  .00000419  00000+0  83965-4 0  9991
2 67772  51.8974 343.6890 0000196  79.9139 280.1846 14.79930963 36438
KUIPER-00203            
1 67773U 26030K   26277.00978740  .00001395  00000+0  21187-3 0  9999
2 67773  51.9080  17.0256 0000288 119.8801 240.2191 14.79934977 35953
KUIPER-00205            
1 67774U 26030L   26277.18259451  .00001597  00000+0  23849-3 0  9991
2 67774  51.9022 341.1466 0000320  68.7668 291.3329 14.79931772 36472
KUIPER-00208            
1 67775U 26030M   26276.98409886  .00001473  00000+0  22221-3 0  9994
2 67775  51.8993   9.5154 0000420 155.0936 205.0047 14.79935248 36052
KUIPER-00209            
1 67776U 26030N   26276.95304837  .00000071  00000+0  38269-4 0  9995
2 67776  51.9019   7.2579 0000296 116.5433 243.5560 14.79929136 36083
KUIPER-00213            
1 67777U 26030P   26277.25961895  .00001795  00000+0  26437-3 0  9990
2 67777  51.8981   3.3528 0000259  95.2776 264.8216 14.79934808 36169
KUIPER-00214            
1 67778U 26030Q   26276.95844181  .00000517  00000+0  96855-4 0  9998
2 67778  51.8996   2.2277 0000481  96.7165 263.3852 14.79925797 36156
KUIPER-00215            
1 67779U 26030R   26277.20826239  .00001616  00000+0  24098-3 0  9992
2 67779  51.8999 348.4743 0000272  76.9502 283.1491 14.79931431 36371
KUIPER-00218            
1 67780U 26030S   26276.95571816 -.00001491  00000+0 -16668-3 0  9990
2 67780  51.9022   4.6310 0000358 168.4178 191.6793 14.79935192 36122
KUIPER-00220            
1 67781U 26030T   26277.32035097  .00000299  00000+0  68231-4 0  9996
2 67781  51.8981 338.0381 0000328  75.5918 284.5081 14.79928636 36526
KUIPER-00222            
1 67782U 26030U   26277.19749799  .00001796  00000+0  26454-3 0  9996
2 67782  51.9012 358.7223 0000225 117.3565 242.7421 14.79927515 36222
KUIPER-00223            
1 67783U 26030V   26277.17178904  .00001735  00000+0  25654-3 0  9993
2 67783  51.9039 351.1505 0000330  79.8447 280.2553 14.79932338 36334
KUIPER-00225            
1 67784U 26030W   26276.96383743  .00001795  00000+0  26444-3 0  9993
2 67784  51.9005 357.2123 0000291  78.2638 281.8357 14.79931249 36229
KUIPER-00226            
1 67785U 26030X   26277.14611270  .00001572  00000+0  23510-3 0  9998
2 67785  51.9007 343.7902 0000771  55.9645 304.1390 14.79935023 36433
KUIPER-00259            
1 67786U 26030Y   26277.20017926  .00001640  00000+0  24402-3 0  9991
2 67786  51.9005 356.0686 0000204  65.7039 294.3944 14.79928052 36265
KUIPER-00260            
1 67787U 26030Z   26277.20288904  .00001643  00000+0  24443-3 0  9996
2 67787  51.9034 353.6718 0000158  98.8774 261.2207 14.79933032 36201
KUIPER-00262            
1 67788U 26030AA  26277.16910876  .00001675  00000+0  24871-3 0  9992
2 67788  51.9027 353.7376 0000120 119.1159 240.9815 14.79927276 36299
KUIPER-00266            
1 67789U 26030AB  26277.20557729  .00001644  00000+0  24464-3 0  9996
2 67789  51.9024 351.0666 0000318  95.3849 264.7149 14.79927278 36331
KUIPER-00268            
1 67790U 26030AC  26277.17451125  .00000354  00000+0  75372-4 0  9999
2 67790  51.9061 348.7544 0000099 102.4334 257.6639 14.79930873 36360
KUIPER-00270            
1 67791U 26030AD  26277.15152185  .00001639  00000+0  24391-3 0  9993
2 67791  51.9013 338.7958 0000303  68.9797 291.1198 14.79937789 36505
KUIPER-00274            
1 67792U 26030AE  26277.19479466  .00000523  00000+0  97548-4 0  9998
2 67792  51.9045   1.1232 0000498 111.9001 248.2014 14.79929452 36192
KUIPER-00275            
1 67793U 26030AF  26277.14882582  .00001757  00000+0  25935-3 0  9991
2 67793  51.9024 341.3201 0000133  63.0710 297.0266 14.79935524 36463
KUIPER-00276            
1 67794U 26030AG  26277.17720497  .00001641  00000+0  24421-3 0  9992
2 67794  51.9005 346.1689 0000340  71.3872 288.7127 14.79926787 36405
KUIPER-00279            
1 67795U 26030AH  26277.15422934  .00001586  00000+0  23707-3 0  9990
2 67795  51.9047 336.3270 0000256  65.9522 294.1468 14.79927215 36536
KUIPER-00131            
1 68573U 26072A   26277.15035508  .00000174  00000+0  51891-4 0  9996
2 68573  51.9013  73.8166 0000627 134.2280 225.8734 14.79931507 27259
KUIPER-00189            
1 68574U 26072B   26277.18140545  .00001691  00000+0  25073-3 0  9995
2 68574  51.8995  76.1530 0000438  88.0842 272.0171 14.79926872 27224
KUIPER-00192            
1 68575U 26072C   26277.15305487  .00000381  00000+0  78936-4 0  9993
2 68575  51.9002  71.2990 0000931 123.4749 236.6302 14.79927093 27294
KUIPER-00193            
1 68576U 26072D   26277.09630294 -.00001587  00000+0 -17917-3 0  9996
2 68576  51.9037  61.6063 0000934 118.2631 241.8426 14.79937465 27426
KUIPER-00194            
1 68577U 26072E   26277.12198921  .00001605  00000+0  23951-3 0  9991
2 68577  51.9038  68.9651 0000698 127.3640 232.7386 14.79937322 27324
KUIPER-00229            
1 68578U 26072F   26276.84647307  .00001685  00000+0  24994-3 0  9993
2 68578  51.9026  75.1630 0000587 123.1435 236.9583 14.79933216 27213
KUIPER-00230            
1 68579U 26072G   26276.02099459  .00001031  00000+0  17687-3 0  9999
2 68579  51.9062  26.2643 0000856 110.6976 249.4077 14.76578527 27826
KUIPER-00231            
1 68580U 26072H   26277.07872102  .00001482  00000+0  22332-3 0  9994
2 68580  51.8983  46.7023 0001453 159.8134 200.2886 14.79938903 27625
KUIPER-00234            
1 68581U 26072J   26277.15574404  .00001754  00000+0  25899-3 0  9991
2 68581  51.9001  68.7769 0001037 126.4860 233.6198 14.79933329 27323
KUIPER-00236            
1 68582U 26072K   26277.00170772  .00001352  00000+0  20631-3 0  9999
2 68582  51.9072  24.4757 0000854 121.2226 238.8820 14.79922781 27939
KUIPER-00244            
1 68583U 26072L   26277.13276889  .00001795  00000+0  26442-3 0  9997
2 68583  51.9005  58.9018 0000685 127.7918 232.3107 14.79936804 27465
KUIPER-00253            
1 68584U 26072M   26277.13007385  .00001402  00000+0  21289-3 0  9990
2 68584  51.9044  61.4462 0000671 131.0842 229.0178 14.79937764 27423
KUIPER-00254            
1 68585U 26072N   26276.68842562  .00001680  00000+0  24930-3 0  9998
2 68585  51.9041  65.8949 0000803 125.5409 234.5629 14.79930254 27321
KUIPER-00263            
1 68586U 26072P   26277.10980195  .00000216  00000+0  57377-4 0  9998
2 68586  51.9038  49.0977 0000633 122.9544 237.1480 14.79927671 27597
KUIPER-00269            
1 68587U 26072Q   26277.10709389  .00001855  00000+0  27223-3 0  9999
2 68587  51.9014  51.5133 0000657 134.2624 225.8392 14.79929731 27567
KUIPER-00272            
1 68588U 26072R   26277.11927642  .00001129  00000+0  17701-3 0  9999
2 68588  51.8974  71.4227 0000788 132.1532 227.9497 14.79937010 27284
KUIPER-00285            
1 68589U 26072S   26277.07333596  .00001735  00000+0  25660-3 0  9990
2 68589  51.9066  51.7523 0001140 117.9563 242.1515 14.79933258 27556
KUIPER-00286            
1 68590U 26072T   26277.07602442  .00001009  00000+0  16132-3 0  9999
2 68590  51.9023  49.1638 0000364  91.4305 268.6700 14.79934438 27590
KUIPER-00289            
1 68591U 26072U   26276.66275482  .00001848  00000+0  27137-3 0  9992
2 68591  51.8998  58.4632 0000737 134.4229 225.6794 14.79935310 27423
KUIPER-00290            
1 68592U 26072V   26277.10170773  .00001669  00000+0  24792-3 0  9995
2 68592  51.9040  56.5368 0000516 143.4890 216.6107 14.79932111 27498
KUIPER-00293            
1 68593U 26072W   26277.12467941  .00001715  00000+0  25395-3 0  9996
2 68593  51.8985  66.3984 0001619  99.2489 260.8656 14.79937160 27350
KUIPER-00294            
1 68594U 26072X   26277.07062500  .00001124  00000+0  17638-3 0  9998
2 68594  51.9002  54.1627 0000377 130.6741 229.4255 14.79933372 27528
KUIPER-00296            
1 68595U 26072Y   26277.05574010  .00001756  00000+0  25919-3 0  9993
2 68595  51.9050  36.7509 0000243 128.1855 231.9129 14.79937842 27767
KUIPER-00297            
1 68596U 26072Z   26277.15844418 -.00000010  00000+0  27654-4 0  9999
2 68596  51.9026  66.2532 0001152 138.5368 221.5682 14.79928266 27364
KUIPER-00300            
1 68597U 26072AA  26277.12737751  .00001650  00000+0  24546-3 0  9994
2 68597  51.9052  63.9304 0000614 122.6692 237.4329 14.79931031 27392
KUIPER-00301            
1 68598U 26072AB  26277.04425214  .00001143  00000+0  19298-3 0  9999
2 68598  51.9052  34.1615 0001812 248.4534 111.6233 14.76522490 27794
KUIPER-00304            
1 68599U 26072AC  26277.07298091  .00001249  00000+0  20761-3 0  9998
2 68599  51.9018  35.9723 0000770  49.6463 310.4565 14.76636508 27771
KUIPER-00317            
1 68600U 26072AD  26276.69920255  .00001233  00000+0  19070-3 0  9996
2 68600  51.8989  55.8077 0000441 117.0098 243.0909 14.79937927 27463
KUIPER-00320            
1 68601U 26072AE  26276.69382586  .00000623  00000+0  11067-3 0  9996
2 68601  51.9044  60.8560 0000656 106.4351 253.6683 14.79926587 27390
KUIPER-00299            
1 68864U 26095A   26276.98973326  .00001471  00000+0  22189-3 0  9991
2 68864  51.8988 129.5060 0001036 114.2375 245.8696 14.79937068 23727
KUIPER-00353            
1 68865U 26095B   26277.24226447  .00001333  00000+0  20383-3 0  9998
2 68865  51.9002 113.4166 0000875 111.9040 248.2016 14.79939444 23978
KUIPER-00357            
1 68866U 26095C   26277.26795282  .00001460  00000+0  22053-3 0  9996
2 68866  51.9009 120.8156 0001362 100.5181 259.5935 14.79932336 23876
KUIPER-00364            
1 68867U 26095D   26277.29902339  .00001568  00000+0  23459-3 0  9993
2 68867  51.9019 123.2060 0001231  99.9432 260.1670 14.79933640 23844
KUIPER-00375            
1 68868U 26095E   26277.27334655  .00001533  00000+0  23005-3 0  9991
2 68868  51.8999 115.7875 0000996 112.3067 247.8001 14.79927243 23945
KUIPER-00433            
1 68869U 26095F   26276.98704680 -.00000117  00000+0  13656-4 0  9998
2 68869  51.8993 132.0475 0001511  99.6017 260.5116 14.79928171 23696
KUIPER-00437            
1 68870U 26095G   26277.25002315  .00010801  00000+0  15603-2 0  9999
2 68870  51.9014  82.8580 0000690 102.4317 215.2151 14.76618247  4462
KUIPER-00448            
1 68871U 26095H   26277.30171478 -.00000359  00000+0 -18060-4 0  9994
2 68871  51.9036 120.6655 0001106 116.4089 243.6987 14.79930554 23874
KUIPER-00459            
1 68872U 26095J   26276.94378706  .00001484  00000+0  22363-3 0  9995
2 68872  51.9015 109.8086 0000884 115.5708 244.5346 14.79938005 23990
KUIPER-00468            
1 68873U 26095K   26277.24682757  .00001219  00000+0  20323-3 0  9994
2 68873  51.8963 106.3199 0000450 182.5999 177.4959 14.76638716 24071
KUIPER-00476            
1 68874U 26095L   26277.16793534  .00001527  00000+0  22934-3 0  9994
2 68874  51.9012  88.6677 0000878 126.6195 233.4848 14.79930928 24312
KUIPER-00478            
1 68875U 26095M   26277.27872650  .00001564  00000+0  23413-3 0  9998
2 68875  51.8991 110.7584 0001002 112.2207 247.8862 14.79940341 24019
KUIPER-00480            
1 68876U 26095N   26277.24766833  .00001401  00000+0  21277-3 0  9997
2 68876  51.9040 108.4172 0000769 114.7584 245.3458 14.79935999 24047
KUIPER-00482            
1 68877U 26095P   26277.30438220  .00001540  00000+0  23105-3 0  9997
2 68877  51.9005 118.1488 0001383  99.4356 260.6763 14.79928156 23917
KUIPER-00483            
1 68878U 26095Q   26277.29092258  .00001385  00000+0  21063-3 0  9991
2 68878  51.8999 130.6693 0001643  66.7373 293.3762 14.79933376 23733
KUIPER-00488            
1 68879U 26095R   26277.27604237  .00001505  00000+0  22638-3 0  9999
2 68879  51.8987 113.2794 0001232 111.3431 248.7663 14.79933485 23977
KUIPER-00489            
1 68880U 26095S   26277.21659628  .00001493  00000+0  22478-3 0  9997
2 68880  51.8962 106.0172 0001331 117.8032 242.3066 14.79937253 24076
KUIPER-00499            
1 68881U 26095T   26277.24495938  .00000934  00000+0  15155-3 0  9996
2 68881  51.8980 110.9563 0000677 112.5781 247.5254 14.79934646 24002
KUIPER-00500            
1 68882U 26095U   26277.29361319  .00001512  00000+0  22727-3 0  9993
2 68882  51.9004 128.1960 0000926 110.1370 249.9692 14.79934504 23776
KUIPER-00502            
1 68883U 26095V   26276.97313279  .00001551  00000+0  23251-3 0  9996
2 68883  51.9000 105.8629 0001064 111.0885 249.0192 14.79927589 24055
KUIPER-00503            
1 68884U 26095W   26276.99243351  .00001424  00000+0  21582-3 0  9996
2 68884  51.8974 126.9948 0001072 108.3001 251.8078 14.79925417 23760
KUIPER-00504            
1 68885U 26095X   26277.28823211  .00001625  00000+0  24215-3 0  9998
2 68885  51.9012 133.2258 0000797 110.6934 249.4114 14.79932113 23703
KUIPER-00505            
1 68886U 26095Y   26276.99513494 -.00000143  00000+0  10272-4 0  9999
2 68886  51.9004 124.5229 0000853 106.5779 253.5277 14.79928653 23799
KUIPER-00507            
1 68887U 26095Z   26277.25915177  .00001440  00000+0  21788-3 0  9997
2 68887  51.9000 113.3367 0000919 111.7197 248.3863 14.79928432 23978
KUIPER-00511            
1 68888U 26095AA  26277.25037390  .00000979  00000+0  15749-3 0  9996
2 68888  51.8983 105.9869 0001107 109.3724 250.7358 14.79928006 24076
KUIPER-00512            
1 68889U 26095AB  26277.29630518  .00001599  00000+0  23870-3 0  9995
2 68889  51.9009 125.6933 0000837 115.7575 244.3474 14.79928527 23808
KUIPER-00519            
1 68890U 26095AC  26276.96946691  .00001475  00000+0  22244-3 0  9999
2 68890  51.9023 117.2026 0000739 111.9120 248.1921 14.79927128 23895
KUIPER-00521            
1 68891U 26095AD  26277.23787932  .00001422  00000+0  21553-3 0  9996
2 68891  51.9013 109.7116 0000781 113.0764 247.0281 14.79928579 24029
KUIPER-00524            
1 68892U 26095AE  26277.00051699  .00001420  00000+0  21516-3 0  9993
2 68892  51.8974 119.4673 0001181 104.7171 255.3923 14.79938208 23861
KUIPER-00370            
1 68919U 26098A   26277.29863843  .00001493  00000+0  22471-3 0  9990
2 68919  51.8994 295.5318 0000480  33.6907 326.4086 14.79938794 23649
KUIPER-00380            
1 68920U 26098B   26277.30675788  .00001489  00000+0  22429-3 0  9991
2 68920  51.8982 288.1312 0000517  51.0186 309.0823 14.79928787 23742
KUIPER-00386            
1 68921U 26098C   26277.32093668  .00001479  00000+0  22298-3 0  9998
2 68921  51.8993 290.5651 0000522  47.8350 312.2657 14.79928719 23713
KUIPER-00388            
1 68922U 26098D   26277.29327763  .00001508  00000+0  22669-3 0  9996
2 68922  51.9013 300.8517 0000408  43.0674 317.0320 14.79939668 23562
KUIPER-00405            
1 68923U 26098E   26277.31284563  .00001509  00000+0  22690-3 0  9995
2 68923  51.9027 298.1205 0000914 316.2877  43.8012 14.79936724 23600
KUIPER-00408            
1 68924U 26098F   26277.30404742  .00000346  00000+0  74432-4 0  9998
2 68924  51.9008 290.5694 0000621  65.4031 294.6996 14.79931745 23715
KUIPER-00409            
1 68925U 26098G   26277.28177350  .00001426  00000+0  21599-3 0  9993
2 68925  51.9036 295.7585 0000353  58.6274 301.4723 14.79940599 23631
KUIPER-00410            
1 68926U 26098H   26277.28447159  .00001529  00000+0  22948-3 0  9994
2 68926  51.8982 293.2136 0000057 338.3066  21.7894 14.79936553 23674
KUIPER-00412            
1 68927U 26098J   26277.27570253  .00006504  00000+0  88190-3 0  9995
2 68927  51.9024 285.7954 0001127  60.9176 299.1899 14.79903810 23773
KUIPER-00413            
1 68928U 26098K   26277.29596280  .00001574  00000+0  23544-3 0  9990
2 68928  51.9007 298.1731 0000299 352.3655   7.7303 14.79933703 23604
KUIPER-00414            
1 68929U 26098L   26277.31894606  .00001419  00000+0  21502-3 0  9997
2 68929  51.8980 308.1513 0000255 196.9813 163.1141 14.79934298 23465
KUIPER-00415            
1 68930U 26098M   26277.27026288  .00005079  00000+0  69447-3 0  9993
2 68930  51.9025 290.8079 0000555  27.7228 332.3764 14.79952565 23701
KUIPER-00416            
1 68931U 26098N   26277.28800461  .00001024  00000+0  16347-3 0  9995
2 68931  51.9057 282.0822 0000902  69.1229 290.9830 14.79901043 23824
KUIPER-00420            
1 68932U 26098P   26277.27838047  .00000065  00000+0  37508-4 0  9993
2 68932  51.9019 283.2310 0000563  64.1691 295.9330 14.79930188 23810
KUIPER-00421            
1 68933U 26098Q   26277.27297551 -.00000027  00000+0  25531-4 0  9995
2 68933  51.9024 288.2416 0000825  66.8896 293.2154 14.79925402 23746
KUIPER-00425            
1 68934U 26098R   26277.33241516 -.00000006  00000+0  28177-4 0  9999
2 68934  51.8992 295.5190 0000508  78.3651 281.7369 14.79923834 23641
KUIPER-00430            
1 68935U 26098S   26277.32972199  .00001468  00000+0  22156-3 0  9999
2 68935  51.9042 297.9380 0000450  58.1066 301.9940 14.79928600 23611
KUIPER-00431            
1 68936U 26098T   26277.32703232 -.00000278  00000+0 -75151-5 0  9995
2 68936  51.9004 300.5313 0000419  32.2506 327.8482 14.79929067 23575
KUIPER-00432            
1 68937U 26098U   26277.33510471  .00001613  00000+0  24054-3 0  9994
2 68937  51.8996 292.8944 0000488  48.3220 311.7784 14.79929500 23686
KUIPER-00434            
1 68938U 26098V   26277.28455782  .00001101  00000+0  18757-3 0  9997
2 68938  51.9002 297.5378 0000737 186.4904 173.6047 14.76405182 23611
KUIPER-00436            
1 68939U 26098W   26277.31553260  .00001465  00000+0  22108-3 0  9990
2 68939  51.9002 295.5942 0000371  79.7984 280.3020 14.79930649 23647
KUIPER-00438            
1 68940U 26098X   26277.31824921  .00001477  00000+0  22271-3 0  9991
2 68940  51.9034 293.1120 0000497  61.5607 298.5406 14.79928236 23677
KUIPER-00439            
1 68941U 26098Y   26277.30136406  .00001460  00000+0  22049-3 0  9990
2 68941  51.9031 293.1774 0000546  59.2180 300.8836 14.79934262 23675
KUIPER-00440            
1 68942U 26098Z   26277.32633102  .00001559  00000+0  23339-3 0  9990
2 68942  51.9026 285.5650 0000967  25.6600 334.4410 14.79939170 23785
KUIPER-00442            
1 68943U 26098AA  26277.32360214  .00001642  00000+0  24446-3 0  9995
2 68943  51.9021 288.0944 0000521  13.8851 346.2126 14.79921331 23749
KUIPER-00446            
1 68944U 26098AB  26277.28717789  .00001438  00000+0  21768-3 0  9991
2 68944  51.9004 290.7353 0001248 342.5314  17.5606 14.79925425 23703
KUIPER-00451            
1 68945U 26098AC  26277.27638691 -.00000056  00000+0  21646-4 0  9997
2 68945  51.8999 300.7637 0000415  44.3488 315.7508 14.79928273 23569
KUIPER-00452            
1 68946U 26098AD  26277.28984372  .00004640  00000+0  63686-3 0  9990
2 68946  51.9015 288.2229 0000492  38.6341 321.4657 14.79958732 23748
KUIPER-00453            
1 68947U 26098AE  26277.30943966 -.00000177  00000+0  58034-5 0  9993
2 68947  51.8998 285.5519 0000579 192.0931 168.0017 14.79928587 23780
KUIPER-00454            
1 68948U 26098AF  26277.08796226  .00001419  00000+0  21514-3 0  9994
2 68948  51.9002 304.0881 0000807  58.6634 301.4408 14.79929030 23509
KUIPER-00455            
1 68949U 26098AG  26277.31015027  .00001495  00000+0  22511-3 0  9996
2 68949  51.9013 300.6194 0000446 188.1639 171.9316 14.79932522 23579
KUIPER-00458            
1 68950U 26098AH  26277.29256436  .00001505  00000+0  22634-3 0  9994
2 68950  51.9024 285.7222 0000770  66.3293 293.7751 14.79935542 23774
KUIPER-00282            
1 69267U 26118A   26277.30062362  .00001668  00000+0  24767-3 0  9993
2 69267  51.8970 278.1344 0000568  13.8041 346.2936 14.79946193 20319
KUIPER-00383            
1 69268U 26118B   26277.25270458  .00001570  00000+0  23482-3 0  9990
2 69268  51.8980 275.8697 0000636  36.7691 323.3315 14.79936283 20346
KUIPER-00527            
1 69269U 26118C   26277.28648653  .00001540  00000+0  23091-3 0  9993
2 69269  51.8975 275.8528 0000669  45.9164 314.1854 14.79937133 20348
KUIPER-00562            
1 69270U 26118D   26277.26078936  .00000286  00000+0  66597-4 0  9999
2 69270  51.9034 268.2872 0000931  67.8633 292.2428 14.79928319 20452
KUIPER-00570            
1 69271U 26118E   26277.28107990  .00001521  00000+0  22849-3 0  9999
2 69271  51.9008 280.8515 0000577  43.8844 316.2164 14.79939784 20263
KUIPER-00572            
1 69272U 26118F   26277.26959039  .00001531  00000+0  22972-3 0  9995
2 69272  51.9006 275.7949 0000669  44.8188 315.2828 14.79934768 20342
KUIPER-00581            
1 69273U 26118G   26277.26418952  .00001595  00000+0  23820-3 0  9993
2 69273  51.9022 280.8299 0000546 323.7535  36.3390 14.79938666 20363
KUIPER-00584            
1 69274U 26118H   26277.31213266  .00001593  00000+0  23791-3 0  9996
2 69274  51.9006 283.2259 0000576  42.1364 317.9642 14.79929761 20245
KUIPER-00587            
1 69275U 26118J   26277.27227566  .00001584  00000+0  23670-3 0  9996
2 69275  51.9009 273.2924 0000701  53.3287 306.7740 14.79936274 20382
KUIPER-00590            
1 69276U 26118K   26277.26689144 -.00000249  00000+0 -36198-5 0  9990
2 69276  51.9039 278.3308 0000536  43.2276 316.8728 14.79930802 20312
KUIPER-00592            
1 69277U 26118L   26277.25000306  .00001561  00000+0  23377-3 0  9996
2 69277  51.9036 278.2848 0000591  44.1598 315.9411 14.79930847 20314
KUIPER-00593            
1 69278U 26118M   26277.26887969  .00001697  00000+0  25147-3 0  9993
2 69278  51.8994 260.8125 0000415 245.4733 114.6186 14.79938959 20612
KUIPER-00594            
1 69279U 26118N   26277.26349747  .00000452  00000+0  88250-4 0  9994
2 69279  51.9026 265.8497 0000868  79.4865 280.6196 14.79930864 20487
KUIPER-00595            
1 69280U 26118P   26277.23510839  .00001675  00000+0  24864-3 0  9993
2 69280  51.8987 260.9162 0000546 281.4466  78.6434 14.79940451 20588
KUIPER-00596            
1 69281U 26118Q   26277.29526136  .00001613  00000+0  24052-3 0  9998
2 69281  51.9020 283.1961 0000589  46.9435 313.1577 14.79937674 20240
KUIPER-00597            
1 69282U 26118R   26277.23242183  .00001605  00000+0  23954-3 0  9991
2 69282  51.8972 263.4673 0001667  74.5342 285.5804 14.79937044 20515
KUIPER-00599            
1 69283U 26118S   26277.25535188  .00002560  00000+0  36451-3 0  9991
2 69283  51.9022 273.2839 0000971  14.4174 345.6816 14.79948776 20389
KUIPER-00600            
1 69284U 26118T   26277.26617558  .00001916  00000+0  28031-3 0  9994
2 69284  51.8990 263.2318 0001697  70.6514 289.4632 14.79939534 20521
KUIPER-00601            
1 69285U 26118U   26277.28374504  .00000141  00000+0  47555-4 0  9990
2 69285  51.9015 278.2446 0000718  62.2593 297.8442 14.79918374 20314
KUIPER-00602            
1 69286U 26118V   26277.29184687  .00001742  00000+0  25743-3 0  9995
2 69286  51.9032 270.6230 0000810 350.9721   9.1227 14.79934692 20422
KUIPER-00603            
1 69287U 26118W   26277.30603892  .00001598  00000+0  23853-3 0  9991
2 69287  51.9044 273.1536 0000715  57.8946 302.2086 14.79939118 20382
KUIPER-00605            
1 69288U 26118X   26277.29795888  .00001577  00000+0  23585-3 0  9996
2 69288  51.8990 280.6604 0000602  42.0371 318.0637 14.79937223 20285
KUIPER-00606            
1 69289U 26118Y   26277.28916943  .00000295  00000+0  67711-4 0  9999
2 69289  51.9028 273.2217 0000629  44.7877 315.3136 14.79931251 20386
KUIPER-00607            
1 69290U 26118Z   26277.01296090  .00001643  00000+0  24455-3 0  9991
2 69290  51.9004 264.4478 0001793  44.3082 315.8024 14.79931359 20481
KUIPER-00608            
1 69291U 26118AA  26277.22971441  .00001587  00000+0  23719-3 0  9994
2 69291  51.9000 265.8480 0000773  66.3707 293.7336 14.79932246 20487
KUIPER-00610            
1 69292U 26118AB  26277.25810368  .00000228  00000+0  58951-4 0  9996
2 69292  51.9017 270.8580 0000633  55.4247 304.6775 14.79929263 20413
KUIPER-00613            
1 69293U 26118AC  26277.31484709  .00001598  00000+0  23865-3 0  9996
2 69293  51.8996 280.6041 0000610  41.2180 318.8828 14.79928721 20283
KUIPER-00618            
1 69294U 26118AD  26277.22702291  .00001631  00000+0  24290-3 0  9997
2 69294  51.9031 268.5039 0000995 273.8214  86.2635 14.79937182 20445
KUIPER-00620            
1 69295U 26118AE  26277.24121535  .00001574  00000+0  23535-3 0  9993
2 69295  51.9038 270.9467 0000711  36.4276 323.6735 14.79938891 20416
KUIPER-00423            
1 69592U 26140A   26277.18641730  .00001726  00000+0  25541-3 0  9993
2 69592  51.9006 243.6704 0000844  83.9869 276.1190 14.79925795 17832
KUIPER-00428            
1 69593U 26140B   26277.25002315 -.01310475  00000+0 -42699-1 0  9990
2 69593  51.8806 231.5729 0004666 334.2043 219.8804 15.34138525  2519
KUIPER-00481            
1 69594U 26140C   26277.23172519  .00001660  00000+0  24657-3 0  9999
2 69594  51.9008 248.4785 0001545  15.0904 345.0104 14.79954468 17776
KUIPER-00490            
1 69595U 26140D   26277.20944212  .00001698  00000+0  25166-3 0  9991
2 69595  51.9031 253.5297 0000824  57.5618 302.5424 14.79934214 17703
KUIPER-00493            
1 69596U 26140E   26277.23781764  .00001772  00000+0  26144-3 0  9996
2 69596  51.9034 258.4557 0001317   7.2393 352.8589 14.79928220 17632
KUIPER-00496            
1 69597U 26140F   26277.19624836 -.00002700  00000+0 -32530-3 0  9998
2 69597  51.9024 242.3888 0001066  80.5527 279.5555 14.79932907 17854
KUIPER-00513            
1 69598U 26140G   26277.24321122  .00000961  00000+0  15503-3 0  9993
2 69598  51.9005 253.4214 0000737  67.7066 292.3975 14.79927592 17706
KUIPER-00516            
1 69599U 26140H   26277.25002315  .00006058  00000+0  89047-3 0  9992
2 69599  51.8949 237.8663 0001781 163.5353 242.9789 14.76550771  5834
KUIPER-00517            
1 69600U 26140J   26277.25002315 -.00010275  00000+0 -81804-3 0  9996
2 69600  51.8936 234.1167 0009388 218.3600 211.3023 14.98974458  5621
KUIPER-00520            
1 69601U 26140K   26277.25528739  .00001360  00000+0  22333-3 0  9995
2 69601  51.9015 255.6698 0000652 312.3322  47.7583 14.76619775 17673
KUIPER-00522            
1 69602U 26140L   26277.16957257  .00001718  00000+0  25426-3 0  9990
2 69602  51.9029 243.7530 0001273  89.4057 270.7052 14.79935133 17838
KUIPER-00528            
1 69603U 26140M   26277.22360436  .00005327  00000+0  72664-3 0  9991
2 69603  51.9036 256.0297 0000616  42.0825 318.0185 14.79966047 17664
KUIPER-00532            
1 69604U 26140N   26276.64890840 -.00000939  00000+0 -94128-4 0  9990
2 69604  51.9017 243.5614 0000693  68.4673 291.6363 14.79930146 17795
KUIPER-00533            
1 69605U 26140P   26277.21214676  .00001663  00000+0  24713-3 0  9997
2 69605  51.9012 251.0697 0000794  53.3314 306.7722 14.79927098 17736
KUIPER-00534            
1 69606U 26140Q   26277.17309865  .00008611  00000+0  31817-3 0  9991
2 69606  51.8785 233.6848 0012340 181.8624 178.2315 15.28464874 17977
KUIPER-00537            
1 69607U 26140R   26277.20404338  .00000151  00000+0  48802-4 0  9991
2 69607  51.9008 258.5195 0001403  37.3356 322.7704 14.79930908 17635
KUIPER-00538            
1 69608U 26140S   26277.24050071  .00001866  00000+0  27366-3 0  9992
2 69608  51.9024 255.8835 0001039  48.2473 311.8578 14.79940787 17679
KUIPER-00540            
1 69609U 26140T   26276.60960063  .00015754  00000+0  41691-3 0  9991
2 69609  51.8806 234.4645 0004745 324.1255  35.9413 15.38543494 17919
KUIPER-00541            
1 69610U 26140U   26277.25002315 -.00034791  00000+0 -43926-2 0  9998
2 69610  51.8985 235.7242 0002689  80.5812 128.0117 14.81474574  5745
KUIPER-00542            
1 69611U 26140V   26277.25002315 -.00006451  00000+0 -54380-3 0  9998
2 69611  51.8943 234.0420 0006556 191.4139 147.9525 14.96195406  3966
KUIPER-00543            
1 69612U 26140W   26276.61516137  .00000919  00000+0  14953-3 0  9993
2 69612  51.9036 243.7052 0000361  83.1539 276.9465 14.79938306 17784
KUIPER-00544            
1 69613U 26140X   26277.25002315 -.00029090  00000+0 -32266-2 0  9992
2 69613  51.8977 236.0272 0007445 221.4304   5.5173 14.86690803  4259
KUIPER-00546            
1 69614U 26140Y   26277.22013645  .00001773  00000+0  26173-3 0  9995
2 69614  51.9014 243.5277 0000480  87.5592 272.5425 14.79906719 17846
KUIPER-00547            
1 69615U 26140Z   26277.25002315 -.00048661  00000+0 -31737-2 0  9991
2 69615  51.8906 232.3624 0012081 199.5405 280.9051 15.07408797  5643
KUIPER-00549            
1 69616U 26140AA  26277.25002315  .00012489  00000+0  16653-2 0  9999
2 69616  51.9005 238.4069 0001154  91.2382 218.8784 14.79905443  5467
KUIPER-00550            
1 69617U 26140AB  26277.25002315 -.00048435  00000+0 -62142-2 0  9996
2 69617  51.8996 242.1076 0000814 230.8303 233.1111 14.80969735  4067
KUIPER-00551            
1 69618U 26140AC  26277.25002315 -.01970325  00000+0 -90978-1 0  9997
2 69618  51.8797 231.0041 0013494 195.8362 238.4042 15.22989247  5822
KUIPER-00554            
1 69619U 26140AD  26277.25002315 -.01882783  00000+0 -97086-1 0  9995
2 69619  51.8866 231.4988 0008507 213.6340 337.9501 15.19181750  4551
KUIPER-00555            
1 69620U 26140AE  26277.25002315 -.00553437  00000+0 -21827-1 0  9997
2 69620  51.8843 231.2788 0009657 199.3853 165.3353 15.27418369  5647
KUIPER-00556            
1 69621U 26140AF  26276.64352915  .00001823  00000+0  26814-3 0  9992
2 69621  51.8975 248.5723 0000665  92.3557 267.7481 14.79921725 17729
KUIPER-00557            
1 69622U 26140AG  26277.25002315 -.00038848  00000+0 -25061-2 0  9998
2 69622  51.8873 232.3720 0009984 220.6469 346.2000 15.07725886  5512
KUIPER-00560            
1 69623U 26140AH  26277.13688124  .00016022  00000+0  44075-3 0  9999
2 69623  51.8784 231.9644 0007486 239.2165 120.8085 15.37314602 17995
KUIPER-00561            
1 69624U 26140AJ  26276.63813443  .00001107  00000+0  17421-3 0  9991
2 69624  51.9019 253.5760 0000700  71.4349 288.6690 14.79928528 17650
KUIPER-00564            
1 69625U 26140AK  26277.21484246  .00001785  00000+0  26309-3 0  9999
2 69625  51.8981 248.5287 0000701  94.8517 265.2525 14.79935225 17776
KUIPER-00567            
1 69626U 26140AL  26277.21751998  .00001754  00000+0  25898-3 0  9999
2 69626  51.8970 246.0349 0000843 180.0394 180.0569 14.79936468 17801
KUIPER-00573            
1 69627U 26140AM  26277.18107740  .00000016  00000+0  31068-4 0  9993
2 69627  51.8986 248.7112 0000885  71.9380 288.1678 14.79931611 17766
KUIPER-00258            
1 69763U 26151A   26277.25002315 -.00019015  00000+0 -24700-2 0  9990
2 69763  51.8961 158.3829 0000844  71.4117 139.4289 14.79971456  5101
KUIPER-00526            
1 69764U 26151B   26277.11003126  .00001769  00000+0  26105-3 0  9994
2 69764  51.8992 174.0815 0001051  93.3829 266.7254 14.79924125 14118
KUIPER-00558            
1 69765U 26151C   26277.07622624  .00001811  00000+0  26658-3 0  9991
2 69765  51.8979 174.1494 0000772  97.8842 262.2208 14.79926201 14118
KUIPER-00569            
1 69766U 26151D   26277.09584063  .00000781  00000+0  13150-3 0  9996
2 69766  51.9009 171.5623 0001144  96.4232 263.6860 14.79929440 14152
KUIPER-00589            
1 69767U 26151E   26277.10413339  .00001034  00000+0  17753-3 0  9991
2 69767  51.9005 174.9173 0003215  99.7580 260.3744 14.76550349 14104
KUIPER-00598            
1 69768U 26151F   26277.05059077  .00001608  00000+0  23989-3 0  9996
2 69768  51.9004 166.7768 0000777  99.4113 260.6937 14.79932630 14211
KUIPER-00604            
1 69769U 26151G   26277.09854066  .00001030  00000+0  16412-3 0  9994
2 69769  51.9028 169.0644 0000811  92.5603 267.5452 14.79928459 14182
KUIPER-00609            
1 69770U 26151H   26277.13499242  .00001519  00000+0  22836-3 0  9991
2 69770  51.9013 166.3995 0001294  67.5649 292.5450 14.79917737 14223
KUIPER-00611            
1 69771U 26151J   26277.06477122  .00000273  00000+0  64805-4 0  9996
2 69771  51.8978 169.1924 0001115  91.7142 268.3948 14.79928907 14184
KUIPER-00612            
1 69772U 26151K   26277.11272225  .00001707  00000+0  25286-3 0  9992
2 69772  51.9011 171.5056 0001135 125.7439 234.3629 14.79933795 14153
KUIPER-00614            
1 69773U 26151L   26276.98035333  .00001572  00000+0  23518-3 0  9990
2 69773  51.8986 169.6337 0000985  95.7976 264.3099 14.79929937 14166
KUIPER-00615            
1 69774U 26151M   26277.12690331  .00001734  00000+0  25644-3 0  9995
2 69774  51.9016 173.8746 0000799 116.1980 243.9065 14.79930168 14129
KUIPER-00616            
1 69775U 26151N   26277.04180890  .00001592  00000+0  23740-3 0  9998
2 69775  51.9006 159.3194 0001401 104.7551 255.3567 14.80014042 14314
KUIPER-00617            
1 69776U 26151P   26277.10393326  .00001646  00000+0  24490-3 0  9999
2 69776  51.9005 164.0410 0000731  95.4164 264.6882 14.79933942 14252
KUIPER-00619            
1 69777U 26151Q   26274.92061067  .00011029  00000+0  15902-2 0  9994
2 69777  51.9014 176.2197 0001242 119.8436 240.2649 14.76680312 13898
KUIPER-00621            
1 69778U 26151R   26277.08165569  .00000678  00000+0  11790-3 0  9997
2 69778  51.8999 169.1359 0000825 107.3395 252.7658 14.79929030 14180
KUIPER-00622            
1 69779U 26151S   26277.09324650  .00001096  00000+0  18641-3 0  9994
2 69779  51.9007 173.3751 0001785  98.0975 262.0188 14.76519251 14124
KUIPER-00623            
1 69780U 26151T   26277.14649252  .00001690  00000+0  25065-3 0  9998
2 69780  51.8982 171.3576 0001103 113.9988 246.1090 14.79928349 14158
KUIPER-00626            
1 69781U 26151U   26277.10123131  .00001720  00000+0  25452-3 0  9992
2 69781  51.8984 166.5252 0000901 105.9560 254.1502 14.79935013 14221
KUIPER-00627            
1 69782U 26151V   26277.07286827  .00001631  00000+0  24298-3 0  9999
2 69782  51.9011 161.6819 0001083 116.9892 243.1181 14.79929864 14285
KUIPER-00629            
1 69783U 26151W   26277.15796712  .00001882  00000+0  27578-3 0  9990
2 69783  51.9016 176.2407 0000892 100.4798 259.6265 14.79930696 14095
KUIPER-00631            
1 69784U 26151X   26277.10733011  .00000775  00000+0  13070-3 0  9991
2 69784  51.9020 176.5223 0000842  97.6499 262.4559 14.79927720 14081
KUIPER-00634            
1 69785U 26151Y   26277.06207939 -.00000293  00000+0 -94815-5 0  9997
2 69785  51.9009 171.7274 0000968 100.9433 259.1639 14.79927480 14149
KUIPER-00639            
1 69786U 26151Z   26277.10658462 -.00001585  00000+0 -17854-3 0  9995
2 69786  51.9035 161.5190 0000157  84.8674 275.2306 14.80022793 14291
KUIPER-00641            
1 69787U 26151AA  26277.08704733  .00001616  00000+0  24099-3 0  9998
2 69787  51.9004 164.1224 0001766 146.8732 213.2342 14.79929818 14256
KUIPER-00644            
1 69788U 26151AB  26277.25002315 -.00076557  00000+0 -99690-2 0  9991
2 69788  51.8972 155.9031 0002818   0.6361  13.6629 14.80591069  5152
KUIPER-00646            
1 69789U 26151AC  26277.05329408  .00000197  00000+0  54834-4 0  9993
2 69789  51.8990 164.3531 0000782  97.9525 262.1526 14.79929086 14240
KUIPER-00647            
1 69790U 26151AD  26277.06210236  .00000940  00000+0  16412-3 0  9999
2 69790  51.9005 164.0885 0002497   7.7590 352.3409 14.76546279 14254
KUIPER-00662            
1 69791U 26151AE  26277.07355016  .00001340  00000+0  20470-3 0  9991
2 69791  51.9020 176.6684 0000736 117.8556 242.2481 14.79936881 14079
