GLOBALSTAR M069         
1 31573U 07020C   26252.33077708 -.00000067  00000+0  23494-3 0  9998
2 31573  52.0058  13.9642 0001283 338.0396  49.2845 12.23474088889109
GLOBALSTAR M072         
1 31574U 07020D   26251.36295368 -.00000075  00000+0  12124-3 0  9992
2 31574  51.9906 238.8092 0001317 102.2291  44.9046 11.91660109884891
GLOBALSTAR M066         
1 32265U 07048C   26251.82466071 -.00000132  00000+0 -31521-3 0  9999
2 32265  51.9583 177.8128 0004273 215.6300 177.1436 12.30390949870529
GLOBALSTAR M079         
1 37188U 10054A   26251.29846735 -.00000106  00000+0 -14825-4 0  9999
2 37188  52.0024 215.6669 0000357 107.5340  39.7225 12.62267356733047
GLOBALSTAR M074         
1 37189U 10054B   26252.16683436 -.00000122  00000+0 -10130-3 0  9996
2 37189  52.0001 212.2769 0000317  52.1606 322.1269 12.62263017733769
GLOBALSTAR M076         
1 37190U 10054C   26252.19354328 -.00000107  00000+0 -15589-4 0  9993
2 37190  52.0018 212.4065 0000138  91.6008 284.1285 12.62263463733484
GLOBALSTAR M077         
1 37191U 10054D   26252.18222022 -.00000059  00000+0  35162-3 0  9991
2 37191  51.9987 326.1063 0002444 335.0070  38.7350 11.67548110730959
GLOBALSTAR M075         
1 37192U 10054E   26252.28512674 -.00000094  00000+0  52114-4 0  9994
2 37192  51.9930 254.1350 0000388  78.4187 294.7497 12.62260533732560
GLOBALSTAR M073         
1 37193U 10054F   26252.15643912 -.00000111  00000+0 -43087-4 0  9991
2 37193  52.0053 168.6901 0000444  88.7526  57.9944 12.62267888734539
GLOBALSTAR M083         
1 37739U 11033A   26252.01003295 -.00000087  00000+0  92512-4 0  9992
2 37739  51.9844 117.2514 0000626  98.6645  42.3027 12.62258858703538
GLOBALSTAR M088         
1 37740U 11033B   26251.57438970 -.00000110  00000+0 -34823-4 0  9995
2 37740  52.0235  25.2033 0000703  95.1315 345.6718 12.62270155699020
GLOBALSTAR M091         
1 37741U 11033C   26252.28987280 -.00000099  00000+0  27858-4 0  9993
2 37741  52.0022 345.8714 0000738 110.4129 283.0147 12.62264673699900
GLOBALSTAR M085         
1 37742U 11033D   26252.11649638 -.00000078  00000+0  14636-3 0  9994
2 37742  52.0130 297.7667 0000572 118.0124 267.0728 12.62265125700394
GLOBALSTAR M081         
1 37743U 11033E   26251.19561994 -.00000077  00000+0  15083-3 0  9996
2 37743  51.9964 302.9104 0000400 124.9458 273.7447 12.62266071700426
GLOBALSTAR M089         
1 37744U 11033F   26252.02586742 -.00000081  00000+0  12604-3 0  9999
2 37744  51.9912 254.5239 0000247  25.4013   8.9994 12.62263467701378
GLOBALSTAR M084         
1 38040U 11080A   26251.91531250 -.00000096  00000+0  44642-4 0  9996
2 38040  51.9993 122.3842 0000460  64.9457 126.9050 12.62264000679334
GLOBALSTAR M080         
1 38041U 11080B   26252.11891828 -.00000085  00000+0  10596-3 0  9998
2 38041  52.0048 123.5153 0001140  80.2210  85.2370 12.62258629679488
GLOBALSTAR M082         
1 38042U 11080C   26252.29358750 -.00000090  00000+0  78472-4 0  9994
2 38042  52.0069  78.4883 0000979  95.9405  75.6019 12.62262775680211
GLOBALSTAR M092         
1 38043U 11080D   26252.18639546 -.00000107  00000+0 -18835-4 0  9995
2 38043  52.0077 169.2176 0000574  63.2669 100.2669 12.62268421678651
GLOBALSTAR M090         
1 38044U 11080E   26251.92283384 -.00000089  00000+0  81373-4 0  9997
2 38044  52.0117  73.5991 0000919 103.2069  61.6681 12.62268236680281
GLOBALSTAR M086         
1 38045U 11080F   26251.94276398 -.00000087  00000+0  92677-4 0  9994
2 38045  51.9889  73.3294 0000659 195.6153 327.6931 12.62289019680230
GLOBALSTAR M097         
1 39072U 13005A   26251.93943292 -.00000107  00000+0 -19754-4 0  9996
2 39072  52.0073 348.3843 0000696 115.1513 244.9426 12.62271222627486
GLOBALSTAR M093         
1 39073U 13005B   26252.22962393 -.00000092  00000+0  67331-4 0  9999
2 39073  52.0129 340.8832 0000755 131.3358 228.7574 12.62266969627472
GLOBALSTAR M094         
1 39074U 13005C   26252.30872487 -.00000094  00000+0  53897-4 0  9997
2 39074  51.9939 254.6761 0000364 119.2614 240.8289 12.62264796629093
GLOBALSTAR M096         
1 39075U 13005D   26252.16365557 -.00000069  00000+0  19448-3 0  9992
2 39075  52.0081 303.9848 0000594 115.5389 244.5539 12.62264384627990
GLOBALSTAR M078         
1 39076U 13005E   26252.29553230 -.00000104  00000+0 -20395-5 0  9990
2 39076  51.9892  27.4764 0001599  94.4492 265.6557 12.62260284626639
GLOBALSTAR M095         
1 39077U 13005F   26252.08454168 -.00000117  00000+0 -73728-4 0  9999
2 39077  52.0098  25.8400 0001112 109.4512 250.6475 12.62264449626461
GLOBALSTAR M087         
1 52888U 22064A   26252.09766297 -.00000105  00000+0 -52645-5 0  9992
2 52888  51.9989 166.9930 0000690  87.2394 272.8552 12.62262758201731
