KUIPER-00008            
1 63724U 25088A   26263.42454966 -.00000302  00000+0 -10589-4 0  9997
2 63724  51.9017 306.8915 0000395  74.1216 285.9790 14.79926345 76886
KUIPER-00009            
1 63725U 25088B   26261.21057610  .00004298  00000+0  29392-3 0  9995
2 63725  51.9028 324.4667 0000266  85.3135 274.7870 15.08053709 76445
KUIPER-00010            
1 63726U 25088C   26263.39619410 -.00000186  00000+0  46551-5 0  9990
2 63726  51.9015 302.1280 0000454  70.2755 289.8256 14.79927670 76568
KUIPER-00011            
1 63727U 25088D   26263.42186806  .00000586  00000+0  10589-3 0  9996
2 63727  51.9016 309.5568 0000393  57.8288 302.2713 14.79928302 76598
KUIPER-00012            
1 63728U 25088E   26263.26920663  .00000436  00000+0  86184-4 0  9995
2 63728  51.9021 295.1721 0000382  72.8646 287.2358 14.79926063 76734
KUIPER-00013            
1 63729U 25088F   26263.47051992 -.00000025  00000+0  25708-4 0  9999
2 63729  51.9031 326.8030 0000376  77.8047 282.2957 14.79927645 76416
KUIPER-00014            
1 63730U 25088G   26263.43669381 -.00002641  00000+0 -31746-3 0  9999
2 63730  51.9063 326.8959 0001359  95.0940 265.0178 14.79933284 76228
KUIPER-00015            
1 63731U 25088H   26263.45971674  .00000600  00000+0  10763-3 0  9990
2 63731  51.9016 336.8381 0000135  58.9700 301.1275 14.79934825 76547
KUIPER-00016            
1 63732U 25088J   26263.43404990  .00000192  00000+0  54211-4 0  9994
2 63732  51.9022 329.4117 0000319  88.5910 271.5089 14.79929843 76183
KUIPER-00018            
1 63733U 25088K   26263.41107854 -.00000059  00000+0  21229-4 0  9998
2 63733  51.9038 319.5608 0000362  43.4617 316.6374 14.79927915 76320
KUIPER-00019            
1 63734U 25088L   26262.89750753  .00000335  00000+0  72966-4 0  9992
2 63734  51.9022 320.5758 0000050 350.5838   9.5123 14.79932584 76264
KUIPER-00020            
1 63735U 25088M   26263.47589964 -.00000014  00000+0  27220-4 0  9990
2 63735  51.9034 321.7691 0000391  75.0680 285.0326 14.79932156 76507
KUIPER-00021            
1 63736U 25088N   26262.69931046 -.00000306  00000+0 -11168-4 0  9995
2 63736  51.9013 325.1515 0000387  64.8736 295.2267 14.79927339 76224
KUIPER-00023            
1 63737U 25088P   26263.47320062  .00000733  00000+0  12515-3 0  9991
2 63737  51.9025 324.2202 0000385  66.7973 293.3030 14.79930586 76600
KUIPER-00024            
1 63738U 25088Q   26263.41917765 -.00000196  00000+0  32371-5 0  9996
2 63738  51.9041 312.0736 0000470  77.7474 282.3541 14.79926888 76895
KUIPER-00025            
1 63739U 25088R   26263.37731563  .00000576  00000+0  10456-3 0  9991
2 63739  51.9059 319.7401 0000528  63.4656 296.6361 14.79924308 76642
KUIPER-00027            
1 63740U 25088S   26263.14634931  .00000701  00000+0  12099-3 0  9994
2 63740  51.9028 315.7185 0000362  75.5269 284.5733 14.79926351 76419
KUIPER-00028            
1 63741U 25088T   26263.45292503 -.00000376  00000+0 -20392-4 0  9990
2 63741  51.9016 311.8044 0000258  64.2805 295.8184 14.79925412 76909
KUIPER-00029            
1 63742U 25088U   26263.56398832  .00000706  00000+0  12155-3 0  9997
2 63742  51.9029 310.0097 0000328   1.9598 358.1366 14.79924234 76465
KUIPER-00030            
1 63743U 25088V   26263.46780906  .00000616  00000+0  10978-3 0  9995
2 63743  51.9038 329.2567 0000299  72.6011 287.4984 14.79931756 76470
KUIPER-00031            
1 63744U 25088W   26263.45023300  .00000681  00000+0  11835-3 0  9998
2 63744  51.9032 314.3574 0000232  37.3250 322.7728 14.79929381 76399
KUIPER-00032            
1 63745U 25088X   26262.94897430  .00010209  00000+0  23996-3 0  9993
2 63745  51.8655 160.8965 0005303  93.2279 266.9317 15.42601896 79489
KUIPER-00033            
1 63746U 25088Y   26263.48539846  .00000100  00000+0  42085-4 0  9998
2 63746  51.9030 344.1993 0000220  67.8175 292.2811 14.79928845 76462
KUIPER-00034            
1 63747U 25088Z   26262.85049687 -.00002816  00000+0 -34058-3 0  9996
2 63747  51.9032 309.5442 0000573  91.6405 268.4623 14.79922527 76570
KUIPER-00035            
1 63748U 25088AA  26263.43131683 -.00020529  00000+0 -26670-2 0  9991
2 63748  51.9020 331.9390 0000542 158.3613 201.7372 14.80013158 76368
KUIPER-00037            
1 63749U 25088AB  26263.49179841  .00000621  00000+0  11045-3 0  9996
2 63749  51.9028 330.5341 0000308  79.1777 280.9220 14.79934995 77179
KUIPER-00038            
1 63750U 25088AC  26263.14365577  .00000710  00000+0  12209-3 0  9995
2 63750  51.9035 318.2478 0000422  89.3555 270.7456 14.79927376 76315
KUIPER-00039            
1 64500U 25134A   26263.25127825  .00001938  00000+0  28308-3 0  9995
2 64500  51.9017  92.7675 0000830 112.8323 247.2727 14.79936564 68882
KUIPER-00040            
1 64501U 25134B   26263.00414417  .00001920  00000+0  28076-3 0  9998
2 64501  51.8982 103.9185 0001106 112.4690 247.6390 14.79931470 68706
KUIPER-00041            
1 64502U 25134C   26263.30531176  .00001852  00000+0  27178-3 0  9990
2 64502  51.8990 104.9789 0000864 108.8783 251.2273 14.79940598 68712
KUIPER-00042            
1 64503U 25134D   26262.93929551  .00001844  00000+0  27087-3 0  9997
2 64503  51.8989 101.5748 0000813 112.5344 247.5705 14.79935848 68730
KUIPER-00043            
1 64504U 25134E   26263.21750760  .00000809  00000+0  13511-3 0  9991
2 64504  51.8986  92.8612 0001199 121.4130 238.6949 14.79926910 68887
KUIPER-00044            
1 64505U 25134F   26262.05601992  .00000466  00000+0  90108-4 0  9992
2 64505  51.8989 110.4864 0000859 109.6285 250.4771 14.79929929 68538
KUIPER-00046            
1 64506U 25134G   26263.17291356  .00004713  00000+0  64634-3 0  9999
2 64506  51.8967 103.0123 0001393 125.5132 234.5961 14.79960042 68730
KUIPER-00047            
1 64507U 25134H   26263.16885203  .00001859  00000+0  27275-3 0  9997
2 64507  51.8981  75.5635 0000727 125.9720 234.1310 14.79939878 69115
KUIPER-00048            
1 64508U 25134J   26263.47273455  .00001827  00000+0  26860-3 0  9996
2 64508  51.8995  74.2308 0000742 114.8476 245.2564 14.79929887 69164
KUIPER-00049            
1 64509U 25134K   26263.22287733  .00006126  00000+0  83196-3 0  9996
2 64509  51.9029  87.8048 0000808  93.6777 266.4277 14.79927277 68959
KUIPER-00050            
1 64510U 25134L   26262.97165429 -.00000269  00000+0 -62377-5 0  9990
2 64510  51.9010  71.4378 0001009 156.3371 203.7638 14.79932449 69163
KUIPER-00051            
1 64511U 25134M   26262.92879416  .00001843  00000+0  27070-3 0  9990
2 64511  51.9003  87.8079 0000849 121.6185 238.4860 14.79937058 68920
KUIPER-00053            
1 64513U 25134P   26263.20591625  .00001313  00000+0  19328-3 0  9996
2 64513  51.9000  80.9872 0002572 120.3360 239.7857 14.81716426 69041
KUIPER-00054            
1 64514U 25134Q   26262.99732440  .00001736  00000+0  25662-3 0  9991
2 64514  51.8978  78.8084 0000876 119.3840 240.7210 14.79940014 69057
KUIPER-00055            
1 64515U 25134R   26262.94721743  .00002124  00000+0  30730-3 0  9995
2 64515  51.9027  31.6813 0000337 121.4322 238.6673 14.79959884 69719
KUIPER-00056            
1 64516U 25134S   26263.02571769  .00001830  00000+0  26897-3 0  9999
2 64516  51.9030  83.8009 0000946 112.9127 247.1936 14.79929817 68993
KUIPER-00057            
1 64517U 25134T   26263.22020368  .00001808  00000+0  26616-3 0  9990
2 64517  51.8994  90.3548 0000659 110.0066 250.0967 14.79932643 68915
KUIPER-00058            
1 64518U 25134U   26263.12429883  .00001925  00000+0  28137-3 0  9995
2 64518  51.9005  85.7583 0000773 115.9227 244.1815 14.79938710 68970
KUIPER-00059            
1 64519U 25134V   26263.19721798  .00001144  00000+0  17897-3 0  9997
2 64519  51.8981  80.4704 0000442 126.3703 233.7300 14.79934164 69050
KUIPER-00060            
1 64520U 25134W   26263.02841241  .00001887  00000+0  27640-3 0  9998
2 64520  51.9021  81.2969 0000717 112.7186 247.3852 14.79938303 69017
KUIPER-00061            
1 64521U 25134X   26263.25666653  .00001903  00000+0  27856-3 0  9994
2 64521  51.9008  87.7278 0000934 118.3820 241.7237 14.79935399 68943
KUIPER-00062            
1 64522U 25134Y   26263.05137980  .00001844  00000+0  27086-3 0  9998
2 64522  51.8957  91.0808 0000831 115.5079 244.5970 14.79934807 68896
KUIPER-00063            
1 64523U 25134Z   26263.24589268  .00001844  00000+0  27081-3 0  9995
2 64523  51.9016  97.8189 0000673 111.1483 248.9551 14.79934883 68814
KUIPER-00064            
1 64524U 25134AA  26263.24857228  .00001149  00000+0  17964-3 0  9997
2 64524  51.9012  95.2354 0000768 118.9920 241.1119 14.79938477 68855
KUIPER-00065            
1 64525U 25134AB  26263.24320519  .00001660  00000+0  24667-3 0  9992
2 64525  51.9032 100.4330 0000753 124.3113 235.7921 14.79935776 68769
KUIPER-00066            
1 64526U 25134AC  26263.07422839  .00002099  00000+0  30428-3 0  9991
2 64526  51.9024  38.4454 0000605 114.7107 245.3918 14.79933082 69638
KUIPER-00069            
1 64816U 25151A   26263.40263664  .00001208  00000+0  18748-3 0  9990
2 64816  51.9016 139.6320 0000943  94.9715 265.1355 14.79935800 65592
KUIPER-00070            
1 64817U 25151B   26262.26141806  .00001419  00000+0  21512-3 0  9994
2 64817  51.8966 169.5804 0001320  84.6814 275.4299 14.79925333 65086
KUIPER-00071            
1 64818U 25151C   26263.00694660  .00002061  00000+0  29923-3 0  9997
2 64818  51.8994 163.8295 0000761  99.5504 260.5544 14.79935030 64046
KUIPER-00072            
1 64819U 25151D   26263.06227797 -.00000093  00000+0  16805-4 0  9997
2 64819  51.8995 143.5066 0000690 123.0658 237.0371 14.79929395 64339
KUIPER-00073            
1 64820U 25151E   26263.44589243  .00000441  00000+0  86827-4 0  9995
2 64820  51.9013 161.8642 0000718  86.8126 273.2919 14.79930036 65293
KUIPER-00075            
1 64822U 25151G   26263.43542962  .00021115  00000+0  54980-3 0  9998
2 64822  51.8671 352.2924 0002279 241.6875 118.3882 15.38833139 66469
KUIPER-00076            
1 64823U 25151H   26263.38914974  .00001058  00000+0  16772-3 0  9990
2 64823  51.9005 152.1403 0001122  98.7228 261.3862 14.79934233 64242
KUIPER-00077            
1 64824U 25151J   26263.11364517  .00000665  00000+0  11621-3 0  9995
2 64824  51.9030 158.3807 0001139  70.3474 289.7611 14.79928711 64132
KUIPER-00078            
1 64825U 25151K   26263.42021036  .00002126  00000+0  30783-3 0  9990
2 64825  51.9004 154.4962 0001081  97.1420 262.9665 14.79934858 64217
KUIPER-00079            
1 64826U 25151L   26263.44858733 -.00000163  00000+0  76529-5 0  9995
2 64826  51.9046 159.3224 0001200  98.1458 261.9641 14.79931416 65349
KUIPER-00080            
1 64827U 25151M   26263.14469691  .00001861  00000+0  27302-3 0  9992
2 64827  51.8990 160.6800 0000610  70.4032 289.6997 14.79933178 64108
KUIPER-00082            
1 64828U 25151N   26263.39453865  .00001642  00000+0  24434-3 0  9996
2 64828  51.9011 147.1400 0000968  94.4378 265.6695 14.79933052 64318
KUIPER-00083            
1 64829U 25151P   26263.38645350  .00001609  00000+0  24007-3 0  9997
2 64829  51.9008 154.6574 0001226  84.8348 275.2755 14.79933663 65399
KUIPER-00084            
1 64830U 25151Q   26263.17304962  .00002147  00000+0  31042-3 0  9992
2 64830  51.9011 165.5858 0000809  98.8923 261.2131 14.79950253 64038
KUIPER-00085            
1 64831U 25151R   26262.95561145  .00001971  00000+0  28746-3 0  9997
2 64831  51.9037 149.1383 0000928  96.6572 263.4496 14.79932258 64242
KUIPER-00086            
1 64832U 25151S   26262.13445871  .00000895  00000+0  14643-3 0  9990
2 64832  51.9016 162.7029 0000979  94.3272 265.7803 14.79930805 63989
KUIPER-00087            
1 64833U 25151T   26263.03130543  .00010062  00000+0  13487-2 0  9999
2 64833  51.8996 141.1933 0001436  88.6895 271.4232 14.79876450 64354
KUIPER-00089            
1 64834U 25151U   26262.95828955  .00000592  00000+0  10664-3 0  9993
2 64834  51.9003 146.5404 0000829  99.8760 260.2296 14.79926728 64289
KUIPER-00090            
1 64835U 25151V   26263.03389431 -.00000140  00000+0  10600-4 0  9996
2 64835  51.8953 138.7002 0000774 115.2101 244.8942 14.79923247 64392
KUIPER-00091            
1 64836U 25151W   26262.96099323  .00001920  00000+0  28087-3 0  9999
2 64836  51.9019 144.0506 0000995  97.5091 262.5984 14.79930595 64310
KUIPER-00092            
1 64837U 25151X   26263.42561345  .00000757  00000+0  12835-3 0  9991
2 64837  51.8997 149.4834 0000769  99.0984 261.0065 14.79932070 65499
KUIPER-00093            
1 64838U 25151Y   26263.08526716  .00001125  00000+0  17661-3 0  9999
2 64838  51.8982 153.4558 0001123  92.6730 267.4361 14.79927243 64196
KUIPER-00094            
1 64839U 25151Z   26262.12087329  .00000099  00000+0  42026-4 0  9999
2 64839  51.9040 112.8397 0001184  93.4356 266.6742 14.79929233 64682
KUIPER-00081            
1 65132U 25171A   26263.47800636  .00002145  00000+0  31027-3 0  9993
2 65132  51.9012   6.7179 0000282  79.9254 280.1740 14.79934251 61885
KUIPER-00088            
1 65133U 25171B   26263.59419666  .00002244  00000+0  32326-3 0  9999
2 65133  51.9009  23.7038 0000484 104.0413 256.0603 14.79932160 61658
KUIPER-00095            
1 65134U 25171C   26263.48071895  .00002098  00000+0  30416-3 0  9991
2 65134  51.8999   4.2423 0000367 109.8185 250.2817 14.79930591 61915
KUIPER-00096            
1 65135U 25171D   26263.02827665  .00000057  00000+0  36519-4 0  9990
2 65135  51.8986  18.6988 0000280 130.4872 229.6114 14.79931835 61679
KUIPER-00097            
1 65136U 25171E   26263.63337681  .00002249  00000+0  32395-3 0  9994
2 65136  51.9022  18.6947 0000596  95.1461 264.9570 14.79926008 61717
KUIPER-00098            
1 65137U 25171F   26263.36053559  .00002089  00000+0  30295-3 0  9993
2 65137  51.9020  22.2597 0000586 111.2409 248.8616 14.79938714 60997
KUIPER-00099            
1 65138U 25171G   26263.47262686  .00001283  00000+0  19733-3 0  9998
2 65138  51.9052  11.7798 0000541 125.1763 234.9250 14.79930878 61801
KUIPER-00100            
1 65139U 25171H   26263.57661325  .00000421  00000+0  84197-4 0  9993
2 65139  51.9035   8.7855 0000445  96.4081 263.6932 14.79932685 61858
KUIPER-00102            
1 65140U 25171J   26263.57391319  .00001691  00000+0  25081-3 0  9994
2 65140  51.8987  11.2645 0000423 121.9725 238.1278 14.79929783 61817
KUIPER-00103            
1 65141U 25171K   26263.38619062 -.00001893  00000+0 -21930-3 0  9997
2 65141  51.9063  29.5982 0000779 250.4718 109.6160 14.79939274 61542
KUIPER-00104            
1 65142U 25171L   26263.46722964  .00000457  00000+0  88921-4 0  9990
2 65142  51.9049  16.7596 0000449 101.4836 258.6177 14.79932710 61738
KUIPER-00105            
1 65143U 25171M   26263.62796862  .00002132  00000+0  30863-3 0  9990
2 65143  51.9023  23.6401 0000525 109.8722 250.2297 14.79931786 61658
KUIPER-00106            
1 65144U 25171N   26263.47363017  .00002048  00000+0  29762-3 0  9998
2 65144  51.9029   3.0909 0000453  99.6219 260.4795 14.79931804 61935
KUIPER-00107            
1 65145U 25171P   26263.57928092  .00002142  00000+0  30994-3 0  9994
2 65145  51.9018   6.2965 0000758  76.9732 283.1315 14.79928446 61890
KUIPER-00108            
1 65146U 25171Q   26263.32947228  .00001976  00000+0  28812-3 0  9990
2 65146  51.9030  19.9495 0000441 104.0970 256.0041 14.79936161 61685
KUIPER-00109            
1 65147U 25171R   26262.69332949  .00002273  00000+0  32702-3 0  9992
2 65147  51.9034  17.7038 0000475 112.0715 248.0298 14.79931703 61651
KUIPER-00110            
1 65148U 25171S   26263.32139217  .00000563  00000+0  10288-3 0  9992
2 65148  51.9001  27.4706 0000541 115.6078 244.4940 14.79928771 61566
KUIPER-00111            
1 65149U 25171T   26263.34974507  .00000780  00000+0  13130-3 0  9994
2 65149  51.8989  32.2060 0000447 127.2224 232.8779 14.79932897 61504
KUIPER-00112            
1 65150U 25171U   26263.46992845  .00002071  00000+0  30058-3 0  9997
2 65150  51.9022  14.3135 0000443 119.0296 241.0711 14.79931896 61767
KUIPER-00114            
1 65151U 25171V   26263.34704871  .00002024  00000+0  29447-3 0  9993
2 65151  51.9001  34.8141 0000429 114.5883 245.5124 14.79923675 61465
KUIPER-00115            
1 65152U 25171W   26263.62527374  .00000815  00000+0  13593-3 0  9997
2 65152  51.9011  26.0938 0000591 109.9721 250.1305 14.79932194 61619
KUIPER-00116            
1 65153U 25171X   26263.04586898  .00001683  00000+0  24967-3 0  9991
2 65153  51.8988  33.6869 0000299  91.9777 268.1220 14.79940221 61452
KUIPER-00118            
1 65154U 25171Y   26263.38081347  .00002052  00000+0  29804-3 0  9994
2 65154  51.9004  34.6527 0000478 102.8030 257.2986 14.79937492 61474
KUIPER-00119            
1 65155U 25171Z   26263.59689461  .00002301  00000+0  33068-3 0  9993
2 65155  51.9030  21.3022 0000573  83.9183 276.1845 14.79934954 61677
KUIPER-00120            
1 65762U 25217A   26263.29347961  .00001613  00000+0  24061-3 0  9999
2 65762  51.9003 272.5100 0000519  63.2717 296.8299 14.79928704 53558
KUIPER-00132            
1 65763U 25217B   26263.58272091  .00017873  00000+0  45754-3 0  9990
2 65763  51.8516 135.0406 0004791 300.8996  59.1520 15.39465778 55489
KUIPER-00133            
1 65764U 25217C   26263.32725513  .00001702  00000+0  25216-3 0  9990
2 65764  51.9039 272.5005 0000525  61.5807 298.5209 14.79938947 53562
KUIPER-00139            
1 65765U 25217D   26262.68698850  .00001902  00000+0  27847-3 0  9996
2 65765  51.8981 242.7544 0000790  58.1125 301.9914 14.79924984 53922
KUIPER-00142            
1 65766U 25217E   26262.63706087  .00000155  00000+0  49325-4 0  9999
2 65766  51.9034 257.9429 0001264  33.1405 326.9637 14.79925260 53707
KUIPER-00145            
1 65767U 25217F   26263.57978084  .00001737  00000+0  25687-3 0  9993
2 65767  51.9004 256.2999 0000633  51.5973 308.5046 14.79925334 53805
KUIPER-00147            
1 65768U 25217G   26263.27311501  .00001700  00000+0  25187-3 0  9991
2 65768  51.8986 260.1272 0000721  27.8644 332.2357 14.79955656 53721
KUIPER-00148            
1 65769U 25217H   26263.56219067  .00001910  00000+0  27940-3 0  9990
2 65769  51.9046 241.4019 0000644  76.2930 283.8104 14.79937019 54018
KUIPER-00150            
1 65770U 25217J   26263.26241560  .00001609  00000+0  24005-3 0  9996
2 65770  51.9005 270.2243 0000590  84.7621 275.3408 14.79938241 53587
KUIPER-00151            
1 65771U 25217K   26262.32509165  .00000302  00000+0  68659-4 0  9994
2 65771  51.9011 266.8679 0000519  49.9349 310.1659 14.79931395 53556
KUIPER-00152            
1 65772U 25217L   26263.45281399  .00001906  00000+0  27889-3 0  9996
2 65772  51.9007 249.3609 0000720  44.1095 315.9925 14.79935442 53893
KUIPER-00153            
1 65773U 25217M   26263.32314902  .00001799  00000+0  26501-3 0  9990
2 65773  51.9022 245.0227 0000894  77.0108 283.0954 14.79925055 53944
KUIPER-00155            
1 65774U 25217N   26263.15021789 -.00001802  00000+0 -20748-3 0  9994
2 65774  51.9010 218.2508 0000915  62.2279 297.8777 14.79925504 54301
KUIPER-00156            
1 65775U 25217P   26263.49196999  .00001926  00000+0  28152-3 0  9990
2 65775  51.9037 244.2577 0000715  59.9362 300.1671 14.79940167 53964
KUIPER-00165            
1 65778U 25217S   26263.27860223 -.00001130  00000+0 -11919-3 0  9999
2 65778  51.8935 255.1307 0000659 114.9739 245.1292 14.79963848 53791
KUIPER-00166            
1 65779U 25217T   26263.46087262 -.00002928  00000+0 -35522-3 0  9997
2 65779  51.9033 241.8886 0000555 100.9787 259.1238 14.79939173 53990
KUIPER-00167            
1 65780U 25217U   26263.53789870  .00001724  00000+0  25513-3 0  9991
2 65780  51.8960 263.8671 0000732  51.8651 308.2377 14.79936087 53695
KUIPER-00168            
1 65781U 25217V   26263.55680349  .00000603  00000+0  10809-3 0  9992
2 65781  51.9003 246.4085 0000796  68.1617 291.9430 14.79931863 53947
KUIPER-00169            
1 65782U 25217W   26263.34882635  .00001756  00000+0  25922-3 0  9994
2 65782  51.9015 252.3417 0000640  81.1623 278.9412 14.79937174 53841
KUIPER-00170            
1 65783U 25217X   26263.27590008  .00001763  00000+0  26017-3 0  9991
2 65783  51.8993 257.6069 0000617  61.9124 298.1901 14.79933098 53762
KUIPER-00172            
1 65785U 25217Z   26263.46359464  .00000084  00000+0  40036-4 0  9996
2 65785  51.9008 239.3096 0001091  47.7726 312.3329 14.79928436 54030
KUIPER-00173            
1 65786U 25217AA  26263.38258772  .00001721  00000+0  25472-3 0  9993
2 65786  51.9002 252.1835 0000560  46.0599 314.0409 14.79936511 53848
KUIPER-00174            
1 65787U 25217AB  26263.45549920  .00000801  00000+0  13402-3 0  9998
2 65787  51.9013 246.9260 0000856  76.9425 283.1633 14.79936028 53929
KUIPER-00176            
1 65788U 25217AC  26263.50686148  .00000978  00000+0  15725-3 0  9994
2 65788  51.8991 261.6132 0000827  46.7823 313.3208 14.79926947 53722
KUIPER-00101            
1 65947U 25228A   26263.31615119 -.00010988  00000+0 -14135-2 0  9999
2 65947  51.9017 219.9026 0000398  58.8845 301.2157 14.79969621 52058
KUIPER-00113            
1 65948U 25228B   26263.49052630  .00002219  00000+0  32001-3 0  9991
2 65948  51.8970 214.1521 0001004  79.4516 280.6559 14.79930376 52143
KUIPER-00117            
1 65949U 25228C   26263.58912268  .00001384  00000+0  21052-3 0  9990
2 65949  51.8993 216.2161 0000636  47.8130 312.2886 14.79941831 52124
KUIPER-00121            
1 65950U 25228D   26263.29066845  .00000258  00000+0  62819-4 0  9997
2 65950  51.9009 212.5571 0000922  67.5641 292.5419 14.79927004 52154
KUIPER-00122            
1 65951U 25228E   26263.54998009  .00000505  00000+0  95311-4 0  9990
2 65951  51.8960 221.3788 0000898  71.5360 288.5700 14.79928482 52051
KUIPER-00123            
1 65952U 25228F   26263.58375405  .00000703  00000+0  12128-3 0  9998
2 65952  51.8996 221.2376 0000932  56.9496 303.1556 14.79933348 52059
KUIPER-00124            
1 65953U 25228G   26263.25420235  .00002057  00000+0  29872-3 0  9993
2 65953  51.8974 215.1856 0000995  59.4696 300.6364 14.79929738 52114
KUIPER-00125            
1 65954U 25228H   26263.20280102  .00002072  00000+0  30059-3 0  9992
2 65954  51.8982 200.4671 0000977  77.5889 282.5183 14.79957712 52313
KUIPER-00126            
1 65955U 25228J   26262.60728461  .00000784  00000+0  13187-3 0  9992
2 65955  51.8954 223.0804 0001076  82.2500 277.8584 14.79924207 51949
KUIPER-00127            
1 65956U 25228K   26263.27378079 -.00000869  00000+0 -85075-4 0  9995
2 65956  51.9015 212.6129 0000539  64.7127 295.3891 14.79926478 52158
KUIPER-00128            
1 65957U 25228L   26263.25691123  .00002140  00000+0  30963-3 0  9999
2 65957  51.8992 212.7550 0000821  77.5090 282.5964 14.79928524 52148
KUIPER-00129            
1 65958U 25228M   26263.43110384  .00006698  00000+0  90625-3 0  9998
2 65958  51.8993 206.9616 0001141 132.3862 227.7197 14.79955610 52247
KUIPER-00130            
1 65959U 25228N   26263.32714575  .00000622  00000+0  11055-3 0  9990
2 65959  51.9022 209.9710 0000902  77.7809 282.3254 14.79929707 42481
KUIPER-00134            
1 65960U 25228P   26263.27059951  .00018908  00000+0  50784-3 0  9994
2 65960  51.8696  95.7499 0003952 270.0090  90.0444 15.37947419 53776
KUIPER-00135            
1 65961U 25228Q   26263.22584819  .00002378  00000+0  34084-3 0  9995
2 65961  51.9010 210.4690 0000760  81.6694 278.4355 14.79929147 52176
KUIPER-00136            
1 65962U 25228R   26263.26216810  .00001153  00000+0  18005-3 0  9998
2 65962  51.9008 207.7519 0000710  60.7839 299.3194 14.79966274 52217
KUIPER-00137            
1 65963U 25228S   26263.12994775  .00000828  00000+0  13764-3 0  9992
2 65963  51.9039 205.8509 0001053  59.9747 300.1320 14.79930885 52232
KUIPER-00138            
1 65964U 25228T   26263.09886356 -.00000397  00000+0 -23009-4 0  9991
2 65964  51.8986 203.3836 0000903  74.2233 285.8829 14.79927138 52265
KUIPER-00140            
1 65965U 25228U   26263.56888509  .00002116  00000+0  30652-3 0  9996
2 65965  51.8995 203.8996 0001075  75.9376 284.1706 14.79933023 52294
KUIPER-00141            
1 65966U 25228V   26263.43921986 -.00001648  00000+0 -18724-3 0  9997
2 65966  51.9008 199.5515 0000840  91.5583 268.5476 14.79927445 52349
KUIPER-00146            
1 65967U 25228W   26263.26770368 -.00000611  00000+0 -51124-4 0  9996
2 65967  51.9030 202.8226 0001092  68.3393 291.7685 14.79925132 52287
KUIPER-00149            
1 65968U 25228X   26263.23931532  .00002011  00000+0  29272-3 0  9998
2 65968  51.8995 197.8200 0000917  73.7879 286.3184 14.79936390 52356
KUIPER-00154            
1 65969U 25228Y   26263.54590708  .00001945  00000+0  28413-3 0  9990
2 65969  51.8997 193.9472 0000997  86.3164 273.7912 14.79927962 52435
KUIPER-00157            
1 65970U 25228Z   26263.09491599  .00001763  00000+0  28034-3 0  9997
2 65970  51.9019 198.1535 0001715 130.7983 229.3127 14.76652280 52331
KUIPER-00144            
1 67133U 25301A   26263.25701698  .00001621  00000+0  24163-3 0  9996
2 67133  51.9014 275.2490 0000647  64.5556 295.5474 14.79932814 42683
KUIPER-00164            
1 67134U 25301B   26263.37860761  .00000936  00000+0  15180-3 0  9994
2 67134  51.9046 287.2324 0000412  48.6328 311.4670 14.79927663 42703
KUIPER-00175            
1 67135U 25301C   26263.56629852  .00001621  00000+0  24160-3 0  9990
2 67135  51.8998 268.8337 0000590  46.7242 313.3769 14.79936427 42875
KUIPER-00179            
1 67136U 25301D   26263.24621817  .00001666  00000+0  24748-3 0  9990
2 67136  51.8990 285.2476 0000434  58.3647 301.7358 14.79935525 42727
KUIPER-00181            
1 67137U 25301E   26263.36782011  .00000681  00000+0  11834-3 0  9996
2 67137  51.9015 297.2770 0000540  79.2904 280.8120 14.79929119 42549
KUIPER-00183            
1 67138U 25301F   26263.23134929  .00001744  00000+0  25764-3 0  9990
2 67138  51.9028 267.8845 0000424  61.1148 298.9857 14.79939903 42955
KUIPER-00184            
1 67139U 25301G   26263.35292102  .00001721  00000+0  25464-3 0  9994
2 67139  51.8996 279.7869 0000473  67.0279 293.0734 14.79939074 42905
KUIPER-00186            
1 67140U 25301H   26263.60416404  .00001550  00000+0  23228-3 0  9993
2 67140  51.9037 296.2404 0000359  61.1075 298.9924 14.79930690 42422
KUIPER-00187            
1 67141U 25301J   26263.39882414  .00002063  00000+0  29943-3 0  9998
2 67141  51.9048 299.6735 0000783 103.9200 256.1850 14.79958148 42359
KUIPER-00188            
1 67142U 25301K   26263.60277749  .00001602  00000+0  23904-3 0  9991
2 67142  51.9023 266.3574 0000573  54.4697 305.6319 14.79935402 42833
KUIPER-00191            
1 67143U 25301L   26263.37320799  .00001555  00000+0  23290-3 0  9995
2 67143  51.9016 292.2631 0000409  67.6633 292.4372 14.79939723 42485
KUIPER-00196            
1 67144U 25301M   26263.35152270  .00001720  00000+0  25451-3 0  9996
2 67144  51.8993 249.8084 0000654  69.9657 290.1376 14.79935647 43045
KUIPER-00204            
1 67145U 25301N   26263.23402512  .00001703  00000+0  25232-3 0  9999
2 67145  51.9015 265.3667 0000571  60.7191 299.3829 14.79943518 42939
KUIPER-00210            
1 67146U 25301P   26263.33942601  .00001566  00000+0  23428-3 0  9991
2 67146  51.9006 292.3573 0000377  51.8005 308.2992 14.79942375 42622
KUIPER-00221            
1 67147U 25301Q   26262.41969858  .00000993  00000+0  15927-3 0  9991
2 67147  51.9025 303.9611 0000615  68.4031 291.6997 14.79935296 42213
KUIPER-00232            
1 67148U 25301R   26263.34754227  .00001589  00000+0  23746-3 0  9997
2 67148  51.8990 284.8669 0000491  66.5117 293.5897 14.79929345 42555
KUIPER-00241            
1 67149U 25301S   26263.57309160  .00000296  00000+0  67858-4 0  9992
2 67149  51.9031 293.8950 0000774  63.3110 296.7932 14.79933945 42789
KUIPER-00245            
1 67150U 25301T   26262.14688810  .00001829  00000+0  26886-3 0  9996
2 67150  51.9051 307.7109 0000433  89.0825 271.0187 14.79935348 42130
KUIPER-00246            
1 67151U 25301U   26263.34483652 -.00000172  00000+0  64209-5 0  9991
2 67151  51.9023 287.3489 0000419  74.8234 285.2775 14.79927395 42542
KUIPER-00247            
1 67152U 25301V   26263.22055269  .00000632  00000+0  11190-3 0  9997
2 67152  51.8967 277.8415 0000455  65.9796 294.1214 14.79931740 42643
KUIPER-00248            
1 67153U 25301W   26263.57709711  .00001668  00000+0  24772-3 0  9994
2 67153  51.8987 258.9105 0000569  65.7136 294.3886 14.79933294 43109
KUIPER-00249            
1 67154U 25301X   26263.22326598  .00000148  00000+0  48452-4 0  9999
2 67154  51.9003 275.4097 0000487  58.0673 302.0337 14.79932268 42673
KUIPER-00250            
1 67155U 25301Y   26263.37590415  .00001445  00000+0  21853-3 0  9993
2 67155  51.9006 289.6872 0000630  60.4646 299.6379 14.79928120 42525
KUIPER-00251            
1 67156U 25301Z   26263.59198468  .00001472  00000+0  22212-3 0  9990
2 67156  51.9003 276.3085 0000617  44.7634 315.3378 14.79930295 42889
KUIPER-00252            
1 67157U 25301AA  26263.31914660  .00001626  00000+0  24219-3 0  9991
2 67157  51.9007 279.9647 0000537  83.3973 276.7050 14.79936069 42627
KUIPER-00261            
1 67158U 25301AB  26263.34212455  .00004537  00000+0  62337-3 0  9995
2 67158  51.9004 289.9276 0000790  97.2168 262.8884 14.79962267 42489
KUIPER-00265            
1 67159U 25301AC  26263.42725508  .00001750  00000+0  25856-3 0  9992
2 67159  51.9068 304.5315 0000543  51.9756 308.1255 14.79931072 42323
KUIPER-00159            
1 67764U 26030A   26262.82193820  .00030410  00000+0  43058-2 0  9991
2 67764  51.9029  25.8853 0000841 130.3121 229.7914 14.76806610 34609
KUIPER-00160            
1 67765U 26030B   26263.58335648 -.00011113  00000+0 -14356-2 0  9992
2 67765  51.8988   3.8269 0001376 151.6365 306.1861 14.79801582  4996
KUIPER-00177            
1 67766U 26030C   26262.90144389  .00001702  00000+0  25224-3 0  9996
2 67766  51.8993  74.3225 0000851  99.2913 260.8146 14.79931394 33934
KUIPER-00178            
1 67767U 26030D   26261.98978539  .00000185  00000+0  53236-4 0  9995
2 67767  51.8997  78.3346 0000587 100.2734 259.8294 14.79932117 33809
KUIPER-00180            
1 67768U 26030E   26263.41330564  .00001702  00000+0  25229-3 0  9992
2 67768  51.8983  67.0306 0000697 130.3287 229.7736 14.79928401 34084
KUIPER-00197            
1 67769U 26030F   26262.96216539  .00002049  00000+0  29766-3 0  9992
2 67769  51.8990  49.0433 0000639 122.0194 238.0830 14.79931460 34295
KUIPER-00198            
1 67770U 26030G   26262.71232586 -.00001514  00000+0 -16970-3 0  9998
2 67770  51.8976  62.6212 0000826 114.0740 246.0309 14.79926788 34087
KUIPER-00199            
1 67771U 26030H   26263.58335648 -.00726711  00000+0 -44449-1 0  9991
2 67771  51.8908 359.8784 0012412  34.7115 269.9202 15.12276320  5785
KUIPER-00200            
1 67772U 26030J   26263.06616558  .00000064  00000+0  37343-4 0  9999
2 67772  51.8989  46.1017 0000703 111.2030 248.9008 14.79931753 34342
KUIPER-00203            
1 67773U 26030K   26263.16617541  .00001852  00000+0  27188-3 0  9995
2 67773  51.9053  78.2343 0000981 112.0281 248.0785 14.79933132 33906
KUIPER-00205            
1 67774U 26030L   26262.39355195  .00002126  00000+0  30770-3 0  9990
2 67774  51.9013  46.5418 0000560 107.6094 252.4930 14.79936256 34282
KUIPER-00208            
1 67775U 26030M   26262.06000905  .00000073  00000+0  38649-4 0  9994
2 67775  51.8975  75.5133 0001343 115.6759 244.4342 14.79928338 33843
KUIPER-00209            
1 67776U 26030N   26263.17695891  .00001439  00000+0  21767-3 0  9991
2 67776  51.9003  68.1754 0000811 123.4879 236.6161 14.79934959 34044
KUIPER-00213            
1 67777U 26030P   26263.41598860  .00001971  00000+0  28739-3 0  9994
2 67777  51.8957  64.5742 0000703 120.2233 239.8799 14.79943961 34111
KUIPER-00214            
1 67778U 26030Q   26262.97975555  .00001951  00000+0  28477-3 0  9992
2 67778  51.8995  64.0402 0000604 109.8345 250.2682 14.79940724 34087
KUIPER-00215            
1 67779U 26030R   26262.14910460  .00001957  00000+0  28559-3 0  9993
2 67779  51.8984  55.0674 0000617 121.9124 238.1898 14.79934805 34145
KUIPER-00218            
1 67780U 26030S   26263.17964202  .00001457  00000+0  22014-3 0  9997
2 67780  51.8988  65.5481 0000652 133.1703 226.9314 14.79927846 34088
KUIPER-00220            
1 67781U 26030T   26263.40920188  .00000239  00000+0  60353-4 0  9995
2 67781  51.8960  39.5566 0000631 117.1350 242.9677 14.79931057 34462
KUIPER-00222            
1 67782U 26030U   26263.15129295  .00000508  00000+0  95660-4 0  9996
2 67782  51.8985  60.8360 0001004 139.2833 220.8205 14.79928517 34149
KUIPER-00223            
1 67783U 26030V   26263.39570839  .00001897  00000+0  27770-3 0  9995
2 67783  51.9015  52.0656 0000661 120.6048 239.4980 14.79935928 34292
KUIPER-00225            
1 67784U 26030W   26263.39033893  .00001963  00000+0  28643-3 0  9994
2 67784  51.8993  57.2352 0000594 109.7046 250.3980 14.79926304 34210
KUIPER-00226            
1 67785U 26030X   26263.57263996  .00002056  00000+0  29869-3 0  9999
2 67785  51.9005  43.8119 0001330  16.7578 343.3428 14.79921355 34428
KUIPER-00259            
1 67786U 26030Y   26263.15396971 -.00000880  00000+0 -86443-4 0  9991
2 67786  51.8988  58.1826 0000708 112.8482 247.2555 14.79927313 34188
KUIPER-00260            
1 67787U 26030Z   26262.95408945 -.00000535  00000+0 -41235-4 0  9991
2 67787  51.9019  56.6776 0000736 123.9976 236.1057 14.79928281 34093
KUIPER-00262            
1 67788U 26030AA  26263.12289910  .00002163  00000+0  31257-3 0  9990
2 67788  51.9002  55.8485 0000923 127.7716 232.3330 14.79935685 34218
KUIPER-00266            
1 67789U 26030AB  26263.15935509  .00002031  00000+0  29534-3 0  9995
2 67789  51.9003  53.1779 0000844 120.6233 239.4812 14.79937431 34253
KUIPER-00268            
1 67790U 26030AC  26263.39842355  .00001964  00000+0  28658-3 0  9999
2 67790  51.9043  49.6644 0000822 131.5508 228.5525 14.79929965 34323
KUIPER-00270            
1 67791U 26030AD  26263.64555658  .00002128  00000+0  30803-3 0  9993
2 67791  51.8991  38.5189 0000598 106.6485 253.4543 14.79929364 34503
KUIPER-00274            
1 67792U 26030AE  26263.14856951  .00001895  00000+0  27755-3 0  9991
2 67792  51.9011  63.2335 0000530 133.5104 226.5903 14.79932747 34116
KUIPER-00275            
1 67793U 26030AF  26263.37273804  .00000464  00000+0  89832-4 0  9993
2 67793  51.9020  42.2362 0000576 126.1848 233.9167 14.79929041 34428
KUIPER-00276            
1 67794U 26030AG  26263.13098032  .00001111  00000+0  17467-3 0  9990
2 67794  51.8994  48.2816 0000934  95.4169 264.6900 14.79937540 34328
KUIPER-00279            
1 67795U 26030AH  26263.64825247 -.00000767  00000+0 -71660-4 0  9997
2 67795  51.9029  36.0452 0000604 121.5344 238.5677 14.79929495 34534
KUIPER-00131            
1 68573U 26072A   26263.37426717  .00001955  00000+0  28538-3 0  9990
2 68573  51.9012 134.7353 0000822 109.3793 250.7259 14.79932047 25215
KUIPER-00189            
1 68574U 26072B   26263.33779875  .00001899  00000+0  27804-3 0  9995
2 68574  51.8990 137.3730 0000801 104.5107 255.5945 14.79928771 25170
KUIPER-00192            
1 68575U 26072C   26263.37695900  .00000977  00000+0  15711-3 0  9996
2 68575  51.8996 132.2180 0001042  97.8278 262.2803 14.79933642 25251
KUIPER-00193            
1 68576U 26072D   26262.98257384  .00001961  00000+0  28619-3 0  9998
2 68576  51.9048 124.0111 0001073 110.3425 249.7653 14.79933888 25337
KUIPER-00194            
1 68577U 26072E   26263.34589418  .00001922  00000+0  28103-3 0  9991
2 68577  51.9018 129.8818 0000900 105.5692 254.5370 14.79927252 25284
KUIPER-00229            
1 68578U 26072F   26263.00285412 -.00000181  00000+0  52074-5 0  9995
2 68578  51.9003 136.3802 0000643 117.4969 242.6059 14.79932147 25166
KUIPER-00230            
1 68579U 26072G   26263.58335648 -.00065529  00000+0 -83239-2 0  9998
2 68579  51.9028  81.0269 0000982  43.8120  12.2248 14.81541527  1441
KUIPER-00231            
1 68580U 26072H   26263.30264092  .00001824  00000+0  26828-3 0  9992
2 68580  51.8983 107.6243 0002061 118.2359 241.8811 14.79931288 25581
KUIPER-00234            
1 68581U 26072J   26262.90695337 -.00000049  00000+0  22601-4 0  9993
2 68581  51.9009 131.7864 0001014  98.9682 261.1395 14.79923562 25217
KUIPER-00236            
1 68582U 26072K   26263.22023213  .00001347  00000+0  22184-3 0  9994
2 68582  51.9031  85.3546 0001646 203.1981 156.8906 14.76567457 25893
KUIPER-00244            
1 68583U 26072L   26263.28915994  .00000981  00000+0  15766-3 0  9998
2 68583  51.8969 120.1223 0001314  95.4081 264.7031 14.79928563 25416
KUIPER-00253            
1 68584U 26072M   26263.35398715  .00001865  00000+0  27353-3 0  9990
2 68584  51.9037 122.3607 0000987 107.5035 252.6036 14.79932355 25384
KUIPER-00254            
1 68585U 26072N   26263.31752087  .00001929  00000+0  28199-3 0  9993
2 68585  51.9028 125.0192 0001311  79.5857 280.5253 14.79932997 25345
KUIPER-00263            
1 68586U 26072P   26263.26618043  .00001794  00000+0  26429-3 0  9995
2 68586  51.9017 110.3123 0000746 110.7492 249.3550 14.79932785 25549
KUIPER-00269            
1 68587U 26072Q   26262.99335111  .00001842  00000+0  27050-3 0  9992
2 68587  51.8998 113.9254 0001108 106.9124 253.1960 14.79939194 25474
KUIPER-00272            
1 68588U 26072R   26263.07306961  .00001917  00000+0  28035-3 0  9991
2 68588  51.8990 133.5390 0001029 117.9863 242.1204 14.79933692 25207
KUIPER-00285            
1 68589U 26072S   26262.95959222  .00001861  00000+0  27300-3 0  9994
2 68589  51.9046 114.1578 0001460  83.5279 276.5850 14.79941436 25463
KUIPER-00286            
1 68590U 26072T   26263.16487898  .00001011  00000+0  16162-3 0  9996
2 68590  51.9002 110.6780 0000967 133.0739 227.0304 14.79930698 25537
KUIPER-00289            
1 68591U 26072U   26263.29184211  .00001798  00000+0  26485-3 0  9995
2 68591  51.8986 117.5929 0001088 105.8463 254.2620 14.79932210 25440
KUIPER-00290            
1 68592U 26072V   26262.11001900 -.00003333  00000+0 -40840-3 0  9999
2 68592  51.9010 122.8269 0000744  57.5446 302.5588 14.79937780 25276
KUIPER-00293            
1 68593U 26072W   26263.01093527  .00001927  00000+0  28178-3 0  9991
2 68593  51.8982 128.8149 0001778  59.6780 300.4358 14.79931262 25269
KUIPER-00294            
1 68594U 26072X   26263.29454688  .00000763  00000+0  12906-3 0  9990
2 68594  51.9015 115.0812 0000780 113.5046 246.5999 14.79931034 25482
KUIPER-00296            
1 68595U 26072Y   26263.27964236  .00011713  00000+0  15651-2 0  9990
2 68595  51.9022  97.6666 0000715  89.9615 270.1429 14.79869250 25727
KUIPER-00297            
1 68596U 26072Z   26263.31481543  .00001897  00000+0  27776-3 0  9995
2 68596  51.8998 127.4711 0001399 109.8892 250.2222 14.79938387 25313
KUIPER-00300            
1 68597U 26072AA  26263.01363101  .00001874  00000+0  27476-3 0  9994
2 68597  51.9028 126.3390 0000828 110.9273 249.1778 14.79937811 25305
KUIPER-00301            
1 68598U 26072AB  26263.03319088  .00001210  00000+0  20264-3 0  9994
2 68598  51.9017  95.7818 0001876 193.9033 166.1876 14.76502916 25721
KUIPER-00304            
1 68599U 26072AC  26263.26605360  .00001455  00000+0  23684-3 0  9991
2 68599  51.9003  96.7097 0000675  34.8376 325.2629 14.76618194 25737
KUIPER-00317            
1 68600U 26072AD  26262.92312993  .00000165  00000+0  50618-4 0  9998
2 68600  51.9003 116.7315 0000919 103.4830 256.6235 14.79930997 25422
KUIPER-00320            
1 68601U 26072AE  26263.32288669  .00002019  00000+0  29366-3 0  9991
2 68601  51.9017 119.9805 0000654 102.0130 258.0906 14.79944279 25419
KUIPER-00299            
1 68864U 26095A   26263.28117023  .00000699  00000+0  12077-3 0  9990
2 68864  51.9008 190.1250 0001137 105.4676 254.6412 14.79928600 21694
KUIPER-00353            
1 68865U 26095B   26263.19605979  .00000294  00000+0  67642-4 0  9993
2 68865  51.9003 175.5287 0001188 143.7078 216.3965 14.79927824 21891
KUIPER-00357            
1 68866U 26095C   26263.49185363  .00002247  00000+0  32359-3 0  9993
2 68866  51.9011 181.7317 0001219  66.1032 294.0058 14.79935909 21830
KUIPER-00364            
1 68867U 26095D   26263.52292359  .00002180  00000+0  31478-3 0  9999
2 68867  51.9048 184.1184 0001453  58.1317 301.9787 14.79942372 21803
KUIPER-00375            
1 68868U 26095E   26262.48429859 -.00000009  00000+0  27804-4 0  9999
2 68868  51.9016 181.1808 0000523 104.5867 255.5153 14.79934886 21758
KUIPER-00433            
1 68869U 26095F   26263.61613157  .00001995  00000+0  29068-3 0  9999
2 68869  51.9006 191.1731 0001311  64.4565 295.6533 14.79932487 21717
KUIPER-00437            
1 68870U 26095G   26263.58335648  .00010160  00000+0  85575-3 0  9992
2 68870  51.8875 143.8239 0009539 293.2181 298.6922 14.98696123  2398
KUIPER-00448            
1 68871U 26095H   26263.04757871  .00001201  00000+0  20218-3 0  9999
2 68871  51.9041 183.6367 0003489  55.0253 305.1035 14.76334868 21763
KUIPER-00459            
1 68872U 26095J   26263.43782153  .00000594  00000+0  10699-3 0  9990
2 68872  51.9041 169.5299 0000823  91.3881 268.7176 14.79929941 21990
KUIPER-00468            
1 68873U 26095K   26263.43994089  .00001209  00000+0  20196-3 0  9991
2 68873  51.8988 167.0598 0000711 176.8647 183.2318 14.76626989 22038
KUIPER-00476            
1 68874U 26095L   26263.58335648 -.00010565  00000+0 -11726-2 0  9993
2 68874  51.8966 148.8497 0011887 278.1696 322.9314 14.85933472  5684
KUIPER-00478            
1 68875U 26095M   26263.02993974  .00000135  00000+0  46683-4 0  9997
2 68875  51.9027 173.7675 0000811  85.9458 274.1597 14.79923657 21905
KUIPER-00480            
1 68876U 26095N   26263.47156424  .00001669  00000+0  24788-3 0  9992
2 68876  51.9047 169.3313 0000865  93.3995 266.7066 14.79931251 22005
KUIPER-00482            
1 68877U 26095P   26263.46079042  .00001442  00000+0  21811-3 0  9995
2 68877  51.9000 179.3651 0001576  45.3966 314.7125 14.79931060 21867
KUIPER-00483            
1 68878U 26095Q   26263.17712502  .00002271  00000+0  32734-3 0  9996
2 68878  51.8984 193.0809 0001682   6.5579 353.5405 14.79860867 21647
KUIPER-00488            
1 68879U 26095R   26263.16229755  .00002108  00000+0  30542-3 0  9993
2 68879  51.8984 175.6908 0001225  80.4588 279.6513 14.79934610 21880
KUIPER-00489            
1 68880U 26095S   26262.96778849  .00002119  00000+0  30680-3 0  9990
2 68880  51.8957 169.0310 0001345  86.5870 273.5246 14.79938183 21964
KUIPER-00499            
1 68881U 26095T   26263.06368454  .00004234  00000+0  58378-3 0  9994
2 68881  51.8983 173.6680 0001138  75.2039 284.9050 14.79955297 21905
KUIPER-00500            
1 68882U 26095U   26263.17988656  .00000088  00000+0  40524-4 0  9997
2 68882  51.9007 190.6033 0000788  76.9308 283.1742 14.79930847 21680
KUIPER-00502            
1 68883U 26095V   26263.46718029  .00002146  00000+0  31036-3 0  9999
2 68883  51.8991 165.5876 0001423  75.9692 284.1429 14.79938917 22051
KUIPER-00503            
1 68884U 26095W   26263.48646955  .00004211  00000+0  58125-3 0  9993
2 68884  51.8994 186.7211 0001169  84.1511 275.9584 14.79919957 21762
KUIPER-00504            
1 68885U 26095X   26263.44458641  .00002667  00000+0  37863-3 0  9992
2 68885  51.9012 194.4409 0000715  32.0680 328.0326 14.79947848 21657
KUIPER-00505            
1 68886U 26095Y   26263.48915693  .00000691  00000+0  11970-3 0  9998
2 68886  51.9007 184.2432 0000705  87.5970 272.5073 14.79931143 21799
KUIPER-00507            
1 68887U 26095Z   26263.48306470  .00000704  00000+0  12133-3 0  9993
2 68887  51.8994 174.2535 0000975  87.8461 272.2613 14.79932896 21933
KUIPER-00511            
1 68888U 26095AA  26262.46133292  .00000719  00000+0  12333-3 0  9999
2 68888  51.9014 171.3818 0001068  76.4425 283.6656 14.79928091 21887
KUIPER-00512            
1 68889U 26095AB  26263.18258252 -.00000779  00000+0 -73211-4 0  9995
2 68889  51.9007 188.1020 0000899  82.9914 277.1150 14.79927814 21718
KUIPER-00519            
1 68890U 26095AC  26263.26089893 -.00000831  00000+0 -80053-4 0  9990
2 68890  51.9017 177.8212 0000451  92.3820 267.7194 14.79925538 21864
KUIPER-00521            
1 68891U 26095AD  26263.46176903  .00002100  00000+0  30435-3 0  9999
2 68891  51.9025 170.6259 0000748  89.6742 270.4306 14.79930050 21981
KUIPER-00524            
1 68892U 26095AE  26263.49455203  .00000915  00000+0  14903-3 0  9990
2 68892  51.8954 179.1934 0000100 255.1371 104.9581 14.79929727 21868
KUIPER-00370            
1 68919U 26098A   26263.52253685  .00001878  00000+0  27515-3 0  9999
2 68919  51.9024 356.4516 0000185 101.3343 258.7641 14.79944149 21609
KUIPER-00380            
1 68920U 26098B   26263.46313736  .00001949  00000+0  28462-3 0  9999
2 68920  51.8996 349.3511 0000372  98.6941 261.4063 14.79930583 21699
KUIPER-00386            
1 68921U 26098C   26263.47732075  .00000806  00000+0  13477-3 0  9993
2 68921  51.9001 351.7842 0000502  90.2315 269.8705 14.79928388 21662
KUIPER-00388            
1 68922U 26098D   26263.44965771  .00002404  00000+0  34418-3 0  9996
2 68922  51.9019   2.0669 0000298  97.7874 262.3122 14.79939694 21516
KUIPER-00405            
1 68923U 26098E   26263.46922944  .00000760  00000+0  12867-3 0  9991
2 68923  51.9034 359.3342 0000695 202.4078 157.6854 14.79932085 21551
KUIPER-00408            
1 68924U 26098F   26263.46041836  .00001995  00000+0  29054-3 0  9991
2 68924  51.9010 351.7862 0000479  90.1245 269.9773 14.79938400 21663
KUIPER-00409            
1 68925U 26098G   26263.43814956  .00001964  00000+0  28652-3 0  9999
2 68925  51.9041 356.9707 0000585  98.9247 261.1782 14.79933784 21584
KUIPER-00410            
1 68926U 26098H   26263.44083732  .00003175  00000+0  44517-3 0  9995
2 68926  51.9010 354.4367 0000634 153.9895 206.1099 14.79945746 21628
KUIPER-00412            
1 68927U 26098J   26263.49959639  .00000204  00000+0  55767-4 0  9999
2 68927  51.9014 346.7122 0000467  97.0039 263.0976 14.79926153 21737
KUIPER-00413            
1 68928U 26098K   26263.45234565  .00000798  00000+0  13370-3 0  9991
2 68928  51.9009 359.3905 0000455 183.1083 176.9877 14.79929677 21550
KUIPER-00414            
1 68929U 26098L   26263.47533407  .00000950  00000+0  15360-3 0  9992
2 68929  51.8994   9.3707 0001057 145.6929 214.4102 14.79931271 21413
KUIPER-00415            
1 68930U 26098M   26263.42667561  .00001079  00000+0  17055-3 0  9994
2 68930  51.9051 352.0206 0000580 109.2247 250.8779 14.79927594 21654
KUIPER-00416            
1 68931U 26098N   26263.51209730  .00001915  00000+0  28020-3 0  9998
2 68931  51.9041 342.9963 0000534 104.2295 255.8727 14.79930693 21785
KUIPER-00420            
1 68932U 26098P   26263.43474448 -.00000788  00000+0 -74373-4 0  9992
2 68932  51.9010 344.4459 0000393 113.4717 246.6287 14.79933853 21761
KUIPER-00421            
1 68933U 26098Q   26263.49689185  .00001931  00000+0  28229-3 0  9992
2 68933  51.9040 349.1561 0000374  94.0420 266.0585 14.79930172 21707
KUIPER-00425            
1 68934U 26098R   26263.42127950  .00001052  00000+0  16696-3 0  9992
2 68934  51.8997 357.0338 0000683  98.6406 261.4634 14.79938561 21585
KUIPER-00430            
1 68935U 26098S   26263.55362643 -.00005664  00000+0 -71415-3 0  9992
2 68935  51.9027 358.8521 0001565  85.1283 274.9858 14.79956500 21577
KUIPER-00431            
1 68936U 26098T   26263.55094295  .00002156  00000+0  31164-3 0  9996
2 68936  51.8998   1.4493 0000316 129.0022 231.0969 14.79934925 21535
KUIPER-00432            
1 68937U 26098U   26263.55902014 -.00001533  00000+0 -17208-3 0  9997
2 68937  51.9026 353.8133 0000841 123.5349 236.5694 14.79938067 21646
KUIPER-00434            
1 68938U 26098V   26263.47548022  .00001173  00000+0  19791-3 0  9991
2 68938  51.9027 358.2622 0001463 135.8709 224.2369 14.76393499 21573
KUIPER-00436            
1 68939U 26098W   26263.47191682  .00002021  00000+0  29397-3 0  9994
2 68939  51.9012 356.8113 0000485  97.0660 263.0358 14.79933872 21594
KUIPER-00438            
1 68940U 26098X   26263.47462467  .00000194  00000+0  54484-4 0  9993
2 68940  51.9051 354.3253 0000455  88.6235 271.4780 14.79928009 21620
KUIPER-00439            
1 68941U 26098Y   26263.52526142  .00002138  00000+0  30944-3 0  9995
2 68941  51.9032 354.0919 0000773  78.6244 281.4805 14.79922400 21637
KUIPER-00440            
1 68942U 26098Z   26263.48270384  .00001874  00000+0  27477-3 0  9998
2 68942  51.9055 346.7783 0000314 354.2857   5.8102 14.79935296 21730
KUIPER-00442            
1 68943U 26098AA  26263.47987842 -.00002638  00000+0 -31707-3 0  9994
2 68943  51.9014 349.3069 0001609 158.7912 201.3117 14.79935718 21692
KUIPER-00446            
1 68944U 26098AB  26263.51108439  .00001929  00000+0  28196-3 0  9995
2 68944  51.9014 351.6531 0000654 263.8252  96.2636 14.79925890 21661
KUIPER-00451            
1 68945U 26098AC  26263.43276407  .00002313  00000+0  33229-3 0  9999
2 68945  51.9001   1.9791 0000414 123.2459 236.8543 14.79933348 21513
KUIPER-00452            
1 68946U 26098AD  26263.51378365  .00002034  00000+0  29579-3 0  9998
2 68946  51.9050 349.1401 0000496  94.8359 265.2660 14.79931699 21709
KUIPER-00453            
1 68947U 26098AE  26263.46581762 -.00000077  00000+0  18961-4 0  9990
2 68947  51.8993 346.7690 0001933 141.9352 218.1747 14.79929400 21735
KUIPER-00454            
1 68948U 26098AF  26263.44691326  .00002104  00000+0  30503-3 0  9994
2 68948  51.9015   4.4081 0000883 108.3704 251.7355 14.79911069 21487
KUIPER-00455            
1 68949U 26098AG  26263.46653119  .00001967  00000+0  28708-3 0  9995
2 68949  51.9024   1.8349 0001495 144.9159 215.1902 14.79925280 21523
KUIPER-00458            
1 68950U 26098AH  26263.51647192  .00001997  00000+0  29085-3 0  9999
2 68950  51.9012 346.6384 0000550  94.0777 266.0248 14.79934827 21731
KUIPER-00282            
1 69267U 26118A   26263.45703727  .00001645  00000+0  24480-3 0  9998
2 69267  51.8993 339.3562 0000098 142.5991 217.4978 14.79923237 18268
KUIPER-00383            
1 69268U 26118B   26263.40909014  .00000392  00000+0  80461-4 0  9991
2 69268  51.9000 337.0900 0000271  92.4003 267.6990 14.79930052 18297
KUIPER-00527            
1 69269U 26118C   26263.51039487  .00000280  00000+0  65785-4 0  9990
2 69269  51.8988 336.7737 0000555  94.8453 265.2573 14.79930580 18305
KUIPER-00562            
1 69270U 26118D   26263.41717071  .00001762  00000+0  26002-3 0  9997
2 69270  51.9044 329.5005 0000835  68.6453 291.4599 14.79933419 18403
KUIPER-00570            
1 69271U 26118E   26263.50499861  .00000634  00000+0  11211-3 0  9995
2 69271  51.9015 341.7697 0000339  82.2324 277.8677 14.79928463 18221
KUIPER-00572            
1 69272U 26118F   26263.42595327 -.00000108  00000+0  14789-4 0  9992
2 69272  51.9021 337.0100 0000588 119.7197 240.3824 14.79932252 18293
KUIPER-00581            
1 69273U 26118G   26263.48807429  .00004193  00000+0  57846-3 0  9995
2 69273  51.9079 341.7479 0000978 192.1736 167.9204 14.79951820 18327
KUIPER-00584            
1 69274U 26118H   26263.46853625  .00001811  00000+0  26649-3 0  9994
2 69274  51.9028 344.4419 0000228 101.5877 258.5111 14.79931978 18195
KUIPER-00587            
1 69275U 26118J   26263.49619096  .00001799  00000+0  26491-3 0  9990
2 69275  51.9028 334.2110 0000502  87.5627 272.5393 14.79937876 18340
KUIPER-00590            
1 69276U 26118K   26263.49081296 -.00003279  00000+0 -40154-3 0  9995
2 69276  51.8987 339.2398 0000191 267.3147  92.7793 14.79913315 18276
KUIPER-00592            
1 69277U 26118L   26263.40641269  .00001729  00000+0  25533-3 0  9999
2 69277  51.9042 339.4971 0000248 138.6275 221.4706 14.79999114 18269
KUIPER-00593            
1 69278U 26118M   26263.15514201  .00001705  00000+0  25273-3 0  9992
2 69278  51.9013 323.2258 0001292 172.1495 187.9488 14.79925068 18523
KUIPER-00594            
1 69279U 26118N   26263.48739129  .00001917  00000+0  28035-3 0  9991
2 69279  51.9029 326.7637 0001286  83.5151 276.5958 14.79939130 18440
KUIPER-00595            
1 69280U 26118P   26263.45910197  .00001605  00000+0  23949-3 0  9999
2 69280  51.8988 321.8379 0001089 184.4359 175.6593 14.79923506 18541
KUIPER-00596            
1 69281U 26118Q   26263.51916918  .00002005  00000+0  29182-3 0  9994
2 69281  51.9037 344.1124 0000296  83.3304 276.7693 14.79939015 18209
KUIPER-00597            
1 69282U 26118R   26263.45630092  .00000983  00000+0  15802-3 0  9991
2 69282  51.8978 324.3881 0001831  54.2867 305.8266 14.79921473 18478
KUIPER-00599            
1 69283U 26118S   26263.47929442  .00000594  00000+0  10693-3 0  9995
2 69283  51.9042 334.2021 0000015 336.6660  23.4302 14.79934920 18340
KUIPER-00600            
1 69284U 26118T   26262.67974241 -.00002995  00000+0 -36381-3 0  9995
2 69284  51.9022 327.7399 0001785  49.0645 311.0472 14.79948156 18369
KUIPER-00601            
1 69285U 26118U   26263.44015767  .00001903  00000+0  27859-3 0  9997
2 69285  51.9030 339.4588 0000381  85.5294 274.5712 14.79927457 18265
KUIPER-00602            
1 69286U 26118V   26263.38069016  .00001845  00000+0  27088-3 0  9996
2 69286  51.9035 332.1366 0000466 236.1862 123.9056 14.79937223 18365
KUIPER-00603            
1 69287U 26118W   26263.39490125 -.00000235  00000+0 -17978-5 0  9990
2 69287  51.9070 334.6665 0000357  95.7329 264.3674 14.79927411 18320
KUIPER-00605            
1 69288U 26118X   26263.45434143  .00000953  00000+0  15396-3 0  9991
2 69288  51.9013 341.8784 0000328  88.3777 271.7223 14.79928239 18234
KUIPER-00606            
1 69289U 26118Y   26263.44555482  .00001782  00000+0  26276-3 0  9991
2 69289  51.9032 334.4361 0000324  85.2166 274.8834 14.79928598 18330
KUIPER-00607            
1 69290U 26118Z   26263.16932996  .00001729  00000+0  25579-3 0  9997
2 69290  51.9022 325.6642 0001359  17.7277 342.3732 14.79936963 18431
KUIPER-00608            
1 69291U 26118AA  26262.91338139 -.00001099  00000+0 -11515-3 0  9996
2 69291  51.9017 329.1554 0001035  76.0589 284.0488 14.79930746 18367
KUIPER-00610            
1 69292U 26118AB  26263.48201044  .00000315  00000+0  70337-4 0  9990
2 69292  51.9067 331.7766 0000206  77.3640 282.7345 14.79930680 18373
KUIPER-00613            
1 69293U 26118AC  26263.47123106  .00001832  00000+0  26923-3 0  9998
2 69293  51.9033 341.8215 0000283  84.9621 275.1374 14.79928190 18232
KUIPER-00618            
1 69294U 26118AD  26263.38340664  .00000015  00000+0  30964-4 0  9992
2 69294  51.9106 329.7212 0001547 188.7468 171.3467 14.79929701 18398
KUIPER-00620            
1 69295U 26118AE  26263.46513030  .00001499  00000+0  22563-3 0  9993
2 69295  51.9053 331.8616 0000357  76.1004 283.9999 14.79928092 18376
KUIPER-00423            
1 69592U 26140A   26263.58335648  .00038448  00000+0  54626-2 0  9996
2 69592  51.9010 303.7091 0001272 124.5996 137.8094 14.76547112  5320
KUIPER-00428            
1 69593U 26140B   26263.37054135  .00018940  00000+0  50842-3 0  9995
2 69593  51.8799 298.7081 0004997 271.5565  88.4850 15.37961017 15872
KUIPER-00481            
1 69594U 26140C   26263.43912309  .00001064  00000+0  18197-3 0  9995
2 69594  51.9024 309.3008 0002022 338.7034  21.3842 14.76498627 15733
KUIPER-00490            
1 69595U 26140D   26262.42039513  .00001853  00000+0  27199-3 0  9999
2 69595  51.9054 318.9246 0000405  77.2561 282.8447 14.79931795 15512
KUIPER-00493            
1 69596U 26140E   26263.46171750  .00001689  00000+0  25048-3 0  9993
2 69596  51.9064 319.3716 0000779 304.3337  55.7552 14.79935470 15596
KUIPER-00496            
1 69597U 26140F   26263.58335648  .00007328  00000+0  69165-3 0  9999
2 69597  51.8951 303.0802 0007471 272.1091 355.6312 14.94625275  4402
KUIPER-00513            
1 69598U 26140G   26263.39958073  .00001688  00000+0  25032-3 0  9990
2 69598  51.9019 314.6396 0000310  79.7074 280.3923 14.79935747 15654
KUIPER-00516            
1 69599U 26140H   26263.58335648 -.00033467  00000+0 -23668-2 0  9993
2 69599  51.8892 299.2168 0008882 212.1270 260.0774 15.04269315  5132
KUIPER-00517            
1 69600U 26140J   26263.58335648 -.01181324  00000+0 -50335-1 0  9993
2 69600  51.8841 297.6092 0009443 171.9365 326.6901 15.25158644  5774
KUIPER-00520            
1 69601U 26140K   26263.44819729  .00001010  00000+0  17377-3 0  9997
2 69601  51.9022 316.4053 0000779 202.9805 157.1121 14.76602533 15634
KUIPER-00522            
1 69602U 26140L   26263.58335648 -.00016294  00000+0 -20195-2 0  9999
2 69602  51.9017 303.8294 0008719 130.4512 161.2600 14.81790915  3800
KUIPER-00528            
1 69603U 26140M   26263.44753583  .00000537  00000+0  99407-4 0  9992
2 69603  51.9049 316.9451 0001181 128.4065 231.7003 14.79933977 15629
KUIPER-00532            
1 69604U 26140N   26263.58335648  .00022505  00000+0  20615-2 0  9998
2 69604  51.8953 301.7123 0002251 237.9154  96.0159 14.94833392  5221
KUIPER-00533            
1 69605U 26140P   26263.43605836  .00000057  00000+0  36529-4 0  9993
2 69605  51.9025 311.9878 0000419  69.4977 290.6030 14.79928183 15696
KUIPER-00534            
1 69606U 26140Q   26263.58335648  .00052271  00000+0  17937-2 0  9996
2 69606  51.8808 298.5585 0012543 131.9911 257.0735 15.29570808  5044
KUIPER-00537            
1 69607U 26140R   26263.42794996  .00000530  00000+0  98529-4 0  9994
2 69607  51.9020 319.4374 0000759   0.5227 359.5736 14.79933788 15592
KUIPER-00538            
1 69608U 26140S   26263.46452954  .00001457  00000+0  22005-3 0  9998
2 69608  51.9059 316.8024 0000710  16.3659 343.7326 14.79947665 15633
KUIPER-00540            
1 69609U 26140T   26262.70821204  .00014604  00000+0  38990-3 0  9991
2 69609  51.8821 301.7827 0005050 268.0567  91.9841 15.38334333 15777
KUIPER-00541            
1 69610U 26140U   26263.58335648 -.01675602  00000+0 -97504-1 0  9990
2 69610  51.8903 297.9949 0006546 181.0428  90.4680 15.15185454  4936
KUIPER-00542            
1 69611U 26140V   26263.58335648 -.01773305  00000+0 -83259-1 0  9992
2 69611  51.8860 297.4688 0006333 172.2786 356.6509 15.22744864  4635
KUIPER-00543            
1 69612U 26140W   26263.58335648 -.00002812  00000+0 -26074-3 0  9994
2 69612  51.8988 301.6294 0005166 257.4029 329.7725 14.90450157  4631
KUIPER-00544            
1 69613U 26140X   26263.58335648 -.00318490  00000+0 -19098-1 0  9993
2 69613  51.8886 298.2908 0005161 171.1513  21.4845 15.12045934  4331
KUIPER-00546            
1 69614U 26140Y   26263.58335648 -.00010262  00000+0 -12720-2 0  9996
2 69614  51.9005 303.8434 0010046 122.8163 253.8302 14.81397596  2768
KUIPER-00547            
1 69615U 26140Z   26263.58335648 -.01669300  00000+0 -55569-1 0  9998
2 69615  51.8818 297.0591 0009666 162.4551 240.7384 15.33638539  5609
KUIPER-00549            
1 69616U 26140AA  26263.58335648  .00017743  00000+0  14586-2 0  9999
2 69616  51.8961 299.6655 0005500 233.0559 261.0886 14.99191384  5846
KUIPER-00550            
1 69617U 26140AB  26263.58335648  .00022608  00000+0  17123-2 0  9996
2 69617  51.8871 303.5157 0005797 288.7232 215.5415 15.02179854  1999
KUIPER-00551            
1 69618U 26140AC  26262.70771584  .00018960  00000+0  50013-3 0  9995
2 69618  51.8785 301.0146 0010979 146.8724 213.2953 15.38458258 15784
KUIPER-00554            
1 69619U 26140AD  26263.57132268  .00020382  00000+0  55924-3 0  9999
2 69619  51.8828 297.0499 0009790 161.6472 198.4870 15.37198981 15912
KUIPER-00555            
1 69620U 26140AE  26263.10970839  .00017688  00000+0  48827-3 0  9993
2 69620  51.8871 299.2432 0010170 149.6451 210.5127 15.37108191 15847
KUIPER-00556            
1 69621U 26140AF  26263.40783070  .00032263  00000+0  42658-2 0  9997
2 69621  51.8986 307.1072 0001231 346.5435  13.5495 14.79684580 15768
KUIPER-00557            
1 69622U 26140AG  26263.58335648 -.01223497  00000+0 -37930-1 0  9991
2 69622  51.8810 297.0943 0008335 168.7621 222.8890 15.35918600  3411
KUIPER-00560            
1 69623U 26140AH  26262.76891726  .00009820  00000+0  27633-3 0  9995
2 69623  51.8793 301.4105 0008174 186.5114 173.5767 15.37097804 15782
KUIPER-00561            
1 69624U 26140AJ  26263.13213553  .00001611  00000+0  24036-3 0  9998
2 69624  51.9027 313.2992 0000629  90.4493 269.6541 14.79916968 15658
KUIPER-00564            
1 69625U 26140AK  26261.20718696  .00003404  00000+0  51350-3 0  9994
2 69625  51.8983 319.2870 0002494 115.6463 244.4756 14.76595908 15405
KUIPER-00567            
1 69626U 26140AL  26263.37387460 -.00000713  00000+0 -64401-4 0  9990
2 69626  51.8977 307.2571 0002371 137.9110 222.2035 14.79934821 15750
KUIPER-00573            
1 69627U 26140AM  26263.60755853  .00001622  00000+0  24176-3 0  9994
2 69627  51.9024 308.7335 0000414 107.9384 252.1624 14.79933314 15757
KUIPER-00258            
1 69763U 26151A   26263.58335648 -.00041290  00000+0 -36790-2 0  9991
2 69763  51.8906 219.3074 0011330  60.1996  92.3184 14.95542087  3024
KUIPER-00526            
1 69764U 26151B   26263.33394492  .00000002  00000+0  29283-4 0  9992
2 69764  51.8990 235.0011 0000784  62.3512 297.7530 14.79927724 12071
KUIPER-00558            
1 69765U 26151C   26263.43520852  .00004868  00000+0  66668-3 0  9996
2 69765  51.8968 234.4726 0000651  70.8540 289.2493 14.79958394 12094
KUIPER-00569            
1 69766U 26151D   26262.30680257  .00000323  00000+0  71339-4 0  9992
2 69766  51.8992 236.9541 0001092  33.9952 326.1080 14.79929813 11963
KUIPER-00589            
1 69767U 26151E   26263.56716905  .00001502  00000+0  24405-3 0  9993
2 69767  51.9003 234.4583 0002910  63.5427 296.5832 14.76535333 12102
KUIPER-00598            
1 69768U 26151F   26263.61215414 -.00001916  00000+0 -22230-3 0  9994
2 69768  51.8991 226.2018 0000615  98.9625 261.1407 14.79942493 12223
KUIPER-00604            
1 69769U 26151G   26263.59267062  .00002049  00000+0  29763-3 0  9992
2 69769  51.9012 228.7856 0000513  62.7293 297.3721 14.79951288 12180
KUIPER-00609            
1 69770U 26151H   26263.61210200  .00001354  00000+0  22251-3 0  9992
2 69770  51.9016 226.0214 0002414  37.5932 322.5198 14.76621518 12228
KUIPER-00611            
1 69771U 26151J   26263.28868371  .00000360  00000+0  76192-4 0  9994
2 69771  51.8994 230.1120 0000823  61.7509 298.3536 14.79931242 12144
KUIPER-00612            
1 69772U 26151K   26263.58335648 -.00034327  00000+0 -44968-2 0  9990
2 69772  51.8990 231.3317 0001288 117.0148 118.3895 14.79932344  4652
KUIPER-00614            
1 69773U 26151L   26263.60945734  .00000516  00000+0  96644-4 0  9998
2 69773  51.8986 228.7633 0001106  60.2302 299.8771 14.79933217 12184
KUIPER-00615            
1 69774U 26151M   26263.62092538  .00001195  00000+0  18572-3 0  9993
2 69774  51.9011 233.5958 0001085 134.2350 225.8702 14.79939999 12120
KUIPER-00616            
1 69775U 26151N   26263.58335648 -.00065667  00000+0 -73779-2 0  9996
2 69775  51.8984 218.9785 0003643 141.8369  42.4741 14.86587693  2796
KUIPER-00617            
1 69776U 26151P   26263.59801271  .00002051  00000+0  29782-3 0  9990
2 69776  51.8989 223.7647 0000455 172.1264 187.9705 14.79956964 12252
KUIPER-00619            
1 69777U 26151Q   26263.61770543  .00001370  00000+0  22505-3 0  9990
2 69777  51.9006 225.9389 0001570 150.1953 209.9098 14.76585926 12221
KUIPER-00621            
1 69778U 26151R   26263.57569263 -.00000090  00000+0  17220-4 0  9999
2 69778  51.9027 228.8582 0000763  80.5741 279.5307 14.79928296 12181
KUIPER-00622            
1 69779U 26151S   26263.48853478  .00001312  00000+0  21678-3 0  9992
2 69779  51.9003 233.2134 0001221  71.2812 288.8282 14.76568758 12113
KUIPER-00623            
1 69780U 26151T   26263.50540434  .00001905  00000+0  27897-3 0  9999
2 69780  51.8978 231.6808 0001182 100.9378 259.1718 14.79914905 12137
KUIPER-00626            
1 69781U 26151U   26263.59527001 -.00002522  00000+0 -30188-3 0  9999
2 69781  51.8985 226.2510 0001102 108.7375 251.3707 14.79941191 12220
KUIPER-00627            
1 69782U 26151V   26263.58335648 -.00072108  00000+0 -86666-2 0  9991
2 69782  51.8997 221.3895 0007111  94.2053 324.0392 14.83862623  3544
KUIPER-00629            
1 69783U 26151W   26263.58446176  .00002271  00000+0  32683-3 0  9994
2 69783  51.9014 236.2602 0000509 110.2451 249.8566 14.79921918 12086
KUIPER-00631            
1 69784U 26151X   26263.33122869 -.00002015  00000+0 -23528-3 0  9994
2 69784  51.8994 237.4381 0000813 115.2727 244.8320 14.79940629 12048
KUIPER-00634            
1 69785U 26151Y   26263.28598945  .00002074  00000+0  30101-3 0  9999
2 69785  51.8989 232.6449 0000842  94.8734 265.2324 14.79930283 12100
KUIPER-00639            
1 69786U 26151Z   26263.58335648 -.00062761  00000+0 -75407-2 0  9990
2 69786  51.9006 221.3698 0008700  42.1965 196.5469 14.83790196  5724
KUIPER-00641            
1 69787U 26151AA  26263.58335648 -.00033457  00000+0 -43812-2 0  9996
2 69787  51.8985 223.8354 0002285 128.0058 244.3477 14.79932483  5380
KUIPER-00644            
1 69788U 26151AB  26263.58335648 -.00043743  00000+0 -32915-2 0  9998
2 69788  51.8887 217.2960 0007888  59.8625  14.1447 15.02077821  4985
KUIPER-00646            
1 69789U 26151AC  26263.61482127 -.00000507  00000+0 -37510-4 0  9997
2 69789  51.8957 223.7788 0001323 139.1103 220.9959 14.79926220 12258
KUIPER-00647            
1 69790U 26151AD  26263.58335648 -.00071960  00000+0 -90277-2 0  9998
2 69790  51.8977 223.4537 0005663 103.2066 166.1505 14.82096202  4578
KUIPER-00662            
1 69791U 26151AE  26263.43260736  .00002002  00000+0  29168-3 0  9999
2 69791  51.9017 236.9889 0000175  48.7773 311.3205 14.79912365 12051
