IRIDIUM 106             
1 41917U 17003A   26255.93405015  .00000055  00000+0  12631-4 0  9996
2 41917  86.3938  51.8396 0001986  83.7250 276.4172 14.34217762505783
IRIDIUM 103             
1 41918U 17003B   26255.92136652  .00000011  00000+0 -31459-5 0  9997
2 41918  86.3937  51.7445 0002314  89.7644 270.3816 14.34217068505806
IRIDIUM 109             
1 41919U 17003C   26255.85793806  .00000035  00000+0  54907-5 0  9998
2 41919  86.3939  51.8320 0002193  91.2800 268.8647 14.34218379505764
IRIDIUM 102             
1 41920U 17003D   26255.96576676  .00000062  00000+0  14959-4 0  9998
2 41920  86.3937  51.7086 0002091  91.3179 268.8256 14.34218057505869
IRIDIUM 105             
1 41921U 17003E   26255.85459672  .00000107  00000+0  31083-4 0  9990
2 41921  86.4007  20.2064 0002304  99.5334 260.6123 14.34218577507701
IRIDIUM 104             
1 41922U 17003F   26255.97846861  .00000255  00000+0  83973-4 0  9993
2 41922  86.3939  51.7472 0002411  94.5823 265.5648 14.34219270505855
IRIDIUM 114             
1 41923U 17003G   26255.91502530  .00000047  00000+0  95975-5 0  9995
2 41923  86.3938  51.7566 0002252  91.3458 268.7995 14.34217923505821
IRIDIUM 108             
1 41924U 17003H   26255.87354612  .00000067  00000+0  16850-4 0  9993
2 41924  86.3999  20.0829 0002118  95.7136 264.4302 14.34217462507670
IRIDIUM 112             
1 41925U 17003J   26255.97211205  .00000080  00000+0  21325-4 0  9993
2 41925  86.3935  51.5708 0002181  93.4167 266.7278 14.34217757505857
IRIDIUM 111             
1 41926U 17003K   26255.95942271  .00000047  00000+0  96187-5 0  9998
2 41926  86.3936  51.6485 0002158  90.1184 270.0259 14.34217429505830
IRIDIUM 113             
1 42803U 17039A   26256.07892507  .00000017  00000+0 -10175-5 0  9993
2 42803  86.3926 285.4411 0002224  93.9616 266.1834 14.34217748483783
IRIDIUM 123             
1 42804U 17039B   26255.70179265  .00000039  00000+0  70398-5 0  9998
2 42804  86.3985 317.0764 0002260  90.3699 269.7756 14.34217142482491
IRIDIUM 120             
1 42805U 17039C   26256.07258220  .00000020  00000+0 -99046-7 0  9993
2 42805  86.3915 285.2147 0002042  90.3254 269.8176 14.34217692483770
IRIDIUM 115             
1 42806U 17039D   26256.03007983  .00000202  00000+0  54186-4 0  9992
2 42806  86.4451 285.3736 0002371  86.8623 273.2849 14.43281168486933
IRIDIUM 118             
1 42807U 17039E   26256.08234794  .00000098  00000+0  27859-4 0  9990
2 42807  86.3988 316.9151 0002259  95.7171 264.4282 14.34217057482544
IRIDIUM 117             
1 42808U 17039F   26256.17114417  .00000038  00000+0  66014-5 0  9991
2 42808  86.3988 316.8349 0002259  92.8624 267.2830 14.34217059482580
IRIDIUM 126             
1 42809U 17039G   26255.70813523  .00000110  00000+0  32224-4 0  9990
2 42809  86.3986 317.0808 0002324  94.4478 265.6983 14.34217008482495
IRIDIUM 124             
1 42810U 17039H   26256.03322443  .00000097  00000+0  22935-4 0  9997
2 42810  86.4433 253.6108 0002375  88.2573 271.8900 14.43279245487782
IRIDIUM 128             
1 42811U 17039J   26255.69887363  .00000031  00000+0  38458-5 0  9992
2 42811  86.4027 348.5802 0002115  93.3330 266.8107 14.34217029482529
IRIDIUM 121             
1 42812U 17039K   26255.65739292  .00000060  00000+0  14206-4 0  9992
2 42812  86.3986 317.1303 0002156  94.4936 265.6506 14.34217010482362
IRIDIUM 133             
1 42955U 17061A   26256.00966119  .00000083  00000+0  22523-4 0  9991
2 42955  86.4030 348.5703 0002146  94.2420 265.9021 14.34217287467362
IRIDIUM 100             
1 42956U 17061B   26255.79401214  .00000067  00000+0  16931-4 0  9995
2 42956  86.4029 348.5769 0002122  94.7792 265.3646 14.34217052467338
IRIDIUM 122             
1 42957U 17061C   26256.11114022  .00000073  00000+0  19107-4 0  9996
2 42957  86.4027 348.4450 0002229  93.0359 267.1092 14.34216819467382
IRIDIUM 129             
1 42958U 17061D   26255.78766996  .00000071  00000+0  18214-4 0  9998
2 42958  86.4029 348.6479 0002304  99.8795 260.2661 14.34217231467352
IRIDIUM 119             
1 42959U 17061E   26255.96526339  .00000176  00000+0  55793-4 0  9993
2 42959  86.4028 348.5700 0002265  94.1783 265.9672 14.34217916467397
IRIDIUM 107             
1 42960U 17061F   26255.77498530  .00000086  00000+0  23501-4 0  9997
2 42960  86.4029 348.6711 0002239  88.6943 271.4509 14.34217529467379
IRIDIUM 132             
1 42961U 17061G   26255.78132775  .00000063  00000+0  15460-4 0  9995
2 42961  86.4029 348.6474 0002193  95.2154 264.9292 14.34217509467377
IRIDIUM 136             
1 42962U 17061H   26255.67350317  .00000065  00000+0  16307-4 0  9991
2 42962  86.4029 348.6996 0002160  95.1904 264.9539 14.34217520467370
IRIDIUM 139             
1 42963U 17061J   26255.95891981  .00000112  00000+0  33040-4 0  9996
2 42963  86.4031 348.6437 0002149  93.3337 266.8104 14.34217644467423
IRIDIUM 125             
1 42964U 17061K   26256.01600493  .00000128  00000+0  38675-4 0  9997
2 42964  86.4033 348.6825 0002661  89.8406 270.3094 14.34217938467449
IRIDIUM 135             
1 43070U 17083A   26256.05989772  .00000034  00000+0  52016-5 0  9996
2 43070  86.3920 285.2803 0002248  92.0634 268.0819 14.34217649456743
IRIDIUM 138             
1 43071U 17083B   26256.08526727  .00000013  00000+0 -24662-5 0  9991
2 43071  86.3933 284.9784 0002274  93.3054 266.8402 14.34217826456731
IRIDIUM 116             
1 43072U 17083C   26256.05355455  .00000004  00000+0 -54830-5 0  9997
2 43072  86.3920 285.2677 0001926  88.1872 271.9545 14.34217557456765
IRIDIUM 130             
1 43073U 17083D   26256.09161059  .00000057  00000+0  13276-4 0  9992
2 43073  86.3929 285.5361 0002214  88.0656 272.0793 14.34218034456711
IRIDIUM 151             
1 43074U 17083E   26256.06623970  .00000033  00000+0  46306-5 0  9990
2 43074  86.3920 285.3223 0002175  91.3076 268.8369 14.34217860456737
IRIDIUM 134             
1 43075U 17083F   26256.03452718  .00000007  00000+0 -46200-5 0  9993
2 43075  86.3923 285.3448 0002132  90.6604 269.4836 14.34217553456692
IRIDIUM 137             
1 43076U 17083G   26256.04721176  .00000022  00000+0  76521-6 0  9998
2 43076  86.3924 285.4342 0001813  95.9622 264.1781 14.34217628456763
IRIDIUM 141             
1 43077U 17083H   26256.04086956 -.00000002  00000+0 -77362-5 0  9992
2 43077  86.3919 285.2623 0002189  93.1726 266.9720 14.34217593456764
IRIDIUM 153             
1 43078U 17083J   26256.06281429  .00000013  00000+0 -24782-5 0  9996
2 43078  86.3909 253.7141 0002443  89.4196 270.7280 14.34217357457876
IRIDIUM 131             
1 43079U 17083K   26256.09795198  .00000134  00000+0  40907-4 0  9992
2 43079  86.3925 285.4305 0002259  94.3489 265.7965 14.34218626456709
IRIDIUM 144             
1 43249U 18030A   26256.06915973  .00000080  00000+0  21439-4 0  9995
2 43249  86.3907 253.6384 0002188  88.1758 271.9688 14.34217811442737
IRIDIUM 149             
1 43250U 18030B   26256.07550186 -.00000023  00000+0 -15456-4 0  9990
2 43250  86.3909 253.6019 0002214  89.9642 270.1807 14.34217090442752
IRIDIUM 157             
1 43251U 18030C   26256.02475987 -.00000036  00000+0 -19844-4 0  9990
2 43251  86.3910 253.6782 0002175  88.9302 271.2143 14.34216592442728
IRIDIUM 140             
1 43252U 18030D   26256.04378628 -.00000033  00000+0 -18945-4 0  9995
2 43252  86.3911 253.6826 0002209  87.9485 272.1964 14.34217164442781
IRIDIUM 145             
1 43253U 18030E   26256.10087156 -.00000050  00000+0 -24960-4 0  9999
2 43253  86.3910 253.6308 0001962  84.2374 275.9045 14.34216816442726
IRIDIUM 146             
1 43254U 18030F   26256.08184076  .00000046  00000+0  93469-5 0  9990
2 43254  86.3907 253.6506 0002192  88.1975 271.9472 14.34217507442738
IRIDIUM 148             
1 43255U 18030G   26256.05013074 -.00000009  00000+0 -10293-4 0  9991
2 43255  86.3909 253.7085 0002128  91.5060 268.6379 14.34217172442766
IRIDIUM 142             
1 43256U 18030H   26256.01841583  .00000023  00000+0  12126-5 0  9994
2 43256  86.3905 253.6074 0002131  88.2490 271.8950 14.34217537442726
IRIDIUM 150             
1 43257U 18030J   26256.05647190  .00000023  00000+0  10522-5 0  9995
2 43257  86.3908 253.7107 0002249  87.5379 272.6075 14.34217760442754
IRIDIUM 143             
1 43258U 18030K   26256.03744249 -.00000016  00000+0 -12812-4 0  9994
2 43258  86.3916 253.8148 0002128  86.8642 273.2797 14.34217200442680
IRIDIUM 161             
1 43478U 18047C   26256.14982613  .00000268  00000+0  73742-4 0  9993
2 43478  86.4458  51.6584 0002261  95.9719 264.1740 14.43279724437824
IRIDIUM 152             
1 43479U 18047D   26255.94039595  .00000050  00000+0  10729-4 0  9998
2 43479  86.3933  51.6083 0002196  92.2567 267.8881 14.34218086435068
IRIDIUM 147             
1 43480U 18047E   26256.15604247  .00000000  00000+0 -69593-5 0  9996
2 43480  86.3933  51.5252 0001916  89.5095 270.6320 14.34217515435090
IRIDIUM 110             
1 43481U 18047F   26255.95308272  .00000078  00000+0  20654-4 0  9991
2 43481  86.3938  51.7039 0002322  97.0469 263.0991 14.34217861435052
IRIDIUM 162             
1 43482U 18047G   26256.14351468  .00000167  00000+0  43560-4 0  9999
2 43482  86.4459  51.5510 0002187  90.8689 269.2762 14.43279035437819
IRIDIUM 160             
1 43569U 18061A   26256.10822083  .00000078  00000+0  20947-4 0  9998
2 43569  86.4004  20.0251 0002153  95.2622 264.8819 14.34217328425978
IRIDIUM 166             
1 43570U 18061B   26255.92428497 -.00000056  00000+0 -26975-4 0  9995
2 43570  86.3997  20.0516 0001956  93.3152 266.8267 14.34216398425976
IRIDIUM 158             
1 43571U 18061C   26255.96234383  .00000086  00000+0  23514-4 0  9996
2 43571  86.4003  20.0454 0002182  92.7679 267.3766 14.34217250425941
IRIDIUM 165             
1 43572U 18061D   26255.70863946  .00000066  00000+0  16545-4 0  9996
2 43572  86.4005  20.1995 0002078  92.1510 267.9924 14.34217379425930
IRIDIUM 155             
1 43573U 18061E   26256.08919486  .00000018  00000+0 -78328-6 0  9997
2 43573  86.4000  19.9052 0002148  91.7334 268.4108 14.34217187425952
IRIDIUM 154             
1 43574U 18061F   26255.93062988  .00000025  00000+0  18847-5 0  9993
2 43574  86.4004  20.1095 0002046  92.8940 267.2489 14.34217193425989
IRIDIUM 163             
1 43575U 18061G   26255.91160225  .00000091  00000+0  25525-4 0  9998
2 43575  86.4002  20.0296 0002211  95.7689 264.3759 14.34217499425950
IRIDIUM 156             
1 43576U 18061H   26255.95599644  .00000087  00000+0  24183-4 0  9998
2 43576  86.4001  20.0188 0002166  90.0043 270.1401 14.34216351425956
IRIDIUM 164             
1 43577U 18061J   26256.07650904  .00000073  00000+0  19124-4 0  9994
2 43577  86.4002  20.0100 0001978  93.8802 266.2620 14.34217691426011
IRIDIUM 159             
1 43578U 18061K   26256.04479634  .00000014  00000+0 -19263-5 0  9992
2 43578  86.4002  19.9583 0002196  95.3048 264.8399 14.34217187425977
IRIDIUM 180             
1 43922U 19002A   26255.69545063  .00000157  00000+0  49025-4 0  9996
2 43922  86.3986 317.0386 0002215  97.0564 263.0884 14.34216972401534
IRIDIUM 176             
1 43923U 19002B   26256.17716081  .00000755  00000+0  11578-3 0  9996
2 43923  86.6101 316.7692 0002393  92.4355 267.7137 14.72244864412196
IRIDIUM 168             
1 43924U 19002C   26256.17748418  .00000087  00000+0  23983-4 0  9998
2 43924  86.3990 316.9172 0002229  95.6723 264.4727 14.34216453401588
IRIDIUM 173             
1 43925U 19002D   26255.74619051  .00000062  00000+0  14941-4 0  9998
2 43925  86.3983 316.9823 0002243  94.0367 266.1086 14.34217153401504
IRIDIUM 169             
1 43926U 19002E   26255.96207108  .00000223  00000+0  66398-4 0  9991
2 43926  86.4283 348.5141 0002432  85.4696 274.6780 14.38610229402840
IRIDIUM 172             
1 43927U 19002F   26255.73984969  .00000075  00000+0  19851-4 0  9991
2 43927  86.3985 316.9933 0002219  96.1161 264.0288 14.34216952401516
IRIDIUM 175             
1 43928U 19002G   26256.02728022  .00000101  00000+0  23913-4 0  9995
2 43928  86.4462 253.7853 0001425 332.2604  27.8521 14.43645266411656
IRIDIUM 171             
1 43929U 19002H   26256.13943147  .00000155  00000+0  48319-4 0  9991
2 43929  86.3992 317.1423 0002142  93.3437 266.8004 14.34216921401560
IRIDIUM 170             
1 43930U 19002J   26256.18335297  .00000494  00000+0  74492-4 0  9996
2 43930  86.6104 316.7678 0002483  94.6859 265.4641 14.72256536412200
IRIDIUM 167             
1 43931U 19002K   26256.13308774  .00000139  00000+0  42419-4 0  9992
2 43931  86.3985 316.8522 0002113  88.8729 271.2709 14.34216841401565
IRIDIUM 181             
1 56726U 23068S   26255.87746432  .00000211  00000+0  56668-4 0  9994
2 56726  86.4539  20.1237 0002113  97.6452 262.4989 14.43311370175086
IRIDIUM 177             
1 56727U 23068T   26256.03186032  .00000570  00000+0  77028-4 0  9999
2 56727  86.1925 287.1101 0002587  92.2490 267.9026 14.77162811179353
IRIDIUM 174             
1 56728U 23068U   26256.17099301  .00000521  00000+0  78704-4 0  9995
2 56728  86.6112 316.9293 0002704  93.1238 267.0288 14.72257176178962
IRIDIUM 178             
1 56729U 23068V   26255.66324341  .00000811  00000+0  10375-3 0  9995
2 56729  86.6598 348.8298 0002530  94.8817 265.2693 14.80035753179301
IRIDIUM 179             
1 56730U 23068W   26255.65788022  .00000772  00000+0  98577-4 0  9993
2 56730  86.6838 358.0651 0002366  90.9415 269.2078 14.80047585179301
