KUIPER-00008            
1 63724U 25088A   26275.24223659  .00004112  00000+0  56765-3 0  9999
2 63724  51.8974 254.6256 0000808  56.6495 303.4544 14.79961808 78639
KUIPER-00009            
1 63725U 25088B   26275.25920218  .00002361  00000+0  16934-3 0  9994
2 63725  51.9021 259.5530 0000929  24.4908 335.6111 15.08154448 78565
KUIPER-00010            
1 63726U 25088C   26275.21391282  .00000425  00000+0  84721-4 0  9993
2 63726  51.9015 249.8704 0000721  54.3800 305.7230 14.79928294 78315
KUIPER-00011            
1 63727U 25088D   26275.23958726  .00000477  00000+0  91506-4 0  9994
2 63727  51.9003 257.2976 0000729  44.4974 315.6046 14.79935041 78343
KUIPER-00012            
1 63728U 25088E   26275.22199191  .00001784  00000+0  26295-3 0  9991
2 63728  51.9014 242.3169 0000935  75.4289 284.6777 14.79929068 78503
KUIPER-00013            
1 63729U 25088F   26274.20774986  .00000381  00000+0  78931-4 0  9997
2 63729  51.9021 279.3225 0000570  88.5321 271.5706 14.79928552 78001
KUIPER-00014            
1 63730U 25088G   26275.25445883  .00000589  00000+0  10619-3 0  9994
2 63730  51.9030 274.6389 0000609  37.3583 322.7421 14.79932522 77977
KUIPER-00015            
1 63731U 25088H   26274.33202882 -.00001088  00000+0 -11372-3 0  9997
2 63731  51.8977 288.7592 0000706  51.6529 308.4496 14.79924406 78152
KUIPER-00016            
1 63732U 25088J   26274.30636381  .00001530  00000+0  22973-3 0  9999
2 63732  51.9003 281.3337 0000562  42.0029 318.0977 14.79927763 77798
KUIPER-00018            
1 63733U 25088K   26274.28337840  .00000352  00000+0  75144-4 0  9995
2 63733  51.9038 271.4870 0000518  45.0507 315.0497 14.79932337 77937
KUIPER-00019            
1 63734U 25088L   26274.24244079  .00000610  00000+0  10901-3 0  9999
2 63734  51.9008 270.4074 0000752  17.7863 342.3125 14.79955725 77949
KUIPER-00020            
1 63735U 25088M   26274.28068988  .00000529  00000+0  98419-4 0  9997
2 63735  51.9008 273.9897 0000416  47.5818 312.5179 14.79923745 78103
KUIPER-00021            
1 63736U 25088N   26275.25984958  .00000338  00000+0  73360-4 0  9996
2 63736  51.9006 269.6088 0000457  60.6405 299.4603 14.79929784 78080
KUIPER-00023            
1 63737U 25088P   26274.27797707  .00000522  00000+0  97494-4 0  9991
2 63737  51.9009 276.4411 0000575  55.5392 304.5625 14.79924504 78200
KUIPER-00024            
1 63738U 25088Q   26275.23682534 -.00027422  00000+0 -35663-2 0  9998
2 63738  51.9036 259.8084 0003822  86.3171 273.8228 14.80118960 78645
KUIPER-00025            
1 63739U 25088R   26275.26256821  .00000718  00000+0  12323-3 0  9994
2 63739  51.9033 267.1858 0000558  54.9857 305.1158 14.79925874 78402
KUIPER-00027            
1 63740U 25088S   26275.23418851 -.00002433  00000+0 -29019-3 0  9994
2 63740  51.9014 262.2665 0000943  77.2985 282.8082 14.79933812 78209
KUIPER-00028            
1 63741U 25088T   26274.19016875  .00000338  00000+0  73291-4 0  9991
2 63741  51.8995 264.3223 0000520  29.0734 331.0257 14.79930724 78499
KUIPER-00029            
1 63742U 25088U   26275.24665656  .00000602  00000+0  10799-3 0  9993
2 63742  51.9008 258.3492 0000856  24.0940 336.0062 14.79930773 78193
KUIPER-00030            
1 63743U 25088V   26274.27258725  .00000405  00000+0  82084-4 0  9999
2 63743  51.9015 281.4784 0000544  45.7521 314.3485 14.79931344 78072
KUIPER-00031            
1 63744U 25088W   26274.39006513  .00000614  00000+0  10959-3 0  9992
2 63744  51.9009 265.9805 0000615  40.3885 319.7123 14.79933519 78018
KUIPER-00032            
1 63745U 25088X   26274.73857835  .00009431  00000+0  22050-3 0  9993
2 63745  51.8655 103.4128 0004993 132.1525 227.9888 15.42864000 81306
KUIPER-00033            
1 63746U 25088Y   26274.35771147  .00001575  00000+0  23556-3 0  9996
2 63746  51.9016 296.1230 0000445  36.3039 323.7954 14.79930568 78077
KUIPER-00034            
1 63747U 25088Z   26274.66827090  .00000386  00000+0  79657-4 0  9993
2 63747  51.9014 257.2872 0000635  62.0043 298.0983 14.79933029 78327
KUIPER-00035            
1 63748U 25088AA  26274.30365632  .00000646  00000+0  11372-3 0  9992
2 63748  51.9003 283.8620 0000482  50.0374 310.0630 14.79933329 77973
KUIPER-00037            
1 63749U 25088AB  26274.29658243  .00000449  00000+0  87867-4 0  9998
2 63749  51.9009 282.7552 0000507  50.1314 309.9693 14.79929929 78771
KUIPER-00038            
1 63750U 25088AC  26275.23148979 -.00002887  00000+0 -34978-3 0  9999
2 63750  51.9006 264.7930 0002091  82.0708 278.0492 14.79938274 78104
KUIPER-00039            
1 64500U 25134A   26274.66382517  .00000237  00000+0  60079-4 0  9996
2 64500  51.9034  42.3004 0000232 112.3246 247.7742 14.79930354 70575
KUIPER-00040            
1 64501U 25134B   26274.61928467  .00001769  00000+0  26098-3 0  9995
2 64501  51.8995  52.5532 0000605 132.6066 227.4947 14.79932698 70428
KUIPER-00041            
1 64502U 25134C   26274.58280525  .00001947  00000+0  28435-3 0  9993
2 64502  51.9017  55.1082 0000434 127.1733 232.9269 14.79934906 70381
KUIPER-00042            
1 64503U 25134D   26274.68949681  .00001888  00000+0  27652-3 0  9994
2 64503  51.9006  49.6136 0000456 120.8320 239.2688 14.79933521 70471
KUIPER-00043            
1 64504U 25134E   26274.63005782  .00001810  00000+0  26634-3 0  9999
2 64504  51.9041  42.3948 0000401 126.2793 233.8206 14.79930886 70574
KUIPER-00044            
1 64505U 25134F   26274.68409819  .00000540  00000+0  99819-4 0  9999
2 64505  51.9005  54.6407 0000580 135.0209 225.0801 14.79930940 70406
KUIPER-00046            
1 64506U 25134G   26274.58549191  .00000070  00000+0  38228-4 0  9992
2 64506  51.8997  52.5473 0000523 109.0328 251.0691 14.79927652 70420
KUIPER-00047            
1 64507U 25134H   26275.25669446  .00001928  00000+0  28191-3 0  9994
2 64507  51.9021  22.1101 0000363 115.7732 244.3268 14.79929159 70908
KUIPER-00048            
1 64508U 25134J   26274.68268603  .00001824  00000+0  26810-3 0  9992
2 64508  51.9005  24.6592 0000321 115.6637 244.4358 14.79936764 70821
KUIPER-00049            
1 64509U 25134K   26275.24320320  .00001717  00000+0  25423-3 0  9991
2 64509  51.9024  34.6554 0000515 107.5809 252.5210 14.79926108 70736
KUIPER-00050            
1 64510U 25134L   26274.58670431 -.00003892  00000+0 -48172-3 0  9994
2 64510  51.9026  20.0775 0000397  88.8094 271.2914 14.79940431 70889
KUIPER-00051            
1 64511U 25134M   26274.61142920  .00001830  00000+0  26894-3 0  9991
2 64511  51.9032  36.1472 0000420 143.9608 216.1383 14.79948072 70652
KUIPER-00053            
1 64513U 25134P   26274.53755345  .00001532  00000+0  22108-3 0  9998
2 64513  51.9033  30.7416 0002253 162.3814 197.7228 14.81667526 70728
KUIPER-00054            
1 64514U 25134Q   26274.61246271  .00001962  00000+0  28625-3 0  9998
2 64514  51.9009  27.4445 0000313 135.7126 224.3862 14.79932995 70770
KUIPER-00055            
1 64515U 25134R   26274.49483291  .00004910  00000+0  67244-3 0  9996
2 64515  51.9060 340.6215 0000695  96.3209 263.7832 14.79945604 71428
KUIPER-00056            
1 64516U 25134S   26274.64084995  .00001627  00000+0  24234-3 0  9996
2 64516  51.9035  32.4403 0000333 141.0752 219.0235 14.79934159 70711
KUIPER-00057            
1 64517U 25134T   26274.56521000  .00001574  00000+0  23541-3 0  9992
2 64517  51.9010  40.1861 0000432 119.4866 240.6139 14.79938782 70599
KUIPER-00058            
1 64518U 25134U   26274.60437704  .00001823  00000+0  26804-3 0  9997
2 64518  51.9034  34.9938 0000393 119.3445 240.7556 14.79929772 70672
KUIPER-00059            
1 64519U 25134V   26274.54224500  .00001783  00000+0  26288-3 0  9990
2 64519  51.9024  30.3032 0000241  79.9254 280.1736 14.79930662 70733
KUIPER-00060            
1 64520U 25134W   26274.57602006  .00001803  00000+0  26540-3 0  9990
2 64520  51.9044  30.2354 0000381 102.1565 257.9441 14.79929761 70724
KUIPER-00061            
1 64521U 25134X   26274.60167895  .00000151  00000+0  48806-4 0  9992
2 64521  51.9035  37.5606 0000596 132.1428 227.9585 14.79922693 70626
KUIPER-00062            
1 64522U 25134Y   26274.39638447  .00000696  00000+0  12027-3 0  9994
2 64522  51.8986  40.9078 0000702 135.7499 224.3520 14.79932054 70574
KUIPER-00063            
1 64523U 25134Z   26274.65843582  .00000249  00000+0  61681-4 0  9997
2 64523  51.9040  47.3556 0000485 111.4833 248.6181 14.79929668 70502
KUIPER-00064            
1 64524U 25134AA  26274.66112252  .00000243  00000+0  60864-4 0  9998
2 64524  51.9046  44.7698 0000680 130.5904 229.5118 14.79929946 70546
KUIPER-00065            
1 64525U 25134AB  26274.65574690  .00001774  00000+0  26167-3 0  9993
2 64525  51.9046  49.9695 0000565 120.9186 239.1832 14.79934932 70459
KUIPER-00066            
1 64526U 25134AC  26274.48677150  .00001756  00000+0  25933-3 0  9990
2 64526  51.9032 347.9822 0000343  80.5462 279.5539 14.79934298 71324
KUIPER-00069            
1 64816U 25151A   26275.22035486 -.00000057  00000+0  21558-4 0  9998
2 64816  51.9019  87.3765 0000652 116.0813 244.0216 14.79930552 67345
KUIPER-00070            
1 64817U 25151B   26274.75444629  .00001401  00000+0  21284-3 0  9997
2 64817  51.8999 114.3336 0001160 110.2163 249.8924 14.79926599 66935
KUIPER-00071            
1 64818U 25151C   26275.22985275  .00001438  00000+0  21762-3 0  9999
2 64818  51.9012 109.7806 0000643 110.3836 249.7195 14.79927999 65850
KUIPER-00072            
1 64819U 25151D   26275.21765418  .00001682  00000+0  24964-3 0  9992
2 64819  51.8978  89.7514 0000808 110.4998 249.6051 14.79932362 66139
KUIPER-00073            
1 64820U 25151E   26274.85844457  .00001420  00000+0  21529-3 0  9998
2 64820  51.8999 111.3975 0001191 109.0537 251.0555 14.79931084 66985
KUIPER-00075            
1 64822U 25151G   26274.34582537  .00008355  00000+0  22366-3 0  9996
2 64822  51.8654 299.4099 0002651 291.5452  68.5252 15.38890098 68145
KUIPER-00076            
1 64823U 25151H   26274.73415497  .00001401  00000+0  21274-3 0  9992
2 64823  51.9009 101.9727 0000911 119.0440 241.0614 14.79940048 65922
KUIPER-00077            
1 64824U 25151J   26274.72877876  .00001543  00000+0  23145-3 0  9991
2 64824  51.9006 107.0198 0001060 113.4687 246.6387 14.79929809 65858
KUIPER-00078            
1 64825U 25151K   26274.83275973  .00001542  00000+0  23127-3 0  9993
2 64825  51.9000 104.0291 0001000 117.0016 243.1048 14.79928359 65905
KUIPER-00079            
1 64826U 25151L   26274.72607447  .00001534  00000+0  23026-3 0  9996
2 64826  51.8992 109.4545 0001115 108.8126 251.2957 14.79928799 67014
KUIPER-00080            
1 64827U 25151M   26275.23254376  .00001395  00000+0  21197-3 0  9995
2 64827  51.9002 107.2280 0000713 108.9153 251.1887 14.79931731 65899
KUIPER-00082            
1 64828U 25151N   26275.21226763  .00000300  00000+0  68343-4 0  9993
2 64828  51.9006  94.8818 0000953 115.1954 244.9107 14.79928894 66068
KUIPER-00083            
1 64829U 25151P   26274.73146722  .00000207  00000+0  56154-4 0  9999
2 64829  51.9002 104.4879 0001249 115.5401 244.5690 14.79930137 67078
KUIPER-00084            
1 64830U 25151Q   26274.85573808  .00001515  00000+0  22775-3 0  9997
2 64830  51.9003 113.9256 0000713 113.3435 246.7602 14.79926637 65764
KUIPER-00085            
1 64831U 25151R   26274.70579964  .00001548  00000+0  23194-3 0  9993
2 64831  51.9023  97.1811 0000785 119.3950 240.7091 14.79935747 65986
KUIPER-00086            
1 64832U 25151S   26275.23524581  .00000099  00000+0  41958-4 0  9997
2 64832  51.8994 104.7709 0001015 115.5028 244.6039 14.79929733 65922
KUIPER-00087            
1 64833U 25151T   26275.18659608  .00001528  00000+0  22935-3 0  9992
2 64833  51.8993  87.4381 0000669 114.2361 245.8672 14.79930170 66154
KUIPER-00089            
1 64834U 25151U   26274.70848701  .00001652  00000+0  24566-3 0  9994
2 64834  51.9015  94.5779 0000607 108.6690 251.4339 14.79930078 66021
KUIPER-00090            
1 64835U 25151V   26274.78410862  .00001691  00000+0  25079-3 0  9999
2 64835  51.8992  86.7373 0000815 131.4308 228.6725 14.79936147 66139
KUIPER-00091            
1 64836U 25151W   26275.18388841  .00001429  00000+0  21641-3 0  9996
2 64836  51.9013  90.0000 0000830 121.0773 239.0271 14.79936068 66121
KUIPER-00092            
1 64837U 25151X   26274.70310594  .00001520  00000+0  22837-3 0  9994
2 64837  51.9002  99.6139 0000784 117.4388 242.6654 14.79930614 67168
KUIPER-00093            
1 64838U 25151Y   26274.83546287  .00001394  00000+0  21182-3 0  9990
2 64838  51.9004 101.4982 0000863 118.1666 241.9384 14.79929936 65934
KUIPER-00094            
1 64839U 25151Z   26274.61388429  .00000387  00000+0  79766-4 0  9992
2 64839  51.9063  57.5954 0001018 142.1685 217.9349 14.79931045 66536
KUIPER-00081            
1 65132U 25171A   26274.41785045  .00001515  00000+0  22768-3 0  9997
2 65132  51.9012 318.3435 0000357  57.1892 302.9105 14.79928878 63508
KUIPER-00088            
1 65133U 25171B   26274.46650015  .00000249  00000+0  61676-4 0  9996
2 65133  51.9007 335.6271 0000319  79.9758 280.1240 14.79930213 63260
KUIPER-00095            
1 65134U 25171C   26274.42054229  .00000463  00000+0  89766-4 0  9996
2 65134  51.9004 315.8626 0000853  80.1426 279.9633 14.79933404 63538
KUIPER-00096            
1 65135U 25171D   26274.37328546  .00001565  00000+0  23422-3 0  9997
2 65135  51.9011 328.5331 0000267  60.3448 299.7541 14.79937718 63354
KUIPER-00097            
1 65136U 25171E   26274.43815053  .00001716  00000+0  25408-3 0  9993
2 65136  51.9029 330.9187 0000442  87.1969 272.9044 14.79928840 63313
KUIPER-00098            
1 65137U 25171F   26274.43543067  .00000179  00000+0  52514-4 0  9998
2 65137  51.9027 333.2892 0000561  76.7858 283.3167 14.79927806 62631
KUIPER-00099            
1 65138U 25171G   26274.41246508  .00001637  00000+0  24370-3 0  9995
2 65138  51.9032 323.4077 0000288  61.3701 298.7290 14.79930738 63420
KUIPER-00100            
1 65139U 25171H   26274.38139332  .00001605  00000+0  23948-3 0  9993
2 65139  51.9032 321.0095 0000326  67.6440 292.4557 14.79926336 63456
KUIPER-00102            
1 65140U 25171J   26274.44621722  .00001646  00000+0  24481-3 0  9999
2 65140  51.8999 323.1864 0000223  50.2113 309.8869 14.79928425 63424
KUIPER-00103            
1 65141U 25171K   26275.20393938 -.00000063  00000+0  20694-4 0  9996
2 65141  51.9011 337.3401 0000287  69.1655 290.9339 14.79928891 63299
KUIPER-00104            
1 65142U 25171L   26274.40706719  .00001592  00000+0  23778-3 0  9995
2 65142  51.9035 328.3858 0000348  78.4980 281.6021 14.79928148 63351
KUIPER-00105            
1 65143U 25171M   26274.43275360  .00000133  00000+0  46472-4 0  9999
2 65143  51.9020 335.8631 0000429  76.8947 283.2063 14.79927572 63256
KUIPER-00106            
1 65144U 25171N   26274.41347234  .00001533  00000+0  23011-3 0  9996
2 65144  51.9018 314.7169 0000360  64.5512 295.5487 14.79929053 63557
KUIPER-00107            
1 65145U 25171P   26274.38409439  .00001507  00000+0  22664-3 0  9993
2 65145  51.9021 318.5202 0000459  84.4016 275.6999 14.79926023 63495
KUIPER-00108            
1 65146U 25171Q   26274.47190254  .00001597  00000+0  23836-3 0  9997
2 65146  51.9039 330.6812 0000311  53.6637 306.4354 14.79935931 63330
KUIPER-00109            
1 65147U 25171R   26274.44351946  .00001591  00000+0  23767-3 0  9999
2 65147  51.9034 325.7485 0000291  54.4735 305.6255 14.79936800 63395
KUIPER-00110            
1 65148U 25171S   26275.13910905  .00000625  00000+0  11095-3 0  9991
2 65148  51.9023 335.2160 0000294  75.0515 285.0480 14.79931865 63317
KUIPER-00111            
1 65149U 25171T   26274.49213793  .00005229  00000+0  71397-3 0  9997
2 65149  51.8990 342.9336 0000299  69.4484 290.6511 14.79954283 63155
KUIPER-00112            
1 65150U 25171U   26274.40976267  .00001599  00000+0  23876-3 0  9997
2 65150  51.9026 325.9404 0000268  70.3533 289.7458 14.79930882 63380
KUIPER-00114            
1 65151U 25171V   26274.48948365  .00001599  00000+0  23876-3 0  9994
2 65151  51.9002 345.5425 0000271  48.6507 311.4479 14.79929459 63114
KUIPER-00115            
1 65152U 25171W   26274.43004128  .00001625  00000+0  24203-3 0  9995
2 65152  51.9032 338.3177 0000264  72.3452 287.7539 14.79937016 63218
KUIPER-00116            
1 65153U 25171X   26274.45841602  .00001658  00000+0  24645-3 0  9990
2 65153  51.9021 343.2225 0000328  78.3241 281.7759 14.79937227 63143
KUIPER-00118            
1 65154U 25171Y   26274.38817448 -.00000153  00000+0  88639-5 0  9999
2 65154  51.9016 345.9796 0000307  69.0968 291.0027 14.79930860 63104
KUIPER-00119            
1 65155U 25171Z   26274.46921009 -.00000177  00000+0  57289-5 0  9991
2 65155  51.9044 333.2278 0000327  75.7172 284.3827 14.79926880 63283
KUIPER-00120            
1 65762U 25217A   26274.57095761  .00000917  00000+0  14933-3 0  9993
2 65762  51.8983 222.6388 0000824  69.6406 290.4645 14.79934071 55227
KUIPER-00132            
1 65763U 25217B   26274.87737299  .00018057  00000+0  45890-3 0  9996
2 65763  51.8521  80.2168 0005411 342.4062  17.6737 15.39679053 57223
KUIPER-00133            
1 65764U 25217C   26274.13203861  .00000683  00000+0  11863-3 0  9998
2 65764  51.9021 224.7234 0000818  81.4147 278.6908 14.79929344 55163
KUIPER-00139            
1 65765U 25217D   26275.18002677  .00001727  00000+0  25551-3 0  9996
2 65765  51.8982 187.5079 0001083  82.8512 277.2573 14.79933930 55774
KUIPER-00142            
1 65766U 25217E   26274.52231442  .00001968  00000+0  28703-3 0  9997
2 65766  51.8999 205.3846 0000860  79.6701 280.4358 14.79935778 55465
KUIPER-00145            
1 65767U 25217F   26274.51962405  .00001957  00000+0  28565-3 0  9991
2 65767  51.9002 207.9233 0000970  74.0276 286.0793 14.79932404 55422
KUIPER-00147            
1 65768U 25217G   26274.55062562  .00001890  00000+0  27710-3 0  9998
2 65768  51.8983 210.2573 0001022  69.7729 290.3343 14.79904914 55397
KUIPER-00148            
1 65769U 25217H   26275.17733340  .00001806  00000+0  26583-3 0  9991
2 65769  51.9052 190.0453 0000787  97.9529 262.1522 14.79934831 55731
KUIPER-00150            
1 65770U 25217J   26274.74249602  .00001647  00000+0  24500-3 0  9998
2 65770  51.9012 219.4611 0000781  80.1099 279.9951 14.79929021 55288
KUIPER-00151            
1 65771U 25217K   26274.54796984  .00001583  00000+0  23658-3 0  9999
2 65771  51.9031 212.8188 0000916  82.7471 277.3595 14.79937285 55364
KUIPER-00152            
1 65772U 25217L   26275.13547740  .00001853  00000+0  27205-3 0  9992
2 65772  51.9011 197.7002 0000937  79.0415 281.0653 14.79930068 55627
KUIPER-00153            
1 65773U 25217M   26274.93828933  .00000291  00000+0  67245-4 0  9990
2 65773  51.9027 193.6615 0001022  97.2334 262.8745 14.79928745 55660
KUIPER-00155            
1 65774U 25217N   26275.10300954 -.00000052  00000+0  22215-4 0  9993
2 65774  51.9023 165.3973 0000975  98.7691 261.3382 14.79926653 56071
KUIPER-00156            
1 65775U 25217P   26275.17464997  .00000202  00000+0  55479-4 0  9993
2 65775  51.9036 192.6011 0000958  87.2737 272.8335 14.79927620 55694
KUIPER-00165            
1 65778U 25217S   26274.28596197  .00000147  00000+0  48288-4 0  9993
2 65778  51.8989 206.4592 0000844  96.1143 263.9916 14.79927396 55422
KUIPER-00166            
1 65779U 25217T   26275.14356659  .00001829  00000+0  26882-3 0  9990
2 65779  51.9028 190.2318 0000899  95.2648 264.8417 14.79937269 55723
KUIPER-00167            
1 65780U 25217U   26274.54527331  .00000191  00000+0  54075-4 0  9999
2 65780  51.8956 215.1864 0001066  70.6675 289.4403 14.79928343 55328
KUIPER-00168            
1 65781U 25217V   26274.15898496  .00000380  00000+0  78826-4 0  9990
2 65781  51.8991 199.5267 0001088  84.2170 275.8917 14.79925720 55511
KUIPER-00169            
1 65782U 25217W   26274.49124912  .00001909  00000+0  27939-3 0  9999
2 65782  51.9011 203.0712 0000720  95.1136 264.9908 14.79927777 55497
KUIPER-00170            
1 65783U 25217X   26274.08067394  .00001716  00000+0  25408-3 0  9990
2 65783  51.8982 209.8264 0000796  79.5155 280.5897 14.79927252 55365
KUIPER-00172            
1 65785U 25217Z   26275.14626578  .00000085  00000+0  40136-4 0  9999
2 65785  51.9002 187.6473 0001302  73.5701 286.5404 14.79929353 55769
KUIPER-00173            
1 65786U 25217AA  26274.93018732  .00001894  00000+0  27741-3 0  9998
2 65786  51.9013 201.1193 0000958  71.9821 288.1246 14.79931569 55555
KUIPER-00174            
1 65787U 25217AB  26274.93558668 -.00000060  00000+0  21202-4 0  9998
2 65787  51.9013 196.1643 0001012  86.3892 273.7186 14.79929881 55624
KUIPER-00176            
1 65788U 25217AC  26274.10904291  .00001717  00000+0  25413-3 0  9991
2 65788  51.8998 214.7288 0000738  79.6477 280.4569 14.79932455 55290
KUIPER-00101            
1 65947U 25228A   26275.06650282  .00001665  00000+0  24739-3 0  9996
2 65947  51.8979 167.9387 0000944  78.0526 282.0542 14.79928936 53793
KUIPER-00113            
1 65948U 25228B   26275.10569001 -.00000392  00000+0 -22373-4 0  9991
2 65948  51.8979 162.7881 0001175  99.2445 260.8651 14.79926521 53869
KUIPER-00117            
1 65949U 25228C   26274.93416860  .00001718  00000+0  25436-3 0  9999
2 65949  51.8976 166.0457 0001044  84.9943 275.1139 14.79933471 53808
KUIPER-00121            
1 65950U 25228D   26274.90580293  .00001633  00000+0  24318-3 0  9994
2 65950  51.9001 161.1935 0000979  80.8072 279.3001 14.79928121 53878
KUIPER-00122            
1 65951U 25228E   26274.89500824  .00001700  00000+0  25192-3 0  9991
2 65951  51.8999 171.2108 0001032  91.4953 268.6128 14.79938165 53730
KUIPER-00123            
1 65952U 25228F   26275.06384237  .00001710  00000+0  25330-3 0  9995
2 65952  51.8982 170.4715 0000988  91.7087 268.3988 14.79927479 53757
KUIPER-00124            
1 65953U 25228G   26274.93686011  .00001637  00000+0  24364-3 0  9990
2 65953  51.8993 163.5234 0001218  87.7901 272.3201 14.79937187 53846
KUIPER-00125            
1 65954U 25228H   26275.02057484  .00000390  00000+0  80190-4 0  9993
2 65954  51.8987 148.2108 0001295 102.6444 257.4664 14.79921567 54061
KUIPER-00126            
1 65955U 25228J   26275.10029607  .00001668  00000+0  24776-3 0  9995
2 65955  51.8997 167.8348 0000927  95.8741 264.2328 14.79938889 53797
KUIPER-00127            
1 65956U 25228K   26275.09150473  .00000401  00000+0  81623-4 0  9999
2 65956  51.9013 160.3582 0001189  87.3452 272.7646 14.79930467 53906
KUIPER-00128            
1 65957U 25228L   26274.93957212  .00001591  00000+0  23759-3 0  9994
2 65957  51.9015 161.0951 0000935  96.9684 263.1385 14.79935873 53874
KUIPER-00129            
1 65958U 25228M   26274.91119835  .00000755  00000+0  12803-3 0  9993
2 65958  51.9001 156.1998 0001044  81.1081 279.0000 14.79924669 53944
KUIPER-00130            
1 65959U 25228N   26274.87474299  .00001531  00000+0  22986-3 0  9993
2 65959  51.9029 158.9102 0000963  99.9196 260.1875 14.79933173 44193
KUIPER-00134            
1 65960U 25228P   26274.70712717  .00012798  00000+0  34642-3 0  9996
2 65960  51.8709  40.3962 0004598 323.5656  36.5017 15.38032788 55533
KUIPER-00135            
1 65961U 25228Q   26275.04356390  .00001636  00000+0  24348-3 0  9997
2 65961  51.9015 158.2131 0000899 105.3976 254.7086 14.79938879 53924
KUIPER-00136            
1 65962U 25228R   26274.87742539  .00000075  00000+0  38834-4 0  9994
2 65962  51.9003 156.3916 0001243  92.5684 267.5420 14.79923668 53934
KUIPER-00137            
1 65963U 25228S   26274.88013614 -.00000506  00000+0 -37292-4 0  9999
2 65963  51.9041 153.8951 0001294  92.3115 267.7996 14.79933158 53970
KUIPER-00138            
1 65964U 25228T   26274.84906076  .00001497  00000+0  22537-3 0  9992
2 65964  51.8983 151.4234 0001044  98.5472 261.5609 14.79931277 54008
KUIPER-00140            
1 65965U 25228U   26275.11648634  .00001588  00000+0  23723-3 0  9996
2 65965  51.9000 152.8348 0001142  99.9066 260.2025 14.79936836 54008
KUIPER-00141            
1 65966U 25228V   26274.85177162  .00000167  00000+0  50890-4 0  9998
2 65966  51.9021 149.0893 0000818 104.9113 255.1940 14.79930857 54033
KUIPER-00146            
1 65967U 25228W   26274.88281431  .00001462  00000+0  22069-3 0  9992
2 65967  51.9032 151.4635 0001197  96.4169 263.6930 14.79945650 54001
KUIPER-00149            
1 65968U 25228X   26274.85445230 -.00000051  00000+0  22391-4 0  9992
2 65968  51.9010 146.4601 0001052  96.0954 264.0129 14.79930914 54072
KUIPER-00154            
1 65969U 25228Y   26275.09350240  .00000878  00000+0  14424-3 0  9999
2 65969  51.9002 142.8840 0000906 110.7553 249.3506 14.79928166 54144
KUIPER-00157            
1 65970U 25228Z   26274.94189106 -.00006145  00000+0 -85927-3 0  9996
2 65970  51.9015 146.0696 0000745  86.2518 273.8528 14.75763623 54084
KUIPER-00144            
1 67133U 25301A   26274.93969293  .00001809  00000+0  26630-3 0  9999
2 67133  51.9022 223.5894 0000940  71.4928 288.6136 14.79930769 44410
KUIPER-00164            
1 67134U 25301B   26274.31841557  .00003330  00000+0  46534-3 0  9990
2 67134  51.9037 238.8578 0000777  52.9283 307.1750 14.79954623 44325
KUIPER-00175            
1 67135U 25301C   26274.16848944  .00004736  00000+0  65016-3 0  9998
2 67135  51.8987 221.9488 0001029  58.2587 301.8476 14.79914513 44442
KUIPER-00179            
1 67136U 25301D   26274.59124969  .00000294  00000+0  67580-4 0  9994
2 67136  51.8981 235.0770 0000806  67.1434 292.9613 14.79930328 44400
KUIPER-00181            
1 67137U 25301E   26275.18554514  .00001670  00000+0  24805-3 0  9995
2 67137  51.9034 245.0196 0000809  52.4664 307.6372 14.79932521 44299
KUIPER-00183            
1 67138U 25301F   26274.98154311 -.00001433  00000+0 -15896-3 0  9993
2 67138  51.9014 215.9279 0001040  60.0042 300.1024 14.79931535 44699
KUIPER-00184            
1 67139U 25301G   26274.96805709  .00000956  00000+0  15435-3 0  9992
2 67139  51.8984 228.4222 0000853  76.8814 283.2244 14.79929176 44621
KUIPER-00186            
1 67140U 25301H   26274.20634838  .00000126  00000+0  45578-4 0  9995
2 67140  51.9027 249.3592 0000719  59.4053 300.6981 14.79927494 43999
KUIPER-00187            
1 67141U 25301J   26275.21658429  .00001766  00000+0  26055-3 0  9999
2 67141  51.9028 247.4200 0000860  84.6442 275.4618 14.79931826 44109
KUIPER-00188            
1 67142U 25301K   26274.54261849  .00001843  00000+0  27072-3 0  9997
2 67142  51.9035 217.9851 0000920  64.0018 296.1039 14.79930472 44451
KUIPER-00191            
1 67143U 25301L   26275.19093726  .00000230  00000+0  59134-4 0  9991
2 67143  51.9003 240.0041 0000837  61.6473 298.4574 14.79931352 44233
KUIPER-00196            
1 67144U 25301M   26274.49391735 -.00006898  00000+0 -87620-3 0  9993
2 67144  51.8989 200.5335 0001111  79.9296 280.1791 14.79956521 44698
KUIPER-00204            
1 67145U 25301N   26274.84916221  .00002392  00000+0  34267-3 0  9998
2 67145  51.9007 214.0043 0000674  70.3061 289.7974 14.79937032 44655
KUIPER-00210            
1 67146U 25301P   26274.95428206  .00001859  00000+0  27246-3 0  9998
2 67146  51.9000 240.9919 0000947  47.3418 312.7624 14.79987888 44341
KUIPER-00221            
1 67147U 25301Q   26275.18283712  .00001628  00000+0  24252-3 0  9994
2 67147  51.9017 247.5232 0000649  86.9431 273.1606 14.79935491 44101
KUIPER-00232            
1 67148U 25301R   26274.15231207  .00001657  00000+0  24637-3 0  9992
2 67148  51.8993 237.0867 0000719  65.7635 294.3403 14.79932838 44158
KUIPER-00241            
1 67149U 25301S   26275.18823932  .00001742  00000+0  25744-3 0  9994
2 67149  51.9031 242.5350 0000971  61.6998 298.4063 14.79934208 44507
KUIPER-00245            
1 67150U 25301T   26274.97756344  .00000595  00000+0  10712-3 0  9998
2 67150  51.9020 250.9746 0000742  78.4294 281.6752 14.79931913 44037
KUIPER-00246            
1 67151U 25301U   26274.21714134 -.00000269  00000+0 -62663-5 0  9991
2 67151  51.9008 239.2684 0000813  59.9761 300.1282 14.79928761 44152
KUIPER-00247            
1 67152U 25301V   26275.17333542  .00001775  00000+0  26176-3 0  9996
2 67152  51.8956 224.9805 0000696  72.7546 287.3493 14.79936024 44413
KUIPER-00248            
1 67153U 25301W   26274.51693486  .00001123  00000+0  17636-3 0  9998
2 67153  51.8986 210.5327 0000871  76.6195 283.4864 14.79930998 44722
KUIPER-00249            
1 67154U 25301X   26274.56827374  .00001878  00000+0  27527-3 0  9996
2 67154  51.9000 225.2403 0000896  58.6146 301.4904 14.79933267 44359
KUIPER-00250            
1 67155U 25301Y   26275.19362832  .00001803  00000+0  26545-3 0  9997
2 67155  51.8994 237.4261 0000912  66.2938 293.8120 14.79931553 44272
KUIPER-00251            
1 67156U 25301Z   26274.93700007  .00001778  00000+0  26222-3 0  9992
2 67156  51.9011 226.1408 0000793  64.9466 295.1579 14.79929834 44564
KUIPER-00252            
1 67157U 25301AA  26274.93429246  .00000664  00000+0  11612-3 0  9996
2 67157  51.9012 228.6036 0000817  79.0031 281.1023 14.79931345 44347
KUIPER-00261            
1 67158U 25301AB  26274.61962722  .00001784  00000+0  26299-3 0  9994
2 67158  51.9023 240.0611 0000612  64.7418 295.3608 14.79931332 44151
KUIPER-00265            
1 67159U 25301AC  26275.24498829  .00001734  00000+0  25646-3 0  9997
2 67159  51.9026 252.2731 0000645  67.3908 292.7123 14.79933059 44074
KUIPER-00159            
1 67764U 26030A   26274.44253150  .00001699  00000+0  25166-3 0  9993
2 67764  51.9025 334.5586 0001432 350.8512   9.2424 14.79961205 36321
KUIPER-00160            
1 67765U 26030B   26274.36990815  .00001507  00000+0  22663-3 0  9998
2 67765  51.8992 316.1278 0000269 133.0701 227.0284 14.79932702 36577
KUIPER-00177            
1 67766U 26030C   26274.58410144  .00001785  00000+0  26313-3 0  9999
2 67766  51.9022  22.6623 0000518 107.4350 252.6669 14.79930615 35669
KUIPER-00178            
1 67767U 26030D   26274.61785819  .00001883  00000+0  27585-3 0  9999
2 67767  51.9029  22.4941 0000320 106.9946 253.1051 14.79938597 35673
KUIPER-00180            
1 67768U 26030E   26274.28561391  .00001835  00000+0  26961-3 0  9994
2 67768  51.9014  18.9531 0000150 116.8043 243.2935 14.79938142 35691
KUIPER-00197            
1 67769U 26030F   26274.71236056  .00000241  00000+0  60596-4 0  9993
2 67769  51.9011 357.0846 0000304 105.1440 254.9556 14.79927804 36038
KUIPER-00198            
1 67770U 26030G   26274.53005415  .00000186  00000+0  53334-4 0  9998
2 67770  51.9009  10.3623 0000256 117.6781 242.4207 14.79927340 35838
KUIPER-00199            
1 67771U 26030H   26275.25003472 -.00078109  00000+0 -79359-2 0  9995
2 67771  51.8957 306.3903 0012510  81.8418 334.9944 14.90675734  5577
KUIPER-00200            
1 67772U 26030J   26274.47870814  .00001852  00000+0  27193-3 0  9990
2 67772  51.9007 355.6341 0000292  95.1221 264.9775 14.79927773 36031
KUIPER-00203            
1 67773U 26030K   26274.57871527  .00000529  00000+0  98412-4 0  9997
2 67773  51.9083  27.7748 0000431 124.7953 235.3050 14.79932253 35597
KUIPER-00205            
1 67774U 26030L   26274.48139942  .00000179  00000+0  52535-4 0  9993
2 67774  51.9029 353.0912 0000351  83.1939 276.9063 14.79927388 36071
KUIPER-00208            
1 67775U 26030M   26274.55302750  .00000320  00000+0  70916-4 0  9992
2 67775  51.9009  20.2665 0000591 160.6769 199.4216 14.79931197 35695
KUIPER-00209            
1 67776U 26030N   26274.79208821  .00002000  00000+0  29128-3 0  9998
2 67776  51.9018  16.8126 0000187 130.0410 230.0569 14.79932928 35768
KUIPER-00213            
1 67777U 26030P   26275.23372583  .00001229  00000+0  19015-3 0  9992
2 67777  51.8987  12.3111 0000304 109.4127 250.6868 14.79926561 35861
KUIPER-00214            
1 67778U 26030Q   26274.45983362  .00001845  00000+0  27092-3 0  9997
2 67778  51.9025  13.2760 0000320  97.2194 262.8805 14.79933697 35787
KUIPER-00215            
1 67779U 26030R   26274.30447733  .00000188  00000+0  53718-4 0  9993
2 67779  51.9015   1.3159 0000228  95.3637 264.7351 14.79927510 35947
KUIPER-00218            
1 67780U 26030S   26274.59218657  .00001094  00000+0  17255-3 0  9999
2 67780  51.9007  15.0814 0000303 100.9707 259.1290 14.79927643 35773
KUIPER-00220            
1 67781U 26030T   26274.48409571  .00001858  00000+0  27263-3 0  9993
2 67781  51.8973 350.5802 0000303  81.5274 278.5722 14.79926657 36109
KUIPER-00222            
1 67782U 26030U   26274.56382322  .00001837  00000+0  26980-3 0  9999
2 67782  51.9009  10.3684 0000265 139.5056 220.5926 14.79938786 35837
KUIPER-00223            
1 67783U 26030V   26274.53812029 -.00002081  00000+0 -24403-3 0  9991
2 67783  51.9056   2.7961 0000214  61.8892 298.2092 14.79935228 35948
KUIPER-00225            
1 67784U 26030W   26274.53276310  .00000022  00000+0  31883-4 0  9991
2 67784  51.9002   7.9637 0000379  91.9644 268.1362 14.79927121 35868
KUIPER-00226            
1 67785U 26030X   26274.51244664 -.00001833  00000+0 -21145-3 0  9999
2 67785  51.9019 355.4362 0000968  52.1906 307.9144 14.79935465 36048
KUIPER-00259            
1 67786U 26030Y   26274.56650634  .00001780  00000+0  26244-3 0  9997
2 67786  51.9002   7.7144 0000076  54.3151 305.7819 14.79938636 35870
KUIPER-00260            
1 67787U 26030Z   26274.56922486  .00000421  00000+0  84181-4 0  9991
2 67787  51.9033   5.3170 0000183 120.1831 239.9150 14.79929346 35812
KUIPER-00262            
1 67788U 26030AA  26274.53543080 -.00001284  00000+0 -13944-3 0  9996
2 67788  51.9022   5.3829 0000297 113.6286 246.4707 14.79927540 35904
KUIPER-00266            
1 67789U 26030AB  26274.50437322  .00001890  00000+0  27681-3 0  9999
2 67789  51.9018   3.0106 0000371 114.6676 245.4325 14.79937993 35931
KUIPER-00268            
1 67790U 26030AC  26274.54084768  .00001759  00000+0  25967-3 0  9996
2 67790  51.9057   0.3978 0000202 128.5987 231.4994 14.79929460 35976
KUIPER-00270            
1 67791U 26030AD  26274.51786300  .00001750  00000+0  25856-3 0  9993
2 67791  51.9001 350.4413 0000344  84.1613 275.9389 14.79924994 36114
KUIPER-00274            
1 67792U 26030AE  26275.30395425  .00001754  00000+0  25894-3 0  9992
2 67792  51.9041   9.4850 0000328  93.5503 266.5497 14.79934376 35917
KUIPER-00275            
1 67793U 26030AF  26274.65022279  .00000008  00000+0  30043-4 0  9998
2 67793  51.9021 352.3690 0000107  92.2000 267.8975 14.79930110 36098
KUIPER-00276            
1 67794U 26030AG  26274.54352986  .00001752  00000+0  25869-3 0  9994
2 67794  51.9007 357.8148 0000310  78.3102 281.7895 14.79935068 36010
KUIPER-00279            
1 67795U 26030AH  26274.52055575  .00001652  00000+0  24556-3 0  9998
2 67795  51.9047 347.9720 0000196  72.9226 287.1758 14.79938380 36142
KUIPER-00131            
1 68573U 26072A   26275.19198576  .00001527  00000+0  22929-3 0  9995
2 68573  51.9006  82.4775 0000695 123.9147 236.1881 14.79938582 26960
KUIPER-00189            
1 68574U 26072B   26274.68279167  .00003613  00000+0  50251-3 0  9992
2 68574  51.8990  87.2046 0000355 153.9473 206.1507 14.79947785 26859
KUIPER-00192            
1 68575U 26072C   26275.19467897  .00001152  00000+0  18006-3 0  9997
2 68575  51.9002  79.9581 0000778 125.0902 235.0134 14.79936568 27005
KUIPER-00193            
1 68576U 26072D   26275.13793416  .00001514  00000+0  22754-3 0  9998
2 68576  51.9060  70.2645 0000941 133.5537 226.5504 14.79936505 27136
KUIPER-00194            
1 68577U 26072E   26275.16362846  .00001622  00000+0  24171-3 0  9996
2 68577  51.9023  77.6246 0000769 122.5694 237.5342 14.79931023 27035
KUIPER-00229            
1 68578U 26072F   26274.68551724  .00001500  00000+0  22575-3 0  9999
2 68578  51.9030  84.7198 0000598 124.3542 235.7477 14.79926526 26895
KUIPER-00230            
1 68579U 26072G   26274.53196087  .00001054  00000+0  18020-3 0  9995
2 68579  51.9061  32.8132 0000883 110.6115 249.4941 14.76577104 27602
KUIPER-00231            
1 68580U 26072H   26274.64765688  .00001785  00000+0  26307-3 0  9996
2 68580  51.8992  57.4527 0001643 149.2229 210.8830 14.79932631 27260
KUIPER-00234            
1 68581U 26072J   26275.19736645 -.00003958  00000+0 -49030-3 0  9993
2 68581  51.9001  77.4364 0000543 170.7609 189.3364 14.79949309 27030
KUIPER-00236            
1 68582U 26072K   26274.63814518  .00001513  00000+0  22757-3 0  9998
2 68582  51.9057  34.9234 0000882 115.3306 244.7748 14.79918468 27585
KUIPER-00244            
1 68583U 26072L   26274.70169757  .00001736  00000+0  25669-3 0  9997
2 68583  51.9008  69.6521 0000792 126.1213 233.9823 14.79928670 27101
KUIPER-00253            
1 68584U 26072M   26274.69900553  .00001782  00000+0  26268-3 0  9990
2 68584  51.9042  72.1953 0000717 125.6301 234.4728 14.79932317 27065
KUIPER-00254            
1 68585U 26072N   26274.66252538  .00000454  00000+0  88585-4 0  9997
2 68585  51.9050  74.8545 0000927 113.8568 246.2491 14.79930024 27025
KUIPER-00263            
1 68586U 26072P   26274.61119294  .00001759  00000+0  25962-3 0  9992
2 68586  51.9040  60.1458 0000436 130.6045 229.4955 14.79933738 27223
KUIPER-00269            
1 68587U 26072Q   26275.14872551 -.00000089  00000+0  17362-4 0  9996
2 68587  51.9009  60.1735 0000781 122.7356 237.3682 14.79930466 27272
KUIPER-00272            
1 68588U 26072R   26275.16091734  .00001580  00000+0  23615-3 0  9998
2 68588  51.8982  80.0838 0000823 122.2752 237.8291 14.79934839 26996
KUIPER-00285            
1 68589U 26072S   26274.70979088  .00000432  00000+0  85628-4 0  9993
2 68589  51.9056  62.2026 0001161 116.9711 243.1370 14.79934585 27203
KUIPER-00286            
1 68590U 26072T   26274.71248341  .00001709  00000+0  25311-3 0  9997
2 68590  51.9037  59.6148 0000490 103.1394 256.9623 14.79930666 27241
KUIPER-00289            
1 68591U 26072U   26275.24463076  .00001702  00000+0  25216-3 0  9998
2 68591  51.8998  64.7344 0000788 131.6344 228.4686 14.79930135 27214
KUIPER-00290            
1 68592U 26072V   26275.14333929  .00001778  00000+0  26219-3 0  9998
2 68592  51.9029  65.1965 0000554 137.1028 222.9978 14.79926358 27200
KUIPER-00293            
1 68593U 26072W   26274.76113978  .00001563  00000+0  23410-3 0  9998
2 68593  51.8986  76.8509 0001696  93.6272 266.4885 14.79929503 27003
KUIPER-00294            
1 68594U 26072X   26274.70708091  .00002367  00000+0  33935-3 0  9995
2 68594  51.8996  64.6136 0000803 115.9797 244.1248 14.79931296 27171
KUIPER-00296            
1 68595U 26072Y   26274.55714104  .00001910  00000+0  27956-3 0  9990
2 68595  51.9028  47.7987 0000498 119.4912 240.6100 14.79928379 27393
KUIPER-00297            
1 68596U 26072Z   26275.13254299  .00001586  00000+0  23706-3 0  9998
2 68596  51.9006  75.2113 0001171 140.3383 219.7665 14.79936381 27060
KUIPER-00300            
1 68597U 26072AA  26274.69630182  .00000144  00000+0  47889-4 0  9996
2 68597  51.9025  74.6798 0000725 120.5883 239.5151 14.79929398 27030
KUIPER-00301            
1 68598U 26072AB  26274.67524388  .00001165  00000+0  19611-3 0  9990
2 68598  51.9047  44.5805 0001849 241.0144 119.0632 14.76520209 27443
KUIPER-00304            
1 68599U 26072AC  26274.56879504  .00001280  00000+0  21197-3 0  9992
2 68599  51.9022  46.9882 0000710  49.1909 310.9113 14.76634541 27407
KUIPER-00317            
1 68600U 26072AD  26274.60578364  .00001751  00000+0  25868-3 0  9992
2 68600  51.8999  65.0649 0000458 119.2139 240.8869 14.79930657 27159
KUIPER-00320            
1 68601U 26072AE  26274.73544799  .00001728  00000+0  25564-3 0  9999
2 68601  51.9030  69.5156 0000635 109.9275 250.1755 14.79938104 27101
KUIPER-00299            
1 68864U 26095A   26275.03137292  .00001370  00000+0  20874-3 0  9997
2 68864  51.8993 138.1660 0000944 115.5793 244.5267 14.79931176 23432
KUIPER-00353            
1 68865U 26095B   26274.87872852  .00001493  00000+0  22487-3 0  9995
2 68865  51.8997 123.8686 0000813 113.8364 246.2684 14.79933455 23621
KUIPER-00357            
1 68866U 26095C   26275.03946560  .00001497  00000+0  22543-3 0  9990
2 68866  51.9011 130.6700 0001355  95.7144 264.3973 14.79925949 23541
KUIPER-00364            
1 68867U 26095D   26275.00300773  .00001478  00000+0  22293-3 0  9999
2 68867  51.9038 133.3579 0001163  95.7624 264.3471 14.79926930 23505
KUIPER-00375            
1 68868U 26095E   26274.77473446  .00000246  00000+0  61309-4 0  9995
2 68868  51.9007 126.8360 0001080 105.4267 254.6815 14.79929757 23578
KUIPER-00433            
1 68869U 26095F   26274.82608919  .00001436  00000+0  21733-3 0  9995
2 68869  51.9007 141.6024 0001305  94.5722 265.5389 14.79933069 23371
KUIPER-00437            
1 68870U 26095G   26275.25003472 -.00005885  00000+0 -80511-3 0  9991
2 68870  51.9208  91.6560 0000928  88.8134  30.7661 14.76619743  4155
KUIPER-00448            
1 68871U 26095H   26275.00569708  .00001511  00000+0  22715-3 0  9996
2 68871  51.9040 130.8181 0001029 121.9414 238.1649 14.79937778 23535
KUIPER-00459            
1 68872U 26095J   26274.78283843  .00001207  00000+0  18734-3 0  9992
2 68872  51.9010 119.3649 0000788 117.1972 242.9070 14.79932135 23679
KUIPER-00468            
1 68873U 26095K   26274.74264644  .00001036  00000+0  17739-3 0  9991
2 68873  51.8982 117.3371 0000450 187.3215 172.7739 14.76637011 23700
KUIPER-00476            
1 68874U 26095L   26275.20956596  .00001484  00000+0  22372-3 0  9994
2 68874  51.9005  97.3274 0000899 123.1994 236.9055 14.79925804 24029
KUIPER-00478            
1 68875U 26095M   26274.78013234  .00001436  00000+0  21740-3 0  9995
2 68875  51.8991 121.8079 0001044 109.4148 250.6927 14.79932991 23643
KUIPER-00480            
1 68876U 26095N   26274.88412722  .00001486  00000+0  22397-3 0  9996
2 68876  51.9038 118.8687 0000769 108.1999 251.9048 14.79929708 23696
KUIPER-00482            
1 68877U 26095P   26275.00836211 -.00001284  00000+0 -13937-3 0  9993
2 68877  51.9009 128.3026 0001598  87.3634 272.7511 14.79936131 23574
KUIPER-00483            
1 68878U 26095Q   26274.92737665  .00001597  00000+0  23849-3 0  9995
2 68878  51.8990 141.1215 0001561  61.1874 298.9245 14.79926424 23389
KUIPER-00488            
1 68879U 26095R   26274.98002673  .00001510  00000+0  22703-3 0  9999
2 68879  51.9003 123.4324 0001160 108.8389 251.2700 14.79927198 23630
KUIPER-00489            
1 68880U 26095S   26274.78552789  .00001483  00000+0  22357-3 0  9991
2 68880  51.8959 116.7690 0001337 110.4504 249.6602 14.79930650 23714
KUIPER-00499            
1 68881U 26095T   26274.88141918  .00001563  00000+0  23398-3 0  9996
2 68881  51.8997 121.4087 0000764 112.3269 247.7775 14.79931283 23658
KUIPER-00500            
1 68882U 26095U   26274.93007001  .00001451  00000+0  21937-3 0  9990
2 68882  51.9008 138.6476 0000901 106.0412 254.0650 14.79926733 23420
KUIPER-00502            
1 68883U 26095V   26274.81217806 -.00001961  00000+0 -22830-3 0  9995
2 68883  51.9002 115.4206 0001204 101.1865 258.9233 14.79940603 23730
KUIPER-00503            
1 68884U 26095W   26274.83147319 -.00000308  00000+0 -11347-4 0  9995
2 68884  51.8977 136.5513 0001166 101.8503 258.2590 14.79927075 23444
KUIPER-00504            
1 68885U 26095X   26274.78962438  .00000200  00000+0  55264-4 0  9992
2 68885  51.9022 144.2749 0000843  98.9305 261.1753 14.79929801 23332
KUIPER-00505            
1 68886U 26095Y   26274.90170610  .00001540  00000+0  23099-3 0  9998
2 68886  51.9013 133.7801 0000810 103.3899 256.7154 14.79934402 23482
KUIPER-00507            
1 68887U 26095Z   26274.89560389 -.00000115  00000+0  13970-4 0  9999
2 68887  51.9006 123.7897 0000937 107.3712 252.7353 14.79928347 23621
KUIPER-00511            
1 68888U 26095AA  26274.81929011  .00001213  00000+0  18803-3 0  9991
2 68888  51.8989 116.7363 0001077 103.5213 256.5870 14.79937438 23718
KUIPER-00512            
1 68889U 26095AB  26274.93275990 -.00000711  00000+0 -64242-4 0  9998
2 68889  51.9025 136.1477 0000517 118.4860 241.6155 14.79932227 23457
KUIPER-00519            
1 68890U 26095AC  26274.80850737 -.00000071  00000+0  19683-4 0  9991
2 68890  51.9024 126.7578 0000804 107.5167 252.5884 14.79928207 23579
KUIPER-00521            
1 68891U 26095AD  26274.94185971  .00000167  00000+0  50979-4 0  9996
2 68891  51.9021 119.8626 0000878 110.5822 249.5235 14.79928869 23689
KUIPER-00524            
1 68892U 26095AE  26274.90709983  .00001493  00000+0  22484-3 0  9990
2 68892  51.8978 128.7255 0001112 100.0601 260.0487 14.79933411 23550
KUIPER-00370            
1 68919U 26098A   26275.13769076  .00001373  00000+0  20908-3 0  9994
2 68919  51.8997 305.0883 0000380  41.5237 318.5754 14.79932497 23322
KUIPER-00380            
1 68920U 26098B   26274.33543714 -.00000267  00000+0 -60794-5 0  9998
2 68920  51.8981 301.2709 0000502  65.2855 294.8159 14.79927815 23308
KUIPER-00386            
1 68921U 26098C   26274.34961568  .00001536  00000+0  23035-3 0  9994
2 68921  51.9001 303.7051 0000396  51.2203 308.8795 14.79936737 23274
KUIPER-00388            
1 68922U 26098D   26274.38950379  .00001460  00000+0  22043-3 0  9991
2 68922  51.9019 313.6929 0000355  45.6998 314.3994 14.79929921 23136
KUIPER-00405            
1 68923U 26098E   26274.40906577  .00001513  00000+0  22751-3 0  9991
2 68923  51.9025 310.9606 0000736 297.1526  62.9361 14.79927386 23171
KUIPER-00408            
1 68924U 26098F   26274.33273389  .00001474  00000+0  22235-3 0  9995
2 68924  51.8999 303.7085 0000388  54.7965 305.3034 14.79934779 23275
KUIPER-00409            
1 68925U 26098G   26274.37800098  .00001374  00000+0  20924-3 0  9995
2 68925  51.9033 308.5990 0000399  74.2059 285.8947 14.79930127 23208
KUIPER-00410            
1 68926U 26098H   26274.38069259  .00001461  00000+0  22058-3 0  9990
2 68926  51.8983 306.0557 0000094 204.4516 155.6442 14.79927998 23241
KUIPER-00412            
1 68927U 26098J   26274.37190752  .00001543  00000+0  23132-3 0  9998
2 68927  51.9036 298.6364 0000354  69.3409 290.7591 14.79934101 23343
KUIPER-00413            
1 68928U 26098K   26274.39217702  .00000161  00000+0  50105-4 0  9992
2 68928  51.8993 311.0142 0000251 332.9237  27.1712 14.79930396 23173
KUIPER-00414            
1 68929U 26098L   26274.41516895  .00005392  00000+0  73611-3 0  9998
2 68929  51.8978 320.9924 0000185 139.3857 220.7119 14.79906998 23035
KUIPER-00415            
1 68930U 26098M   26274.36649809  .00001316  00000+0  20150-3 0  9998
2 68930  51.9015 303.6468 0000418  55.9344 304.1658 14.79938911 23275
KUIPER-00416            
1 68931U 26098N   26274.31665977  .00001525  00000+0  22871-3 0  9992
2 68931  51.9022 295.2185 0000340  47.9135 312.1857 14.79980572 23381
KUIPER-00420            
1 68932U 26098P   26274.37460153  .00005320  00000+0  72652-3 0  9997
2 68932  51.9005 296.0718 0000580  90.0803 270.0226 14.79916752 23382
KUIPER-00421            
1 68933U 26098Q   26274.36918512  .00001576  00000+0  23574-3 0  9992
2 68933  51.9020 301.0817 0000604  75.0433 285.0596 14.79928437 23318
KUIPER-00425            
1 68934U 26098R   26274.36109162  .00001350  00000+0  20610-3 0  9994
2 68934  51.9001 308.6588 0000401  84.9651 275.1358 14.79926510 23206
KUIPER-00430            
1 68935U 26098S   26274.35839951  .00001438  00000+0  21761-3 0  9995
2 68935  51.9040 311.0763 0000374  64.0038 296.0963 14.79937034 23173
KUIPER-00431            
1 68936U 26098T   26274.42324765  .00001440  00000+0  21782-3 0  9992
2 68936  51.9003 313.3716 0000271  22.3348 337.7627 14.79931833 23141
KUIPER-00432            
1 68937U 26098U   26274.36378630  .00001604  00000+0  23928-3 0  9992
2 68937  51.9004 306.0338 0000480  41.3345 318.7654 14.79936707 23247
KUIPER-00434            
1 68938U 26098V   26274.57690418  .00000971  00000+0  16898-3 0  9991
2 68938  51.9012 309.4455 0000900 169.8627 190.2352 14.76401574 23211
KUIPER-00436            
1 68939U 26098W   26274.41174896  .00000001  00000+0  29080-4 0  9994
2 68939  51.9009 308.4355 0000452  51.5213 308.5790 14.79930224 23218
KUIPER-00438            
1 68940U 26098X   26274.34692655  .00001502  00000+0  22592-3 0  9993
2 68940  51.9026 306.2502 0000462  62.1940 297.9069 14.79937432 23235
KUIPER-00439            
1 68941U 26098Y   26274.39757947  .00001480  00000+0  22316-3 0  9994
2 68941  51.9036 306.0175 0000543  76.2260 283.8763 14.79925547 23242
KUIPER-00440            
1 68942U 26098Z   26274.35502579  .00001436  00000+0  21737-3 0  9997
2 68942  51.9029 298.7036 0000847  18.3271 341.7722 14.79929838 23341
KUIPER-00442            
1 68943U 26098AA  26275.02758198 -.00000846  00000+0 -81996-4 0  9993
2 68943  51.8995 298.2427 0001618  49.3625 310.7478 14.79932830 23403
KUIPER-00446            
1 68944U 26098AB  26274.38338199  .00001565  00000+0  23419-3 0  9999
2 68944  51.9001 303.5760 0001114 330.7003  29.3897 14.79935887 23279
KUIPER-00451            
1 68945U 26098AC  26274.37260312  .00001493  00000+0  22481-3 0  9998
2 68945  51.9003 313.6040 0000241  50.2901 309.8083 14.79930914 23130
KUIPER-00452            
1 68946U 26098AD  26274.38608836  .00000823  00000+0  13693-3 0  9998
2 68946  51.9031 301.0635 0000489  58.2155 301.8855 14.79927658 23316
KUIPER-00453            
1 68947U 26098AE  26274.54071547  .00001494  00000+0  22494-3 0  9994
2 68947  51.8992 297.7952 0000805 182.0109 178.0850 14.79933878 23378
KUIPER-00454            
1 68948U 26098AF  26274.38675903  .00001505  00000+0  22649-3 0  9998
2 68948  51.9007 316.0330 0000750  62.5165 297.5874 14.79919848 23100
KUIPER-00455            
1 68949U 26098AG  26274.40636337  .00000238  00000+0  60197-4 0  9993
2 68949  51.9001 313.4609 0000629 173.4492 186.6479 14.79927452 23148
KUIPER-00458            
1 68950U 26098AH  26274.32125250  .00001379  00000+0  20992-3 0  9998
2 68950  51.9017 298.8613 0000722  71.3191 288.7850 14.79925815 23333
KUIPER-00282            
1 69267U 26118A   26274.32933344  .00001433  00000+0  21698-3 0  9999
2 69267  51.8972 291.2760 0000431   8.1688 351.9281 14.79935639 19870
KUIPER-00383            
1 69268U 26118B   26274.34892415  .00001493  00000+0  22481-3 0  9992
2 69268  51.8986 288.7116 0000518  40.8592 319.2409 14.79927680 19916
KUIPER-00527            
1 69269U 26118C   26275.05800574  .00001544  00000+0  23152-3 0  9990
2 69269  51.8984 285.7081 0000512  52.3419 307.7590 14.79930620 20017
KUIPER-00562            
1 69270U 26118D   26274.28947078  .00001461  00000+0  22060-3 0  9992
2 69270  51.9022 281.4248 0000780  62.4138 297.6904 14.79937804 20015
KUIPER-00570            
1 69271U 26118E   26274.30977628  .00001480  00000+0  22315-3 0  9994
2 69271  51.9000 293.9918 0000478  55.7693 304.3315 14.79930559 19828
KUIPER-00572            
1 69272U 26118F   26275.24369656  .00001477  00000+0  22276-3 0  9997
2 69272  51.9008 284.7537 0000547  47.7829 312.3180 14.79929030 20048
KUIPER-00581            
1 69273U 26118G   26275.03570727 -.00000943  00000+0 -94640-4 0  9992
2 69273  51.9029 290.6846 0000434 305.6402  54.4520 14.79942832 20035
KUIPER-00584            
1 69274U 26118H   26274.27327884  .00001500  00000+0  22578-3 0  9990
2 69274  51.9010 296.6633 0000391  53.9429 306.1569 14.79920204 19790
KUIPER-00587            
1 69275U 26118J   26274.30096502  .00001563  00000+0  23407-3 0  9996
2 69275  51.9014 286.4319 0000531  60.2051 299.8964 14.79926250 19942
KUIPER-00590            
1 69276U 26118K   26274.36310985  .00001493  00000+0  22476-3 0  9994
2 69276  51.9026 291.1692 0000352  29.8417 330.2566 14.79934875 19884
KUIPER-00592            
1 69277U 26118L   26274.34621023  .00000039  00000+0  34064-4 0  9993
2 69277  51.9039 291.1253 0000470  99.9168 260.1847 14.79927828 19887
KUIPER-00593            
1 69278U 26118M   26275.24299147  .00001425  00000+0  21583-3 0  9993
2 69278  51.8991 269.7714 0000541 222.2007 137.8914 14.79932484 20318
KUIPER-00594            
1 69279U 26118N   26275.03500583  .00001735  00000+0  25646-3 0  9998
2 69279  51.9038 275.7038 0000792  76.7505 283.3546 14.79938799 20156
KUIPER-00595            
1 69280U 26118P   26274.19627686 -.00000597  00000+0 -49349-4 0  9994
2 69280  51.8975 274.3544 0000591 250.4600 109.6299 14.79938664 20132
KUIPER-00596            
1 69281U 26118Q   26274.32395372  .00001419  00000+0  21506-3 0  9990
2 69281  51.9017 296.3351 0000427  49.1655 310.9344 14.79928201 19808
KUIPER-00597            
1 69282U 26118R   26274.26111322  .00001563  00000+0  23410-3 0  9991
2 69282  51.8987 276.6084 0001552  71.1936 288.9195 14.79927363 20072
KUIPER-00599            
1 69283U 26118S   26274.21653292  .00001532  00000+0  22981-3 0  9992
2 69283  51.9014 286.7211 0000501  12.5335 347.5639 14.79941399 19937
KUIPER-00600            
1 69284U 26118T   26274.29486995  .00001602  00000+0  23915-3 0  9991
2 69284  51.8984 276.3725 0001620  63.9649 296.1480 14.79928488 20084
KUIPER-00601            
1 69285U 26118U   26274.31241819  .00003606  00000+0  50137-3 0  9991
2 69285  51.9011 291.3815 0000588 292.6509  67.4391 14.79961220 19878
KUIPER-00602            
1 69286U 26118V   26274.32053237 -.00000052  00000+0  22233-4 0  9998
2 69286  51.9008 283.7624 0000684 338.6377  21.4557 14.79929811 19985
KUIPER-00603            
1 69287U 26118W   26275.01003029  .00001550  00000+0  23230-3 0  9990
2 69287  51.9041 283.3069 0000571  66.8990 293.2033 14.79932836 20046
KUIPER-00605            
1 69288U 26118X   26274.52924041  .00001565  00000+0  23421-3 0  9990
2 69288  51.8992 292.9047 0000477  52.8237 307.2769 14.79929123 19873
KUIPER-00606            
1 69289U 26118Y   26275.06070048  .00012322  00000+0  16438-2 0  9992
2 69289  51.9007 283.0750 0002304  77.7821 282.3399 14.79897256 20055
KUIPER-00607            
1 69290U 26118Z   26275.25717911 -.00000599  00000+0 -49483-4 0  9995
2 69290  51.9014 272.2118 0001909  47.5873 312.5251 14.79933574 20221
KUIPER-00608            
1 69291U 26118AA  26274.32592593  .00000933  00000+0  15145-3 0  9997
2 69291  51.9011 278.6895 0000687  69.7951 290.3086 14.79926088 20058
KUIPER-00610            
1 69292U 26118AB  26274.28679057  .00001340  00000+0  20479-3 0  9993
2 69292  51.9024 283.9981 0000498  52.0124 308.0883 14.79930640 19975
KUIPER-00613            
1 69293U 26118AC  26274.34352081 -.00000148  00000+0  95803-5 0  9997
2 69293  51.9017 293.7440 0000518  46.1647 313.9358 14.79927176 19842
KUIPER-00618            
1 69294U 26118AD  26275.06607115  .00001675  00000+0  24869-3 0  9996
2 69294  51.9042 278.0600 0001078 257.0439 103.0403 14.79931567 20120
KUIPER-00620            
1 69295U 26118AE  26275.14779465 -.00000719  00000+0 -65297-4 0  9995
2 69295  51.9043 280.2043 0000799  54.0850 306.0186 14.79940640 20102
KUIPER-00423            
1 69592U 26140A   26275.22804152  .00001642  00000+0  24446-3 0  9995
2 69592  51.9006 252.3299 0000778  78.6526 281.4524 14.79919918 17543
KUIPER-00428            
1 69593U 26140B   26275.25003472  .00029570  00000+0  85770-3 0  9992
2 69593  51.8792 241.2148 0004971 329.1420 325.1641 15.35274239  5873
KUIPER-00481            
1 69594U 26140C   26275.25003472 -.00006251  00000+0 -79149-3 0  9999
2 69594  51.8996 257.2429 0001535  10.3329 225.2821 14.79945290  5531
KUIPER-00490            
1 69595U 26140D   26275.25107664  .00001510  00000+0  22702-3 0  9992
2 69595  51.9029 262.1883 0000742  46.8164 313.2860 14.79928239 17414
KUIPER-00493            
1 69596U 26140E   26274.19896395  .00001632  00000+0  24297-3 0  9997
2 69596  51.9035 271.8927 0001155 354.6360   5.4590 14.79938326 17187
KUIPER-00496            
1 69597U 26140F   26275.25003472 -.00014954  00000+0 -19360-2 0  9999
2 69597  51.9015 250.9950 0001134  69.6671 355.2850 14.79952171  5013
KUIPER-00513            
1 69598U 26140G   26274.67706874  .00001677  00000+0  24893-3 0  9995
2 69598  51.9006 264.7693 0000580  50.7954 309.3060 14.79936483 17328
KUIPER-00516            
1 69599U 26140H   26275.25003472 -.00062351  00000+0 -81895-2 0  9997
2 69599  51.8959 246.6889 0003518  10.1751 185.5224 14.80112077  5858
KUIPER-00517            
1 69600U 26140J   26275.25003472 -.00022282  00000+0 -16464-2 0  9999
2 69600  51.8934 243.2519 0009415 207.3493 206.2054 15.02409052  5323
KUIPER-00520            
1 69601U 26140K   26275.08947839  .00001294  00000+0  21401-3 0  9991
2 69601  51.9018 265.1974 0000643 294.5577  65.5317 14.76618174 17352
KUIPER-00522            
1 69602U 26140L   26275.21120856  .00001610  00000+0  24014-3 0  9994
2 69602  51.9034 252.4124 0001168  88.9167 271.1929 14.79927862 17545
KUIPER-00528            
1 69603U 26140M   26275.26527283  .00001694  00000+0  25112-3 0  9997
2 69603  51.9031 264.6892 0000610  49.6984 310.4032 14.79931578 17374
KUIPER-00532            
1 69604U 26140N   26275.25003472 -.00011471  00000+0 -14781-2 0  9991
2 69604  51.9014 249.7478 0000861  72.5606  30.2408 14.79936327  5619
KUIPER-00533            
1 69605U 26140P   26275.25377560  .00000031  00000+0  33031-4 0  9993
2 69605  51.9015 259.7295 0000675  46.3630 313.7389 14.79929623 17440
KUIPER-00534            
1 69606U 26140Q   26275.25003472  .00015967  00000+0  57904-3 0  9990
2 69606  51.8790 242.8587 0012260 174.6618  37.2223 15.28432588  4839
KUIPER-00537            
1 69607U 26140R   26275.24567592  .00001550  00000+0  23228-3 0  9993
2 69607  51.9021 267.1792 0001241  23.3934 336.7085 14.79937342 17340
KUIPER-00538            
1 69608U 26140S   26274.67437404  .00000861  00000+0  14190-3 0  9990
2 69608  51.9028 267.2308 0000700  56.5751 303.5278 14.79935419 17299
KUIPER-00540            
1 69609U 26140T   26275.18057121  .00018980  00000+0  50041-3 0  9998
2 69609  51.8800 241.3850 0004300 321.5832  38.4849 15.38517219 17699
KUIPER-00541            
1 69610U 26140U   26275.25003472 -.00052564  00000+0 -61741-2 0  9994
2 69610  51.8985 244.6198 0007594 210.9463 110.7954 14.84638739  5436
KUIPER-00542            
1 69611U 26140V   26275.25003472 -.00023571  00000+0 -18593-2 0  9998
2 69611  51.8942 243.1642 0007929 187.7315 154.2748 14.99979738  3667
KUIPER-00543            
1 69612U 26140W   26275.25003472  .00001554  00000+0  23274-3 0  9997
2 69612  51.9032 249.7440 0000450  95.6249 186.9974 14.79933890  5507
KUIPER-00544            
1 69613U 26140X   26275.25003472 -.00031321  00000+0 -31761-2 0  9994
2 69613  51.8961 244.9865 0008138 201.2409  98.3894 14.90333931  3946
KUIPER-00546            
1 69614U 26140Y   26274.24878109 -.00004151  00000+0 -51589-3 0  9992
2 69614  51.9009 256.6667 0000335  93.9726 266.1274 14.79929568 17407
KUIPER-00547            
1 69615U 26140Z   26275.25003472 -.01883175  00000+0 -11403+0 0  9997
2 69615  51.8902 241.6653 0010031 184.4161 210.1889 15.13576846  5348
KUIPER-00549            
1 69616U 26140AA  26275.25003472 -.00060230  00000+0 -77627-2 0  9999
2 69616  51.9010 247.2549 0002375  76.7778   9.0569 14.80887984  5155
KUIPER-00550            
1 69617U 26140AB  26275.25003472 -.00054718  00000+0 -66816-2 0  9992
2 69617  51.9016 250.9815 0004543 348.2576 237.4330 14.83074420  3765
KUIPER-00551            
1 69618U 26140AC  26275.25003472 -.00408162  00000+0 -16486-1 0  9996
2 69618  51.8799 240.4976 0011647 184.3079  68.2507 15.25974028  5527
KUIPER-00554            
1 69619U 26140AD  26275.25003472 -.00197764  00000+0 -87361-2 0  9991
2 69619  51.8848 240.9376 0008841 195.1239 200.7636 15.22057454  4248
KUIPER-00555            
1 69620U 26140AE  26275.25003472 -.01269769  00000+0 -49654-1 0  9991
2 69620  51.8840 240.7961 0009343 195.1153 326.1350 15.28175536  5349
KUIPER-00556            
1 69621U 26140AF  26274.95527244  .00000390  00000+0  80215-4 0  9997
2 69621  51.8976 256.0374 0000422  80.8689 279.2321 14.79929437 17476
KUIPER-00557            
1 69622U 26140AG  26275.25003472 -.01925570  00000+0 -11520+0 0  9991
2 69622  51.8863 241.6479 0009983 211.4327 266.7845 15.14079968  5205
KUIPER-00560            
1 69623U 26140AH  26275.18663856  .00014371  00000+0  39709-3 0  9990
2 69623  51.8774 241.3916 0007584 231.4218 128.6090 15.37269349 17699
KUIPER-00561            
1 69624U 26140AJ  26274.27457958  .00001604  00000+0  23930-3 0  9998
2 69624  51.9011 264.0278 0000658  71.2175 288.8858 14.79939584 17304
KUIPER-00564            
1 69625U 26140AK  26275.25647888  .00001607  00000+0  23982-3 0  9991
2 69625  51.8971 257.1894 0000698  99.3713 260.7328 14.79928432 17489
KUIPER-00567            
1 69626U 26140AL  26274.17867968  .00001680  00000+0  24942-3 0  9993
2 69626  51.8974 259.4737 0000923 170.6769 189.4211 14.79926292 17355
KUIPER-00573            
1 69627U 26140AM  26275.22270445 -.00001783  00000+0 -20490-3 0  9999
2 69627  51.9011 257.3712 0000650  63.6127 296.4902 14.79949349 17472
KUIPER-00258            
1 69763U 26151A   26275.25003472 -.00003109  00000+0 -37772-3 0  9994
2 69763  51.8957 167.2287 0000885  37.9420 310.3936 14.80072236  4807
KUIPER-00526            
1 69764U 26151B   26274.94906716 -.00000029  00000+0  25186-4 0  9997
2 69764  51.8991 183.6370 0001102  98.8183 261.2904 14.79922775 13793
KUIPER-00558            
1 69765U 26151C   26275.11785227 -.00005045  00000+0 -63300-3 0  9993
2 69765  51.8969 182.8090 0000682  97.5077 262.5963 14.79949561 13824
KUIPER-00569            
1 69766U 26151D   26274.93487868  .00001713  00000+0  25363-3 0  9996
2 69766  51.9024 181.1166 0000943  92.4955 267.6115 14.79935938 13832
KUIPER-00589            
1 69767U 26151E   26274.93822573  .00001068  00000+0  18238-3 0  9999
2 69767  51.9009 184.4438 0003221  92.5797 267.5533 14.76550126 13787
KUIPER-00598            
1 69768U 26151F   26275.09222507  .00000575  00000+0  10438-3 0  9995
2 69768  51.9005 175.4366 0000797  99.7494 260.3559 14.79928565 13926
KUIPER-00604            
1 69769U 26151G   26274.93757834  .00001776  00000+0  26184-3 0  9993
2 69769  51.9030 178.6199 0000866  93.2514 266.8548 14.79936288 13866
KUIPER-00609            
1 69770U 26151H   26275.25003472  .00011264  00000+0  15050-2 0  9995
2 69770  51.8989 174.7354 0001270  56.4158 335.1345 14.79907346  1309
KUIPER-00611            
1 69771U 26151J   26275.10639563  .00001845  00000+0  27094-3 0  9992
2 69771  51.8987 177.8525 0001086  87.9936 272.1151 14.79939447 13899
KUIPER-00612            
1 69772U 26151K   26274.95176747  .00000376  00000+0  78348-4 0  9992
2 69772  51.9011 181.0616 0001166 124.1740 235.9333 14.79930556 13838
KUIPER-00614            
1 69773U 26151L   26274.95445434 -.00001734  00000+0 -19847-3 0  9994
2 69773  51.8987 178.5936 0000894  87.3223 272.7842 14.79936909 13864
KUIPER-00615            
1 69774U 26151M   26275.16853708  .00000229  00000+0  59056-4 0  9999
2 69774  51.9020 182.5339 0000829 123.6415 236.4626 14.79927586 13836
KUIPER-00616            
1 69775U 26151N   26274.94849267  .00003340  00000+0  46654-3 0  9996
2 69775  51.8962 168.5748 0000702 107.7974 252.3065 14.79965754 14005
KUIPER-00617            
1 69776U 26151P   26274.94297965  .00000627  00000+0  11129-3 0  9993
2 69776  51.9005 173.5970 0000645  90.9599 269.1437 14.79928643 13936
KUIPER-00619            
1 69777U 26151Q   26274.92061067  .00011029  00000+0  15902-2 0  9994
2 69777  51.9014 176.2197 0001242 119.8436 240.2649 14.76680312 13898
KUIPER-00621            
1 69778U 26151R   26274.92069369  .00001799  00000+0  26486-3 0  9991
2 69778  51.9012 178.6907 0000783  99.3369 260.7682 14.79938305 13860
KUIPER-00622            
1 69779U 26151S   26274.92729322  .00000828  00000+0  14823-3 0  9998
2 69779  51.9027 182.9013 0001640  95.4721 264.6427 14.76519087 13808
KUIPER-00623            
1 69780U 26151T   26274.91800458  .00000128  00000+0  45833-4 0  9998
2 69780  51.8979 181.2117 0001181 114.5607 245.5478 14.79925959 13826
KUIPER-00626            
1 69781U 26151U   26274.94027695  .00000507  00000+0  95566-4 0  9995
2 69781  51.8979 176.0796 0000981 113.0872 247.0194 14.79932281 13904
KUIPER-00627            
1 69782U 26151V   26274.91191275  .00000043  00000+0  34618-4 0  9995
2 69782  51.9012 171.2369 0001174 120.4274 239.6804 14.79928806 13969
KUIPER-00629            
1 69783U 26151W   26275.19960203  .00000134  00000+0  46537-4 0  9996
2 69783  51.9019 184.8996 0000972  94.9857 265.1216 14.79927050 13804
KUIPER-00631            
1 69784U 26151X   26275.14895493  .00001828  00000+0  26878-3 0  9996
2 69784  51.9017 185.1829 0000775  92.4839 267.6212 14.79934095 13794
KUIPER-00634            
1 69785U 26151Y   26274.90112123  .00001778  00000+0  26214-3 0  9990
2 69785  51.8995 181.2820 0000818 106.3274 253.7779 14.79933784 13825
KUIPER-00639            
1 69786U 26151Z   26274.94576867  .00004911  00000+0  67121-3 0  9998
2 69786  51.9005 171.0715 0000633  67.5047 292.5983 14.80031911 13977
KUIPER-00641            
1 69787U 26151AA  26274.92608695  .00000427  00000+0  85006-4 0  9993
2 69787  51.9001 173.6773 0001833 145.8154 214.2926 14.79926692 13939
KUIPER-00644            
1 69788U 26151AB  26275.25003472 -.00055388  00000+0 -68377-2 0  9991
2 69788  51.8968 164.7722 0004004 120.6113  18.7875 14.82630714  4857
KUIPER-00646            
1 69789U 26151AC  26275.09491873  .00001821  00000+0  26773-3 0  9996
2 69789  51.8996 173.0132 0000751  95.9579 264.1469 14.79937467 13950
KUIPER-00647            
1 69790U 26151AD  26274.89618837  .00000825  00000+0  14780-3 0  9994
2 69790  51.9005 173.6151 0002462 358.8354   1.2601 14.76545369 13933
KUIPER-00662            
1 69791U 26151AE  26275.11519280  .00001880  00000+0  27557-3 0  9991
2 69791  51.9010 185.3290 0000817  82.4216 277.6839 14.79928358 13784
