QIANFAN-1               
1 60379U 24140A   26278.24038481  .00000049  00000+0  56421-4 0  9995
2 60379  88.9668 268.4871 0019669  79.4853 280.8513 13.51026472107382
QIANFAN-2               
1 60380U 24140B   26278.26926092  .00000046  00000+0  52305-4 0  9997
2 60380  88.9656 268.2834 0014551  56.0329 304.2203 13.51020809107444
QIANFAN-3               
1 60381U 24140C   26278.27762584  .00000041  00000+0  45178-4 0  9998
2 60381  88.9648 268.3926 0015918  66.5495 293.7327 13.51023585107350
QIANFAN-4               
1 60382U 24140D   26278.25283176  .00000027  00000+0  23707-4 0  9990
2 60382  88.9672 268.3675 0014851  58.1838 302.0757 13.51021168107471
QIANFAN-5               
1 60383U 24140E   26278.30199444  .00000054  00000+0  64659-4 0  9992
2 60383  88.9647 268.4143 0017297  76.1882 284.1193 13.51031905107341
QIANFAN-6               
1 60384U 24140F   26278.24867262  .00000037  00000+0  37959-4 0  9990
2 60384  88.9675 268.2467 0015077  63.2938 296.9754 13.51024470107537
QIANFAN-7               
1 60385U 24140G   26278.26329012  .00000210  00000+0  78728-4 0  9991
2 60385  88.9736 258.8110 0016467 137.0295 223.2189 14.27897881112704
QIANFAN-8               
1 60386U 24140H   26278.25700883  .00000038  00000+0  40344-4 0  9991
2 60386  88.9675 268.4868 0018559  64.4593 295.8475 13.51026384107381
QIANFAN-9               
1 60387U 24140J   26278.30635212  .00000050  00000+0  58414-4 0  9992
2 60387  88.9673 268.5510 0018250  64.1645 296.1386 13.51022244107373
QIANFAN-10              
1 60388U 24140K   26278.23638353  .00000044  00000+0  48606-4 0  9999
2 60388  88.9685 267.9372 0016221  44.4684 315.7766 13.51022373107492
QIANFAN-11              
1 60389U 24140L   26278.27352544  .00000035  00000+0  35076-4 0  9996
2 60389  88.9609 268.2968 0016274  64.4160 295.8671 13.51026479107150
QIANFAN-12              
1 60390U 24140M   26278.29404869  .00000044  00000+0  48922-4 0  9992
2 60390  88.9652 268.4671 0015216  71.7653 288.5153 13.51024087107287
QIANFAN-13              
1 60391U 24140N   26278.26520593  .00000053  00000+0  63041-4 0  9992
2 60391  88.9912 268.7533 0015069  73.8561 286.4248 13.51024276107309
QIANFAN-14              
1 60392U 24140P   26278.28998337  .00000030  00000+0  28017-4 0  9999
2 60392  88.9643 268.4382 0018752  73.5871 286.7340 13.51026112107311
QIANFAN-15              
1 60393U 24140Q   26278.29804278  .00000059  00000+0  73195-4 0  9999
2 60393  88.9667 268.4644 0014354  62.2966 297.9640 13.51028939107308
QIANFAN-16              
1 60394U 24140R   26278.28571590  .00000027  00000+0  22103-4 0  9995
2 60394  88.9669 268.5940 0016719  77.1748 283.1270 13.51025481107216
QIANFAN-17              
1 60395U 24140S   26278.28176562  .00000037  00000+0  37596-4 0  9999
2 60395  88.9680 268.6728 0017046  71.5906 288.7096 13.51026195108179
QIANFAN-18              
1 60396U 24140T   26278.26118067  .00000046  00000+0  52249-4 0  9996
2 60396  88.9675 268.1895 0016103  56.5724 303.6965 13.51026343107567
QIANFAN-19              
1 61552U 24185A   26278.28611438  .00000307  00000+0  15249-3 0  9990
2 61552  88.9882  43.9767 0008855  78.4781 281.7400 14.14539955111585
QIANFAN-20              
1 61553U 24185B   26278.25856078  .00000320  00000+0  17626-3 0  9995
2 61553  88.9877  44.5958 0007652 112.6296 247.5698 14.09084665111244
QIANFAN-21              
1 61554U 24185C   26278.25659210  .00000415  00000+0  17777-3 0  9997
2 61554  88.9802  42.2689 0012684 114.1485 246.1035 14.22945392112134
QIANFAN-22              
1 61555U 24185D   26278.28505671  .00000106  00000+0  80225-4 0  9998
2 61555  88.9856  46.7683 0007422 153.6300 206.5250 13.86434087110023
QIANFAN-23              
1 61556U 24185E   26278.26400709  .00000280  00000+0  13358-3 0  9998
2 61556  88.9874  43.6509 0009526  84.7132 275.5143 14.16560384111720
QIANFAN-24              
1 61557U 24185F   26278.28821233  .00000464  00000+0  19510-3 0  9990
2 61557  88.9861  42.5708 0011234  59.6858 300.5445 14.24169895112222
QIANFAN-25              
1 61558U 24185G   26278.27303263  .00000406  00000+0  23832-3 0  9996
2 61558  88.9871  44.6474 0014261 128.4624 231.7840 14.06143043111170
QIANFAN-26              
1 61559U 24185H   26278.25198938  .00000216  00000+0  20216-3 0  9998
2 61559  88.9861  47.7570 0005886 175.9119 184.2096 13.77950132109501
QIANFAN-27              
1 61560U 24185J   26278.26142794  .00000439  00000+0  17259-3 0  9990
2 61560  88.9871  42.2035 0008552  49.2859 310.9077 14.27615071112469
QIANFAN-28              
1 61561U 24185K   26278.28516416  .00000505  00000+0  19593-3 0  9996
2 61561  88.9890  42.2163 0008382  47.3532 312.8368 14.28503692112506
QIANFAN-29              
1 61562U 24185L   26278.20091713  .00000149  00000+0  21245-3 0  9998
2 61562  88.9829  50.6739 0008030 272.6098  87.4134 13.51099404107822
QIANFAN-30              
1 61563U 24185M   26278.25187403  .00000060  00000+0  75403-4 0  9994
2 61563  88.9850  50.3080 0005918 253.7778 106.2722 13.50079101108072
QIANFAN-31              
1 61564U 24185N   26278.24650672  .00000081  00000+0  95208-4 0  9995
2 61564  88.9835  49.6402 0005668 232.2461 127.8181 13.58069199108407
QIANFAN-32              
1 61565U 24185P   26278.28045145  .00000146  00000+0  20870-3 0  9997
2 61565  88.9889  50.5252 0007809 294.2325  65.8010 13.50809783108075
QIANFAN-33              
1 61566U 24185Q   26278.29325844  .00000307  00000+0  21118-3 0  9991
2 61566  88.9859  45.7598 0009629 115.4716 244.7458 13.96762073110552
QIANFAN-34              
1 61567U 24185R   26278.25414722  .00000425  00000+0  26732-3 0  9990
2 61567  88.9837  44.9365 0007830 114.8151 245.3845 14.02532975110911
QIANFAN-35              
1 61568U 24185S   26278.27375529  .00000474  00000+0  18376-3 0  9993
2 61568  88.9870  42.0919 0007488  46.9844 313.1977 14.28372255112504
QIANFAN-36              
1 61569U 24185T   26278.31336738  .00000103  00000+0  13133-3 0  9993
2 61569  88.9826  50.1460 0004646 253.7115 106.3528 13.55650171108109
QIANFAN-37              
1 62238U 24232B   26278.24389543  .00000099  00000+0  13426-3 0  9993
2 62238  89.0167  11.5735 0001530  94.0459 266.0867 13.51033628139208
QIANFAN-38              
1 62239U 24232C   26278.26868646  .00000092  00000+0  12326-3 0  9993
2 62239  89.0173  11.5069 0015959  64.0717 296.2077 13.51031782139263
QIANFAN-39              
1 62240U 24232D   26278.28352388  .00000337  00000+0  13628-3 0  9996
2 62240  89.0144   3.5754 0016435 179.0904 181.0322 14.25571519143639
QIANFAN-40              
1 62241U 24232E   26278.30160681  .00000092  00000+0  12395-3 0  9991
2 62241  89.0200  11.1708 0015231  71.6011 288.6795 13.51032081139633
QIANFAN-41              
1 62242U 24232F   26278.30979092  .00000097  00000+0  13114-3 0  9991
2 62242  89.0171  11.4488 0015264  60.5855 299.6818 13.51033275139294
QIANFAN-42              
1 62243U 24232G   26278.25999501  .00000316  00000+0  12969-3 0  9994
2 62243  89.0142   3.6691 0014974 185.6391 174.4635 14.24658057143589
QIANFAN-43              
1 62244U 24232H   26278.30569786  .00000094  00000+0  12689-3 0  9991
2 62244  89.0175  11.5277 0016947  64.7962 295.4944 13.51020727107906
QIANFAN-44              
1 62245U 24232J   26278.29336820  .00000110  00000+0  15080-3 0  9998
2 62245  89.0174  11.3347 0015091  62.7676 297.5011 13.51032853139378
QIANFAN-45              
1 62246U 24232K   26278.26048360  .00000097  00000+0  13133-3 0  9996
2 62246  89.0177  11.4951 0015744  62.2809 297.9937 13.51031534139299
QIANFAN-46              
1 62247U 24232L   26278.28509635  .00000095  00000+0  12889-3 0  9991
2 62247  89.0174  11.5495 0015934  67.1983 293.0850 13.51032609139250
QIANFAN-47              
1 62248U 24232M   26278.28926297  .00000106  00000+0  14467-3 0  9996
2 62248  89.0170  11.4701 0016332  66.2688 294.0174 13.51031961139284
QIANFAN-48              
1 62249U 24232N   26278.25239129  .00000118  00000+0  16365-3 0  9997
2 62249  89.0173  11.4872 0018632  68.1700 292.1431 13.51026427139284
QIANFAN-49              
1 62250U 24232P   26278.23987114  .00000104  00000+0  14279-3 0  9998
2 62250  89.0173  11.4986 0015598  64.1233 296.1524 13.51033486107877
QIANFAN-50              
1 62251U 24232Q   26278.26452740  .00000105  00000+0  14306-3 0  9996
2 62251  89.0178  11.5204 0017276  64.7504 295.5436 13.51033003107903
QIANFAN-51              
1 62252U 24232R   26278.24812187  .00000099  00000+0  13417-3 0  9994
2 62252  89.0172  11.4978 0014854  69.0656 291.2083 13.51031857107894
QIANFAN-52              
1 62253U 24232S   26278.27687200  .00000099  00000+0  13488-3 0  9992
2 62253  89.0168  11.3569 0016684  61.0920 299.1902 13.51033937107982
QIANFAN-53              
1 62254U 24232T   26278.25641142  .00000108  00000+0  14811-3 0  9998
2 62254  89.0175  11.4859 0015598  62.5767 297.6969 13.51030590107946
QIANFAN-54              
1 62255U 24232U   26278.29747783  .00000103  00000+0  14108-3 0  9995
2 62255  89.0166  11.1340 0004153 103.0060 257.1555 13.51032472139455
QIANFAN-55              
1 62785U 25016A   26278.24959803  .00000050  00000+0  58687-4 0  9999
2 62785  88.9689  72.4198 0016633 206.1437 153.8876 13.51025660 87227
QIANFAN-56              
1 62786U 25016B   26278.26585997  .00000033  00000+0  33140-4 0  9999
2 62786  88.9663  72.1757 0015168 208.3501 151.6826 13.51020839 87275
QIANFAN-57              
1 62787U 25016C   26278.22485548  .00000043  00000+0  47217-4 0  9998
2 62787  88.9693  72.4257 0001989  75.5158 284.6214 13.51028608 87231
QIANFAN-58              
1 62788U 25016D   26278.27015126  .00000043  00000+0  48227-4 0  9997
2 62788  88.9664  72.1626 0013308 199.5173 160.5471 13.51028070 87284
QIANFAN-59              
1 62789U 25016E   26278.22063496  .00000045  00000+0  50542-4 0  9991
2 62789  88.9687  72.3112 0013550 203.7748 156.2779 13.51025475 87275
QIANFAN-60              
1 62790U 25016F   26278.25352113  .00000045  00000+0  51049-4 0  9996
2 62790  88.9668  72.2229 0015182 200.6369 159.4171 13.51022500 87268
QIANFAN-61              
1 62791U 25016G   26278.28648419  .00000052  00000+0  61767-4 0  9993
2 62791  88.9734  72.5827 0014181 199.6171 160.4436 13.51028521 87283
QIANFAN-62              
1 62792U 25016H   26278.29072503  .00000042  00000+0  47070-4 0  9990
2 62792  88.9682  72.2916 0015505 200.3934 159.6600 13.51027874 87272
QIANFAN-63              
1 62793U 25016J   26278.24132564  .00000051  00000+0  60584-4 0  9995
2 62793  88.9689  72.2684 0015416 206.1413 153.8962 13.51023761 87301
QIANFAN-64              
1 62794U 25016K   26278.28239464  .00000050  00000+0  58133-4 0  9993
2 62794  88.9676  72.1985 0013563 197.7884 162.2794 13.51028466 87303
QIANFAN-65              
1 62795U 25016L   26278.27822180  .00000054  00000+0  64230-4 0  9995
2 62795  88.9672  72.2143 0013373 199.5110 160.5531 13.51024565 87281
QIANFAN-66              
1 62796U 25016M   26278.23302553  .00000057  00000+0  70233-4 0  9992
2 62796  88.9692  72.2474 0014587 195.6612 164.4090 13.51020649 87320
QIANFAN-67              
1 62797U 25016N   26278.23709978  .00000063  00000+0  78424-4 0  9992
2 62797  88.9682  72.2434 0014361 202.7703 157.2813 13.51020903 87299
QIANFAN-68              
1 62798U 25016P   26278.22895970  .00000050  00000+0  58478-4 0  9993
2 62798  88.9685  72.2999 0014492 200.6061 159.4507 13.51022824 87274
QIANFAN-69              
1 62799U 25016Q   26278.24530811  .00000056  00000+0  67683-4 0  9990
2 62799  88.9665  72.1048 0015179 202.2890 157.7604 13.51021655 87313
QIANFAN-70              
1 62800U 25016R   26278.26188752  .00000056  00000+0  67289-4 0  9990
2 62800  88.9685  72.3031 0015062 192.2217 167.8571 13.51025103 87276
QIANFAN-71              
1 62801U 25016S   26278.25768546  .00000045  00000+0  50989-4 0  9992
2 62801  88.9679  72.2652 0014993 205.9516 154.0885 13.51027759 87279
QIANFAN-72              
1 62802U 25016T   26278.27423339  .00000058  00000+0  71771-4 0  9999
2 62802  88.9669  72.2479 0018056 214.4517 145.5465 13.51029582 87260
QIANFAN-73              
1 63159U 25046A   26278.30117982  .00000030  00000+0  27069-4 0  9997
2 63159  88.9626 289.2156 0014538 354.5003   5.5986 13.51025976 87455
QIANFAN-74              
1 63160U 25046B   26278.28486674  .00000003  00000+0 -14662-4 0  9999
2 63160  88.9625 289.1073 0001903  99.0964 261.0402 13.51018537 87516
QIANFAN-75              
1 63161U 25046C   26278.27237015  .00000090  00000+0  12133-3 0  9997
2 63161  88.9628 289.3464 0015787 357.6392   2.4682 13.51033378 87381
QIANFAN-76              
1 63162U 25046D   26278.26847664  .00000058  00000+0  71373-4 0  9990
2 63162  88.9628 289.3268 0013312 359.5467   0.5670 13.51017943 87397
QIANFAN-77              
1 63163U 25046E   26278.24796177  .00000120  00000+0  77148-4 0  9997
2 63163  88.9637 284.8906 0013054 229.2723 130.7321 13.96249722 89828
QIANFAN-78              
1 63164U 25046F   26278.23609724  .00000071  00000+0  91959-4 0  9999
2 63164  88.9627 289.1916 0014754   0.6637 359.4531 13.51013980 87467
QIANFAN-79              
1 63165U 25046G   26278.26421147  .00000021  00000+0  13464-4 0  9994
2 63165  88.9630 289.3063 0014435 359.3656   0.7475 13.51021392 87412
QIANFAN-80              
1 63166U 25046H   26278.20654701  .00000083  00000+0  10975-3 0  9994
2 63166  88.9628 289.0111 0013491   4.9607 355.1675 13.51019537 87564
QIANFAN-81              
1 63167U 25046J   26278.26005481  .00000102  00000+0  13930-3 0  9992
2 63167  88.9627 289.0727 0014330 353.2312   6.8643 13.51023506 87525
QIANFAN-82              
1 63168U 25046K   26278.29306166  .00000092  00000+0  12346-3 0  9998
2 63168  88.9628 289.1137 0012466   1.3054 358.8127 13.51022663 87514
QIANFAN-83              
1 63169U 25046L   26278.27248256  .00000059  00000+0  60084-4 0  9998
2 63169  88.9631 288.3074 0012693 327.5438  32.4937 13.62065999 87965
QIANFAN-84              
1 63170U 25046M   26278.24786297 -.00000049  00000+0 -94384-4 0  9990
2 63170  88.9626 289.2511 0015337 356.0131   4.0895 13.51014890 87434
QIANFAN-85              
1 63171U 25046N   26278.24363165  .00000092  00000+0  12432-3 0  9995
2 63171  88.9627 289.1209 0012967 359.8594   0.2551 13.51023028 87507
QIANFAN-86              
1 63172U 25046P   26278.25181563  .00000104  00000+0  14231-3 0  9990
2 63172  88.9629 288.9891 0011013   5.9137 354.2142 13.51021134 87589
QIANFAN-87              
1 63173U 25046Q   26278.22302304  .00000024  00000+0  19110-4 0  9999
2 63173  88.9626 289.0929 0011358   0.0075   0.1075 13.51020500 87511
QIANFAN-88              
1 63174U 25046R   26278.23949901  .00000089  00000+0  11958-3 0  9993
2 63174  88.9628 289.0530 0012090   8.7968 351.3393 13.51021619 87541
QIANFAN-89              
1 63175U 25046S   26278.27651890  .00000085  00000+0  11371-3 0  9990
2 63175  88.9628 289.2378 0016225 355.9586   4.1432 13.51022267 87447
QIANFAN-90              
1 63176U 25046T   26278.30540601  .00000029  00000+0  25838-4 0  9994
2 63176  88.9628 289.2083 0013116 356.0404   4.0641 13.51020208 87464
QIANFAN-91              
1 66033U 25233A   26278.26365141  .00000090  00000+0  12034-3 0  9997
2 66033  89.0078  32.0723 0001608 103.0748 257.0583 13.51031783 48045
QIANFAN-92              
1 66034U 25233B   26278.27231863  .00000108  00000+0  14828-3 0  9995
2 66034  89.0062  32.0252 0002162  99.1679 260.9717 13.51029246 48043
QIANFAN-93              
1 66035U 25233C   26278.28032130  .00000104  00000+0  14175-3 0  9994
2 66035  89.0088  32.1059 0001643 101.0191 259.1145 13.51041047 48041
QIANFAN-94              
1 66036U 25233D   26278.26784394  .00000104  00000+0  14235-3 0  9996
2 66036  89.0085  32.0068 0001792 106.6040 253.5308 13.51030268 48094
QIANFAN-95              
1 66037U 25233E   26278.27609210  .00000106  00000+0  14587-3 0  9993
2 66037  89.0083  31.5471 0001590 107.8881 252.2444 13.51030134 48344
QIANFAN-96              
1 66038U 25233F   26278.30070173  .00000087  00000+0  11635-3 0  9997
2 66038  89.0080  32.0849 0001545 102.2961 257.8363 13.51031268 48042
QIANFAN-97              
1 66039U 25233G   26278.28414829  .00000094  00000+0  12696-3 0  9991
2 66039  89.0087  32.0742 0001685 100.9568 259.1773 13.51022267 48044
QIANFAN-98              
1 66040U 25233H   26278.29250570  .00000087  00000+0  11605-3 0  9996
2 66040  89.0073  31.7925 0001975 117.5050 242.6302 13.51031509 48192
QIANFAN-99              
1 66041U 25233J   26278.29651918  .00000083  00000+0  11002-3 0  9995
2 66041  89.0084  32.0777 0001758 117.8065 242.3265 13.51020942 48051
QIANFAN-100             
1 66042U 25233K   26278.28823027  .00000093  00000+0  12493-3 0  9993
2 66042  89.0095  32.0178 0001518 101.5405 258.5916 13.51021619 48101
QIANFAN-101             
1 66043U 25233L   26278.25780885  .00000195  00000+0  74291-4 0  9993
2 66043  89.0083  27.9514 0016799 137.5242 222.7255 14.26867535 50325
QIANFAN-102             
1 66044U 25233M   26278.30895697  .00000099  00000+0  13537-3 0  9996
2 66044  89.0082  31.9836 0001759 108.4021 251.7321 13.51030874 48103
QIANFAN-103             
1 66045U 25233N   26278.31310764  .00000099  00000+0  13422-3 0  9998
2 66045  89.0084  32.0814 0001657 101.7062 258.4275 13.51030927 48057
QIANFAN-104             
1 66046U 25233P   26278.24309520  .00000102  00000+0  13939-3 0  9997
2 66046  89.0089  31.9956 0001871 107.2724 252.8632 13.51028877 48092
QIANFAN-105             
1 66047U 25233Q   26278.25141271  .00000093  00000+0  12502-3 0  9990
2 66047  89.0102  31.8525 0001774 104.2995 255.8353 13.51032154 48208
QIANFAN-106             
1 66048U 25233R   26278.24717738  .00000096  00000+0  13076-3 0  9997
2 66048  89.0071  32.0312 0001921 115.7482 244.3867 13.51032458 48045
QIANFAN-107             
1 66049U 25233S   26278.25542965  .00000092  00000+0  12316-3 0  9999
2 66049  89.0086  32.0803 0001686 102.1381 257.9959 13.51031774 48056
QIANFAN-108             
1 66050U 25233T   26278.25960546  .00000088  00000+0  11807-3 0  9999
2 66050  89.0080  32.0598 0001929 114.0914 246.0439 13.51031466 48057
QIANFAN-109             
1 68636U 26075A   26278.27357170  .00000057  00000+0  69748-4 0  9995
2 68636  88.9837 309.7713 0001630  86.4167 273.7170 13.51022012 24657
QIANFAN-110             
1 68637U 26075B   26278.28173239  .00000044  00000+0  49298-4 0  9993
2 68637  88.9837 309.7920 0002115  93.5222 266.6171 13.51022871 24653
QIANFAN-111             
1 68638U 26075C   26278.26962681  .00000061  00000+0  76320-4 0  9994
2 68638  88.9836 309.7520 0002085  93.6546 266.4843 13.51025433 24678
QIANFAN-112             
1 68639U 26075D   26278.15843952  .00000037  00000+0  38775-4 0  9997
2 68639  88.9835 309.7710 0001815  81.6682 278.4675 13.51024624 24652
QIANFAN-113             
1 68640U 26075E   26278.20358925  .00000049  00000+0  56545-4 0  9994
2 68640  88.9841 309.7663 0002073  90.2212 269.9177 13.51021515 24669
QIANFAN-114             
1 68641U 26075F   26278.28586173  .00000036  00000+0  36733-4 0  9994
2 68641  88.9835 309.7717 0002079  93.4129 266.7260 13.51019937 24664
QIANFAN-115             
1 68642U 26075G   26278.24065309  .00000040  00000+0  42617-4 0  9997
2 68642  88.9836 309.7836 0001913  94.0600 266.0769 13.51025646 24655
QIANFAN-116             
1 68643U 26075H   26278.30233782  .00000043  00000+0  48142-4 0  9999
2 68643  88.9829 309.7296 0001941  83.7817 276.3555 13.51026095 24672
QIANFAN-117             
1 68644U 26075J   26278.29011305  .00000035  00000+0  35407-4 0  9994
2 68644  88.9833 309.7516 0001860  89.5469 270.5896 13.51023987 24671
QIANFAN-118             
1 68645U 26075K   26278.24887004  .00000028  00000+0  25477-4 0  9995
2 68645  88.9838 309.7691 0002212  93.6578 266.4826 13.51025657 24662
QIANFAN-119             
1 68646U 26075L   26278.29821147  .00000046  00000+0  53147-4 0  9992
2 68646  88.9838 309.7598 0001672  91.1603 268.9740 13.51021608 24675
QIANFAN-120             
1 68647U 26075M   26278.23653701  .00000044  00000+0  49776-4 0  9997
2 68647  88.9840 309.7529 0001612  92.5379 267.5957 13.51021394 24679
QIANFAN-121             
1 68648U 26075N   26278.26130780  .00000042  00000+0  46454-4 0  9996
2 68648  88.9837 309.7528 0002133  94.4760 265.6635 13.51024780 24673
QIANFAN-122             
1 68649U 26075P   26278.25298333  .00000032  00000+0  31304-4 0  9992
2 68649  88.9836 309.7505 0001794  87.7986 272.3370 13.51028428 24668
QIANFAN-123             
1 68650U 26075Q   26278.29410813  .00000039  00000+0  41505-4 0  9998
2 68650  88.9833 309.7328 0001603  83.6267 276.5067 13.51021280 24653
QIANFAN-124             
1 68651U 26075R   26278.24478486  .00000035  00000+0  36005-4 0  9999
2 68651  88.9836 309.7498 0001758  86.2143 273.9209 13.51027870 24670
QIANFAN-125             
1 68652U 26075S   26278.25719193  .00000034  00000+0  34314-4 0  9994
2 68652  88.9835 309.7504 0002142  93.7072 266.4325 13.51024948 24679
QIANFAN-126             
1 68653U 26075T   26278.26528837  .00000057  00000+0  69882-4 0  9992
2 68653  88.9839 309.7196 0001609  84.5335 275.6000 13.51020708 24692
QIANFAN-127             
1 69073U 26104A   26278.27064685  .00000044  00000+0  49452-4 0  9996
2 69073  88.9898 330.2478 0002431  94.2369 265.9060 13.51029899 20026
QIANFAN-128             
1 69074U 26104B   26278.20474372  .00000050  00000+0  58703-4 0  9994
2 69074  88.9876 330.2750 0002462 106.0766 254.0656 13.51025335 19998
QIANFAN-129             
1 69075U 26104C   26278.30342383  .00000045  00000+0  50512-4 0  9996
2 69075  88.9878 330.1996 0002402 101.4449 258.6972 13.51025454 20044
QIANFAN-130             
1 69076U 26104D   26278.26639707  .00000045  00000+0  51606-4 0  9996
2 69076  88.9881 330.2696 0002261  89.8568 270.2842 13.51023506 20009
QIANFAN-131             
1 69077U 26104E   26278.21303967  .00000059  00000+0  72938-4 0  9994
2 69077  88.9874 330.2345 0002183 104.8057 255.3336 13.51027586 20012
QIANFAN-132             
1 69078U 26104F   26278.20058111  .00000047  00000+0  53685-4 0  9997
2 69078  88.9876 330.2928 0002241  93.9349 266.2059 13.51023812 19984
QIANFAN-133             
1 69079U 26104G   26278.20884923  .00000055  00000+0  66112-4 0  9994
2 69079  88.9879 330.2426 0002328 109.4901 250.6502 13.51022373 20000
QIANFAN-134             
1 69080U 26104H   26278.23761428  .00000047  00000+0  54408-4 0  9999
2 69080  88.9884 330.2667 0002408 106.2400 253.9017 13.51030945 20004
QIANFAN-135             
1 69081U 26104J   26278.29109794  .00000059  00000+0  73057-4 0  9992
2 69081  88.9877 330.2510 0002608 102.8329 257.3113 13.51024103 20013
QIANFAN-136             
1 69082U 26104K   26278.29930467  .00000054  00000+0  65512-4 0  9994
2 69082  88.9879 330.2535 0002325 107.8817 252.2588 13.51020881 20015
QIANFAN-137             
1 69083U 26104L   26278.29528805  .00000049  00000+0  57351-4 0  9990
2 69083  88.9888 330.1320 0002159  96.5064 263.6333 13.51023716 20081
QIANFAN-138             
1 69084U 26104M   26278.24583862  .00000054  00000+0  64798-4 0  9999
2 69084  88.9873 330.2578 0002519  97.3574 262.7864 13.51023513 20003
QIANFAN-139             
1 69085U 26104N   26278.15951210  .00000054  00000+0  64511-4 0  9999
2 69085  88.9875 330.2487 0002342  93.2731 266.8688 13.51032273 20001
QIANFAN-140             
1 69086U 26104P   26278.24172575  .00000054  00000+0  65442-4 0  9993
2 69086  88.9876 330.2440 0002634 100.9525 259.1922 13.51024704 20010
QIANFAN-141             
1 69087U 26104Q   26278.25004834  .00000051  00000+0  60869-4 0  9992
2 69087  88.9873 330.2070 0002513 104.5325 255.6105 13.51022402 20030
QIANFAN-142             
1 69088U 26104R   26278.25819484  .00000054  00000+0  65717-4 0  9998
2 69088  88.9871 330.2052 0002514  98.3703 261.7733 13.51021622 20038
QIANFAN-143             
1 69089U 26104S   26278.25410908  .00000059  00000+0  73164-4 0  9997
2 69089  88.9882 330.2139 0002126 105.5492 254.5894 13.51029086 20032
QIANFAN-144             
1 69090U 26104T   26278.26230064  .00000046  00000+0  52962-4 0  9992
2 69090  88.9880 330.2310 0002458  94.8325 265.3107 13.51022451 20021
QIANFAN-145             
1 69104U 26108A   26278.26657032  .00000105  00000+0  14351-3 0  9995
2 69104  89.0203  11.0714 0001765 113.8619 246.2717 13.51024870 19309
QIANFAN-146             
1 69105U 26108B   26278.29949742  .00000115  00000+0  15988-3 0  9999
2 69105  89.0205  10.9055 0001881 102.9276 257.2086 13.51022892 19409
QIANFAN-147             
1 69106U 26108C   26278.27496129  .00000096  00000+0  13018-3 0  9994
2 69106  89.0205  11.0753 0002060 102.5390 257.5992 13.51028292 19296
QIANFAN-148             
1 69107U 26108D   26278.26255599  .00000115  00000+0  15910-3 0  9993
2 69107  89.0198  11.0655 0002167 108.3455 251.7932 13.51027989 19295
QIANFAN-149             
1 69108U 26108E   26278.27072525  .00000101  00000+0  13790-3 0  9990
2 69108  89.0198  11.0859 0002360 102.6618 257.4797 13.51027373 19294
QIANFAN-150             
1 69109U 26108F   26278.27893504  .00000070  00000+0  89998-4 0  9998
2 69109  89.0203  11.0392 0002350 101.5743 258.5672 13.51021080 19316
QIANFAN-151             
1 69110U 26108G   26278.30785707  .00000106  00000+0  14637-3 0  9996
2 69110  89.0203  11.0599 0001887 108.3620 251.7737 13.51031062 19307
QIANFAN-152             
1 69111U 26108H   26278.28716388  .00000118  00000+0  16446-3 0  9996
2 69111  89.0199  11.0531 0002008  95.2888 264.8492 13.51023747 19319
QIANFAN-153             
1 69112U 26108J   26278.28304600  .00000106  00000+0  14488-3 0  9998
2 69112  89.0195  11.0294 0002181 100.0507 260.0890 13.51024898 19315
QIANFAN-154             
1 69113U 26108K   26278.29135952  .00000116  00000+0  16044-3 0  9993
2 69113  89.0206  11.0790 0002177 103.0477 257.0918 13.51030164 19303
QIANFAN-155             
1 69114U 26108L   26278.29539607  .00000117  00000+0  16291-3 0  9994
2 69114  89.0203  11.0427 0002260 100.3433 259.7973 13.51026958 19310
QIANFAN-156             
1 69115U 26108M   26278.24191027  .00000107  00000+0  14789-3 0  9999
2 69115  89.0218  11.0516 0002062 109.3009 250.8366 13.51022687 19328
QIANFAN-157             
1 69116U 26108N   26278.30371321  .00000110  00000+0  15173-3 0  9996
2 69116  89.0199  10.9659 0002265 107.7673 252.3725 13.51031786 19367
QIANFAN-158             
1 69117U 26108P   26278.24598416  .00000109  00000+0  15018-3 0  9992
2 69117  89.0201  11.0132 0001988 109.0024 251.1343 13.51024984 19338
QIANFAN-159             
1 69118U 26108Q   26278.31185391  .00000106  00000+0  14592-3 0  9998
2 69118  89.0192  11.0116 0001947 107.0902 253.0463 13.51027086 19338
QIANFAN-160             
1 69119U 26108R   26278.25438426  .00000117  00000+0  16325-3 0  9990
2 69119  89.0207  11.0571 0002360  98.8743 261.2676 13.51027144 19311
QIANFAN-161             
1 69120U 26108S   26278.25835845  .00000107  00000+0  14711-3 0  9994
2 69120  89.0215  10.9746 0001951 108.4752 251.6612 13.51025453 19366
QIANFAN-162             
1 69121U 26108T   26278.25014566  .00000117  00000+0  16189-3 0  9996
2 69121  89.0204  10.9990 0002001  98.5523 261.5855 13.51026291 19335
QIANFAN-163             
1 69325U 26121A   26278.06669018  .00000007  00000+0 -84024-5 0  9998
2 69325  89.0080 289.5674 0002862 106.1265 254.0202 13.51022018 17008
QIANFAN-164             
1 69326U 26121B   26278.10784316  .00000056  00000+0  67731-4 0  9991
2 69326  89.0081 289.5536 0002424 104.5699 255.5721 13.51022563 17012
QIANFAN-165             
1 69382U 26124A   26278.26563697  .00000097  00000+0  13140-3 0  9999
2 69382  89.0060 350.5404 0002375 116.8961 243.2433 13.51025193 16900
QIANFAN-166             
1 69383U 26124B   26278.26977688  .00000096  00000+0  12982-3 0  9991
2 69383  89.0078 350.5536 0001920 108.6342 251.5017 13.51025856 16909
QIANFAN-167             
1 69384U 26124C   26278.27366979  .00000101  00000+0  13778-3 0  9999
2 69384  89.0052 350.5548 0002261 102.9197 257.2207 13.51034789 16896
QIANFAN-168             
1 69385U 26124D   26278.27785937  .00000096  00000+0  12969-3 0  9993
2 69385  89.0049 350.5338 0001895 115.1513 244.9834 13.51023393 16900
QIANFAN-169             
1 69386U 26124E   26278.28208012  .00000092  00000+0  12330-3 0  9997
2 69386  89.0047 350.5329 0001836 105.5203 254.6151 13.51026592 16907
QIANFAN-170             
1 69387U 26124F   26278.28611848  .00000083  00000+0  10983-3 0  9995
2 69387  89.0065 350.5075 0001758 105.6962 254.4383 13.51029022 16920
QIANFAN-171             
1 69388U 26124G   26278.22032476  .00000086  00000+0  11503-3 0  9996
2 69388  89.0079 350.5289 0002113 101.9264 258.2124 13.51031971 16913
QIANFAN-172             
1 69389U 26124H   26278.21612232  .00000085  00000+0  11364-3 0  9994
2 69389  89.0062 350.5165 0002236 116.1688 243.9693 13.51032534 16911
QIANFAN-173             
1 69390U 26124J   26278.22432091  .00000096  00000+0  13072-3 0  9990
2 69390  89.0051 350.5105 0001779 112.7789 247.3551 13.51025599 16914
QIANFAN-174             
1 69391U 26124K   26278.31071454  .00000055  00000+0  66074-4 0  9999
2 69391  89.0032 350.4562 0002321 103.8139 256.3271 13.51020222 16933
QIANFAN-175             
1 69392U 26124L   26278.24094080  .00000098  00000+0  13386-3 0  9996
2 69392  89.0084 350.5162 0001872 107.8333 252.3023 13.51030486 16921
QIANFAN-176             
1 69393U 26124M   26278.24506732  .00000094  00000+0  12704-3 0  9998
2 69393  89.0045 350.4898 0001884 107.4800 252.6557 13.51024202 16915
QIANFAN-177             
1 69394U 26124N   26278.25317639  .00000092  00000+0  12341-3 0  9991
2 69394  89.0055 350.4791 0002262 105.9312 254.2089 13.51033322 16934
QIANFAN-178             
1 69395U 26124P   26278.24904838  .00000086  00000+0  11463-3 0  9991
2 69395  89.0001 350.4269 0001882 106.5927 253.5431 13.51029174 16946
QIANFAN-179             
1 69396U 26124Q   26278.25730235  .00000087  00000+0  11644-3 0  9993
2 69396  89.0033 350.4492 0001855 106.8127 253.3228 13.51032810 16948
QIANFAN-180             
1 69397U 26124R   26278.26151495  .00000097  00000+0  13167-3 0  9993
2 69397  89.0040 350.4707 0001736 104.5638 255.5705 13.51025011 16934
QIANFAN-181             
1 69398U 26124S   26278.22856384  .00000092  00000+0  12414-3 0  9998
2 69398  89.0062 350.5709 0002191 102.9107 257.2289 13.51026909 16888
QIANFAN-182             
1 69399U 26124T   26278.23255913  .00000106  00000+0  14525-3 0  9992
2 69399  89.0037 350.5370 0001927 108.5670 251.5691 13.51031560 16881
QIANFAN-183             
1 69401U 26125A   26278.26720830  .00000049  00000+0  56947-4 0  9996
2 69401  88.9836 268.7874 0002324  96.6247 263.5169 13.51027915 16802
QIANFAN-184             
1 69402U 26125B   26278.27543799  .00000052  00000+0  61615-4 0  9997
2 69402  88.9887 268.8216 0002202  94.8986 265.2417 13.51029444 16809
QIANFAN-185             
1 69403U 26125C   26278.30019640  .00000063  00000+0  79078-4 0  9999
2 69403  88.9901 268.7613 0002210  97.5045 262.6358 13.51028996 16842
QIANFAN-186             
1 69404U 26125D   26278.27143070  .00000046  00000+0  52615-4 0  9990
2 69404  88.9889 268.8224 0002200  93.0989 267.0414 13.51028402 16804
QIANFAN-187             
1 69405U 26125E   26278.27966110  .00000044  00000+0  49091-4 0  9991
2 69405  88.9889 268.8043 0002398  92.9416 267.2010 13.51029110 16817
QIANFAN-188             
1 69406U 26125F   26278.28769198  .00000053  00000+0  63514-4 0  9996
2 69406  88.9887 268.8029 0002393  96.8900 263.2523 13.51030020 16813
QIANFAN-189             
1 69407U 26125G   26278.29598663  .00000046  00000+0  52814-4 0  9998
2 69407  88.9870 268.7940 0002542  99.5534 260.5904 13.51019365 16807
QIANFAN-190             
1 69408U 26125H   26278.28363607  .00000044  00000+0  48850-4 0  9999
2 69408  88.9871 268.7934 0002134  95.4460 264.6934 13.51019425 16818
QIANFAN-191             
1 69409U 26125J   26278.30828635  .00000061  00000+0  75758-4 0  9996
2 69409  88.9885 268.8050 0002360  97.1688 262.9731 13.51019998 16817
QIANFAN-192             
1 69410U 26125K   26278.29187224  .00000046  00000+0  52462-4 0  9998
2 69410  88.9891 268.8083 0002517  97.4746 262.6691 13.51019968 16813
QIANFAN-193             
1 69411U 26125L   26278.24254586  .00000053  00000+0  63247-4 0  9991
2 69411  88.9870 268.7862 0002310  99.2742 260.8671 13.51027949 16818
QIANFAN-194             
1 69412U 26125M   26278.23843380  .00000056  00000+0  68196-4 0  9998
2 69412  88.9902 268.8063 0002377  96.5368 263.6054 13.51026513 16807
QIANFAN-195             
1 69413U 26125N   26278.24674609  .00000050  00000+0  59306-4 0  9993
2 69413  88.9904 268.7906 0001976  90.1587 269.9791 13.51028309 16826
QIANFAN-196             
1 69414U 26125P   26278.25479815  .00000041  00000+0  44219-4 0  9994
2 69414  88.9909 268.7945 0002025  94.5003 265.6379 13.51020448 16823
QIANFAN-197             
1 69415U 26125Q   26278.26319153  .00000041  00000+0  45202-4 0  9997
2 69415  88.9883 268.7611 0002292  96.0462 264.0951 13.51024051 16820
QIANFAN-198             
1 69416U 26125R   26278.25075057  .00000036  00000+0  37111-4 0  9993
2 69416  88.9877 268.7741 0002382  97.1599 262.9823 13.51028595 16823
QIANFAN-199             
1 69417U 26125S   26278.25905663  .00000052  00000+0  62321-4 0  9998
2 69417  88.9882 268.7241 0002481  92.8165 267.3270 13.51026223 16850
QIANFAN-200             
1 69418U 26125T   26278.30425604  .00000063  00000+0  78295-4 0  9996
2 69418  88.9888 268.8060 0002461  98.7162 261.4268 13.51026743 16812
QIANFAN-201             
1 69800U 26153A   26278.13876030  .00000033  00000+0  15597-4 0  9999
2 69800  88.9966 349.8604 0002653 331.8579  28.2452 13.91672235 13092
QIANFAN-202             
1 69801U 26153B   26277.87009411 -.01819234  00000+0 -15156+1 0  9992
2 69801  88.9966 349.8392 0005754 284.7990  75.2548 13.92847928 13075
QIANFAN-203             
1 69802U 26153C   26277.78352386 -.01881351  00000+0 -15542+1 0  9993
2 69802  88.9964 349.8821 0005827 305.4727  54.5903 13.92803868 13059
QIANFAN-204             
1 69803U 26153D   26277.84607243 -.01845264  00000+0 -16104+1 0  9994
2 69803  88.9961 349.8738 0007569 234.8661 125.1804 13.90213593 13065
QIANFAN-205             
1 69804U 26153E   26277.82052733 -.01788690  00000+0 -15575+1 0  9991
2 69804  88.9961 349.9055 0009336 323.4524  36.6011 13.90203654 13047
QIANFAN-206             
1 69805U 26153F   26277.86816764 -.01791577  00000+0 -15110+1 0  9991
2 69805  88.9964 349.8389 0005870 331.3469  28.7382 13.92073575 13081
QIANFAN-207             
1 69806U 26153G   26278.25589117  .00000038  00000+0  19247-4 0  9996
2 69806  88.9969 349.8411 0004222 304.5021  55.5755 13.93058811 13112
QIANFAN-208             
1 69807U 26153H   26277.81423701 -.01812868  00000+0 -16238+1 0  9992
2 69807  88.9959 349.8857 0007839 331.3253  28.7488 13.88622875 13068
QIANFAN-209             
1 69808U 26153J   26278.00424291  .00000036  00000+0  17680-4 0  9999
2 69808  88.9972 349.8789 0004023 282.5378  77.5346 13.92216224 13073
QIANFAN-210             
1 69809U 26153K   26278.11802398  .00000036  00000+0  17540-4 0  9995
2 69809  88.9969 349.8583 0004944 306.6188  53.4531 13.92234067 13097
QIANFAN-211             
1 69810U 26153L   26278.28834189  .00000311  00000+0  15494-3 0  9999
2 69810  88.9968 349.7541 0005555 283.9483  76.1086 14.14549076 13164
QIANFAN-212             
1 69811U 26153M   26277.82921915 -.01954924  00000+0 -16414+1 0  9994
2 69811  88.9957 349.8512 0005998 285.5900  74.4612 13.92018931 13077
QIANFAN-213             
1 69812U 26153N   26277.95357964  .00000173  00000+0  11777-3 0  9991
2 69812  88.9972 349.8513 0004281 298.8900  61.1847 13.95389970 13088
QIANFAN-214             
1 69813U 26153P   26277.85921774 -.01900122  00000+0 -14817+1 0  9998
2 69813  88.9965 349.8006 0002391  76.8148 283.3295 13.96158285 13108
QIANFAN-215             
1 69814U 26153Q   26278.27059357  .00000360  00000+0  17820-3 0  9997
2 69814  88.9966 349.6746 0005412 296.5857  63.4776 14.15206934 13203
QIANFAN-216             
1 69815U 26153R   26278.07940457  .00000036  00000+0  15548-4 0  9992
2 69815  88.9969 349.7590 0004386 306.2184  53.8589 13.99732439 13149
QIANFAN-217             
1 69816U 26153S   26277.81776627 -.01898497  00000+0 -11030+1 0  9997
2 69816  88.9960 349.6620 0008675 291.3099  68.7161 14.12557792 13175
QIANFAN-218             
1 69817U 26153T   26277.96793905  .00000053  00000+0  19848-4 0  9991
2 69817  88.9969 349.6506 0003796 312.3526  47.7340 14.15798438 13191
QIANFAN-219             
1 69848U 26155A   26278.27111194  .00000093  00000+0  12522-3 0  9991
2 69848  89.0113  52.2213 0001590 109.0629 251.0694 13.51030240 12735
QIANFAN-220             
1 69849U 26155B   26278.29109731  .00000092  00000+0  12477-3 0  9996
2 69849  89.0119  52.2492 0033414 328.8094  31.1074 13.50936059 12728
QIANFAN-221             
1 69850U 26155C   26277.77651793 -.01830652  00000+0 -23719+1 0  9994
2 69850  89.0114  52.0107 0027946 339.2864  20.7161 13.66358492 12817
QIANFAN-222             
1 69851U 26155D   26278.30814251  .00000075  00000+0  96925-4 0  9993
2 69851  89.0120  52.2662 0001737 100.0826 260.0521 13.51025660 12715
QIANFAN-223             
1 69852U 26155E   26278.26282551  .00000132  00000+0  18608-3 0  9996
2 69852  89.0118  52.2787 0001809 100.9926 259.1429 13.51032339 12707
QIANFAN-224             
1 69853U 26155F   26278.23816544  .00000030  00000+0  27918-4 0  9991
2 69853  89.0102  52.2215 0001739 102.3129 257.8217 13.51028555 12727
QIANFAN-225             
1 69854U 26155G   26278.24226218  .00000074  00000+0  95386-4 0  9998
2 69854  89.0110  52.2698 0001749 103.4347 256.6999 13.51032359 12706
QIANFAN-226             
1 69855U 26155H   26278.24644755  .00000091  00000+0  12160-3 0  9996
2 69855  89.0112  52.2521 0001695 105.1354 254.9985 13.51033550 12712
QIANFAN-227             
1 69856U 26155J   26278.25041136  .00000096  00000+0  12989-3 0  9996
2 69856  89.0111  52.2550 0034108 330.7020  29.2218 13.51040405 12714
QIANFAN-228             
1 69857U 26155K   26277.80846529 -.01777237  00000+0 -31256+1 0  9992
2 69857  89.0115  52.2844 0014553 335.8195  24.2270 13.47084656 12664
QIANFAN-229             
1 69858U 26155L   26278.26697259  .00000088  00000+0  11813-3 0  9998
2 69858  89.0119  52.2233 0001786 100.6124 259.5228 13.51036715 12737
QIANFAN-230             
1 69859U 26155M   26278.30394551  .00000080  00000+0  10605-3 0  9993
2 69859  89.0115  52.2617 0001732 103.3756 256.7589 13.51034897 12718
QIANFAN-231             
1 69860U 26155N   26277.82873847 -.01734071  00000+0 -30335+1 0  9997
2 69860  89.0110  52.2506 0029540 326.6357  33.2930 13.47194481 12681
QIANFAN-232             
1 69861U 26155P   26278.25487454  .00000093  00000+0  12689-3 0  9993
2 69861  89.0109  52.2168 0024840 326.5518  33.4063 13.50453684 12732
QIANFAN-233             
1 69862U 26155Q   26278.27936696  .00000038  00000+0  40445-4 0  9994
2 69862  89.0114  52.2063 0001712 108.1946 251.9392 13.51035805 12740
QIANFAN-234             
1 69863U 26155R   26278.29349723  .00000059  00000+0  67577-4 0  9994
2 69863  89.0104  52.1353 0032737 325.7368  34.1673 13.55605829 12787
QIANFAN-235             
1 69864U 26155S   26277.79218909 -.01875555  00000+0 -19723+1 0  9990
2 69864  89.0112  51.9249 0029628 331.9639  27.9931 13.79114558 12869
QIANFAN-236             
1 69865U 26155T   26277.76738459 -.01789905  00000+0 -31464+1 0  9994
2 69865  89.0114  52.2805 0007114 316.6468  43.4121 13.47175251 12664
QIANFAN-237             
1 69866U 26155U   26277.77121921 -.01671468  00000+0 -29478+1 0  9992
2 69866  89.0115  52.2442 0005011  66.2651 293.9023 13.46687316 12672
QIANFAN-238             
1 69867U 26155V   26277.77559614 -.01766595  00000+0 -31142+1 0  9994
2 69867  89.0116  52.2622 0004867  92.7457 267.4249 13.46944600 12678
