GLOBALSTAR M069         
1 31573U 07020C   26282.31016536 -.00000073  00000+0  17921-3 0  9996
2 31573  52.0030 289.1128 0001993  24.9860 348.4043 12.23475268892772
GLOBALSTAR M072         
1 31574U 07020D   26282.15111081 -.00000052  00000+0  44136-3 0  9995
2 31574  51.9911 156.8422 0001385 130.3329  36.7951 11.91660353888565
GLOBALSTAR M066         
1 32265U 07048C   26281.81837074 -.00000090  00000+0  34307-4 0  9994
2 32265  51.9571  91.7065 0003796 280.2808 189.5042 12.30390355874211
GLOBALSTAR M079         
1 37188U 10054A   26282.02574321 -.00000081  00000+0  12823-3 0  9999
2 37188  52.0016 122.1285 0000659  96.4698  68.1283 12.62262941736926
GLOBALSTAR M074         
1 37189U 10054B   26282.81091759 -.00000103  00000+0  51570-5 0  9995
2 37189  52.0000 118.9872 0000845  78.6384 294.5986 12.62263588737638
GLOBALSTAR M076         
1 37190U 10054C   26281.04960926 -.00000066  00000+0  20940-3 0  9995
2 37190  52.0007 124.5626 0000634  73.8300  91.9290 12.62264238737122
GLOBALSTAR M077         
1 37191U 10054D   26281.88967774 -.00000075  00000+0  62970-4 0  9996
2 37191  51.9945 250.7012 0003171  27.6955 346.3369 11.67547594734422
GLOBALSTAR M075         
1 37192U 10054E   26282.17236255 -.00000081  00000+0  12908-3 0  9995
2 37192  51.9932 163.1351 0000872  80.5315  90.4533 12.62261095736332
GLOBALSTAR M073         
1 37193U 10054F   26282.88199191 -.00000107  00000+0 -18438-4 0  9996
2 37193  52.0054  75.1578 0000556 106.3839  50.2231 12.62268521738411
GLOBALSTAR M083         
1 37739U 11033A   26282.31395670 -.00000110  00000+0 -32337-4 0  9996
2 37739  51.9881  24.9619 0000292 119.5288 274.2922 12.62269361707360
GLOBALSTAR M088         
1 37740U 11033B   26282.79259838 -.00000088  00000+0  88728-4 0  9993
2 37740  52.0214 290.2097 0000377  69.5577 101.0260 12.62270829702965
GLOBALSTAR M091         
1 37741U 11033C   26282.32548067 -.00000107  00000+0 -17952-4 0  9992
2 37741  51.9989 254.4294 0000374  77.3224  68.8918 12.62265217703693
GLOBALSTAR M085         
1 37742U 11033D   26282.84326506 -.00000099  00000+0  25929-4 0  9994
2 37742  52.0117 204.2450 0000538  79.1309 320.9816 12.62265574704272
GLOBALSTAR M081         
1 37743U 11033E   26282.78538931 -.00000108  00000+0 -25297-4 0  9995
2 37743  51.9950 206.7257 0000613  58.1674 319.2988 12.62266654704411
GLOBALSTAR M089         
1 37744U 11033F   26282.14446475 -.00000085  00000+0  10365-3 0  9999
2 37744  51.9915 162.8156 0000993  62.2157 102.1956 12.62264033705173
GLOBALSTAR M084         
1 38040U 11080A   26282.28381830 -.00000111  00000+0 -38883-4 0  9996
2 38040  52.0032  29.9296 0000498  82.6178 295.4001 12.62264133683175
GLOBALSTAR M080         
1 38041U 11080B   26282.05372546 -.00000113  00000+0 -49219-4 0  9993
2 38041  52.0080  32.3904 0000965 122.5252  57.5670 12.62268650683266
GLOBALSTAR M082         
1 38042U 11080C   26282.19156435 -.00000086  00000+0  96625-4 0  9997
2 38042  52.0102 347.4843 0000462 139.0484 239.2672 12.62262826683996
GLOBALSTAR M092         
1 38043U 11080D   26282.82628038 -.00000096  00000+0  44492-4 0  9997
2 38043  52.0075  75.9513 0000806  98.4897  45.2112 12.62266710682529
GLOBALSTAR M090         
1 38044U 11080E   26282.13874420 -.00000075  00000+0  15915-3 0  9994
2 38044  52.0149 341.6368 0000361 147.9722 229.6656 12.62268289684106
GLOBALSTAR M086         
1 38045U 11080F   26282.15856642 -.00000096  00000+0  41241-4 0  9998
2 38045  51.9922 341.3167 0000734 310.8284  67.1969 12.62289414684055
GLOBALSTAR M097         
1 39072U 13005A   26282.18763637 -.00000102  00000+0  10449-4 0  9996
2 39072  52.0044 256.3048 0000290  72.8682 287.2217 12.62271665631300
GLOBALSTAR M093         
1 39073U 13005B   26281.92364594 -.00000107  00000+0 -19524-4 0  9996
2 39073  52.0097 250.5021 0000158  52.5166 307.5715 12.62267550631229
GLOBALSTAR M094         
1 39074U 13005C   26282.08196945 -.00000077  00000+0  14716-3 0  9990
2 39074  51.9944 164.0250 0000619  80.3509 279.7428 12.62264920632853
GLOBALSTAR M096         
1 39075U 13005D   26282.17447371 -.00000109  00000+0 -26411-4 0  9996
2 39075  52.0068 212.6316 0000522  80.6148 279.4778 12.62264684631784
GLOBALSTAR M078         
1 39076U 13005E   26282.78154404 -.00000090  00000+0  78885-4 0  9996
2 39076  51.9872 294.6417 0001083 139.5761 220.5186 12.62260941630484
GLOBALSTAR M095         
1 39077U 13005F   26281.22433592 -.00000088  00000+0  87005-4 0  9994
2 39077  52.0079 297.1455 0000420 146.5447 213.5447 12.62264878630147
GLOBALSTAR M087         
1 52888U 22064A   26282.82116183 -.00000109  00000+0 -29383-4 0  9995
2 52888  51.9991  73.4542 0000707 118.9800 241.1138 12.62263290205610
