EUTELSAT 174A           
1 28924U 05052A   26274.78749662  .00000006  00000+0  00000+0 0  9991
2 28924   4.4824  75.1400 0006207 117.4436 275.4432  1.00270760 53409
EUTELSAT 33F            
1 29270U 06032A   26274.94462397  .00000152  00000+0  00000+0 0  9992
2 29270   1.9304  80.8674 0003459 110.6532 192.3373  1.00269525 48371
EUTELSAT HOTBIRD 13C    
1 33459U 08065A   26274.88570068 -.00000286  00000+0  00000+0 0  9991
2 33459   3.2180  77.8261 0003903 122.5966  78.7825  1.00271777 48413
EUTELSAT 36B            
1 36101U 09065A   26274.90563410  .00000108  00000+0  00000+0 0  9997
2 36101   0.7538  80.9925 0005880 112.2144 193.9611  1.00271830 61778
EUTELSAT KA-SAT 9A      
1 37258U 10069A   26274.32722249  .00000060  00000+0  00000+0 0  9997
2 37258   0.0759 355.4212 0005038 167.0906 334.3801  1.00272152 45073
EUTELSAT 7 WEST A       
1 37816U 11051A   26274.89419405 -.00000064  00000+0  00000+0 0  9993
2 37816   0.0702 340.8293 0006567 206.8588 137.5593  1.00270776 54941
EUTELSAT 16A            
1 37836U 11057A   26274.82606744  .00000011  00000+0  00000+0 0  9999
2 37836   0.1344  69.3302 0005613 116.3539 130.7682  1.00022265  8404
EUTELSAT 21B            
1 38992U 12062B   26274.86860288  .00000126  00000+0  00000+0 0  9996
2 38992   0.0696   2.2649 0002899 181.4422 161.1914  1.00272295 50890
EUTELSAT 70B            
1 39020U 12069A   26274.87088338 -.00000048  00000+0  00000+0 0  9999
2 39020   0.0656 353.9233 0003758 195.3440 205.3733  1.00271925 50577
EUTELSAT 117 WEST A     
1 39122U 13012A   26274.74934207 -.00000017  00000+0  00000+0 0  9998
2 39122   0.0402  40.1208 0003080 160.9034 322.4513  1.00272503 49502
EUTELSAT 7B             
1 39163U 13022A   26274.82754079  .00000100  00000+0  00000+0 0  9992
2 39163   0.0681   4.9235 0003138 109.5905 209.9698  1.00271856 49013
EXPRESS-AT1             
1 39612U 14010A   26274.92966256 -.00000128  00000+0  00000+0 0  9993
2 39612   0.5249  84.1349 0004876  93.1842 245.8414  1.00314359 45883
EXPRESS-AT2             
1 39613U 14010B   26274.91809666  .00000074  00000+0  00000+0 0  9993
2 39613   0.0186 214.9149 0000399 281.4836 260.7815  1.00272901 45563
EUTELSAT 3B             
1 39773U 14030A   26274.61114378  .00000017  00000+0  00000+0 0  9995
2 39773   0.0653 355.3020 0004532 196.0995  42.0890  1.00272919 45133
EUTELSAT 115 WEST B     
1 40425U 15010B   26274.64739865 -.00000028  00000+0  00000+0 0  9990
2 40425   0.0107  53.2826 0000418  48.1276  27.1513  1.00273350 42457
EUTELSAT 8 WEST B       
1 40875U 15039B   26274.32384248 -.00000067  00000+0  00000+0 0  9999
2 40875   0.0671   1.1774 0003597 188.4248 289.0502  1.00271713 40720
EUTELSAT 9B             
1 41310U 16005A   26274.68363641  .00000058  00000+0  00000+0 0  9990
2 41310   0.0525  57.4873 0003320 166.8682  41.1929  1.00269726 39182
EUTELSAT 65 WEST A      
1 41382U 16014A   26274.46320708 -.00000279  00000+0  00000+0 0  9998
2 41382   0.0850 303.7870 0002342 250.4123 277.5894  1.00271471 38599
EUTELSAT 117 WEST B     
1 41589U 16038B   26274.64670912 -.00000015  00000+0  00000+0 0  9996
2 41589   0.0105  54.3090 0000437  38.5138  33.3728  1.00271963 37733
EUTELSAT 172B           
1 42741U 17029B   26274.78714995 -.00000009  00000+0  00000+0 0  9996
2 42741   0.0257 139.0397 0000193 115.5552 211.3261  1.00271255 34829
EUTELSAT 7C             
1 44334U 19034B   26274.68320307  .00000045  00000+0  00000+0 0  9992
2 44334   0.0664 183.5146 0003249 355.6465  84.2239  1.00270189  7908
EUTELSAT 5 WEST B       
1 44624U 19067A   26274.89462738 -.00000046  00000+0  00000+0 0  9990
2 44624   0.0648   0.5043 0003251 194.7905 132.4147  1.00271531 25490
EUTELSAT KONNECT        
1 45027U 20005B   26274.89705406  .00000045  00000+0  00000+0 0  9992
2 45027   0.0674  95.8849 0001797 140.6565 104.2673  1.00268792 25400
EUTELSAT QUANTUM        
1 49056U 21069B   26274.88771144  .00000120  00000+0  00000+0 0  9994
2 49056   0.0001  76.4443 0002778  97.4172 204.0677  1.00289256 18995
EUTELSAT KONNECT VHTS   
1 53765U 22110A   26274.26295003  .00000015  00000+0  00000+0 0  9994
2 53765   0.0565 101.7235 0002472  70.5317 295.1260  1.00267919  7907
EUTELSAT HOTBIRD 13F    
1 54048U 22134A   26274.32800250  .00000085  00000+0  00000+0 0  9995
2 54048   0.0608 285.5302 0002025  67.9616 147.6665  1.00270992 14444
EUTELSAT HOTBIRD 13G    
1 54225U 22146A   26274.32800250  .00000085  00000+0  00000+0 0  9995
2 54225   0.0487 236.2899 0002029 309.0965 315.7753  1.00271138  8533
EUTELSAT 10B            
1 54259U 22157A   26274.25738961  .00000067  00000+0  00000+0 0  9995
2 54259   0.0571  98.2086 0001194  31.2739 343.2227  1.00270310 14094
EUTELSAT 36D            
1 59346U 24059A   26273.69104034  .00000156  00000+0  00000+0 0  9994
2 59346   0.0161 190.0495 0000317  50.0113  54.0419  1.00272600  9208
