QIANFAN-1               
1 60379U 24140A   26256.83649973  .00000021  00000+0  12768-4 0  9996
2 60379  88.9664 270.7209 0019030 135.5300 224.7383 13.51025804104491
QIANFAN-2               
1 60380U 24140B   26256.79124339  .00000009  00000+0 -45378-5 0  9998
2 60380  88.9652 270.5277 0014786 110.0710 250.2034 13.51020226104545
QIANFAN-3               
1 60381U 24140C   26256.79964500  .00000020  00000+0  11241-4 0  9994
2 60381  88.9644 270.6385 0015766 121.1655 239.1045 13.51022950104452
QIANFAN-4               
1 60382U 24140D   26256.84888485  .00000015  00000+0  47393-5 0  9990
2 60382  88.9669 270.6003 0015009 112.1214 248.1532 13.51021023104583
QIANFAN-5               
1 60383U 24140E   26256.82413771  .00000029  00000+0  25215-4 0  9994
2 60383  88.9643 270.6603 0016781 131.5178 228.7416 13.51031212104445
QIANFAN-6               
1 60384U 24140F   26256.84477213  .00000017  00000+0  81274-5 0  9993
2 60384  88.9671 270.4791 0015046 117.2881 242.9805 13.51024035104645
QIANFAN-7               
1 60385U 24140G   26256.81937875  .00000126  00000+0  45094-4 0  9996
2 60385  88.9718 261.3416 0013717 206.8178 153.2309 14.27892273109647
QIANFAN-8               
1 60386U 24140H   26256.77907573  .00000016  00000+0  60743-5 0  9991
2 60386  88.9671 270.7268 0018460 120.1232 240.1752 13.51025993104482
QIANFAN-9               
1 60387U 24140J   26256.82835113  .00000019  00000+0  10376-4 0  9997
2 60387  88.9669 270.7914 0018162 119.7288 240.5673 13.51021629104479
QIANFAN-10              
1 60388U 24140K   26256.83246036  .00000015  00000+0  40496-5 0  9992
2 60388  88.9681 270.1673 0016841  99.5011 260.8044 13.51021659104606
QIANFAN-11              
1 60389U 24140L   26256.79554807  .00000009  00000+0 -53696-5 0  9996
2 60389  88.9606 270.5511 0016190 119.1855 241.0918 13.51021037104253
QIANFAN-12              
1 60390U 24140M   26256.81607410  .00000031  00000+0  29512-4 0  9993
2 60390  88.9648 270.7120 0014883 126.0654 234.1878 13.51023603104383
QIANFAN-13              
1 60391U 24140N   26256.78723080  .00000018  00000+0  82762-5 0  9994
2 60391  88.9909 270.9419 0014666 128.1172 232.1304 13.51023633104402
QIANFAN-14              
1 60392U 24140P   26256.81201412  .00000022  00000+0  15543-4 0  9996
2 60392  88.9639 270.6851 0018318 129.4000 230.8777 13.51018799104419
QIANFAN-15              
1 60393U 24140Q   26256.82014709  .00000042  00000+0  46291-4 0  9995
2 60393  88.9663 270.7062 0014362 116.0930 244.1701 13.51027969104404
QIANFAN-16              
1 60394U 24140R   26256.80776104  .00000018  00000+0  84006-5 0  9998
2 60394  88.9665 270.8352 0016180 132.2923 227.9603 13.51025217104316
QIANFAN-17              
1 60395U 24140S   26256.80377137  .00000013  00000+0  11933-5 0  9996
2 60395  88.9676 270.9116 0016700 126.7452 233.5235 13.51021475105273
QIANFAN-18              
1 60396U 24140T   26256.78320441  .00000013  00000+0  19254-5 0  9994
2 60396  88.9671 270.4295 0016305 111.3296 248.9598 13.51020913104669
QIANFAN-19              
1 61552U 24185A   26256.85208441  .00000332  00000+0  16549-3 0  9997
2 61552  88.9847  46.4196 0008466 130.2671 229.9257 14.14528412108556
QIANFAN-20              
1 61553U 24185B   26256.81258884  .00000263  00000+0  14384-3 0  9998
2 61553  88.9841  47.0193 0006030 163.6188 196.5192 14.09069022108225
QIANFAN-21              
1 61554U 24185C   26256.80836600  .00000491  00000+0  21184-3 0  9995
2 61554  88.9767  44.7669 0010691 175.3604 184.7689 14.22928934109082
QIANFAN-22              
1 61555U 24185D   26256.84994685  .00000227  00000+0  18440-3 0  9996
2 61555  88.9820  49.1057 0005080 219.0455 141.0350 13.86428123107059
QIANFAN-23              
1 61556U 24185E   26256.78989159  .00000321  00000+0  15373-3 0  9997
2 61556  88.9840  46.1083 0008831 138.0106 222.1760 14.16550323108686
QIANFAN-24              
1 61557U 24185F   26256.85843205  .00000435  00000+0  18258-3 0  9998
2 61557  88.9825  45.0574 0011525 116.2717 243.9661 14.24152470109179
QIANFAN-25              
1 61558U 24185G   26256.85337397  .00000367  00000+0  21525-3 0  9994
2 61558  88.9832  47.0582 0012326 189.6044 170.4904 14.06126849108169
QIANFAN-26              
1 61559U 24185H   26256.83023963  .00000201  00000+0  18748-3 0  9994
2 61559  88.9825  50.0587 0003832 252.7829 107.2918 13.77942785106552
QIANFAN-27              
1 61560U 24185J   26256.81324624  .00000385  00000+0  15060-3 0  9999
2 61560  88.9837  44.7035 0009512 103.5154 256.7101 14.27599700109402
QIANFAN-28              
1 61561U 24185K   26256.85026691  .00000573  00000+0  22310-3 0  9992
2 61561  88.9854  44.7139 0009410 101.7812 258.4439 14.28481179109443
QIANFAN-29              
1 61562U 24185L   26256.79816479  .00000130  00000+0  18253-3 0  9997
2 61562  88.9792  52.8776 0009140 345.8696  14.2198 13.51092783104936
QIANFAN-30              
1 61563U 24185M   26256.83297691  .00000125  00000+0  17838-3 0  9994
2 61563  88.9813  52.5049 0006533 333.5631  26.5186 13.50074634105182
QIANFAN-31              
1 61564U 24185N   26256.80615198  .00000142  00000+0  17924-3 0  9993
2 61564  88.9798  51.8730 0005578 316.6139  43.4577 13.58062838105494
QIANFAN-32              
1 61565U 24185P   26256.79906000  .00000112  00000+0  15579-3 0  9998
2 61565  88.9852  52.7228 0009499   4.2381 355.8848 13.50805289105176
QIANFAN-33              
1 61566U 24185Q   26256.80154689  .00000267  00000+0  18281-3 0  9993
2 61566  88.9823  48.1437 0007787 171.9849 188.1453 13.96750468107556
QIANFAN-34              
1 61567U 24185R   26256.85077095  .00000434  00000+0  27298-3 0  9998
2 61567  88.9802  47.3379 0006105 161.7736 198.3664 14.02516891107910
QIANFAN-35              
1 61568U 24185S   26256.83690885  .00000503  00000+0  19575-3 0  9991
2 61568  88.9835  44.5940 0008556  99.4852 260.7310 14.28353462109441
QIANFAN-36              
1 61569U 24185T   26256.83480203  .00000066  00000+0  76983-4 0  9994
2 61569  88.9790  52.3755 0005311 339.5750  20.5191 13.55646727105199
QIANFAN-37              
1 62238U 24232B   26256.76604791  .00000102  00000+0  13955-3 0  9993
2 62238  89.0152  13.7096 0002108  87.6945 272.4448 13.51029486136307
QIANFAN-38              
1 62239U 24232C   26256.79080882  .00000084  00000+0  11170-3 0  9992
2 62239  89.0158  13.6416 0016417 118.8651 241.4150 13.51027702136369
QIANFAN-39              
1 62240U 24232D   26256.80459885  .00000376  00000+0  15269-3 0  9996
2 62240  89.0139   6.0003 0013981 254.0666 105.8987 14.25558000140571
QIANFAN-40              
1 62241U 24232E   26256.82372896  .00000110  00000+0  15115-3 0  9991
2 62241  89.0186  13.2995 0015426 125.6221 234.6370 13.51028017136738
QIANFAN-41              
1 62242U 24232F   26256.83193852  .00000092  00000+0  12372-3 0  9997
2 62242  89.0156  13.5839 0015842 115.2064 245.0731 13.51029104136395
QIANFAN-42              
1 62243U 24232G   26256.83755845  .00000358  00000+0  14776-3 0  9999
2 62243  89.0137   6.0844 0012712 262.0248  97.9503 14.24645201140531
QIANFAN-43              
1 62244U 24232H   26256.82782647  .00000079  00000+0  10354-3 0  9997
2 62244  89.0161  13.6617 0017347 120.0086 240.2790 13.51028577105007
QIANFAN-44              
1 62245U 24232J   26256.74144752  .00000083  00000+0  10995-3 0  9994
2 62245  89.0159  13.4766 0015584 117.4030 242.8709 13.51028889136466
QIANFAN-45              
1 62246U 24232K   26256.78260441  .00000074  00000+0  95810-4 0  9993
2 62246  89.0162  13.6288 0016253 117.0367 243.2445 13.51027636136398
QIANFAN-46              
1 62247U 24232L   26256.80723134  .00000086  00000+0  11355-3 0  9994
2 62247  89.0158  13.6841 0016259 121.8958 238.3777 13.51028687136350
QIANFAN-47              
1 62248U 24232M   26256.73732501  .00000092  00000+0  12312-3 0  9996
2 62248  89.0154  13.6130 0016683 121.3683 238.9103 13.51027950136372
QIANFAN-48              
1 62249U 24232N   26256.77442323  .00000088  00000+0  11769-3 0  9991
2 62249  89.0158  13.6218 0018928 123.8799 236.4156 13.51022287136383
QIANFAN-49              
1 62250U 24232P   26256.83608175  .00000091  00000+0  12205-3 0  9999
2 62250  89.0158  13.6260 0016053 118.5508 241.7261 13.51029402104981
QIANFAN-50              
1 62251U 24232Q   26256.78666744  .00000087  00000+0  11641-3 0  9998
2 62251  89.0163  13.6541 0017702 120.0584 240.2326 13.51028885105008
QIANFAN-51              
1 62252U 24232R   26256.77024321  .00000092  00000+0  12395-3 0  9990
2 62252  89.0157  13.6327 0015128 123.1456 237.1149 13.51027903104991
QIANFAN-52              
1 62253U 24232S   26256.79903074  .00000094  00000+0  12599-3 0  9992
2 62253  89.0153  13.4927 0017226 116.3109 243.9813 13.51029907105082
QIANFAN-53              
1 62254U 24232T   26256.77851659  .00000076  00000+0  98232-4 0  9991
2 62254  89.0161  13.6200 0016094 117.2390 243.0403 13.51026675105043
QIANFAN-54              
1 62255U 24232U   26256.81960788  .00000081  00000+0  10759-3 0  9994
2 62255  89.0152  13.2702 0003577 134.6355 225.5088 13.51028452136552
QIANFAN-55              
1 62785U 25016A   26256.84569198  .00000028  00000+0  24882-4 0  9990
2 62785  88.9668  74.6513 0015503 273.9919  85.9460 13.51024554 84335
QIANFAN-56              
1 62786U 25016B   26256.78793443  .00000045  00000+0  51626-4 0  9991
2 62786  88.9643  74.4203 0014106 277.2547  82.7001 13.51027762 84379
QIANFAN-57              
1 62787U 25016C   26256.82101704  .00000039  00000+0  40954-4 0  9995
2 62787  88.9673  74.6561 0002517  85.4783 274.6656 13.51027453 84348
QIANFAN-58              
1 62788U 25016D   26256.79220109  .00000031  00000+0  30206-4 0  9994
2 62788  88.9643  74.4070 0011979 268.6516  91.3263 13.51019819 84389
QIANFAN-59              
1 62789U 25016E   26256.74266622  .00000039  00000+0  41392-4 0  9996
2 62789  88.9666  74.5507 0012373 273.1594  86.8141 13.51024200 84370
QIANFAN-60              
1 62790U 25016F   26256.84966257  .00000044  00000+0  49937-4 0  9999
2 62790  88.9648  74.4587 0013899 268.7158  91.2401 13.51027625 84372
QIANFAN-61              
1 62791U 25016G   26256.80855992  .00000030  00000+0  27448-4 0  9997
2 62791  88.9714  74.8120 0012880 268.3026  91.6649 13.51027187 84385
QIANFAN-62              
1 62792U 25016H   26256.81275956  .00000035  00000+0  35912-4 0  9995
2 62792  88.9661  74.5322 0014215 268.5362  91.4161 13.51019608 84372
QIANFAN-63              
1 62793U 25016J   26256.83739161  .00000040  00000+0  43251-4 0  9992
2 62793  88.9668  74.4998 0014285 274.5449  85.4070 13.51022748 84414
QIANFAN-64              
1 62794U 25016K   26256.80447051  .00000023  00000+0  17584-4 0  9995
2 62794  88.9655  74.4405 0012201 266.6236  93.3520 13.51027166 84402
QIANFAN-65              
1 62795U 25016L   26256.80023701  .00000024  00000+0  18389-4 0  9993
2 62795  88.9652  74.4570 0012068 268.5642  91.4127 13.51023327 84380
QIANFAN-66              
1 62796U 25016M   26256.82903769  .00000037  00000+0  39333-4 0  9993
2 62796  88.9671  74.4782 0013158 263.4999  96.4654 13.51019476 84433
QIANFAN-67              
1 62797U 25016N   26256.83316588  .00000041  00000+0  44924-4 0  9999
2 62797  88.9661  74.4763 0013118 271.3773  88.5875 13.51028878 84406
QIANFAN-68              
1 62798U 25016P   26256.82500859  .00000048  00000+0  55222-4 0  9995
2 62798  88.9665  74.5321 0013199 268.9710  90.9929 13.51021626 84382
QIANFAN-69              
1 62799U 25016Q   26256.84137449  .00000027  00000+0  23204-4 0  9991
2 62799  88.9644  74.3414 0013930 270.5102  89.4453 13.51023987 84420
QIANFAN-70              
1 62800U 25016R   26256.78390203  .00000055  00000+0  66001-4 0  9999
2 62800  88.9664  74.5431 0013547 259.7584 100.2039 13.51023460 84375
QIANFAN-71              
1 62801U 25016S   26256.85381416  .00000035  00000+0  35315-4 0  9996
2 62801  88.9658  74.4987 0013862 274.4982  85.4586 13.51026520 84382
QIANFAN-72              
1 62802U 25016T   26256.79630027  .00000032  00000+0  30407-4 0  9999
2 62802  88.9649  74.4913 0017172 282.5190  77.4040 13.51020454 84365
QIANFAN-73              
1 63159U 25046A   26256.82327485  .00000028  00000+0  24101-4 0  9992
2 63159  88.9652 291.4639 0016532  54.1707 306.0977 13.51024963 84557
QIANFAN-74              
1 63160U 25046B   26256.80681564 -.00000001  00000+0 -19661-4 0  9991
2 63160  88.9654 291.3552 0001826  96.0475 264.0885 13.51018736 84610
QIANFAN-75              
1 63161U 25046C   26256.86862559  .00000091  00000+0  12218-3 0  9990
2 63161  88.9654 291.5864 0017732  56.9760 303.3092 13.51030195 84490
QIANFAN-76              
1 63162U 25046D   26256.86453941 -.00000068  00000+0 -12409-3 0  9990
2 63162  88.9655 291.5665 0015180  58.0202 302.2423 13.51020914 84506
QIANFAN-77              
1 63163U 25046E   26256.82011686  .00000094  00000+0  58864-4 0  9996
2 63163  88.9657 287.3103 0012790 307.0062  52.9944 13.96245985 86835
QIANFAN-78              
1 63164U 25046F   26256.83205106  .00000060  00000+0  73489-4 0  9993
2 63164  88.9653 291.4318 0016698  59.6005 300.6794 13.51011759 84570
QIANFAN-79              
1 63165U 25046G   26256.86029708  .00000018  00000+0  86502-5 0  9993
2 63165  88.9656 291.5458 0016362  58.3002 301.9741 13.51021053 84520
QIANFAN-80              
1 63166U 25046H   26256.80273561  .00000071  00000+0  91103-4 0  9997
2 63166  88.9654 291.2512 0015373  62.8131 297.4585 13.51029361 84672
QIANFAN-81              
1 63167U 25046J   26256.85614877  .00000085  00000+0  11316-3 0  9994
2 63167  88.9653 291.3129 0016315  52.8705 307.3934 13.51019919 84633
QIANFAN-82              
1 63168U 25046K   26256.81508212  .00000053  00000+0  62512-4 0  9996
2 63168  88.9653 291.3615 0014365  59.7417 300.5154 13.51020114 84619
QIANFAN-83              
1 63169U 25046L   26256.82159444  .00000069  00000+0  73555-4 0  9993
2 63169  88.9655 290.5949 0014845  31.6861 328.5187 13.62064617 85040
QIANFAN-84              
1 63170U 25046M   26256.84387315 -.00000049  00000+0 -94855-4 0  9993
2 63170  88.9655 291.4910 0017227  55.5056 304.7719 13.51017655 84547
QIANFAN-85              
1 63171U 25046N   26256.83971971  .00000075  00000+0  97911-4 0  9993
2 63171  88.9653 291.3612 0014890  58.4165 301.8438 13.51020261 84611
QIANFAN-86              
1 63172U 25046P   26256.84794395  .00000069  00000+0  87683-4 0  9996
2 63172  88.9655 291.2289 0012875  62.9310 297.3153 13.51025182 84694
QIANFAN-87              
1 63173U 25046Q   26256.81915804  .00000012  00000+0  47543-6 0  9995
2 63173  88.9651 291.3334 0013263  58.3916 301.8528 13.51031917 84629
QIANFAN-88              
1 63174U 25046R   26256.83559076  .00000071  00000+0  91094-4 0  9996
2 63174  88.9654 291.2930 0013888  65.7024 294.5576 13.51029284 84657
QIANFAN-89              
1 63175U 25046S   26256.79855257  .00000077  00000+0  99865-4 0  9992
2 63175  88.9654 291.4857 0018192  55.8161 304.4712 13.51024623 84546
QIANFAN-90              
1 63176U 25046T   26256.82740812  .00000027  00000+0  23049-4 0  9993
2 63176  88.9654 291.4560 0015086  55.3358 304.9213 13.51019746 84563
QIANFAN-91              
1 66033U 25233A   26256.78578291  .00000072  00000+0  93142-4 0  9992
2 66033  89.0044  34.2294 0001857  91.7571 268.3792 13.51028704 45142
QIANFAN-92              
1 66034U 25233B   26256.42393234  .00000065  00000+0  82468-4 0  9997
2 66034  89.0027  34.2232 0001960  99.3382 260.7991 13.50998535 45093
QIANFAN-93              
1 66035U 25233C   26256.80241711  .00000058  00000+0  71291-4 0  9996
2 66035  89.0055  34.2609 0001993  92.2304 267.9075 13.51000391 45148
QIANFAN-94              
1 66036U 25233D   26256.64182587  .00000071  00000+0  92128-4 0  9991
2 66036  89.0052  34.1773 0001814  97.5525 262.5832 13.51027073 45173
QIANFAN-95              
1 66037U 25233E   26256.42787809  .00000060  00000+0  73985-4 0  9994
2 66037  89.0050  33.7403 0001731  91.8718 268.2631 13.51021566 45391
QIANFAN-96              
1 66038U 25233F   26256.67470196  .00000069  00000+0  88716-4 0  9997
2 66038  89.0046  34.2564 0001859  89.1770 270.9594 13.51028250 45126
QIANFAN-97              
1 66039U 25233G   26256.80639255  .00000064  00000+0  80169-4 0  9995
2 66039  89.0050  34.2302 0001865  92.1884 267.9480 13.51028312 45140
QIANFAN-98              
1 66040U 25233H   26256.44432294  .00000060  00000+0  74289-4 0  9993
2 66040  89.0038  33.9879 0001515 108.2339 251.8978 13.51028464 45242
QIANFAN-99              
1 66041U 25233J   26256.81869551  .00000082  00000+0  10884-3 0  9999
2 66041  89.0051  34.2335 0001458 100.3031 259.8284 13.51034972 45156
QIANFAN-100             
1 66042U 25233K   26256.66238179  .00000057  00000+0  69377-4 0  9993
2 66042  89.0062  34.1862 0001896  92.2077 267.9291 13.51019535 45187
QIANFAN-101             
1 66043U 25233L   26256.65815025  .00000329  00000+0  12946-3 0  9995
2 66043  89.0052  30.4135 0014127 206.3033 153.7445 14.26858563 47247
QIANFAN-102             
1 66044U 25233M   26256.68294948  .00000065  00000+0  81692-4 0  9996
2 66044  89.0049  34.1549 0001753  97.6310 262.5041 13.51027808 45183
QIANFAN-103             
1 66045U 25233N   26256.83521867  .00000061  00000+0  76634-4 0  9993
2 66045  89.0051  34.2371 0001902  92.3639 267.7730 13.51020763 45155
QIANFAN-104             
1 66046U 25233P   26256.83924075  .00000058  00000+0  71877-4 0  9992
2 66046  89.0056  34.1428 0001811 100.2198 259.9157 13.51025870 45207
QIANFAN-105             
1 66047U 25233Q   26256.40318008  .00000058  00000+0  71327-4 0  9999
2 66047  89.0068  34.0413 0001868  96.3497 263.7867 13.50988204 45257
QIANFAN-106             
1 66048U 25233R   26256.39900972  .00000055  00000+0  65879-4 0  9997
2 66048  89.0037  34.2272 0001557 104.9029 255.2295 13.51029420 45091
QIANFAN-107             
1 66049U 25233S   26256.40725141  .00000062  00000+0  77195-4 0  9995
2 66049  89.0052  34.2727 0001899  93.3629 266.7739 13.51028612 45104
QIANFAN-108             
1 66050U 25233T   26256.41142176  .00000068  00000+0  86775-4 0  9999
2 66050  89.0047  34.2540 0001664 105.6276 254.5059 13.51028867 45100
QIANFAN-109             
1 68636U 26075A   26256.79556240  .00000066  00000+0  83579-4 0  9995
2 68636  88.9876 311.9728 0002241  85.2394 274.9013 13.51020343 21751
QIANFAN-110             
1 68637U 26075B   26256.80376757  .00000068  00000+0  87225-4 0  9995
2 68637  88.9876 311.9935 0002279  98.9216 261.2193 13.51031389 21757
QIANFAN-111             
1 68638U 26075C   26256.86571613  .00000068  00000+0  86769-4 0  9992
2 68638  88.9874 311.9461 0002263  98.3741 261.7667 13.51020792 21780
QIANFAN-112             
1 68639U 26075D   26256.82859815  .00000065  00000+0  81659-4 0  9992
2 68639  88.9873 311.9578 0002458  87.4823 272.6609 13.51023224 21774
QIANFAN-113             
1 68640U 26075E   26256.72556764  .00000072  00000+0  92182-4 0  9991
2 68640  88.9879 311.9670 0002355  96.5767 263.5652 13.51029331 21760
QIANFAN-114             
1 68641U 26075F   26256.80789400  .00000073  00000+0  94239-4 0  9992
2 68641  88.9874 311.9735 0002260  98.0773 262.0634 13.51027399 21763
QIANFAN-115             
1 68642U 26075G   26256.83676359  .00000059  00000+0  73370-4 0  9991
2 68642  88.9874 311.9778 0002164  94.6770 265.4628 13.51024060 21765
QIANFAN-116             
1 68643U 26075H   26256.82439596  .00000070  00000+0  89592-4 0  9997
2 68643  88.9867 311.9329 0002462  90.7341 269.4092 13.51024730 21776
QIANFAN-117             
1 68644U 26075J   26256.81213663  .00000079  00000+0  10349-3 0  9994
2 68644  88.9872 311.9540 0002256  91.4621 268.6788 13.51022511 21776
QIANFAN-118             
1 68645U 26075K   26256.62279642  .00000070  00000+0  89471-4 0  9997
2 68645  88.9877 311.9856 0002331 101.0503 259.0910 13.51024274 21749
QIANFAN-119             
1 68646U 26075L   26256.59800985  .00000082  00000+0  10760-3 0  9991
2 68646  88.9877 311.9838 0002130  87.8530 272.2865 13.51037397 21744
QIANFAN-120             
1 68647U 26075M   26256.61039400  .00000064  00000+0  80700-4 0  9993
2 68647  88.9879 311.9690 0002072  86.9036 273.2353 13.51019794 21754
QIANFAN-121             
1 68648U 26075N   26256.56115783  .00000074  00000+0  96536-4 0  9992
2 68648  88.9877 311.9770 0002251  99.8912 260.2493 13.51023336 21744
QIANFAN-122             
1 68649U 26075P   26256.62695358  .00000075  00000+0  98146-4 0  9991
2 68649  88.9875 311.9673 0002269  89.4624 270.6787 13.51026849 21742
QIANFAN-123             
1 68650U 26075Q   26256.00140472  .00000077  00000+0  10062-3 0  9999
2 68650  88.9873 312.0184 0002312  84.0815 276.0600 13.51032005 21647
QIANFAN-124             
1 68651U 26075R   26256.61874696  .00000064  00000+0  80748-4 0  9994
2 68651  88.9875 311.9667 0002306  88.3844 271.7572 13.51026414 21755
QIANFAN-125             
1 68652U 26075S   26256.55704428  .00000080  00000+0  10461-3 0  9995
2 68652  88.9875 311.9750 0002281  99.6608 260.4801 13.51023444 21743
QIANFAN-126             
1 68653U 26075T   26256.56511750  .00000082  00000+0  10853-3 0  9998
2 68653  88.9879 311.9433 0002271  84.2395 275.9015 13.51028845 21768
QIANFAN-127             
1 69073U 26104A   26256.86679713  .00000122  00000+0  16998-3 0  9996
2 69073  88.9931 332.4295 0002528 105.9715 254.1715 13.50993697 17137
QIANFAN-128             
1 69074U 26104B   26256.80084120  .00000125  00000+0  17479-3 0  9991
2 69074  88.9909 332.4614 0002150 114.2816 245.8560 13.51022881 17105
QIANFAN-129             
1 69075U 26104C   26256.82545977  .00000112  00000+0  15424-3 0  9990
2 69075  88.9911 332.3931 0002273 110.0638 250.0758 13.51022737 17143
QIANFAN-130             
1 69076U 26104D   26256.86247509  .00000120  00000+0  16672-3 0  9990
2 69076  88.9914 332.4550 0002562 100.5079 259.6361 13.51033416 17117
QIANFAN-131             
1 69077U 26104E   26256.80917206  .00000112  00000+0  15404-3 0  9996
2 69077  88.9907 332.4213 0002029 107.1465 252.9908 13.51025036 17129
QIANFAN-132             
1 69078U 26104F   26256.87071650  .00000128  00000+0  17919-3 0  9998
2 69078  88.9909 332.4716 0002417 102.4293 257.7128 13.51021209 17101
QIANFAN-133             
1 69079U 26104G   26256.80503069  .00000124  00000+0  17373-3 0  9996
2 69079  88.9913 332.4282 0001905 112.5314 247.6038 13.51030041 17115
QIANFAN-134             
1 69080U 26104H   26256.83379946  .00000120  00000+0  16773-3 0  9995
2 69080  88.9916 332.4514 0002108 113.2572 246.8801 13.51028319 17112
QIANFAN-135             
1 69081U 26104J   26256.81311233  .00000110  00000+0  15196-3 0  9996
2 69081  88.9910 332.4446 0002340 114.8262 245.3133 13.51021510 17110
QIANFAN-136             
1 69082U 26104K   26256.82142020  .00000109  00000+0  15041-3 0  9991
2 69082  88.9912 332.4467 0001955 113.1014 247.0343 13.51031418 17114
QIANFAN-137             
1 69083U 26104L   26256.81729759  .00000106  00000+0  14620-3 0  9990
2 69083  88.9922 332.3232 0002327 102.0197 258.1215 13.51031151 17180
QIANFAN-138             
1 69084U 26104M   26256.84190709  .00000121  00000+0  16824-3 0  9996
2 69084  88.9906 332.4449 0002482 109.5953 250.5466 13.51020968 17119
QIANFAN-139             
1 69085U 26104N   26256.82978098  .00000116  00000+0  16021-3 0  9993
2 69085  88.9908 332.4278 0002498 104.0549 256.0880 13.51029683 17125
QIANFAN-140             
1 69086U 26104P   26256.83781174  .00000131  00000+0  18394-3 0  9994
2 69086  88.9909 332.4304 0002428 114.1761 245.9645 13.51022065 17121
QIANFAN-141             
1 69087U 26104Q   26256.84609547  .00000032  00000+0  31099-4 0  9997
2 69087  88.9905 332.3940 0002237 113.4448 246.6938 13.51027692 17141
QIANFAN-142             
1 69088U 26104R   26256.85425733  .00000122  00000+0  17071-3 0  9995
2 69088  88.9904 332.3926 0002429 109.9596 250.1817 13.51030629 17142
QIANFAN-143             
1 69089U 26104S   26256.85026568  .00000108  00000+0  14813-3 0  9994
2 69089  88.9915 332.3990 0001974 106.0135 254.1234 13.51026582 17147
QIANFAN-144             
1 69090U 26104T   26256.85836167  .00000111  00000+0  15399-3 0  9994
2 69090  88.9913 332.4164 0002512 106.8644 253.2783 13.51030812 17132
QIANFAN-145             
1 69104U 26108A   26256.78862508  .00000090  00000+0  12113-3 0  9991
2 69104  89.0188  13.1996 0001619  99.2805 260.8529 13.51033297 16402
QIANFAN-146             
1 69105U 26108B   26256.82163704  .00000097  00000+0  13141-3 0  9998
2 69105  89.0190  13.0333 0001992  99.3456 260.7920 13.51038863 16506
QIANFAN-147             
1 69106U 26108C   26256.79702571  .00000109  00000+0  15049-3 0  9999
2 69106  89.0190  13.2030 0002080 103.6075 256.5307 13.51023918 16392
QIANFAN-148             
1 69107U 26108D   26256.78461300  .00000086  00000+0  11404-3 0  9996
2 69107  89.0184  13.1947 0001938 109.2441 250.8920 13.51023411 16398
QIANFAN-149             
1 69108U 26108E   26256.79277398  .00000092  00000+0  12446-3 0  9994
2 69108  89.0184  13.2151 0002233 110.4851 249.6540 13.51022908 16399
QIANFAN-150             
1 69109U 26108F   26256.80097481  .00000100  00000+0  13705-3 0  9999
2 69109  89.0189  13.1673 0002252 109.3796 250.7599 13.51023456 16418
QIANFAN-151             
1 69110U 26108G   26256.82996448  .00000098  00000+0  13304-3 0  9995
2 69110  89.0188  13.1881 0001817 101.4634 258.6722 13.51026566 16409
QIANFAN-152             
1 69111U 26108H   26256.80919977  .00000099  00000+0  13399-3 0  9991
2 69111  89.0184  13.1821 0002273  99.0369 261.1039 13.51027833 16413
QIANFAN-153             
1 69112U 26108J   26256.80508013  .00000097  00000+0  13097-3 0  9990
2 69112  89.0181  13.1591 0002213 105.1159 255.0237 13.51023767 16419
QIANFAN-154             
1 69113U 26108K   26256.81345291  .00000088  00000+0  11711-3 0  9990
2 69113  89.0191  13.2065 0002107 106.7173 253.4210 13.51025755 16404
QIANFAN-155             
1 69114U 26108L   26256.81743907  .00000091  00000+0  12174-3 0  9995
2 69114  89.0189  13.1708 0002240 106.9145 253.2252 13.51022644 16413
QIANFAN-156             
1 69115U 26108M   26256.83798086  .00000098  00000+0  13306-3 0  9991
2 69115  89.0204  13.1692 0001864 106.8506 253.2850 13.51022548 16434
QIANFAN-157             
1 69116U 26108N   26256.82583098  .00000094  00000+0  12715-3 0  9995
2 69116  89.0185  13.0949 0002006 111.5869 248.5496 13.51027236 16466
QIANFAN-158             
1 69117U 26108P   26256.61838713 -.01793674  00000+0 -31764+1 0  9998
2 69117  89.0183  13.1566 0003193 175.9178 184.1997 13.46716094 16413
QIANFAN-159             
1 69118U 26108Q   26256.83389772  .00000105  00000+0  14442-3 0  9993
2 69118  89.0178  13.1421 0001880 102.7588 257.3774 13.51022525 16435
QIANFAN-160             
1 69119U 26108R   26256.77642922  .00000093  00000+0  12478-3 0  9999
2 69119  89.0193  13.1843 0002352 107.9475 252.1933 13.51022721 16414
QIANFAN-161             
1 69120U 26108S   26256.70454642 -.01780224  00000+0 -31327+1 0  9999
2 69120  89.0197  13.1075 0007603 137.7140 222.4597 13.47083051 16459
QIANFAN-162             
1 69121U 26108T   26256.77217862  .00000093  00000+0  12554-3 0  9998
2 69121  89.0190  13.1269 0002162 100.1489 259.9906 13.51021950 16435
QIANFAN-163             
1 69325U 26121A   26256.81087551  .00000014  00000+0  24344-5 0  9999
2 69325  89.0110 291.6943 0002230 123.1909 236.9456 13.51022123 14136
QIANFAN-164             
1 69326U 26121B   26256.85202617  .00000036  00000+0  37243-4 0  9991
2 69326  89.0108 291.6807 0001934 111.3529 248.7828 13.51021207 14147
QIANFAN-165             
1 69382U 26124A   26256.86171576  .00000133  00000+0  18751-3 0  9996
2 69382  89.0072 352.6893 0001755 119.5573 240.5753 13.51020938 14015
QIANFAN-166             
1 69383U 26124B   26256.86586683  .00000137  00000+0  19346-3 0  9991
2 69383  89.0091 352.6985 0001832 102.1561 257.9795 13.51021492 14014
QIANFAN-167             
1 69384U 26124C   26256.79583972  .00000124  00000+0  17274-3 0  9996
2 69384  89.0064 352.7128 0002174 108.0916 252.0472 13.51030493 13999
QIANFAN-168             
1 69385U 26124D   26256.79984832  .00000121  00000+0  16819-3 0  9998
2 69385  89.0061 352.6925 0001621 103.8416 256.2915 13.51019141 14003
QIANFAN-169             
1 69386U 26124E   26256.80412117  .00000123  00000+0  17262-3 0  9998
2 69386  89.0059 352.6920 0001882  98.6415 261.4949 13.51022402 14004
QIANFAN-170             
1 69387U 26124F   26256.80819863  .00000126  00000+0  17602-3 0  9999
2 69387  89.0077 352.6627 0001857  96.3770 263.7593 13.51024841 14021
QIANFAN-171             
1 69388U 26124G   26256.81649775  .00000128  00000+0  18016-3 0  9996
2 69388  89.0092 352.6735 0002112 104.1832 255.9554 13.51017849 14021
QIANFAN-172             
1 69389U 26124H   26256.81231911  .00000134  00000+0  18929-3 0  9996
2 69389  89.0075 352.6649 0001695 115.1806 244.9521 13.51028440 14026
QIANFAN-173             
1 69390U 26124J   26256.82040791  .00000139  00000+0  19667-3 0  9998
2 69390  89.0064 352.6612 0001644  99.1349 260.9988 13.51021448 14029
QIANFAN-174             
1 69391U 26124K   26256.83283777  .00000120  00000+0  16715-3 0  9994
2 69391  89.0044 352.6186 0002174 110.2817 249.8568 13.51029259 14037
QIANFAN-175             
1 69392U 26124L   26256.83703471  .00000127  00000+0  17847-3 0  9997
2 69392  89.0096 352.6600 0001841 100.6967 259.4392 13.51019349 14036
QIANFAN-176             
1 69393U 26124M   26256.76707101  .00000124  00000+0  17281-3 0  9993
2 69393  89.0058 352.6493 0001851 100.8467 259.2892 13.51020098 14017
QIANFAN-177             
1 69394U 26124N   26256.84938547  .00000133  00000+0  18684-3 0  9991
2 69394  89.0068 352.6289 0002062 109.6947 250.4427 13.51029180 14048
QIANFAN-178             
1 69395U 26124P   26256.84519352  .00000128  00000+0  17903-3 0  9998
2 69395  89.0014 352.5886 0001870 100.1842 259.9520 13.51025101 14056
QIANFAN-179             
1 69396U 26124Q   26256.85350520  .00000129  00000+0  18059-3 0  9994
2 69396  89.0046 352.6038 0001854  99.3600 260.7761 13.51028747 14051
QIANFAN-180             
1 69397U 26124R   26256.85759500  .00000131  00000+0  18374-3 0  9999
2 69397  89.0052 352.6240 0001882  95.3722 264.7644 13.51021052 14041
QIANFAN-181             
1 69398U 26124S   26256.82467215  .00000136  00000+0  19141-3 0  9994
2 69398  89.0074 352.7194 0002141 106.6005 253.5382 13.51022752 13990
QIANFAN-182             
1 69399U 26124T   26256.82873961  .00000132  00000+0  18530-3 0  9991
2 69399  89.0049 352.6909 0001833 102.4520 257.6836 13.51027305 13997
QIANFAN-183             
1 69401U 26125A   26256.86336008  .00000014  00000+0  27165-5 0  9991
2 69401  88.9833 270.9849 0001945 101.7634 258.3736 13.51027447 13913
QIANFAN-184             
1 69402U 26125B   26256.79754914  .00000015  00000+0  50157-5 0  9992
2 69402  88.9884 271.0157 0001921  97.4647 262.6723 13.51028538 13908
QIANFAN-185             
1 69403U 26125C   26256.82227918  .00000019  00000+0  11374-4 0  9997
2 69403  88.9898 270.9521 0001838  98.8578 261.2781 13.51017606 13949
QIANFAN-186             
1 69404U 26125D   26256.86747602  .00000008  00000+0 -61761-5 0  9994
2 69404  88.9886 271.0083 0001980  96.2377 263.9000 13.51008228 13919
QIANFAN-187             
1 69405U 26125E   26256.80158903  .00000014  00000+0  31158-5 0  9992
2 69405  88.9886 270.9978 0002093 100.7270 259.4117 13.51007260 13914
QIANFAN-188             
1 69406U 26125F   26256.80981266  .00000030  00000+0  27134-4 0  9995
2 69406  88.9884 270.9969 0001951 103.1336 257.0033 13.51029259 13918
QIANFAN-189             
1 69407U 26125G   26256.81797351  .00000019  00000+0  10665-4 0  9995
2 69407  88.9866 270.9918 0001948 108.7800 251.3563 13.51028443 13904
QIANFAN-190             
1 69408U 26125H   26256.80565265  .00000021  00000+0  14508-4 0  9995
2 69408  88.9868 270.9908 0001868  95.9249 264.2115 13.51033218 13914
QIANFAN-191             
1 69409U 26125J   26256.83040566  .00000006  00000+0 -86649-5 0  9991
2 69409  88.9882 270.9994 0001921 102.4934 257.6432 13.51032842 13911
QIANFAN-192             
1 69410U 26125K   26256.81384146  .00000014  00000+0  34305-5 0  9996
2 69410  88.9888 271.0012 0002013 106.6377 253.4995 13.51030062 13912
QIANFAN-193             
1 69411U 26125L   26256.83869679  .00000018  00000+0  99564-5 0  9990
2 69411  88.9867 270.9763 0001827 102.7085 257.4271 13.51027379 13925
QIANFAN-194             
1 69412U 26125M   26256.83456271  .00000006  00000+0 -93614-5 0  9999
2 69412  88.9899 270.9893 0001956 102.5291 257.6079 13.51026037 13912
QIANFAN-195             
1 69413U 26125N   26256.84277375  .00000025  00000+0  20008-4 0  9993
2 69413  88.9901 270.9735 0001955  88.6688 271.4687 13.51011502 13937
QIANFAN-196             
1 69414U 26125P   26256.85098726  .00000016  00000+0  57389-5 0  9999
2 69414  88.9905 270.9762 0001857  92.1757 267.9607 13.51035215 13939
QIANFAN-197             
1 69415U 26125Q   26256.85928334  .00000016  00000+0  66970-5 0  9993
2 69415  88.9880 270.9483 0001939 100.2975 259.8395 13.51023702 13938
QIANFAN-198             
1 69416U 26125R   26256.84691292  .00000021  00000+0  14121-4 0  9999
2 69416  88.9874 270.9626 0001951 103.2512 256.8857 13.51028035 13939
QIANFAN-199             
1 69417U 26125S   26256.85518089  .00000020  00000+0  12661-4 0  9999
2 69417  88.9878 270.9117 0002152 102.4212 257.7180 13.51025655 13968
QIANFAN-200             
1 69418U 26125T   26256.82632552  .00000011  00000+0 -98029-6 0  9994
2 69418  88.9885 270.9998 0001930 105.9547 254.1817 13.51026144 13913
QIANFAN-201             
1 69800U 26153A   26256.80194543  .00000009  00000+0 -33092-5 0  9996
2 69800  88.9980 352.2001 0005924  28.3283 331.8217 14.00502579 10117
QIANFAN-202             
1 69801U 26153B   26256.69228937 -.01956547  00000+0 -12854+1 0  9996
2 69801  88.9977 352.1836 0009898 356.3635   3.7473 14.05908964 10109
QIANFAN-203             
1 69802U 26153C   26256.62086578 -.01944347  00000+0 -13159+1 0  9997
2 69802  88.9975 352.2292 0008338 326.1988  33.8661 14.04233685 10089
QIANFAN-204             
1 69803U 26153D   26256.78789144 -.01976040  00000+0 -13288+1 0  9992
2 69803  88.9975 352.1985 0007227 329.7279  30.3484 14.04661192 10113
QIANFAN-205             
1 69804U 26153E   26256.73595884 -.01952787  00000+0 -13625+1 0  9991
2 69804  88.9974 352.2269 0008190 326.4277  33.6384 14.02548400 10097
QIANFAN-206             
1 69805U 26153F   26256.69178990 -.01962728  00000+0 -12572+1 0  9998
2 69805  88.9974 352.1835 0008047  31.0448 329.1209 14.07334454 10115
QIANFAN-207             
1 69806U 26153G   26256.74578892  .00000056  00000+0  25193-4 0  9991
2 69806  88.9981 352.2099 0007351   3.1161 357.0067 14.07266554 10102
QIANFAN-208             
1 69807U 26153H   26256.79635088 -.00000016  00000+0 -19051-4 0  9992
2 69807  88.9978 352.1992 0006781  44.4542 315.7182 14.03617859 10122
QIANFAN-209             
1 69808U 26153J   26256.69348999 -.02031581  00000+0 -14130+1 0  9996
2 69808  88.9978 352.2214 0008415 309.7899  50.2540 14.02884321 10093
QIANFAN-210             
1 69809U 26153K   26256.73841743 -.01853370  00000+0 -12874+1 0  9997
2 69809  88.9977 352.2095 0008929 327.7486  32.3147 14.02589594 10102
QIANFAN-211             
1 69810U 26153L   26256.78372942  .00000318  00000+0  15842-3 0  9998
2 69810  88.9981 352.1787 0007519   8.1231 352.0076 14.14538119 10123
QIANFAN-212             
1 69811U 26153M   26256.74436021 -.02014461  00000+0 -13059+1 0  9997
2 69811  88.9973 352.1915 0009072  12.5602 347.5805 14.06772321 10119
QIANFAN-213             
1 69812U 26153N   26256.68552014 -.01822266  00000+0 -12414+1 0  9995
2 69812  88.9978 352.2009 0011213 342.5031  17.5763 14.04260986 10105
QIANFAN-214             
1 69813U 26153P   26256.79926507 -.01861900  00000+0 -11782+1 0  9995
2 69813  88.9974 352.1435 0007543  26.8539 333.3033 14.07803541 10146
QIANFAN-215             
1 69814U 26153Q   26256.77723315 -.01869080  00000+0 -10644+1 0  9999
2 69814  88.9972 352.1018 0006563  42.2744 317.8947 14.13594922 10163
QIANFAN-216             
1 69815U 26153R   26256.67566725 -.01870689  00000+0 -11362+1 0  9994
2 69815  88.9974 352.1434 0005163 121.9977 238.1710 14.10085225 10134
QIANFAN-217             
1 69816U 26153S   26256.77238199 -.01872550  00000+0 -96855+0 0  9995
2 69816  88.9972 352.0635 0010176 348.9259  11.1704 14.18773681 10184
QIANFAN-218             
1 69817U 26153T   26256.76948642 -.01844359  00000+0 -94768+0 0  9993
2 69817  88.9976 352.0654 0008166 347.1684  12.9297 14.19079430 10187
QIANFAN-219             
1 69848U 26155A   26256.74308361 -.01785780  00000+0 -28165+1 0  9996
2 69848  89.0072  54.3817 0035697  34.6318 325.7149 13.53857104  9823
QIANFAN-220             
1 69849U 26155B   26256.76235235 -.01785405  00000+0 -26944+1 0  9995
2 69849  89.0080  54.4075 0033361  32.2554 328.0632 13.56675675  9818
QIANFAN-221             
1 69850U 26155C   26256.65345772 -.01866815  00000+0 -19552+1 0  9995
2 69850  89.0075  54.2073 0032913  37.3112 323.0333 13.79286277  9913
QIANFAN-222             
1 69851U 26155D   26256.85528087  .00000010  00000+0 -27814-5 0  9990
2 69851  89.0083  54.4174 0034926  28.3807 331.9240 13.57781113  9813
QIANFAN-223             
1 69852U 26155E   26256.55322741 -.01891746  00000+0 -32628+1 0  9997
2 69852  89.0075  54.4470 0035474  24.2364 336.0445 13.48405773  9779
QIANFAN-224             
1 69853U 26155F   26256.71358365 -.01864745  00000+0 -29255+1 0  9998
2 69853  89.0057  54.3849 0035519  39.8350 320.5400 13.54383083  9816
QIANFAN-225             
1 69854U 26155G   26256.78549446 -.01805146  00000+0 -28813+1 0  9997
2 69854  89.0071  54.4223 0033885  35.7468 324.5943 13.53168001  9804
QIANFAN-226             
1 69855U 26155H   26256.80100522  .00000027  00000+0  20495-4 0  9993
2 69855  89.0074  54.4062 0036335  29.3872 330.9316 13.57849895  9817
QIANFAN-227             
1 69856U 26155J   26256.76821728 -.01811152  00000+0 -30311+1 0  9993
2 69856  89.0072  54.4039 0038556  30.5380 329.8004 13.50096564  9816
QIANFAN-228             
1 69857U 26155K   26256.82796522  .00000017  00000+0  69826-5 0  9999
2 69857  89.0079  54.3957 0036378  30.5711 329.7554 13.57843891  9820
QIANFAN-229             
1 69858U 26155L   26256.65569463 -.01846476  00000+0 -29734+1 0  9992
2 69858  89.0078  54.3884 0039642  29.4737 330.8638 13.52622329  9812
QIANFAN-230             
1 69859U 26155M   26256.68782728 -.01893697  00000+0 -30747+1 0  9990
2 69859  89.0071  54.4269 0038853  31.0275 329.3161 13.52221910  9795
QIANFAN-231             
1 69860U 26155N   26256.71280067 -.01929017  00000+0 -31226+1 0  9994
2 69860  89.0073  54.3783 0046362  14.9904 345.2610 13.52370486  9825
QIANFAN-232             
1 69861U 26155P   26256.69733596 -.01876782  00000+0 -30963+1 0  9999
2 69861  89.0070  54.3734 0028223  31.2194 329.0627 13.51305789  9829
QIANFAN-233             
1 69862U 26155Q   26256.76067513 -.01791006  00000+0 -28203+1 0  9996
2 69862  89.0074  54.3673 0035113  34.1229 326.2171 13.53977711  9839
QIANFAN-234             
1 69863U 26155R   26256.64556243 -.01964865  00000+0 -26935+1 0  9992
2 69863  89.0068  54.3325 0030955  27.7417 332.5384 13.62445916  9847
QIANFAN-235             
1 69864U 26155S   26256.57564797 -.01943455  00000+0 -17171+1 0  9992
2 69864  89.0075  54.1794 0029238  25.5738 334.6873 13.88849936  9921
QIANFAN-236             
1 69865U 26155T   26256.56709962 -.01812035  00000+0 -28831+1 0  9991
2 69865  89.0077  54.4134 0039028  34.1936 326.1718 13.53311437  9790
QIANFAN-237             
1 69866U 26155U   26256.63096221 -.01858291  00000+0 -28741+1 0  9991
2 69866  89.0076  54.3685 0038563  34.0113 326.3501 13.55223934  9810
QIANFAN-238             
1 69867U 26155V   26256.78215595 -.01784041  00000+0 -28290+1 0  9995
2 69867  89.0080  54.3711 0025559  35.9892 324.2976 13.53635218  9836
