KUIPER-00008            
1 63724U 25088A   26279.09146954 -.00000209  00000+0  15474-5 0  9996
2 63724  51.9012 237.6110 0000774  59.9564 300.1475 14.79928848 79206
KUIPER-00009            
1 63725U 25088B   26279.16880367  .00004783  00000+0  32385-3 0  9996
2 63725  51.9017 241.4863 0001252  34.1660 325.9395 15.08185529 79158
KUIPER-00010            
1 63726U 25088C   26279.06310938  .00000282  00000+0  66021-4 0  9993
2 63726  51.9017 232.8495 0000867  60.9127 299.1923 14.79929543 78887
KUIPER-00011            
1 63727U 25088D   26279.15632116  .00000772  00000+0  13030-3 0  9994
2 63727  51.9007 239.9777 0000844  55.2669 304.8372 14.79933498 78922
KUIPER-00012            
1 63728U 25088E   26279.13873047  .00001038  00000+0  16513-3 0  9998
2 63728  51.9015 224.9973 0000998  77.9349 282.1726 14.79931708 79081
KUIPER-00013            
1 63729U 25088F   26279.13744273  .00000720  00000+0  12342-3 0  9990
2 63729  51.9023 257.5236 0000670  81.7931 278.3107 14.79926065 78733
KUIPER-00014            
1 63730U 25088G   26279.10366314  .00001139  00000+0  17840-3 0  9998
2 63730  51.9030 257.6171 0000742  47.5138 312.5887 14.79928169 78543
KUIPER-00015            
1 63731U 25088H   26278.24876860  .00000622  00000+0  11066-3 0  9995
2 63731  51.8997 271.4388 0000804  53.3828 306.7208 14.79930190 78739
KUIPER-00016            
1 63732U 25088J   26279.23603319 -.00000515  00000+0 -38534-4 0  9996
2 63732  51.9002 259.5352 0000766  47.0707 313.0319 14.79931681 78526
KUIPER-00018            
1 63733U 25088K   26279.21306243  .00000678  00000+0  11795-3 0  9998
2 63733  51.9041 249.6885 0000732  52.5878 307.5151 14.79930591 78660
KUIPER-00019            
1 63734U 25088L   26279.10462183 -.00000636  00000+0 -54498-4 0  9997
2 63734  51.9023 248.9078 0000946  50.2897 309.8149 14.79916473 78665
KUIPER-00020            
1 63735U 25088M   26279.21036617 -.00000183  00000+0  49921-5 0  9991
2 63735  51.9030 252.1924 0000874  60.2755 299.8294 14.79930912 78837
KUIPER-00021            
1 63736U 25088N   26279.10905846  .00000844  00000+0  13970-3 0  9995
2 63736  51.9009 252.5875 0000620  63.9561 296.1465 14.79925730 78659
KUIPER-00023            
1 63737U 25088P   26279.20765385 -.00000396  00000+0 -22945-4 0  9996
2 63737  51.9018 254.6421 0000832  58.1448 301.9595 14.79931872 78939
KUIPER-00024            
1 63738U 25088Q   26279.15362735 -.00000422  00000+0 -26390-4 0  9991
2 63738  51.9050 242.4996 0000904  59.9050 300.2002 14.79929356 79228
KUIPER-00025            
1 63739U 25088R   26279.17929896 -.00000297  00000+0 -10000-4 0  9992
2 63739  51.9042 249.8674 0000788  57.4504 302.6534 14.79930278 78984
KUIPER-00027            
1 63740U 25088S   26279.15092358  .00001308  00000+0  20056-3 0  9999
2 63740  51.9019 244.9469 0000710  68.4498 291.6540 14.79936336 78780
KUIPER-00028            
1 63741U 25088T   26279.18737632  .00000872  00000+0  14334-3 0  9991
2 63741  51.9000 242.2236 0000814  43.1854 316.9172 14.79927512 79234
KUIPER-00029            
1 63742U 25088U   26279.09586207  .00001099  00000+0  17322-3 0  9994
2 63742  51.9028 241.3289 0000936  39.2711 320.8319 14.79927733 78765
KUIPER-00030            
1 63743U 25088V   26279.20226955  .00000598  00000+0  10744-3 0  9993
2 63743  51.9020 259.6794 0000744  52.8599 307.2431 14.79924127 78806
KUIPER-00031            
1 63744U 25088W   26279.18468662  .00001083  00000+0  17112-3 0  9990
2 63744  51.9017 244.7786 0000861  50.7153 309.3885 14.79932300 78721
KUIPER-00032            
1 63745U 25088X   26278.94869436  .00014473  00000+0  33205-3 0  9996
2 63745  51.8653  82.8804 0004788 147.7840 212.3442 15.42961879 81956
KUIPER-00033            
1 63746U 25088Y   26279.15232623  .00000197  00000+0  54853-4 0  9994
2 63746  51.8999 274.9213 0000723  35.7653 324.3358 14.79931058 78783
KUIPER-00034            
1 63747U 25088Z   26279.19277811  .00000626  00000+0  11111-3 0  9993
2 63747  51.9026 237.2802 0000789  70.5113 289.5934 14.79932287 78992
KUIPER-00035            
1 63748U 25088AA  26279.16581087  .00001058  00000+0  16777-3 0  9997
2 63748  51.9002 262.3607 0000678  54.5616 305.5410 14.79929633 78692
KUIPER-00037            
1 63749U 25088AB  26279.22626176  .00000807  00000+0  13485-3 0  9998
2 63749  51.9015 260.9556 0000704  53.6514 306.4513 14.79927321 79508
KUIPER-00038            
1 63750U 25088AC  26279.14823227  .00000886  00000+0  14520-3 0  9995
2 63750  51.9023 247.4765 0000744  78.1755 281.9291 14.79930199 78689
KUIPER-00039            
1 64500U 25134A   26278.71560868  .00002574  00000+0  36643-3 0  9998
2 64500  51.9025  24.3857 0000287 109.5851 250.5142 14.79942275 71179
KUIPER-00040            
1 64501U 25134B   26278.73859869  .00000384  00000+0  79412-4 0  9992
2 64501  51.8989  34.3372 0000612 135.4694 224.6317 14.79931054 71030
KUIPER-00041            
1 64502U 25134C   26279.03977278  .00002559  00000+0  36446-3 0  9997
2 64502  51.8998  35.3986 0000392 116.4404 243.6598 14.79936049 71048
KUIPER-00042            
1 64503U 25134D   26278.74128126  .00000658  00000+0  11532-3 0  9992
2 64503  51.8994  31.6962 0000408 109.4202 250.6805 14.79932589 71071
KUIPER-00043            
1 64504U 25134E   26278.47925144  .00000985  00000+0  15813-3 0  9997
2 64504  51.9029  25.3759 0000368 117.3699 242.7301 14.79935127 71141
KUIPER-00044            
1 64505U 25134F   26278.73588168  .00002486  00000+0  35489-3 0  9997
2 64505  51.9000  36.7243 0000399 129.0722 231.0276 14.79941380 71001
KUIPER-00046            
1 64506U 25134G   26278.77233988  .00002817  00000+0  39834-3 0  9995
2 64506  51.9009  34.0324 0000300 106.9639 253.1356 14.79941025 71049
KUIPER-00047            
1 64507U 25134H   26278.70071066 -.00000417  00000+0 -25778-4 0  9995
2 64507  51.9005   6.8801 0000243  84.0543 276.0447 14.79931593 71414
KUIPER-00048            
1 64508U 25134J   26278.66694992  .00002499  00000+0  35657-3 0  9996
2 64508  51.9002   7.0414 0000260  97.1299 262.9693 14.79938246 71416
KUIPER-00049            
1 64509U 25134K   26278.68722730  .00000233  00000+0  59543-4 0  9996
2 64509  51.9007  19.4263 0000386 100.3670 259.7336 14.79929509 71241
KUIPER-00050            
1 64510U 25134L   26278.50349438  .00002767  00000+0  39190-3 0  9998
2 64510  51.9015   2.7589 0000274  75.3768 284.7225 14.79920202 71463
KUIPER-00051            
1 64511U 25134M   26278.73077323  .00002669  00000+0  37895-3 0  9996
2 64511  51.9021  17.9325 0000259 110.6731 249.4259 14.79931612 71263
KUIPER-00053            
1 64513U 25134P   26278.58458708  .00001292  00000+0  19088-3 0  9996
2 64513  51.9019  12.7970 0001972 177.1765 182.9210 14.81671178 71325
KUIPER-00054            
1 64514U 25134Q   26278.52919444  .00002708  00000+0  38408-3 0  9990
2 64514  51.8993  10.1247 0000272 117.0620 243.0370 14.79934221 71357
KUIPER-00055            
1 64515U 25134R   26279.08690730  .00002253  00000+0  32448-3 0  9990
2 64515  51.9025 320.3168 0000659  78.3978 281.7058 14.79923961 72102
KUIPER-00056            
1 64516U 25134S   26278.96275750  .00002704  00000+0  38348-3 0  9994
2 64516  51.9037  13.3315 0000259 121.7327 238.3661 14.79936725 71352
KUIPER-00057            
1 64517U 25134T   26278.68452665  .00002600  00000+0  37001-3 0  9996
2 64517  51.9009  21.9699 0000547 102.2735 257.8289 14.79924238 71201
KUIPER-00058            
1 64518U 25134U   26278.72369296  .00001274  00000+0  19605-3 0  9995
2 64518  51.9011  16.7788 0000380 101.0657 259.0348 14.79933478 71285
KUIPER-00059            
1 64519U 25134V   26278.45897344  .00003076  00000+0  43227-3 0  9995
2 64519  51.9009  12.9834 0000242  87.9192 272.1798 14.79935805 71311
KUIPER-00060            
1 64520U 25134W   26278.62780877  .00001066  00000+0  16876-3 0  9995
2 64520  51.9030  12.3199 0000482  94.4004 265.7013 14.79931264 71320
KUIPER-00061            
1 64521U 25134X   26278.99111743  .00002791  00000+0  39482-3 0  9990
2 64521  51.9016  18.1503 0000263 126.1651 233.9336 14.79940763 71279
KUIPER-00062            
1 64522U 25134Y   26278.71828834  .00002689  00000+0  38145-3 0  9998
2 64522  51.8972  21.7949 0000274 115.7696 244.3295 14.79942333 71218
KUIPER-00063            
1 64523U 25134Z   26278.71021620  .00002567  00000+0  36551-3 0  9991
2 64523  51.9034  29.4384 0000350 104.1114 255.9888 14.79942768 71105
KUIPER-00064            
1 64524U 25134AA  26278.71291216  .00000129  00000+0  45936-4 0  9992
2 64524  51.9039  26.8530 0000590 135.9131 224.1879 14.79931395 71148
KUIPER-00065            
1 64525U 25134AB  26278.70754207  .00002646  00000+0  37594-3 0  9992
2 64525  51.9047  32.0540 0000402 101.2818 258.8190 14.79931986 71054
KUIPER-00066            
1 64526U 25134AC  26279.14633672  .00002019  00000+0  29368-3 0  9998
2 64526  51.9029 327.3788 0000299  46.1424 313.9564 14.79938281 72013
KUIPER-00069            
1 64816U 25151A   26279.13708681  .00002252  00000+0  32428-3 0  9991
2 64816  51.9024  70.0568 0000551 123.9724 236.1291 14.79936615 67922
KUIPER-00070            
1 64817U 25151B   26278.87376227  .00001752  00000+0  25879-3 0  9995
2 64817  51.8993  96.1171 0001159 118.7080 241.3999 14.79937853 67544
KUIPER-00071            
1 64818U 25151C   26278.87646037  .00001674  00000+0  24852-3 0  9998
2 64818  51.9000  93.6541 0000693 112.9077 247.1959 14.79937356 66392
KUIPER-00072            
1 64819U 25151D   26279.13436988  .00000531  00000+0  98626-4 0  9993
2 64819  51.8974  72.4298 0000826 116.3166 243.7882 14.79937817 66716
KUIPER-00073            
1 64820U 25151E   26279.18033741  .00000761  00000+0  12888-3 0  9990
2 64820  51.9004  92.2852 0001098 116.1650 243.9425 14.79938617 67622
KUIPER-00075            
1 64822U 25151G   26279.15137847  .00018321  00000+0  47820-3 0  9996
2 64822  51.8629 276.1142 0002458 315.0268  45.0520 15.38856317 68885
KUIPER-00076            
1 64823U 25151H   26278.71842306  .00001951  00000+0  28491-3 0  9995
2 64823  51.8996  84.3539 0000840 118.7964 241.3083 14.79932449 66514
KUIPER-00077            
1 64824U 25151J   26278.84808735  .00001996  00000+0  29065-3 0  9995
2 64824  51.9010  88.8039 0001055 122.1591 237.9474 14.79941322 66460
KUIPER-00078            
1 64825U 25151K   26279.15466120  .00000880  00000+0  14447-3 0  9998
2 64825  51.8986  84.9172 0000922 125.8110 234.2938 14.79936313 66544
KUIPER-00079            
1 64826U 25151L   26279.18303457  .00001237  00000+0  19123-3 0  9998
2 64826  51.8982  89.7448 0001112 118.4226 241.6849 14.79938121 67675
KUIPER-00080            
1 64827U 25151M   26278.94667095  .00001915  00000+0  28013-3 0  9994
2 64827  51.8990  90.8034 0000669 118.1899 241.9131 14.79942120 66443
KUIPER-00082            
1 64828U 25151N   26279.12899896  .00001973  00000+0  28770-3 0  9996
2 64828  51.8999  77.5630 0000818 122.8069 237.2972 14.79937300 66641
KUIPER-00083            
1 64829U 25151P   26278.91832241  .00001969  00000+0  28716-3 0  9999
2 64829  51.9005  85.9747 0001027 122.2274 237.8788 14.79934540 67698
KUIPER-00084            
1 64830U 25151Q   26279.17764323  .00001863  00000+0  27322-3 0  9990
2 64830  51.8992  94.8144 0000749 116.7820 243.3219 14.79938632 66404
KUIPER-00085            
1 64831U 25151R   26279.16277645  .00002004  00000+0  29188-3 0  9996
2 64831  51.9030  77.4731 0000744 122.7479 237.3555 14.79929889 66646
KUIPER-00086            
1 64832U 25151S   26278.88185905  .00001716  00000+0  25399-3 0  9991
2 64832  51.8999  88.6456 0000903 123.9123 236.1925 14.79934333 66462
KUIPER-00087            
1 64833U 25151T   26278.83319602  .00001864  00000+0  27338-3 0  9999
2 64833  51.8990  71.3126 0000623 120.1791 239.9234 14.79941447 66699
KUIPER-00089            
1 64834U 25151U   26279.16545274 -.00000101  00000+0  15793-4 0  9990
2 64834  51.9000  74.8715 0000560 121.2688 238.8329 14.79930252 66686
KUIPER-00090            
1 64835U 25151V   26279.10601917  .00002163  00000+0  31259-3 0  9995
2 64835  51.8977  67.6247 0000674 130.7768 229.3253 14.79932666 66771
KUIPER-00091            
1 64836U 25151W   26279.16815838  .00002110  00000+0  30571-3 0  9999
2 64836  51.9007  72.3826 0000837 130.8843 229.2192 14.79933916 66713
KUIPER-00092            
1 64837U 25151X   26279.16002705 -.00002634  00000+0 -31656-3 0  9999
2 64837  51.8998  79.9046 0000726 120.3196 239.7838 14.79943243 67821
KUIPER-00093            
1 64838U 25151Y   26279.15735738  .00000882  00000+0  14468-3 0  9991
2 64838  51.8990  82.3854 0000798 124.7926 235.3112 14.79938141 66576
KUIPER-00094            
1 64839U 25151Z   26278.73320848 -.00000288  00000+0 -87416-5 0  9994
2 64839  51.9056  39.3838 0000612 130.3210 229.7806 14.79929194 67148
KUIPER-00081            
1 65132U 25171A   26279.07740421 -.00000041  00000+0  23568-4 0  9997
2 65132  51.8999 297.7386 0000472  48.9447 311.1556 14.79930912 64198
KUIPER-00088            
1 65133U 25171B   26279.05852027  .00002253  00000+0  32437-3 0  9992
2 65133  51.9003 315.3216 0000366  53.1477 306.9519 14.79941952 63947
KUIPER-00095            
1 65134U 25171C   26279.08009473  .00001890  00000+0  27680-3 0  9995
2 65134  51.8978 295.2588 0000521  75.4702 284.6318 14.79937894 64228
KUIPER-00096            
1 65135U 25171D   26278.29002774  .00002017  00000+0  29355-3 0  9998
2 65135  51.9001 311.2125 0000380  52.8204 307.2793 14.79932260 63930
KUIPER-00097            
1 65136U 25171E   26279.09771171  .00002113  00000+0  30616-3 0  9991
2 65136  51.9015 310.3148 0000418  61.5301 298.5704 14.79930208 64001
KUIPER-00098            
1 65137U 25171F   26279.09499147 -.00000023  00000+0  25978-4 0  9997
2 65137  51.9010 312.6847 0000568  58.6642 301.4376 14.79931029 63324
KUIPER-00099            
1 65138U 25171G   26278.32919303  .00000551  00000+0  10125-3 0  9996
2 65138  51.9035 306.0887 0000314  68.0110 292.0885 14.79931677 64002
KUIPER-00100            
1 65139U 25171H   26279.10847281 -.00000495  00000+0 -35972-4 0  9996
2 65139  51.9022 300.1069 0000519  50.5733 309.5275 14.79932875 64154
KUIPER-00102            
1 65140U 25171J   26279.10577237 -.00000001  00000+0  28820-4 0  9995
2 65140  51.8988 302.5811 0000435  37.8931 322.2062 14.79930692 64119
KUIPER-00103            
1 65141U 25171K   26278.37784171  .00002444  00000+0  34940-3 0  9992
2 65141  51.9001 323.3050 0000356  46.3336 313.7656 14.79937230 63768
KUIPER-00104            
1 65142U 25171L   26279.06662045  .00000403  00000+0  81899-4 0  9994
2 65142  51.9026 307.7819 0000372  43.8553 316.2439 14.79934476 64044
KUIPER-00105            
1 65143U 25171M   26279.09230495  .00002292  00000+0  32944-3 0  9992
2 65143  51.9014 315.2590 0000366  47.1609 312.9384 14.79940880 63940
KUIPER-00106            
1 65144U 25171N   26279.07300627 -.00004962  00000+0 -62187-3 0  9996
2 65144  51.8998 294.1100 0001089  78.4651 281.6433 14.79961169 64244
KUIPER-00107            
1 65145U 25171P   26279.04364405  .00000131  00000+0  46176-4 0  9991
2 65145  51.9015 297.9164 0000497  51.8907 308.2100 14.79933914 64185
KUIPER-00108            
1 65146U 25171Q   26279.13146762  .00001945  00000+0  28400-3 0  9999
2 65146  51.9027 310.0779 0000440  44.7646 315.3351 14.79936631 64026
KUIPER-00109            
1 65147U 25171R   26279.10308858  .00002068  00000+0  30011-3 0  9991
2 65147  51.9025 305.1450 0000447  53.3130 306.7874 14.79935679 64088
KUIPER-00110            
1 65148U 25171S   26278.38054406  .00002514  00000+0  35855-3 0  9995
2 65148  51.9008 320.8811 0000337  65.0178 295.0819 14.79935637 63795
KUIPER-00111            
1 65149U 25171T   26279.15171789  .00002174  00000+0  31399-3 0  9997
2 65149  51.8979 322.3268 0000449  41.6919 318.4077 14.79935371 63849
KUIPER-00112            
1 65150U 25171U   26279.13686044  .00002113  00000+0  30616-3 0  9996
2 65150  51.9022 305.0387 0000385  45.2188 314.8805 14.79931064 64089
KUIPER-00114            
1 65151U 25171V   26279.14904299  .00002295  00000+0  32991-3 0  9992
2 65151  51.9002 324.9390 0000361  44.5770 315.5221 14.79930653 63807
KUIPER-00115            
1 65152U 25171W   26279.08960884  .00002151  00000+0  31106-3 0  9996
2 65152  51.9014 317.7136 0000398  53.5774 306.5225 14.79936408 63902
KUIPER-00116            
1 65153U 25171X   26279.11797906  .00002375  00000+0  34042-3 0  9994
2 65153  51.9018 322.6192 0000362  54.9149 305.1847 14.79938235 63833
KUIPER-00118            
1 65154U 25171Y   26279.11526922  .00000375  00000+0  78157-4 0  9997
2 65154  51.9005 325.0774 0000330  60.6994 299.4001 14.79929589 63806
KUIPER-00119            
1 65155U 25171Z   26279.12877120  .00002072  00000+0  30064-3 0  9998
2 65155  51.9015 312.6225 0000446  66.4036 293.6973 14.79939120 63974
KUIPER-00120            
1 65762U 25217A   26279.09545931  .00002684  00000+0  38084-3 0  9990
2 65762  51.8987 202.6305 0001037  78.2799 281.8279 14.79940819 55893
KUIPER-00132            
1 65763U 25217B   26278.83663378  .00027225  00000+0  68418-3 0  9990
2 65763  51.8526  60.9958 0005486 355.7766   4.3174 15.39757937 57833
KUIPER-00133            
1 65764U 25217C   26278.99418273  .00000593  00000+0  10686-3 0  9993
2 65764  51.9042 203.2263 0000968  81.4156 278.6916 14.79934228 55881
KUIPER-00139            
1 65765U 25217D   26279.09676242  .00002413  00000+0  34548-3 0  9994
2 65765  51.8973 170.1878 0001209  88.6315 271.4785 14.79931077 56350
KUIPER-00142            
1 65766U 25217E   26279.11433838  .00002552  00000+0  36361-3 0  9999
2 65766  51.8983 185.0786 0001108  85.7269 274.3820 14.79941133 56142
KUIPER-00145            
1 65767U 25217F   26279.11164818  .00002765  00000+0  39147-3 0  9990
2 65767  51.8993 187.6175 0001099  82.5100 277.5987 14.79935851 56107
KUIPER-00147            
1 65768U 25217G   26279.00763399  .00002588  00000+0  36835-3 0  9992
2 65768  51.8982 190.5480 0001278  76.5768 283.5337 14.79929307 56059
KUIPER-00148            
1 65769U 25217H   26279.09406468  .00002609  00000+0  37113-3 0  9997
2 65769  51.9039 172.7279 0000912  96.3304 263.7762 14.79934450 56318
KUIPER-00150            
1 65770U 25217J   26279.13193062  .00001488  00000+0  22420-3 0  9996
2 65770  51.9011 200.0513 0000998  85.8289 274.2788 14.79932565 55932
KUIPER-00151            
1 65771U 25217K   26279.07247912  .00002607  00000+0  37087-3 0  9993
2 65771  51.9007 192.8127 0000842  92.2246 267.8812 14.79937131 56032
KUIPER-00152            
1 65772U 25217L   26279.11973525  .00001621  00000+0  24160-3 0  9998
2 65772  51.8995 180.0818 0001264  78.8587 281.2517 14.79933440 56212
KUIPER-00153            
1 65773U 25217M   26279.12513017  .00002595  00000+0  36921-3 0  9995
2 65773  51.9017 175.1496 0001140  97.7751 262.3341 14.79944925 56284
KUIPER-00155            
1 65774U 25217N   26279.01973756  .00002051  00000+0  29791-3 0  9998
2 65774  51.9015 148.0781 0000956 106.9481 253.1586 14.79937712 56652
KUIPER-00156            
1 65775U 25217P   26279.09136955  .00002565  00000+0  36523-3 0  9990
2 65775  51.9021 175.2828 0001079  90.9577 269.1509 14.79943751 56279
KUIPER-00165            
1 65778U 25217S   26278.94550718  .00002556  00000+0  36405-3 0  9992
2 65778  51.8999 185.8549 0000848  96.8671 263.2388 14.79945645 56112
KUIPER-00166            
1 65779U 25217T   26279.12783292  .00002648  00000+0  37616-3 0  9996
2 65779  51.9018 172.6148 0000938  97.2302 262.8767 14.79937524 56316
KUIPER-00167            
1 65780U 25217U   26279.13729897  .00000774  00000+0  13054-3 0  9998
2 65780  51.8954 194.8785 0001069  79.8831 280.2252 14.79934620 56001
KUIPER-00168            
1 65781U 25217V   26279.08865853  .00002667  00000+0  37860-3 0  9990
2 65781  51.9003 177.7279 0000884 101.8525 258.2536 14.79942433 56243
KUIPER-00169            
1 65782U 25217W   26279.08327573  .00001263  00000+0  19470-3 0  9991
2 65782  51.9008 182.7661 0000967  92.3563 267.7510 14.79931173 56176
KUIPER-00170            
1 65783U 25217X   26279.14541037  .00002788  00000+0  39456-3 0  9991
2 65783  51.8981 187.4291 0001017  88.2349 271.8729 14.79933491 56117
KUIPER-00172            
1 65785U 25217Z   26279.06298125  .00002574  00000+0  36643-3 0  9999
2 65785  51.8985 170.3270 0001379  85.3786 274.7334 14.79944531 56341
KUIPER-00173            
1 65786U 25217AA  26279.11704152  .00002761  00000+0  39110-3 0  9998
2 65786  51.8997 182.6063 0001178  78.9359 281.1736 14.79933704 56171
KUIPER-00174            
1 65787U 25217AB  26279.12243031  .00001500  00000+0  22574-3 0  9990
2 65787  51.9026 177.6509 0001200  95.6819 264.4280 14.79926218 56246
KUIPER-00176            
1 65788U 25217AC  26279.03872125  .00002677  00000+0  38006-3 0  9996
2 65788  51.8991 192.9305 0001061  82.9349 277.1734 14.79937136 56025
KUIPER-00101            
1 65947U 25228A   26279.05078757  .00002097  00000+0  30404-3 0  9996
2 65947  51.8972 150.3202 0001149  85.3960 274.7134 14.79922930 54388
KUIPER-00113            
1 65948U 25228B   26279.02242363  .00002112  00000+0  30597-3 0  9991
2 65948  51.8972 145.4683 0001164 102.0439 258.0654 14.79935205 54440
KUIPER-00117            
1 65949U 25228C   26279.05349370  .00002145  00000+0  31026-3 0  9995
2 65949  51.8962 147.8293 0001108 101.4036 258.7051 14.79934610 54411
KUIPER-00121            
1 65950U 25228D   26278.82252581 -.00000786  00000+0 -74134-4 0  9997
2 65950  51.8976 143.8761 0001148  98.8813 261.2279 14.79930459 54452
KUIPER-00122            
1 65951U 25228E   26279.01431414 -.00006186  00000+0 -78282-3 0  9991
2 65951  51.8976 152.9945 0000506 111.9708 248.1308 14.79949303 54348
KUIPER-00123            
1 65952U 25228F   26279.04809625 -.00000239  00000+0 -22817-5 0  9996
2 65952  51.8970 152.8533 0001201  92.9165 267.1935 14.79932027 54345
KUIPER-00124            
1 65953U 25228G   26278.98866050  .00002099  00000+0  30432-3 0  9998
2 65953  51.8969 145.6060 0001299  96.2861 263.8249 14.79932761 54443
KUIPER-00125            
1 65954U 25228H   26279.00484932  .00001914  00000+0  28006-3 0  9997
2 65954  51.8983 130.5920 0001236 110.3823 249.7272 14.79931813 54654
KUIPER-00126            
1 65955U 25228J   26279.08456719  .00002171  00000+0  31376-3 0  9998
2 65955  51.8977 150.2168 0001010 100.2216 259.8860 14.79933825 54385
KUIPER-00127            
1 65956U 25228K   26279.00822748  .00002073  00000+0  30074-3 0  9995
2 65956  51.8994 143.0380 0001259  96.5502 263.5604 14.79941350 54482
KUIPER-00128            
1 65957U 25228L   26278.99136830  .00002148  00000+0  31074-3 0  9997
2 65957  51.8998 143.1787 0000975 104.3117 255.7954 14.79934597 54478
KUIPER-00129            
1 65958U 25228M   26279.03051769  .00001935  00000+0  28275-3 0  9993
2 65958  51.8991 137.9839 0001163  96.1841 263.9254 14.79937648 54556
KUIPER-00130            
1 65959U 25228N   26278.99406551  .00002108  00000+0  30550-3 0  9993
2 65959  51.9017 140.6962 0000974 102.7420 257.3652 14.79931186 44808
KUIPER-00134            
1 65960U 25228P   26278.73561982  .00033804  00000+0  89469-3 0  9997
2 65960  51.8720  20.8957 0004825 331.2377  28.8343 15.38058272 56153
KUIPER-00135            
1 65961U 25228Q   26278.82525059  .00001938  00000+0  28314-3 0  9998
2 65961  51.9006 141.4923 0000949 104.5183 255.5885 14.79930643 54483
KUIPER-00136            
1 65962U 25228R   26279.06428566  .00002006  00000+0  29209-3 0  9992
2 65962  51.8992 137.8787 0001252  98.0237 262.0868 14.79933008 54559
KUIPER-00137            
1 65963U 25228S   26278.99945289  .00001904  00000+0  27871-3 0  9999
2 65963  51.9019 135.6807 0001314  96.9276 263.1836 14.79939560 54588
KUIPER-00138            
1 65964U 25228T   26279.03590619  .00001161  00000+0  18134-3 0  9996
2 65964  51.8988 132.9074 0001173 108.4641 251.6449 14.79929028 54622
KUIPER-00140            
1 65965U 25228U   26279.03322385  .00001985  00000+0  28936-3 0  9995
2 65965  51.8979 135.5153 0001255 104.3098 255.8003 14.79934214 54582
KUIPER-00141            
1 65966U 25228V   26279.03861321  .00001913  00000+0  27985-3 0  9998
2 65966  51.9020 130.5740 0000847 110.8370 249.2683 14.79940367 54654
KUIPER-00146            
1 65967U 25228W   26278.79948413  .00001976  00000+0  28794-3 0  9997
2 65967  51.9019 134.1446 0001316 102.4361 257.6749 14.79960608 54583
KUIPER-00149            
1 65968U 25228X   26278.97376650  .00001889  00000+0  27675-3 0  9996
2 65968  51.8995 128.2439 0001048 105.3800 254.7278 14.79939678 54683
KUIPER-00154            
1 65969U 25228Y   26279.01022924  .00001804  00000+0  26555-3 0  9998
2 65969  51.8985 125.5643 0001076 106.8645 253.2435 14.79938250 54723
KUIPER-00157            
1 65970U 25228Z   26279.00520980  .00001368  00000+0  22900-3 0  9999
2 65970  51.9009 128.2203 0000952  95.2282 264.8787 14.75738513 54684
KUIPER-00144            
1 67133U 25301A   26278.99148458  .00002579  00000+0  36721-3 0  9998
2 67133  51.9006 205.6725 0001056  78.0445 282.0636 14.79933289 45012
KUIPER-00164            
1 67134U 25301B   26279.04551356  .00002543  00000+0  36243-3 0  9991
2 67134  51.9029 217.9569 0000886  66.3790 293.7266 14.79939188 45026
KUIPER-00175            
1 67135U 25301C   26279.09816123  .00001255  00000+0  19361-3 0  9994
2 67135  51.9010 200.1522 0001166  74.9128 285.1964 14.79933185 45179
KUIPER-00179            
1 67136U 25301D   26279.04821609 -.00000103  00000+0  15511-4 0  9991
2 67136  51.8974 215.3674 0001004  77.0580 283.0495 14.79932033 45066
KUIPER-00181            
1 67137U 25301E   26279.16980139  .00001390  00000+0  21137-3 0  9997
2 67137  51.9017 227.4017 0001072  68.2151 291.8925 14.79932364 44883
KUIPER-00183            
1 67138U 25301F   26279.03333477  .00000096  00000+0  41627-4 0  9990
2 67138  51.9015 198.0111 0001081  74.2029 285.9052 14.79931599 45291
KUIPER-00184            
1 67139U 25301G   26279.01984609  .00000149  00000+0  48591-4 0  9994
2 67139  51.8998 210.5061 0001008  78.8464 281.2611 14.79933027 45228
KUIPER-00186            
1 67140U 25301H   26279.13600611 -.00003736  00000+0 -46134-3 0  9994
2 67140  51.9016 227.5600 0000668  66.3333 293.7700 14.79935041 44726
KUIPER-00187            
1 67141U 25301J   26279.13333818  .00002464  00000+0  35209-3 0  9993
2 67141  51.9026 230.1010 0000904  87.8011 272.3055 14.79929950 44680
KUIPER-00188            
1 67142U 25301K   26278.99958241  .00001217  00000+0  18863-3 0  9992
2 67142  51.9021 198.2769 0001148  77.2987 282.8103 14.79932008 45114
KUIPER-00191            
1 67143U 25301L   26279.04013750 -.00000121  00000+0  13211-4 0  9994
2 67143  51.8998 222.9827 0000990  65.7831 294.3235 14.79930671 44804
KUIPER-00196            
1 67144U 25301M   26278.95091095  .00001112  00000+0  17490-3 0  9994
2 67144  51.8974 180.8242 0001135  93.4686 266.6406 14.79928925 45352
KUIPER-00204            
1 67145U 25301N   26278.96848987  .00002523  00000+0  35984-3 0  9991
2 67145  51.9012 195.7903 0000880  84.8833 275.2230 14.79936922 45267
KUIPER-00210            
1 67146U 25301P   26279.14119126  .00007844  00000+0  10571-2 0  9994
2 67146  51.8990 222.4804 0001016  76.4107 283.6968 14.79918321 44963
KUIPER-00221            
1 67147U 25301Q   26279.16710632  .00002470  00000+0  35288-3 0  9999
2 67147  51.9008 229.9058 0000724  83.5236 276.5809 14.79935413 44691
KUIPER-00232            
1 67148U 25301R   26279.01445954  .00002712  00000+0  38459-3 0  9998
2 67148  51.8990 215.5860 0000952  75.6953 284.4115 14.79938164 44878
KUIPER-00241            
1 67149U 25301S   26279.03744455  .00002588  00000+0  36842-3 0  9994
2 67149  51.9025 225.5144 0001082  72.6746 287.4335 14.79931933 45074
KUIPER-00245            
1 67150U 25301T   26279.16441315  .00000218  00000+0  57642-4 0  9999
2 67150  51.9017 232.4612 0000777  74.9264 285.1784 14.79932394 44652
KUIPER-00246            
1 67151U 25301U   26279.14681451  .00000060  00000+0  36939-4 0  9996
2 67151  51.8999 217.4714 0000970  65.3292 294.7772 14.79932497 44889
KUIPER-00247            
1 67152U 25301V   26279.02253919  .00002688  00000+0  38148-3 0  9999
2 67152  51.8957 207.9582 0000992  76.9775 283.1298 14.79938083 44982
KUIPER-00248            
1 67153U 25301W   26279.10896295  .00001207  00000+0  18739-3 0  9999
2 67153  51.8983 190.2259 0001052  85.9765 274.1318 14.79930077 45400
KUIPER-00249            
1 67154U 25301X   26279.02524846  .00002662  00000+0  37806-3 0  9993
2 67154  51.8989 205.5314 0001070  71.5113 288.5965 14.79936930 45015
KUIPER-00250            
1 67155U 25301Y   26279.04282477  .00000797  00000+0  13358-3 0  9990
2 67155  51.9002 220.4056 0001062  67.7753 292.3322 14.79933236 44846
KUIPER-00251            
1 67156U 25301Z   26279.05632153  .00002507  00000+0  35776-3 0  9991
2 67156  51.8999 207.9248 0001022  74.2758 285.8317 14.79933603 45174
KUIPER-00252            
1 67157U 25301AA  26278.98608069 -.00000225  00000+0 -48314-6 0  9994
2 67157  51.8996 210.6858 0000958  80.6281 279.4789 14.79930666 44941
KUIPER-00261            
1 67158U 25301AB  26279.14413226  .00002523  00000+0  35984-3 0  9990
2 67158  51.9019 220.0549 0000815  72.7047 287.4005 14.79932260 44824
KUIPER-00265            
1 67159U 25301AC  26279.16170808  .00002464  00000+0  35205-3 0  9999
2 67159  51.9022 234.9540 0000793  82.1629 277.9423 14.79931088 44656
KUIPER-00159            
1 67764U 26030A   26278.35927052  .00002371  00000+0  33994-3 0  9992
2 67764  51.9019 317.2400 0001551   1.9816 358.1152 14.79933547 36906
KUIPER-00160            
1 67765U 26030B   26278.75934999  .00000920  00000+0  14962-3 0  9997
2 67765  51.8972 296.7158 0000299  73.5216 286.5779 14.79925653 37226
KUIPER-00177            
1 67766U 26030C   26278.50083389  .00002707  00000+0  38399-3 0  9994
2 67766  51.9026   5.3437 0000420 103.5168 256.5842 14.79933828 36240
KUIPER-00178            
1 67767U 26030D   26278.66965458  .00002688  00000+0  38143-3 0  9993
2 67767  51.9020   4.5773 0000358  87.5781 272.5222 14.79937953 36277
KUIPER-00180            
1 67768U 26030E   26278.67501501 -.00011730  00000+0 -15111-2 0  9999
2 67768  51.8996 359.5425 0000139 158.2834 201.8134 14.79969455 36345
KUIPER-00197            
1 67769U 26030F   26278.42649681  .00002497  00000+0  35635-3 0  9997
2 67769  51.9012 340.6611 0000222  51.3213 308.7769 14.79940549 36581
KUIPER-00198            
1 67770U 26030G   26278.51430591  .00002447  00000+0  34972-3 0  9995
2 67770  51.9005 352.7436 0000136  61.7988 298.2988 14.79941750 36426
KUIPER-00199            
1 67771U 26030H   26278.91668981 -.00007854  00000+0 -89618-3 0  9992
2 67771  51.8993 289.9466 0015988  96.3391 172.1441 14.84420357  5330
KUIPER-00200            
1 67772U 26030J   26278.46296718  .00001015  00000+0  16212-3 0  9999
2 67772  51.8990 338.0160 0000391  72.0745 288.0260 14.79932497 36620
KUIPER-00203            
1 67773U 26030K   26278.69803825  .00001179  00000+0  18369-3 0  9994
2 67773  51.9065   9.5623 0000416 108.4582 251.6425 14.79931168 36207
KUIPER-00205            
1 67774U 26030L   26278.87083128  .00002507  00000+0  35766-3 0  9997
2 67774  51.9021 333.6818 0000305  49.5609 310.5380 14.79941736 36723
KUIPER-00208            
1 67775U 26030M   26278.67234917  .00002903  00000+0  40960-3 0  9992
2 67775  51.8996   2.0505 0000313 162.7417 197.3556 14.79929989 36304
KUIPER-00209            
1 67776U 26030N   26278.57376255  .00002585  00000+0  36788-3 0  9993
2 67776  51.9012   0.0909 0000197  92.8451 267.2534 14.79933647 36323
KUIPER-00213            
1 67777U 26030P   26278.81280610  .00000388  00000+0  79840-4 0  9996
2 67777  51.8982 356.4847 0000294  73.0364 287.0630 14.79931497 36395
KUIPER-00214            
1 67778U 26030Q   26278.51162632  .00002666  00000+0  37860-3 0  9993
2 67778  51.9022 355.3601 0000300  84.2850 275.8147 14.79933249 36384
KUIPER-00215            
1 67779U 26030R   26278.49132273  .00002249  00000+0  32383-3 0  9991
2 67779  51.9007 342.8016 0000240  56.0662 304.0323 14.79940023 36569
KUIPER-00218            
1 67780U 26030S   26278.50890615  .00002485  00000+0  35494-3 0  9994
2 67780  51.8990 357.7606 0000316  77.5577 282.5421 14.79928374 36359
KUIPER-00220            
1 67781U 26030T   26278.46835555  .00001286  00000+0  19770-3 0  9999
2 67781  51.8966 332.9607 0000413  69.4821 290.6186 14.79932016 36692
KUIPER-00222            
1 67782U 26030U   26278.41303287  .00003025  00000+0  42561-3 0  9994
2 67782  51.9000 353.3473 0000178 100.1599 259.9383 14.79936494 36404
KUIPER-00223            
1 67783U 26030V   26278.45486029  .00000109  00000+0  43327-4 0  9997
2 67783  51.9021 345.4774 0000340  65.4775 294.6223 14.79927393 36524
KUIPER-00225            
1 67784U 26030W   26278.51701719  .00002186  00000+0  31553-3 0  9995
2 67784  51.9002 350.3441 0000313  66.4962 293.6033 14.79939862 36453
KUIPER-00226            
1 67785U 26030X   26278.42918687  .00000486  00000+0  92822-4 0  9998
2 67785  51.9012 338.1180 0000918  56.2784 303.8265 14.79928550 36621
KUIPER-00259            
1 67786U 26030Y   26278.48324204  .00002803  00000+0  39650-3 0  9995
2 67786  51.8997 350.3949 0000246  64.9573 295.1415 14.79938189 36458
KUIPER-00260            
1 67787U 26030Z   26278.62100648  .00002419  00000+0  34611-3 0  9991
2 67787  51.9020 347.4010 0000145  67.1182 292.9796 14.79942140 36417
KUIPER-00262            
1 67788U 26030AA  26278.51970251  .00002305  00000+0  33118-3 0  9990
2 67788  51.9019 347.7656 0000168 103.5065 256.5916 14.79935786 36491
KUIPER-00266            
1 67789U 26030AB  26278.62369953  .00002668  00000+0  37883-3 0  9999
2 67789  51.9015 344.7960 0000204  82.9008 277.1977 14.79937714 36546
KUIPER-00268            
1 67790U 26030AC  26278.45757611  .00000923  00000+0  15004-3 0  9997
2 67790  51.9048 343.0806 0000171  80.5573 279.5409 14.79933551 36551
KUIPER-00270            
1 67791U 26030AD  26278.43459302  .00000265  00000+0  63741-4 0  9993
2 67791  51.9009 333.1219 0000351  71.0444 289.0557 14.79931318 36693
KUIPER-00274            
1 67792U 26030AE  26278.47785904  .00002961  00000+0  41719-3 0  9993
2 67792  51.9032 355.4509 0000309  86.2005 273.8992 14.79934643 36387
KUIPER-00275            
1 67793U 26030AF  26278.43189661  .00000443  00000+0  87132-4 0  9991
2 67793  51.9015 335.6462 0000163  53.4308 306.6669 14.79930725 36650
KUIPER-00276            
1 67794U 26030AG  26278.52779994  .00002296  00000+0  33003-3 0  9991
2 67794  51.9000 340.1968 0000370  67.4833 292.6169 14.79934655 36605
KUIPER-00279            
1 67795U 26030AH  26278.43729417  .00002631  00000+0  37399-3 0  9992
2 67795  51.9036 330.6537 0000306  54.4551 305.6440 14.79936103 36723
KUIPER-00131            
1 68573U 26072A   26279.10872106  .00002222  00000+0  32038-3 0  9993
2 68573  51.9005  65.1568 0000623 124.0343 236.0679 14.79932954 27544
KUIPER-00189            
1 68574U 26072B   26279.13977157  .00002160  00000+0  31221-3 0  9993
2 68574  51.8987  67.4939 0000407  83.3363 276.7646 14.79934478 27514
KUIPER-00192            
1 68575U 26072C   26278.77377039  .00002168  00000+0  31329-3 0  9993
2 68575  51.8999  64.1312 0000707 133.2153 226.8869 14.79932570 27538
KUIPER-00193            
1 68576U 26072D   26278.78455664  .00002321  00000+0  33342-3 0  9994
2 68576  51.9044  54.1410 0000552 135.1823 224.9184 14.79930990 27670
KUIPER-00194            
1 68577U 26072E   26278.81022359  .00002051  00000+0  29794-3 0  9996
2 68577  51.9012  61.5002 0000623 131.6881 228.4135 14.79944051 27576
KUIPER-00229            
1 68578U 26072F   26279.14247913  .00001496  00000+0  22515-3 0  9995
2 68578  51.9013  65.0106 0000455 116.4992 243.6017 14.79939144 27552
KUIPER-00230            
1 68579U 26072G   26278.92856464  .00137151  00000+0  18247-1 0  9991
2 68579  51.9051  13.4456 0000472 191.0728 169.0223 14.78539972 28257
KUIPER-00231            
1 68580U 26072H   26278.69944274  .00000803  00000+0  13442-3 0  9991
2 68580  51.8987  39.5361 0001419 160.1948 199.9070 14.79929948 27868
KUIPER-00234            
1 68581U 26072J   26278.77645223  .00002371  00000+0  33990-3 0  9995
2 68581  51.8995  61.6096 0000977 136.6271 223.4768 14.79940684 27568
KUIPER-00236            
1 68582U 26072K   26278.62243104  .00002084  00000+0  30231-3 0  9998
2 68582  51.9046  17.3094 0000837 121.8329 238.2715 14.79927321 28175
KUIPER-00244            
1 68583U 26072L   26278.82101529 -.00000172  00000+0  64240-5 0  9991
2 68583  51.8992  51.4365 0000668 129.6125 230.4897 14.79929866 27717
KUIPER-00253            
1 68584U 26072M   26278.75079482  .00002340  00000+0  33585-3 0  9990
2 68584  51.9036  54.2801 0000609 129.0759 231.0257 14.79928143 27664
KUIPER-00254            
1 68585U 26072N   26278.78184439  .00002335  00000+0  33511-3 0  9996
2 68585  51.9035  56.6389 0000696 124.3980 235.7048 14.79939692 27638
KUIPER-00263            
1 68586U 26072P   26278.73051736  .00002423  00000+0  34678-3 0  9998
2 68586  51.9028  41.9304 0000413 105.6941 254.4067 14.79931926 27834
KUIPER-00269            
1 68587U 26072Q   26278.72780536  .00002501  00000+0  35686-3 0  9992
2 68587  51.9008  44.3463 0000619 142.6733 217.4273 14.79938317 27800
KUIPER-00272            
1 68588U 26072R   26278.80752575  .00000842  00000+0  13943-3 0  9992
2 68588  51.8975  63.9581 0000744 123.6818 236.4215 14.79930800 27539
KUIPER-00285            
1 68589U 26072S   26278.76157373  .00002444  00000+0  34944-3 0  9997
2 68589  51.9044  44.2880 0001054 120.4878 239.6188 14.79941404 27804
KUIPER-00286            
1 68590U 26072T   26278.69674379  .00000781  00000+0  13149-3 0  9997
2 68590  51.9012  41.9970 0000514  97.3948 262.7073 14.79931053 27837
KUIPER-00289            
1 68591U 26072U   26278.82370842 -.00000326  00000+0 -13756-4 0  9993
2 68591  51.8993  48.9073 0000625 131.6944 228.4072 14.79930201 27749
KUIPER-00290            
1 68592U 26072V   26278.72241671  .00002400  00000+0  34359-3 0  9994
2 68592  51.9025  49.3705 0000462 146.9415 213.1576 14.79940513 27731
KUIPER-00293            
1 68593U 26072W   26278.81291390  .00002276  00000+0  32747-3 0  9998
2 68593  51.8981  58.9328 0001653 104.0781 256.0365 14.79944081 27605
KUIPER-00294            
1 68594U 26072X   26278.75887574  .00001319  00000+0  20201-3 0  9996
2 68594  51.8994  46.6971 0000518 114.3883 245.7134 14.79928976 27776
KUIPER-00296            
1 68595U 26072Y   26278.67645992  .00001020  00000+0  16274-3 0  9998
2 68595  51.9025  29.5836 0000407 118.0659 242.0344 14.79933472 28009
KUIPER-00297            
1 68596U 26072Z   26279.11680640  .00002135  00000+0  30901-3 0  9999
2 68596  51.8997  57.5918 0001097 152.5718 207.5302 14.79932740 27651
KUIPER-00300            
1 68597U 26072AA  26278.74808807  .00002408  00000+0  34468-3 0  9990
2 68597  51.9030  56.7634 0000520 126.7246 233.3764 14.79938899 27634
KUIPER-00301            
1 68598U 26072AB  26279.00714263  .00001152  00000+0  19427-3 0  9996
2 68598  51.9027  25.5278 0001804 257.8183 102.2576 14.76523461 28088
KUIPER-00304            
1 68599U 26072AC  26278.69731572  .00001172  00000+0  19667-3 0  9991
2 68599  51.9016  28.8270 0000761  48.4127 311.6899 14.76638203 28016
KUIPER-00317            
1 68600U 26072AD  26278.79264268  .00001704  00000+0  25246-3 0  9999
2 68600  51.8987  46.5511 0000435 104.4727 255.6284 14.79926069 27777
KUIPER-00320            
1 68601U 26072AE  26278.78723779 -.00004519  00000+0 -56413-3 0  9995
2 68601  51.9045  51.5946 0000654 112.4227 247.6805 14.79935088 27703
KUIPER-00299            
1 68864U 26095A   26279.01562954 -.00000008  00000+0  27970-4 0  9999
2 68864  51.8984 120.5465 0001063 117.0699 243.0372 14.79930226 24027
KUIPER-00353            
1 68865U 26095B   26278.72792009 -.00000646  00000+0 -55779-4 0  9990
2 68865  51.8966 106.8472 0000871 114.8289 245.2764 14.79930357 24191
KUIPER-00357            
1 68866U 26095C   26278.82113460  .00001805  00000+0  26568-3 0  9999
2 68866  51.9004 113.9475 0001354 103.1953 256.9161 14.79937119 24108
KUIPER-00364            
1 68867U 26095D   26278.98726315  .00001869  00000+0  27406-3 0  9998
2 68867  51.9023 115.7406 0001255 102.9768 257.1335 14.79938851 24093
KUIPER-00375            
1 68868U 26095E   26278.89406316  .00001821  00000+0  26781-3 0  9998
2 68868  51.8996 108.6203 0000936 116.1659 243.9400 14.79932258 24180
KUIPER-00433            
1 68869U 26095F   26279.01294333  .00001843  00000+0  27078-3 0  9992
2 68869  51.8995 123.0880 0001330 101.8760 258.2351 14.79929081 23997
KUIPER-00437            
1 68870U 26095G   26279.15307248  .00001336  00000+0  21995-3 0  9998
2 68870  51.9018  74.4867 0000673  99.2432 260.8605 14.76631142 24688
KUIPER-00448            
1 68871U 26095H   26278.98996200  .00001956  00000+0  28557-3 0  9990
2 68871  51.9036 113.2008 0000962 124.2438 235.8616 14.79930010 24126
KUIPER-00459            
1 68872U 26095J   26278.90215184 -.00000876  00000+0 -85874-4 0  9996
2 68872  51.9011 101.1492 0000870 113.5890 246.5164 14.79929005 24280
KUIPER-00468            
1 68873U 26095K   26278.93883854  .00001290  00000+0  21333-3 0  9993
2 68873  51.8967  98.8756 0000382 194.3066 165.7884 14.76641057 24326
KUIPER-00476            
1 68874U 26095L   26278.78864861  .00001800  00000+0  26501-3 0  9993
2 68874  51.8999  81.5007 0000857 130.1925 229.9113 14.79935884 24559
KUIPER-00478            
1 68875U 26095M   26278.89944602 -.00000313  00000+0 -12079-4 0  9994
2 68875  51.8993 103.5913 0001017 116.0923 244.0144 14.79930723 24251
KUIPER-00480            
1 68876U 26095N   26278.86837594  .00001792  00000+0  26390-3 0  9993
2 68876  51.9022 101.2511 0000797 114.2361 245.8685 14.79940590 24280
KUIPER-00482            
1 68877U 26095P   26278.79003902  .00001711  00000+0  25339-3 0  9997
2 68877  51.8996 111.5792 0001408 102.3262 257.7858 14.79932212 24133
KUIPER-00483            
1 68878U 26095Q   26278.97915277 -.00000162  00000+0  77934-5 0  9995
2 68878  51.8986 123.2039 0001336  77.1220 282.9891 14.79936341 23986
KUIPER-00488            
1 68879U 26095R   26278.89675311  .00001944  00000+0  28387-3 0  9993
2 68879  51.8995 106.1122 0001239 114.6043 245.5048 14.79937940 24214
KUIPER-00489            
1 68880U 26095S   26278.90483184  .00001672  00000+0  24819-3 0  9996
2 68880  51.8958  98.5510 0001339 121.1295 238.9798 14.79941808 24321
KUIPER-00499            
1 68881U 26095T   26278.79815229  .00000721  00000+0  12358-3 0  9992
2 68881  51.8987 104.0880 0000796 113.6824 246.4222 14.79926830 24231
KUIPER-00500            
1 68882U 26095U   26278.98185104  .00001822  00000+0  26795-3 0  9999
2 68882  51.9000 120.7305 0000915 109.6014 250.5047 14.79940228 24020
KUIPER-00502            
1 68883U 26095V   26278.86396892  .00001981  00000+0  28885-3 0  9993
2 68883  51.8986  97.5009 0001047 117.0836 243.0233 14.79933202 24339
KUIPER-00503            
1 68884U 26095W   26278.74821160  .00001801  00000+0  26515-3 0  9991
2 68884  51.8973 119.2303 0001034 108.8458 251.2617 14.79931029 24027
KUIPER-00504            
1 68885U 26095X   26278.77388552  .00001888  00000+0  27659-3 0  9993
2 68885  51.9006 126.6565 0000867 108.7298 251.3759 14.79936689 23925
KUIPER-00505            
1 68886U 26095Y   26278.75091332  .00001518  00000+0  22810-3 0  9993
2 68886  51.9014 116.7585 0000737 105.1224 254.9820 14.79927257 24057
KUIPER-00507            
1 68887U 26095Z   26278.87986690  .00001930  00000+0  28206-3 0  9990
2 68887  51.9000 106.1699 0000875 114.4394 245.6659 14.79933244 24214
KUIPER-00511            
1 68888U 26095AA  26278.93862323  .00001944  00000+0  28394-3 0  9997
2 68888  51.8985  98.5207 0001057 114.6570 245.4502 14.79930528 24325
KUIPER-00512            
1 68889U 26095AB  26278.91702139  .00001808  00000+0  26609-3 0  9990
2 68889  51.9003 118.5264 0000919 115.5257 244.5800 14.79933242 24048
KUIPER-00519            
1 68890U 26095AC  26278.72524486  .00001732  00000+0  25610-3 0  9995
2 68890  51.9020 109.4395 0000714 107.5913 252.5127 14.79931734 24153
KUIPER-00521            
1 68891U 26095AD  26279.19624389  .00001913  00000+0  27982-3 0  9996
2 68891  51.9017 101.0517 0000736 111.9915 248.1125 14.79934695 24315
KUIPER-00524            
1 68892U 26095AE  26278.95888934  .00000872  00000+0  14342-3 0  9997
2 68892  51.8979 110.8061 0001211 106.7583 253.3512 14.79927130 24152
KUIPER-00370            
1 68919U 26098A   26279.05441727 -.00000051  00000+0  22312-4 0  9994
2 68919  51.8986 287.7675 0000528  52.0015 308.0994 14.79930921 23904
KUIPER-00380            
1 68920U 26098B   26279.06253036  .00002095  00000+0  30365-3 0  9996
2 68920  51.8977 280.3673 0000588  46.2402 313.8609 14.79936095 24001
KUIPER-00386            
1 68921U 26098C   26279.00917940  .00002202  00000+0  31776-3 0  9999
2 68921  51.8985 283.0995 0000584  44.2953 315.8056 14.79935885 23961
KUIPER-00388            
1 68922U 26098D   26278.98152741  .00000392  00000+0  80426-4 0  9991
2 68922  51.9002 293.3868 0000611  40.5801 319.5207 14.79931765 23814
KUIPER-00405            
1 68923U 26098E   26279.06861762 -.00000465  00000+0 -31948-4 0  9990
2 68923  51.9020 290.3567 0000926 328.1392  31.9514 14.79932095 23865
KUIPER-00408            
1 68924U 26098F   26279.05982372  .00002098  00000+0  30414-3 0  9999
2 68924  51.8991 282.8045 0000573  56.4373 303.6644 14.79933434 23970
KUIPER-00409            
1 68925U 26098G   26279.17261291  .00000147  00000+0  48345-4 0  9999
2 68925  51.9001 287.3972 0000568  52.6140 307.4874 14.79929936 23910
KUIPER-00410            
1 68926U 26098H   26279.04024189  .00000268  00000+0  64126-4 0  9998
2 68926  51.8971 285.4491 0000230 340.8864  19.2090 14.79934285 23935
KUIPER-00412            
1 68927U 26098J   26279.16652696  .00002125  00000+0  30765-3 0  9997
2 68927  51.9023 277.4351 0000585  73.5674 286.5352 14.79933453 24053
KUIPER-00413            
1 68928U 26098K   26279.05172950  .00002122  00000+0  30719-3 0  9992
2 68928  51.8992 290.4091 0000475 355.2954   4.8004 14.79941209 23864
KUIPER-00414            
1 68929U 26098L   26278.39941800  .00002195  00000+0  31683-3 0  9998
2 68929  51.8972 303.3732 0000133 221.4550 138.6402 14.79939959 23627
KUIPER-00415            
1 68930U 26098M   26279.16110427 -.00002763  00000+0 -33354-3 0  9999
2 68930  51.9015 282.4450 0000781  64.0068 296.0975 14.79935332 23980
KUIPER-00416            
1 68931U 26098N   26279.04381941  .00002148  00000+0  31085-3 0  9992
2 68931  51.9024 274.3168 0000634  75.4983 284.6050 14.79902113 24086
KUIPER-00420            
1 68932U 26098P   26279.16921722  .00002112  00000+0  30602-3 0  9998
2 68932  51.8999 274.8691 0000593  69.5270 290.5756 14.79930348 24091
KUIPER-00421            
1 68933U 26098Q   26279.16381291  .00002121  00000+0  30720-3 0  9991
2 68933  51.9016 279.8799 0000630  72.5397 287.5635 14.79927353 24020
KUIPER-00425            
1 68934U 26098R   26279.02065468  .00001983  00000+0  28910-3 0  9995
2 68934  51.8989 288.0533 0000399  79.3697 280.7310 14.79930014 23894
KUIPER-00430            
1 68935U 26098S   26279.08549463  .00002068  00000+0  30014-3 0  9997
2 68935  51.9035 290.1740 0000508  57.9907 302.1104 14.79936323 23877
KUIPER-00431            
1 68936U 26098T   26279.01527912  .00002117  00000+0  30663-3 0  9991
2 68936  51.8988 293.0647 0000466  30.5390 329.5600 14.79928660 23822
KUIPER-00432            
1 68937U 26098U   26278.95581859  .00002175  00000+0  31424-3 0  9994
2 68937  51.8990 285.7275 0000543  43.4250 316.6755 14.79935639 23928
KUIPER-00434            
1 68938U 26098V   26278.97683566  .00001322  00000+0  21900-3 0  9996
2 68938  51.8999 290.0958 0000577 191.2140 168.8808 14.76408687 23866
KUIPER-00436            
1 68939U 26098W   26279.00377898  .00000243  00000+0  60886-4 0  9998
2 68939  51.9011 288.1307 0000428  69.5058 290.5950 14.79929867 23894
KUIPER-00438            
1 68940U 26098X   26279.00647275  .00000784  00000+0  13176-3 0  9998
2 68940  51.9015 285.6436 0000510  99.3277 260.7743 14.79943040 23923
KUIPER-00439            
1 68941U 26098Y   26279.05713010  .00002020  00000+0  29389-3 0  9993
2 68941  51.9023 285.4137 0000631  62.0357 298.0669 14.79941799 23930
KUIPER-00440            
1 68942U 26098Z   26279.14963814  .00000231  00000+0  59289-4 0  9998
2 68942  51.9005 277.5020 0001155  33.3062 326.7973 14.79931689 24058
KUIPER-00442            
1 68943U 26098AA  26279.01185395  .00002154  00000+0  31151-3 0  9998
2 68943  51.9004 280.6286 0000607  19.5420 340.5565 14.79928230 23993
KUIPER-00446            
1 68944U 26098AB  26279.04295394  .00001890  00000+0  27692-3 0  9994
2 68944  51.8982 282.9697 0001287 352.1452   7.9490 14.79932512 23961
KUIPER-00451            
1 68945U 26098AC  26279.09969312  .00002197  00000+0  31706-3 0  9990
2 68945  51.8997 292.7005 0000469  36.2909 323.8085 14.79928863 23838
KUIPER-00452            
1 68946U 26098AD  26279.04562472 -.00003476  00000+0 -42717-3 0  9999
2 68946  51.9015 280.4594 0000734 100.1397 259.9648 14.79937069 24007
KUIPER-00453            
1 68947U 26098AE  26278.72756621  .00000848  00000+0  14021-3 0  9990
2 68947  51.8982 279.2805 0000452 190.0237 170.0716 14.79927866 23999
KUIPER-00454            
1 68948U 26098AF  26279.04633083  .00000310  00000+0  69667-4 0  9994
2 68948  51.8994 295.4282 0000866  57.0255 303.0791 14.79927498 23793
KUIPER-00455            
1 68949U 26098AG  26279.06591823  .00002020  00000+0  29381-3 0  9990
2 68949  51.8997 292.8549 0000376 198.7910 161.3039 14.79939739 23837
KUIPER-00458            
1 68950U 26098AH  26279.04833725 -.00000304  00000+0 -10862-4 0  9990
2 68950  51.9000 277.9572 0000931  75.0636 285.0429 14.79931725 24031
KUIPER-00282            
1 69267U 26118A   26278.98884818  .00002082  00000+0  30188-3 0  9991
2 69267  51.8961 270.6690 0000753  15.7495 344.3490 14.79952654 20560
KUIPER-00383            
1 69268U 26118B   26279.14353574 -.00000324  00000+0 -13501-4 0  9991
2 69268  51.8985 267.5083 0000770  44.0916 316.0107 14.79932459 20629
KUIPER-00527            
1 69269U 26118C   26278.70460712  .00000907  00000+0  14791-3 0  9992
2 69269  51.8975 269.5821 0000709  43.0100 317.0918 14.79937465 20552
KUIPER-00562            
1 69270U 26118D   26279.15163164  .00002200  00000+0  31750-3 0  9997
2 69270  51.9029 259.9260 0000905  66.6995 293.4062 14.79929541 20739
KUIPER-00570            
1 69271U 26118E   26279.17191898  .00000193  00000+0  54273-4 0  9990
2 69271  51.9001 272.4907 0000602  39.9014 320.1992 14.79930759 20549
KUIPER-00572            
1 69272U 26118F   26279.22795226 -.00000130  00000+0  11977-4 0  9998
2 69272  51.8995 267.1348 0000756  48.1897 311.9130 14.79931673 20630
KUIPER-00581            
1 69273U 26118G   26279.15502800  .00000266  00000+0  63876-4 0  9999
2 69273  51.9018 272.4687 0000498 341.5348  18.5596 14.79931983 20648
KUIPER-00584            
1 69274U 26118H   26278.73025988  .00000986  00000+0  15834-3 0  9999
2 69274  51.9001 276.9548 0000644  33.6453 326.4550 14.79930557 20451
KUIPER-00587            
1 69275U 26118J   26279.16311598  .00000194  00000+0  54488-4 0  9993
2 69275  51.9010 264.9325 0000822  57.4407 302.6635 14.79930128 20660
KUIPER-00590            
1 69276U 26118K   26279.15772681  .00002044  00000+0  29711-3 0  9993
2 69276  51.9012 269.9681 0000596  45.1856 314.9155 14.79930391 20590
KUIPER-00592            
1 69277U 26118L   26279.14083233  .00002376  00000+0  34046-3 0  9996
2 69277  51.9030 269.9229 0000658  50.2923 309.8097 14.79939687 20595
KUIPER-00593            
1 69278U 26118M   26279.22724457  .00002189  00000+0  31596-3 0  9995
2 69278  51.9006 252.1530 0000127 253.7076 106.3872 14.79939371 20904
KUIPER-00594            
1 69279U 26118N   26279.15433355  .00002216  00000+0  31958-3 0  9995
2 69279  51.9021 257.4884 0000866  78.9810 281.1250 14.79934110 20767
KUIPER-00595            
1 69280U 26118P   26279.19347539  .00000113  00000+0  43764-4 0  9992
2 69280  51.8980 252.2557 0000451 304.2244  55.8675 14.79932655 20879
KUIPER-00596            
1 69281U 26118Q   26278.71338180  .00000806  00000+0  13475-3 0  9996
2 69281  51.9027 276.9266 0000619  41.5079 318.5931 14.79937651 20455
KUIPER-00597            
1 69282U 26118R   26279.19078422 -.00000850  00000+0 -82470-4 0  9993
2 69282  51.8986 254.8081 0001683  75.2572 284.8577 14.79929604 20802
KUIPER-00599            
1 69283U 26118S   26279.14618213 -.00006292  00000+0 -79663-3 0  9992
2 69283  51.9010 264.9204 0000843  16.3620 343.7369 14.79960159 20666
KUIPER-00600            
1 69284U 26118T   26279.15701395  .00000398  00000+0  81209-4 0  9997
2 69284  51.8973 254.8701 0001775  72.0201 288.0955 14.79931811 20804
KUIPER-00601            
1 69285U 26118U   26279.17459939  .00002132  00000+0  30869-3 0  9997
2 69285  51.9014 269.8839 0000708  62.5018 297.6017 14.79919391 20595
KUIPER-00602            
1 69286U 26118V   26279.11515139  .00000333  00000+0  72629-4 0  9999
2 69286  51.9016 262.5603 0000883 358.2213   1.8746 14.79931880 20695
KUIPER-00603            
1 69287U 26118W   26279.12935137  .00000144  00000+0  47959-4 0  9993
2 69287  51.9032 265.0912 0000785  70.7662 289.3386 14.79929735 20655
KUIPER-00605            
1 69288U 26118X   26278.71607927  .00000675  00000+0  11753-3 0  9992
2 69288  51.8990 274.3897 0000667  42.6353 317.4661 14.79937016 20499
KUIPER-00606            
1 69289U 26118Y   26279.11247565  .00002065  00000+0  29978-3 0  9999
2 69289  51.9005 265.1582 0000695  44.0904 316.0114 14.79933497 20651
KUIPER-00607            
1 69290U 26118Z   26279.10637850  .00002406  00000+0  34441-3 0  9990
2 69290  51.9002 255.1902 0001926  50.2210 309.8922 14.79941214 20790
KUIPER-00608            
1 69291U 26118AA  26279.12054122  .00002273  00000+0  32699-3 0  9993
2 69291  51.9004 257.4871 0000866  65.9804 294.1249 14.79941357 20760
KUIPER-00610            
1 69292U 26118AB  26279.14893909  .00001986  00000+0  28947-3 0  9991
2 69292  51.9019 262.4979 0000679  49.3124 310.7897 14.79930528 20699
KUIPER-00613            
1 69293U 26118AC  26279.00309081  .00001965  00000+0  28666-3 0  9995
2 69293  51.8997 273.1389 0000668  46.3255 313.7763 14.79935332 20534
KUIPER-00618            
1 69294U 26118AD  26279.11785569 -.00000793  00000+0 -74994-4 0  9993
2 69294  51.9016 260.1428 0000942 286.5479  73.5380 14.79930263 20724
KUIPER-00620            
1 69295U 26118AE  26279.13205334  .00000335  00000+0  72898-4 0  9994
2 69295  51.9034 262.5859 0000792  49.0351 311.0680 14.79932366 20698
KUIPER-00423            
1 69592U 26140A   26279.14479663 -.00000128  00000+0  12258-4 0  9993
2 69592  51.9011 235.0111 0000876  78.0898 282.0162 14.79919556 18123
KUIPER-00428            
1 69593U 26140B   26279.16668980 -.01188557  00000+0 -42110-1 0  9990
2 69593  51.8815 222.3598 0005508 338.0716 357.2898 15.31683919  2818
KUIPER-00481            
1 69594U 26140C   26279.19008728  .00001131  00000+0  17738-3 0  9991
2 69594  51.8988 239.8178 0001587  28.6938 331.4112 14.79936314 18066
KUIPER-00490            
1 69595U 26140D   26279.16780345 -.00000008  00000+0  27908-4 0  9995
2 69595  51.9030 244.8708 0000969  61.4533 298.6527 14.79932728 17990
KUIPER-00493            
1 69596U 26140E   26279.19617884  .00002259  00000+0  32525-3 0  9995
2 69596  51.9025 249.7960 0001424  15.4590 344.6415 14.79937587 17927
KUIPER-00496            
1 69597U 26140F   26279.15462698  .00002410  00000+0  34506-3 0  9993
2 69597  51.9021 233.7286 0000993  82.6245 277.4830 14.79925011 18149
KUIPER-00513            
1 69598U 26140G   26279.20157933  .00002414  00000+0  34555-3 0  9991
2 69598  51.8998 244.7620 0000771  58.0956 302.0081 14.79933151 17995
KUIPER-00516            
1 69599U 26140H   26279.16668980 -.00007986  00000+0 -11057-2 0  9998
2 69599  51.8953 229.4359 0001544 182.7516 338.0709 14.76542999  5820
KUIPER-00517            
1 69600U 26140J   26279.16668980 -.00019128  00000+0 -16967-2 0  9997
2 69600  51.8943 225.4124 0008959 226.6412 104.0574 14.95331355  5923
KUIPER-00520            
1 69601U 26140K   26279.15036519  .00001541  00000+0  24905-3 0  9994
2 69601  51.9006 247.3333 0000740 325.7804  34.3109 14.76622422 17958
KUIPER-00522            
1 69602U 26140L   26279.06041391  .00001295  00000+0  19884-3 0  9995
2 69602  51.9034 235.3919 0001340  98.8079 261.3035 14.79929437 18114
KUIPER-00528            
1 69603U 26140M   26279.11444524 -.00003057  00000+0 -37206-3 0  9995
2 69603  51.9021 247.6685 0000660  56.7995 303.3031 14.79939565 17947
KUIPER-00532            
1 69604U 26140N   26279.14752862  .00002339  00000+0  33579-3 0  9995
2 69604  51.9022 232.5128 0000803  84.4422 275.6632 14.79925897 18162
KUIPER-00533            
1 69605U 26140P   26279.17050838  .00002331  00000+0  33465-3 0  9999
2 69605  51.9005 242.4101 0000891  55.5617 304.5429 14.79936993 18027
KUIPER-00534            
1 69606U 26140Q   26279.13458041  .00013858  00000+0  50321-3 0  9990
2 69606  51.8796 224.3290 0012397 188.5710 171.5063 15.28509293 18274
KUIPER-00537            
1 69607U 26140R   26279.09487806  .00002538  00000+0  36181-3 0  9998
2 69607  51.8993 250.1568 0001426  38.3181 321.7882 14.79932534 17915
KUIPER-00538            
1 69608U 26140S   26279.19887007  .00000303  00000+0  68812-4 0  9992
2 69608  51.9022 247.2248 0001133  53.1790 306.9276 14.79932013 17967
KUIPER-00540            
1 69609U 26140T   26279.14281263  .00018640  00000+0  49027-3 0  9999
2 69609  51.8805 222.1942 0004610 334.3925  25.6833 15.38602973 18304
KUIPER-00541            
1 69610U 26140U   26279.16668980 -.00053728  00000+0 -74258-2 0  9999
2 69610  51.8986 227.2434 0006516  29.2596 320.7278 14.77877319  4441
KUIPER-00542            
1 69611U 26140V   26279.16668980 -.00024668  00000+0 -23522-2 0  9999
2 69611  51.8944 225.3478 0008464 204.6146  17.4017 14.92649181  4269
KUIPER-00543            
1 69612U 26140W   26279.18129580  .00002536  00000+0  36148-3 0  9997
2 69612  51.9032 232.3600 0000553  93.9149 266.1877 14.79935184 18164
KUIPER-00544            
1 69613U 26140X   26279.16668980 -.00085752  00000+0 -10311-1 0  9993
2 69613  51.9320 227.4871 0006945 232.2275 170.5984 14.83949148  4543
KUIPER-00546            
1 69614U 26140Y   26279.17852419  .00002401  00000+0  34396-3 0  9996
2 69614  51.9015 234.8687 0000563  78.1542 281.9484 14.79917820 18135
KUIPER-00547            
1 69615U 26140Z   26279.16668980 -.01172480  00000+0 -92244-1 0  9996
2 69615  51.9037 223.5083 0009942 202.7792 235.0148 15.03578880  5946
KUIPER-00549            
1 69616U 26140AA  26279.08269938  .00004900  00000+0  67111-3 0  9993
2 69616  51.9007 230.3016 0000953  99.9132 260.1938 14.79943327 18183
KUIPER-00550            
1 69617U 26140AB  26279.16668980 -.00008262  00000+0 -10560-2 0  9995
2 69617  51.9002 233.6261 0001144  41.4454 203.0324 14.79934735  4351
KUIPER-00551            
1 69618U 26140AC  26279.16668980 -.01210299  00000+0 -61470-1 0  9997
2 69618  51.8809 221.9534 0012794 202.2282 292.4612 15.19267881  3579
KUIPER-00554            
1 69619U 26140AD  26279.16668980 -.02136856  00000+0 -12284+0 0  9992
2 69619  51.8878 222.5017 0008542 215.7503   9.8570 15.15891762  4841
KUIPER-00555            
1 69620U 26140AE  26279.16668980 -.01290504  00000+0 -59283-1 0  9996
2 69620  51.8855 222.1898 0009921 206.1117 250.2281 15.22904487  5948
KUIPER-00556            
1 69621U 26140AF  26279.07460919  .00002468  00000+0  35268-3 0  9995
2 69621  51.8977 237.8222 0000709  90.3219 269.7824 14.79932808 18085
KUIPER-00557            
1 69622U 26140AG  26279.16668980 -.00053777  00000+0 -38703-2 0  9991
2 69622  51.8895 223.5453 0011161 229.5204 298.2493 15.03818951  5802
KUIPER-00560            
1 69623U 26140AH  26279.15205913  .00020691  00000+0  56463-3 0  9995
2 69623  51.8778 222.2218 0007684 246.4737 113.5443 15.37375310 18309
KUIPER-00561            
1 69624U 26140AJ  26279.20426764  .00002494  00000+0  35605-3 0  9997
2 69624  51.9011 242.2291 0000827  71.8364 288.2688 14.79937257 18032
KUIPER-00564            
1 69625U 26140AK  26279.17320388  .00000094  00000+0  41335-4 0  9991
2 69625  51.8966 239.8680 0000800  94.2087 265.8966 14.79932723 18063
KUIPER-00567            
1 69626U 26140AL  26279.17589116  .00001396  00000+0  21209-3 0  9991
2 69626  51.8947 237.3731 0000663 148.4580 211.6422 14.79929277 18099
KUIPER-00573            
1 69627U 26140AM  26279.13944247  .00002365  00000+0  33910-3 0  9997
2 69627  51.9002 240.0518 0000738  68.1842 291.9199 14.79932240 18051
KUIPER-00258            
1 69763U 26151A   26279.03377461 -.00003845  00000+0 -47544-3 0  9991
2 69763  51.8970 150.4945 0000804  89.6819 270.4235 14.79951428 14619
KUIPER-00526            
1 69764U 26151B   26279.06839544  .00002471  00000+0  35295-3 0  9992
2 69764  51.8983 165.4218 0001153  97.6324 262.4769 14.79935606 14401
KUIPER-00558            
1 69765U 26151C   26279.10213552  .00001044  00000+0  16591-3 0  9996
2 69765  51.8975 165.1910 0000893  98.7129 261.3934 14.79923883 14411
KUIPER-00569            
1 69766U 26151D   26279.05420373  .00002426  00000+0  34716-3 0  9996
2 69766  51.9013 162.9029 0001024  95.3008 264.8071 14.79936720 14445
KUIPER-00589            
1 69767U 26151E   26279.06698572  .00001258  00000+0  20937-3 0  9998
2 69767  51.8999 166.2842 0003305 102.6316 257.5015 14.76552015 14395
KUIPER-00598            
1 69768U 26151F   26279.07647183  .00001252  00000+0  19320-3 0  9990
2 69768  51.8991 157.8191 0000912  98.2971 261.8095 14.79946991 14512
KUIPER-00604            
1 69769U 26151G   26279.12443090  .00002298  00000+0  33026-3 0  9998
2 69769  51.9015 160.1071 0000937  94.9904 265.1166 14.79938006 14481
KUIPER-00609            
1 69770U 26151H   26279.09336634  .00002063  00000+0  29955-3 0  9997
2 69770  51.9002 157.7399 0001387  72.2760 287.8353 14.79927233 14516
KUIPER-00611            
1 69771U 26151J   26279.09066735  .00002259  00000+0  32526-3 0  9995
2 69771  51.8972 160.2334 0001138  93.8362 266.2730 14.79933750 14488
KUIPER-00612            
1 69772U 26151K   26279.07108549 -.00000168  00000+0  70500-5 0  9998
2 69772  51.9001 162.8465 0001160 124.4257 235.6815 14.79931247 14444
KUIPER-00614            
1 69773U 26151L   26279.07377936 -.00000203  00000+0  23557-5 0  9997
2 69773  51.8969 160.3769 0001032  94.5975 265.5105 14.79927880 14474
KUIPER-00615            
1 69774U 26151M   26279.08525997  .00002512  00000+0  35839-3 0  9999
2 69774  51.9008 165.2151 0000869 115.3523 244.7529 14.79941778 14412
KUIPER-00616            
1 69775U 26151N   26279.06762287 -.00047872  00000+0 -62794-2 0  9992
2 69775  51.8993 150.3604 0001194 143.2470 216.8575 14.80038719 14613
KUIPER-00617            
1 69776U 26151P   26279.06229664 -.00000141  00000+0  10579-4 0  9993
2 69776  51.8992 155.3815 0000805  95.4546 264.6508 14.79930967 14545
KUIPER-00619            
1 69777U 26151Q   26279.16668980  .00016579  00000+0  21986-2 0  9996
2 69777  51.9005 157.4744 0000802  70.3994 230.8320 14.79927661  4657
KUIPER-00621            
1 69778U 26151R   26279.04001988  .00002275  00000+0  32731-3 0  9992
2 69778  51.8991 160.4762 0000824 100.0158 260.0898 14.79935448 14470
KUIPER-00622            
1 69779U 26151S   26279.05613981  .00001227  00000+0  20493-3 0  9994
2 69779  51.8999 164.7417 0001802 102.2553 257.8609 14.76520835 14418
KUIPER-00623            
1 69780U 26151T   26279.10485022  .00002428  00000+0  34737-3 0  9995
2 69780  51.8970 162.6976 0001177 113.4696 246.6390 14.79939927 14448
KUIPER-00626            
1 69781U 26151U   26279.05959470 -.00000178  00000+0  57008-5 0  9992
2 69781  51.8976 157.8658 0000995 102.0886 258.0188 14.79931116 14512
KUIPER-00627            
1 69782U 26151V   26279.03122626  .00002300  00000+0  33058-3 0  9991
2 69782  51.9004 153.0223 0001085 119.3221 240.7850 14.79940239 14573
KUIPER-00629            
1 69783U 26151W   26279.11632345  .00002493  00000+0  35578-3 0  9997
2 69783  51.9008 167.5814 0001052  99.0218 261.0863 14.79942137 14386
KUIPER-00631            
1 69784U 26151X   26279.06569390  .00002438  00000+0  34873-3 0  9997
2 69784  51.9004 167.8638 0000874  99.9117 260.1944 14.79935894 14379
KUIPER-00634            
1 69785U 26151Y   26279.08797322  .00002373  00000+0  34018-3 0  9997
2 69785  51.8993 162.7688 0000912 102.9035 257.2029 14.79931521 14444
KUIPER-00639            
1 69786U 26151Z   26278.99742674  .00000052  00000+0  35871-4 0  9998
2 69786  51.9017 153.1534 0000717 100.5847 259.5196 14.79923924 14577
KUIPER-00641            
1 69787U 26151AA  26279.04540458  .00002304  00000+0  33114-3 0  9991
2 69787  51.8991 155.4627 0001751 150.0156 210.0907 14.79940269 14548
KUIPER-00644            
1 69788U 26151AB  26279.16668980  .00013683  00000+0  18225-2 0  9993
2 69788  51.8977 147.4250 0001582  85.1840  68.1631 14.79881146  5450
KUIPER-00646            
1 69789U 26151AC  26278.87660117  .00002185  00000+0  31559-3 0  9996
2 69789  51.8982 156.2906 0000762 103.4205 256.6842 14.79932874 14511
KUIPER-00647            
1 69790U 26151AD  26279.09263946  .00002442  00000+0  37742-3 0  9998
2 69790  51.8993 155.1570 0001734  14.7339 345.3672 14.76554322 14558
KUIPER-00662            
1 69791U 26151AE  26279.09944955  .00002386  00000+0  34191-3 0  9997
2 69791  51.9006 167.7115 0000921 106.9435 253.1629 14.79931063 14379
