KUIPER-00008            
1 63724U 25088A   26259.77792920  .00000471  00000+0  90747-4 0  9994
2 63724  51.9020 323.0165 0000419  88.5600 271.5411 14.79929490 76347
KUIPER-00009            
1 63725U 25088B   26259.81891308  .00006569  00000+0  43953-3 0  9990
2 63725  51.9034 330.8966 0000335  96.6019 263.4993 15.08040233 76234
KUIPER-00010            
1 63726U 25088C   26259.74958264  .00000835  00000+0  13856-3 0  9997
2 63726  51.9035 318.2534 0000437  82.9923 277.1089 14.79924649 76026
KUIPER-00011            
1 63727U 25088D   26259.77525457  .00001020  00000+0  16278-3 0  9993
2 63727  51.9026 325.6824 0000371  76.8911 283.2093 14.79930528 76056
KUIPER-00012            
1 63728U 25088E   26259.42001275 -.00000300  00000+0 -10329-4 0  9997
2 63728  51.9006 312.1931 0000392  55.9061 304.1939 14.79927879 76161
KUIPER-00013            
1 63729U 25088F   26259.21613745 -.00000219  00000+0  24227-6 0  9998
2 63729  51.9013 345.6133 0000287  63.9845 296.1147 14.79925563 75783
KUIPER-00014            
1 63730U 25088G   26259.79010977  .00001190  00000+0  18508-3 0  9991
2 63730  51.9038 343.0180 0000273  44.0177 316.0807 14.79941834 75682
KUIPER-00015            
1 63731U 25088H   26259.74557477  .00001123  00000+0  17625-3 0  9993
2 63731  51.9021 353.2619 0000292 120.1914 239.9077 14.79937313 75994
KUIPER-00016            
1 63732U 25088J   26259.78743746  .00002006  00000+0  29203-3 0  9990
2 63732  51.9020 345.5361 0000400  87.4304 272.6704 14.79932017 75640
KUIPER-00018            
1 63733U 25088K   26259.22422654 -.00000085  00000+0  17870-4 0  9996
2 63733  51.9069 338.0767 0000582  19.7098 340.3887 14.79925776 75706
KUIPER-00019            
1 63734U 25088L   26259.72359801  .00001116  00000+0  17534-3 0  9996
2 63734  51.9020 334.6109 0000137  92.4705 267.6273 14.79934766 75793
KUIPER-00020            
1 63735U 25088M   26259.49164112  .00001012  00000+0  16166-3 0  9995
2 63735  51.9034 339.3865 0000359  86.8475 273.2528 14.79934719 75915
KUIPER-00021            
1 63736U 25088N   26259.79551474  .00000652  00000+0  11455-3 0  9995
2 63736  51.9024 337.9923 0000229  72.3524 287.7463 14.79936777 75795
KUIPER-00023            
1 63737U 25088P   26259.82658351  .00000346  00000+0  74458-4 0  9995
2 63737  51.8991 340.3455 0000851  31.7721 328.3293 14.79927836 76065
KUIPER-00024            
1 63738U 25088Q   26259.77256105  .00000209  00000+0  56400-4 0  9996
2 63738  51.9062 328.1968 0000493  98.9387 261.1631 14.79927817 76355
KUIPER-00025            
1 63739U 25088R   26259.73070209  .00001676  00000+0  24877-3 0  9993
2 63739  51.9054 335.8640 0000509  91.2343 268.8678 14.79930340 76108
KUIPER-00027            
1 63740U 25088S   26259.83738280  .00001309  00000+0  20065-3 0  9994
2 63740  51.9031 330.3505 0000365  92.7257 267.3748 14.79934520 75920
KUIPER-00028            
1 63741U 25088T   26259.73878002 -.00000139  00000+0  10698-4 0  9994
2 63741  51.9011 328.2268 0000357  91.4462 268.6541 14.79931209 76350
KUIPER-00029            
1 63742U 25088U   26259.78230771  .00001485  00000+0  22379-3 0  9997
2 63742  51.9036 326.7324 0000103  18.8453 341.2513 14.79930492 75906
KUIPER-00030            
1 63743U 25088V   26259.28095399  .00000979  00000+0  15734-3 0  9992
2 63743  51.9029 347.7690 0000312  93.6192 266.4806 14.79936841 75852
KUIPER-00031            
1 63744U 25088W   26259.73609158  .00001268  00000+0  19528-3 0  9994
2 63744  51.9028 330.7804 0000301  88.0469 272.0528 14.79930524 75849
KUIPER-00032            
1 63745U 25088X   26259.06183733  .00014819  00000+0  34488-3 0  9995
2 63745  51.8660 179.8440 0005252  79.3487 280.8093 15.42511359 78885
KUIPER-00033            
1 63746U 25088Y   26259.77125145  .00000795  00000+0  13322-3 0  9999
2 63746  51.9023   0.6217 0000190 100.8979 259.2005 14.79930575 75913
KUIPER-00034            
1 63747U 25088Z   26259.74411053 -.00001098  00000+0 -11493-3 0  9999
2 63747  51.9054 323.2777 0000362  91.0104 269.0900 14.79958445 76117
KUIPER-00035            
1 63748U 25088AA  26259.78472559  .00001423  00000+0  21563-3 0  9991
2 63748  51.9019 348.0648 0000435  87.5327 272.5685 14.79935797 75820
KUIPER-00037            
1 63749U 25088AB  26259.77765749  .00000862  00000+0  14199-3 0  9990
2 63749  51.9033 346.9571 0000492  96.9380 263.1638 14.79935318 76627
KUIPER-00038            
1 63750U 25088AC  26259.76716002  .00001196  00000+0  18587-3 0  9995
2 63750  51.9038 333.1782 0000492  96.1869 263.9150 14.79929618 75813
KUIPER-00039            
1 64500U 25134A   26259.53713602 -.00000070  00000+0  19816-4 0  9997
2 64500  51.9000 109.1910 0000922 101.7816 258.3250 14.79926196 68339
KUIPER-00040            
1 64501U 25134B   26259.35753264  .00002718  00000+0  38531-3 0  9990
2 64501  51.8974 120.0451 0001150 102.7022 257.4069 14.79939154 68162
KUIPER-00041            
1 64502U 25134C   26258.37563950  .00000684  00000+0  11875-3 0  9995
2 64502  51.8994 126.7798 0000845  94.5490 265.5569 14.79928811 67981
KUIPER-00042            
1 64503U 25134D   26258.88750189  .00000828  00000+0  13758-3 0  9996
2 64503  51.8972 119.4913 0000868 108.0166 252.0891 14.79929156 68132
KUIPER-00043            
1 64504U 25134E   26258.62547865  .00002461  00000+0  35170-3 0  9991
2 64504  51.9015 113.1653 0000756 104.4645 255.6402 14.79932305 68207
KUIPER-00044            
1 64505U 25134F   26259.35482121  .00001349  00000+0  20594-3 0  9994
2 64505  51.8985 122.4297 0000897 105.2137 254.8925 14.79935203 68134
KUIPER-00046            
1 64506U 25134G   26259.05363260  .00002618  00000+0  37232-3 0  9991
2 64506  51.8976 121.2332 0001011 101.8271 258.2805 14.79932349 68124
KUIPER-00047            
1 64507U 25134H   26259.52225017  .00002455  00000+0  35096-3 0  9996
2 64507  51.8979  91.6889 0000658 106.6806 253.4228 14.79927741 68573
KUIPER-00048            
1 64508U 25134J   26259.48845132 -.00001053  00000+0 -10915-3 0  9996
2 64508  51.8975  91.8498 0000651 106.5456 253.5578 14.79924687 68576
KUIPER-00049            
1 64509U 25134K   26258.02308889  .00002767  00000+0  39175-3 0  9999
2 64509  51.8993 110.8035 0000768 106.4219 253.6828 14.79939201 68185
KUIPER-00050            
1 64510U 25134L   26258.91986044  .00002295  00000+0  32995-3 0  9993
2 64510  51.8992  89.3571 0000671 107.5754 252.5282 14.79929642 68562
KUIPER-00051            
1 64511U 25134M   26259.95748428  .00001005  00000+0  16081-3 0  9997
2 64511  51.9001 100.9476 0000997 114.7148 245.3918 14.79932787 68488
KUIPER-00053            
1 64513U 25134P   26259.76604171  .00002075  00000+0  28910-3 0  9996
2 64513  51.9002  96.2417 0002591 110.3156 249.8086 14.81714434 68537
KUIPER-00054            
1 64514U 25134Q   26259.95849281  .00002483  00000+0  35457-3 0  9998
2 64514  51.8975  92.2469 0000894 109.2070 250.8989 14.79930889 68608
KUIPER-00055            
1 64515U 25134R   26259.43571947  .00003015  00000+0  42422-3 0  9995
2 64515  51.9027  47.2091 0000531 118.7796 241.3220 14.79944691 69191
KUIPER-00056            
1 64516U 25134S   26259.91933748  .00002524  00000+0  35985-3 0  9990
2 64516  51.9011  97.5376 0000978 111.4757 248.6310 14.79943671 68535
KUIPER-00057            
1 64517U 25134T   26259.30347252  .00002577  00000+0  36694-3 0  9999
2 64517  51.8986 107.6755 0000806 106.2671 253.8380 14.79937239 68333
KUIPER-00058            
1 64518U 25134U   26259.27509782 -.00001781  00000+0 -20469-3 0  9995
2 64518  51.9001 102.7793 0000822 101.6248 258.4807 14.79934427 68407
KUIPER-00059            
1 64519U 25134V   26259.55060528 -.00002557  00000+0 -30643-3 0  9994
2 64519  51.8984  96.5949 0000722 122.9435 237.1597 14.79940922 68512
KUIPER-00060            
1 64520U 25134W   26258.97662347  .00000509  00000+0  95812-4 0  9991
2 64520  51.9020  99.2126 0000852 107.2420 252.8636 14.79927251 68414
KUIPER-00061            
1 64521U 25134X   26259.54252332  .00001347  00000+0  20561-3 0  9994
2 64521  51.9001 104.1511 0001061 118.3709 241.7360 14.79937639 68393
KUIPER-00062            
1 64522U 25134Y   26258.99958797  .00000555  00000+0  10188-3 0  9995
2 64522  51.8963 109.0004 0000963 107.2810 252.8257 14.79927599 68292
KUIPER-00063            
1 64523U 25134Z   26258.99150794  .00002563  00000+0  36499-3 0  9991
2 64523  51.9016 116.6313 0000757 101.5929 258.5119 14.79937980 68182
KUIPER-00064            
1 64524U 25134AA  26259.33185055  .00002707  00000+0  38403-3 0  9996
2 64524  51.9020 112.5525 0001168 105.8261 254.2830 14.79928659 68277
KUIPER-00065            
1 64525U 25134AB  26259.32647014  .00001638  00000+0  24377-3 0  9991
2 64525  51.9023 117.7525 0000740  97.7483 262.3564 14.79934887 68182
KUIPER-00066            
1 64526U 25134AC  26259.90032073  .00003030  00000+0  42623-3 0  9991
2 64526  51.9019  52.4794 0000597 116.6492 243.4532 14.79938816 69162
KUIPER-00069            
1 64816U 25151A   26258.74307970  .00002742  00000+0  38853-3 0  9993
2 64816  51.9016 160.2379 0000757  98.8061 261.2987 14.79932846 64905
KUIPER-00070            
1 64817U 25151B   26259.08751955  .00001117  00000+0  17550-3 0  9994
2 64817  51.8995 183.6136 0001184  78.1761 281.9335 14.79932658 64619
KUIPER-00071            
1 64818U 25151C   26259.22528211  .00003332  00000+0  46584-3 0  9998
2 64818  51.9005 180.5511 0000773  92.7060 267.3991 14.79935195 63482
KUIPER-00072            
1 64819U 25151D   26259.14554818  .00000299  00000+0  68223-4 0  9996
2 64819  51.8969 160.8267 0001109  84.6622 275.4467 14.79928310 63757
KUIPER-00073            
1 64820U 25151E   26259.19150929  .00003262  00000+0  45665-3 0  9995
2 64820  51.8990 180.6776 0001084  68.9453 291.1625 14.79939702 64666
KUIPER-00075            
1 64822U 25151G   26259.79853486  .00039879  00000+0  10284-2 0  9992
2 64822  51.8657   9.9204 0002739 227.0120 133.0638 15.38785564 65901
KUIPER-00076            
1 64823U 25151H   26259.47242197  .00002272  00000+0  32698-3 0  9990
2 64823  51.8977 169.4591 0001081  92.7685 267.3401 14.79929885 63660
KUIPER-00077            
1 64824U 25151J   26258.79172819  .00001043  00000+0  16577-3 0  9991
2 64824  51.9018 177.4915 0000935  77.6919 282.4148 14.79928377 63498
KUIPER-00078            
1 64825U 25151K   26259.16583503  .00003541  00000+0  49328-3 0  9995
2 64825  51.8998 173.3092 0001100  85.9859 274.1229 14.79936434 63587
KUIPER-00079            
1 64826U 25151L   26259.19420544  .00000471  00000+0  90761-4 0  9991
2 64826  51.9000 178.1377 0000956  71.9559 288.1507 14.79931601 64713
KUIPER-00080            
1 64827U 25151M   26259.22796618  .00003418  00000+0  47712-3 0  9995
2 64827  51.8994 178.0017 0000721  95.5571 264.5473 14.79935092 63527
KUIPER-00082            
1 64828U 25151N   26258.73498552  .00002795  00000+0  39552-3 0  9997
2 64828  51.9008 167.7442 0000998  82.7340 277.3735 14.79931424 63629
KUIPER-00083            
1 64829U 25151P   26259.13208186  .00005186  00000+0  70895-3 0  9997
2 64829  51.9004 173.4699 0001114  72.9407 287.1677 14.79923972 64769
KUIPER-00084            
1 64830U 25151Q   26259.18881806  .00002110  00000+0  30568-3 0  9997
2 64830  51.8995 183.2021 0000724 103.9203 256.1840 14.79929453 63444
KUIPER-00085            
1 64831U 25151R   26259.03887770  .00001064  00000+0  16860-3 0  9994
2 64831  51.9022 166.4575 0000925  89.9041 270.2028 14.79931798 63664
KUIPER-00086            
1 64832U 25151S   26259.50079200  .00003141  00000+0  44085-3 0  9996
2 64832  51.8998 174.3489 0001031  89.5882 270.5198 14.79930541 63594
KUIPER-00087            
1 64833U 25151T   26259.24938085 -.00010740  00000+0 -13852-2 0  9995
2 64833  51.8971 157.9074 0001738 133.0320 227.0788 14.79834918 63794
KUIPER-00089            
1 64834U 25151U   26259.17660278 -.00000531  00000+0 -40614-4 0  9999
2 64834  51.9006 163.2633 0000401  87.1155 272.9853 14.79936744 63722
KUIPER-00090            
1 64835U 25151V   26258.98211306  .00002817  00000+0  39833-3 0  9999
2 64835  51.8979 156.6176 0000991  99.6294 260.4781 14.79937621 63799
KUIPER-00091            
1 64836U 25151W   26259.11179078  .00003084  00000+0  43336-3 0  9995
2 64836  51.9009 161.0717 0000890  93.2723 266.8341 14.79932777 63745
KUIPER-00092            
1 64837U 25151X   26259.17123502  .00001643  00000+0  24449-3 0  9996
2 64837  51.9001 168.2963 0000897  91.7290 268.3775 14.79931485 64866
KUIPER-00093            
1 64838U 25151Y   26259.16852644  .00000115  00000+0  44153-4 0  9990
2 64838  51.8989 170.7776 0000986  99.0821 261.0253 14.79926706 63614
KUIPER-00094            
1 64839U 25151Z   26259.35214567  .00002819  00000+0  39861-3 0  9990
2 64839  51.9032 125.0820 0001170  97.7109 262.3986 14.79932143 64270
KUIPER-00081            
1 65132U 25171A   26259.35868134  .00003075  00000+0  43200-3 0  9991
2 65132  51.9021  24.9336 0000491 106.8023 253.2993 14.79944677 61275
KUIPER-00088            
1 65133U 25171B   26259.88005457  .00002780  00000+0  39346-3 0  9999
2 65133  51.8999  40.1279 0000491 109.5830 250.5185 14.79935061 61103
KUIPER-00095            
1 65134U 25171C   26259.36139390  .00000806  00000+0  13471-3 0  9995
2 65134  51.8999  22.4577 0000515 124.0637 236.0374 14.79931794 61302
KUIPER-00096            
1 65135U 25171D   26259.85437915  .00000385  00000+0  79454-4 0  9990
2 65135  51.8979  32.7334 0000567 107.9238 252.1787 14.79930892 61204
KUIPER-00097            
1 65136U 25171E   26259.85170341  .00005299  00000+0  72338-3 0  9990
2 65136  51.9010  35.4156 0000456   9.2587 350.8384 14.79942302 61154
KUIPER-00098            
1 65137U 25171F   26259.91651614  .00000825  00000+0  13724-3 0  9999
2 65137  51.9028  37.4898 0000330  74.9099 285.1900 14.79927997 60489
KUIPER-00099            
1 65138U 25171G   26259.35330141  .00001388  00000+0  21106-3 0  9995
2 65138  51.9001  29.9940 0000481 106.3430 253.7585 14.79935953 61191
KUIPER-00100            
1 65139U 25171H   26259.86247190  .00002434  00000+0  34816-3 0  9998
2 65139  51.9043  25.2079 0000475  96.5183 263.5833 14.79931302 61300
KUIPER-00102            
1 65140U 25171J   26259.85977257  .00001407  00000+0  21354-3 0  9995
2 65140  51.8991  27.6893 0000589 123.3191 236.7828 14.79931045 61262
KUIPER-00103            
1 65141U 25171K   26259.13182537  .00003019  00000+0  42479-3 0  9998
2 65141  51.8993  48.4106 0000535 120.3204 239.7811 14.79937934 60915
KUIPER-00104            
1 65142U 25171L   26259.88814579  .00002204  00000+0  31808-3 0  9998
2 65142  51.9028  32.5829 0000943 148.1004 212.0015 14.79933656 61201
KUIPER-00105            
1 65143U 25171M   26259.91381255  .00003088  00000+0  43371-3 0  9992
2 65143  51.9003  40.0627 0000564 110.9089 249.1934 14.79946268 61107
KUIPER-00106            
1 65144U 25171N   26259.35430644  .00003219  00000+0  45114-3 0  9991
2 65144  51.9034  21.3062 0000560 100.6919 259.4106 14.79928099 61322
KUIPER-00107            
1 65145U 25171P   26259.86511601  .00010885  00000+0  14527-2 0  9991
2 65145  51.9019  22.7210 0000176  42.1803 317.9173 14.79985592 61348
KUIPER-00108            
1 65146U 25171Q   26259.88544624  .00002933  00000+0  41345-3 0  9999
2 65146  51.9032  35.1779 0000414 127.4194 232.6806 14.79942247 61174
KUIPER-00109            
1 65147U 25171R   26259.85706902  .00003134  00000+0  43993-3 0  9991
2 65147  51.9044  30.2466 0000430  98.7476 261.3536 14.79935640 61233
KUIPER-00110            
1 65148U 25171S   26259.87736868  .00000287  00000+0  66714-4 0  9991
2 65148  51.9001  42.7008 0000669 111.8578 248.2455 14.79929041 61053
KUIPER-00111            
1 65149U 25171T   26259.43301380  .00002796  00000+0  39563-3 0  9999
2 65149  51.8976  49.5265 0000548 126.9681 233.1332 14.79931710 60920
KUIPER-00112            
1 65150U 25171U   26259.89084516  .00002982  00000+0  41994-3 0  9998
2 65150  51.9006  30.1405 0000415 131.1795 228.9203 14.79935144 61235
KUIPER-00114            
1 65151U 25171V   26259.43032034  .00001601  00000+0  23897-3 0  9996
2 65151  51.9000  52.1342 0000611 127.5974 232.5044 14.79936279 60884
KUIPER-00115            
1 65152U 25171W   26259.91113044  .00002294  00000+0  32986-3 0  9999
2 65152  51.9027  42.5151 0000611 123.6720 236.4301 14.79930904 61060
KUIPER-00116            
1 65153U 25171X   26259.39926776  .00002271  00000+0  32684-3 0  9996
2 65153  51.9008  49.8120 0000585 100.7894 259.3134 14.79926866 60917
KUIPER-00118            
1 65154U 25171Y   26259.46407998  .00001086  00000+0  17150-3 0  9999
2 65154  51.8999  51.9728 0000605  90.5644 269.5388 14.79924618 60890
KUIPER-00119            
1 65155U 25171Z   26259.88274441  .00004350  00000+0  59898-3 0  9993
2 65155  51.8997  37.7250 0000566 115.1702 244.9319 14.79949483 61121
KUIPER-00120            
1 65762U 25217A   26259.51180339  .00002063  00000+0  29955-3 0  9990
2 65762  51.8995 289.2329 0000417  70.0296 290.0711 14.79936285 52995
KUIPER-00132            
1 65763U 25217B   26259.42796966  .00025944  00000+0  66038-3 0  9996
2 65763  51.8524 155.2037 0005416 283.7243  76.3141 15.39394137 54840
KUIPER-00133            
1 65764U 25217C   26259.47806100  .00001982  00000+0  28891-3 0  9995
2 65764  51.9036 289.5202 0000548  70.6013 289.5008 14.79928000 52993
KUIPER-00139            
1 65765U 25217D   26259.37802900  .00000972  00000+0  15655-3 0  9991
2 65765  51.8983 257.3874 0000675  51.3686 308.7337 14.79932607 53432
KUIPER-00142            
1 65766U 25217E   26259.05797146  .00001861  00000+0  27309-3 0  9999
2 65766  51.8997 273.7702 0000461  65.7031 294.3980 14.79926740 53172
KUIPER-00145            
1 65767U 25217F   26259.32538645  .00002130  00000+0  30829-3 0  9998
2 65767  51.9002 275.1131 0000523  51.6188 308.4821 14.79937907 53177
KUIPER-00147            
1 65768U 25217G   26259.35643367  .00002181  00000+0  31494-3 0  9995
2 65768  51.8989 277.4491 0000481  31.5516 328.5475 14.79944939 53148
KUIPER-00148            
1 65769U 25217H   26259.03768893 -.00000194  00000+0  35460-5 0  9995
2 65769  51.9034 261.4084 0000519  74.9445 285.1575 14.79928381 53340
KUIPER-00150            
1 65770U 25217J   26259.07556911  .00001940  00000+0  28350-3 0  9994
2 65770  51.9017 288.7399 0000546  91.2592 268.8432 14.79925680 52965
KUIPER-00151            
1 65771U 25217K   26259.35377806  .00002183  00000+0  31524-3 0  9997
2 65771  51.9017 280.0078 0000475  63.5775 296.5236 14.79934063 53114
KUIPER-00152            
1 65772U 25217L   26259.40101720  .00002186  00000+0  31574-3 0  9992
2 65772  51.8995 267.2784 0000413  53.4008 306.6993 14.79923916 53296
KUIPER-00153            
1 65773U 25217M   26259.40640158  .00002253  00000+0  32441-3 0  9995
2 65773  51.9011 262.3411 0000853  75.0257 285.0799 14.79933190 53361
KUIPER-00155            
1 65774U 25217N   26259.36855100  .00002737  00000+0  38792-3 0  9998
2 65774  51.9016 234.9719 0000692  78.8282 281.2758 14.79931098 53743
KUIPER-00156            
1 65775U 25217P   26259.37265649  .00002427  00000+0  34731-3 0  9998
2 65775  51.9020 262.4743 0000537  71.5133 288.5888 14.79926981 53351
KUIPER-00165            
1 65778U 25217S   26259.42926101 -.00005234  00000+0 -65995-3 0  9991
2 65778  51.8982 272.1525 0000854 156.0287 204.0715 14.79815854 53221
KUIPER-00166            
1 65779U 25217T   26259.00392914  .00002278  00000+0  32776-3 0  9999
2 65779  51.9014 261.5981 0000494  78.9522 281.1496 14.79919742 53336
KUIPER-00167            
1 65780U 25217U   26259.08093479  .00000479  00000+0  91800-4 0  9998
2 65780  51.8980 283.5778 0000514  66.1664 293.9352 14.79932614 53038
KUIPER-00168            
1 65781U 25217V   26257.47911290  .00000467  00000+0  90263-4 0  9999
2 65781  51.9010 273.2852 0000553  56.7081 303.3934 14.79927001 53041
KUIPER-00169            
1 65782U 25217W   26259.02691445  .00001981  00000+0  28879-3 0  9995
2 65782  51.9016 271.4538 0000601  96.0597 264.0434 14.79923622 53203
KUIPER-00170            
1 65783U 25217X   26259.42668679  .00000515  00000+0  96586-4 0  9996
2 65783  51.8992 274.6292 0000520  70.8234 289.2785 14.79926426 53197
KUIPER-00172            
1 65785U 25217Z   26259.41179896  .00002423  00000+0  34671-3 0  9991
2 65785  51.8984 257.2266 0000815  44.2978 315.8049 14.79927881 53437
KUIPER-00173            
1 65786U 25217AA  26258.04772256  .00000317  00000+0  70576-4 0  9994
2 65786  51.8995 275.7744 0000430  52.5202 307.5800 14.79929871 53053
KUIPER-00174            
1 65787U 25217AB  26259.06605307  .00001174  00000+0  18301-3 0  9999
2 65787  51.8998 266.3321 0000640  95.1458 264.9578 14.79920754 53276
KUIPER-00176            
1 65788U 25217AC  26259.72518490  .00002231  00000+0  32157-3 0  9999
2 65788  51.8992 278.3361 0000641  46.4914 313.6102 14.79934302 53162
KUIPER-00101            
1 65947U 25228A   26259.33204420  .00000682  00000+0  11851-3 0  9996
2 65947  51.8988 237.5203 0000930  85.6822 274.4246 14.79937164 51463
KUIPER-00113            
1 65948U 25228B   26259.30365312  .00000358  00000+0  75943-4 0  9995
2 65948  51.8991 232.6680 0000936  83.4858 276.6211 14.79917236 51525
KUIPER-00117            
1 65949U 25228C   26259.19970351  .00002662  00000+0  37802-3 0  9999
2 65949  51.8976 235.6259 0000800  53.1809 306.9227 14.79935074 51472
KUIPER-00121            
1 65950U 25228D   26259.30639872  .00000635  00000+0  11233-3 0  9992
2 65950  51.8992 230.1764 0000691  64.1962 295.9072 14.79930188 51569
KUIPER-00122            
1 65951U 25228E   26259.22806756  .00006882  00000+0  93050-3 0  9998
2 65951  51.8985 240.4929 0000574  23.9160 336.1829 14.79949797 51410
KUIPER-00123            
1 65952U 25228F   26259.80208346  .00000699  00000+0  12064-3 0  9990
2 65952  51.9002 237.9617 0000748  47.1799 312.9227 14.79930000 51495
KUIPER-00124            
1 65953U 25228G   26259.33746473  .00002772  00000+0  39250-3 0  9997
2 65953  51.8973 232.5062 0000839  50.2538 309.8498 14.79934399 51539
KUIPER-00125            
1 65954U 25228H   26259.28612217  .00002960  00000+0  41711-3 0  9994
2 65954  51.8993 217.7873 0001024  70.0848 290.0224 14.79939732 51734
KUIPER-00126            
1 65955U 25228J   26259.23078317  .00002607  00000+0  37077-3 0  9995
2 65955  51.8977 238.0114 0000638  63.6790 296.4238 14.79936163 51443
KUIPER-00127            
1 65956U 25228K   26259.35704789  .00000787  00000+0  13225-3 0  9994
2 65956  51.9001 229.9354 0000861  43.5656 316.5375 14.79926713 51574
KUIPER-00128            
1 65957U 25228L   26258.66487794  .00002700  00000+0  38297-3 0  9995
2 65957  51.8993 233.0607 0000699  71.2725 288.8313 14.79933721 51463
KUIPER-00129            
1 65958U 25228M   26259.31178716  .00003018  00000+0  42468-3 0  9998
2 65958  51.8997 225.1785 0000742  72.0407 288.0636 14.79936615 51636
KUIPER-00130            
1 65959U 25228N   26259.20781803  .00001001  00000+0  16027-3 0  9996
2 65959  51.9010 228.1853 0000763  74.7601 285.3446 14.79926945 41870
KUIPER-00134            
1 65960U 25228P   26258.98178937  .00025112  00000+0  67178-3 0  9992
2 65960  51.8672 116.5063 0004229 252.9761 107.0763 15.37889370 53113
KUIPER-00135            
1 65961U 25228Q   26258.63381194  .00002343  00000+0  33625-3 0  9997
2 65961  51.9015 230.7744 0000622  70.4842 289.6188 14.79929040 51498
KUIPER-00136            
1 65962U 25228R   26259.27798975  .00002872  00000+0  40541-3 0  9990
2 65962  51.9000 225.3716 0000873  47.1742 312.9293 14.79952527 51628
KUIPER-00137            
1 65963U 25228S   26259.28074459  .00002822  00000+0  39903-3 0  9991
2 65963  51.9022 222.8702 0000757  47.5925 312.5102 14.79930199 51668
KUIPER-00138            
1 65964U 25228T   26258.91200690  .00000569  00000+0  10367-3 0  9998
2 65964  51.8982 221.8974 0000629  70.6924 289.4106 14.79930543 51644
KUIPER-00140            
1 65965U 25228U   26259.31450101  .00002984  00000+0  42021-3 0  9993
2 65965  51.8982 222.7128 0000930  67.2110 292.8950 14.79932850 51660
KUIPER-00141            
1 65966U 25228V   26259.25237059  .00003024  00000+0  42550-3 0  9995
2 65966  51.9017 218.0643 0000893  82.4372 277.6691 14.79931328 51727
KUIPER-00146            
1 65967U 25228W   26258.87825328 -.00000187  00000+0  45203-5 0  9993
2 65967  51.9025 222.2316 0001062  62.1143 297.9927 14.79930853 51630
KUIPER-00149            
1 65968U 25228X   26259.25504817  .00001268  00000+0  19530-3 0  9996
2 65968  51.9004 215.4382 0000866  74.4482 285.6576 14.79942295 51769
KUIPER-00154            
1 65969U 25228Y   26259.15646540  .00002800  00000+0  39616-3 0  9996
2 65969  51.8991 213.3582 0000839  72.1282 287.9772 14.79928228 51781
KUIPER-00157            
1 65970U 25228Z   26259.91672454 -.00002742  00000+0 -35836-3 0  9992
2 65970  51.9005 212.1338 0001820 129.0982 245.7652 14.76646338  5274
KUIPER-00144            
1 67133U 25301A   26259.61039995  .00000507  00000+0  95511-4 0  9993
2 67133  51.9017 291.3749 0000645  65.4336 294.6694 14.79928668 42143
KUIPER-00164            
1 67134U 25301B   26259.79952342  .00002195  00000+0  31682-3 0  9996
2 67134  51.9034 303.0579 0000387  69.3233 290.7771 14.79933900 42178
KUIPER-00175            
1 67135U 25301C   26259.10932837  .00002132  00000+0  30858-3 0  9994
2 67135  51.9010 288.5416 0000267 322.7663  37.3280 14.79922939 42215
KUIPER-00179            
1 67136U 25301D   26259.12689439 -.00002011  00000+0 -23476-3 0  9990
2 67136  51.8980 303.4645 0000711  71.1820 288.9220 14.79943157 42118
KUIPER-00181            
1 67137U 25301E   26259.72120690  .00002353  00000+0  33751-3 0  9990
2 67137  51.9034 313.4016 0000331  55.3381 304.7613 14.79932084 42005
KUIPER-00183            
1 67138U 25301F   26259.04450626  .00001983  00000+0  28911-3 0  9991
2 67138  51.9021 286.3982 0000405  73.1484 286.9523 14.79926317 42335
KUIPER-00184            
1 67139U 25301G   26258.08559227  .00000223  00000+0  58270-4 0  9990
2 67139  51.9002 303.0802 0000437  70.6963 289.4046 14.79928144 42127
KUIPER-00186            
1 67140U 25301H   26258.87705654 -.00000566  00000+0 -45163-4 0  9995
2 67140  51.9025 317.1408 0001478  54.4423 305.6677 14.79937045 41725
KUIPER-00187            
1 67141U 25301J   26259.75225744  .00004889  00000+0  66953-3 0  9990
2 67141  51.9039 315.7995 0000624 106.2650 253.8381 14.79949764 41813
KUIPER-00188            
1 67142U 25301K   26259.07827203  .00000717  00000+0  12306-3 0  9993
2 67142  51.9024 286.3654 0000565  69.9394 290.1629 14.79928531 42164
KUIPER-00191            
1 67143U 25301L   26259.72660487  .00001491  00000+0  22456-3 0  9992
2 67143  51.9027 308.3864 0000565  75.0896 285.0129 14.79930731 41949
KUIPER-00196            
1 67144U 25301M   26259.43478948  .00002217  00000+0  31975-3 0  9993
2 67144  51.8967 267.1297 0000560  78.1128 281.9897 14.79924564 42463
KUIPER-00204            
1 67145U 25301N   26259.11472051  .00001011  00000+0  16156-3 0  9993
2 67145  51.9020 283.5821 0000479  70.9130 289.1885 14.79932889 42323
KUIPER-00210            
1 67146U 25301P   26259.42271123  .00002221  00000+0  32027-3 0  9994
2 67146  51.9009 309.6773 0000401  80.4051 279.6957 14.79930178 42042
KUIPER-00221            
1 67147U 25301Q   26259.78603705  .00000563  00000+0  10282-3 0  9995
2 67147  51.9027 315.6062 0000527  75.4408 284.6613 14.79930412 41821
KUIPER-00232            
1 67148U 25301R   26259.76844801  .00001192  00000+0  18538-3 0  9999
2 67148  51.8980 300.6944 0000456  84.0151 276.0864 14.79932956 42025
KUIPER-00241            
1 67149U 25301S   26259.72389581  .00001805  00000+0  26573-3 0  9994
2 67149  51.9028 310.9144 0000482  81.4723 278.6295 14.79936122 42217
KUIPER-00245            
1 67150U 25301T   26259.78334282  .00003854  00000+0  53412-3 0  9998
2 67150  51.9036 318.1615 0000405  89.2646 270.8363 14.79942198 41787
KUIPER-00246            
1 67151U 25301U   26259.76575365  .00002218  00000+0  31984-3 0  9999
2 67151  51.9014 303.1756 0000374  78.1706 281.9298 14.79930410 42014
KUIPER-00247            
1 67152U 25301V   26259.77651759  .00002028  00000+0  29487-3 0  9997
2 67152  51.8967 293.0726 0000396  74.9477 285.1529 14.79940109 42130
KUIPER-00248            
1 67153U 25301W   26259.32271131  .00000125  00000+0  45429-4 0  9992
2 67153  51.8989 277.7251 0000512  73.1012 287.0007 14.79928822 42470
KUIPER-00249            
1 67154U 25301X   26259.50912753  .00002073  00000+0  30081-3 0  9996
2 67154  51.8990 291.8343 0000395  53.0500 307.0499 14.79933603 42123
KUIPER-00250            
1 67155U 25301Y   26259.72927464  .00001589  00000+0  23737-3 0  9997
2 67155  51.8983 305.8121 0000699  57.8866 302.2165 14.79932763 41986
KUIPER-00251            
1 67156U 25301Z   26259.47266325  .00002234  00000+0  32185-3 0  9997
2 67156  51.9001 294.5245 0000401  60.5122 299.5881 14.79935765 42278
KUIPER-00252            
1 67157U 25301AA  26259.74006801  .00000731  00000+0  12484-3 0  9999
2 67157  51.9026 295.7930 0000250  47.8081 312.2903 14.79932310 42095
KUIPER-00261            
1 67158U 25301AB  26259.76307077  .00002280  00000+0  32800-3 0  9996
2 67158  51.9043 305.7553 0000329  74.5963 285.5036 14.79926998 41959
KUIPER-00265            
1 67159U 25301AC  26259.78062909  .00002221  00000+0  32026-3 0  9996
2 67159  51.9029 320.6540 0000647 103.7296 256.3738 14.79932391 41783
KUIPER-00159            
1 67764U 26030A   26259.09958259  .00001865  00000+0  29525-3 0  9997
2 67764  51.9029  42.2599 0000193 144.4626 215.6348 14.76579096 34054
KUIPER-00160            
1 67765U 26030B   26259.91672454 -.00054356  00000+0 -66652-2 0  9995
2 67765  51.8981  20.0760 0008028   4.4887 328.6691 14.82880133  4433
KUIPER-00177            
1 67766U 26030C   26258.98469990  .00002695  00000+0  38247-3 0  9998
2 67766  51.9007  91.6427 0000847  91.6788 268.4272 14.79920133 33357
KUIPER-00178            
1 67767U 26030D   26259.49118328  .00002498  00000+0  35656-3 0  9994
2 67767  51.9001  89.3842 0000679 119.3734 240.7296 14.79938294 33434
KUIPER-00180            
1 67768U 26030E   26259.76668925  .00002153  00000+0  31126-3 0  9994
2 67768  51.8977  83.1575 0000718 124.2397 235.8634 14.79934031 33543
KUIPER-00197            
1 67769U 26030F   26259.18049106  .00002778  00000+0  39324-3 0  9996
2 67769  51.8984  65.7666 0000788 120.9628 239.1412 14.79936940 33739
KUIPER-00198            
1 67770U 26030G   26259.20078002  .00002700  00000+0  38298-3 0  9992
2 67770  51.8969  78.1505 0000792 116.4259 243.6784 14.79932837 33563
KUIPER-00199            
1 67771U 26030H   26259.91672454 -.01069287  00000+0 -54650-1 0  9996
2 67771  51.8851  17.0627 0012059  19.0475  62.5492 15.19181356  5401
KUIPER-00200            
1 67772U 26030J   26259.48708594  .00002931  00000+0  41326-3 0  9992
2 67772  51.8979  61.9288 0000571 110.4336 249.6688 14.79931604 33817
KUIPER-00203            
1 67773U 26030K   26258.97931328  .00002465  00000+0  35223-3 0  9990
2 67773  51.9050  96.7463 0001031 105.1333 254.9744 14.79937840 33281
KUIPER-00205            
1 67774U 26030L   26259.48976855  .00001519  00000+0  22819-3 0  9998
2 67774  51.9003  59.3826 0000704 105.0311 255.0730 14.79929382 33851
KUIPER-00208            
1 67775U 26030M   26259.22375241  .00002578  00000+0  36703-3 0  9996
2 67775  51.8967  88.0558 0001346 110.6980 249.4127 14.79939344 33427
KUIPER-00209            
1 67776U 26030N   26259.53035825  .00011077  00000+0  14812-2 0  9992
2 67776  51.8976  84.3008 0001408 104.5228 255.5891 14.79887900 33508
KUIPER-00213            
1 67777U 26030P   26259.49927841  .00002456  00000+0  35108-3 0  9999
2 67777  51.8953  81.8959 0000736 108.5645 251.5398 14.79931014 33538
KUIPER-00214            
1 67778U 26030Q   26259.53574423  .00002507  00000+0  35773-3 0  9994
2 67778  51.9000  79.2705 0000621 109.7625 250.3405 14.79929473 33573
KUIPER-00215            
1 67779U 26030R   26259.51544134  .00002448  00000+0  35009-3 0  9995
2 67779  51.8986  66.7137 0000665 109.8026 250.3008 14.79924883 33759
KUIPER-00218            
1 67780U 26030S   26259.46550186  .00002612  00000+0  37143-3 0  9999
2 67780  51.8967  81.9744 0000719 117.8040 242.2995 14.79936022 33537
KUIPER-00220            
1 67781U 26030T   26259.76259076  .00002722  00000+0  38597-3 0  9993
2 67781  51.8961  55.6835 0000799 119.9672 240.1370 14.79931106 33928
KUIPER-00222            
1 67782U 26030U   26259.50467875  .00002560  00000+0  36468-3 0  9999
2 67782  51.8975  76.9618 0001007 117.4102 242.6963 14.79932994 33609
KUIPER-00223            
1 67783U 26030V   26258.46601857  .00002701  00000+0  38325-3 0  9995
2 67783  51.9003  73.8644 0000774 109.2209 250.8837 14.79917952 33568
KUIPER-00225            
1 67784U 26030W   26259.47359833  .00002608  00000+0  37104-3 0  9992
2 67784  51.8971  74.5553 0000615 104.2646 255.8385 14.79931706 33637
KUIPER-00226            
1 67785U 26030X   26259.92611342  .00002393  00000+0  33846-3 0  9999
2 67785  51.8996  59.9374 0002437 320.9208  39.1578 14.80496066 33889
KUIPER-00259            
1 67786U 26030Y   26259.91253758  .00002500  00000+0  35684-3 0  9994
2 67786  51.8982  72.5163 0000629 117.2726 242.8301 14.79931709 33709
KUIPER-00260            
1 67787U 26030Z   26259.91524702  .00002805  00000+0  39679-3 0  9991
2 67787  51.9005  70.1151 0000760 120.5552 239.5485 14.79931612 33640
KUIPER-00262            
1 67788U 26030AA  26259.20616395  .00001776  00000+0  26189-3 0  9992
2 67788  51.8985  73.1668 0001204 110.4348 249.6744 14.79935737 33639
KUIPER-00266            
1 67789U 26030AB  26258.90497659  .00002438  00000+0  34870-3 0  9991
2 67789  51.8991  71.9908 0001024 107.9195 252.1879 14.79939171 33624
KUIPER-00268            
1 67790U 26030AC  26259.21156272  .00002835  00000+0  40067-3 0  9997
2 67790  51.9038  68.1770 0000983 122.7145 237.3913 14.79936409 33701
KUIPER-00270            
1 67791U 26030AD  26258.71586962  .00002891  00000+0  40815-3 0  9998
2 67791  51.8984  60.3181 0000636 100.0775 260.0259 14.79926242 33771
KUIPER-00274            
1 67792U 26030AE  26259.50195457  .00002397  00000+0  34326-3 0  9993
2 67792  51.9021  79.3584 0000680 114.8222 245.2812 14.79939492 33570
KUIPER-00275            
1 67793U 26030AF  26259.92871300  .00002768  00000+0  39201-3 0  9997
2 67793  51.8997  57.4657 0000777 123.1558 236.9479 14.79931618 33918
KUIPER-00276            
1 67794U 26030AG  26258.80907686  .00000892  00000+0  14602-3 0  9995
2 67794  51.8978  67.3935 0001038  94.9156 265.1925 14.79928193 33685
KUIPER-00279            
1 67795U 26030AH  26259.46140703  .00003032  00000+0  42665-3 0  9997
2 67795  51.9027  54.5587 0000699 120.6595 239.4437 14.79928604 33914
KUIPER-00131            
1 68573U 26072A   26259.11988627  .00003093  00000+0  43456-3 0  9991
2 68573  51.8997 153.5484 0000829 104.1636 255.9418 14.79935567 24589
KUIPER-00189            
1 68574U 26072B   26259.08341240  .00003073  00000+0  43184-3 0  9998
2 68574  51.8986 156.1853 0000839 100.0737 260.0320 14.79935534 24544
KUIPER-00192            
1 68575U 26072C   26258.71740153  .00002826  00000+0  39951-3 0  9996
2 68575  51.8992 152.8229 0001076  93.3474 266.7612 14.79936925 24562
KUIPER-00193            
1 68576U 26072D   26259.40348561  .00001676  00000+0  24883-3 0  9991
2 68576  51.9006 139.8353 0001005  99.5701 260.5375 14.79936986 24808
KUIPER-00194            
1 68577U 26072E   26259.09150919  .00003017  00000+0  42447-3 0  9992
2 68577  51.9014 148.6940 0001011  97.4795 262.6283 14.79941860 24656
KUIPER-00229            
1 68578U 26072F   26259.08613351  .00010808  00000+0  14452-2 0  9996
2 68578  51.9008 153.6988 0001546 106.8124 253.3009 14.79909342 24586
KUIPER-00230            
1 68579U 26072G   26259.91672454 -.00013324  00000+0 -14880-2 0  9991
2 68579  51.8987  97.3274 0010629   0.2332 257.7735 14.85899652  1302
KUIPER-00231            
1 68580U 26072H   26259.31837850  .00002878  00000+0  40635-3 0  9998
2 68580  51.8965 125.2444 0002128 106.0859 254.0338 14.79939281 24999
KUIPER-00234            
1 68581U 26072J   26259.39539512  .00000304  00000+0  68866-4 0  9990
2 68581  51.9004 147.3135 0001255  83.0625 277.0481 14.79928537 24695
KUIPER-00236            
1 68582U 26072K   26259.91672454 -.00019101  00000+0 -26829-2 0  9990
2 68582  51.9028  99.8848 0001017  59.7235   9.3710 14.76681580  4046
KUIPER-00244            
1 68583U 26072L   26259.37241720 -.00002688  00000+0 -32360-3 0  9999
2 68583  51.8993 137.4404 0001068  91.3018 268.8066 14.79940751 24837
KUIPER-00253            
1 68584U 26072M   26259.36972430  .00003064  00000+0  43072-3 0  9997
2 68584  51.9036 139.9786 0001021  97.0049 263.1030 14.79936541 24799
KUIPER-00254            
1 68585U 26072N   26259.06314009  .00002857  00000+0  40361-3 0  9994
2 68585  51.9024 143.8308 0001242  69.7265 290.3831 14.79934430 24710
KUIPER-00263            
1 68586U 26072P   26259.34943979  .00001444  00000+0  21838-3 0  9999
2 68586  51.8991 127.6309 0000710  99.0454 261.0588 14.79935924 24969
KUIPER-00269            
1 68587U 26072Q   26259.34674742  .00001088  00000+0  17169-3 0  9995
2 68587  51.8987 130.0499 0001089  97.8724 262.2362 14.79930924 24934
KUIPER-00272            
1 68588U 26072R   26257.94080402  .00000771  00000+0  13009-3 0  9991
2 68588  51.8989 156.2363 0001006  89.4459 270.6618 14.79931389 24447
KUIPER-00285            
1 68589U 26072S   26259.04287570  .00000602  00000+0  10801-3 0  9990
2 68589  51.9050 131.4776 0001564  70.1191 289.9940 14.79930439 24884
KUIPER-00286            
1 68590U 26072T   26259.04556034  .00002636  00000+0  37464-3 0  9999
2 68590  51.9006 128.8936 0000799 105.3280 254.7771 14.79930735 24920
KUIPER-00289            
1 68591U 26072U   26259.37511015  .00002989  00000+0  42088-3 0  9995
2 68591  51.8977 134.9136 0001117  97.8224 262.2866 14.79936179 24865
KUIPER-00290            
1 68592U 26072V   26259.91672454  .00008317  00000+0  11194-2 0  9995
2 68592  51.9001 132.5268 0001023 133.0567  54.6113 14.79905285  4460
KUIPER-00293            
1 68593U 26072W   26258.14878792  .00001847  00000+0  27122-3 0  9993
2 68593  51.8969 150.3160 0001739  45.7605 314.3500 14.79930232 24545
KUIPER-00294            
1 68594U 26072X   26258.97263429  .00000981  00000+0  15768-3 0  9991
2 68594  51.8980 134.1949 0000770 103.8824 256.2224 14.79929657 24846
KUIPER-00296            
1 68595U 26072Y   26259.02527197  .00002378  00000+0  34082-3 0  9996
2 68595  51.9001 116.4799 0000745 107.8838 252.2206 14.79930378 25095
KUIPER-00297            
1 68596U 26072Z   26259.39808683  .00002570  00000+0  36593-3 0  9992
2 68596  51.9003 144.7904 0001307 100.5026 259.6084 14.79936615 24739
KUIPER-00300            
1 68597U 26072AA  26259.09690312  .00002800  00000+0  39604-3 0  9990
2 68597  51.9023 143.6577 0000858 106.2723 253.8334 14.79939432 24726
KUIPER-00301            
1 68598U 26072AB  26259.31041081  .00001683  00000+0  26997-3 0  9998
2 68598  51.9022 112.1549 0002033 182.0480 178.0473 14.76500036 25178
KUIPER-00304            
1 68599U 26072AC  26259.34051950  .00001799  00000+0  28569-3 0  9993
2 68599  51.9007 113.9782 0000599  19.3210 340.7774 14.76615758 25156
KUIPER-00317            
1 68600U 26072AD  26258.93886821  .00000972  00000+0  15650-3 0  9992
2 68600  51.8978 134.3507 0000886  94.9005 265.2058 14.79929548 24835
KUIPER-00320            
1 68601U 26072AE  26259.40618168  .00002424  00000+0  34685-3 0  9996
2 68601  51.9017 137.2999 0000709  95.8663 264.2380 14.79939401 24838
KUIPER-00299            
1 68864U 26095A   26259.97216763 -.00011934  00000+0 -15404-2 0  9994
2 68864  51.8980 204.7568 0001257  94.2213 265.8893 14.79898646 21201
KUIPER-00353            
1 68865U 26095B   26259.21178714 -.00004066  00000+0 -50457-3 0  9991
2 68865  51.8980 193.1471 0000750  92.1154 267.9895 14.79943061 21302
KUIPER-00357            
1 68866U 26095C   26259.10241745  .00002714  00000+0  38491-3 0  9995
2 68866  51.9009 201.1411 0001070  53.1204 306.9856 14.79932345 21189
KUIPER-00364            
1 68867U 26095D   26259.26854812  .00001016  00000+0  16236-3 0  9995
2 68867  51.9034 202.9292 0001414  48.9288 311.1797 14.79928679 21176
KUIPER-00375            
1 68868U 26095E   26259.24287317  .00001065  00000+0  16863-3 0  9994
2 68868  51.9021 195.5154 0000830  82.7196 277.3860 14.79930832 21271
KUIPER-00433            
1 68869U 26095F   26259.29422191  .00001570  00000+0  23491-3 0  9997
2 68869  51.8998 210.2842 0001151  48.1756 311.9304 14.79931763 21078
KUIPER-00437            
1 68870U 26095G   26259.91672454 -.01803828  00000+0 -13668+0 0  9997
2 68870  51.8876 160.6009 0008708 278.9143 268.4554 15.05348582  5825
KUIPER-00448            
1 68871U 26095H   26259.25668071  .00001937  00000+0  30729-3 0  9994
2 68871  51.9022 200.3040 0003334  42.0788 318.0429 14.76332379 21209
KUIPER-00459            
1 68872U 26095J   26259.18343996  .00008034  00000+0  10817-2 0  9993
2 68872  51.9023 188.3412 0000894 106.9249 253.1812 14.79926605 21365
KUIPER-00468            
1 68873U 26095K   26259.17602693  .00002022  00000+0  31724-3 0  9997
2 68873  51.8976 185.8179 0000867 162.7465 197.3525 14.76624307 21400
KUIPER-00476            
1 68874U 26095L   26259.91672454 -.00108428  00000+0 -10633-1 0  9995
2 68874  51.8917 165.2838 0010414 261.4571 104.7046 14.92312405  5845
KUIPER-00478            
1 68875U 26095M   26258.77554718  .00001727  00000+0  25549-3 0  9997
2 68875  51.8985 192.5808 0000920  80.0750 280.0317 14.79932556 21270
KUIPER-00480            
1 68876U 26095N   26258.20424264  .00005561  00000+0  75814-3 0  9998
2 68876  51.9031 192.6219 0000848 104.0406 256.0651 14.79917022 21225
KUIPER-00482            
1 68877U 26095P   26259.20640669  .00001320  00000+0  20221-3 0  9990
2 68877  51.9008 198.1763 0001274  29.8918 330.2117 14.79931678 21237
KUIPER-00483            
1 68878U 26095Q   26259.80032168 -.00095853  00000+0 -12691-1 0  9992
2 68878  51.8985 208.0099 0003138 342.5024  17.5829 14.80037312 21147
KUIPER-00488            
1 68879U 26095R   26258.57027001  .00001967  00000+0  28698-3 0  9993
2 68879  51.8983 195.9959 0001145  73.2061 286.9027 14.79930634 21206
KUIPER-00489            
1 68880U 26095S   26259.18611869  .00003347  00000+0  46776-3 0  9995
2 68880  51.8959 185.7543 0001265  79.2984 280.8120 14.79942299 21409
KUIPER-00499            
1 68881U 26095T   26258.80932639  .00000126  00000+0  45562-4 0  9990
2 68881  51.8977 192.4807 0001112  63.2931 296.8146 14.79931018 21271
KUIPER-00500            
1 68882U 26095U   26259.26315657  .00003198  00000+0  44828-3 0  9992
2 68882  51.9005 207.9247 0000837  81.7815 278.3242 14.79929897 21100
KUIPER-00502            
1 68883U 26095V   26258.80761938  .00002875  00000+0  40597-3 0  9999
2 68883  51.8996 186.1914 0001289  64.8272 295.2824 14.79931092 21361
KUIPER-00503            
1 68884U 26095W   26259.23207653  .00000303  00000+0  68787-4 0  9993
2 68884  51.8978 205.5349 0000983  66.5127 293.5939 14.79929183 21139
KUIPER-00504            
1 68885U 26095X   26259.25774693  .00003272  00000+0  45797-3 0  9992
2 68885  51.9021 212.9534 0000572  78.4820 281.6206 14.79935628 21039
KUIPER-00505            
1 68886U 26095Y   26259.23476754  .00003083  00000+0  43319-3 0  9996
2 68886  51.9012 203.0560 0000627  87.7761 272.3273 14.79935345 21169
KUIPER-00507            
1 68887U 26095Z   26258.21573394  .00001108  00000+0  17429-3 0  9991
2 68887  51.8984 197.5462 0000791  80.6791 279.4260 14.79926259 21159
KUIPER-00511            
1 68888U 26095AA  26257.19398022  .00002933  00000+0  41355-3 0  9993
2 68888  51.9021 194.6760 0000719  32.9744 327.1263 14.79941237 21102
KUIPER-00512            
1 68889U 26095AB  26259.26585338  .00000573  00000+0  10418-3 0  9996
2 68889  51.9007 205.4211 0000947  77.6890 282.4179 14.79928786 21136
KUIPER-00519            
1 68890U 26095AC  26259.27663355  .00001561  00000+0  23382-3 0  9997
2 68890  51.9013 195.4363 0000850  94.1812 265.9247 14.79920034 21277
KUIPER-00521            
1 68891U 26095AD  26259.20740956  .00000595  00000+0  10709-3 0  9999
2 68891  51.9019 189.4379 0000852  92.7198 267.3862 14.79930618 21354
KUIPER-00524            
1 68892U 26095AE  26259.10510843  .00002833  00000+0  40045-3 0  9992
2 68892  51.8980 198.6045 0000926  59.0172 301.0882 14.79939529 21216
KUIPER-00370            
1 68919U 26098A   26259.80841051  .00000960  00000+0  15490-3 0  9995
2 68919  51.8998  12.8746 0000311 100.2869 259.8129 14.79932014 21058
KUIPER-00380            
1 68920U 26098B   26259.88405306  .00002253  00000+0  32437-3 0  9991
2 68920  51.9000   5.1787 0000363  92.3705 267.7299 14.79932744 21160
KUIPER-00386            
1 68921U 26098C   26259.83070355  .00000482  00000+0  92164-4 0  9995
2 68921  51.9010   7.9085 0000498  97.7084 262.3935 14.79931596 21129
KUIPER-00388            
1 68922U 26098D   26259.80304946  .00003285  00000+0  45957-3 0  9990
2 68922  51.9020  18.1916 0000488 106.8206 253.2810 14.79940487 20977
KUIPER-00405            
1 68923U 26098E   26258.67461109 -.00000208  00000+0  16941-5 0  9996
2 68923  51.9014  20.5340 0000990 181.2626 178.8334 14.79926645 20849
KUIPER-00408            
1 68924U 26098F   26259.81380863  .00002873  00000+0  40569-3 0  9991
2 68924  51.8995   7.9105 0000518  93.8765 266.2256 14.79940607 21124
KUIPER-00409            
1 68925U 26098G   26259.79152823  .00002158  00000+0  31190-3 0  9998
2 68925  51.9042  13.0958 0000699  82.8021 277.3021 14.79941907 21044
KUIPER-00410            
1 68926U 26098H   26259.86176874 -.00000124  00000+0  12799-4 0  9996
2 68926  51.8981  10.2575 0001411 153.1054 206.9982 14.79931364 21096
KUIPER-00412            
1 68927U 26098J   26259.78544858 -.00000025  00000+0  25765-4 0  9996
2 68927  51.9048   3.1329 0000556 123.1933 236.9083 14.79927319 21182
KUIPER-00413            
1 68928U 26098K   26259.80573065  .00000494  00000+0  93836-4 0  9995
2 68928  51.9005  15.5153 0000703 154.6016 205.4981 14.79931123 21011
KUIPER-00414            
1 68929U 26098L   26259.35601299  .00001378  00000+0  20971-3 0  9998
2 68929  51.8968  27.5873 0001603 126.2562 233.8549 14.79934351 20809
KUIPER-00415            
1 68930U 26098M   26259.78005897  .00000714  00000+0  12267-3 0  9991
2 68930  51.8994   8.1427 0000839 103.3531 256.7525 14.79932681 21119
KUIPER-00416            
1 68931U 26098N   26259.79795029  .00000195  00000+0  54547-4 0  9997
2 68931  51.9008 359.4185 0000600 109.1194 250.9834 14.79938224 21236
KUIPER-00420            
1 68932U 26098P   26259.78814513  .00001647  00000+0  24504-3 0  9999
2 68932  51.9003   0.5696 0000411 101.4616 258.6393 14.79930624 21227
KUIPER-00421            
1 68933U 26098Q   26259.78274941  .00003129  00000+0  43915-3 0  9999
2 68933  51.9030   5.5793 0000509  97.0153 263.0867 14.79936989 21153
KUIPER-00425            
1 68934U 26098R   26259.84219902  .00001580  00000+0  23627-3 0  9990
2 68934  51.9023  12.8622 0000700 101.4319 258.6722 14.79932493 21050
KUIPER-00430            
1 68935U 26098S   26259.83946972 -.00001471  00000+0 -16403-3 0  9999
2 68935  51.9047  15.2728 0000717  95.6765 264.4280 14.79926382 21029
KUIPER-00431            
1 68936U 26098T   26259.36409852  .00003232  00000+0  45282-3 0  9991
2 68936  51.9001  19.9632 0000453 141.9325 218.1669 14.79931301 20910
KUIPER-00432            
1 68937U 26098U   26259.84488186  .00001997  00000+0  29088-3 0  9994
2 68937  51.9019  10.2361 0000794 117.5240 242.5803 14.79933182 21096
KUIPER-00434            
1 68938U 26098V   26259.88779843 -.00008976  00000+0 -12502-2 0  9990
2 68938  51.9041  14.0342 0001734 188.3512 171.7420 14.76426491 21046
KUIPER-00436            
1 68939U 26098W   26259.35258955  .00003220  00000+0  45111-3 0  9997
2 68939  51.9006  15.0262 0000562 111.6863 248.4160 14.79935936 20983
KUIPER-00438            
1 68940U 26098X   26259.82800579  .00003096  00000+0  43504-3 0  9991
2 68940  51.9041  10.4484 0000598  90.3961 269.7070 14.79927437 21085
KUIPER-00439            
1 68941U 26098Y   26259.81107830  .00001793  00000+0  26431-3 0  9993
2 68941  51.9046  10.5138 0000845  70.2236 289.8817 14.79905734 21083
KUIPER-00440            
1 68942U 26098Z   26259.29585089  .00002961  00000+0  41719-3 0  9996
2 68942  51.9043   5.2905 0000351 355.9124   4.1835 14.79935167 21110
KUIPER-00442            
1 68943U 26098AA  26259.91672454 -.00034309  00000+0 -44906-2 0  9992
2 68943  51.9020   5.0647 0000277 141.8314 303.0568 14.79968508  5343
KUIPER-00446            
1 68944U 26098AB  26259.79694326  .00001296  00000+0  19892-3 0  9995
2 68944  51.9010   8.0795 0000738 272.4924  87.5954 14.79930979 21117
KUIPER-00451            
1 68945U 26098AC  26259.85368243  .00003200  00000+0  44850-3 0  9998
2 68945  51.9005  17.8063 0000506 120.3930 239.7082 14.79932147 20985
KUIPER-00452            
1 68946U 26098AD  26259.79964216  .00003013  00000+0  42397-3 0  9990
2 68946  51.9041   5.5621 0000437 104.5371 255.5640 14.79937761 21159
KUIPER-00453            
1 68947U 26098AE  26259.88673888  .00000270  00000+0  64415-4 0  9991
2 68947  51.9006   2.5977 0002102 131.9443 228.1699 14.79928304 21206
KUIPER-00454            
1 68948U 26098AF  26259.91672454 -.00014336  00000+0 -18557-2 0  9998
2 68948  51.9002  20.0193 0001015  98.2614 162.7428 14.79926743  5429
KUIPER-00455            
1 68949U 26098AG  26259.81992243  .00001856  00000+0  27249-3 0  9999
2 68949  51.9019  17.9606 0001927 127.0154 233.0985 14.79934832 20980
KUIPER-00458            
1 68950U 26098AH  26259.80232281  .00003180  00000+0  44587-3 0  9995
2 68950  51.9025   3.0612 0000484 102.2061 257.8955 14.79938794 21186
KUIPER-00282            
1 69267U 26118A   26259.74289038  .00000345  00000+0  74215-4 0  9997
2 69267  51.8999 355.7827 0000621 132.4146 227.6869 14.79931418 17713
KUIPER-00383            
1 69268U 26118B   26258.27681248 -.00000023  00000+0  25991-4 0  9995
2 69268  51.8986 359.7872 0000640  86.8950 273.2086 14.79931458 17532
KUIPER-00527            
1 69269U 26118C   26259.79625055  .00000071  00000+0  38260-4 0  9993
2 69269  51.8974 353.1981 0000578  89.5681 270.5348 14.79930262 17757
KUIPER-00562            
1 69270U 26118D   26259.77038336 -.00023080  00000+0 -30170-2 0  9990
2 69270  51.9043 345.6244 0000373  87.8005 272.3000 14.79819601 17869
KUIPER-00570            
1 69271U 26118E   26259.79086189  .00006908  00000+0  93442-3 0  9992
2 69271  51.9018 358.1908 0001111 128.9487 231.1574 14.79921658 17674
KUIPER-00572            
1 69272U 26118F   26259.77935540  .00002096  00000+0  30391-3 0  9993
2 69272  51.9018 353.1365 0000253  94.6652 265.4339 14.79930929 17755
KUIPER-00581            
1 69273U 26118G   26259.77395189  .00000161  00000+0  50186-4 0  9999
2 69273  51.9018 358.1679 0001315 178.5534 181.5432 14.79929902 17773
KUIPER-00584            
1 69274U 26118H   26259.28168987  .00003057  00000+0  42976-3 0  9994
2 69274  51.9030   2.9556 0000388 110.6256 249.4749 14.79932708 17574
KUIPER-00587            
1 69275U 26118J   26259.84958152  .00002558  00000+0  36441-3 0  9993
2 69275  51.9012 350.3348 0000625  88.0004 272.1030 14.79937128 17800
KUIPER-00590            
1 69276U 26118K   26259.77665914  .00001596  00000+0  23827-3 0  9992
2 69276  51.9071 355.6622 0000945 138.5439 221.5596 14.79933964 17727
KUIPER-00592            
1 69277U 26118L   26259.28720384  .00002539  00000+0  36202-3 0  9991
2 69277  51.9048 357.7118 0000365  97.1422 262.9582 14.79924760 17653
KUIPER-00593            
1 69278U 26118M   26259.77862869  .00002774  00000+0  39271-3 0  9991
2 69278  51.9002 338.1566 0001678 154.9642 205.1402 14.79944747 18027
KUIPER-00594            
1 69279U 26118N   26259.77325535  .00000521  00000+0  97366-4 0  9994
2 69279  51.9027 343.1869 0001393  77.5528 282.5591 14.79925187 17893
KUIPER-00595            
1 69280U 26118P   26259.91672454 -.00028293  00000+0 -36987-2 0  9995
2 69280  51.8987 337.5024 0001285 169.3095  26.6093 14.79923009  4002
KUIPER-00596            
1 69281U 26118Q   26259.80503196  .00003088  00000+0  43384-3 0  9993
2 69281  51.9020   0.5347 0000403  93.6989 266.4020 14.79938768 17656
KUIPER-00597            
1 69282U 26118R   26259.80965699  .00003053  00000+0  42960-3 0  9995
2 69282  51.8996 340.5134 0001835  38.6855 321.4238 14.79905573 17932
KUIPER-00599            
1 69283U 26118S   26259.29244711  .00002614  00000+0  37168-3 0  9990
2 69283  51.9016 352.7134 0000374 133.3229 226.7764 14.79934040 17726
KUIPER-00600            
1 69284U 26118T   26259.77600445  .00002596  00000+0  36945-3 0  9995
2 69284  51.8994 340.5778 0001777  35.5147 324.5933 14.79937308 17938
KUIPER-00601            
1 69285U 26118U   26259.79353698  .00003081  00000+0  43301-3 0  9997
2 69285  51.9030 355.5828 0000474  89.8704 270.2313 14.79931558 17724
KUIPER-00602            
1 69286U 26118V   26259.73407922  .00002937  00000+0  41402-3 0  9991
2 69286  51.9028 348.2611 0000501 199.7607 160.3336 14.79942472 17827
KUIPER-00603            
1 69287U 26118W   26259.74828392  .00000077  00000+0  39124-4 0  9993
2 69287  51.9053 350.7885 0000396 112.7426 247.3578 14.79929095 17788
KUIPER-00605            
1 69288U 26118X   26259.80772360 -.00000354  00000+0 -17490-4 0  9996
2 69288  51.9010 358.0056 0000494 102.0333 258.0684 14.79930433 17696
KUIPER-00606            
1 69289U 26118Y   26259.73140550  .00001425  00000+0  21587-3 0  9998
2 69289  51.9024 350.8589 0000429 109.1787 250.9222 14.79934130 17789
KUIPER-00607            
1 69290U 26118Z   26259.79283944  .00002632  00000+0  37406-3 0  9999
2 69290  51.9017 340.5945 0001335  11.0726 349.0265 14.79941188 17931
KUIPER-00608            
1 69291U 26118AA  26259.87454109 -.00001403  00000+0 -15505-3 0  9995
2 69291  51.9008 342.5940 0001034  78.5715 281.5363 14.79941206 17919
KUIPER-00610            
1 69292U 26118AB  26259.76786708  .00000824  00000+0  13704-3 0  9990
2 69292  51.9021 348.1963 0000288  62.7196 297.3795 14.79930121 17828
KUIPER-00613            
1 69293U 26118AC  26259.01425490  .00000571  00000+0  10389-3 0  9992
2 69293  51.9011   1.5289 0000523  94.2261 265.8761 14.79930909 17573
KUIPER-00618            
1 69294U 26118AD  26259.80432345  .00001363  00000+0  20779-3 0  9991
2 69294  51.9033 345.5439 0001771 176.2200 183.8776 14.79929343 17863
KUIPER-00620            
1 69295U 26118AE  26259.75098590  .00000966  00000+0  15567-3 0  9993
2 69295  51.9034 348.2829 0000472  92.4319 267.6697 14.79932137 17829
KUIPER-00423            
1 69592U 26140A   26259.91672454 -.00060878  00000+0 -79580-2 0  9997
2 69592  51.9001 319.8664 0005051 124.8448  59.3970 14.80293524  4766
KUIPER-00428            
1 69593U 26140B   26259.79654889  .00021576  00000+0  57911-3 0  9991
2 69593  51.8799 316.0028 0005428 258.2869 101.7509 15.37873598 15322
KUIPER-00481            
1 69594U 26140C   26259.85170958  .00001394  00000+0  22885-3 0  9997
2 69594  51.9020 325.0773 0001792 327.9309  32.1542 14.76497901 15204
KUIPER-00490            
1 69595U 26140D   26259.78672639  .00000188  00000+0  53598-4 0  9999
2 69595  51.9043 330.5693 0000421  71.4798 288.6210 14.79926810 15123
KUIPER-00493            
1 69596U 26140E   26259.47745520  .00002987  00000+0  42055-3 0  9990
2 69596  51.9042 336.9869 0000581 279.7292  80.3605 14.79940024 15002
KUIPER-00496            
1 69597U 26140F   26259.91672454 -.01072936  00000+0 -87365-1 0  9990
2 69597  51.8981 319.7900 0006982 265.6318   8.2628 15.02051274  5812
KUIPER-00513            
1 69598U 26140G   26259.75296742  .00000584  00000+0  10560-3 0  9997
2 69598  51.9010 330.7645 0000665  98.9867 261.1171 14.79926852 15117
KUIPER-00516            
1 69599U 26140H   26259.91672454 -.02149738  00000+0 -12641+0 0  9991
2 69599  51.8843 316.1759 0005946 191.3699 135.2070 15.15160627  4571
KUIPER-00517            
1 69600U 26140J   26259.91672454 -.01266599  00000+0 -43936-1 0  9991
2 69600  51.8802 315.0685 0008721 156.7827 315.4197 15.32021467  5779
KUIPER-00520            
1 69601U 26140K   26259.72567375  .00001554  00000+0  25100-3 0  9996
2 69601  51.9034 332.7791 0001050 181.9086 178.1871 14.76602004 15084
KUIPER-00522            
1 69602U 26140L   26259.91672454 -.00051371  00000+0 -59999-2 0  9999
2 69602  51.9004 320.1291 0015746 124.7597  17.4210 14.84783713  5837
KUIPER-00528            
1 69603U 26140M   26259.73340670  .00002663  00000+0  37813-3 0  9992
2 69603  51.9039 333.3676 0000380  74.9856 285.1148 14.79932225 15070
KUIPER-00532            
1 69604U 26140N   26259.91672454 -.00025756  00000+0 -20365-2 0  9994
2 69604  51.8919 318.3517 0002478 183.8285 172.7776 14.99966246  4663
KUIPER-00533            
1 69605U 26140P   26259.78944259  .00001139  00000+0  17835-3 0  9991
2 69605  51.9026 328.1127 0000590  84.2583 275.8446 14.79933577 15152
KUIPER-00534            
1 69606U 26140Q   26259.91672454 -.00001096  00000+0 -23835-4 0  9994
2 69606  51.8801 316.0928 0013754 123.1771 213.9737 15.30892983  5761
KUIPER-00537            
1 69607U 26140R   26259.78133974  .00002732  00000+0  38722-3 0  9995
2 69607  51.9017 335.5623 0000645 350.5926   9.5024 14.79937263 15057
KUIPER-00538            
1 69608U 26140S   26259.75045332  .00020607  00000+0  27258-2 0  9995
2 69608  51.9030 333.2241 0000382  78.9967 281.1039 14.79902203 15081
KUIPER-00540            
1 69609U 26140T   26259.78475974  .00040013  00000+0  10474-2 0  9993
2 69609  51.8806 315.9371 0003981 253.7691 106.2858 15.38322150 15324
KUIPER-00541            
1 69610U 26140U   26259.91672454 -.02220849  00000+0 -10551+0 0  9996
2 69610  51.8882 315.2556 0007390 173.7251 192.4666 15.22575404  4360
KUIPER-00542            
1 69611U 26140V   26259.91672454 -.00804901  00000+0 -30021-1 0  9998
2 69611  51.8837 314.9109 0007664 153.7925  19.9710 15.29377661  4063
KUIPER-00543            
1 69612U 26140W   26259.91672454 -.00025820  00000+0 -21870-2 0  9997
2 69612  51.8977 318.2416 0003850 270.9925  15.2884 14.97324061  5716
KUIPER-00544            
1 69613U 26140X   26259.91672454 -.02327926  00000+0 -11500+0 0  9998
2 69613  51.8817 315.4191 0005966 161.9478 165.5302 15.20845190  5858
KUIPER-00546            
1 69614U 26140Y   26259.91672454 -.00044444  00000+0 -51041-2 0  9995
2 69614  51.8993 320.1359 0019165 116.5172 105.7646 14.85355500  5764
KUIPER-00547            
1 69615U 26140Z   26259.80177461  .00018879  00000+0  52709-3 0  9996
2 69615  51.8812 315.3140 0009383 150.1163 210.0361 15.36714347 15337
KUIPER-00549            
1 69616U 26140AA  26259.91672454 -.01907755  00000+0 -13138+0 0  9993
2 69616  51.8933 316.5420 0005392 217.6644 204.5625 15.09083864  5282
KUIPER-00550            
1 69617U 26140AB  26259.91672454 -.01786582  00000+0 -11997+0 0  9998
2 69617  51.8836 320.3815 0004326 289.1872 121.7284 15.09770033  5731
KUIPER-00551            
1 69618U 26140AC  26259.19987155  .00037375  00000+0  97510-3 0  9991
2 69618  51.8791 318.0025 0012001 134.8375 225.3590 15.38393809 15244
KUIPER-00554            
1 69619U 26140AD  26259.80053518  .00023619  00000+0  64535-3 0  9994
2 69619  51.8786 315.2735 0009762 148.6292 211.5279 15.37235294 15330
KUIPER-00555            
1 69620U 26140AE  26259.72890270  .00036737  00000+0  99813-3 0  9993
2 69620  51.8837 315.5766 0010442 136.6465 223.5345 15.37167267 15322
KUIPER-00556            
1 69621U 26140AF  26259.91672454 -.00055015  00000+0 -72349-2 0  9993
2 69621  51.8971 322.5427 0002513 112.0581 358.9770 14.79997494  4186
KUIPER-00557            
1 69622U 26140AG  26259.80866541  .00023675  00000+0  61871-3 0  9998
2 69622  51.8834 315.3502 0008155 159.6384 200.4930 15.38623951 15333
KUIPER-00560            
1 69623U 26140AH  26259.77819814  .00025712  00000+0  70434-3 0  9995
2 69623  51.8799 315.8676 0007427 182.4920 177.6031 15.37123819 15325
KUIPER-00561            
1 69624U 26140AJ  26259.75562239  .00002471  00000+0  35245-3 0  9998
2 69624  51.9027 328.2309 0000453 109.5456 250.5555 14.80001356 15159
KUIPER-00564            
1 69625U 26140AK  26259.85353966  .00001475  00000+0  23988-3 0  9999
2 69625  51.8987 325.2423 0001913 114.3202 245.7959 14.76579791 15201
KUIPER-00567            
1 69626U 26140AL  26259.91672454 -.00018553  00000+0 -24111-2 0  9998
2 69626  51.8975 322.5448 0002451 127.8184 162.3312 14.79933719  5889
KUIPER-00573            
1 69627U 26140AM  26259.75834946  .00002446  00000+0  34992-3 0  9998
2 69627  51.9018 325.7549 0000568 107.5058 252.5967 14.79918193 15189
KUIPER-00258            
1 69763U 26151A   26259.91672454 -.00848501  00000+0 -67341-1 0  9997
2 69763  51.8881 235.9970 0010915  42.2506 107.6121 15.02761228  2479
KUIPER-00526            
1 69764U 26151B   26259.01202922  .00002077  00000+0  30144-3 0  9999
2 69764  51.8984 254.1137 0000638  65.6238 294.4791 14.79925548 11438
KUIPER-00558            
1 69765U 26151C   26259.38344663  .00002450  00000+0  35024-3 0  9996
2 69765  51.8972 252.3907 0000592  72.8575 287.2452 14.79934151 11494
KUIPER-00569            
1 69766U 26151D   26259.26795936  .00002440  00000+0  34891-3 0  9997
2 69766  51.9007 250.3936 0000840  40.3892 319.7133 14.79933344 11516
KUIPER-00589            
1 69767U 26151E   26259.09992930  .00001537  00000+0  24897-3 0  9993
2 69767  51.9003 254.1072 0002702  53.3739 306.7470 14.76529678 11449
KUIPER-00598            
1 69768U 26151F   26259.35784222  .00008836  00000+0  11862-2 0  9992
2 69768  51.8982 245.0166 0001026 106.4672 253.6403 14.79944714 11599
KUIPER-00604            
1 69769U 26151G   26259.91672454  .00031549  00000+0  41519-2 0  9997
2 69769  51.9009 245.0394 0000389  53.1726 150.4831 14.79892258  4005
KUIPER-00609            
1 69770U 26151H   26259.00975868  .00001768  00000+0  28127-3 0  9995
2 69770  51.9017 246.2659 0002120  25.7186 334.3880 14.76614769 11543
KUIPER-00611            
1 69771U 26151J   26258.69665258  .00002130  00000+0  30832-3 0  9999
2 69771  51.8982 250.4197 0000626  59.6243 300.4781 14.79929172 11462
KUIPER-00612            
1 69772U 26151K   26259.07758492  .00001660  00000+0  26582-3 0  9990
2 69772  51.9004 251.2079 0000748  50.7478 309.3549 14.76640411 11489
KUIPER-00614            
1 69773U 26151L   26259.35508143  .00000621  00000+0  11044-3 0  9991
2 69773  51.8956 247.5726 0001238  92.1587 267.9517 14.79931411 11556
KUIPER-00615            
1 69774U 26151M   26259.91672454  .00035255  00000+0  46337-2 0  9994
2 69774  51.9000 249.9751 0001398 133.9619 279.1016 14.79892000  5269
KUIPER-00616            
1 69775U 26151N   26259.91672454  .00005985  00000+0  59023-3 0  9999
2 69775  51.8959 235.4853 0003662 114.2910 184.0110 14.93193537  2246
KUIPER-00617            
1 69776U 26151P   26259.91672454  .00029441  00000+0  38763-2 0  9990
2 69776  51.8989 240.0429 0000841 173.1871   1.8198 14.79907666  5578
KUIPER-00619            
1 69777U 26151Q   26259.35366844  .00001763  00000+0  28074-3 0  9994
2 69777  51.9012 244.6944 0001756 146.1491 213.9582 14.76581391 11595
KUIPER-00621            
1 69778U 26151R   26259.45637294  .00002191  00000+0  31624-3 0  9997
2 69778  51.8999 247.0740 0000908 132.1171 227.9869 14.79938330 11571
KUIPER-00622            
1 69779U 26151S   26259.02139712  .00001577  00000+0  25442-3 0  9991
2 69779  51.8999 252.8637 0001021  71.8763 288.2309 14.76563325 11455
KUIPER-00623            
1 69780U 26151T   26259.25101983  .00002336  00000+0  33449-3 0  9997
2 69780  51.8967 250.4948 0001787 103.5483 256.5678 14.80050442 11501
KUIPER-00626            
1 69781U 26151U   26259.34096543  .00011575  00000+0  15444-2 0  9992
2 69781  51.8977 245.0657 0001024 104.4244 255.6832 14.79941468 11595
KUIPER-00627            
1 69782U 26151V   26259.91672454  .00000689  00000+0  94442-4 0  9998
2 69782  51.8950 237.8230 0008684  72.0566 136.3794 14.90609933  2985
KUIPER-00629            
1 69783U 26151W   26259.26254499  .00007070  00000+0  95482-3 0  9997
2 69783  51.9033 255.3738 0000537  48.2828 311.8181 14.79957380 11442
KUIPER-00631            
1 69784U 26151X   26259.00931775  .00002070  00000+0  30050-3 0  9994
2 69784  51.9004 256.5508 0000753  84.2435 275.8613 14.79919952 11401
KUIPER-00634            
1 69785U 26151Y   26259.36925514  .00002557  00000+0  36432-3 0  9998
2 69785  51.8991 249.9652 0001017 100.7046 259.4031 14.79935850 11528
KUIPER-00639            
1 69786U 26151Z   26259.91672454  .00004599  00000+0  50577-3 0  9996
2 69786  51.8969 237.7266 0010676  37.8038   5.7184 14.89236859  5553
KUIPER-00641            
1 69787U 26151AA  26259.91672454 -.00007733  00000+0 -96875-3 0  9993
2 69787  51.8996 240.0548 0006275  91.6885 172.1593 14.80664549  4826
KUIPER-00644            
1 69788U 26151AB  26259.91672454 -.00007098  00000+0 -42937-3 0  9998
2 69788  51.8856 234.1663 0008766  39.1186 302.1014 15.08665830  5618
KUIPER-00646            
1 69789U 26151AC  26259.91672454 -.00013541  00000+0 -17322-2 0  9998
2 69789  51.8981 240.1331 0002158  73.7336  10.9792 14.80375591  3882
KUIPER-00647            
1 69790U 26151AD  26259.91672454 -.00579213  00000+0 -62779-1 0  9998
2 69790  51.9067 239.7985 0010493  50.9130  29.7883 14.90153658  4013
KUIPER-00662            
1 69791U 26151AE  26259.91672454  .00035442  00000+0  46589-2 0  9990
2 69791  51.9004 252.5344 0000207 139.1810 198.1273 14.79884718  5003
