EUTELSAT 174A           
1 28924U 05052A   26283.55439917  .00000005  00000+0  00000+0 0  9994
2 28924   4.5059  75.0341 0006004 124.4458 193.2769  1.00273234 53487
EUTELSAT 33F            
1 29270U 06032A   26283.59781937  .00000150  00000+0  00000+0 0  9995
2 29270   1.9539  80.7691 0003280 118.6817  68.0925  1.00274463 48464
EUTELSAT HOTBIRD 13C    
1 33459U 08065A   26283.50993898 -.00000287  00000+0  00000+0 0  9991
2 33459   3.2415  77.7243 0003748 126.1865 308.5191  1.00272287 48505
EUTELSAT 36B            
1 36101U 09065A   26283.60119939  .00000106  00000+0  00000+0 0  9995
2 36101   0.7773  80.9685 0005872 115.1590  90.0282  1.00269879 61861
EUTELSAT KA-SAT 9A      
1 37258U 10069A   26283.09402384  .00000053  00000+0  00000+0 0  9998
2 37258   0.0797 352.3015 0005211 177.6527 251.6458  1.00271930 45152
EUTELSAT 7 WEST A       
1 37816U 11051A   26283.37595172 -.00000068  00000+0  00000+0 0  9996
2 37816   0.0671   2.7183 0006382 188.3440 315.9644  1.00271925 55031
EUTELSAT 16A            
1 37836U 11057A   26283.09246384 -.00000048  00000+0  00000+0 0  9999
2 37836   0.1546  71.2174 0005648 125.5672 216.3299  1.00024310  8481
EUTELSAT 21B            
1 38992U 12062B   26283.59547936  .00000123  00000+0  00000+0 0  9995
2 38992   0.0713 349.7644 0002980 201.8918  63.5431  1.00269715 50984
EUTELSAT 70B            
1 39020U 12069A   26283.60518608 -.00000051  00000+0  00000+0 0  9992
2 39020   0.0681  11.3500 0003828 188.0703 108.1759  1.00271944 50665
EUTELSAT 117 WEST A     
1 39122U 13012A   26283.56809257 -.00000020  00000+0  00000+0 0  9998
2 39122   0.0563  57.4646 0002783 141.3876 268.0454  1.00272365 49597
EUTELSAT 7B             
1 39163U 13022A   26283.09541052  .00000095  00000+0  00000+0 0  9999
2 39163   0.0712 355.2691 0002561 119.7453 314.0459  1.00270688 49099
EXPRESS-AT1             
1 39612U 14010A   26283.60691941 -.00000144  00000+0  00000+0 0  9992
2 39612   0.5496  84.0402 0004651  96.4300 136.3766  1.00313879 45972
EXPRESS-AT2             
1 39613U 14010B   26283.60232606  .00000071  00000+0  00000+0 0  9990
2 39613   0.0196 229.9172 0000233 227.8751 194.2741  1.00273412 45650
EUTELSAT 3B             
1 39773U 14030A   26283.59183935  .00000013  00000+0  00000+0 0  9993
2 39773   0.0677  16.0569 0004169 177.2530  42.0620  1.00272672 45227
EUTELSAT 115 WEST B     
1 40425U 15010B   26283.06958374 -.00000034  00000+0  00000+0 0  9991
2 40425   0.0183  56.3586 0000117 131.3804 101.1069  1.00272894 42536
EUTELSAT 8 WEST B       
1 40875U 15039B   26283.37577839 -.00000073  00000+0  00000+0 0  9991
2 40875   0.0691 351.1439 0003648 208.9568 306.1723  1.00271711 40812
EUTELSAT 9B             
1 41310U 16005A   26283.09411052  .00000053  00000+0  00000+0 0  9990
2 41310   0.0714  66.8028 0003297 161.9096 192.8825  1.00272926 39260
EUTELSAT 65 WEST A      
1 41382U 16014A   26283.57602490 -.00000284  00000+0  00000+0 0  9997
2 41382   0.0686 317.5629 0002168 235.5714 328.2378  1.00273320 38683
EUTELSAT 117 WEST B     
1 41589U 16038B   26283.42194170 -.00000019  00000+0  00000+0 0  9993
2 41589   0.0063   9.5109 0000047 163.3199 241.1434  1.00271040 37818
EUTELSAT 172B           
1 42741U 17029B   26283.26891794 -.00000013  00000+0  00000+0 0  9997
2 42741   0.0301 135.6371 0000201 232.3170 279.7571  1.00271914 34900
EUTELSAT 7C             
1 44334U 19034B   26283.59261935  .00000041  00000+0  00000+0 0  9999
2 44334   0.0688 181.7443 0003148 359.1945  58.6055  1.00271322  7994
EUTELSAT 5 WEST B       
1 44624U 19067A   26283.37638506 -.00000050  00000+0  00000+0 0  9996
2 44624   0.0685  17.9179 0003030 179.0180 312.5649  1.00271280 25588
EUTELSAT KONNECT        
1 45027U 20005B   26283.09367718  .00000041  00000+0  00000+0 0  9990
2 45027   0.0713  94.0132 0001335 152.2946 173.3396  1.00269319 25483
EUTELSAT QUANTUM        
1 49056U 21069B   26283.52943907  .00000119  00000+0  00000+0 0  9991
2 49056   0.0040 160.6983 0002212  36.9585  59.7885  1.00272415 19088
EUTELSAT KONNECT VHTS   
1 53765U 22110A   26283.59175269  .00000010  00000+0  00000+0 0  9996
2 53765   0.0579  99.4147 0002235  78.7036  56.8046  1.00269987  7992
EUTELSAT HOTBIRD 13F    
1 54048U 22134A   26283.59383270  .00000080  00000+0  00000+0 0  9997
2 54048   0.0594 286.2616 0002049  76.2857 243.4550  1.00272842 14534
EUTELSAT HOTBIRD 13G    
1 54225U 22146A   26283.59383270  .00000080  00000+0  00000+0 0  9997
2 54225   0.0455 238.1231 0001965 298.3349  69.5358  1.00272548  8624
EUTELSAT 10B            
1 54259U 22157A   26283.09428385  .00000060  00000+0  00000+0 0  9996
2 54259   0.0578  95.9670 0001687  47.9521 278.7476  1.00269522 14174
EUTELSAT 36D            
1 59346U 24059A   26283.45559874  .00000148  00000+0  00000+0 0  9996
2 59346   0.0187 221.9552 0000260 141.9235 215.0867  1.00270741  9307
