ORBCOMM FM06            
1 25118U 97084G   26250.39414417  .00000776  00000+0  24715-3 0  9994
2 25118  45.0149  16.9070 0001302 220.6878 158.2118 14.47731903506303
ORBCOMM FM04            
1 25159U 98007C   26251.86056757  .00000569  00000+0  23981-3 0  9991
2 25159 107.9604 341.6337 0040885 182.5346 177.5593 14.35855222488602
ORBCOMM FM19            
1 25415U 98046C   26251.23408899  .00000697  00000+0  26630-3 0  9994
2 25415  44.9929 208.7651 0005057 344.9482 147.0138 14.39625938468749
ORBCOMM FM20            
1 25416U 98046D   26252.20808670  .00000409  00000+0  17992-3 0  9996
2 25416  44.9929 212.9938 0002632 321.8396  38.2266 14.38164157468887
ORBCOMM FM27            
1 25481U 98053G   26251.83295277  .00000534  00000+0  21611-3 0  9999
2 25481  45.0055 298.0212 0002887 263.3002  96.7519 14.39268162462287
ORBCOMM FM32            
1 25982U 99065C   26252.05384393  .00000493  00000+0  21117-3 0  9997
2 25982  45.0148 136.2334 0005723 105.3602 254.7879 14.37232830399158
ORBCOMM FM109           
1 40086U 14040A   26251.85654365  .00000269  00000+0  92969-4 0  9990
2 40086  47.0034  55.8819 0001988 245.3361 114.7318 14.58912703646566
ORBCOMM FM110           
1 41182U 15081D   26252.20141152  .00000352  00000+0  11036-3 0  9997
2 41182  47.0029 324.1647 0001967 118.4572 241.6513 14.58983253569895
ORBCOMM FM118           
1 41183U 15081E   26252.23648000  .00000353  00000+0  11062-3 0  9995
2 41183  47.0050 324.3551 0001834  50.4611 309.6437 14.58966404570002
ORBCOMM FM112           
1 41184U 15081F   26252.30821555  .00000326  00000+0  10504-3 0  9992
2 41184  46.9981 232.4347 0003551 248.5090 111.5417 14.58951069571230
ORBCOMM FM113           
1 41185U 15081G   26252.01377385  .00000252  00000+0  89454-4 0  9997
2 41185  46.9995 234.2470 0002370 252.9271 107.1356 14.58926875571174
ORBCOMM FM108           
1 41187U 15081J   26252.11131806  .00000425  00000+0  12585-3 0  9998
2 41187  47.0044 145.3724 0002441 236.9902 123.0749 14.58973379572332
ORBCOMM FM117           
1 41188U 15081K   26252.14609633  .00000378  00000+0  11598-3 0  9990
2 41188  47.0005 143.8230 0002925 241.7458 118.3133 14.58955441572381
ORBCOMM FM116           
1 41189U 15081L   26251.37319890  .00000243  00000+0  87388-4 0  9990
2 41189  47.0012 237.2752 0000513  39.2096 320.8827 14.58953039571083
