KUIPER-00008            
1 63724U 25088A   26277.60581016  .00000160  00000+0  49965-4 0  9999
2 63724  51.9000 244.1799 0000726  56.1291 303.9741 14.79930337 78989
KUIPER-00009            
1 63725U 25088B   26276.78329318  .00002582  00000+0  18343-3 0  9998
2 63725  51.9022 252.5101 0000998  27.0362 333.0665 15.08163332 78795
KUIPER-00010            
1 63726U 25088C   26277.17227124  .00000641  00000+0  11302-3 0  9997
2 63726  51.9024 241.2110 0000809  58.2004 301.9037 14.79935597 78607
KUIPER-00011            
1 63727U 25088D   26277.60313934 -.00000144  00000+0  10069-4 0  9990
2 63727  51.9004 246.8465 0000857  54.6737 305.4306 14.79927861 78698
KUIPER-00012            
1 63728U 25088E   26277.58554649 -.00000167  00000+0  70765-5 0  9993
2 63728  51.9010 231.8655 0000970  78.7609 281.3462 14.79926634 78852
KUIPER-00013            
1 63729U 25088F   26277.24660199 -.00000524  00000+0 -39725-4 0  9993
2 63729  51.9018 265.8828 0000769 101.3315 258.7734 14.79924788 78457
KUIPER-00014            
1 63730U 25088G   26277.28035883 -.00000656  00000+0 -57023-4 0  9992
2 63730  51.9026 265.6797 0000699  44.9655 315.1364 14.79926441 78277
KUIPER-00015            
1 63731U 25088H   26277.30335204  .00000469  00000+0  90598-4 0  9990
2 63731  51.8995 275.6196 0000772  53.0518 307.0515 14.79926640 78591
KUIPER-00016            
1 63732U 25088J   26277.27767161  .00001728  00000+0  25564-3 0  9997
2 63732  51.9011 268.1946 0000665  40.9347 319.1666 14.79937914 78236
KUIPER-00018            
1 63733U 25088K   26277.25469683 -.00000164  00000+0  74650-5 0  9990
2 63733  51.9045 258.3476 0000730  67.8217 292.2823 14.79925217 78374
KUIPER-00019            
1 63734U 25088L   26277.21377000  .00000460  00000+0  89409-4 0  9993
2 63734  51.9008 257.2679 0000754  35.7377 324.3636 14.79917305 78383
KUIPER-00020            
1 63735U 25088M   26277.25200295  .00000698  00000+0  12055-3 0  9994
2 63735  51.9016 260.8517 0000727  52.1327 307.9701 14.79932764 78546
KUIPER-00021            
1 63736U 25088N   26277.21822206 -.00001273  00000+0 -13804-3 0  9998
2 63736  51.8988 260.9476 0000549  65.8776 294.2244 14.79924717 78370
KUIPER-00023            
1 63737U 25088P   26277.24928595  .00000522  00000+0  97442-4 0  9995
2 63737  51.9008 263.3015 0000734  48.9679 311.1346 14.79933866 78648
KUIPER-00024            
1 63738U 25088Q   26277.19526156  .00000444  00000+0  87275-4 0  9993
2 63738  51.9029 251.1581 0000754  54.2667 305.8366 14.79930224 78933
KUIPER-00025            
1 63739U 25088R   26277.22093327  .00000735  00000+0  12535-3 0  9996
2 63739  51.9041 258.5262 0000644  56.0060 304.0964 14.79932280 78692
KUIPER-00027            
1 63740U 25088S   26277.19256456  .00000821  00000+0  13669-3 0  9993
2 63740  51.9004 253.6061 0000630  69.9368 290.1662 14.79926094 78499
KUIPER-00028            
1 63741U 25088T   26277.22901142 -.00000843  00000+0 -81546-4 0  9993
2 63741  51.8971 250.8821 0000758  40.0746 320.0272 14.79927015 78940
KUIPER-00029            
1 63742U 25088U   26277.61020633 -.00000455  00000+0 -30655-4 0  9998
2 63742  51.9022 247.8987 0000871  38.5831 321.5194 14.79927306 78549
KUIPER-00030            
1 63743U 25088V   26277.24390279 -.00001190  00000+0 -12708-3 0  9999
2 63743  51.9001 268.3400 0000668  48.5239 311.5780 14.79924616 78510
KUIPER-00031            
1 63744U 25088W   26277.22632318  .00000043  00000+0  34692-4 0  9992
2 63744  51.9002 253.4377 0000909  53.6629 306.4417 14.79926934 78434
KUIPER-00032            
1 63745U 25088X   26277.19990966  .00009078  00000+0  21227-3 0  9991
2 63745  51.8657  91.4095 0004970 140.0653 220.0703 15.42910212 81680
KUIPER-00033            
1 63746U 25088Y   26277.32901652  .00001577  00000+0  23583-3 0  9994
2 63746  51.9017 282.9844 0000621  33.1083 326.9918 14.79939524 78517
KUIPER-00034            
1 63747U 25088Z   26276.62664537 -.00001205  00000+0 -12906-3 0  9992
2 63747  51.9031 248.6281 0000651  63.8742 296.2287 14.79924366 78610
KUIPER-00035            
1 63748U 25088AA  26277.27497378 -.00000108  00000+0  14839-4 0  9990
2 63748  51.8997 270.7222 0000678  54.2906 305.8119 14.79926686 78413
KUIPER-00037            
1 63749U 25088AB  26277.26789728 -.00000853  00000+0 -82942-4 0  9991
2 63749  51.9014 269.6166 0000602  47.8730 312.2283 14.79926381 79214
KUIPER-00038            
1 63750U 25088AC  26277.25739605  .00000675  00000+0  11761-3 0  9991
2 63750  51.9024 255.8383 0000677  79.6797 280.4242 14.79921255 78409
KUIPER-00039            
1 64500U 25134A   26277.50007906  .00001962  00000+0  28624-3 0  9993
2 64500  51.9032  29.7604 0000312 111.8559 248.2436 14.79934312 70998
KUIPER-00040            
1 64501U 25134B   26277.59059535 -.00000351  00000+0 -17043-4 0  9995
2 64501  51.8984  39.4134 0000661 138.4106 221.6906 14.79928189 70868
KUIPER-00041            
1 64502U 25134C   26277.55411829  .00000846  00000+0  13990-3 0  9993
2 64502  51.9008  41.9687 0000484 118.3049 241.7962 14.79932419 70826
KUIPER-00042            
1 64503U 25134D   26277.59327713  .00000025  00000+0  32314-4 0  9997
2 64503  51.9003  36.7734 0000137  90.1115 269.9863 14.79931682 70905
KUIPER-00043            
1 64504U 25134E   26277.60136842  .00000238  00000+0  60269-4 0  9997
2 64504  51.9043  29.2573 0000374 118.5867 241.5133 14.79930212 71017
KUIPER-00044            
1 64505U 25134F   26277.58788114  .00001903  00000+0  27848-3 0  9995
2 64505  51.9010  41.8011 0000443 131.7949 228.3051 14.79934373 70837
KUIPER-00046            
1 64506U 25134G   26277.62433854  .00001907  00000+0  27912-3 0  9995
2 64506  51.9003  39.1090 0000443 112.0281 248.0728 14.79931748 70875
KUIPER-00047            
1 64507U 25134H   26277.55270050  .00002012  00000+0  29277-3 0  9999
2 64507  51.9018  11.9570 0000218 107.9336 252.1650 14.79940116 71248
KUIPER-00048            
1 64508U 25134J   26277.51894727  .00001850  00000+0  27163-3 0  9990
2 64508  51.9006  12.1175 0000216  99.2128 260.8859 14.79930096 71243
KUIPER-00049            
1 64509U 25134K   26277.60674572  .00001973  00000+0  28775-3 0  9991
2 64509  51.9017  24.2040 0000389 110.6327 249.4677 14.79936047 71086
KUIPER-00050            
1 64510U 25134L   26277.55806864  .00001896  00000+0  27773-3 0  9999
2 64510  51.9021   6.9395 0000250  80.0117 280.0874 14.79913201 71321
KUIPER-00051            
1 64511U 25134M   26277.58276483  .00001904  00000+0  27874-3 0  9993
2 64511  51.9033  23.0090 0000311 119.8763 240.2230 14.79924259 71096
KUIPER-00053            
1 64513U 25134P   26277.57282910  .00001502  00000+0  21723-3 0  9997
2 64513  51.9037  17.2837 0002062 174.1512 185.9476 14.81672004 71174
KUIPER-00054            
1 64514U 25134Q   26277.58377887  .00000982  00000+0  15785-3 0  9999
2 64514  51.9018  14.3059 0000402 131.1396 228.9601 14.79929622 71218
KUIPER-00055            
1 64515U 25134R   26277.46618026  .00001604  00000+0  23948-3 0  9992
2 64515  51.9029 327.4829 0000596  78.1973 281.9056 14.79914788 71860
KUIPER-00056            
1 64516U 25134S   26277.54463468  .00001083  00000+0  17111-3 0  9996
2 64516  51.9045  19.6023 0000337 146.6671 213.4312 14.79928659 71142
KUIPER-00057            
1 64517U 25134T   26277.60404753 -.00000761  00000+0 -70835-4 0  9993
2 64517  51.9023  26.7487 0000220 134.2227 225.8753 14.79929613 71049
KUIPER-00058            
1 64518U 25134U   26277.57569016  .00000107  00000+0  43023-4 0  9995
2 64518  51.9036  21.8552 0000312 113.5918 246.5078 14.79929736 71116
KUIPER-00059            
1 64519U 25134V   26277.58108655  .00000863  00000+0  14213-3 0  9992
2 64519  51.9007  16.8649 0000317 102.0729 258.0269 14.79933099 71188
KUIPER-00060            
1 64520U 25134W   26277.54733383  .00000043  00000+0  34689-4 0  9992
2 64520  51.9029  17.0961 0000433 106.9296 253.1714 14.79928702 71169
KUIPER-00061            
1 64521U 25134X   26277.57299747  .00002002  00000+0  29150-3 0  9990
2 64521  51.9023  24.4219 0000333 130.7564 229.3427 14.79930877 71065
KUIPER-00062            
1 64522U 25134Y   26277.57028842  .00001964  00000+0  28658-3 0  9995
2 64522  51.8978  26.8719 0000336 124.5084 235.5910 14.79934544 71045
KUIPER-00063            
1 64523U 25134Z   26277.62974584  .00001886  00000+0  27635-3 0  9992
2 64523  51.9043  34.2163 0000341 111.1956 248.9043 14.79936005 70949
KUIPER-00064            
1 64524U 25134AA  26277.49737374  .00001913  00000+0  27986-3 0  9992
2 64524  51.9063  32.2284 0000505 140.6534 219.4466 14.79937182 70966
KUIPER-00065            
1 64525U 25134AB  26277.62706398  .00000814  00000+0  13579-3 0  9992
2 64525  51.9047  36.8313 0000568  99.9775 260.1252 14.79929411 70898
KUIPER-00066            
1 64526U 25134AC  26277.52562512  .00001678  00000+0  24901-3 0  9990
2 64526  51.9037 334.5460 0000348  76.2642 283.8359 14.79929175 71771
KUIPER-00069            
1 64816U 25151A   26277.17872453  .00001609  00000+0  24009-3 0  9993
2 64816  51.9011  78.7166 0000678 118.8638 241.2392 14.79928919 67639
KUIPER-00070            
1 64817U 25151B   26277.25305149  .00001585  00000+0  23694-3 0  9998
2 64817  51.8990 103.2844 0001193 116.5789 243.5295 14.79933221 67300
KUIPER-00071            
1 64818U 25151C   26277.25574817  .00001708  00000+0  25300-3 0  9992
2 64818  51.9005 100.8203 0000660 115.0016 245.1015 14.79933569 66151
KUIPER-00072            
1 64819U 25151D   26277.17601526  .00001507  00000+0  22666-3 0  9991
2 64819  51.8988  81.0899 0000852 116.6691 243.4359 14.79936836 66423
KUIPER-00073            
1 64820U 25151E   26277.22198220  .00001505  00000+0  22634-3 0  9994
2 64820  51.8996 100.9455 0001166 114.6406 245.4678 14.79938062 67334
KUIPER-00075            
1 64822U 25151G   26277.33304048  .00007816  00000+0  20962-3 0  9998
2 64822  51.8644 284.9285 0002630 306.6385  53.4361 15.38931938 68604
KUIPER-00076            
1 64823U 25151H   26276.89511525  .00000891  00000+0  14582-3 0  9996
2 64823  51.9002  92.4154 0000831 125.9493 234.1546 14.79929945 66244
KUIPER-00077            
1 64824U 25151J   26277.22738000  .00001586  00000+0  23695-3 0  9991
2 64824  51.8999  95.9709 0001126 118.6985 241.4091 14.79936088 66226
KUIPER-00078            
1 64825U 25151K   26277.19630302  .00001508  00000+0  22680-3 0  9991
2 64825  51.9004  93.5773 0000971 121.3000 238.8057 14.79934612 66252
KUIPER-00079            
1 64826U 25151L   26277.22467749  .00001547  00000+0  23185-3 0  9993
2 64826  51.8987  98.4052 0001167 115.9981 244.1102 14.79934816 67383
KUIPER-00080            
1 64827U 25151M   26276.24548944  .00001424  00000+0  21571-3 0  9993
2 64827  51.9001 102.7478 0000720 117.7470 242.3565 14.79934686 66040
KUIPER-00082            
1 64828U 25151N   26277.17063814  .00001543  00000+0  23134-3 0  9994
2 64828  51.9036  86.2222 0000857 118.5289 241.5760 14.79930607 66351
KUIPER-00083            
1 64829U 25151P   26277.23007706  .00001654  00000+0  24589-3 0  9998
2 64829  51.9005  93.4404 0001064 119.0208 241.0861 14.79928910 67440
KUIPER-00084            
1 64830U 25151Q   26277.21928463  .00001472  00000+0  22208-3 0  9994
2 64830  51.9006 103.4740 0000742 115.3178 244.7861 14.79932759 66114
KUIPER-00085            
1 64831U 25151R   26277.20440775  .00000293  00000+0  67449-4 0  9996
2 64831  51.9028  86.1332 0000864 117.9552 242.1498 14.79928470 66351
KUIPER-00086            
1 64832U 25151S   26277.19361452  .00001442  00000+0  21813-3 0  9990
2 64832  51.9015  96.1112 0000909 120.4656 239.6396 14.79929484 66218
KUIPER-00087            
1 64833U 25151T   26277.61766563  .00001695  00000+0  25130-3 0  9996
2 64833  51.9006  76.6876 0000672 118.6343 241.4687 14.79937558 66516
KUIPER-00089            
1 64834U 25151U   26277.61226334  .00001575  00000+0  23559-3 0  9994
2 64834  51.9007  81.7395 0000660 126.2191 233.8833 14.79938097 66454
KUIPER-00090            
1 64835U 25151V   26277.62036190  .00000829  00000+0  13779-3 0  9999
2 64835  51.8992  74.1955 0000830 131.7340 228.3693 14.79931767 66552
KUIPER-00091            
1 64836U 25151W   26277.61497171  .00001702  00000+0  25220-3 0  9994
2 64836  51.9009  79.2503 0000882 130.7023 229.4016 14.79927687 66481
KUIPER-00092            
1 64837U 25151X   26277.20170552  .00001665  00000+0  24740-3 0  9995
2 64837  51.9004  88.5655 0000843 119.4887 240.6160 14.79936912 67530
KUIPER-00093            
1 64838U 25151Y   26277.19900199  .00001474  00000+0  22224-3 0  9995
2 64838  51.9003  91.0459 0000858 125.1622 234.9421 14.79936772 66289
KUIPER-00094            
1 64839U 25151Z   26277.58519728  .00002005  00000+0  29197-3 0  9990
2 64839  51.9052  44.4591 0000697 145.1766 214.9242 14.79936835 66970
KUIPER-00081            
1 65132U 25171A   26277.38915430  .00001576  00000+0  23559-3 0  9995
2 65132  51.9010 305.2040 0000447  46.4738 313.6262 14.79939815 63947
KUIPER-00088            
1 65133U 25171B   26277.43781323  .00001632  00000+0  24301-3 0  9993
2 65133  51.9019 322.4887 0000341  61.7179 298.3818 14.79934061 63707
KUIPER-00095            
1 65134U 25171C   26277.32432497  .00001410  00000+0  21392-3 0  9998
2 65134  51.8994 303.0241 0000505  84.6674 275.4346 14.79930492 63968
KUIPER-00096            
1 65135U 25171D   26277.41214054  .00001652  00000+0  24572-3 0  9997
2 65135  51.9001 315.0946 0000355  59.9530 300.1467 14.79927365 63801
KUIPER-00097            
1 65136U 25171E   26277.47699457  .00000212  00000+0  56762-4 0  9996
2 65136  51.9022 317.4815 0000338  70.5349 289.5650 14.79930123 63769
KUIPER-00098            
1 65137U 25171F   26277.40674722  .00001487  00000+0  22402-3 0  9996
2 65137  51.9016 320.1498 0000534  61.9301 298.1715 14.79933554 63074
KUIPER-00099            
1 65138U 25171G   26277.31624823 -.00000002  00000+0  28723-4 0  9990
2 65138  51.9043 310.5686 0000330  47.3196 312.7794 14.79929860 63852
KUIPER-00100            
1 65139U 25171H   26277.35270193  .00001456  00000+0  21988-3 0  9990
2 65139  51.9024 307.8702 0000414  52.3162 307.7837 14.79937095 63897
KUIPER-00102            
1 65140U 25171J   26277.41752284  .00001529  00000+0  22954-3 0  9990
2 65140  51.8989 310.0465 0000376   6.2960 353.8007 14.79938665 63863
KUIPER-00103            
1 65141U 25171K   26277.43242708  .00001609  00000+0  23996-3 0  9994
2 65141  51.9003 327.4854 0000333  51.3555 308.7438 14.79931342 63626
KUIPER-00104            
1 65142U 25171L   26277.37837269  .00001513  00000+0  22735-3 0  9994
2 65142  51.9035 315.2474 0000357  49.1813 310.9180 14.79939089 63796
KUIPER-00105            
1 65143U 25171M   26277.40406779  .00001530  00000+0  22968-3 0  9994
2 65143  51.9019 322.7241 0000331  58.7138 301.3857 14.79932030 63695
KUIPER-00106            
1 65144U 25171N   26277.31724834  .00001397  00000+0  21217-3 0  9997
2 65144  51.9022 301.8774 0000450  51.3832 308.7171 14.79938553 63989
KUIPER-00107            
1 65145U 25171P   26277.28787353  .00001501  00000+0  22589-3 0  9999
2 65145  51.9016 305.6796 0000494  65.3973 294.7041 14.79936679 63929
KUIPER-00108            
1 65146U 25171Q   26277.37569581  .00001530  00000+0  22971-3 0  9998
2 65146  51.9035 317.8414 0000350  50.3659 309.7334 14.79928410 63767
KUIPER-00109            
1 65147U 25171R   26277.41484510  .00001474  00000+0  22239-3 0  9996
2 65147  51.9034 312.6100 0000407  52.2538 307.8461 14.79927780 63839
KUIPER-00110            
1 65148U 25171S   26277.43512796  .00001594  00000+0  23800-3 0  9995
2 65148  51.9011 325.0615 0000287  70.4915 289.6078 14.79929776 63659
KUIPER-00111            
1 65149U 25171T   26277.39594478  .00001587  00000+0  23710-3 0  9990
2 65149  51.8988 330.0915 0000378  36.4240 323.6748 14.79925812 63587
KUIPER-00112            
1 65150U 25171U   26277.38108188  .00000076  00000+0  38936-4 0  9999
2 65150  51.9015 312.8019 0000375  53.0979 307.0017 14.79929311 63825
KUIPER-00114            
1 65151U 25171V   26277.46079788  .00000121  00000+0  44890-4 0  9999
2 65151  51.9008 332.4045 0000331  47.5672 312.5319 14.79928958 63557
KUIPER-00115            
1 65152U 25171W   26277.40136629  .00001545  00000+0  23160-3 0  9999
2 65152  51.9024 325.1789 0000348  65.2448 294.8551 14.79927171 63653
KUIPER-00116            
1 65153U 25171X   26277.42973835  .00001594  00000+0  23809-3 0  9994
2 65153  51.9014 330.0835 0000379  71.4622 288.6382 14.79928639 63582
KUIPER-00118            
1 65154U 25171Y   26277.42701815  .00001569  00000+0  23478-3 0  9996
2 65154  51.9018 332.5429 0000332  69.8555 290.2443 14.79934695 63551
KUIPER-00119            
1 65155U 25171Z   26277.37300235  .00001508  00000+0  22681-3 0  9990
2 65155  51.9023 320.3865 0000363  68.2584 291.8417 14.79930421 63715
KUIPER-00120            
1 65762U 25217A   26277.54227941  .00002026  00000+0  29476-3 0  9991
2 65762  51.8993 209.4989 0000911  76.5255 283.5809 14.79930321 55661
KUIPER-00132            
1 65763U 25217B   26277.60344764  .00032350  00000+0  81120-3 0  9999
2 65763  51.8512  66.9824 0005441   0.6609 359.4385 15.39733094 57644
KUIPER-00133            
1 65764U 25217C   26277.50852688  .00001056  00000+0  16751-3 0  9995
2 65764  51.9057 209.7944 0000897  75.8812 284.2250 14.79935573 55665
KUIPER-00139            
1 65765U 25217D   26277.13839835 -.00000230  00000+0 -11320-5 0  9998
2 65765  51.8979 178.8481 0001244  84.9304 275.1800 14.79926388 56063
KUIPER-00142            
1 65766U 25217E   26277.49362945  .00001922  00000+0  28103-3 0  9993
2 65766  51.8991 192.2459 0001016  84.4796 275.6283 14.79930412 55905
KUIPER-00145            
1 65767U 25217F   26277.49093538  .00000133  00000+0  46510-4 0  9999
2 65767  51.8974 194.7840 0001135  82.3674 277.7418 14.79932275 55869
KUIPER-00147            
1 65768U 25217G   26277.52197201  .00002061  00000+0  29941-3 0  9996
2 65768  51.8989 197.1173 0001171  75.3189 284.7903 14.79920281 55833
KUIPER-00148            
1 65769U 25217H   26277.47335052  .00000209  00000+0  56389-4 0  9998
2 65769  51.9045 179.8939 0000946  94.3228 265.7842 14.79931524 56079
KUIPER-00150            
1 65770U 25217J   26277.51121444  .00001023  00000+0  16312-3 0  9999
2 65770  51.9018 207.2174 0000848  81.5132 278.5927 14.79934856 55695
KUIPER-00151            
1 65771U 25217K   26277.51929538  .00002055  00000+0  29847-3 0  9993
2 65771  51.9013 199.6806 0000763  92.0168 268.0882 14.79927457 55805
KUIPER-00152            
1 65772U 25217L   26277.16136718  .00001879  00000+0  27541-3 0  9997
2 65772  51.9005 188.7419 0001155  78.9899 281.1193 14.79938900 55925
KUIPER-00153            
1 65773U 25217M   26277.43689648  .00001900  00000+0  27814-3 0  9991
2 65773  51.9028 182.6146 0001059  94.8355 265.2729 14.79933633 56037
KUIPER-00155            
1 65774U 25217N   26277.39902656  .00001642  00000+0  24435-3 0  9993
2 65774  51.9021 155.2453 0000927  99.8664 260.2403 14.79929737 56415
KUIPER-00156            
1 65775U 25217P   26277.47066306  .00001928  00000+0  28186-3 0  9990
2 65775  51.9026 182.4492 0000989  90.7648 269.3427 14.79932966 56038
KUIPER-00165            
1 65778U 25217S   26277.45986204  .00001957  00000+0  28565-3 0  9992
2 65778  51.9017 192.4239 0000700  92.7012 267.4030 14.79936364 55897
KUIPER-00166            
1 65779U 25217T   26277.43959062  .00000947  00000+0  15324-3 0  9990
2 65779  51.9029 180.0798 0000893  96.7327 263.3737 14.79929532 56068
KUIPER-00167            
1 65780U 25217U   26277.51658538  .00001974  00000+0  28780-3 0  9996
2 65780  51.8960 202.0472 0001166  76.3771 283.7321 14.79935903 55768
KUIPER-00168            
1 65781U 25217V   26277.46795103  .00001947  00000+0  28439-3 0  9992
2 65781  51.9013 184.8946 0000874 100.6668 259.4393 14.79931596 56004
KUIPER-00169            
1 65782U 25217W   26277.46255884  .00000962  00000+0  15520-3 0  9993
2 65782  51.9019 189.9323 0000794  88.0633 272.0421 14.79934343 55935
KUIPER-00170            
1 65783U 25217X   26277.18704822 -.00000201  00000+0  26964-5 0  9997
2 65783  51.8988 196.0884 0000993  87.7289 272.3787 14.79926956 55822
KUIPER-00172            
1 65785U 25217Z   26277.44227718  .00001857  00000+0  27249-3 0  9994
2 65785  51.8995 177.4939 0001325  82.8642 277.2471 14.79933661 56102
KUIPER-00173            
1 65786U 25217AA  26277.49632682  .00000371  00000+0  77687-4 0  9992
2 65786  51.9002 189.7732 0001220  77.9675 282.1424 14.79928937 55938
KUIPER-00174            
1 65787U 25217AB  26277.43419712  .00001661  00000+0  24693-3 0  9995
2 65787  51.9015 185.1164 0001154  92.2686 267.8409 14.79919079 55996
KUIPER-00176            
1 65788U 25217AC  26277.48553710  .00000819  00000+0  13651-3 0  9994
2 65788  51.8999 199.7994 0000996  80.4517 279.6558 14.79930592 55791
KUIPER-00101            
1 65947U 25228A   26277.02488268 -.00000331  00000+0 -14442-4 0  9999
2 65947  51.8981 159.2783 0001220  83.0534 277.0567 14.79920557 54088
KUIPER-00113            
1 65948U 25228B   26277.06405996  .00001472  00000+0  22215-3 0  9992
2 65948  51.8988 154.1279 0001068  99.8480 260.2603 14.79926184 54150
KUIPER-00117            
1 65949U 25228C   26277.36524891  .00000361  00000+0  76359-4 0  9997
2 65949  51.8978 155.2948 0001126  96.9728 263.1362 14.79930743 54164
KUIPER-00121            
1 65950U 25228D   26277.33687013  .00001685  00000+0  24993-3 0  9998
2 65950  51.8993 150.4452 0001100 100.5171 259.5916 14.79938181 54232
KUIPER-00122            
1 65951U 25228E   26277.39360459  .00002184  00000+0  31540-3 0  9998
2 65951  51.9006 160.1613 0001250  97.7541 262.3563 14.79940410 54104
KUIPER-00123            
1 65952U 25228F   26277.08973426  .00001733  00000+0  25622-3 0  9992
2 65952  51.8981 161.5129 0001105  93.4379 266.6709 14.79935897 54050
KUIPER-00124            
1 65953U 25228G   26277.03029426  .00000598  00000+0  10744-3 0  9997
2 65953  51.8987 154.2668 0001337  93.7312 266.3803 14.79927381 54153
KUIPER-00125            
1 65954U 25228H   26277.31660221  .00001510  00000+0  22716-3 0  9990
2 65954  51.8995 138.0570 0001226 106.9299 253.1797 14.79925192 54405
KUIPER-00126            
1 65955U 25228J   26277.39632199  .00001192  00000+0  18533-3 0  9990
2 65955  51.8985 157.6824 0000958 100.1875 259.9195 14.79926650 54137
KUIPER-00127            
1 65956U 25228K   26277.38752021  .00001655  00000+0  24610-3 0  9994
2 65956  51.9007 150.2047 0001178  93.2997 266.8100 14.79934081 54244
KUIPER-00128            
1 65957U 25228L   26277.37065407  .00000729  00000+0  12470-3 0  9991
2 65957  51.8996 150.3462 0001044 101.1381 258.9698 14.79929262 54239
KUIPER-00129            
1 65958U 25228M   26277.00462726  .00001547  00000+0  23194-3 0  9991
2 65958  51.9013 146.9426 0001015  93.2063 266.9016 14.79929955 54252
KUIPER-00130            
1 65959U 25228N   26277.37334970  .00000008  00000+0  30047-4 0  9998
2 65959  51.9028 147.8627 0000996 100.1334 259.9740 14.79929914 44562
KUIPER-00134            
1 65960U 25228P   26277.56606020  .00020406  00000+0  54459-3 0  9995
2 65960  51.8715  26.5565 0004532 333.7993  26.2764 15.38091270 55974
KUIPER-00135            
1 65961U 25228Q   26277.33959092  .00000334  00000+0  72813-4 0  9994
2 65961  51.9021 148.0608 0000970 101.8287 258.2784 14.79928720 54269
KUIPER-00136            
1 65962U 25228R   26277.03838869  .00001589  00000+0  23741-3 0  9998
2 65962  51.9006 146.8367 0001133  93.2852 266.8240 14.79924611 54251
KUIPER-00137            
1 65963U 25228S   26277.04109491  .00001527  00000+0  22933-3 0  9996
2 65963  51.9032 144.3398 0001214  90.6703 269.4399 14.79931423 54291
KUIPER-00138            
1 65964U 25228T   26277.34765819  .00000844  00000+0  13968-3 0  9991
2 65964  51.8976 140.3734 0001161 101.1393 258.9700 14.79935148 54378
KUIPER-00140            
1 65965U 25228U   26277.34497916  .00000575  00000+0  10442-3 0  9997
2 65965  51.8977 142.9813 0001303 101.5870 258.5239 14.79930469 54338
KUIPER-00141            
1 65966U 25228V   26277.01272689  .00001492  00000+0  22471-3 0  9994
2 65966  51.9021 139.5326 0000839 108.5177 251.5877 14.79932896 54350
KUIPER-00146            
1 65967U 25228W   26277.31385538  .00001454  00000+0  21965-3 0  9991
2 65967  51.9035 140.7134 0001250  99.9557 260.1547 14.79954417 54364
KUIPER-00149            
1 65968U 25228X   26277.35305715  .00001562  00000+0  23387-3 0  9995
2 65968  51.9004 135.4105 0001023 104.2000 255.9077 14.79933657 54443
KUIPER-00154            
1 65969U 25228Y   26277.32198948  .00001562  00000+0  23386-3 0  9990
2 65969  51.8989 133.0301 0001096 104.8249 255.2835 14.79932705 54479
KUIPER-00157            
1 65970U 25228Z   26277.58304984  .00001331  00000+0  22362-3 0  9996
2 65970  51.9009 134.4675 0000920  93.8178 266.2888 14.75735141 54478
KUIPER-00144            
1 67133U 25301A   26277.10065161  .00000177  00000+0  52250-4 0  9997
2 67133  51.9005 214.0334 0001037  76.1003 284.0075 14.79928099 44739
KUIPER-00164            
1 67134U 25301B   26277.55986168  .00001973  00000+0  28777-3 0  9997
2 67134  51.9037 224.5259 0000786  63.8172 296.2871 14.79931182 44801
KUIPER-00175            
1 67135U 25301C   26277.54497258  .00001418  00000+0  21495-3 0  9998
2 67135  51.9011 207.0192 0000949  61.8780 298.2278 14.79937973 44942
KUIPER-00179            
1 67136U 25301D   26277.56256057  .00002010  00000+0  29253-3 0  9990
2 67136  51.8985 221.9370 0000906  70.9117 289.1943 14.79936698 44843
KUIPER-00181            
1 67137U 25301E   26277.14390290  .00001783  00000+0  26279-3 0  9994
2 67137  51.9024 236.3603 0000937  51.8959 308.2088 14.79939800 44586
KUIPER-00183            
1 67138U 25301F   26277.07497223  .00001830  00000+0  26906-3 0  9991
2 67138  51.9027 206.6701 0000962  73.9046 286.2022 14.79932438 45000
KUIPER-00184            
1 67139U 25301G   26277.53419079  .00002129  00000+0  30822-3 0  9990
2 67139  51.9000 217.0754 0000899  74.0018 286.1043 14.79935856 45005
KUIPER-00186            
1 67140U 25301H   26277.58281978  .00005014  00000+0  68588-3 0  9998
2 67140  51.8981 234.4295 0000531  37.7659 322.3340 14.79956265 44499
KUIPER-00187            
1 67141U 25301J   26277.58014579  .00000957  00000+0  15451-3 0  9992
2 67141  51.9025 236.9695 0000830  87.3438 272.7620 14.79925839 44457
KUIPER-00188            
1 67142U 25301K   26277.51392326 -.00000331  00000+0 -14450-4 0  9992
2 67142  51.9030 204.8467 0000990  71.0285 289.0784 14.79941082 44890
KUIPER-00191            
1 67143U 25301L   26277.55448020  .00002086  00000+0  30257-3 0  9999
2 67143  51.9011 229.5527 0000836  62.4291 297.6756 14.79937017 44584
KUIPER-00196            
1 67144U 25301M   26277.46524989  .00001307  00000+0  20045-3 0  9998
2 67144  51.8986 187.3944 0001026  86.6963 273.4117 14.79931893 45136
KUIPER-00204            
1 67145U 25301N   26277.48283580  .00002034  00000+0  29580-3 0  9991
2 67145  51.9028 202.3590 0000833  81.2949 278.8108 14.79927584 45041
KUIPER-00210            
1 67146U 25301P   26277.58798252 -.00003800  00000+0 -47007-3 0  9998
2 67146  51.8963 229.3442 0001057  86.4452 273.6631 14.79905010 44738
KUIPER-00221            
1 67147U 25301Q   26277.27627117  .00000599  00000+0  10763-3 0  9995
2 67147  51.9015 238.2668 0000755  88.5461 271.5588 14.79929656 44419
KUIPER-00232            
1 67148U 25301R   26277.12362760  .00001871  00000+0  27442-3 0  9996
2 67148  51.9000 223.9470 0000804  74.0387 286.0664 14.79925239 44596
KUIPER-00241            
1 67149U 25301S   26277.14660888  .00000241  00000+0  60580-4 0  9992
2 67149  51.9024 233.8745 0001133  71.1848 288.9237 14.79928321 44798
KUIPER-00245            
1 67150U 25301T   26277.61122728  .00001995  00000+0  29056-3 0  9991
2 67150  51.9028 239.3296 0000751  72.0875 288.0170 14.79936531 44420
KUIPER-00246            
1 67151U 25301U   26277.59362821  .00002041  00000+0  29668-3 0  9991
2 67151  51.9000 224.3390 0000921  67.0970 293.0090 14.79937461 44654
KUIPER-00247            
1 67152U 25301V   26277.53688586  .00001299  00000+0  19942-3 0  9993
2 67152  51.8958 214.5287 0000895  76.6840 283.4222 14.79931842 44763
KUIPER-00248            
1 67153U 25301W   26277.48824481  .00000851  00000+0  14062-3 0  9995
2 67153  51.8999 197.3931 0000960  81.1221 278.9850 14.79934035 45168
KUIPER-00249            
1 67154U 25301X   26277.53959472  .00001988  00000+0  28978-3 0  9994
2 67154  51.8999 212.1009 0000974  69.2961 290.8105 14.79927014 44797
KUIPER-00250            
1 67155U 25301Y   26277.55716584  .00001433  00000+0  21688-3 0  9998
2 67155  51.9007 226.9743 0000902  65.0482 295.0574 14.79938300 44629
KUIPER-00251            
1 67156U 25301Z   26277.57066734  .00000410  00000+0  82866-4 0  9996
2 67156  51.9005 214.4941 0001056  67.3693 292.7381 14.79930105 44951
KUIPER-00252            
1 67157U 25301AA  26277.56795284  .00002074  00000+0  30094-3 0  9998
2 67157  51.9006 216.9559 0000850  77.7503 282.3555 14.79938305 44735
KUIPER-00261            
1 67158U 25301AB  26277.59094644  .00000370  00000+0  77491-4 0  9994
2 67158  51.8992 226.9227 0000945  74.3639 285.7428 14.79927512 44598
KUIPER-00265            
1 67159U 25301AC  26277.60852444 -.00000159  00000+0  82060-5 0  9992
2 67159  51.9036 241.8206 0000719  79.8109 280.2935 14.79933080 44425
KUIPER-00159            
1 67764U 26030A   26277.41385317  .00001606  00000+0  23974-3 0  9997
2 67764  51.9019 321.4200 0001498   0.5208 359.5756 14.79927864 36765
KUIPER-00160            
1 67765U 26030B   26277.27369132 -.00000277  00000+0 -73671-5 0  9995
2 67765  51.8984 303.2860 0000169  95.7808 264.3173 14.79928351 37008
KUIPER-00177            
1 67766U 26030C   26277.55541706  .00000976  00000+0  15705-3 0  9992
2 67766  51.9032   9.5242 0000545 103.2653 256.8370 14.79931214 36102
KUIPER-00178            
1 67767U 26030D   26277.52165081  .00002000  00000+0  29131-3 0  9996
2 67767  51.9027   9.6534 0000350  94.1203 265.9799 14.79929827 36108
KUIPER-00180            
1 67768U 26030E   26277.52703032  .00001757  00000+0  25938-3 0  9990
2 67768  51.8993   4.6185 0000697 107.1875 252.9164 14.79940928 36175
KUIPER-00197            
1 67769U 26030F   26277.48108509  .00001610  00000+0  24015-3 0  9997
2 67769  51.9017 344.8416 0000191  56.4831 303.6149 14.79932591 36441
KUIPER-00198            
1 67770U 26030G   26277.50136463  .00001802  00000+0  26525-3 0  9993
2 67770  51.9003 357.2224 0000181  90.5645 269.5338 14.79934683 36279
KUIPER-00199            
1 67771U 26030H   26277.58335648 -.00027651  00000+0 -30865-2 0  9991
2 67771  51.8994 295.9079 0013261  77.9503 254.5319 14.86357793  5121
KUIPER-00200            
1 67772U 26030J   26277.45002345  .00000038  00000+0  34042-4 0  9994
2 67772  51.8995 342.4950 0000282  74.9332 285.1661 14.79928134 36472
KUIPER-00203            
1 67773U 26030K   26277.55003333  .00000202  00000+0  55477-4 0  9992
2 67773  51.9081  14.6373 0000398 117.0629 243.0374 14.79927787 36032
KUIPER-00205            
1 67774U 26030L   26277.45271317  .00001650  00000+0  24541-3 0  9996
2 67774  51.9020 339.9520 0000327  68.6263 291.4734 14.79933070 36512
KUIPER-00208            
1 67775U 26030M   26277.52434212  .00000716  00000+0  12287-3 0  9996
2 67775  51.8970   7.1251 0000734 132.5271 227.5753 14.79930823 36135
KUIPER-00209            
1 67776U 26030N   26277.49328593  .00000892  00000+0  14593-3 0  9994
2 67776  51.9024   4.8697 0000268 117.8335 242.2654 14.79930447 36163
KUIPER-00213            
1 67777U 26030P   26277.52973611  .00001874  00000+0  27472-3 0  9997
2 67777  51.8984   2.1586 0000226  87.0659 273.0329 14.79937095 36209
KUIPER-00214            
1 67778U 26030Q   26277.49867877  .00000899  00000+0  14691-3 0  9995
2 67778  51.9006 359.8390 0000433  93.4870 266.6142 14.79930121 36234
KUIPER-00215            
1 67779U 26030R   26277.47838090  .00001688  00000+0  25036-3 0  9991
2 67779  51.8997 347.2797 0000275  76.5372 283.5621 14.79932894 36417
KUIPER-00218            
1 67780U 26030S   26277.49595807 -.00000048  00000+0  22643-4 0  9993
2 67780  51.8968   2.2382 0000139  78.1140 281.9838 14.79926938 36206
KUIPER-00220            
1 67781U 26030T   26277.52294028  .00000345  00000+0  74207-4 0  9991
2 67781  51.8970 337.1417 0000378  71.9880 288.1124 14.79928990 36551
KUIPER-00222            
1 67782U 26030U   26277.53514654  .00001893  00000+0  27726-3 0  9995
2 67782  51.9006 357.2291 0000215 112.0960 248.0026 14.79929701 36278
KUIPER-00223            
1 67783U 26030V   26277.50943635  .00001809  00000+0  26625-3 0  9992
2 67783  51.9032 349.6577 0000313  70.2409 289.8587 14.79934783 36385
KUIPER-00225            
1 67784U 26030W   26277.57160449  .00001808  00000+0  26604-3 0  9990
2 67784  51.9006 354.5248 0000312  75.9202 284.1795 14.79934299 36313
KUIPER-00226            
1 67785U 26030X   26277.48376171  .00001703  00000+0  25230-3 0  9990
2 67785  51.9012 342.2976 0000852  53.9946 306.1096 14.79935276 36486
KUIPER-00259            
1 67786U 26030Y   26277.47029839  .00001730  00000+0  25592-3 0  9997
2 67786  51.9003 354.8741 0000214  65.2297 294.8687 14.79929482 36305
KUIPER-00260            
1 67787U 26030Z   26277.47300669  .00001819  00000+0  26745-3 0  9990
2 67787  51.9030 352.4773 0000159  96.8206 263.2775 14.79935091 36247
KUIPER-00262            
1 67788U 26030AA  26277.57428692  .00001889  00000+0  27668-3 0  9991
2 67788  51.9021 351.9459 0000153  96.1058 263.9921 14.79930001 36353
KUIPER-00266            
1 67789U 26030AB  26277.40816670  .00001720  00000+0  25464-3 0  9997
2 67789  51.9021 350.1708 0000317  94.3518 265.7481 14.79928452 36364
KUIPER-00268            
1 67790U 26030AC  26277.51216194  .00000071  00000+0  38246-4 0  9997
2 67790  51.9057 347.2609 0000137  96.3547 263.7431 14.79929647 36412
KUIPER-00270            
1 67791U 26030AD  26277.35411091  .00001607  00000+0  23976-3 0  9992
2 67791  51.9010 337.8998 0000315  69.2445 290.8551 14.79938110 36534
KUIPER-00274            
1 67792U 26030AE  26277.53244195  .00000719  00000+0  12329-3 0  9995
2 67792  51.9044 359.6316 0000369  99.6792 260.4212 14.79932500 36241
KUIPER-00275            
1 67793U 26030AF  26277.48647416  .00001660  00000+0  24665-3 0  9995
2 67793  51.9018 339.8268 0000142  55.8475 304.2501 14.79936764 36514
KUIPER-00276            
1 67794U 26030AG  26277.44732473  .00001667  00000+0  24769-3 0  9992
2 67794  51.9002 344.9742 0000336  69.0427 291.0571 14.79927780 36441
KUIPER-00279            
1 67795U 26030AH  26277.42434882  .00001655  00000+0  24604-3 0  9999
2 67795  51.9045 335.1325 0000263  65.5407 294.5583 14.79928523 36577
KUIPER-00131            
1 68573U 26072A   26277.62306403  .00000341  00000+0  73694-4 0  9994
2 68573  51.9013  71.7263 0000648 132.0917 228.0101 14.79931540 27328
KUIPER-00189            
1 68574U 26072B   26277.58658583  .00001604  00000+0  23944-3 0  9994
2 68574  51.8996  74.3613 0000472  90.0924 270.0093 14.79927450 27289
KUIPER-00192            
1 68575U 26072C   26277.62576296  .00001751  00000+0  25865-3 0  9997
2 68575  51.9009  69.2081 0000806 125.7637 234.3401 14.79927720 27361
KUIPER-00193            
1 68576U 26072D   26277.56901744  .00001847  00000+0  27131-3 0  9995
2 68576  51.9068  59.5147 0000645 135.0365 225.0650 14.79925606 27493
KUIPER-00194            
1 68577U 26072E   26277.59469547  .00001715  00000+0  25390-3 0  9998
2 68577  51.9037  66.8748 0000670 128.3539 231.7484 14.79939122 27390
KUIPER-00229            
1 68578U 26072F   26277.58929937  .00001638  00000+0  24379-3 0  9992
2 68578  51.9024  71.8783 0000567 122.5621 237.5397 14.79936045 27326
KUIPER-00230            
1 68579U 26072G   26276.02099459  .00001031  00000+0  17687-3 0  9999
2 68579  51.9062  26.2643 0000856 110.6976 249.4077 14.76578527 27826
KUIPER-00231            
1 68580U 26072H   26277.61896619  .00000033  00000+0  33315-4 0  9998
2 68580  51.8944  44.3111 0001526 156.8793 203.2238 14.79930597 27707
KUIPER-00234            
1 68581U 26072J   26277.15574404  .00001754  00000+0  25899-3 0  9991
2 68581  51.9001  68.7769 0001037 126.4860 233.6198 14.79933329 27323
KUIPER-00236            
1 68582U 26072K   26277.47442005  .00001377  00000+0  20966-3 0  9999
2 68582  51.9062  22.3852 0000881 121.0290 239.0759 14.79923039 28000
KUIPER-00244            
1 68583U 26072L   26277.60547606  .00001734  00000+0  25642-3 0  9991
2 68583  51.9005  56.8114 0000684 130.0039 230.0983 14.79937875 27533
KUIPER-00253            
1 68584U 26072M   26277.60278760  .00000593  00000+0  10675-3 0  9996
2 68584  51.9031  59.3566 0000847 128.6785 231.4253 14.79931855 27496
KUIPER-00254            
1 68585U 26072N   26277.56631207  .00001871  00000+0  27442-3 0  9991
2 68585  51.9040  62.0130 0000789 126.2438 233.8598 14.79934012 27451
KUIPER-00263            
1 68586U 26072P   26277.58250937  .00001504  00000+0  22632-3 0  9990
2 68586  51.9031  47.0067 0000553 115.5442 244.5577 14.79928218 27669
KUIPER-00269            
1 68587U 26072Q   26277.57980264  .00001862  00000+0  27324-3 0  9993
2 68587  51.9014  49.4229 0000647 134.8138 225.2877 14.79931592 27632
KUIPER-00272            
1 68588U 26072R   26277.59199039  .00000226  00000+0  58596-4 0  9997
2 68588  51.8982  69.3333 0000800 124.3629 235.7409 14.79931190 27353
KUIPER-00285            
1 68589U 26072S   26277.61357294  .00001917  00000+0  28046-3 0  9994
2 68589  51.9060  49.3637 0001096 119.1302 240.9770 14.79935389 27639
KUIPER-00286            
1 68590U 26072T   26277.61626889  .00000034  00000+0  33528-4 0  9996
2 68590  51.9028  46.7753 0000516  97.3030 262.7991 14.79928753 27674
KUIPER-00289            
1 68591U 26072U   26277.60816767  .00001895  00000+0  27743-3 0  9999
2 68591  51.8997  54.2820 0000692 141.4368 218.6644 14.79939503 27566
KUIPER-00290            
1 68592U 26072V   26277.57441490  .00001907  00000+0  27907-3 0  9999
2 68592  51.9038  54.4465 0000517 141.8885 218.2114 14.79934795 27561
KUIPER-00293            
1 68593U 26072W   26277.59738554  .00001807  00000+0  26602-3 0  9992
2 68593  51.8986  64.3078 0001617 100.3574 259.7571 14.79939131 27421
KUIPER-00294            
1 68594U 26072X   26277.61086918  .00000209  00000+0  56442-4 0  9997
2 68594  51.9003  51.7745 0000390 114.7149 245.3854 14.79928421 27603
KUIPER-00296            
1 68595U 26072Y   26277.59598541  .00000527  00000+0  98145-4 0  9994
2 68595  51.9019  34.3605 0000533 119.7391 240.3624 14.79930453 27840
KUIPER-00297            
1 68596U 26072Z   26277.56362055  .00000406  00000+0  82255-4 0  9992
2 68596  51.9009  64.4608 0001013 134.0939 226.0106 14.79931571 27421
KUIPER-00300            
1 68597U 26072AA  26277.60008533  .00001817  00000+0  26729-3 0  9996
2 68597  51.9052  61.8402 0000600 122.7977 237.3043 14.79933359 27465
KUIPER-00301            
1 68598U 26072AB  26277.58573897  .00001294  00000+0  21445-3 0  9993
2 68598  51.9042  31.7797 0001772 249.8594 110.2176 14.76523201 27874
KUIPER-00304            
1 68599U 26072AC  26277.61442592  .00001195  00000+0  19989-3 0  9995
2 68599  51.9016  33.5904 0000776  52.8902 307.2130 14.76637519 27858
KUIPER-00317            
1 68600U 26072AD  26277.57710312  .00000205  00000+0  55942-4 0  9992
2 68600  51.8988  51.9257 0000386 112.8949 247.2054 14.79927157 27590
KUIPER-00320            
1 68601U 26072AE  26277.57169434  .00004095  00000+0  56573-3 0  9997
2 68601  51.9035  56.9734 0000627 112.5923 247.5106 14.79944279 27525
KUIPER-00299            
1 68864U 26095A   26277.32738091  .00001512  00000+0  22727-3 0  9992
2 68864  51.8988 128.0128 0001024 114.7685 245.3384 14.79938318 23775
KUIPER-00353            
1 68865U 26095B   26277.24226447  .00001333  00000+0  20383-3 0  9998
2 68865  51.9002 113.4166 0000876 111.9040 248.2016 14.79939444 23979
KUIPER-00357            
1 68866U 26095C   26277.26795281  .00001460  00000+0  22053-3 0  9995
2 68866  51.9009 120.8156 0001362 100.5181 259.5935 14.79932336 23876
KUIPER-00364            
1 68867U 26095D   26277.29902339  .00001568  00000+0  23459-3 0  9993
2 68867  51.9019 123.2060 0001231  99.9432 260.1670 14.79933640 23844
KUIPER-00375            
1 68868U 26095E   26277.27334654  .00001533  00000+0  23005-3 0  9990
2 68868  51.8999 115.7875 0000996 112.3067 247.8001 14.79927243 23945
KUIPER-00433            
1 68869U 26095F   26277.32469733 -.00000138  00000+0  10962-4 0  9994
2 68869  51.8993 130.5543 0001493  99.7641 260.3490 14.79927664 23743
KUIPER-00437            
1 68870U 26095G   26277.58335648 -.00025312  00000+0 -35719-2 0  9998
2 68870  51.9014  81.3923 0000752 101.5165 189.1421 14.76642764  4513
KUIPER-00448            
1 68871U 26095H   26277.30171478 -.00000359  00000+0 -18060-4 0  9994
2 68871  51.9036 120.6655 0001106 116.4089 243.6987 14.79930554 23874
KUIPER-00459            
1 68872U 26095J   26276.94378706  .00001484  00000+0  22363-3 0  9995
2 68872  51.9015 109.8086 0000884 115.5708 244.5346 14.79938005 23990
KUIPER-00468            
1 68873U 26095K   26277.24682757  .00001219  00000+0  20323-3 0  9994
2 68873  51.8963 106.3199 0000451 182.5999 177.4959 14.76638716 24072
KUIPER-00476            
1 68874U 26095L   26277.16793534  .00001527  00000+0  22934-3 0  9994
2 68874  51.9012  88.6677 0000878 126.6195 233.4848 14.79930928 24312
KUIPER-00478            
1 68875U 26095M   26277.27872649  .00001564  00000+0  23413-3 0  9996
2 68875  51.8991 110.7584 0001003 112.2207 247.8862 14.79940341 24010
KUIPER-00480            
1 68876U 26095N   26277.24766832  .00001401  00000+0  21277-3 0  9996
2 68876  51.9040 108.4172 0000769 114.7584 245.3458 14.79935999 24047
KUIPER-00482            
1 68877U 26095P   26277.30438220  .00001540  00000+0  23105-3 0  9997
2 68877  51.9005 118.1488 0001383  99.4356 260.6763 14.79928156 23917
KUIPER-00483            
1 68878U 26095Q   26277.29092258  .00001385  00000+0  21063-3 0  9991
2 68878  51.8999 130.6693 0001643  66.7373 293.3762 14.79933376 23733
KUIPER-00488            
1 68879U 26095R   26277.27604236  .00001505  00000+0  22638-3 0  9998
2 68879  51.8987 113.2794 0001232 111.3431 248.7663 14.79933485 23977
KUIPER-00489            
1 68880U 26095S   26277.21659627  .00001493  00000+0  22478-3 0  9996
2 68880  51.8962 106.0172 0001332 117.8032 242.3066 14.79937253 24077
KUIPER-00499            
1 68881U 26095T   26277.24495938  .00000934  00000+0  15155-3 0  9996
2 68881  51.8980 110.9563 0000678 112.5781 247.5254 14.79934646 24003
KUIPER-00500            
1 68882U 26095U   26277.29361319  .00001512  00000+0  22727-3 0  9993
2 68882  51.9004 128.1960 0000926 110.1370 249.9692 14.79934504 23776
KUIPER-00502            
1 68883U 26095V   26276.97313279  .00001551  00000+0  23251-3 0  9996
2 68883  51.9000 105.8629 0001064 111.0885 249.0192 14.79927589 24055
KUIPER-00503            
1 68884U 26095W   26276.99243351  .00001424  00000+0  21582-3 0  9996
2 68884  51.8974 126.9948 0001072 108.3001 251.8078 14.79925417 23760
KUIPER-00504            
1 68885U 26095X   26277.28823211  .00001625  00000+0  24215-3 0  9998
2 68885  51.9012 133.2258 0000797 110.6934 249.4114 14.79932113 23703
KUIPER-00505            
1 68886U 26095Y   26276.99513494 -.00000143  00000+0  10272-4 0  9999
2 68886  51.9004 124.5229 0000853 106.5779 253.5277 14.79928653 23799
KUIPER-00507            
1 68887U 26095Z   26277.25915176  .00001440  00000+0  21788-3 0  9996
2 68887  51.9000 113.3367 0000919 111.7197 248.3863 14.79928432 23978
KUIPER-00511            
1 68888U 26095AA  26277.25037389  .00000979  00000+0  15749-3 0  9994
2 68888  51.8983 105.9868 0001107 109.3724 250.7358 14.79928006 24075
KUIPER-00512            
1 68889U 26095AB  26277.29630518  .00001599  00000+0  23870-3 0  9995
2 68889  51.9009 125.6933 0000837 115.7575 244.3474 14.79928527 23808
KUIPER-00519            
1 68890U 26095AC  26276.96946691  .00001475  00000+0  22244-3 0  9999
2 68890  51.9023 117.2026 0000739 111.9120 248.1921 14.79927128 23895
KUIPER-00521            
1 68891U 26095AD  26277.23787932  .00001422  00000+0  21553-3 0  9996
2 68891  51.9013 109.7116 0000782 113.0764 247.0281 14.79928579 24020
KUIPER-00524            
1 68892U 26095AE  26277.00051699  .00001420  00000+0  21516-3 0  9993
2 68892  51.8974 119.4673 0001181 104.7171 255.3923 14.79938208 23861
KUIPER-00370            
1 68919U 26098A   26277.36616758  .00001542  00000+0  23123-3 0  9999
2 68919  51.8993 295.2331 0000486  35.6051 324.4944 14.79939384 23656
KUIPER-00380            
1 68920U 26098B   26277.30675787  .00001489  00000+0  22429-3 0  9990
2 68920  51.8982 288.1312 0000518  51.0186 309.0823 14.79928787 23743
KUIPER-00386            
1 68921U 26098C   26277.38846649  .00001508  00000+0  22683-3 0  9990
2 68921  51.8992 290.2664 0000532  48.6342 311.4667 14.79929083 23722
KUIPER-00388            
1 68922U 26098D   26277.36080659  .00001631  00000+0  24278-3 0  9999
2 68922  51.9015 300.5536 0000448  39.5486 320.5509 14.79940548 23575
KUIPER-00405            
1 68923U 26098E   26277.31284563  .00001509  00000+0  22690-3 0  9995
2 68923  51.9027 298.1204 0000914 316.2877  43.8012 14.79936724 23609
KUIPER-00408            
1 68924U 26098F   26277.30404742  .00000346  00000+0  74432-4 0  9998
2 68924  51.9008 290.5694 0000622  65.4031 294.6996 14.79931745 23716
KUIPER-00409            
1 68925U 26098G   26277.41683194  .00001556  00000+0  23296-3 0  9996
2 68925  51.9033 295.1615 0000395  56.6966 303.4034 14.79941417 23657
KUIPER-00410            
1 68926U 26098H   26277.41953017  .00001554  00000+0  23270-3 0  9991
2 68926  51.8982 292.6166 0000117 332.7475  27.3482 14.79937791 23691
KUIPER-00412            
1 68927U 26098J   26277.27570252  .00006504  00000+0  88190-3 0  9994
2 68927  51.9024 285.7954 0001128  60.9176 299.1899 14.79903810 23774
KUIPER-00413            
1 68928U 26098K   26277.43102088  .00001665  00000+0  24736-3 0  9990
2 68928  51.9006 297.5763 0000364 349.2909  10.8046 14.79935597 23625
KUIPER-00414            
1 68929U 26098L   26277.45400441  .00001547  00000+0  23187-3 0  9995
2 68929  51.8981 307.5543 0000220 198.4733 161.6222 14.79935606 23481
KUIPER-00415            
1 68930U 26098M   26277.33778974  .00004821  00000+0  66060-3 0  9998
2 68930  51.9038 290.5088 0000583  54.0130 306.0886 14.79956434 23711
KUIPER-00416            
1 68931U 26098N   26277.28800461  .00001024  00000+0  16347-3 0  9995
2 68931  51.9057 282.0822 0000903  69.1229 290.9830 14.79901043 23825
KUIPER-00420            
1 68932U 26098P   26277.27838046  .00000065  00000+0  37508-4 0  9992
2 68932  51.9019 283.2310 0000563  64.1691 295.9330 14.79930188 23810
KUIPER-00421            
1 68933U 26098Q   26277.40803292  .00000373  00000+0  77887-4 0  9999
2 68933  51.9025 287.6438 0000628  70.2676 289.8354 14.79928340 23769
KUIPER-00425            
1 68934U 26098R   26277.33241516 -.00000006  00000+0  28177-4 0  9999
2 68934  51.8992 295.5190 0000508  78.3651 281.7369 14.79923834 23641
KUIPER-00430            
1 68935U 26098S   26277.32972199  .00001468  00000+0  22156-3 0  9999
2 68935  51.9042 297.9380 0000450  58.1066 301.9940 14.79928600 23611
KUIPER-00431            
1 68936U 26098T   26277.32703232 -.00000278  00000+0 -75151-5 0  9995
2 68936  51.9004 300.5313 0000419  32.2506 327.8482 14.79929067 23575
KUIPER-00432            
1 68937U 26098U   26277.40263477  .00001597  00000+0  23847-3 0  9993
2 68937  51.8999 292.5960 0000485  47.7138 312.3866 14.79929623 23697
KUIPER-00434            
1 68938U 26098V   26277.41994034  .00001160  00000+0  19590-3 0  9991
2 68938  51.9002 296.9428 0000695 186.5781 173.5171 14.76405437 23639
KUIPER-00436            
1 68939U 26098W   26277.31553260  .00001465  00000+0  22108-3 0  9990
2 68939  51.9002 295.5942 0000371  79.7984 280.3020 14.79930649 23647
KUIPER-00438            
1 68940U 26098X   26277.31824921  .00001477  00000+0  22271-3 0  9991
2 68940  51.9034 293.1120 0000497  61.5607 298.5406 14.79928236 23677
KUIPER-00439            
1 68941U 26098Y   26277.30136405  .00001460  00000+0  22049-3 0  9999
2 68941  51.9031 293.1773 0000547  59.2180 300.8836 14.79934262 23675
KUIPER-00440            
1 68942U 26098Z   26277.32633102  .00001559  00000+0  23339-3 0  9990
2 68942  51.9026 285.5650 0000967  25.6600 334.4410 14.79939170 23785
KUIPER-00442            
1 68943U 26098AA  26277.39113222  .00001662  00000+0  24700-3 0  9992
2 68943  51.9015 287.7955 0000528  16.2089 343.8890 14.79921751 23755
KUIPER-00446            
1 68944U 26098AB  26277.28717788  .00001438  00000+0  21768-3 0  9990
2 68944  51.9004 290.7353 0001249 342.5314  17.5606 14.79925425 23704
KUIPER-00451            
1 68945U 26098AC  26277.34391683 -.00000033  00000+0  24645-4 0  9999
2 68945  51.9000 300.4650 0000429  44.5594 315.5403 14.79928335 23572
KUIPER-00452            
1 68946U 26098AD  26277.28984372  .00004640  00000+0  63686-3 0  9990
2 68946  51.9015 288.2229 0000492  38.6341 321.4656 14.79958732 23747
KUIPER-00453            
1 68947U 26098AE  26277.30943965 -.00000177  00000+0  58034-5 0  9992
2 68947  51.8998 285.5519 0000579 192.0931 168.0017 14.79928587 23780
KUIPER-00454            
1 68948U 26098AF  26277.35808210  .00001491  00000+0  22453-3 0  9994
2 68948  51.9001 302.8936 0000832  58.2642 301.8401 14.79929901 23546
KUIPER-00455            
1 68949U 26098AG  26277.37767946  .00001554  00000+0  23276-3 0  9991
2 68949  51.9009 300.3208 0000431 191.2285 168.8667 14.79933379 23589
KUIPER-00458            
1 68950U 26098AH  26277.29256435  .00001505  00000+0  22634-3 0  9993
2 68950  51.9024 285.7222 0000771  66.3293 293.7751 14.79935542 23775
KUIPER-00282            
1 69267U 26118A   26277.30062362  .00001668  00000+0  24767-3 0  9993
2 69267  51.8970 278.1344 0000568  13.8041 346.2936 14.79946193 20319
KUIPER-00383            
1 69268U 26118B   26277.25270457  .00001570  00000+0  23482-3 0  9999
2 69268  51.8980 275.8697 0000636  36.7691 323.3315 14.79936283 20346
KUIPER-00527            
1 69269U 26118C   26277.28648653  .00001540  00000+0  23091-3 0  9993
2 69269  51.8975 275.8528 0000669  45.9164 314.1854 14.79937132 20347
KUIPER-00562            
1 69270U 26118D   26277.26078935  .00000286  00000+0  66597-4 0  9998
2 69270  51.9034 268.2872 0000931  67.8633 292.2428 14.79928319 20452
KUIPER-00570            
1 69271U 26118E   26277.28107990  .00001521  00000+0  22849-3 0  9999
2 69271  51.9008 280.8515 0000578  43.8844 316.2164 14.79939784 20264
KUIPER-00572            
1 69272U 26118F   26277.53970777  .00001677  00000+0  24892-3 0  9991
2 69272  51.9005 274.6004 0000689  45.1678 314.9340 14.79936596 20381
KUIPER-00581            
1 69273U 26118G   26277.26418951  .00001595  00000+0  23820-3 0  9992
2 69273  51.9022 280.8299 0000546 323.7535  36.3390 14.79938665 20362
KUIPER-00584            
1 69274U 26118H   26277.31213265  .00001593  00000+0  23791-3 0  9995
2 69274  51.9006 283.2259 0000576  42.1364 317.9642 14.79929761 20245
KUIPER-00587            
1 69275U 26118J   26277.27227566  .00001584  00000+0  23670-3 0  9996
2 69275  51.9009 273.2924 0000701  53.3287 306.7740 14.79936274 20382
KUIPER-00590            
1 69276U 26118K   26277.26689144 -.00000249  00000+0 -36198-5 0  9990
2 69276  51.9039 278.3308 0000536  43.2276 316.8728 14.79930802 20312
KUIPER-00592            
1 69277U 26118L   26277.25000306  .00001561  00000+0  23377-3 0  9996
2 69277  51.9036 278.2848 0000591  44.1598 315.9411 14.79930847 20314
KUIPER-00593            
1 69278U 26118M   26277.26887969  .00001697  00000+0  25147-3 0  9993
2 69278  51.8994 260.8125 0000416 245.4733 114.6186 14.79938959 20613
KUIPER-00594            
1 69279U 26118N   26277.26349747  .00000452  00000+0  88250-4 0  9994
2 69279  51.9026 265.8497 0000868  79.4865 280.6196 14.79930864 20487
KUIPER-00595            
1 69280U 26118P   26277.23510838  .00001675  00000+0  24864-3 0  9992
2 69280  51.8987 260.9162 0000547 281.4466  78.6434 14.79940451 20589
KUIPER-00596            
1 69281U 26118Q   26277.29526135  .00001613  00000+0  24052-3 0  9997
2 69281  51.9020 283.1961 0000590  46.9435 313.1577 14.79937674 20242
KUIPER-00597            
1 69282U 26118R   26277.23242183  .00001605  00000+0  23954-3 0  9991
2 69282  51.8972 263.4673 0001667  74.5342 285.5804 14.79937044 20515
KUIPER-00599            
1 69283U 26118S   26277.25535187  .00002560  00000+0  36451-3 0  9990
2 69283  51.9022 273.2839 0000971  14.4174 345.6816 14.79948776 20389
KUIPER-00600            
1 69284U 26118T   26277.26617558  .00001916  00000+0  28031-3 0  9994
2 69284  51.8990 263.2318 0001697  70.6514 289.4632 14.79939534 20521
KUIPER-00601            
1 69285U 26118U   26277.28374503  .00000141  00000+0  47555-4 0  9999
2 69285  51.9015 278.2446 0000718  62.2593 297.8442 14.79918374 20314
KUIPER-00602            
1 69286U 26118V   26277.29184686  .00001742  00000+0  25743-3 0  9994
2 69286  51.9032 270.6230 0000811 350.9721   9.1227 14.79934692 20423
KUIPER-00603            
1 69287U 26118W   26277.30603892  .00001598  00000+0  23853-3 0  9991
2 69287  51.9044 273.1536 0000715  57.8946 302.2086 14.79939118 20382
KUIPER-00605            
1 69288U 26118X   26277.29795888  .00001577  00000+0  23585-3 0  9996
2 69288  51.8990 280.6604 0000602  42.0371 318.0637 14.79937223 20285
KUIPER-00606            
1 69289U 26118Y   26277.28916942  .00000295  00000+0  67711-4 0  9998
2 69289  51.9028 273.2216 0000629  44.7877 315.3136 14.79931251 20385
KUIPER-00607            
1 69290U 26118Z   26277.01296090  .00001643  00000+0  24455-3 0  9991
2 69290  51.9004 264.4478 0001793  44.3082 315.8024 14.79931359 20481
KUIPER-00608            
1 69291U 26118AA  26277.22971441  .00001587  00000+0  23719-3 0  9994
2 69291  51.9000 265.8480 0000773  66.3707 293.7336 14.79932246 20487
KUIPER-00610            
1 69292U 26118AB  26277.25810367  .00000228  00000+0  58951-4 0  9995
2 69292  51.9017 270.8580 0000633  55.4247 304.6775 14.79929263 20413
KUIPER-00613            
1 69293U 26118AC  26277.31484709  .00001598  00000+0  23865-3 0  9996
2 69293  51.8996 280.6041 0000610  41.2180 318.8828 14.79928721 20283
KUIPER-00618            
1 69294U 26118AD  26277.22702291  .00001631  00000+0  24290-3 0  9997
2 69294  51.9031 268.5039 0000995 273.8214  86.2635 14.79937182 20445
KUIPER-00620            
1 69295U 26118AE  26277.24121535  .00001574  00000+0  23535-3 0  9993
2 69295  51.9038 270.9467 0000711  36.4276 323.6735 14.79938891 20416
KUIPER-00423            
1 69592U 26140A   26277.18641730  .00001726  00000+0  25541-3 0  9993
2 69592  51.9006 243.6704 0000844  83.9869 276.1190 14.79925795 17832
KUIPER-00428            
1 69593U 26140B   26277.58335648 -.01616088  00000+0 -53755-1 0  9998
2 69593  51.8807 229.9646 0004837 336.7084 258.8786 15.33628771  2564
KUIPER-00481            
1 69594U 26140C   26277.23172519  .00001660  00000+0  24657-3 0  9999
2 69594  51.9008 248.4785 0001545  15.0904 345.0104 14.79954468 17776
KUIPER-00490            
1 69595U 26140D   26277.20944212  .00001698  00000+0  25166-3 0  9991
2 69595  51.9031 253.5297 0000824  57.5618 302.5424 14.79934214 17703
KUIPER-00493            
1 69596U 26140E   26277.23781764  .00001772  00000+0  26144-3 0  9996
2 69596  51.9034 258.4557 0001317   7.2393 352.8589 14.79928220 17632
KUIPER-00496            
1 69597U 26140F   26277.60142618 -.00001945  00000+0 -22621-3 0  9997
2 69597  51.9027 240.5963 0000982  79.2433 280.8640 14.79933149 17914
KUIPER-00513            
1 69598U 26140G   26277.24321122  .00000961  00000+0  15503-3 0  9993
2 69598  51.9005 253.4214 0000738  67.7066 292.3975 14.79927592 17707
KUIPER-00516            
1 69599U 26140H   26277.58335648 -.00032519  00000+0 -46120-2 0  9993
2 69599  51.8954 236.3999 0001672 181.7772 197.6710 14.76553447  5891
KUIPER-00517            
1 69600U 26140J   26277.58335648 -.00711313  00000+0 -62415-1 0  9996
2 69600  51.9169 232.5994 0010031 222.1141 207.6670 14.98937177  5689
KUIPER-00520            
1 69601U 26140K   26277.25528738  .00001360  00000+0  22333-3 0  9994
2 69601  51.9015 255.6698 0000653 312.3322  47.7583 14.76619775 17674
KUIPER-00522            
1 69602U 26140L   26277.16957257  .00001718  00000+0  25426-3 0  9990
2 69602  51.9029 243.7530 0001273  89.4057 270.7052 14.79935133 17838
KUIPER-00528            
1 69603U 26140M   26277.22360436  .00005327  00000+0  72664-3 0  9991
2 69603  51.9036 256.0297 0000616  42.0825 318.0185 14.79966047 17664
KUIPER-00532            
1 69604U 26140N   26277.59432954 -.00001589  00000+0 -17944-3 0  9995
2 69604  51.9027 239.3801 0000666  76.6561 283.4476 14.79930666 17931
KUIPER-00533            
1 69605U 26140P   26277.21214676  .00001663  00000+0  24713-3 0  9997
2 69605  51.9012 251.0697 0000794  53.3314 306.7722 14.79927098 17736
KUIPER-00534            
1 69606U 26140Q   26277.50001622  .00011140  00000+0  40762-3 0  9998
2 69606  51.8781 232.1254 0012337 183.0460 177.0450 15.28473477 18029
KUIPER-00537            
1 69607U 26140R   26277.20404338  .00000151  00000+0  48802-4 0  9991
2 69607  51.9008 258.5195 0001403  37.3356 322.7704 14.79930908 17635
KUIPER-00538            
1 69608U 26140S   26277.24050071  .00001866  00000+0  27366-3 0  9992
2 69608  51.9024 255.8835 0001039  48.2473 311.8578 14.79940787 17679
KUIPER-00540            
1 69609U 26140T   26277.58392322  .00020540  00000+0  53964-3 0  9991
2 69609  51.8805 229.7464 0004924 323.4998  36.5653 15.38569584 18067
KUIPER-00541            
1 69610U 26140U   26277.58335648 -.00065274  00000+0 -84081-2 0  9999
2 69610  51.8987 234.2454 0002935  85.9585 101.7111 14.80952778  5799
KUIPER-00542            
1 69611U 26140V   26277.58335648 -.00046672  00000+0 -41587-2 0  9995
2 69611  51.8944 232.5236 0006479 188.1000 148.2711 14.95636873  4014
KUIPER-00543            
1 69612U 26140W   26276.61516137  .00000919  00000+0  14953-3 0  9993
2 69612  51.9036 243.7052 0000361  83.1539 276.9465 14.79938306 17784
KUIPER-00544            
1 69613U 26140X   26277.58335648 -.00061828  00000+0 -70328-2 0  9992
2 69613  51.8981 234.5373 0009244 223.9360 348.5667 14.86022838  4308
KUIPER-00546            
1 69614U 26140Y   26277.22013645  .00001773  00000+0  26173-3 0  9995
2 69614  51.9014 243.5277 0000480  87.5592 272.5425 14.79906719 17846
KUIPER-00547            
1 69615U 26140Z   26277.58335648 -.01771877  00000+0 -12585+0 0  9995
2 69615  51.8910 230.8134 0010488 198.4071 292.3794 15.07634006  5693
KUIPER-00549            
1 69616U 26140AA  26277.58335648 -.00028394  00000+0 -37107-2 0  9994
2 69616  51.9002 236.9317 0001069  97.0701 190.0248 14.79938735  5519
KUIPER-00550            
1 69617U 26140AB  26277.58335648 -.00068842  00000+0 -89564-2 0  9991
2 69617  51.9004 240.6293 0001565 334.0659 108.2232 14.80569868  4112
KUIPER-00551            
1 69618U 26140AC  26277.58335648 -.00924469  00000+0 -43208-1 0  9992
2 69618  51.8805 229.4262 0012662 193.2012 269.0034 15.21800097  5878
KUIPER-00554            
1 69619U 26140AD  26277.58335648 -.00993617  00000+0 -52192-1 0  9996
2 69619  51.8861 229.9306 0008399 207.0573   8.0005 15.18075802  4606
KUIPER-00555            
1 69620U 26140AE  26277.58335648 -.01281867  00000+0 -51929-1 0  9993
2 69620  51.8842 229.6914 0009754 200.5841 197.9872 15.27046672  5706
KUIPER-00556            
1 69621U 26140AF  26276.64352915  .00001823  00000+0  26814-3 0  9992
2 69621  51.8975 248.5723 0000665  92.3557 267.7481 14.79921725 17729
KUIPER-00557            
1 69622U 26140AG  26277.58335648 -.01120132  00000+0 -78271-1 0  9991
2 69622  51.8938 230.8313 0009869 216.8780   0.5650 15.07810114  5565
KUIPER-00560            
1 69623U 26140AH  26277.59192827  .00019950  00000+0  54562-3 0  9994
2 69623  51.8784 229.7640 0007680 241.0703 118.9514 15.37330220 18069
KUIPER-00561            
1 69624U 26140AJ  26276.63813443  .00001107  00000+0  17421-3 0  9991
2 69624  51.9019 253.5760 0000700  71.4349 288.6690 14.79928528 17650
KUIPER-00564            
1 69625U 26140AK  26277.21484246  .00001785  00000+0  26309-3 0  9999
2 69625  51.8981 248.5287 0000701  94.8517 265.2525 14.79935225 17776
KUIPER-00567            
1 69626U 26140AL  26277.21751998  .00001754  00000+0  25898-3 0  9999
2 69626  51.8970 246.0349 0000843 180.0394 180.0569 14.79936468 17801
KUIPER-00573            
1 69627U 26140AM  26277.18107740  .00000016  00000+0  31068-4 0  9993
2 69627  51.8986 248.7112 0000885  71.9380 288.1678 14.79931611 17766
KUIPER-00258            
1 69763U 26151A   26277.58335648  .00024832  00000+0  32748-2 0  9996
2 69763  51.8966 156.9073 0000795  94.7598  93.1055 14.79925863  5150
KUIPER-00526            
1 69764U 26151B   26277.11003126  .00001769  00000+0  26105-3 0  9994
2 69764  51.8992 174.0815 0001051  93.3829 266.7254 14.79924125 14118
KUIPER-00558            
1 69765U 26151C   26277.41387758  .00001544  00000+0  23154-3 0  9996
2 69765  51.8979 172.6563 0000765  97.6391 262.4658 14.79926314 14168
KUIPER-00569            
1 69766U 26151D   26277.43349073  .00001726  00000+0  25537-3 0  9996
2 69766  51.9024 170.0694 0000972  93.9996 266.1077 14.79926735 14206
KUIPER-00589            
1 69767U 26151E   26277.44255700  .00001007  00000+0  17367-3 0  9995
2 69767  51.9002 173.4291 0003300  98.7283 261.4052 14.76550944 14150
KUIPER-00598            
1 69768U 26151F   26277.38823856  .00001791  00000+0  26390-3 0  9998
2 69768  51.9004 165.2837 0000778  99.8946 260.2105 14.79934773 14269
KUIPER-00604            
1 69769U 26151G   26277.43618916  .00001766  00000+0  26057-3 0  9996
2 69769  51.9027 167.5718 0000848  93.1174 266.9885 14.79929080 14236
KUIPER-00609            
1 69770U 26151H   26277.40511372  .00001537  00000+0  23063-3 0  9993
2 69770  51.9012 165.2051 0001307  68.1132 291.9969 14.79918971 14265
KUIPER-00611            
1 69771U 26151J   26277.40242125  .00000463  00000+0  89701-4 0  9990
2 69771  51.8976 167.6992 0001089  91.9467 268.1620 14.79928901 14237
KUIPER-00612            
1 69772U 26151K   26277.11272225  .00001707  00000+0  25286-3 0  9992
2 69772  51.9011 171.5056 0001135 125.7439 234.3629 14.79933795 14153
KUIPER-00614            
1 69773U 26151L   26277.38553104  .00001784  00000+0  26302-3 0  9995
2 69773  51.8985 167.8421 0000996  95.4239 264.6837 14.79932801 14224
KUIPER-00615            
1 69774U 26151M   26277.39702248  .00001847  00000+0  27120-3 0  9991
2 69774  51.9014 172.6803 0000792 116.6857 243.4187 14.79931529 14165
KUIPER-00616            
1 69775U 26151N   26277.37943863  .00001662  00000+0  24658-3 0  9998
2 69775  51.9006 157.8262 0001397 105.2892 254.8225 14.80015677 14366
KUIPER-00617            
1 69776U 26151P   26277.37405155  .00001743  00000+0  25761-3 0  9992
2 69776  51.9005 162.8466 0000733  95.7484 264.3563 14.79935516 14295
KUIPER-00619            
1 69777U 26151Q   26274.92061067  .00011029  00000+0  15902-2 0  9994
2 69777  51.9014 176.2197 0001242 119.8436 240.2649 14.76680312 13898
KUIPER-00621            
1 69778U 26151R   26277.41930599  .00000714  00000+0  12261-3 0  9992
2 69778  51.8990 167.6434 0000865  99.4068 260.6992 14.79929557 14239
KUIPER-00622            
1 69779U 26151S   26277.43167689  .00001046  00000+0  17922-3 0  9995
2 69779  51.9001 171.8869 0001785  98.7762 261.3401 14.76519785 14179
KUIPER-00623            
1 69780U 26151T   26277.41661157  .00001795  00000+0  26448-3 0  9998
2 69780  51.8979 170.1632 0001105 114.0083 246.0995 14.79929842 14190
KUIPER-00626            
1 69781U 26151U   26277.10123131  .00001720  00000+0  25452-3 0  9992
2 69781  51.8984 166.5252 0000901 105.9560 254.1502 14.79935013 14221
KUIPER-00627            
1 69782U 26151V   26277.41051735  .00001670  00000+0  24803-3 0  9990
2 69782  51.9010 160.1889 0001078 117.8928 242.2144 14.79931490 14332
KUIPER-00629            
1 69783U 26151W   26277.42808647  .00001852  00000+0  27188-3 0  9995
2 69783  51.9015 175.0464 0000916  99.4873 260.6193 14.79931658 14138
KUIPER-00631            
1 69784U 26151X   26277.44498004  .00001348  00000+0  20577-3 0  9995
2 69784  51.9012 175.0307 0000780 100.9116 259.1934 14.79927346 14134
KUIPER-00634            
1 69785U 26151Y   26277.39972788 -.00000089  00000+0  17382-4 0  9999
2 69785  51.9010 170.2344 0000979 101.9495 258.1577 14.79929366 14194
KUIPER-00639            
1 69786U 26151Z   26277.37672556 -.00007310  00000+0 -92975-3 0  9993
2 69786  51.9021 160.3201 0000791  82.6636 277.4417 14.79982215 14338
KUIPER-00641            
1 69787U 26151AA  26277.08704733  .00001616  00000+0  24099-3 0  9998
2 69787  51.9004 164.1224 0001766 146.8732 213.2342 14.79929818 14256
KUIPER-00644            
1 69788U 26151AB  26277.58335648 -.00001681  00000+0 -18993-3 0  9999
2 69788  51.8979 154.4262 0000467  24.8417 327.2123 14.80281446  5201
KUIPER-00646            
1 69789U 26151AC  26277.39094422  .00000542  00000+0  10006-3 0  9991
2 69789  51.8987 162.8600 0000777  98.4381 261.6670 14.79928689 14293
KUIPER-00647            
1 69790U 26151AD  26277.40052679  .00000902  00000+0  15876-3 0  9993
2 69790  51.9006 162.5998 0002496   8.7091 351.3913 14.76546419 14300
KUIPER-00662            
1 69791U 26151AE  26277.41120572  .00000366  00000+0  77033-4 0  9991
2 69791  51.9016 175.1755 0000658  95.5990 264.5048 14.79930246 14125
