QIANFAN-1               
1 60379U 24140A   26251.20778870  .00000049  00000+0  57445-4 0  9992
2 60379  88.9670 271.3080 0018579 150.6682 209.5516 13.51025583103739
QIANFAN-2               
1 60380U 24140B   26251.23661204  .00000058  00000+0  70968-4 0  9994
2 60380  88.9656 271.1078 0014545 124.0971 236.1563 13.51034340103790
QIANFAN-3               
1 60381U 24140C   26251.31904993  .00000061  00000+0  76035-4 0  9994
2 60381  88.9649 271.2114 0015433 135.2977 224.9421 13.51022751103715
QIANFAN-4               
1 60382U 24140D   26251.22015918  .00000030  00000+0  26846-4 0  9996
2 60382  88.9674 271.1872 0014752 126.4123 233.8391 13.51020893103824
QIANFAN-5               
1 60383U 24140E   26251.26951238  .00000055  00000+0  65994-4 0  9999
2 60383  88.9648 271.2409 0016370 146.1935 214.0263 13.51030879103690
QIANFAN-6               
1 60384U 24140F   26251.21605818  .00000040  00000+0  42737-4 0  9999
2 60384  88.9675 271.0659 0014737 131.6589 228.5827 13.51023896103883
QIANFAN-7               
1 60385U 24140G   26251.21311761  .00000157  00000+0  57553-4 0  9992
2 60385  88.9720 262.0035 0013098 227.2074 132.8020 14.27891019108840
QIANFAN-8               
1 60386U 24140H   26251.29849205  .00000031  00000+0  28737-4 0  9993
2 60386  88.9676 271.2981 0018136 134.5131 225.7506 13.51025774103743
QIANFAN-9               
1 60387U 24140J   26251.27368770  .00000057  00000+0  68881-4 0  9997
2 60387  88.9674 271.3706 0017840 134.2673 225.9946 13.51021339103728
QIANFAN-10              
1 60388U 24140K   26251.27780116  .00000044  00000+0  49105-4 0  9994
2 60388  88.9686 270.7459 0016705 113.6630 246.6277 13.51021417103851
QIANFAN-11              
1 60389U 24140L   26251.31494564  .00000047  00000+0  53440-4 0  9999
2 60389  88.9610 271.1260 0015877 133.3364 226.9113 13.51020864103514
QIANFAN-12              
1 60390U 24140M   26251.26141907  .00000041  00000+0  45138-4 0  9994
2 60390  88.9654 271.2923 0014514 140.4255 219.7959 13.51023328103635
QIANFAN-13              
1 60391U 24140N   26251.23257572  .00000051  00000+0  60412-4 0  9991
2 60391  88.9914 271.5076 0014275 142.4780 217.7371 13.51023340103658
QIANFAN-14              
1 60392U 24140P   26251.25733752  .00000031  00000+0  29374-4 0  9993
2 60392  88.9645 271.2659 0017920 144.1433 216.0925 13.51018617103667
QIANFAN-15              
1 60393U 24140Q   26251.26551120  .00000068  00000+0  85739-4 0  9999
2 60393  88.9668 271.2857 0014076 130.1765 230.0621 13.51027566103656
QIANFAN-16              
1 60394U 24140R   26251.25311153  .00000036  00000+0  36857-4 0  9991
2 60394  88.9671 271.4146 0015756 146.9416 213.2723 13.51025067103568
QIANFAN-17              
1 60395U 24140S   26251.32316921  .00000049  00000+0  57697-4 0  9997
2 60395  88.9681 271.4828 0016327 141.1002 219.1328 13.51021334104537
QIANFAN-18              
1 60396U 24140T   26251.30260239  .00000040  00000+0  43452-4 0  9991
2 60396  88.9676 271.0009 0016062 125.3854 234.8801 13.51020687103926
QIANFAN-19              
1 61552U 24185A   26251.26364154  .00000307  00000+0  15274-3 0  9997
2 61552  88.9835  47.0580 0007973 144.5787 215.5931 14.14525317107768
QIANFAN-20              
1 61553U 24185B   26251.27352694  .00000311  00000+0  17164-3 0  9990
2 61553  88.9830  47.6469 0005329 182.1233 177.9929 14.09066305107447
QIANFAN-21              
1 61554U 24185C   26251.25288151  .00000485  00000+0  20937-3 0  9999
2 61554  88.9756  45.4155 0009935 193.3623 166.7307 14.22924300108290
QIANFAN-22              
1 61555U 24185D   26251.22050910  .00000176  00000+0  14050-3 0  9993
2 61555  88.9810  49.7210 0004550 241.4441 118.6273 13.86426202106273
QIANFAN-23              
1 61556U 24185E   26251.28005725  .00000323  00000+0  15488-3 0  9994
2 61556  88.9829  46.7403 0008309 152.3798 207.7833 14.16547160107900
QIANFAN-24              
1 61557U 24185F   26251.23745795  .00000413  00000+0  17306-3 0  9999
2 61557  88.9814  45.7112 0011145 131.2516 228.9638 14.24148240108372
QIANFAN-25              
1 61558U 24185G   26251.23156453  .00000416  00000+0  24504-3 0  9998
2 61558  88.9819  47.6925 0011535 206.4521 153.6074 14.06122995107371
QIANFAN-26              
1 61559U 24185H   26251.23878269  .00000181  00000+0  16750-3 0  9998
2 61559  88.9814  50.6609 0003714 279.2195  80.8551 13.77940852105786
QIANFAN-27              
1 61560U 24185J   26251.27592896  .00000544  00000+0  21504-3 0  9999
2 61560  88.9826  45.3504 0009293 117.3529 242.8612 14.27595633108619
QIANFAN-28              
1 61561U 24185K   26251.24631067  .00000544  00000+0  21157-3 0  9995
2 61561  88.9843  45.3684 0009202 115.6704 244.5442 14.28475545108647
QIANFAN-29              
1 61562U 24185L   26251.24380445  .00000137  00000+0  19266-3 0  9993
2 61562  88.9781  53.4508 0009683   2.6293 357.4907 13.51091535104188
QIANFAN-30              
1 61563U 24185M   26251.27442910  .00000136  00000+0  19547-3 0  9994
2 61563  88.9803  53.0764 0007049 351.3988   8.7040 13.50073309104433
QIANFAN-31              
1 61564U 24185N   26251.28027292  .00000149  00000+0  18923-3 0  9999
2 61564  88.9787  52.4498 0006011 337.0745  23.0141 13.58061295104747
QIANFAN-32              
1 61565U 24185P   26251.24351898  .00000118  00000+0  16393-3 0  9993
2 61565  88.9842  53.2926 0010079  19.9011 340.2531 13.50804221104424
QIANFAN-33              
1 61566U 24185Q   26251.21367318  .00000299  00000+0  20608-3 0  9999
2 61566  88.9811  48.7650 0007125 189.3058 170.7988 13.96747424106778
QIANFAN-34              
1 61567U 24185R   26251.21450546  .00000389  00000+0  24418-3 0  9999
2 61567  88.9789  47.9721 0005595 177.1232 182.9981 14.02512660107129
QIANFAN-35              
1 61568U 24185S   26251.23245402  .00000500  00000+0  19442-3 0  9991
2 61568  88.9824  45.2497 0008417 112.8376 247.3709 14.28348488108647
QIANFAN-36              
1 61569U 24185T   26251.22527475  .00000085  00000+0  10414-3 0  9992
2 61569  88.9779  52.9592 0005876 358.0903   2.0228 13.55646019104439
QIANFAN-37              
1 62238U 24232B   26251.28548365  .00000071  00000+0  91959-4 0  9995
2 62238  89.0143  14.2556 0002255  88.7959 271.3450 13.51028700135560
QIANFAN-38              
1 62239U 24232C   26251.31023148  .00000069  00000+0  87927-4 0  9994
2 62239  89.0149  14.1871 0016191 132.8060 227.4456 13.51027023135626
QIANFAN-39              
1 62240U 24232D   26251.32955265  .00000310  00000+0  12503-3 0  9997
2 62240  89.0132   6.6190 0013787 275.0253  84.9367 14.25554551139794
QIANFAN-40              
1 62241U 24232E   26251.26909022  .00000070  00000+0  89206-4 0  9999
2 62241  89.0177  13.8509 0015119 139.7164 220.5110 13.51027170135987
QIANFAN-41              
1 62242U 24232F   26251.27730563  .00000074  00000+0  95508-4 0  9999
2 62242  89.0147  14.1369 0015652 129.2610 230.9933 13.51028424135649
QIANFAN-42              
1 62243U 24232G   26251.21853325  .00000302  00000+0  12390-3 0  9997
2 62243  89.0131   6.7185 0012630 283.8508  76.1279 14.24641873139739
QIANFAN-43              
1 62244U 24232H   26251.27319033  .00000079  00000+0  10368-3 0  9991
2 62244  89.0152  14.2145 0017111 134.2882 225.9676 13.51027959104252
QIANFAN-44              
1 62245U 24232J   26251.26087545  .00000085  00000+0  11270-3 0  9991
2 62245  89.0150  14.0221 0015369 131.2515 228.9963 13.51028224135721
QIANFAN-45              
1 62246U 24232K   26251.22796543  .00000079  00000+0  10421-3 0  9993
2 62246  89.0154  14.1815 0016039 131.1473 229.1065 13.51026969135644
QIANFAN-46              
1 62247U 24232L   26251.32665749  .00000068  00000+0  86870-4 0  9998
2 62247  89.0150  14.2297 0016001 135.8827 224.3604 13.51028034135617
QIANFAN-47              
1 62248U 24232M   26251.25674800  .00000087  00000+0  11606-3 0  9994
2 62248  89.0146  14.1587 0016432 135.3834 224.8643 13.51027257135631
QIANFAN-48              
1 62249U 24232N   26251.29382191  .00000080  00000+0  10424-3 0  9998
2 62249  89.0149  14.1674 0018653 138.1574 222.1007 13.51021504135646
QIANFAN-49              
1 62250U 24232P   26251.20738779  .00000064  00000+0  80393-4 0  9993
2 62250  89.0149  14.1864 0015827 132.8417 227.4068 13.51028676104228
QIANFAN-50              
1 62251U 24232Q   26251.30609411  .00000084  00000+0  11147-3 0  9997
2 62251  89.0154  14.1994 0017462 134.1629 226.0961 13.51028181104268
QIANFAN-51              
1 62252U 24232R   26251.21560450  .00000073  00000+0  94279-4 0  9993
2 62252  89.0148  14.1857 0014859 137.2352 222.9958 13.51027184104245
QIANFAN-52              
1 62253U 24232S   26251.24440040  .00000072  00000+0  91872-4 0  9994
2 62253  89.0144  14.0459 0017017 130.5315 229.7322 13.51029196104338
QIANFAN-53              
1 62254U 24232T   26251.29793549  .00000081  00000+0  10628-3 0  9994
2 62254  89.0152  14.1655 0015885 131.1611 229.0914 13.51026012104305
QIANFAN-54              
1 62255U 24232U   26251.19091458  .00000080  00000+0  10576-3 0  9995
2 62255  89.0143  13.8308 0003230 142.8828 217.2547 13.51027737135790
QIANFAN-55              
1 62785U 25016A   26251.21698790  .00000064  00000+0  80496-4 0  9990
2 62785  88.9665  75.2387 0015616 292.3425  67.6071 13.51024190 83576
QIANFAN-56              
1 62786U 25016B   26251.23330537  .00000065  00000+0  82668-4 0  9999
2 62786  88.9639  75.0016 0014252 295.5146  64.4531 13.51027352 83620
QIANFAN-57              
1 62787U 25016C   26251.26638426  .00000054  00000+0  64992-4 0  9999
2 62787  88.9670  75.2356 0002559  88.8937 271.2508 13.51027072 83590
QIANFAN-58              
1 62788U 25016D   26251.23753812  .00000063  00000+0  79026-4 0  9998
2 62788  88.9640  74.9882 0012053 287.3717  72.6116 13.51019437 83639
QIANFAN-59              
1 62789U 25016E   26251.26208371  .00000063  00000+0  79802-4 0  9999
2 62789  88.9663  75.1228 0012473 291.5543  68.4279 13.51023841 83639
QIANFAN-60              
1 62790U 25016F   26251.22096987  .00000072  00000+0  93288-4 0  9999
2 62790  88.9644  75.0473 0013972 287.2872  72.6750 13.51027198 83611
QIANFAN-61              
1 62791U 25016G   26251.25392720  .00000069  00000+0  89064-4 0  9990
2 62791  88.9711  75.3892 0012937 286.8707  73.1025 13.51026800 83639
QIANFAN-62              
1 62792U 25016H   26251.25809587  .00000068  00000+0  86377-4 0  9998
2 62792  88.9658  75.1124 0014273 286.8945  73.0641 13.51019261 83620
QIANFAN-63              
1 62793U 25016J   26251.20867964  .00000065  00000+0  81488-4 0  9992
2 62793  88.9665  75.0873 0014411 293.0128  66.9503 13.51022301 83656
QIANFAN-64              
1 62794U 25016K   26251.24983760  .00000075  00000+0  96846-4 0  9995
2 62794  88.9652  75.0210 0012245 285.3233  74.6564 13.51026796 83657
QIANFAN-65              
1 62795U 25016L   26251.24558864  .00000071  00000+0  91567-4 0  9990
2 62795  88.9648  75.0377 0012125 287.3410  72.6415 13.51022938 83638
QIANFAN-66              
1 62796U 25016M   26251.27438215  .00000063  00000+0  79601-4 0  9997
2 62796  88.9668  75.0578 0013175 281.9944  77.9730 13.51028639 83689
QIANFAN-67              
1 62797U 25016N   26251.27854044  .00000069  00000+0  87711-4 0  9997
2 62797  88.9658  75.0565 0013223 289.8517  70.1209 13.51028446 83651
QIANFAN-68              
1 62798U 25016P   26251.27035291  .00000059  00000+0  73400-4 0  9992
2 62798  88.9661  75.1121 0013264 287.4729  72.4972 13.51021196 83634
QIANFAN-69              
1 62799U 25016Q   26251.21266728  .00000071  00000+0  90863-4 0  9994
2 62799  88.9641  74.9302 0014028 289.0612  70.9019 13.51023666 83661
QIANFAN-70              
1 62800U 25016R   26251.22925228  .00000068  00000+0  87362-4 0  9991
2 62800  88.9661  75.1231 0013529 278.1513  81.8103 13.51022958 83628
QIANFAN-71              
1 62801U 25016S   26251.22511797  .00000063  00000+0  79762-4 0  9994
2 62801  88.9655  75.0868 0013982 293.0809  66.8868 13.51026178 83623
QIANFAN-72              
1 62802U 25016T   26250.94539454  .00000074  00000+0  96794-4 0  9999
2 62802  88.9645  75.1031 0017387 301.2818  58.6630 13.51020017 83577
QIANFAN-73              
1 63159U 25046A   26251.26863752  .00000036  00000+0  37101-4 0  9990
2 63159  88.9661 292.0442 0016879  68.6438 291.6513 13.51024804 83807
QIANFAN-74              
1 63160U 25046B   26251.25214804  .00000001  00000+0 -16422-4 0  9995
2 63160  88.9660 291.9355 0001853  95.0146 265.1216 13.51018877 83860
QIANFAN-75              
1 63161U 25046C   26251.23994654  .00000093  00000+0  12548-3 0  9996
2 63161  88.9664 292.1744 0018068  71.7244 288.5871 13.51029424 83738
QIANFAN-76              
1 63162U 25046D   26251.23582489 -.00000095  00000+0 -16601-3 0  9994
2 63162  88.9662 292.1544 0015492  72.5464 287.7379 13.51021911 83744
QIANFAN-77              
1 63163U 25046E   26251.23024179  .00000106  00000+0  66986-4 0  9995
2 63163  88.9666 287.9406 0013240 326.6605  33.3737 13.96245030 86056
QIANFAN-78              
1 63164U 25046F   26251.27735802  .00000024  00000+0  18984-4 0  9996
2 63164  88.9663 292.0120 0017033  74.0027 286.2999 13.51011333 83829
QIANFAN-79              
1 63165U 25046G   26251.23158108  .00000035  00000+0  35091-4 0  9991
2 63165  88.9666 292.1336 0016689  72.8750 287.4227 13.51020945 83767
QIANFAN-80              
1 63166U 25046H   26251.24811353  .00000077  00000+0  10002-3 0  9991
2 63166  88.9663 291.8314 0015649  77.0153 283.2745 13.51028725 83927
QIANFAN-81              
1 63167U 25046J   26251.22742736  .00000108  00000+0  14777-3 0  9996
2 63167  88.9663 291.9011 0016688  67.5884 292.7033 13.51019102 83870
QIANFAN-82              
1 63168U 25046K   26251.26042277  .00000073  00000+0  93533-4 0  9993
2 63168  88.9663 291.9418 0014678  73.8993 286.3773 13.51019581 83860
QIANFAN-83              
1 63169U 25046L   26251.23848173  .00000100  00000+0  11305-3 0  9997
2 63169  88.9665 291.1892 0015385  47.0584 313.1862 13.62063912 84280
QIANFAN-84              
1 63170U 25046M   26251.21514546 -.00000052  00000+0 -10014-3 0  9995
2 63170  88.9661 292.0790 0017550  70.2566 290.0477 13.51018287 83781
QIANFAN-85              
1 63171U 25046N   26251.21099860  .00000087  00000+0  11627-3 0  9990
2 63171  88.9662 291.9492 0015207  72.8379 287.4436 13.51019608 83858
QIANFAN-86              
1 63172U 25046P   26251.21924225  .00000088  00000+0  11779-3 0  9992
2 63172  88.9665 291.8168 0013152  76.9971 283.2648 13.51024428 83935
QIANFAN-87              
1 63173U 25046Q   26251.26454806  .00000034  00000+0  34078-4 0  9990
2 63173  88.9661 291.9137 0013592  72.4075 287.8560 13.51031848 83873
QIANFAN-88              
1 63174U 25046R   26251.28096756  .00000085  00000+0  11335-3 0  9995
2 63174  88.9663 291.8732 0014140  79.6675 280.6069 13.51028683 83903
QIANFAN-89              
1 63175U 25046S   26251.24391286  .00000070  00000+0  89253-4 0  9997
2 63175  88.9663 292.0659 0018528  70.4349 289.8801 13.51023925 83792
QIANFAN-90              
1 63176U 25046T   26251.27274870  .00000036  00000+0  37254-4 0  9996
2 63176  88.9664 292.0361 0015428  69.6686 290.6121 13.51019606 83813
QIANFAN-91              
1 66033U 25233A   26251.15709264  .00000068  00000+0  87155-4 0  9996
2 66033  89.0033  34.7962 0001957  90.2828 269.8547 13.51028141 44381
QIANFAN-92              
1 66034U 25233B   26251.16543331  .00000049  00000+0  57464-4 0  9998
2 66034  89.0015  34.7535 0001956  98.3800 261.7573 13.50997859 44386
QIANFAN-93              
1 66035U 25233C   26250.35891318  .00000062  00000+0  76808-4 0  9998
2 66035  89.0041  34.9090 0002093  92.3653 267.7738 13.50999722 44275
QIANFAN-94              
1 66036U 25233D   26250.79094320  .00000076  00000+0  99566-4 0  9996
2 66036  89.0042  34.7657 0001864  95.1794 264.9570 13.51026606 44384
QIANFAN-95              
1 66037U 25233E   26250.87322041  .00000080  00000+0  10527-3 0  9994
2 66037  89.0038  34.2994 0001828  89.5073 270.6288 13.51020947 44647
QIANFAN-96              
1 66038U 25233F   26250.82382462  .00000067  00000+0  84721-4 0  9996
2 66038  89.0035  34.8455 0001957  88.3011 271.8364 13.51027644 44330
QIANFAN-97              
1 66039U 25233G   26247.69599208 -.01871554  00000+0 -33637+1 0  9992
2 66039  89.0008  35.1465 0005963  93.6808 266.5022 13.45942555 43926
QIANFAN-98              
1 66040U 25233H   26251.11187874  .00000070  00000+0  89654-4 0  9996
2 66040  89.0029  34.5252 0001475 101.3281 258.8036 13.51027957 44527
QIANFAN-99              
1 66041U 25233J   26250.81972405  .00000071  00000+0  91357-4 0  9999
2 66041  89.0042  34.8379 0001466  93.3685 266.7634 13.51034662 44347
QIANFAN-100             
1 66042U 25233K   26250.81146710  .00000071  00000+0  91444-4 0  9999
2 66042  89.0049  34.7743 0002000  91.4498 268.6883 13.51018979 44390
QIANFAN-101             
1 66043U 25233L   26251.32834251  .00000374  00000+0  14833-3 0  9993
2 66043  89.0041  31.0225 0013502 225.3271 134.6824 14.26855787 46482
QIANFAN-102             
1 66044U 25233M   26250.38769950  .00000078  00000+0  10181-3 0  9995
2 66044  89.0036  34.7886 0001837  94.3969 265.7392 13.51027174 44332
QIANFAN-103             
1 66045U 25233N   26251.13243327  .00000080  00000+0  10557-3 0  9995
2 66045  89.0039  34.8109 0001982  91.6046 268.5332 13.51020139 44386
QIANFAN-104             
1 66046U 25233P   26250.84022933  .00000075  00000+0  97379-4 0  9993
2 66046  89.0043  34.7462 0001834  97.7801 262.3559 13.51025232 44398
QIANFAN-105             
1 66047U 25233Q   26250.40412744  .00000073  00000+0  94589-4 0  9997
2 66047  89.0056  34.6442 0001844  89.9725 270.1638 13.51025037 44443
QIANFAN-106             
1 66048U 25233R   26251.14063107  .00000074  00000+0  96297-4 0  9994
2 66048  89.0026  34.7570 0001549  99.6772 260.4554 13.51028885 44382
QIANFAN-107             
1 66049U 25233S   26250.33419054  .00000074  00000+0  95234-4 0  9991
2 66049  89.0039  34.8838 0001967  92.3545 267.7832 13.51028037 44284
QIANFAN-108             
1 66050U 25233T   26250.78270310  .00000068  00000+0  86289-4 0  9995
2 66050  89.0034  34.8205 0001576  99.9446 260.1883 13.51020323 44348
QIANFAN-109             
1 68636U 26075A   26251.24089979  .00000082  00000+0  10885-3 0  9997
2 68636  88.9886 312.5408 0002396  87.5855 272.5570 13.51019757 21009
QIANFAN-110             
1 68637U 26075B   26251.24915000  .00000076  00000+0  99652-4 0  9994
2 68637  88.9886 312.5615 0002303 100.4389 259.7021 13.51030853 21003
QIANFAN-111             
1 68638U 26075C   26251.23699282  .00000082  00000+0  10824-3 0  9995
2 68638  88.9885 312.5218 0002291  99.8670 260.2740 13.51020193 21025
QIANFAN-112             
1 68639U 26075D   26251.27394731  .00000075  00000+0  96931-4 0  9997
2 68639  88.9883 312.5260 0002585  90.7343 269.4105 13.51022605 21020
QIANFAN-113             
1 68640U 26075E   26251.24500328  .00000082  00000+0  10769-3 0  9999
2 68640  88.9889 312.5273 0002399  98.4900 261.6523 13.51028726 21027
QIANFAN-114             
1 68641U 26075F   26251.25326003  .00000060  00000+0  74735-4 0  9997
2 68641  88.9884 312.5416 0002287  99.4041 260.7369 13.51026826 21011
QIANFAN-115             
1 68642U 26075G   26251.28211614  .00000079  00000+0  10360-3 0  9995
2 68642  88.9884 312.5459 0002226  95.7086 264.4320 13.51023499 21011
QIANFAN-116             
1 68643U 26075H   26250.82537946  .00000059  00000+0  73301-4 0  9997
2 68643  88.9878 312.5469 0002558  94.1139 266.0305 13.51024023 20964
QIANFAN-117             
1 68644U 26075J   26251.25748264  .00000057  00000+0  69776-4 0  9992
2 68644  88.9882 312.5222 0002352  93.4283 266.7137 13.51021915 21026
QIANFAN-118             
1 68645U 26075K   26251.21627347  .00000073  00000+0  94005-4 0  9998
2 68645  88.9887 312.5384 0002331 102.6945 257.4467 13.51023789 21019
QIANFAN-119             
1 68646U 26075L   26250.89529669  .00000063  00000+0  79299-4 0  9997
2 68646  88.9887 312.5668 0002332  90.3797 269.7621 13.51021821 20971
QIANFAN-120             
1 68647U 26075M   26251.27791575  .00000089  00000+0  11923-3 0  9995
2 68647  88.9889 312.5141 0002215  87.8688 272.2717 13.51019243 21038
QIANFAN-121             
1 68648U 26075N   26251.22869306  .00000067  00000+0  85369-4 0  9991
2 68648  88.9886 312.5222 0002263 101.0034 259.1371 13.51022797 21020
QIANFAN-122             
1 68649U 26075P   26251.22044104  .00000077  00000+0  10010-3 0  9994
2 68649  88.9885 312.5203 0002380  91.3535 268.7888 13.51026341 21013
QIANFAN-123             
1 68650U 26075Q   26251.26146690  .00000060  00000+0  74975-4 0  9996
2 68650  88.9882 312.5034 0002452  86.2918 273.8514 13.51031516 21004
QIANFAN-124             
1 68651U 26075R   26251.21223297  .00000076  00000+0  99601-4 0  9991
2 68651  88.9884 312.5196 0002433  90.5148 269.6282 13.51025907 21022
QIANFAN-125             
1 68652U 26075S   26251.22457987  .00000064  00000+0  80427-4 0  9991
2 68652  88.9884 312.5203 0002296 101.0987 259.0423 13.51022884 21029
QIANFAN-126             
1 68653U 26075T   26251.23267470  .00000076  00000+0  99213-4 0  9995
2 68653  88.9888 312.4885 0002427  86.3926 273.7503 13.51028206 21041
QIANFAN-127             
1 69073U 26104A   26251.23797287  .00000086  00000+0  11439-3 0  9993
2 69073  88.9936 333.0022 0002361 106.1993 253.9418 13.51025726 16375
QIANFAN-128             
1 69074U 26104B   26251.24618707  .00000102  00000+0  14004-3 0  9994
2 69074  88.9914 333.0279 0002030 114.6251 245.5112 13.51021875 16357
QIANFAN-129             
1 69075U 26104C   26251.27080536  .00000113  00000+0  15620-3 0  9998
2 69075  88.9917 332.9594 0002195 111.1915 248.9471 13.51021824 16393
QIANFAN-130             
1 69076U 26104D   26251.23380314  .00000101  00000+0  13807-3 0  9994
2 69076  88.9919 333.0287 0002571 103.6559 256.4879 13.51032436 16358
QIANFAN-131             
1 69077U 26104E   26251.25452725  .00000097  00000+0  13210-3 0  9995
2 69077  88.9913 332.9879 0001981 106.6382 253.4987 13.51024029 16377
QIANFAN-132             
1 69078U 26104F   26251.24199354  .00000099  00000+0  13538-3 0  9996
2 69078  88.9915 333.0455 0002411 104.5953 255.5465 13.51020197 16345
QIANFAN-133             
1 69079U 26104G   26251.25040609  .00000115  00000+0  16017-3 0  9990
2 69079  88.9918 332.9945 0001812 110.6459 249.4887 13.51029024 16364
QIANFAN-134             
1 69080U 26104H   26251.27916778  .00000107  00000+0  14752-3 0  9998
2 69080  88.9922 333.0175 0001995 113.1932 246.9430 13.51027401 16367
QIANFAN-135             
1 69081U 26104J   26251.25845277  .00000096  00000+0  13001-3 0  9995
2 69081  88.9916 333.0110 0002201 116.6798 243.4579 13.51020482 16367
QIANFAN-136             
1 69082U 26104K   26251.26680153  .00000118  00000+0  16442-3 0  9994
2 69082  88.9918 333.0130 0001852 111.7210 248.4139 13.51030475 16368
QIANFAN-137             
1 69083U 26104L   26251.26267805  .00000111  00000+0  15293-3 0  9996
2 69083  88.9927 332.8890 0002326 103.7508 256.3902 13.51030211 16439
QIANFAN-138             
1 69084U 26104M   26251.21318297  .00000090  00000+0  12003-3 0  9996
2 69084  88.9912 333.0186 0002428 111.0452 249.0959 13.51020915 16350
QIANFAN-139             
1 69085U 26104N   26251.27515511  .00000109  00000+0  15031-3 0  9996
2 69085  88.9914 332.9942 0002471 106.4942 253.6481 13.51028743 16371
QIANFAN-140             
1 69086U 26104P   26251.28315402  .00000105  00000+0  14352-3 0  9996
2 69086  88.9914 332.9969 0002301 116.4612 243.6775 13.51020995 16374
QIANFAN-141             
1 69087U 26104Q   26251.21740080  .00000108  00000+0  14817-3 0  9993
2 69087  88.9911 332.9682 0002121 114.3596 245.7777 13.51027068 16386
QIANFAN-142             
1 69088U 26104R   26251.22557350  .00000109  00000+0  15012-3 0  9990
2 69088  88.9910 332.9669 0002337 112.2545 247.8854 13.51029549 16386
QIANFAN-143             
1 69089U 26104S   26251.22156550  .00000098  00000+0  13297-3 0  9998
2 69089  88.9921 332.9726 0001941 104.9296 255.2071 13.51025599 16389
QIANFAN-144             
1 69090U 26104T   26251.22967891  .00000101  00000+0  13704-3 0  9996
2 69090  88.9919 332.9902 0002456 109.5619 250.5798 13.51029871 16376
QIANFAN-145             
1 69104U 26108A   26251.30807629  .00000081  00000+0  10645-3 0  9995
2 69104  89.0180  13.7435 0001675  94.9029 265.2314 13.51032584 15666
QIANFAN-146             
1 69105U 26108B   26251.19298821  .00000092  00000+0  12448-3 0  9996
2 69105  89.0182  13.5918 0002035  98.7154 261.4228 13.51038043 15742
QIANFAN-147             
1 69106U 26108C   26251.31643835  .00000076  00000+0  99522-4 0  9991
2 69106  89.0182  13.7468 0002071 103.2985 256.8398 13.51023160 15659
QIANFAN-148             
1 69107U 26108D   26251.22996189  .00000092  00000+0  12373-3 0  9991
2 69107  89.0175  13.7462 0001879 107.7232 252.4125 13.51022673 15642
QIANFAN-149             
1 69108U 26108E   26251.31218262  .00000083  00000+0  10952-3 0  9992
2 69108  89.0175  13.7593 0002148 111.3198 248.8183 13.51022202 15652
QIANFAN-150             
1 69109U 26108F   26251.32038556  .00000071  00000+0  91516-4 0  9993
2 69109  89.0180  13.7111 0002178 110.3168 249.8217 13.51022724 15674
QIANFAN-151             
1 69110U 26108G   26251.27532627  .00000103  00000+0  14107-3 0  9993
2 69110  89.0179  13.7393 0001846  99.0825 261.0535 13.51025853 15653
QIANFAN-152             
1 69111U 26108H   26251.32862848  .00000083  00000+0  11019-3 0  9997
2 69111  89.0176  13.7263 0002303 100.4131 259.7280 13.51027037 15672
QIANFAN-153             
1 69112U 26108J   26251.25043025  .00000080  00000+0  10474-3 0  9999
2 69112  89.0172  13.7108 0002182 105.8905 254.2487 13.51023025 15661
QIANFAN-154             
1 69113U 26108K   26251.25881134  .00000087  00000+0  11675-3 0  9992
2 69113  89.0182  13.7576 0002064 106.5930 253.5448 13.51025010 15651
QIANFAN-155             
1 69114U 26108L   26251.26278467  .00000087  00000+0  11575-3 0  9992
2 69114  89.0180  13.7221 0002192 107.9557 252.1834 13.51021872 15666
QIANFAN-156             
1 69115U 26108M   26251.28332600  .00000071  00000+0  91452-4 0  9991
2 69115  89.0194  13.7196 0001834 104.7210 255.4145 13.51021773 15689
QIANFAN-157             
1 69116U 26108N   26251.27119539  .00000087  00000+0  11676-3 0  9991
2 69116  89.0176  13.6463 0001921 110.7152 249.4205 13.51026487 15716
QIANFAN-158             
1 69117U 26108P   26251.28744653  .00000078  00000+0  10178-3 0  9990
2 69117  89.0177  13.6858 0001828 102.3175 257.8181 13.51033602 15694
QIANFAN-159             
1 69118U 26108Q   26251.20518071  .00000074  00000+0  96446-4 0  9995
2 69118  89.0169  13.7013 0001897 100.8950 259.2415 13.51021706 15676
QIANFAN-160             
1 69119U 26108R   26251.29583707  .00000089  00000+0  12002-3 0  9994
2 69119  89.0184  13.7279 0002293 109.6487 250.4912 13.51021916 15679
QIANFAN-161             
1 69120U 26108S   26251.22576878  .00000090  00000+0  12109-3 0  9990
2 69120  89.0192  13.6508 0001836 101.0902 259.0456 13.51036839 15717
QIANFAN-162             
1 69121U 26108T   26251.29158354  .00000084  00000+0  11143-3 0  9993
2 69121  89.0181  13.6707 0002182 100.9904 259.1493 13.51021186 15690
QIANFAN-163             
1 69325U 26121A   26251.03403400  .00000047  00000+0  54625-4 0  9993
2 69325  89.0120 292.2710 0001968 125.2853 234.8482 13.51022079 13353
QIANFAN-164             
1 69326U 26121B   26251.07518039  .00000070  00000+0  89388-4 0  9993
2 69326  89.0117 292.2575 0001784 111.2227 248.9115 13.51020900 13366
QIANFAN-165             
1 69382U 26124A   26251.30705336  .00000119  00000+0  16614-3 0  9997
2 69382  89.0071 353.2468 0001606 116.3966 243.7350 13.51019815 13261
QIANFAN-166             
1 69383U 26124B   26251.23714474  .00000124  00000+0  17331-3 0  9996
2 69383  89.0089 353.2625 0001854  99.9255 260.2105 13.51020271 13257
QIANFAN-167             
1 69384U 26124C   26251.24121686  .00000124  00000+0  17414-3 0  9997
2 69384  89.0063 353.2708 0002125 108.5255 251.6127 13.51029369 13245
QIANFAN-168             
1 69385U 26124D   26250.87486771  .00000113  00000+0  15692-3 0  9999
2 69385  89.0059 353.2877 0001643  98.3593 261.7744 13.51018603 13205
QIANFAN-169             
1 69386U 26124E   26251.24946541  .00000119  00000+0  16556-3 0  9994
2 69386  89.0058 353.2503 0001939  97.1663 262.9709 13.51021360 13257
QIANFAN-170             
1 69387U 26124F   26251.25355288  .00000116  00000+0  16091-3 0  9999
2 69387  89.0075 353.2201 0001927  94.8087 265.3284 13.51023812 13274
QIANFAN-171             
1 69388U 26124G   26251.26182298  .00000093  00000+0  12481-3 0  9993
2 69388  89.0090 353.2300 0002108 104.3250 255.8136 13.51016785 13274
QIANFAN-172             
1 69389U 26124H   26251.25768772  .00000107  00000+0  14649-3 0  9994
2 69389  89.0073 353.2223 0001599 110.9638 249.1685 13.51027384 13278
QIANFAN-173             
1 69390U 26124J   26251.26574799  .00000072  00000+0  92200-4 0  9992
2 69390  89.0062 353.2192 0001712  95.2511 264.8836 13.51020223 13272
QIANFAN-174             
1 69391U 26124K   26251.27820986  .00000118  00000+0  16484-3 0  9996
2 69391  89.0042 353.1778 0002102 110.6501 249.4876 13.51028158 13284
QIANFAN-175             
1 69392U 26124L   26251.28236630  .00000119  00000+0  16539-3 0  9997
2 69392  89.0094 353.2162 0001885  98.6203 261.5162 13.51018273 13281
QIANFAN-176             
1 69393U 26124M   26251.28646800  .00000109  00000+0  14988-3 0  9997
2 69393  89.0056 353.2002 0001892  99.0203 261.1163 13.51019075 13273
QIANFAN-177             
1 69394U 26124N   26251.29475712  .00000102  00000+0  13946-3 0  9997
2 69394  89.0066 353.1867 0002009 109.5332 250.6036 13.51028123 13292
QIANFAN-178             
1 69395U 26124P   26251.29054877  .00000114  00000+0  15806-3 0  9993
2 69395  89.0012 353.1494 0001910  98.5319 261.6049 13.51024103 13304
QIANFAN-179             
1 69396U 26124Q   26251.29887544  .00000107  00000+0  14740-3 0  9997
2 69396  89.0044 353.1629 0001894  97.9549 262.1817 13.51027529 13303
QIANFAN-180             
1 69397U 26124R   26251.30293367  .00000011  00000+0 -14653-5 0  9994
2 69397  89.0050 353.1827 0001969  94.3099 265.8278 13.51019811 13299
QIANFAN-181             
1 69398U 26124S   26251.27001728  .00000114  00000+0  15758-3 0  9997
2 69398  89.0073 353.2768 0002112 106.9846 253.1537 13.51021611 13245
QIANFAN-182             
1 69399U 26124T   26251.27410373  .00000118  00000+0  16391-3 0  9996
2 69399  89.0047 353.2498 0001858 100.3190 259.8171 13.51026183 13249
QIANFAN-183             
1 69401U 26125A   26251.23466559  .00000046  00000+0  52300-4 0  9995
2 69401  88.9838 271.5624 0001858 100.6669 259.4692 13.51027196 13155
QIANFAN-184             
1 69402U 26125B   26251.31698265  .00000063  00000+0  78518-4 0  9994
2 69402  88.9889 271.5752 0001882  96.0246 264.1120 13.51028288 13163
QIANFAN-185             
1 69403U 26125C   26251.26760592  .00000046  00000+0  53121-4 0  9996
2 69403  88.9903 271.5184 0001788  96.7190 263.4164 13.51017348 13198
QIANFAN-186             
1 69404U 26125D   26251.23870174  .00000055  00000+0  66436-4 0  9995
2 69404  88.9891 271.5829 0001949  95.3705 264.7669 13.51008054 13151
QIANFAN-187             
1 69405U 26125E   26251.24687339  .00000051  00000+0  60712-4 0  9993
2 69405  88.9891 271.5648 0002011 100.8513 259.2865 13.51007129 13161
QIANFAN-188             
1 69406U 26125F   26251.32924872  .00000048  00000+0  55028-4 0  9999
2 69406  88.9889 271.5564 0001854 102.0362 258.0997 13.51029033 13178
QIANFAN-189             
1 69407U 26125G   26251.26334463  .00000032  00000+0  30550-4 0  9990
2 69407  88.9872 271.5599 0001796 108.1636 251.9711 13.51028217 13152
QIANFAN-190             
1 69408U 26125H   26251.32510507  .00000060  00000+0  73831-4 0  9993
2 69408  88.9873 271.5512 0001843  94.1080 266.0282 13.51033056 13178
QIANFAN-191             
1 69409U 26125J   26251.27579520  .00000055  00000+0  66429-4 0  9997
2 69409  88.9887 271.5667 0001830 101.2635 258.8722 13.51032655 13168
QIANFAN-192             
1 69410U 26125K   26251.25921927  .00000045  00000+0  51217-4 0  9997
2 69410  88.9894 271.5682 0001875 106.2826 253.8532 13.51029928 13164
QIANFAN-193             
1 69411U 26125L   26251.21000198  .00000043  00000+0  48032-4 0  9991
2 69411  88.9872 271.5520 0001735 100.4259 259.7088 13.51027179 13160
QIANFAN-194             
1 69412U 26125M   26251.20586248  .00000039  00000+0  41687-4 0  9990
2 69412  88.9904 271.5632 0001864 101.6688 258.4673 13.51025886 13151
QIANFAN-195             
1 69413U 26125N   26250.76823028 -.01895660  00000+0 -33151+1 0  9999
2 69413  88.9901 271.5923 0002687 243.7855 116.3019 13.47771887 13116
QIANFAN-196             
1 69414U 26125P   26251.22232526  .00000023  00000+0  16706-4 0  9998
2 69414  88.9910 271.5497 0001870  90.5805 269.5560 13.51035055 13172
QIANFAN-197             
1 69415U 26125Q   26250.56401530  .00000040  00000+0  43726-4 0  9999
2 69415  88.9886 271.5914 0001857  98.8319 261.3042 13.51023436 13080
QIANFAN-198             
1 69416U 26125R   26251.21822067  .00000038  00000+0  40552-4 0  9996
2 69416  88.9879 271.5379 0001846 102.2394 257.8964 13.51027838 13172
QIANFAN-199             
1 69417U 26125S   26251.30054059  .00000037  00000+0  38902-4 0  9990
2 69417  88.9883 271.4792 0002053 103.1347 257.0033 13.51025411 13214
QIANFAN-200             
1 69418U 26125T   26251.27168734  .00000051  00000+0  60673-4 0  9999
2 69418  88.9890 271.5669 0001800 105.0007 255.1343 13.51025946 13160
QIANFAN-201             
1 69800U 26153A   26250.87280999 -.01966539  00000+0 -14323+1 0  9990
2 69800  88.9973 352.8533 0006454  33.9946 326.1645 14.00164992  9283
QIANFAN-202             
1 69801U 26153B   26251.23681012  .00000047  00000+0  17262-4 0  9992
2 69801  88.9978 352.7960 0008624  20.8993 339.2545 14.14361842  9338
QIANFAN-203             
1 69802U 26153C   26251.22777008  .00000069  00000+0  30186-4 0  9997
2 69802  88.9979 352.8320 0007737  25.4808 334.6757 14.11320500  9327
QIANFAN-204             
1 69803U 26153D   26250.90305556  .00000031  00000+0  91935-5 0  9996
2 69803  88.9978 352.8582 0007956  24.3548 335.8013 14.12804113  9280
QIANFAN-205             
1 69804U 26153E   26251.26610349  .00000043  00000+0  16573-4 0  9993
2 69804  88.9978 352.8374 0008157  22.2900 337.8637 14.10095874  9326
QIANFAN-206             
1 69805U 26153F   26251.17169588  .00000052  00000+0  19392-4 0  9990
2 69805  88.9979 352.8050 0008141  29.5037 330.6609 14.15967991  9337
QIANFAN-207             
1 69806U 26153G   26250.92391585  .00000082  00000+0  37442-4 0  9996
2 69806  88.9978 352.8608 0007959  20.9797 339.1713 14.11295315  9284
QIANFAN-208             
1 69807U 26153H   26250.88062942 -.01982408  00000+0 -13739+1 0  9997
2 69807  88.9971 352.8551 0004490 119.2884 240.8746 14.02998781  9293
QIANFAN-209             
1 69808U 26153J   26250.79752217 -.01934801  00000+0 -12381+1 0  9995
2 69808  88.9974 352.8795 0008522  27.9347 332.2292 14.07330431  9262
QIANFAN-210             
1 69809U 26153K   26251.27230703  .00000065  00000+0  27963-4 0  9990
2 69809  88.9978 352.8207 0008663  23.9044 336.2542 14.11498752  9337
QIANFAN-211             
1 69810U 26153L   26251.26607442  .00000300  00000+0  14903-3 0  9990
2 69810  88.9979 352.8006 0008208  25.3740 334.7849 14.14535876  9347
QIANFAN-212             
1 69811U 26153M   26250.86421081  .00000072  00000+0  31098-4 0  9990
2 69811  88.9978 352.8516 0009581  27.5518 332.6174 14.13090272  9281
QIANFAN-213             
1 69812U 26153N   26251.29538654  .00000067  00000+0  28453-4 0  9999
2 69812  88.9978 352.8046 0008105  22.8058 337.3486 14.12648943  9346
QIANFAN-214             
1 69813U 26153P   26250.85748455 -.01914648  00000+0 -11029+1 0  9992
2 69813  88.9973 352.8133 0009472  44.8277 315.3672 14.13053801  9307
QIANFAN-215             
1 69814U 26153Q   26250.86029090  .00000055  00000+0  18497-4 0  9996
2 69814  88.9977 352.7753 0008707  33.6777 326.4966 14.21805351  9325
QIANFAN-216             
1 69815U 26153R   26251.23727755  .00000062  00000+0  23390-4 0  9998
2 69815  88.9979 352.7587 0007924  34.3986 325.7714 14.18100775  9364
QIANFAN-217             
1 69816U 26153S   26250.87646470  .00000066  00000+0  21258-4 0  9997
2 69816  88.9977 352.7401 0008457  36.5460 323.6309 14.26806571  9342
QIANFAN-218             
1 69817U 26153T   26251.29524980  .00000467  00000+0  18679-3 0  9993
2 69817  88.9980 352.6938 0008070  34.0504 326.1207 14.26851849  9404
QIANFAN-219             
1 69848U 26155A   26250.84961834  .00000042  00000+0  40759-4 0  9996
2 69848  89.0066  54.9816 0037939  45.3426 315.0811 13.58627851  9020
QIANFAN-220             
1 69849U 26155B   26250.81877748  .00000046  00000+0  39907-4 0  9991
2 69849  89.0075  55.0164 0034980  45.0920 315.3070 13.67304160  9001
QIANFAN-221             
1 69850U 26155C   26250.87729942 -.02059433  00000+0 -19312+1 0  9993
2 69850  89.0063  54.8187 0030654  50.8895 309.4994 13.85586589  9119
QIANFAN-222             
1 69851U 26155D   26251.25478902  .00000029  00000+0  23558-4 0  9998
2 69851  89.0071  54.9858 0035388  43.9724 316.4237 13.57843945  9050
QIANFAN-223             
1 69852U 26155E   26251.08905542  .00000042  00000+0  41483-4 0  9997
2 69852  89.0073  54.9996 0035670  44.1928 316.2067 13.57851116  9035
QIANFAN-224             
1 69853U 26155F   26251.04667200  .00000042  00000+0  37716-4 0  9994
2 69853  89.0050  54.9627 0036202  47.8819 312.5406 13.62244511  9041
QIANFAN-225             
1 69854U 26155G   26251.25974649  .00000052  00000+0  54344-4 0  9993
2 69854  89.0065  54.9838 0035549  42.6764 317.7142 13.57849325  9050
QIANFAN-226             
1 69855U 26155H   26250.97953308  .00000042  00000+0  41088-4 0  9991
2 69855  89.0065  54.9978 0037019  45.3795 315.0369 13.58330173  9020
QIANFAN-227             
1 69856U 26155J   26250.79672842  .00000042  00000+0  39225-4 0  9993
2 69856  89.0042  55.0061 0036432  46.1488 314.2669 13.60213654  9006
QIANFAN-228             
1 69857U 26155K   26250.85876833 -.01975005  00000+0 -29797+1 0  9999
2 69857  89.0062  55.0016 0035994  49.5255 310.9027 13.56400547  9016
QIANFAN-229             
1 69858U 26155L   26251.20802396  .00000043  00000+0  39571-4 0  9996
2 69858  89.0071  54.9422 0036009  43.3532 317.0447 13.61697224  9070
QIANFAN-230             
1 69859U 26155M   26250.86975296 -.01985628  00000+0 -28547+1 0  9999
2 69859  89.0061  55.0182 0035634  36.3248 324.0317 13.59456389  9003
QIANFAN-231             
1 69860U 26155N   26250.82432975  .00000044  00000+0  40337-4 0  9991
2 69860  89.0067  54.9777 0038056  44.0274 316.3903 13.62062757  9028
QIANFAN-232             
1 69861U 26155P   26250.72850499 -.02074955  00000+0 -30634+1 0  9997
2 69861  89.0062  54.9804 0024273  43.5682 316.7384 13.58112377  9013
QIANFAN-233             
1 69862U 26155Q   26251.02230476  .00000043  00000+0  39531-4 0  9991
2 69862  89.0071  54.9521 0037381  42.6734 317.7317 13.62527256  9054
QIANFAN-234             
1 69863U 26155R   26250.87323763  .00000041  00000+0  31280-4 0  9997
2 69863  89.0068  54.9303 0034668  42.9719 317.4142 13.72193244  9050
QIANFAN-235             
1 69864U 26155S   26250.91142961  .00000057  00000+0  30194-4 0  9992
2 69864  89.0072  54.7916 0031328  50.3145 310.0788 13.98516191  9132
QIANFAN-236             
1 69865U 26155T   26250.82349429  .00000044  00000+0  41429-4 0  9990
2 69865  89.0071  54.9964 0035080  44.6985 315.6990 13.61447715  9012
QIANFAN-237             
1 69866U 26155U   26250.90093537  .00000040  00000+0  33897-4 0  9992
2 69866  89.0072  54.9538 0037286  43.2711 317.1366 13.65608681  9034
QIANFAN-238             
1 69867U 26155V   26250.81523596  .00000045  00000+0  43969-4 0  9992
2 69867  89.0073  54.9767 0026495  41.7863 318.5310 13.59267077  9027
