KUIPER-00008            
1 63724U 25088A   26280.23947152  .00000345  00000+0  74267-4 0  9997
2 63724  51.9022 232.5347 0000786  65.8275 294.2770 14.79933916 79372
KUIPER-00009            
1 63725U 25088B   26280.29527875  .00004886  00000+0  33028-3 0  9993
2 63725  51.9017 236.2805 0001311  38.1691 321.9376 15.08199255 79325
KUIPER-00010            
1 63726U 25088C   26280.21111283  .00001062  00000+0  16835-3 0  9998
2 63726  51.9019 227.7735 0000906  65.1700 294.9357 14.79932785 79053
KUIPER-00011            
1 63727U 25088D   26280.16926068  .00001028  00000+0  16381-3 0  9996
2 63727  51.9009 235.4985 0000907  59.8002 300.3050 14.79940050 79070
KUIPER-00012            
1 63728U 25088E   26280.21920047  .00000999  00000+0  15999-3 0  9994
2 63728  51.9017 220.2197 0001007  78.5392 281.5683 14.79939144 79242
KUIPER-00013            
1 63729U 25088F   26280.28544658  .00000778  00000+0  13103-3 0  9992
2 63729  51.9018 252.4467 0000677  81.0444 279.0595 14.79932644 78904
KUIPER-00014            
1 63730U 25088G   26280.11661031  .00001025  00000+0  16342-3 0  9995
2 63730  51.9024 253.1379 0000807  51.6825 308.4210 14.79931908 78693
KUIPER-00015            
1 63731U 25088H   26280.13960604 -.00000501  00000+0 -36704-4 0  9991
2 63731  51.8998 263.0772 0000851  47.6507 312.4527 14.79927763 79018
KUIPER-00016            
1 63732U 25088J   26280.18144959 -.00000092  00000+0  16939-4 0  9996
2 63732  51.9002 255.3542 0000784  47.7815 312.3213 14.79932460 78664
KUIPER-00018            
1 63733U 25088K   26280.29353386  .00000904  00000+0  14752-3 0  9996
2 63733  51.9029 244.9102 0000802  56.3531 303.7508 14.79936344 78826
KUIPER-00019            
1 63734U 25088L   26280.25263687 -.00000351  00000+0 -17021-4 0  9998
2 63734  51.9014 243.8306 0000947  48.1805 311.9238 14.79918894 78830
KUIPER-00020            
1 63735U 25088M   26280.29083901 -.00000195  00000+0  33715-5 0  9996
2 63735  51.9018 247.4137 0000904  62.4539 297.6516 14.79934610 78993
KUIPER-00021            
1 63736U 25088N   26280.25706506  .00000733  00000+0  12519-3 0  9990
2 63736  51.9012 247.5108 0000638  61.1219 298.9807 14.79931002 78823
KUIPER-00023            
1 63737U 25088P   26280.28812911  .00000871  00000+0  14325-3 0  9992
2 63737  51.9011 249.8635 0000810  59.1803 300.9239 14.79930902 79092
KUIPER-00024            
1 63738U 25088Q   26280.30163037  .00000036  00000+0  33725-4 0  9993
2 63738  51.9037 237.4228 0000920  66.1855 293.9204 14.79933478 79396
KUIPER-00025            
1 63739U 25088R   26280.25977300 -.00000131  00000+0  11849-4 0  9994
2 63739  51.9033 245.0892 0000827  59.6355 300.4689 14.79933569 79148
KUIPER-00027            
1 63740U 25088S   26280.09634720 -.00000150  00000+0  93357-5 0  9990
2 63740  51.9023 240.7667 0000756  73.5304 286.5742 14.79929823 78928
KUIPER-00028            
1 63741U 25088T   26280.26784957  .00000874  00000+0  14370-3 0  9996
2 63741  51.9000 237.4454 0000871  46.1198 313.9836 14.79934312 79396
KUIPER-00029            
1 63742U 25088U   26280.24386590  .00001247  00000+0  19259-3 0  9992
2 63742  51.9027 236.2530 0000995  41.8803 318.2236 14.79934479 78935
KUIPER-00030            
1 63743U 25088V   26280.28274485  .00000818  00000+0  13627-3 0  9992
2 63743  51.9015 254.9011 0000789  48.1897 311.9133 14.79930748 78962
KUIPER-00031            
1 63744U 25088W   26280.26512823  .00004175  00000+0  57586-3 0  9994
2 63744  51.9015 240.0006 0001000  47.1588 312.9458 14.79963804 78887
KUIPER-00032            
1 63745U 25088X   26279.85545056  .00013169  00000+0  30280-3 0  9997
2 63745  51.8654  78.4573 0004714 151.0316 209.0935 15.42984745 82099
KUIPER-00033            
1 63746U 25088Y   26280.16527515  .00002144  00000+0  31018-3 0  9995
2 63746  51.9008 270.4422 0000730  35.2991 324.8020 14.79931446 78935
KUIPER-00034            
1 63747U 25088Z   26280.27324920  .00000902  00000+0  14733-3 0  9998
2 63747  51.9016 232.5019 0000830  69.7804 290.3248 14.79937045 79157
KUIPER-00035            
1 63748U 25088AA  26280.31381391  .00001107  00000+0  17414-3 0  9996
2 63748  51.9002 257.2842 0000749  52.9251 307.1780 14.79935749 78864
KUIPER-00037            
1 63749U 25088AB  26280.30673644  .00000959  00000+0  15472-3 0  9997
2 63749  51.9012 256.1777 0000739  53.4497 306.6533 14.79932577 79663
KUIPER-00038            
1 63750U 25088AC  26280.29623355  .00001022  00000+0  16299-3 0  9991
2 63750  51.9017 242.3998 0000802  80.0152 280.0901 14.79936583 78852
KUIPER-00039            
1 64500U 25134A   26280.26879155  .00000376  00000+0  78255-4 0  9997
2 64500  51.9022  17.5173 0000288 101.1950 258.9045 14.79937696 71401
KUIPER-00040            
1 64501U 25134B   26280.29178192  .00002438  00000+0  34861-3 0  9999
2 64501  51.8993  27.4686 0000445 139.4353 220.6642 14.79936880 71260
KUIPER-00041            
1 64502U 25134C   26280.25530489  .00000955  00000+0  15420-3 0  9999
2 64502  51.8994  30.0234 0000357 114.7658 245.3342 14.79936470 71229
KUIPER-00042            
1 64503U 25134D   26280.29446251  .00002649  00000+0  37623-3 0  9998
2 64503  51.9004  24.8274 0000247 104.9058 255.1932 14.79938682 71301
KUIPER-00043            
1 64504U 25134E   26280.30255814  .00000506  00000+0  95374-4 0  9992
2 64504  51.9023  17.3108 0000402 115.4011 244.6993 14.79930897 71417
KUIPER-00044            
1 64505U 25134F   26280.28906671  .00000409  00000+0  82639-4 0  9996
2 64505  51.8990  29.8556 0000359 124.8932 235.2064 14.79935978 71232
KUIPER-00046            
1 64506U 25134G   26280.32553061  .00000672  00000+0  11720-3 0  9997
2 64506  51.9001  27.1633 0000660 142.3129 217.7880 14.79931267 71274
KUIPER-00047            
1 64507U 25134H   26280.25389225  .00002437  00000+0  34849-3 0  9997
2 64507  51.9007   0.0121 0000196  81.5988 278.4997 14.79935978 71641
KUIPER-00048            
1 64508U 25134J   26280.22013795  .00000068  00000+0  37848-4 0  9992
2 64508  51.8995   0.1725 0000203  76.6785 283.4200 14.79931642 71644
KUIPER-00049            
1 64509U 25134K   26279.70017235  .00001114  00000+0  17512-3 0  9995
2 64509  51.9009  14.9473 0000388  96.1824 263.9183 14.79933489 71396
KUIPER-00050            
1 64510U 25134L   26279.51644524  .00002452  00000+0  35051-3 0  9997
2 64510  51.9012 358.2797 0000268  68.8704 291.2287 14.79926379 71619
KUIPER-00051            
1 64511U 25134M   26280.28395704  .00000485  00000+0  92608-4 0  9993
2 64511  51.9021  11.0637 0000241 110.0054 250.0934 14.79932082 71492
KUIPER-00053            
1 64513U 25134P   26280.27084705  .00001461  00000+0  21215-3 0  9990
2 64513  51.9022   5.3201 0001911 184.3207 175.7740 14.81673370 71579
KUIPER-00054            
1 64514U 25134Q   26280.21743270  .00000329  00000+0  72148-4 0  9998
2 64514  51.8976   2.6590 0000391  99.3670 260.7336 14.79936823 71600
KUIPER-00055            
1 64515U 25134R   26280.09985541  .00002718  00000+0  38547-3 0  9992
2 64515  51.9022 315.8373 0000592  72.9043 287.1985 14.79930585 72250
KUIPER-00056            
1 64516U 25134S   26279.77310873  .00002594  00000+0  36903-3 0  9992
2 64516  51.9038   9.7484 0000190 119.1668 240.9314 14.79942758 71472
KUIPER-00057            
1 64517U 25134T   26280.30523999  .00002352  00000+0  33745-3 0  9992
2 64517  51.9011  14.8030 0000308  89.7313 270.3684 14.79933959 71445
KUIPER-00058            
1 64518U 25134U   26280.27687753  .00000748  00000+0  12709-3 0  9992
2 64518  51.9010   9.9100 0000297  97.5368 262.5628 14.79932511 71514
KUIPER-00059            
1 64519U 25134V   26280.28225000  .00002353  00000+0  33739-3 0  9997
2 64519  51.9023   4.9207 0000369  58.4563 301.6436 14.79954879 71585
KUIPER-00060            
1 64520U 25134W   26280.24851940  .00002202  00000+0  31773-3 0  9992
2 64520  51.9039   5.1533 0000264  82.3328 277.7665 14.79939027 71561
KUIPER-00061            
1 64521U 25134X   26280.27418466  .00000454  00000+0  88489-4 0  9992
2 64521  51.9021  12.4771 0000298 107.3563 252.7432 14.79935639 71463
KUIPER-00062            
1 64522U 25134Y   26280.27147744 -.00000102  00000+0  15551-4 0  9992
2 64522  51.8972  14.9254 0000287  90.2521 269.8475 14.79932494 71443
KUIPER-00063            
1 64523U 25134Z   26280.26340373 -.00000236  00000+0 -19985-5 0  9990
2 64523  51.9025  22.5702 0000300  95.4091 264.6906 14.79933700 71333
KUIPER-00064            
1 64524U 25134AA  26280.26609354  .00002449  00000+0  35008-3 0  9996
2 64524  51.9039  19.9857 0000427 137.4841 222.6154 14.79936097 71375
KUIPER-00065            
1 64525U 25134AB  26280.32825639  .00000150  00000+0  48666-4 0  9992
2 64525  51.9048  24.8875 0000416 105.0001 255.1007 14.79931052 71293
KUIPER-00066            
1 64526U 25134AC  26280.15928501 -.00000157  00000+0  83367-5 0  9992
2 64526  51.9019 322.9001 0000356  41.7474 318.3516 14.79931386 72162
KUIPER-00069            
1 64816U 25151A   26279.81238092  .00002187  00000+0  31580-3 0  9995
2 64816  51.9020  67.0701 0000523 128.6856 231.4154 14.79939680 68023
KUIPER-00070            
1 64817U 25151B   26279.88670309  .00001931  00000+0  28216-3 0  9992
2 64817  51.8988  91.6382 0001148 120.7093 239.3983 14.79941543 67694
KUIPER-00071            
1 64818U 25151C   26279.88940108  .00001944  00000+0  28383-3 0  9999
2 64818  51.8996  89.1750 0000658 116.7091 243.3939 14.79941591 66545
KUIPER-00072            
1 64819U 25151D   26279.80967195 -.00001528  00000+0 -17150-3 0  9997
2 64819  51.8970  69.4429 0000768 114.2682 245.8361 14.79928678 66810
KUIPER-00073            
1 64820U 25151E   26279.85563864 -.00000887  00000+0 -87312-4 0  9994
2 64820  51.8994  89.2992 0001103 116.1231 243.9845 14.79930574 67723
KUIPER-00075            
1 64822U 25151G   26280.19044517  .00029267  00000+0  75598-3 0  9997
2 64822  51.8637 271.0782 0002832 319.2823  40.7952 15.38886769 69041
KUIPER-00076            
1 64823U 25151H   26279.86642686  .00001982  00000+0  28883-3 0  9990
2 64823  51.9001  79.2771 0000728 122.4646 237.6387 14.79936736 66683
KUIPER-00077            
1 64824U 25151J   26279.86102636  .00001888  00000+0  27648-3 0  9990
2 64824  51.9010  84.3243 0001034 123.4047 236.7014 14.79944490 66618
KUIPER-00078            
1 64825U 25151K   26279.89749214 -.00000391  00000+0 -22252-4 0  9990
2 64825  51.8992  81.6317 0000973 126.5811 233.5241 14.79929989 66650
KUIPER-00079            
1 64826U 25151L   26279.85833639 -.00000781  00000+0 -73382-4 0  9995
2 64826  51.8985  86.7586 0001128 119.1286 240.9790 14.79929476 67770
KUIPER-00080            
1 64827U 25151M   26279.82456389 -.00001011  00000+0 -10360-3 0  9999
2 64827  51.8990  86.9210 0000692 116.5112 243.5922 14.79929388 66572
KUIPER-00082            
1 64828U 25151N   26279.73676406  .00001898  00000+0  27791-3 0  9991
2 64828  51.9005  74.8747 0000818 125.3510 234.7529 14.79938881 66733
KUIPER-00083            
1 64829U 25151P   26279.86373711  .00001853  00000+0  27201-3 0  9996
2 64829  51.9006  81.7938 0000989 123.3635 236.7423 14.79936964 67836
KUIPER-00084            
1 64830U 25151Q   26279.92046623  .00002088  00000+0  30281-3 0  9997
2 64830  51.9004  91.5289 0000713 121.3117 238.7915 14.79941070 66518
KUIPER-00085            
1 64831U 25151R   26279.83807445  .00001968  00000+0  28715-3 0  9990
2 64831  51.9027  74.4872 0000722 122.8208 237.2824 14.79932216 66749
KUIPER-00086            
1 64832U 25151S   26279.75974296  .00002028  00000+0  29498-3 0  9998
2 64832  51.8999  84.7631 0000872 127.2296 232.8746 14.79937870 66594
KUIPER-00087            
1 64833U 25151T   26279.77860436  .00001897  00000+0  27764-3 0  9998
2 64833  51.8994  67.1314 0000582 123.0347 237.0672 14.79945389 66838
KUIPER-00089            
1 64834U 25151U   26279.84075242  .00000701  00000+0  12094-3 0  9993
2 64834  51.8999  71.8853 0000599 119.5211 240.5811 14.79930043 66781
KUIPER-00090            
1 64835U 25151V   26279.78131547  .00001946  00000+0  28420-3 0  9990
2 64835  51.8979  64.6381 0000665 131.6925 228.4095 14.79934943 66879
KUIPER-00091            
1 64836U 25151W   26279.84345486  .00001910  00000+0  27950-3 0  9995
2 64836  51.9008  69.3963 0000823 132.2090 227.8943 14.79935800 66810
KUIPER-00092            
1 64837U 25151X   26279.83532054  .00002022  00000+0  29414-3 0  9996
2 64837  51.9004  76.9185 0000638 114.5478 245.5551 14.79926852 67926
KUIPER-00093            
1 64838U 25151Y   26279.83265799 -.00000776  00000+0 -72760-4 0  9995
2 64838  51.8991  79.3992 0000806 124.7122 235.3916 14.79931066 66676
KUIPER-00094            
1 64839U 25151Z   26280.28639242  .00002387  00000+0  34206-3 0  9995
2 64839  51.9046  32.5159 0000542 136.3241 223.7765 14.79933534 67376
KUIPER-00081            
1 65132U 25171A   26280.02282340  .00002057  00000+0  29882-3 0  9997
2 65132  51.9006 293.5586 0000534  47.0744 313.0263 14.79930957 64334
KUIPER-00088            
1 65133U 25171B   26279.53122514  .00001863  00000+0  27329-3 0  9996
2 65133  51.9006 313.2316 0000371  46.1451 313.9542 14.79943212 64012
KUIPER-00095            
1 65134U 25171C   26280.02551447 -.00000484  00000+0 -34527-4 0  9993
2 65134  51.8981 291.0790 0000523  64.1969 295.9047 14.79929820 64362
KUIPER-00096            
1 65135U 25171D   26279.37050335  .00002314  00000+0  33241-3 0  9993
2 65135  51.8983 306.4342 0000495  37.0945 323.0051 14.79936852 64091
KUIPER-00097            
1 65136U 25171E   26280.11065738  .00001936  00000+0  28289-3 0  9996
2 65136  51.9024 305.8364 0000463  60.9935 299.1074 14.79934511 64150
KUIPER-00098            
1 65137U 25171F   26280.10794036 -.00000283  00000+0 -80778-5 0  9995
2 65137  51.9007 308.2051 0000564  64.9770 295.1250 14.79929663 63473
KUIPER-00099            
1 65138U 25171G   26280.08496879  .00001988  00000+0  28972-3 0  9994
2 65138  51.9024 298.3248 0000472  40.9199 319.1799 14.79934702 64260
KUIPER-00100            
1 65139U 25171H   26280.05388923  .00000419  00000+0  83951-4 0  9999
2 65139  51.9028 295.9269 0000545  49.8038 310.2972 14.79933422 64298
KUIPER-00102            
1 65140U 25171J   26279.37589139  .00000463  00000+0  89713-4 0  9997
2 65140  51.8987 301.3866 0000440  35.9328 324.1664 14.79931835 64153
KUIPER-00103            
1 65141U 25171K   26279.39078260  .00002382  00000+0  34125-3 0  9996
2 65141  51.9000 318.8257 0000384  41.7308 318.3684 14.79941642 63915
KUIPER-00104            
1 65142U 25171L   26280.07956824  .00001984  00000+0  28913-3 0  9990
2 65142  51.9023 303.3034 0000452  43.5859 316.5139 14.79932445 64197
KUIPER-00105            
1 65143U 25171M   26280.03772401 -.00000535  00000+0 -41168-4 0  9995
2 65143  51.9024 311.0793 0000457  42.1037 317.9960 14.79932524 64088
KUIPER-00106            
1 65144U 25171N   26280.08597353  .00008431  00000+0  11339-2 0  9998
2 65144  51.8989 289.6321 0000226 269.9007  90.1929 14.79918302 64392
KUIPER-00107            
1 65145U 25171P   26280.19165090 -.00000015  00000+0  27036-4 0  9994
2 65145  51.9012 292.8397 0000507  49.2790 310.8217 14.79932635 64353
KUIPER-00108            
1 65146U 25171Q   26280.07687919  .00002150  00000+0  31090-3 0  9996
2 65146  51.9033 305.8977 0000462  34.6493 325.4500 14.79940971 64162
KUIPER-00109            
1 65147U 25171R   26280.04850101  .00002033  00000+0  29556-3 0  9993
2 65147  51.9023 300.9647 0000467  47.1160 312.9842 14.79939690 64220
KUIPER-00110            
1 65148U 25171S   26280.13631718 -.00000122  00000+0  13044-4 0  9999
2 65148  51.9004 313.1178 0000440  53.9152 306.1851 14.79931958 64057
KUIPER-00111            
1 65149U 25171T   26280.09713767 -.00000043  00000+0  23348-4 0  9990
2 65149  51.8978 318.1469 0000508  30.9590 329.1402 14.79929186 63989
KUIPER-00112            
1 65150U 25171U   26280.01474573  .00002108  00000+0  30543-3 0  9990
2 65150  51.9014 301.1563 0000419  39.2008 320.8985 14.79935299 64210
KUIPER-00114            
1 65151U 25171V   26279.41916167  .00002448  00000+0  34993-3 0  9993
2 65151  51.9002 323.7448 0000393  40.2191 319.8800 14.79932727 63841
KUIPER-00115            
1 65152U 25171W   26280.10255060  .00001942  00000+0  28364-3 0  9993
2 65152  51.9011 313.2342 0000428  40.6365 319.4629 14.79940241 64054
KUIPER-00116            
1 65153U 25171X   26280.13092719 -.00000122  00000+0  13033-4 0  9995
2 65153  51.9006 318.1391 0000346  56.0394 304.0602 14.79931364 63987
KUIPER-00118            
1 65154U 25171Y   26279.38538916  .00000499  00000+0  94398-4 0  9994
2 65154  51.9005 323.8830 0000339  60.5478 299.5518 14.79929617 63840
KUIPER-00119            
1 65155U 25171Z   26280.14171981 -.00000485  00000+0 -34605-4 0  9998
2 65155  51.9022 308.1443 0000436  54.7592 305.3411 14.79930988 64129
KUIPER-00120            
1 65762U 25217A   26279.97335050 -.00000556  00000+0 -43923-4 0  9993
2 65762  51.8989 198.7484 0001070  80.5152 279.5931 14.79930237 56022
KUIPER-00132            
1 65763U 25217B   26279.87509193  .00027238  00000+0  68394-3 0  9996
2 65763  51.8524  55.9539 0005944 359.1983   0.8994 15.39780617 57997
KUIPER-00133            
1 65764U 25217C   26280.20971528  .00002620  00000+0  37250-3 0  9996
2 65764  51.9031 197.8507 0000937  86.5493 273.5576 14.79938716 56067
KUIPER-00139            
1 65765U 25217D   26280.04217634  .00002175  00000+0  31415-3 0  9992
2 65765  51.8974 166.0071 0001231  90.8699 269.2404 14.79936349 56490
KUIPER-00142            
1 65766U 25217E   26280.12728799 -.00000525  00000+0 -39790-4 0  9995
2 65766  51.8977 180.5999 0001185  85.8401 274.2696 14.79932148 56297
KUIPER-00145            
1 65767U 25217F   26280.12458840  .00002307  00000+0  33140-3 0  9993
2 65767  51.8993 183.1380 0001141  84.7074 275.4018 14.79941684 56257
KUIPER-00147            
1 65768U 25217G   26280.15563699  .00002462  00000+0  35180-3 0  9994
2 65768  51.8983 185.4713 0001316  79.6121 280.4990 14.79936812 56221
KUIPER-00148            
1 65769U 25217H   26280.10700639  .00002287  00000+0  32888-3 0  9994
2 65769  51.9038 168.2491 0000918  97.7644 262.3423 14.79940170 56462
KUIPER-00150            
1 65770U 25217J   26280.14487431  .00002598  00000+0  36965-3 0  9997
2 65770  51.9008 195.5720 0000902  88.2139 271.8927 14.79937335 56087
KUIPER-00151            
1 65771U 25217K   26280.15296145 -.00000523  00000+0 -39606-4 0  9993
2 65771  51.9010 188.0350 0000877  94.5045 265.6017 14.79927750 56197
KUIPER-00152            
1 65772U 25217L   26280.06514907  .00002292  00000+0  32948-3 0  9997
2 65772  51.8998 175.9020 0001159  84.3566 275.7529 14.79937338 56351
KUIPER-00153            
1 65773U 25217M   26280.07055196 -.00001272  00000+0 -13782-3 0  9993
2 65773  51.9005 170.9690 0001146  95.7951 264.3142 14.79930872 56429
KUIPER-00155            
1 65774U 25217N   26280.03267766  .00001841  00000+0  27042-3 0  9992
2 65774  51.9013 143.5992 0000935 108.8941 251.2123 14.79942123 56808
KUIPER-00156            
1 65775U 25217P   26280.10432123 -.00001047  00000+0 -10836-3 0  9995
2 65775  51.9015 170.8035 0001157  93.8179 266.2915 14.79930301 56423
KUIPER-00165            
1 65778U 25217S   26280.09351698 -.00001811  00000+0 -20861-3 0  9991
2 65778  51.8995 180.7783 0000808  98.4015 261.7039 14.79930136 56281
KUIPER-00166            
1 65779U 25217T   26280.07325402 -.00000404  00000+0 -23923-4 0  9994
2 65779  51.9018 168.4343 0000990  98.5703 261.5371 14.79928779 56457
KUIPER-00167            
1 65780U 25217U   26279.94765473  .00000705  00000+0  12143-3 0  9999
2 65780  51.8953 191.2957 0001106  80.9485 279.1602 14.79935371 56125
KUIPER-00168            
1 65781U 25217V   26280.10160974 -.00001044  00000+0 -10790-3 0  9990
2 65781  51.9002 173.2493 0000864  98.5808 261.5252 14.79930224 56398
KUIPER-00169            
1 65782U 25217W   26280.09622039  .00002455  00000+0  35095-3 0  9994
2 65782  51.9008 178.2870 0000903  95.1323 264.9742 14.79935720 56328
KUIPER-00170            
1 65783U 25217X   26280.22588155  .00002362  00000+0  33874-3 0  9990
2 65783  51.8982 182.6512 0001071  88.7794 271.3292 14.79939804 56271
KUIPER-00172            
1 65785U 25217Z   26280.07593321 -.00001487  00000+0 -16606-3 0  9999
2 65785  51.8989 165.8485 0001401  85.2248 274.8874 14.79930065 56493
KUIPER-00173            
1 65786U 25217AA  26280.12998315  .00002348  00000+0  33681-3 0  9995
2 65786  51.8997 178.1269 0001193  80.5446 279.5651 14.79939843 56326
KUIPER-00174            
1 65787U 25217AB  26280.13537772  .00000802  00000+0  13423-3 0  9998
2 65787  51.9024 173.1719 0000968 101.5284 258.5787 14.79931609 56393
KUIPER-00176            
1 65788U 25217AC  26280.11920066 -.00000012  00000+0  27460-4 0  9990
2 65788  51.8983 188.1526 0001061  81.4684 278.6399 14.79930845 56184
KUIPER-00101            
1 65947U 25228A   26280.06373752  .00001759  00000+0  25973-3 0  9991
2 65947  51.8972 145.8407 0001137  88.0121 272.0972 14.79927185 54535
KUIPER-00113            
1 65948U 25228B   26280.03536512  .00001868  00000+0  27401-3 0  9993
2 65948  51.8970 140.9888 0001173 104.1142 255.9951 14.79939792 54596
KUIPER-00117            
1 65949U 25228C   26279.99890604  .00001937  00000+0  28298-3 0  9994
2 65949  51.8971 143.6476 0001146 103.3470 256.7620 14.79939028 54556
KUIPER-00121            
1 65950U 25228D   26280.03806358  .00000313  00000+0  70094-4 0  9995
2 65950  51.8973 138.5018 0001264  96.5888 263.5219 14.79930123 54638
KUIPER-00122            
1 65951U 25228E   26280.09479764  .00001865  00000+0  27358-3 0  9996
2 65951  51.8980 148.2168 0000831 106.6557 253.4497 14.79934509 54500
KUIPER-00123            
1 65952U 25228F   26279.99351200  .00000342  00000+0  73856-4 0  9992
2 65952  51.8968 148.6722 0001221  93.9047 266.2055 14.79933283 54480
KUIPER-00124            
1 65953U 25228G   26280.00160358  .00001735  00000+0  25657-3 0  9991
2 65953  51.8977 141.1259 0001264  99.8016 260.3089 14.79936984 54597
KUIPER-00125            
1 65954U 25228H   26280.01779385  .00001862  00000+0  27318-3 0  9996
2 65954  51.8986 126.1122 0001257 111.8876 248.2220 14.79935579 54806
KUIPER-00126            
1 65955U 25228J   26279.82739192  .00001905  00000+0  27881-3 0  9999
2 65955  51.8984 146.9314 0001020 103.4135 256.6941 14.79937051 54496
KUIPER-00127            
1 65956U 25228K   26280.02117930 -.00000956  00000+0 -96450-4 0  9990
2 65956  51.8991 138.5589 0001285  98.5019 261.6089 14.79929306 54633
KUIPER-00128            
1 65957U 25228L   26280.00431083  .00001899  00000+0  27801-3 0  9995
2 65957  51.8999 138.6992 0001000 106.7665 253.3407 14.79938634 54620
KUIPER-00129            
1 65958U 25228M   26280.04346911 -.00000647  00000+0 -55808-4 0  9996
2 65958  51.8993 133.5041 0001145  99.0115 261.0977 14.79928345 54703
KUIPER-00130            
1 65959U 25228N   26280.00701022  .00001777  00000+0  26210-3 0  9998
2 65959  51.9021 136.2165 0000976 105.9480 254.1590 14.79935392 44957
KUIPER-00134            
1 65960U 25228P   26280.29503630  .00019980  00000+0  53380-3 0  9999
2 65960  51.8723  13.3472 0004405 341.8180  18.2649 15.38072666 56399
KUIPER-00135            
1 65961U 25228Q   26279.90572474  .00001937  00000+0  28297-3 0  9990
2 65961  51.9009 136.7139 0000919 108.0817 252.0245 14.79935693 54642
KUIPER-00136            
1 65962U 25228R   26280.00969984  .00001792  00000+0  26405-3 0  9998
2 65962  51.8989 133.6981 0001254 100.0815 260.0289 14.79936540 54697
KUIPER-00137            
1 65963U 25228S   26280.01240414 -.00000712  00000+0 -64383-4 0  9991
2 65963  51.9017 131.2018 0001323 100.5447 259.5664 14.79929754 54733
KUIPER-00138            
1 65964U 25228T   26279.98132388  .00001932  00000+0  28244-3 0  9994
2 65964  51.8979 128.7270 0001110 106.4278 253.6806 14.79931726 54760
KUIPER-00140            
1 65965U 25228U   26279.97863683  .00001866  00000+0  27371-3 0  9999
2 65965  51.8984 131.3339 0001266 108.1974 251.9126 14.79938202 54725
KUIPER-00141            
1 65966U 25228V   26279.98403492 -.00000649  00000+0 -56105-4 0  9997
2 65966  51.9022 126.3927 0000882 113.3168 246.7887 14.79929815 54796
KUIPER-00146            
1 65967U 25228W   26279.87996081 -.00001367  00000+0 -15026-3 0  9991
2 65967  51.9014 129.3638 0001036 125.9318 234.1741 14.79942571 54747
KUIPER-00149            
1 65968U 25228X   26279.98671975 -.00001065  00000+0 -11077-3 0  9993
2 65968  51.8985 123.7650 0001128 110.4944 249.6140 14.79927135 54835
KUIPER-00154            
1 65969U 25228Y   26279.75305987 -.00000203  00000+0  24355-5 0  9993
2 65969  51.8984 122.2788 0001075 108.7208 251.3871 14.79930895 54833
KUIPER-00157            
1 65970U 25228Z   26280.02099637  .00010332  00000+0  15230-2 0  9991
2 65970  51.8998 123.7520 0001589 145.2164 214.8901 14.75787642 54831
KUIPER-00144            
1 67133U 25301A   26279.93689682  .00002416  00000+0  34578-3 0  9990
2 67133  51.9007 201.4921 0001092  79.6422 280.4664 14.79939306 45151
KUIPER-00164            
1 67134U 25301B   26280.26105501 -.00000422  00000+0 -26380-4 0  9992
2 67134  51.9029 212.5825 0000938  68.5506 291.5556 14.79928944 45205
KUIPER-00175            
1 67135U 25301C   26280.17863367  .00002613  00000+0  37155-3 0  9997
2 67135  51.8998 195.3743 0001065  73.5660 286.5419 14.79938555 45331
KUIPER-00179            
1 67136U 25301D   26280.19621984  .00000764  00000+0  12928-3 0  9993
2 67136  51.8975 210.2904 0001002  80.1568 279.9507 14.79934891 45237
KUIPER-00181            
1 67137U 25301E   26280.25027776  .00002475  00000+0  35358-3 0  9993
2 67137  51.9017 222.6243 0001041  62.0672 298.0396 14.79935034 45044
KUIPER-00183            
1 67138U 25301F   26280.18133732  .00000692  00000+0  11983-3 0  9993
2 67138  51.9015 192.9347 0001115  77.3977 282.7110 14.79936726 45465
KUIPER-00184            
1 67139U 25301G   26280.16784928  .00000777  00000+0  13095-3 0  9991
2 67139  51.8989 205.4294 0001018  79.8475 280.2602 14.79936037 45394
KUIPER-00186            
1 67140U 25301H   26280.21648673  .00000028  00000+0  32709-4 0  9998
2 67140  51.9018 222.7824 0000819  77.8089 282.2966 14.79931099 44889
KUIPER-00187            
1 67141U 25301J   26280.28134141  .00002415  00000+0  34563-3 0  9997
2 67141  51.9023 225.0245 0000925  89.1453 270.9616 14.79936837 44856
KUIPER-00188            
1 67142U 25301K   26280.01252781  .00002460  00000+0  35161-3 0  9995
2 67142  51.9023 193.7981 0001100  79.9843 280.1243 14.79935292 45260
KUIPER-00191            
1 67143U 25301L   26280.05308229  .00000466  00000+0  90081-4 0  9996
2 67143  51.9000 218.5037 0001019  69.3722 290.7349 14.79934264 44959
KUIPER-00196            
1 67144U 25301M   26280.09891877  .00002215  00000+0  31952-3 0  9992
2 67144  51.8974 175.7481 0001084  93.8264 266.2823 14.79931781 45521
KUIPER-00204            
1 67145U 25301N   26280.11650040 -.00000399  00000+0 -23359-4 0  9997
2 67145  51.9009 190.7139 0000880  86.2807 273.8256 14.79928929 45435
KUIPER-00210            
1 67146U 25301P   26280.22168122  .00000191  00000+0  54081-4 0  9999
2 67146  51.8972 217.7021 0000965  72.2981 287.8087 14.79911582 45126
KUIPER-00221            
1 67147U 25301Q   26280.24757597  .00002573  00000+0  36629-3 0  9995
2 67147  51.9007 225.1277 0000813  86.8644 273.2411 14.79942042 44856
KUIPER-00232            
1 67148U 25301R   26280.22999885  .00000007  00000+0  30003-4 0  9993
2 67148  51.8989 210.2105 0000997  81.3095 278.7980 14.79930517 45051
KUIPER-00241            
1 67149U 25301S   26280.25297658  .00002583  00000+0  36767-3 0  9999
2 67149  51.9025 220.1396 0001128  74.8566 285.2522 14.79938923 45259
KUIPER-00245            
1 67150U 25301T   26280.04229959  .00000413  00000+0  83147-4 0  9992
2 67150  51.9018 228.5792 0000789  77.4808 282.6243 14.79933467 44781
KUIPER-00246            
1 67151U 25301U   26280.22728986  .00000832  00000+0  13820-3 0  9992
2 67151  51.8996 212.6928 0000971  74.6223 285.4846 14.79934167 45042
KUIPER-00247            
1 67152U 25301V   26280.17054804 -.00000104  00000+0  15432-4 0  9993
2 67152  51.8955 202.8817 0001032  76.2027 283.9050 14.79930872 45156
KUIPER-00248            
1 67153U 25301W   26280.18943868  .00002484  00000+0  35475-3 0  9992
2 67153  51.8980 185.4479 0001021  86.6597 273.4482 14.79934381 45567
KUIPER-00249            
1 67154U 25301X   26280.17325689 -.00000008  00000+0  27964-4 0  9993
2 67154  51.8992 200.4546 0001138  77.8671 282.2419 14.79930685 45187
KUIPER-00250            
1 67155U 25301Y   26280.25835775  .00002214  00000+0  31927-3 0  9998
2 67155  51.8990 215.0296 0001041  71.2684 288.8392 14.79939575 45027
KUIPER-00251            
1 67156U 25301Z   26280.20432109  .00002653  00000+0  37680-3 0  9997
2 67156  51.8998 202.8482 0001061  76.5910 283.5170 14.79941626 45340
KUIPER-00252            
1 67157U 25301AA  26279.99902657  .00000057  00000+0  36518-4 0  9998
2 67157  51.8999 206.2065 0000979  83.3627 276.7447 14.79932956 45094
KUIPER-00261            
1 67158U 25301AB  26280.02201629  .00002503  00000+0  35716-3 0  9992
2 67158  51.9017 216.1727 0000827  72.8890 287.2163 14.79937363 44952
KUIPER-00265            
1 67159U 25301AC  26280.24218102  .00002329  00000+0  33431-3 0  9999
2 67159  51.9019 230.1763 0000809  81.6603 278.4451 14.79937412 44813
KUIPER-00159            
1 67764U 26030A   26280.11503789  .00001963  00000+0  28645-3 0  9999
2 67764  51.9014 309.4752 0001668   5.5926 354.5055 14.79940302 37163
KUIPER-00160            
1 67765U 26030B   26280.04241864  .00001964  00000+0  28657-3 0  9999
2 67765  51.8978 291.0419 0000263  52.3022 307.7964 14.79930000 37416
KUIPER-00177            
1 67766U 26030C   26280.25660601 -.00000363  00000+0 -18635-4 0  9997
2 67766  51.9010 357.5786 0000403  91.8178 268.2831 14.79931278 36507
KUIPER-00178            
1 67767U 26030D   26280.22284257  .00000241  00000+0  60635-4 0  9994
2 67767  51.9014 357.7090 0000382  79.4620 280.6385 14.79932253 36508
KUIPER-00180            
1 67768U 26030E   26280.22822132  .00000356  00000+0  75671-4 0  9998
2 67768  51.8985 352.6735 0000172  65.6370 294.4611 14.79931658 36571
KUIPER-00197            
1 67769U 26030F   26280.18227285 -.00000037  00000+0  24144-4 0  9998
2 67769  51.9011 332.8963 0000236  40.0325 320.0655 14.79933103 36845
KUIPER-00198            
1 67770U 26030G   26280.20255161 -.00000105  00000+0  15268-4 0  9990
2 67770  51.8986 345.2780 0000231  35.6650 324.4328 14.79934167 36675
KUIPER-00199            
1 67771U 26030H   26280.25002315 -.00073306  00000+0 -89636-2 0  9999
2 67771  51.8978 284.0099 0010015  91.1172 104.9264 14.83141642  5531
KUIPER-00200            
1 67772U 26030J   26280.15120913  .00002031  00000+0  29532-3 0  9999
2 67772  51.8994 330.5502 0000336  56.7987 303.3008 14.79937719 36877
KUIPER-00203            
1 67773U 26030K   26280.25121821  .00002481  00000+0  35431-3 0  9994
2 67773  51.9074   2.6945 0000284 109.4025 250.6968 14.79939681 36438
KUIPER-00205            
1 67774U 26030L   26280.15388393  .00002162  00000+0  31238-3 0  9990
2 67774  51.9016 328.0076 0000316  45.3834 314.7154 14.79948259 36910
KUIPER-00208            
1 67775U 26030M   26280.22552835  .00002117  00000+0  30655-3 0  9995
2 67775  51.8998 355.1821 0000197 164.5397 195.5571 14.79939736 36539
KUIPER-00209            
1 67776U 26030N   26279.58670366  .00002306  00000+0  33135-3 0  9999
2 67776  51.9006 355.6115 0000126  74.2142 285.8835 14.79940192 36476
KUIPER-00213            
1 67777U 26030P   26280.16339943  .00002388  00000+0  34211-3 0  9995
2 67777  51.8967 350.5110 0000311  76.2820 283.8177 14.79934980 36590
KUIPER-00214            
1 67778U 26030Q   26279.52456895  .00002346  00000+0  33653-3 0  9993
2 67778  51.9020 350.8806 0000255  62.4166 297.6822 14.79938637 36531
KUIPER-00215            
1 67779U 26030R   26279.63933057  .00000277  00000+0  65341-4 0  9997
2 67779  51.8999 337.7251 0000282  42.9066 317.1918 14.79933689 36734
KUIPER-00218            
1 67780U 26030S   26280.19714532  .00002136  00000+0  30900-3 0  9995
2 67780  51.8987 350.2950 0000318  68.4844 291.6152 14.79938756 36608
KUIPER-00220            
1 67781U 26030T   26280.08906810  .00002206  00000+0  31821-3 0  9997
2 67781  51.8965 325.7933 0000374  45.2825 314.8168 14.79936758 36938
KUIPER-00222            
1 67782U 26030U   26280.16880170  .00000278  00000+0  65457-4 0  9997
2 67782  51.9002 345.5840 0000164 358.2195   1.8766 14.79936063 36669
KUIPER-00223            
1 67783U 26030V   26279.46780914  .00000953  00000+0  15394-3 0  9998
2 67783  51.9013 340.9989 0000428  66.7854 293.3153 14.79929286 36679
KUIPER-00225            
1 67784U 26030W   26280.20526383  .00000846  00000+0  13994-3 0  9996
2 67784  51.8999 342.8786 0000384  76.8620 283.2385 14.79931416 36709
KUIPER-00226            
1 67785U 26030X   26280.11743495  .00002195  00000+0  31693-3 0  9997
2 67785  51.9009 330.6529 0000918  56.2711 303.8339 14.79929192 36873
KUIPER-00259            
1 67786U 26030Y   26279.63124009  .00002355  00000+0  33771-3 0  9994
2 67786  51.8999 345.3184 0000236  44.6943 315.4038 14.79943603 36623
KUIPER-00260            
1 67787U 26030Z   26280.17419120 -.00000025  00000+0  25753-4 0  9992
2 67787  51.9001 340.5323 0000281  67.9512 292.1480 14.79935771 36642
KUIPER-00262            
1 67788U 26030AA  26280.20794418 -.00000465  00000+0 -31975-4 0  9995
2 67788  51.9027 340.3013 0000242  99.7016 260.3973 14.79932381 36743
KUIPER-00266            
1 67789U 26030AB  26280.17688186 -.00000399  00000+0 -23384-4 0  9997
2 67789  51.9010 337.9282 0000222  50.7157 309.3825 14.79934564 36775
KUIPER-00268            
1 67790U 26030AC  26280.21334753  .00002269  00000+0  32644-3 0  9996
2 67790  51.9059 335.3178 0000147  32.2829 327.8143 14.79938563 36819
KUIPER-00270            
1 67791U 26030AD  26280.19036639  .00002196  00000+0  31698-3 0  9993
2 67791  51.9002 325.3579 0000335  52.7452 307.3541 14.79932122 36955
KUIPER-00274            
1 67792U 26030AE  26280.16609973  .00000145  00000+0  48049-4 0  9999
2 67792  51.9009 347.9868 0000559  85.2825 274.8202 14.79935257 36636
KUIPER-00275            
1 67793U 26030AF  26279.44484181  .00000861  00000+0  14192-3 0  9997
2 67793  51.8998 331.1671 0000246  56.9765 303.1221 14.79931870 36804
KUIPER-00276            
1 67794U 26030AG  26280.14851125  .00000293  00000+0  67427-4 0  9992
2 67794  51.8995 333.0316 0000443  49.8082 310.2919 14.79934259 36842
KUIPER-00279            
1 67795U 26030AH  26280.12553641  .00000065  00000+0  37526-4 0  9997
2 67795  51.9036 323.1896 0000382  61.9478 298.1523 14.79933917 36978
KUIPER-00131            
1 68573U 26072A   26279.78401731  .00001972  00000+0  28763-3 0  9990
2 68573  51.9005  62.1707 0000590 124.8419 235.2599 14.79935398 27649
KUIPER-00189            
1 68574U 26072B   26279.81506762  .00002114  00000+0  30617-3 0  9995
2 68574  51.8980  64.5075 0000415  84.0841 276.0169 14.79936683 27618
KUIPER-00192            
1 68575U 26072C   26279.78671464  .00001929  00000+0  28193-3 0  9993
2 68575  51.9002  59.6520 0000640 135.7734 224.3280 14.79936476 27687
KUIPER-00193            
1 68576U 26072D   26279.72997129  .00002118  00000+0  30671-3 0  9992
2 68576  51.9051  49.9603 0000500 138.2509 221.8492 14.79935909 27811
KUIPER-00194            
1 68577U 26072E   26279.68811255 -.00000404  00000+0 -24005-4 0  9996
2 68577  51.9016  57.6175 0000602 137.9222 222.1786 14.79934835 27709
KUIPER-00229            
1 68578U 26072F   26279.75025094 -.00000788  00000+0 -74411-4 0  9994
2 68578  51.9004  62.3227 0000655 119.5922 240.5106 14.79931035 27641
KUIPER-00230            
1 68579U 26072G   26280.25002315  .00003972  00000+0  54931-3 0  9993
2 68579  51.9043   7.6072 0001070 141.1827  61.6970 14.79967775  3917
KUIPER-00231            
1 68580U 26072H   26279.77991833  .00002429  00000+0  34751-3 0  9996
2 68580  51.8989  34.7576 0001351 167.2671 192.8326 14.79933602 28028
KUIPER-00234            
1 68581U 26072J   26280.32964057  .00000156  00000+0  49441-4 0  9996
2 68581  51.8993  54.7411 0000953 132.9344 227.1699 14.79933065 27798
KUIPER-00236            
1 68582U 26072K   26280.24314617  .00002056  00000+0  29864-3 0  9996
2 68582  51.9049  10.1431 0000689 124.2315 235.8713 14.79933306 28419
KUIPER-00244            
1 68583U 26072L   26280.30666939  .00002387  00000+0  34204-3 0  9992
2 68583  51.9007  44.8664 0000477 134.3293 225.7709 14.79933014 27933
KUIPER-00253            
1 68584U 26072M   26280.30397630  .00002397  00000+0  34323-3 0  9995
2 68584  51.9042  47.4122 0000521 133.2456 226.8550 14.79937545 27894
KUIPER-00254            
1 68585U 26072N   26279.79479571 -.00000295  00000+0 -97242-5 0  9990
2 68585  51.9035  52.1597 0000633 121.5612 238.5413 14.79930479 27789
KUIPER-00263            
1 68586U 26072P   26280.28370115  .00000465  00000+0  89947-4 0  9990
2 68586  51.9017  35.0628 0000406 106.1753 253.9254 14.79932304 28063
KUIPER-00269            
1 68587U 26072Q   26280.28099420  .00000246  00000+0  61328-4 0  9998
2 68587  51.9022  37.4767 0000562 144.6538 215.4462 14.79931171 28033
KUIPER-00272            
1 68588U 26072R   26279.68541224  .00002121  00000+0  30719-3 0  9998
2 68588  51.8984  60.0754 0000622 129.1206 230.9812 14.79933798 27661
KUIPER-00285            
1 68589U 26072S   26280.31476203 -.00000029  00000+0  25164-4 0  9990
2 68589  51.9042  37.4193 0000889 128.4765 231.6277 14.79932772 28036
KUIPER-00286            
1 68590U 26072T   26280.31745704  .00002232  00000+0  32167-3 0  9994
2 68590  51.9027  34.8300 0000380  89.7973 270.3033 14.79936720 28079
KUIPER-00289            
1 68591U 26072U   26279.76912380  .00000640  00000+0  11298-3 0  9991
2 68591  51.8995  44.7265 0000610 132.6489 227.4525 14.79933571 27887
KUIPER-00290            
1 68592U 26072V   26279.80289507  .00000214  00000+0  57052-4 0  9991
2 68592  51.9041  44.5923 0000326 145.7118 214.3865 14.79934148 27892
KUIPER-00293            
1 68593U 26072W   26279.75833383 -.00000117  00000+0  13675-4 0  9999
2 68593  51.8987  54.7514 0001442 110.9005 249.2112 14.79933531 27740
KUIPER-00294            
1 68594U 26072X   26279.63676257  .00002264  00000+0  32589-3 0  9990
2 68594  51.8999  42.8146 0000412 116.3127 243.7878 14.79932823 27903
KUIPER-00296            
1 68595U 26072Y   26280.29717006  .00002270  00000+0  32656-3 0  9995
2 68595  51.9027  22.4169 0000237 116.0913 244.0073 14.79939777 28245
KUIPER-00297            
1 68596U 26072Z   26280.33233775  .00002324  00000+0  33367-3 0  9997
2 68596  51.8999  52.2177 0000920 151.7273 208.3740 14.79939236 27835
KUIPER-00300            
1 68597U 26072AA  26279.76103846  .00000063  00000+0  37230-4 0  9990
2 68597  51.9034  52.2847 0000475 119.6108 240.4901 14.79931536 27781
KUIPER-00301            
1 68598U 26072AB  26280.29317312  .00001151  00000+0  19423-3 0  9998
2 68598  51.9034  19.8720 0001805 263.2266  96.8490 14.76524257 28276
KUIPER-00304            
1 68599U 26072AC  26280.25396902  .00001114  00000+0  18845-3 0  9993
2 68599  51.9021  21.9784 0000788  49.0699 311.0330 14.76638554 28244
KUIPER-00317            
1 68600U 26072AD  26279.73806135  .00002244  00000+0  32323-3 0  9993
2 68600  51.8990  42.3702 0000395 104.2068 255.8938 14.79929580 27913
KUIPER-00320            
1 68601U 26072AE  26279.73265521  .00000603  00000+0  10808-3 0  9993
2 68601  51.9036  47.4196 0000636  93.5588 266.5448 14.79930188 27847
KUIPER-00299            
1 68864U 26095A   26279.75845519 -.00000003  00000+0  28574-4 0  9997
2 68864  51.8979 117.2616 0001056 117.0103 243.0967 14.79930637 24132
KUIPER-00353            
1 68865U 26095B   26279.87592990  .00000090  00000+0  40820-4 0  9996
2 68865  51.8967 101.7698 0000862 119.8928 240.2120 14.79927891 24360
KUIPER-00357            
1 68866U 26095C   26279.96913515  .00001956  00000+0  28553-3 0  9997
2 68866  51.9008 108.8704 0001404 106.4868 253.6249 14.79940663 24274
KUIPER-00364            
1 68867U 26095D   26279.73009530 -.00000774  00000+0 -72524-4 0  9993
2 68867  51.9014 112.4563 0001309 102.9147 257.1962 14.79928955 24205
KUIPER-00375            
1 68868U 26095E   26279.90700802  .00001790  00000+0  26379-3 0  9996
2 68868  51.9005 104.1402 0000954 120.6487 239.4569 14.79935424 24334
KUIPER-00433            
1 68869U 26095F   26279.75577117  .00001712  00000+0  25350-3 0  9993
2 68869  51.9000 119.8028 0001351 104.7563 255.3549 14.79931619 24109
KUIPER-00437            
1 68870U 26095G   26279.82988094  .00001269  00000+0  21037-3 0  9998
2 68870  51.9020  71.5093 0000665  99.0338 261.0698 14.76632161 24782
KUIPER-00448            
1 68871U 26095H   26279.73279113  .00001464  00000+0  22099-3 0  9990
2 68871  51.9035 109.9162 0000981 125.8657 234.2397 14.79930312 24235
KUIPER-00459            
1 68872U 26095J   26279.71251010  .00000106  00000+0  42920-4 0  9993
2 68872  51.9011  97.5659 0000866 114.9447 245.1605 14.79929900 24404
KUIPER-00468            
1 68873U 26095K   26279.88636380  .00001299  00000+0  21464-3 0  9992
2 68873  51.8971  94.7068 0000367 196.0338 164.0612 14.76642174 24463
KUIPER-00476            
1 68874U 26095L   26279.80159082  .00001931  00000+0  28213-3 0  9996
2 68874  51.9000  77.0210 0000814 132.9159 227.1872 14.79939384 24709
KUIPER-00478            
1 68875U 26095M   26279.91239191  .00000124  00000+0  45221-4 0  9991
2 68875  51.8981  99.1123 0000990 117.1616 242.9447 14.79929772 24403
KUIPER-00480            
1 68876U 26095N   26279.94885833 -.00001135  00000+0 -11989-3 0  9993
2 68876  51.9027  96.4725 0000953 101.1384 258.9686 14.79928713 24448
KUIPER-00482            
1 68877U 26095P   26279.73545417  .00001526  00000+0  22916-3 0  9996
2 68877  51.8997 107.3990 0001389 105.7627 254.3489 14.79934932 24276
KUIPER-00483            
1 68878U 26095Q   26279.85703412 -.00003292  00000+0 -40292-3 0  9992
2 68878  51.8996 119.3176 0001144  98.8067 261.3025 14.79940127 24114
KUIPER-00488            
1 68879U 26095R   26279.90969403  .00001719  00000+0  25435-3 0  9995
2 68879  51.8991 101.6325 0001238 118.1297 241.9791 14.79941315 24366
KUIPER-00489            
1 68880U 26095S   26279.85025281 -.00000805  00000+0 -76605-4 0  9991
2 68880  51.8955  94.3695 0001293 123.9923 236.1163 14.79930257 24460
KUIPER-00499            
1 68881U 26095T   26279.87863417  .00001915  00000+0  28013-3 0  9995
2 68881  51.8991  99.3096 0000708 114.9428 245.1608 14.79926889 24393
KUIPER-00500            
1 68882U 26095U   26279.99479001  .00001811  00000+0  26649-3 0  9999
2 68882  51.9006 116.2507 0000992 116.9318 243.1745 14.79943698 24176
KUIPER-00502            
1 68883U 26095V   26279.87691406  .00001703  00000+0  25240-3 0  9998
2 68883  51.9004  93.0213 0001074 121.6977 238.4090 14.79935212 24484
KUIPER-00503            
1 68884U 26095W   26279.89621649  .00001590  00000+0  23754-3 0  9995
2 68884  51.8973 114.1537 0001062 112.6935 247.4140 14.79934476 24199
KUIPER-00504            
1 68885U 26095X   26279.85435605  .00001873  00000+0  27463-3 0  9992
2 68885  51.9002 121.8785 0000888 119.1048 241.0004 14.79940742 24086
KUIPER-00505            
1 68886U 26095Y   26279.96645110  .00001776  00000+0  26191-3 0  9998
2 68886  51.9003 111.3836 0000731 111.1164 248.9877 14.79931705 24237
KUIPER-00507            
1 68887U 26095Z   26279.89281115  .00001869  00000+0  27406-3 0  9995
2 68887  51.8997 101.6903 0000894 114.5518 245.5538 14.79936175 24363
KUIPER-00511            
1 68888U 26095AA  26279.88404027  .00001887  00000+0  27649-3 0  9993
2 68888  51.8987  94.3395 0001057 116.4223 243.6848 14.79932978 24463
KUIPER-00512            
1 68889U 26095AB  26279.99749501  .00001684  00000+0  24978-3 0  9992
2 68889  51.9004 113.7479 0000901 118.6492 241.4561 14.79936433 24203
KUIPER-00519            
1 68890U 26095AC  26279.87324874  .00001912  00000+0  27978-3 0  9990
2 68890  51.9017 104.3628 0000751 121.0915 239.0122 14.79935848 24320
KUIPER-00521            
1 68891U 26095AD  26279.93907006  .00001990  00000+0  29000-3 0  9996
2 68891  51.9022  97.7663 0000800 114.9180 245.1865 14.79936218 24426
KUIPER-00524            
1 68892U 26095AE  26279.97183785  .00001880  00000+0  27555-3 0  9992
2 68892  51.8977 106.3265 0001089 113.0202 247.0876 14.79929728 24303
KUIPER-00370            
1 68919U 26098A   26280.20242669  .00001814  00000+0  26693-3 0  9999
2 68919  51.8987 282.6912 0000555  45.8345 314.2663 14.79930293 24072
KUIPER-00380            
1 68920U 26098B   26280.14300195  .00001925  00000+0  28134-3 0  9998
2 68920  51.8971 275.5886 0000644  43.8989 316.2024 14.79939727 24163
KUIPER-00386            
1 68921U 26098C   26280.15718031  .00001945  00000+0  28401-3 0  9991
2 68921  51.8986 278.0226 0000612  44.5298 315.5714 14.79940053 24131
KUIPER-00388            
1 68922U 26098D   26280.06200462  .00001992  00000+0  29021-3 0  9997
2 68922  51.9006 288.6094 0000567  37.6437 322.4565 14.79931608 23971
KUIPER-00405            
1 68923U 26098E   26280.01403333  .00000043  00000+0  34590-4 0  9999
2 68923  51.9012 286.1754 0000884 335.0927  24.9992 14.79934007 24005
KUIPER-00408            
1 68924U 26098F   26280.00523878  .00002101  00000+0  30452-3 0  9995
2 68924  51.8984 278.6234 0000638  51.1138 308.9881 14.79936460 24118
KUIPER-00409            
1 68925U 26098G   26280.18554138  .00005397  00000+0  73607-3 0  9997
2 68925  51.9017 282.9184 0000521  65.0056 295.0961 14.79952553 24063
KUIPER-00410            
1 68926U 26098H   26280.18824849  .00000128  00000+0  45822-4 0  9993
2 68926  51.8970 280.3729 0000295 354.4653   5.6306 14.79933077 24107
KUIPER-00412            
1 68927U 26098J   26280.17947178  .00001956  00000+0  28545-3 0  9996
2 68927  51.9024 272.9566 0000580  65.2637 294.8385 14.79936346 24203
KUIPER-00413            
1 68928U 26098K   26280.19973812 -.00000912  00000+0 -90588-4 0  9993
2 68928  51.9007 285.3342 0000587   4.7735 355.3233 14.79931191 24038
KUIPER-00414            
1 68929U 26098L   26280.22272637 -.00000262  00000+0 -53955-5 0  9991
2 68929  51.8961 295.3094 0000070 299.7659  60.3296 14.79930146 23894
KUIPER-00415            
1 68930U 26098M   26280.17405695  .00001868  00000+0  27398-3 0  9990
2 68930  51.9010 277.9658 0000657  55.1027 304.9997 14.79928021 24130
KUIPER-00416            
1 68931U 26098N   26280.12431629  .00002078  00000+0  30167-3 0  9994
2 68931  51.9014 269.5388 0000670  71.2155 288.8880 14.79905823 24246
KUIPER-00420            
1 68932U 26098P   26280.18216404  .00002021  00000+0  29401-3 0  9990
2 68932  51.8999 270.3906 0000601  62.5049 297.5975 14.79933537 24248
KUIPER-00421            
1 68933U 26098Q   26280.17676116  .00001908  00000+0  27918-3 0  9994
2 68933  51.9021 275.4017 0000630  68.5802 291.5227 14.79930826 24174
KUIPER-00425            
1 68934U 26098R   26280.16865861  .00002089  00000+0  30297-3 0  9996
2 68934  51.8987 282.9766 0000392  78.7945 281.3061 14.79934841 24067
KUIPER-00430            
1 68935U 26098S   26280.16596662  .00002034  00000+0  29567-3 0  9995
2 68935  51.9026 285.3959 0000552  49.8925 310.2086 14.79939884 24037
KUIPER-00431            
1 68936U 26098T   26280.02822646  .00002028  00000+0  29499-3 0  9992
2 68936  51.8986 288.5850 0000493  31.7004 328.3988 14.79932242 23973
KUIPER-00432            
1 68937U 26098U   26280.17134909  .00001821  00000+0  26773-3 0  9999
2 68937  51.8991 280.3517 0000606  48.4274 311.6740 14.79939937 24105
KUIPER-00434            
1 68938U 26098V   26280.05989118  .00001410  00000+0  23145-3 0  9991
2 68938  51.8993 285.3332 0000490 192.7527 167.3422 14.76411738 24028
KUIPER-00436            
1 68939U 26098W   26280.01673010 -.00000193  00000+0  37289-5 0  9993
2 68939  51.9000 283.6501 0000550  77.7006 282.4018 14.79928522 24048
KUIPER-00438            
1 68940U 26098X   26280.01941812 -.00003508  00000+0 -43135-3 0  9992
2 68940  51.9025 281.1676 0000596  35.3979 324.7023 14.79937339 24077
KUIPER-00439            
1 68941U 26098Y   26280.20513984 -.00001218  00000+0 -13079-3 0  9999
2 68941  51.9019 280.3380 0000614  57.5285 302.5737 14.79929220 24101
KUIPER-00440            
1 68942U 26098Z   26280.16258581  .00001996  00000+0  29071-3 0  9994
2 68942  51.9032 273.0241 0001115  31.1297 328.9731 14.79932682 24203
KUIPER-00442            
1 68943U 26098AA  26280.15986038  .00001988  00000+0  28967-3 0  9993
2 68943  51.9004 275.5518 0000635  22.4851 337.6139 14.79932998 24166
KUIPER-00446            
1 68944U 26098AB  26280.19094342  .00006999  00000+0  94550-3 0  9994
2 68944  51.8985 277.8934 0000683   6.7749 353.3223 14.79960323 24134
KUIPER-00451            
1 68945U 26098AC  26280.18016980  .00001930  00000+0  28204-3 0  9999
2 68945  51.8988 287.9219 0000517  34.0995 326.0000 14.79932588 23994
KUIPER-00452            
1 68946U 26098AD  26279.31574801 -.00002133  00000+0 -25080-3 0  9991
2 68946  51.9032 279.2663 0000416  62.2858 297.8146 14.79939555 24046
KUIPER-00453            
1 68947U 26098AE  26280.14569230  .00002084  00000+0  30228-3 0  9998
2 68947  51.8988 273.0090 0000369 204.5369 155.5576 14.79933300 24204
KUIPER-00454            
1 68948U 26098AF  26280.05928209  .00000005  00000+0  29734-4 0  9996
2 68948  51.8996 290.9487 0000846  61.4341 298.6706 14.79926477 23943
KUIPER-00455            
1 68949U 26098AG  26280.07885738  .00001931  00000+0  28214-3 0  9998
2 68949  51.8997 288.3758 0000315 205.2873 154.8074 14.79943630 23981
KUIPER-00458            
1 68950U 26098AH  26280.19634406  .00000379  00000+0  78738-4 0  9999
2 68950  51.8999 272.8807 0000853  75.9960 284.1097 14.79932297 24209
KUIPER-00282            
1 69267U 26118A   26280.20440250 -.00002063  00000+0 -24177-3 0  9999
2 69267  51.8973 265.2933 0000951  15.5395 344.5596 14.79926147 20747
KUIPER-00383            
1 69268U 26118B   26280.15648162  .00000153  00000+0  49036-4 0  9994
2 69268  51.8982 263.0288 0000808  45.1344 314.9683 14.79933413 20776
KUIPER-00527            
1 69269U 26118C   26280.12273457  .00000181  00000+0  52750-4 0  9991
2 69269  51.8981 263.3107 0000772  57.0413 303.0624 14.79933676 20762
KUIPER-00562            
1 69270U 26118D   26280.16457770  .00002152  00000+0  31117-3 0  9992
2 69270  51.9031 255.4472 0000930  66.6904 293.4156 14.79934011 20884
KUIPER-00570            
1 69271U 26118E   26280.18486845  .00001915  00000+0  28015-3 0  9999
2 69271  51.8992 268.0105 0000686  39.0163 321.0849 14.79930451 20692
KUIPER-00572            
1 69272U 26118F   26280.30842871  .00000452  00000+0  88241-4 0  9992
2 69272  51.8994 262.3570 0000785  50.4762 309.6270 14.79932804 20795
KUIPER-00581            
1 69273U 26118G   26280.16797730  .00002037  00000+0  29616-3 0  9991
2 69273  51.9016 267.9899 0000647 343.5806  16.5135 14.79931585 20798
KUIPER-00584            
1 69274U 26118H   26280.14839460  .00000620  00000+0  11031-3 0  9995
2 69274  51.9015 270.6843 0000687  54.3512 305.7514 14.79925846 20666
KUIPER-00587            
1 69275U 26118J   26280.17606524  .00002057  00000+0  29877-3 0  9995
2 69275  51.9005 260.4519 0000751  59.4547 300.6490 14.79930340 20818
KUIPER-00590            
1 69276U 26118K   26280.30573210  .00002028  00000+0  29494-3 0  9999
2 69276  51.9012 264.8911 0000664  40.9195 319.1817 14.79934710 20765
KUIPER-00592            
1 69277U 26118L   26280.15377354  .00001885  00000+0  27614-3 0  9996
2 69277  51.9023 265.4441 0000699  44.1545 315.9473 14.79941621 20745
KUIPER-00593            
1 69278U 26118M   26280.30772446  .00002249  00000+0  32388-3 0  9994
2 69278  51.8982 247.3740 0000334 279.7636  80.3289 14.79934394 21066
KUIPER-00594            
1 69279U 26118N   26280.30233520  .00002138  00000+0  30935-3 0  9993
2 69279  51.9022 252.4119 0000907  78.1442 281.9622 14.79939252 20935
KUIPER-00595            
1 69280U 26118P   26280.27395135  .00002351  00000+0  33724-3 0  9998
2 69280  51.8977 247.4774 0000468 311.5648  48.5274 14.79935363 21031
KUIPER-00596            
1 69281U 26118Q   26280.19904072 -.00000064  00000+0  20560-4 0  9991
2 69281  51.9007 270.3560 0000690  48.1598 311.9424 14.79931537 20671
KUIPER-00597            
1 69282U 26118R   26280.13620093  .00000049  00000+0  35486-4 0  9999
2 69282  51.8978 250.6267 0001670  77.1102 283.0047 14.79931375 20945
KUIPER-00599            
1 69283U 26118S   26280.29419878  .00002044  00000+0  29711-3 0  9994
2 69283  51.9002 259.8452 0000776  31.2801 328.8207 14.79931897 20838
KUIPER-00600            
1 69284U 26118T   26280.30502046  .00002183  00000+0  31534-3 0  9997
2 69284  51.8972 249.7934 0001758  74.8846 285.2311 14.79933552 20977
KUIPER-00601            
1 69285U 26118U   26280.12002234  .00002056  00000+0  29874-3 0  9995
2 69285  51.9013 265.7027 0000725  63.6532 296.4504 14.79923257 20730
KUIPER-00602            
1 69286U 26118V   26280.19562945  .00000367  00000+0  77116-4 0  9999
2 69286  51.9002 257.7820 0000911   4.4872 355.6098 14.79931294 20857
KUIPER-00603            
1 69287U 26118W   26280.14230360  .00002103  00000+0  30481-3 0  9991
2 69287  51.9033 260.6125 0000725  65.1750 294.9288 14.79928025 20804
KUIPER-00605            
1 69288U 26118X   26280.26926677  .00000217  00000+0  57459-4 0  9997
2 69288  51.8992 267.5211 0000698  52.8456 307.2570 14.79932648 20724
KUIPER-00606            
1 69289U 26118Y   26280.19294869  .00001940  00000+0  28339-3 0  9999
2 69289  51.9007 260.3805 0000753  42.6732 317.4289 14.79937726 20811
KUIPER-00607            
1 69290U 26118Z   26279.98426859 -.00000361  00000+0 -18296-4 0  9992
2 69290  51.9000 251.3085 0001928  51.0956 309.0179 14.79931450 20928
KUIPER-00608            
1 69291U 26118AA  26280.13349172 -.00000426  00000+0 -26905-4 0  9992
2 69291  51.9005 253.0079 0000848  63.7107 296.3942 14.79930608 20913
KUIPER-00610            
1 69292U 26118AB  26280.29694217  .00002272  00000+0  32695-3 0  9994
2 69292  51.9010 257.4208 0000749  47.3648 312.7377 14.79937152 20860
KUIPER-00613            
1 69293U 26118AC  26280.15109183  .00001805  00000+0  26569-3 0  9997
2 69293  51.8998 268.0624 0000714  48.8508 311.2516 14.79939524 20705
KUIPER-00618            
1 69294U 26118AD  26280.13080234 -.00000115  00000+0  13981-4 0  9990
2 69294  51.9011 255.6631 0000891 291.4672  68.6196 14.79931900 20872
KUIPER-00620            
1 69295U 26118AE  26280.14500174  .00002122  00000+0  30730-3 0  9991
2 69295  51.9029 258.1065 0000809  48.0892 312.0139 14.79932621 20841
KUIPER-00423            
1 69592U 26140A   26280.29281158  .00001864  00000+0  27355-3 0  9991
2 69592  51.9002 229.9344 0000905  79.2146 280.8918 14.79922276 18291
KUIPER-00428            
1 69593U 26140B   26280.25002315  .00046405  00000+0  15810-2 0  9996
2 69593  51.8823 217.1709 0005910 343.0592 205.0119 15.29913983  2975
KUIPER-00481            
1 69594U 26140C   26280.06797314  .00002298  00000+0  33033-3 0  9996
2 69594  51.9009 235.9370 0001569  26.1614 333.9427 14.79937001 18190
KUIPER-00490            
1 69595U 26140D   26280.11321899  .00000595  00000+0  10702-3 0  9990
2 69595  51.9027 240.6903 0000989  62.8113 297.2950 14.79934782 18132
KUIPER-00493            
1 69596U 26140E   26280.27664770  .00002295  00000+0  32994-3 0  9992
2 69596  51.9027 245.0185 0001480  18.9251 341.1766 14.79943512 18085
KUIPER-00496            
1 69597U 26140F   26280.23510421  .00002445  00000+0  34962-3 0  9996
2 69597  51.9021 228.9509 0001033  83.3755 276.7325 14.79931626 18301
KUIPER-00513            
1 69598U 26140G   26280.28205194  .00002350  00000+0  33709-3 0  9993
2 69598  51.8990 239.9834 0000844  58.1799 301.9245 14.79938310 18158
KUIPER-00516            
1 69599U 26140H   26280.21942868  .00001357  00000+0  22333-3 0  9990
2 69599  51.8973 224.8047 0001593 189.4847 170.6084 14.76544573 18369
KUIPER-00517            
1 69600U 26140J   26280.25002315  .00005624  00000+0  55356-3 0  9993
2 69600  51.8940 220.5170 0008505 231.1142 173.5903 14.93358581  5807
KUIPER-00520            
1 69601U 26140K   26280.30094594  .00001316  00000+0  21715-3 0  9996
2 69601  51.9002 242.2717 0000762 332.5560  27.5361 14.76624214 18128
KUIPER-00522            
1 69602U 26140L   26280.07336298  .00002333  00000+0  33501-3 0  9997
2 69602  51.9028 230.9133 0001251  91.0409 269.0697 14.79931164 18264
KUIPER-00528            
1 69603U 26140M   26280.26245601  .00002371  00000+0  33996-3 0  9996
2 69603  51.9021 242.5922 0000681  58.9113 301.1917 14.79933173 18112
KUIPER-00532            
1 69604U 26140N   26280.16047646  .00002396  00000+0  34324-3 0  9998
2 69604  51.9031 228.0346 0000800  83.5996 276.5058 14.79931344 18310
KUIPER-00533            
1 69605U 26140P   26280.18344783  .00002445  00000+0  34948-3 0  9990
2 69605  51.9006 237.9308 0000917  56.0496 304.0554 14.79943160 18170
KUIPER-00534            
1 69606U 26140Q   26280.04991981  .00015985  00000+0  57796-3 0  9993
2 69606  51.8794 219.9600 0012289 193.9068 166.1579 15.28529522 18418
KUIPER-00537            
1 69607U 26140R   26280.31041175  .00002202  00000+0  31773-3 0  9990
2 69607  51.8993 244.7814 0001509  40.1806 319.9267 14.79937261 18093
KUIPER-00538            
1 69608U 26140S   26280.27934687  .00002305  00000+0  33122-3 0  9999
2 69608  51.9013 242.4462 0001142  53.0917 307.0150 14.79934255 18124
KUIPER-00540            
1 69609U 26140T   26280.24700213  .00014304  00000+0  37858-3 0  9995
2 69609  51.8804 216.8470 0004699 338.6191  21.4599 15.38623473 18477
KUIPER-00541            
1 69610U 26140U   26280.25002315  .00033625  00000+0  47809-2 0  9999
2 69610  51.9354 222.4698 0002433  69.7633 285.4886 14.76579424  4611
KUIPER-00542            
1 69611U 26140V   26280.25002315  .00001457  00000+0  17104-3 0  9994
2 69611  51.8964 220.4560 0008741 190.8054  94.5320 14.90857427  4424
KUIPER-00543            
1 69612U 26140W   26280.26176682  .00002453  00000+0  35056-3 0  9998
2 69612  51.9036 227.5825 0000546  90.7652 269.3373 14.79940910 18326
KUIPER-00544            
1 69613U 26140X   26280.25002315 -.00017717  00000+0 -21466-2 0  9999
2 69613  51.9000 222.6720 0003558 236.8437 195.4837 14.82814869  4717
KUIPER-00546            
1 69614U 26140Y   26280.05641663  .00002517  00000+0  35915-3 0  9998
2 69614  51.9009 230.9863 0000632  79.4277 280.6757 14.79923155 18268
KUIPER-00547            
1 69615U 26140Z   26280.25002315  .00015240  00000+0  12319-2 0  9995
2 69615  51.8925 218.5319 0011406 209.2562 331.2268 14.99914517  5095
KUIPER-00549            
1 69616U 26140AA  26280.23070652 -.00001274  00000+0 -13806-3 0  9990
2 69616  51.9009 225.2251 0001075  95.4003 264.7082 14.79932443 18359
KUIPER-00550            
1 69617U 26140AB  26280.25002315  .00027118  00000+0  35730-2 0  9996
2 69617  51.9006 228.8355 0001242  43.0681 216.6596 14.79918683  4517
KUIPER-00551            
1 69618U 26140AC  26280.25002315 -.00536268  00000+0 -27360-1 0  9999
2 69618  51.8833 216.8592 0012525 202.5421  97.6446 15.18299445  3742
KUIPER-00554            
1 69619U 26140AD  26280.25002315 -.00024883  00000+0 -14022-2 0  9997
2 69619  51.8885 217.4354 0008058 209.3804 166.1197 15.12403900  5013
KUIPER-00555            
1 69620U 26140AE  26280.25002315 -.02226353  00000+0 -11257+0 0  9991
2 69620  51.8833 217.0838 0010124 208.0485  65.6978 15.20443214  1308
KUIPER-00556            
1 69621U 26140AF  26280.29013991  .00002523  00000+0  35981-3 0  9999
2 69621  51.8971 232.4458 0000742  87.8750 272.2297 14.79939733 18266
KUIPER-00557            
1 69622U 26140AG  26280.25002315  .00018928  00000+0  14500-2 0  9993
2 69622  51.8904 218.5775 0009222 234.3002  40.9238 15.01838245  4713
KUIPER-00560            
1 69623U 26140AH  26280.12714640 -.00061854  00000+0 -16689-2 0  9999
2 69623  51.8766 217.5068 0008220 246.7084 113.3038 15.37270396 18453
KUIPER-00561            
1 69624U 26140AJ  26280.28473669  .00002398  00000+0  34336-3 0  9996
2 69624  51.9005 237.4508 0000870  72.9797 287.1261 14.79943138 18199
KUIPER-00564            
1 69625U 26140AK  26280.25367890  .00000597  00000+0  10734-3 0  9997
2 69625  51.8966 235.0900 0000782  94.7738 265.3314 14.79934006 18229
KUIPER-00567            
1 69626U 26140AL  26280.25636781  .00002307  00000+0  33157-3 0  9991
2 69626  51.8968 232.5964 0000568 169.2628 190.8347 14.79932899 18251
KUIPER-00573            
1 69627U 26140AM  26280.28744457  .00002379  00000+0  34088-3 0  9998
2 69627  51.9000 234.9745 0000775  68.3841 291.7204 14.79938542 18220
KUIPER-00258            
1 69763U 26151A   26280.04674953 -.00003976  00000+0 -49307-3 0  9994
2 69763  51.8963 146.0149 0000779  88.8073 271.2979 14.79912059 14769
KUIPER-00526            
1 69764U 26151B   26280.08133596  .00002186  00000+0  31565-3 0  9999
2 69764  51.8982 160.9422 0001156  98.9304 261.1789 14.79941303 14557
KUIPER-00558            
1 69765U 26151C   26280.04755693  .00002274  00000+0  32730-3 0  9997
2 69765  51.8972 161.0098 0000806 106.4632 253.6419 14.79926000 14551
KUIPER-00569            
1 69766U 26151D   26280.06714446  .00002140  00000+0  30959-3 0  9994
2 69766  51.9012 158.4234 0001054  98.1366 261.9716 14.79941541 14590
KUIPER-00589            
1 69767U 26151E   26280.08225289  .00001234  00000+0  20585-3 0  9996
2 69767  51.8999 161.8186 0003335 105.6775 254.4554 14.76553179 14545
KUIPER-00598            
1 69768U 26151F   26280.02189020 -.00003013  00000+0 -36635-3 0  9995
2 69768  51.8997 153.6337 0001001 129.5508 230.5543 14.79937354 14657
KUIPER-00604            
1 69769U 26151G   26280.06984097  .00002182  00000+0  31507-3 0  9994
2 69769  51.9013 155.9268 0000961  96.7015 263.4057 14.79943143 14623
KUIPER-00609            
1 69770U 26151H   26279.97125374  .00001926  00000+0  28160-3 0  9995
2 69770  51.9002 153.8575 0001367  73.9972 286.1141 14.79931387 14646
KUIPER-00611            
1 69771U 26151J   26280.03607943  .00002087  00000+0  30261-3 0  9996
2 69771  51.8976 156.0525 0001142  95.6278 264.4814 14.79939005 14626
KUIPER-00612            
1 69772U 26151K   26279.94897156  .00000518  00000+0  96996-4 0  9997
2 69772  51.9002 158.9645 0001135 125.3405 234.7664 14.79933571 14576
KUIPER-00614            
1 69773U 26151L   26280.08672731  .00000611  00000+0  10914-3 0  9994
2 69773  51.8973 155.8978 0001040  95.2527 264.8554 14.79929997 14628
KUIPER-00615            
1 69774U 26151M   26280.09817727  .00006407  00000+0  86783-3 0  9998
2 69774  51.9006 160.7349 0000939  76.9092 283.1975 14.79971058 14562
KUIPER-00616            
1 69775U 26151N   26280.01308955 -.00000732  00000+0 -67046-4 0  9998
2 69775  51.9003 146.1795 0001187 107.7976 252.3116 14.79933822 14756
KUIPER-00617            
1 69776U 26151P   26280.07524241  .00000428  00000+0  85132-4 0  9999
2 69776  51.8993 150.9023 0000805  95.3981 264.7073 14.79933056 14696
KUIPER-00619            
1 69777U 26151Q   26280.25002315 -.00026946  00000+0 -35202-2 0  9999
2 69777  51.9007 152.6836 0000818  81.4302 234.9804 14.79928534  4811
KUIPER-00621            
1 69778U 26151R   26280.05296076  .00002029  00000+0  29510-3 0  9997
2 69778  51.8997 155.9964 0000833 102.8127 257.2929 14.79940488 14625
KUIPER-00622            
1 69779U 26151S   26280.07142851  .00001171  00000+0  19709-3 0  9997
2 69779  51.8997 160.2761 0001793 104.4833 255.6327 14.76521762 14562
KUIPER-00623            
1 69780U 26151T   26280.05027178 -.00000761  00000+0 -70873-4 0  9997
2 69780  51.8969 158.5158 0001212 115.8922 244.2165 14.79929387 14588
KUIPER-00626            
1 69781U 26151U   26280.07254019  .00000749  00000+0  12727-3 0  9993
2 69781  51.8976 153.3864 0001020 101.1095 258.9982 14.79933839 14665
KUIPER-00627            
1 69782U 26151V   26280.04417703 -.00000426  00000+0 -26866-4 0  9996
2 69782  51.9003 148.5427 0001100 119.9832 240.1240 14.79930594 14726
KUIPER-00629            
1 69783U 26151W   26280.06174575 -.00001025  00000+0 -10546-3 0  9999
2 69783  51.9007 163.3998 0001090 103.2728 256.8356 14.79929281 14528
KUIPER-00631            
1 69784U 26151X   26280.07863449  .00002246  00000+0  32351-3 0  9998
2 69784  51.9005 163.3846 0000902 102.5204 257.5860 14.79941439 14528
KUIPER-00634            
1 69785U 26151Y   26280.03338758  .00002225  00000+0  32079-3 0  9999
2 69785  51.8991 158.5878 0000897 106.4450 253.6611 14.79936253 14587
KUIPER-00639            
1 69786U 26151Z   26280.01037978  .00000560  00000+0  10251-3 0  9996
2 69786  51.9010 148.6744 0000632 102.0850 258.0183 14.79924645 14727
KUIPER-00641            
1 69787U 26151AA  26280.05835622 -.00000830  00000+0 -79827-4 0  9990
2 69787  51.8993 150.9829 0001773 150.4833 209.6230 14.79929063 14692
KUIPER-00644            
1 69788U 26151AB  26280.25002315 -.00021363  00000+0 -27815-2 0  9990
2 69788  51.8977 142.6341 0001422  89.7430  78.7161 14.79940919  5613
KUIPER-00646            
1 69789U 26151AC  26279.95707341  .00002066  00000+0  29994-3 0  9995
2 69789  51.8982 151.5120 0000815 105.5758 254.5294 14.79938000 14674
KUIPER-00647            
1 69790U 26151AD  26279.09263946  .00002442  00000+0  37742-3 0  9998
2 69790  51.8993 155.1570 0001733  14.7339 345.3672 14.76554322 14557
KUIPER-00662            
1 69791U 26151AE  26280.04486359  .00002341  00000+0  33591-3 0  9997
2 69791  51.9006 163.5311 0000938 106.9014 253.2052 14.79936694 14514
