GLOBALSTAR M069         
1 31573U 07020C   26256.03970575 -.00000059  00000+0  30604-3 0  9995
2 31573  52.0064   3.4672 0001354 343.8493 187.0981 12.23474561889551
GLOBALSTAR M072         
1 31574U 07020D   26255.94974906 -.00000098  00000+0 -19411-3 0  9994
2 31574  51.9909 226.5972 0001313 105.2177 288.0305 11.91660079885444
GLOBALSTAR M066         
1 32265U 07048C   26256.16029075 -.00000136  00000+0 -34956-3 0  9999
2 32265  51.9578 165.3665 0004159 224.6542 301.4494 12.30390571871058
GLOBALSTAR M079         
1 37188U 10054A   26256.09913137 -.00000103  00000+0  18198-5 0  9997
2 37188  52.0029 201.0529 0000362  96.5884 276.2695 12.62267360733653
GLOBALSTAR M074         
1 37189U 10054B   26256.06158391 -.00000104  00000+0 -40581-5 0  9991
2 37189  52.0002 200.4201 0000394  50.6673  30.5397 12.62263056734252
GLOBALSTAR M076         
1 37190U 10054C   26256.00795237 -.00000106  00000+0 -15216-4 0  9991
2 37190  52.0018 200.7943 0000193  68.3621   9.0374 12.62263560733966
GLOBALSTAR M077         
1 37191U 10054D   26255.36572987 -.00000072  00000+0  11320-3 0  9997
2 37191  51.9982 318.0262 0002500 340.9015  99.5478 11.67548061731325
GLOBALSTAR M075         
1 37192U 10054E   26256.01227530 -.00000118  00000+0 -78775-4 0  9992
2 37192  51.9929 242.7861 0000426  72.0889 325.9977 12.62260503733030
GLOBALSTAR M073         
1 37193U 10054F   26256.02712213 -.00000081  00000+0  12854-3 0  9994
2 37193  52.0052 156.9080 0000464  85.9933  18.3200 12.62267914735020
GLOBALSTAR M083         
1 37739U 11033A   26256.05350000 -.00000075  00000+0  15825-3 0  9997
2 37739  51.9844 104.9372 0000639 101.7861  62.1776 12.62259086704045
GLOBALSTAR M088         
1 37740U 11033B   26255.59799828 -.00000108  00000+0 -25179-4 0  9994
2 37740  52.0241  12.9600 0000663  98.8272 274.8185 12.62270183699535
GLOBALSTAR M091         
1 37741U 11033C   26256.16572784 -.00000086  00000+0  10062-3 0  9997
2 37741  52.0019 334.0722 0000633 113.7866 260.6806 12.62264750700398
GLOBALSTAR M085         
1 37742U 11033D   26256.07590639 -.00000095  00000+0  51186-4 0  9990
2 37742  52.0123 285.7157 0000499 118.2426 267.7532 12.62265243700898
GLOBALSTAR M081         
1 37743U 11033E   26255.57844087 -.00000082  00000+0  12359-3 0  9998
2 37743  51.9956 289.5657 0000310 120.2039  44.4057 12.62266236700977
GLOBALSTAR M089         
1 37744U 11033F   26255.98521139 -.00000105  00000+0 -88484-5 0  9995
2 37744  51.9913 242.4676 0000360  25.5261   9.4786 12.62263563701879
GLOBALSTAR M084         
1 38040U 11080A   26256.02672898 -.00000082  00000+0  12425-3 0  9995
2 38040  51.9995 109.8672 0000514  68.5827  95.2482 12.62264142679859
GLOBALSTAR M080         
1 38041U 11080B   26255.90609226 -.00000075  00000+0  16185-3 0  9996
2 38041  52.0047 111.9868 0001171  86.1304  17.1068 12.62258765679966
GLOBALSTAR M082         
1 38042U 11080C   26255.67862412 -.00000104  00000+0  17283-6 0  9995
2 38042  52.0072  68.1840 0000967 102.0064 339.1125 12.62262866680646
GLOBALSTAR M092         
1 38043U 11080D   26256.14591751 -.00000085  00000+0  10732-3 0  9991
2 38043  52.0069 157.1647 0000617  61.9704 103.0125 12.62265914679152
GLOBALSTAR M090         
1 38044U 11080E   26256.19979215 -.00000118  00000+0 -80634-4 0  9999
2 38044  52.0122  60.5813 0000893 110.3584  59.1637 12.62268217680820
GLOBALSTAR M086         
1 38045U 11080F   26255.78969476 -.00000107  00000+0 -20624-4 0  9993
2 38045  51.9896  61.6141 0000612 206.6003 166.5960 12.62289043680728
GLOBALSTAR M097         
1 39072U 13005A   26255.89862288 -.00000092  00000+0  63867-4 0  9996
2 39072  52.0070 336.3329 0000612 119.0245 241.0683 12.62271233627982
GLOBALSTAR M093         
1 39073U 13005B   26255.47617122 -.00000083  00000+0  11670-3 0  9990
2 39073  52.0126 331.0021 0000672 136.5884 223.5036 12.62267067627881
GLOBALSTAR M094         
1 39074U 13005C   26255.71364326 -.00000120  00000+0 -91686-4 0  9992
2 39074  51.9938 244.3086 0000326 112.0380 248.0521 12.62264794629522
GLOBALSTAR M096         
1 39075U 13005D   26256.12286700 -.00000093  00000+0  62345-4 0  9996
2 39075  52.0073 291.9331 0000544 115.6816 244.4107 12.62264426628498
GLOBALSTAR M078         
1 39076U 13005E   26255.70046405 -.00000149  00000+0 -25084-3 0  9997
2 39076  51.9902  17.1084 0001561  99.5380 260.5663 12.62259708627062
GLOBALSTAR M095         
1 39077U 13005F   26255.64783217 -.00000110  00000+0 -35788-4 0  9991
2 39077  52.0105  14.9944 0001065 114.3272 245.7706 12.62264450626911
GLOBALSTAR M087         
1 52888U 22064A   26256.05687811 -.00000071  00000+0  18274-3 0  9995
2 52888  51.9987 154.9397 0000708  89.7162 270.3786 12.62262893202231
