GLOBALSTAR M069         
1 31573U 07020C   26275.81031007 -.00000079  00000+0  12106-3 0  9999
2 31573  52.0036 307.5108 0001828  14.3419 157.0169 12.23475035891977
GLOBALSTAR M072         
1 31574U 07020D   26275.44192528 -.00000072  00000+0  16746-3 0  9992
2 31574  51.9920 174.7039 0001372 122.5378  49.3670 11.91660150887765
GLOBALSTAR M066         
1 32265U 07048C   26275.78505419 -.00000109  00000+0 -11923-3 0  9998
2 32265  51.9568 109.0277 0003750 266.3168 106.8547 12.30390486873473
GLOBALSTAR M079         
1 37188U 10054A   26275.37574315 -.00000106  00000+0 -11104-4 0  9993
2 37188  52.0019 142.3728 0000607  90.5371  80.7973 12.62262816736085
GLOBALSTAR M074         
1 37189U 10054B   26275.40237650 -.00000101  00000+0  12927-4 0  9994
2 37189  52.0003 141.5423 0000807  69.4327 101.9213 12.62263522736695
GLOBALSTAR M076         
1 37190U 10054C   26275.86913963 -.00000104  00000+0  12514-6 0  9991
2 37190  52.0013 140.3338 0000574  68.8415 304.6377 12.62263983736472
GLOBALSTAR M077         
1 37191U 10054D   26275.76290286 -.00000091  00000+0 -23976-3 0  9994
2 37191  51.9947 266.2533 0002969  17.0299 153.8265 11.67547332733708
GLOBALSTAR M075         
1 37192U 10054E   26275.52087153 -.00000083  00000+0  11722-3 0  9992
2 37192  51.9940 183.3868 0000764  73.8393  97.1367 12.62260959735492
GLOBALSTAR M073         
1 37193U 10054F   26275.80302110 -.00000111  00000+0 -42940-4 0  9997
2 37193  52.0042  96.7078 0000600  97.3257 275.6241 12.62268415737522
GLOBALSTAR M083         
1 37739U 11033A   26275.34325185 -.00000095  00000+0  48295-4 0  9996
2 37739  51.9874  46.1899 0000427 116.8442 265.4912 12.62269407706484
GLOBALSTAR M088         
1 37740U 11033B   26275.82465529 -.00000088  00000+0  87436-4 0  9990
2 37740  52.0224 311.4140 0000359  87.6639  84.0054 12.62270579702087
GLOBALSTAR M091         
1 37741U 11033C   26275.75874095 -.00000091  00000+0  72434-4 0  9991
2 37741  51.9990 274.4225 0000329  98.6779  72.7442 12.62265087702861
GLOBALSTAR M085         
1 37742U 11033D   26275.87020141 -.00000085  00000+0  10358-3 0  9999
2 37742  52.0117 225.4676 0000434  83.8082 294.2263 12.62265462703399
GLOBALSTAR M081         
1 37743U 11033E   26275.90023434 -.00000089  00000+0  84676-4 0  9991
2 37743  51.9947 227.6887 0000425  55.0373 339.9632 12.62266636703549
GLOBALSTAR M089         
1 37744U 11033F   26275.49446981 -.00000091  00000+0  71403-4 0  9999
2 37744  51.9924 183.0637 0000857  51.8735 119.2569 12.62263981704334
GLOBALSTAR M084         
1 38040U 11080A   26274.70090071 -.00000115  00000+0 -63234-4 0  9990
2 38040  52.0017  53.0138 0000536  82.7462  20.5998 12.62264093682212
GLOBALSTAR M080         
1 38041U 11080B   26275.87538823 -.00000108  00000+0 -25327-4 0  9995
2 38041  52.0069  51.1968 0001091 112.1880  58.8654 12.62268629682480
GLOBALSTAR M082         
1 38042U 11080C   26275.53891166 -.00000100  00000+0  19157-4 0  9996
2 38042  52.0107   7.7328 0000639 130.3066 242.7005 12.62262704683153
GLOBALSTAR M092         
1 38043U 11080D   26275.82954112 -.00000101  00000+0  15000-4 0  9994
2 38043  52.0064  97.2498 0000835  89.9105 284.0397 12.62266560681648
GLOBALSTAR M090         
1 38044U 11080E   26275.56552499 -.00000097  00000+0  37595-4 0  9995
2 38044  52.0156   1.6418 0000534 139.0526 234.2878 12.62268034683272
GLOBALSTAR M086         
1 38045U 11080F   26275.50623106 -.00000098  00000+0  31809-4 0  9997
2 38045  51.9927   1.5740 0000608 287.0866  86.4091 12.62289356683215
GLOBALSTAR M097         
1 39072U 13005A   26275.14028158 -.00000097  00000+0  40122-4 0  9990
2 39072  52.0047 277.7589 0000261  99.5084 260.5812 12.62271598630411
GLOBALSTAR M093         
1 39073U 13005B   26274.32197769 -.00000094  00000+0  55688-4 0  9995
2 39073  52.0095 273.6406 0000164 144.6557 215.4321 12.62267383630261
GLOBALSTAR M094         
1 39074U 13005C   26275.43049973 -.00000094  00000+0  51788-4 0  9999
2 39074  51.9951 184.2761 0000507  78.6232 281.4692 12.62264806632015
GLOBALSTAR M096         
1 39075U 13005D   26275.04789457 -.00000092  00000+0  63987-4 0  9997
2 39075  52.0063 234.3241 0000439  87.4018 272.6899 12.62264566630883
GLOBALSTAR M078         
1 39076U 13005E   26275.81331904 -.00000020  00000+0  46756-3 0  9998
2 39076  51.9884 315.8627 0001239 130.0834 230.0142 12.62261040629607
GLOBALSTAR M095         
1 39077U 13005F   26275.83981039 -.00000091  00000+0  72940-4 0  9994
2 39077  52.0092 313.5365 0000578 143.1226 216.9681 12.62264722629465
GLOBALSTAR M087         
1 52888U 22064A   26275.85294661 -.00000116  00000+0 -66414-4 0  9992
2 52888  51.9977  94.6697 0000783 110.2169 249.8782 12.62263250204735
