QIANFAN-1               
1 60379U 24140A   26261.94677481  .00000032  00000+0  31134-4 0  9999
2 60379  88.9664 270.1876 0019336 121.9843 238.3191 13.51025912105180
QIANFAN-2               
1 60380U 24140B   26261.97559656  .00000032  00000+0  30467-4 0  9995
2 60380  88.9651 269.9860 0014890  97.0866 263.1979 13.51020321105241
QIANFAN-3               
1 60381U 24140C   26261.98398969  .00000038  00000+0  40083-4 0  9996
2 60381  88.9643 270.0965 0015961 107.9128 252.3765 13.51023069105159
QIANFAN-4               
1 60382U 24140D   26261.81104884  .00000009  00000+0 -57639-5 0  9995
2 60382  88.9668 270.0828 0015126  99.6346 260.6515 13.51021018105255
QIANFAN-5               
1 60383U 24140E   26261.86032937  .00000030  00000+0  27463-4 0  9994
2 60383  88.9643 270.1337 0017056 118.3873 241.9001 13.51031280105123
QIANFAN-6               
1 60384U 24140F   26261.95504970  .00000021  00000+0  13845-4 0  9995
2 60384  88.9670 269.9462 0015207 104.3410 255.9430 13.51024129105335
QIANFAN-7               
1 60385U 24140G   26261.93508999  .00000131  00000+0  46912-4 0  9992
2 60385  88.9721 260.7377 0014365 189.0620 171.0318 14.27893288110371
QIANFAN-8               
1 60386U 24140H   26261.96340896  .00000017  00000+0  72364-5 0  9990
2 60386  88.9671 270.1862 0018645 106.6373 253.6827 13.51026067105189
QIANFAN-9               
1 60387U 24140J   26261.93863911  .00000027  00000+0  22915-4 0  9993
2 60387  88.9669 270.2584 0018343 106.4584 253.8585 13.51021690105164
QIANFAN-10              
1 60388U 24140K   26261.94274428  .00000035  00000+0  35537-4 0  9997
2 60388  88.9680 269.6349 0016850  86.4624 273.8454 13.51021800105296
QIANFAN-11              
1 60389U 24140L   26261.97989993  .00000028  00000+0  23964-4 0  9994
2 60389  88.9605 270.0070 0016373 105.9320 254.3637 13.51021075104954
QIANFAN-12              
1 60390U 24140M   26261.92635464  .00000017  00000+0  75990-5 0  9997
2 60390  88.9648 270.1780 0015119 113.0320 247.2427 13.51023650105072
QIANFAN-13              
1 60391U 24140N   26261.97157364  .00000026  00000+0  20881-4 0  9999
2 60391  88.9908 270.4137 0014917 114.8902 245.3802 13.51023728105107
QIANFAN-14              
1 60392U 24140P   26261.92231442  .00000021  00000+0  13981-4 0  9993
2 60392  88.9639 270.1506 0018583 115.9895 244.3172 13.51018847105107
QIANFAN-15              
1 60393U 24140Q   26261.93040951  .00000033  00000+0  32889-4 0  9999
2 60393  88.9662 270.1729 0014517 103.2550 257.0222 13.51028117105098
QIANFAN-16              
1 60394U 24140R   26261.84397490  .00000017  00000+0  72254-5 0  9996
2 60394  88.9665 270.3098 0016455 119.1988 241.0812 13.51025243104990
QIANFAN-17              
1 60395U 24140S   26261.83999843  .00000024  00000+0  18822-4 0  9994
2 60395  88.9675 270.3868 0016941 113.7188 246.5743 13.51021559105955
QIANFAN-18              
1 60396U 24140T   26261.96755541  .00000014  00000+0  19649-5 0  9992
2 60396  88.9670 269.8890 0016418  98.1504 262.1510 13.51020909105365
QIANFAN-19              
1 61552U 24185A   26261.87459753  .00000287  00000+0  14230-3 0  9993
2 61552  88.9854  45.8463 0008768 118.0794 242.1281 14.14531073109269
QIANFAN-20              
1 61553U 24185B   26261.92555957  .00000334  00000+0  18467-3 0  9992
2 61553  88.9848  46.4407 0006580 150.0990 210.0571 14.09071803108946
QIANFAN-21              
1 61554U 24185C   26261.87157783  .00000407  00000+0  17440-3 0  9993
2 61554  88.9774  44.1764 0011336 159.9855 200.1784 14.22932499109803
QIANFAN-22              
1 61555U 24185D   26261.90200087  .00000119  00000+0  91004-4 0  9993
2 61555  88.9828  48.5540 0005608 200.8118 159.2826 13.86429470107759
QIANFAN-23              
1 61556U 24185E   26261.87588188  .00000272  00000+0  12954-3 0  9997
2 61556  88.9847  45.5255 0009208 125.1318 235.0735 14.16552749109408
QIANFAN-24              
1 61557U 24185F   26261.91729224  .00000445  00000+0  18686-3 0  9991
2 61557  88.9833  44.4695 0011710 102.9129 257.3373 14.24156523109891
QIANFAN-25              
1 61558U 24185G   26261.90587400  .00000393  00000+0  23063-3 0  9996
2 61558  88.9840  46.4887 0012921 175.0370 185.0943 14.06130415108878
QIANFAN-26              
1 61559U 24185H   26261.91337485  .00000215  00000+0  20138-3 0  9997
2 61559  88.9833  49.5118 0004185 230.7118 129.3677 13.77945047107252
QIANFAN-27              
1 61560U 24185J   26261.85990214  .00000298  00000+0  11492-3 0  9991
2 61560  88.9844  44.1144 0009497  91.1258 269.1025 14.27602204110122
QIANFAN-28              
1 61561U 24185K   26261.89380627  .00000556  00000+0  21635-3 0  9994
2 61561  88.9862  44.1253 0009438  89.2938 270.9338 14.28486464110162
QIANFAN-29              
1 61562U 24185L   26261.90817256  .00000147  00000+0  20836-3 0  9998
2 61562  88.9800  52.3507 0008687 329.5312  30.5334 13.51094004105620
QIANFAN-30              
1 61563U 24185M   26261.87272293  .00000138  00000+0  19861-3 0  9997
2 61563  88.9821  51.9872 0006146 316.0249  44.0412 13.50075901105869
QIANFAN-31              
1 61564U 24185N   26261.88995650  .00000168  00000+0  21497-3 0  9999
2 61564  88.9806  51.3427 0005338 296.7384  63.3224 13.58064363106188
QIANFAN-32              
1 61565U 24185P   26261.91015443  .00000109  00000+0  15004-3 0  9999
2 61565  88.9860  52.1992 0008977 348.9731  11.1222 13.50806179105867
QIANFAN-33              
1 61566U 24185Q   26261.88793576  .00000269  00000+0  18387-3 0  9990
2 61566  88.9830  47.5786 0008365 157.7199 202.4343 13.96752774108266
QIANFAN-34              
1 61567U 24185R   26261.91625966  .00000434  00000+0  27322-3 0  9995
2 61567  88.9811  46.7688 0006496 150.5691 209.5856 14.02520914108623
QIANFAN-35              
1 61568U 24185S   26261.88090042  .00000477  00000+0  18508-3 0  9996
2 61568  88.9843  44.0044 0008531  87.5175 272.6996 14.28357763110160
QIANFAN-36              
1 61569U 24185T   26261.92766091  .00000086  00000+0  10606-3 0  9993
2 61569  88.9797  51.8461 0004894 321.0165  39.0636 13.55647359105882
QIANFAN-37              
1 62238U 24232B   26261.87630037  .00000106  00000+0  14585-3 0  9997
2 62238  89.0156  13.2010 0001962  87.2151 272.9225 13.51030379136990
QIANFAN-38              
1 62239U 24232C   26261.90107210  .00000109  00000+0  15040-3 0  9994
2 62239  89.0162  13.1333 0016498 105.9027 254.3944 13.51028562137056
QIANFAN-39              
1 62240U 24232D   26261.92867131  .00000336  00000+0  13574-3 0  9995
2 62240  89.0141   5.4216 0014373 235.0088 124.9756 14.25561130141302
QIANFAN-40              
1 62241U 24232E   26261.93399221  .00000103  00000+0  14115-3 0  9991
2 62241  89.0190  12.7927 0015565 112.7214 247.5585 13.51028811137425
QIANFAN-41              
1 62242U 24232F   26261.86813400  .00000112  00000+0  15494-3 0  9995
2 62242  89.0160  13.0829 0015894 102.5261 257.7669 13.51030000137072
QIANFAN-42              
1 62243U 24232G   26261.89467230  .00000318  00000+0  13077-3 0  9998
2 62243  89.0139   5.5141 0013025 242.7794 117.2072 14.24648148141256
QIANFAN-43              
1 62244U 24232H   26261.93808676  .00000111  00000+0  15272-3 0  9997
2 62244  89.0165  13.1536 0017444 106.9429 253.3636 13.51029461105690
QIANFAN-44              
1 62245U 24232J   26261.92576764  .00000102  00000+0  13897-3 0  9998
2 62245  89.0163  12.9610 0015655 104.3535 255.9356 13.51029702137163
QIANFAN-45              
1 62246U 24232K   26261.89286774  .00000107  00000+0  14640-3 0  9996
2 62246  89.0167  13.1208 0016318 104.1011 256.1955 13.51028453137089
QIANFAN-46              
1 62247U 24232L   26261.91749114  .00000099  00000+0  13422-3 0  9999
2 62247  89.0163  13.1758 0016372 108.8897 251.4031 13.51029546137042
QIANFAN-47              
1 62248U 24232M   26261.92164952  .00000100  00000+0  13629-3 0  9994
2 62248  89.0159  13.0971 0016792 108.1612 252.1370 13.51028780137074
QIANFAN-48              
1 62249U 24232N   26261.88470842  .00000106  00000+0  14520-3 0  9995
2 62249  89.0162  13.1137 0019052 110.6579 249.6617 13.51023143137079
QIANFAN-49              
1 62250U 24232P   26261.87227663  .00000102  00000+0  13838-3 0  9994
2 62250  89.0162  13.1251 0016128 105.8310 254.4621 13.51030255105669
QIANFAN-50              
1 62251U 24232Q   26261.89692682  .00000105  00000+0  14415-3 0  9999
2 62251  89.0167  13.1461 0017788 106.9743 253.3360 13.51029700105697
QIANFAN-51              
1 62252U 24232R   26261.88050605  .00000088  00000+0  11801-3 0  9998
2 62252  89.0161  13.1244 0015247 110.3141 249.9651 13.51028663105680
QIANFAN-52              
1 62253U 24232S   26261.90928522  .00000097  00000+0  13100-3 0  9998
2 62253  89.0157  12.9841 0017282 103.2760 257.0320 13.51030773105773
QIANFAN-53              
1 62254U 24232T   26261.88878352  .00000101  00000+0  13794-3 0  9996
2 62254  89.0165  13.1119 0016166 104.3434 255.9513 13.51027455105734
QIANFAN-54              
1 62255U 24232U   26261.92986603  .00000106  00000+0  14503-3 0  9995
2 62255  89.0156  12.7615 0003822 127.1461 233.0040 13.51029280137240
QIANFAN-55              
1 62785U 25016A   26261.95596512  .00000052  00000+0  61498-4 0  9999
2 62785  88.9671  74.1180 0015563 257.3326 102.6085 13.51024789 85025
QIANFAN-56              
1 62786U 25016B   26261.89819474  .00000046  00000+0  52959-4 0  9993
2 62786  88.9645  73.8858 0014139 260.3797  99.5757 13.51028004 85067
QIANFAN-57              
1 62787U 25016C   26261.93127803  .00000047  00000+0  54830-4 0  9998
2 62787  88.9676  74.1231 0002448  82.5354 277.6075 13.51027751 85031
QIANFAN-58              
1 62788U 25016D   26261.90248804  .00000031  00000+0  29053-4 0  9993
2 62788  88.9646  73.8726 0012099 251.4815 108.5022 13.51027181 85071
QIANFAN-59              
1 62789U 25016E   26261.92700241  .00000052  00000+0  61896-4 0  9998
2 62789  88.9669  74.0097 0012436 255.7967 104.1803 13.51024518 85071
QIANFAN-60              
1 62790U 25016F   26261.88586278  .00000060  00000+0  74297-4 0  9995
2 62790  88.9651  73.9322 0014014 252.1023 107.8601 13.51027953 85051
QIANFAN-61              
1 62791U 25016G   26261.91882379  .00000062  00000+0  78005-4 0  9994
2 62791  88.9717  74.2811 0012981 251.2998 108.6744 13.51027489 85077
QIANFAN-62              
1 62792U 25016H   26261.92305200  .00000059  00000+0  72780-4 0  9999
2 62792  88.9664  73.9987 0014319 251.7337 108.2256 13.51019925 85067
QIANFAN-63              
1 62793U 25016J   26261.94767164  .00000049  00000+0  57186-4 0  9995
2 62793  88.9671  73.9666 0014342 257.6966 102.2579 13.51022913 85107
QIANFAN-64              
1 62794U 25016K   26261.91473439  .00000058  00000+0  72001-4 0  9995
2 62794  88.9658  73.9066 0012332 249.4874 110.4954 13.51027474 85094
QIANFAN-65              
1 62795U 25016L   26261.91051522  .00000066  00000+0  83725-4 0  9995
2 62795  88.9654  73.9230 0012170 251.4209 108.5621 13.51023636 85072
QIANFAN-66              
1 62796U 25016M   26261.93933107  .00000045  00000+0  51074-4 0  9995
2 62796  88.9674  73.9451 0013311 246.6143 113.3608 13.51019752 85120
QIANFAN-67              
1 62797U 25016N   26261.94342274  .00000048  00000+0  55088-4 0  9998
2 62797  88.9664  73.9428 0013215 254.3801 105.5892 13.51029130 85099
QIANFAN-68              
1 62798U 25016P   26261.93529312  .00000041  00000+0  45605-4 0  9995
2 62798  88.9667  73.9987 0013306 252.0153 107.9548 13.51021889 85074
QIANFAN-69              
1 62799U 25016Q   26261.95165017  .00000056  00000+0  67742-4 0  9998
2 62799  88.9647  73.8069 0014034 253.6282 106.3326 13.51024229 85115
QIANFAN-70              
1 62800U 25016R   26261.89418083  .00000060  00000+0  74363-4 0  9990
2 62800  88.9667  74.0097 0013734 242.9450 117.0300 13.51023836 85066
QIANFAN-71              
1 62801U 25016S   26261.89001767  .00000053  00000+0  63402-4 0  9992
2 62801  88.9661  73.9728 0013919 257.8667 102.0925 13.51026811 85063
QIANFAN-72              
1 62802U 25016T   26261.90658712  .00000054  00000+0  65276-4 0  9995
2 62802  88.9651  73.9571 0017162 266.0115  93.9075 13.51020753 85055
QIANFAN-73              
1 63159U 25046A   26261.93353820  .00000057  00000+0  70126-4 0  9992
2 63159  88.9644 290.9296 0016119  40.5149 319.7199 13.51025382 85241
QIANFAN-74              
1 63160U 25046B   26261.91711028  .00000008  00000+0 -61156-5 0  9991
2 63160  88.9644 290.8211 0001809  97.2416 262.8940 13.51018698 85306
QIANFAN-75              
1 63161U 25046C   26261.90480704  .00000064  00000+0  80736-4 0  9990
2 63161  88.9647 291.0600 0017341  43.5253 316.7263 13.51030824 85173
QIANFAN-76              
1 63162U 25046D   26261.90075359 -.00000082  00000+0 -14561-3 0  9991
2 63162  88.9646 291.0402 0014813  44.7190 315.5153 13.51021687 85180
QIANFAN-77              
1 63163U 25046E   26261.90833527  .00000088  00000+0  54137-4 0  9999
2 63163  88.9651 286.7363 0012583 288.4743  71.5066 13.96246787 87540
QIANFAN-78              
1 63164U 25046F   26261.94236446  .00000053  00000+0  63919-4 0  9991
2 63164  88.9646 290.8976 0016304  46.0407 314.2086 13.51012290 85268
QIANFAN-79              
1 63165U 25046G   26261.89651438  .00000022  00000+0  14532-4 0  9991
2 63165  88.9649 291.0195 0015980  44.9521 315.2921 13.51021142 85200
QIANFAN-80              
1 63166U 25046H   26261.91298374  .00000052  00000+0  61850-4 0  9999
2 63166  88.9646 290.7170 0015009  49.4733 310.7722 13.51029802 85361
QIANFAN-81              
1 63167U 25046J   26261.89236849  .00000098  00000+0  13321-3 0  9995
2 63167  88.9646 290.7865 0015903  39.4081 320.8224 13.51020692 85313
QIANFAN-82              
1 63168U 25046K   26261.92536514  .00000064  00000+0  80963-4 0  9992
2 63168  88.9646 290.8274 0013986  46.4506 313.7804 13.51020620 85303
QIANFAN-83              
1 63169U 25046L   26261.89047057  .00000035  00000+0  29848-4 0  9991
2 63169  88.9648 290.0550 0014326  17.3486 342.8158 13.62064809 85739
QIANFAN-84              
1 63170U 25046M   26261.88010367 -.00000047  00000+0 -90792-4 0  9997
2 63170  88.9646 290.9647 0016842  42.0302 318.2138 13.51017088 85226
QIANFAN-85              
1 63171U 25046N   26261.87593963  .00000061  00000+0  74894-4 0  9994
2 63171  88.9645 290.8347 0014505  45.2199 315.0129 13.51020779 85298
QIANFAN-86              
1 63172U 25046P   26261.88414680  .00000077  00000+0  10007-3 0  9996
2 63172  88.9648 290.7026 0012519  50.0843 310.1407 13.51025774 85372
QIANFAN-87              
1 63173U 25046Q   26261.92939746  .00000013  00000+0  11488-5 0  9993
2 63173  88.9644 290.7991 0012879  45.1701 315.0494 13.51031970 85316
QIANFAN-88              
1 63174U 25046R   26261.87178610  .00000060  00000+0  73974-4 0  9992
2 63174  88.9647 290.7665 0013558  52.9868 307.2521 13.51019164 85330
QIANFAN-89              
1 63175U 25046S   26261.90882418  .00000014  00000+0  26956-5 0  9993
2 63175  88.9646 290.9515 0017779  42.0400 318.2112 13.51019953 85230
QIANFAN-90              
1 63176U 25046T   26261.93769228  .00000021  00000+0  14225-4 0  9993
2 63176  88.9647 290.9218 0014679  41.8168 318.4101 13.51019893 85251
QIANFAN-91              
1 66033U 25233A   26261.37760705  .00000083  00000+0  11057-3 0  9992
2 66033  89.0051  33.7676 0001776  93.0084 267.1270 13.51029341 45766
QIANFAN-92              
1 66034U 25233B   26261.60827936  .00000034  00000+0  34172-4 0  9999
2 66034  89.0036  33.7009 0001982 100.5370 259.6004 13.51016010 45794
QIANFAN-93              
1 66035U 25233C   26260.35705125 -.01893751  00000+0 -34531+1 0  9990
2 66035  89.0038  33.9026 0006262  26.1590 333.9873 13.45060301 45628
QIANFAN-94              
1 66036U 25233D   26261.30771743  .00000085  00000+0  11314-3 0  9990
2 66036  89.0059  33.7083 0001781  99.3416 260.7936 13.51027718 45802
QIANFAN-95              
1 66037U 25233E   26260.35280701 -.01881968  00000+0 -34325+1 0  9998
2 66037  89.0070  33.3481 0009145  41.7698 318.4146 13.45007786 45922
QIANFAN-96              
1 66038U 25233F   26261.63683626  .00000080  00000+0  10497-3 0  9996
2 66038  89.0054  33.7575 0001754  91.2654 268.8699 13.51028855 45796
QIANFAN-97              
1 66039U 25233G   26261.69445218  .00000048  00000+0  55279-4 0  9998
2 66039  89.0056  33.7388 0001827  93.4933 266.6427 13.51038999 45803
QIANFAN-98              
1 66040U 25233H   26261.62864187  .00000089  00000+0  11898-3 0  9996
2 66040  89.0047  33.4663 0001613 112.3257 247.8065 13.51029142 45945
QIANFAN-99              
1 66041U 25233J   26261.33643737  .00000093  00000+0  12535-3 0  9995
2 66041  89.0058  33.7794 0001458 105.7183 254.4130 13.51035596 45764
QIANFAN-100             
1 66042U 25233K   26261.62454824  .00000090  00000+0  12122-3 0  9994
2 66042  89.0069  33.6880 0001825  93.9601 266.1759 13.51020164 45855
QIANFAN-101             
1 66043U 25233L   26261.35678938  .00000305  00000+0  11952-3 0  9998
2 66043  89.0058  29.8771 0014728 190.2014 169.8883 14.26860929 47915
QIANFAN-102             
1 66044U 25233M   26261.64508554  .00000080  00000+0  10586-3 0  9999
2 66044  89.0056  33.6560 0001722 100.1756 259.9590 13.51028417 45858
QIANFAN-103             
1 66045U 25233N   26261.57517555  .00000038  00000+0  39928-4 0  9998
2 66045  89.0059  33.7606 0001815  93.9556 266.1803 13.51028391 45795
QIANFAN-104             
1 66046U 25233P   26261.65326070  .00000084  00000+0  11207-3 0  9998
2 66046  89.0063  33.6593 0001806 102.0645 258.0708 13.51026393 45857
QIANFAN-105             
1 66047U 25233Q   26261.36537214  .00000044  00000+0  49241-4 0  9997
2 66047  89.0074  33.5436 0001840  98.3811 261.7548 13.51029608 45928
QIANFAN-106             
1 66048U 25233R   26261.36114027  .00000088  00000+0  11705-3 0  9992
2 66048  89.0044  33.7277 0001597 109.1621 250.9703 13.51030005 45768
QIANFAN-107             
1 66049U 25233S   26261.36938444  .00000093  00000+0  12507-3 0  9997
2 66049  89.0060  33.7741 0001853  94.7012 265.4350 13.51029320 45779
QIANFAN-108             
1 66050U 25233T   26261.66980266  .00000081  00000+0  10709-3 0  9990
2 66050  89.0053  33.7250 0001630 108.4925 251.6404 13.51029018 45813
QIANFAN-109             
1 68636U 26075A   26261.90584974  .00000050  00000+0  58337-4 0  9996
2 68636  88.9866 311.4498 0002083  83.8836 276.2552 13.51020778 22440
QIANFAN-110             
1 68637U 26075B   26261.91402068  .00000048  00000+0  54986-4 0  9994
2 68637  88.9866 311.4705 0002252  97.5420 262.5987 13.51021660 22442
QIANFAN-111             
1 68638U 26075C   26261.90193996  .00000046  00000+0  52741-4 0  9996
2 68638  88.9865 311.4307 0002229  97.0370 263.1035 13.51021208 22464
QIANFAN-112             
1 68639U 26075D   26261.93887478  .00000045  00000+0  50486-4 0  9998
2 68639  88.9864 311.4347 0002315  84.8267 275.3148 13.51023593 22462
QIANFAN-113             
1 68640U 26075E   26261.90992227  .00000053  00000+0  64125-4 0  9990
2 68640  88.9870 311.4366 0002301  94.5492 265.5922 13.51020160 22463
QIANFAN-114             
1 68641U 26075F   26261.91815492  .00000051  00000+0  60955-4 0  9995
2 68641  88.9865 311.4505 0002219  96.6459 263.4945 13.51027857 22458
QIANFAN-115             
1 68642U 26075G   26261.94703715  .00000052  00000+0  61237-4 0  9998
2 68642  88.9865 311.4548 0002094  94.2118 265.9273 13.51024494 22458
QIANFAN-116             
1 68643U 26075H   26261.93466690  .00000041  00000+0  44469-4 0  9992
2 68643  88.9858 311.4095 0002353  88.2023 271.9398 13.51025102 22467
QIANFAN-117             
1 68644U 26075J   26261.92241588  .00000044  00000+0  49801-4 0  9997
2 68644  88.9862 311.4308 0002163  90.1462 269.9937 13.51022936 22466
QIANFAN-118             
1 68645U 26075K   26261.88119315  .00000043  00000+0  47534-4 0  9995
2 68645  88.9868 311.4475 0002318  99.1285 261.0129 13.51024689 22454
QIANFAN-119             
1 68646U 26075L   26261.93048459  .00000037  00000+0  38644-4 0  9997
2 68646  88.9868 311.4382 0002002  87.0594 273.0787 13.51020382 22461
QIANFAN-120             
1 68647U 26075M   26261.86880786  .00000046  00000+0  53244-4 0  9990
2 68647  88.9869 311.4310 0001938  86.6183 273.5190 13.51020214 22467
QIANFAN-121             
1 68648U 26075N   26261.89361991  .00000032  00000+0  30554-4 0  9990
2 68648  88.9867 311.4313 0002231  98.3757 261.7647 13.51023754 22461
QIANFAN-122             
1 68649U 26075P   26261.88533979  .00000042  00000+0  46681-4 0  9996
2 68649  88.9866 311.4292 0002151  87.8892 272.2505 13.51027315 22457
QIANFAN-123             
1 68650U 26075Q   26261.92637879  .00000040  00000+0  44008-4 0  9996
2 68650  88.9862 311.4120 0002119  81.6320 278.5071 13.51020263 22448
QIANFAN-124             
1 68651U 26075R   26261.87713511  .00000057  00000+0  69077-4 0  9990
2 68651  88.9865 311.4285 0002173  86.5865 273.5534 13.51026861 22463
QIANFAN-125             
1 68652U 26075S   26261.88950593  .00000036  00000+0  36593-4 0  9999
2 68652  88.9865 311.4292 0002259  97.9682 262.1726 13.51023885 22460
QIANFAN-126             
1 68653U 26075T   26261.89755749  .00000043  00000+0  47576-4 0  9998
2 68653  88.9869 311.3977 0002102  82.4272 277.7118 13.51029308 22480
QIANFAN-127             
1 69073U 26104A   26261.90301561  .00000078  00000+0  10175-3 0  9991
2 69073  88.9924 331.9169 0002541 103.2300 256.9135 13.51028061 17815
QIANFAN-128             
1 69074U 26104B   26261.91111890  .00000061  00000+0  76112-4 0  9993
2 69074  88.9901 331.9401 0002246 113.1072 247.0316 13.51023577 17794
QIANFAN-129             
1 69075U 26104C   26261.93573799  .00000075  00000+0  96735-4 0  9994
2 69075  88.9904 331.8719 0002331 108.3493 251.7912 13.51023496 17836
QIANFAN-130             
1 69076U 26104D   26261.89868902  .00000079  00000+0  10434-3 0  9998
2 69076  88.9906 331.9415 0002522  97.6377 262.5061 13.51021678 17796
QIANFAN-131             
1 69077U 26104E   26261.91944165  .00000065  00000+0  82718-4 0  9998
2 69077  88.9900 331.8999 0002070 107.1443 252.9935 13.51025699 17819
QIANFAN-132             
1 69078U 26104F   26261.90693822  .00000072  00000+0  93331-4 0  9990
2 69078  88.9902 331.9578 0002398 100.2438 259.8984 13.51021947 17785
QIANFAN-133             
1 69079U 26104G   26261.91528132  .00000070  00000+0  90335-4 0  9992
2 69079  88.9905 331.9071 0001996 113.1311 247.0051 13.51030757 17809
QIANFAN-134             
1 69080U 26104H   26261.94405649  .00000068  00000+0  86058-4 0  9998
2 69080  88.9909 331.9305 0002198 112.3794 247.7590 13.51029077 17804
QIANFAN-135             
1 69081U 26104J   26261.92339548  .00000067  00000+0  85694-4 0  9995
2 69081  88.9903 331.9234 0002441 112.5969 247.5440 13.51022179 17805
QIANFAN-136             
1 69082U 26104K   26261.93166572  .00000077  00000+0  10002-3 0  9993
2 69082  88.9905 331.9256 0002052 113.2002 246.9366 13.51032159 17805
QIANFAN-137             
1 69083U 26104L   26261.92758229  .00000074  00000+0  96143-4 0  9997
2 69083  88.9914 331.8026 0002266 100.5605 259.5801 13.51021873 17877
QIANFAN-138             
1 69084U 26104M   26261.95219196  .00000072  00000+0  93161-4 0  9991
2 69084  88.9899 331.9234 0002523 106.7700 253.3728 13.51021704 17808
QIANFAN-139             
1 69085U 26104N   26261.94003272  .00000073  00000+0  94488-4 0  9991
2 69085  88.9901 331.9064 0002493 101.3012 258.8420 13.51030457 17812
QIANFAN-140             
1 69086U 26104P   26261.94809253  .00000062  00000+0  78049-4 0  9998
2 69086  88.9902 331.9091 0002520 111.5008 248.6412 13.51022785 17816
QIANFAN-141             
1 69087U 26104Q   26261.95638804  .00000067  00000+0  84929-4 0  9991
2 69087  88.9898 331.8726 0002319 112.6006 247.5391 13.51020577 17834
QIANFAN-142             
1 69088U 26104R   26261.89046306  .00000022  00000+0  14954-4 0  9997
2 69088  88.9897 331.8787 0002486 107.6078 252.5345 13.51019709 17828
QIANFAN-143             
1 69089U 26104S   26261.96052945  .00000066  00000+0  83984-4 0  9999
2 69089  88.9908 331.8780 0002001 106.4612 253.6760 13.51027243 17835
QIANFAN-144             
1 69090U 26104T   26261.89457969  .00000077  00000+0  99916-4 0  9992
2 69090  88.9906 331.9029 0002538 104.1967 255.9466 13.51020678 17816
QIANFAN-145             
1 69104U 26108A   26261.89886374  .00000040  00000+0  43079-4 0  9997
2 69104  89.0192  12.6929 0001601 103.7460 256.3869 13.51033885 17092
QIANFAN-146             
1 69105U 26108B   26261.85779330  .00000125  00000+0  17569-3 0  9995
2 69105  89.0194  12.5340 0001959  99.8062 260.3310 13.51039837 17189
QIANFAN-147             
1 69106U 26108C   26261.90729958  .00000115  00000+0  15903-3 0  9992
2 69106  89.0195  12.6965 0002081 103.4265 256.7118 13.51024872 17086
QIANFAN-148             
1 69107U 26108D   26261.89488899  .00000125  00000+0  17471-3 0  9990
2 69107  89.0188  12.6878 0001996 109.8144 250.3222 13.51024377 17088
QIANFAN-149             
1 69108U 26108E   26261.90305172  .00000125  00000+0  17483-3 0  9998
2 69108  89.0188  12.7082 0002293 109.0074 251.1326 13.51023933 17083
QIANFAN-150             
1 69109U 26108F   26261.91125052  .00000103  00000+0  14054-3 0  9994
2 69109  89.0193  12.6606 0002309 107.7826 252.3578 13.51024375 17105
QIANFAN-151             
1 69110U 26108G   26261.86616645  .00000122  00000+0  16970-3 0  9993
2 69110  89.0192  12.6887 0001815 103.4766 256.6588 13.51027555 17082
QIANFAN-152             
1 69111U 26108H   26261.91945873  .00000115  00000+0  15898-3 0  9998
2 69111  89.0189  12.6752 0002234  97.6186 262.5219 13.51028781 17108
QIANFAN-153             
1 69112U 26108J   26261.91535449  .00000109  00000+0  15002-3 0  9993
2 69112  89.0185  12.6521 0002229 103.8788 256.2611 13.51024712 17107
QIANFAN-154             
1 69113U 26108K   26261.92371992  .00000116  00000+0  16039-3 0  9995
2 69113  89.0195  12.7000 0002142 106.0842 254.0545 13.51026697 17096
QIANFAN-155             
1 69114U 26108L   26261.92771801  .00000116  00000+0  16061-3 0  9994
2 69114  89.0193  12.6641 0002274 105.4597 254.6806 13.51023557 17101
QIANFAN-156             
1 69115U 26108M   26261.87419782  .00000115  00000+0  15983-3 0  9997
2 69115  89.0207  12.6706 0001905 108.2237 251.9121 13.51023518 17110
QIANFAN-157             
1 69116U 26108N   26261.93609245  .00000131  00000+0  18370-3 0  9991
2 69116  89.0189  12.5880 0002084 111.3248 248.8126 13.51028260 17151
QIANFAN-158             
1 69117U 26108P   26261.87829114  .00000115  00000+0  15919-3 0  9992
2 69117  89.0190  12.6350 0001862 106.2743 253.8614 13.51023766 17124
QIANFAN-159             
1 69118U 26108Q   26261.87011469  .00000124  00000+0  17346-3 0  9995
2 69118  89.0182  12.6422 0001887 103.9530 256.1831 13.51023536 17112
QIANFAN-160             
1 69119U 26108R   26261.88670788  .00000116  00000+0  16076-3 0  9992
2 69119  89.0197  12.6778 0002388 105.9481 254.1934 13.51023636 17109
QIANFAN-161             
1 69120U 26108S   26261.89066204  .00000122  00000+0  17111-3 0  9995
2 69120  89.0204  12.5941 0001843 104.9154 255.2201 13.51022007 17157
QIANFAN-162             
1 69121U 26108T   26261.88245990  .00000115  00000+0  15947-3 0  9993
2 69121  89.0194  12.6203 0002134  99.4519 260.6874 13.51022876 17122
QIANFAN-163             
1 69325U 26121A   26261.84709639  .00000011  00000+0 -12401-5 0  9995
2 69325  89.0102 291.1908 0002371 120.8311 239.3074 13.51022061 14819
QIANFAN-164             
1 69326U 26121B   26261.36981491  .00000032  00000+0  31567-4 0  9996
2 69326  89.0101 291.2292 0002038 111.1761 248.9608 13.51021376 14758
QIANFAN-165             
1 69382U 26124A   26261.97200053  .00000112  00000+0  15509-3 0  9992
2 69382  89.0070 352.1765 0001905 120.8651 239.2688 13.51021998 14700
QIANFAN-166             
1 69383U 26124B   26261.90208722  .00000117  00000+0  16309-3 0  9991
2 69383  89.0089 352.1941 0001825 104.1584 255.9770 13.51022555 14693
QIANFAN-167             
1 69384U 26124C   26261.90608830  .00000124  00000+0  17366-3 0  9998
2 69384  89.0063 352.1996 0002208 107.2362 252.9031 13.51031586 14680
QIANFAN-168             
1 69385U 26124D   26261.91013979  .00000118  00000+0  16436-3 0  9994
2 69385  89.0059 352.1791 0001641 107.8461 252.2870 13.51020181 14699
QIANFAN-169             
1 69386U 26124E   26261.91440022  .00000114  00000+0  15732-3 0  9992
2 69386  89.0058 352.1785 0001844 100.1056 260.0304 13.51023440 14693
QIANFAN-170             
1 69387U 26124F   26261.91846832  .00000113  00000+0  15702-3 0  9998
2 69387  89.0075 352.1502 0001799  98.2219 261.9136 13.51025911 14718
QIANFAN-171             
1 69388U 26124G   26261.92677220  .00000019  00000+0  11171-4 0  9995
2 69388  89.0090 352.1617 0002118 103.5947 256.5440 13.51028723 14719
QIANFAN-172             
1 69389U 26124H   26261.92257553  .00000106  00000+0  14481-3 0  9992
2 69389  89.0073 352.1522 0001817 117.1772 242.9565 13.51029477 14712
QIANFAN-173             
1 69390U 26124J   26261.85662840  .00000094  00000+0  12629-3 0  9993
2 69390  89.0062 352.1554 0001623 102.8372 257.2961 13.51022424 14702
QIANFAN-174             
1 69391U 26124K   26261.86902937  .00000115  00000+0  16024-3 0  9996
2 69391  89.0042 352.1118 0002227 109.1008 251.0384 13.51030329 14719
QIANFAN-175             
1 69392U 26124L   26261.87326327  .00000112  00000+0  15431-3 0  9999
2 69392  89.0094 352.1558 0001815 102.3214 257.8140 13.51020348 14715
QIANFAN-176             
1 69393U 26124M   26261.87735880  .00000114  00000+0  15810-3 0  9991
2 69393  89.0056 352.1357 0001834 102.5761 257.5596 13.51021134 14706
QIANFAN-177             
1 69394U 26124N   26261.88557738  .00000113  00000+0  15698-3 0  9990
2 69394  89.0066 352.1233 0002117 109.4981 250.6399 13.51030233 14723
QIANFAN-178             
1 69395U 26124P   26261.95546226  .00000117  00000+0  16285-3 0  9996
2 69395  89.0012 352.0727 0001844 101.7765 258.3593 13.51026166 14746
QIANFAN-179             
1 69396U 26124Q   26261.88969839  .00000099  00000+0  13450-3 0  9998
2 69396  89.0044 352.0971 0001823 100.9433 259.1923 13.51029771 14733
QIANFAN-180             
1 69397U 26124R   26261.81975483  .00000099  00000+0  13522-3 0  9994
2 69397  89.0050 352.1250 0001819  96.9757 263.1601 13.51022021 14717
QIANFAN-181             
1 69398U 26124S   26261.93494985  .00000101  00000+0  13769-3 0  9998
2 69398  89.0072 352.2066 0002168 105.9738 254.1653 13.51023782 14684
QIANFAN-182             
1 69399U 26124T   26261.86493836  .00000111  00000+0  15355-3 0  9999
2 69399  89.0047 352.1844 0001828 104.3756 255.7599 13.51028332 14676
QIANFAN-183             
1 69401U 26125A   26261.97362224  .00000022  00000+0  15453-4 0  9993
2 69401  88.9832 270.4603 0002023 101.3847 258.7531 13.51027463 14607
QIANFAN-184             
1 69402U 26125B   26261.98186857  .00000037  00000+0  38457-4 0  9996
2 69402  88.9883 270.4862 0001970  97.5313 262.6062 13.51028700 14603
QIANFAN-185             
1 69403U 26125C   26260.52372312 -.01777842  00000+0 -31393+1 0  9995
2 69403  88.9894 270.5744 0009178 115.9164 244.2932 13.46850617 14441
QIANFAN-186             
1 69404U 26125D   26261.97781087  .00000027  00000+0  22994-4 0  9991
2 69404  88.9885 270.4865 0002012  95.9830 264.1551 13.51008235 14605
QIANFAN-187             
1 69405U 26125E   26261.98599032  .00000032  00000+0  31169-4 0  9990
2 69405  88.9885 270.4685 0002165  99.5912 260.5484 13.51007342 14610
QIANFAN-188             
1 69406U 26125F   26261.92006776  .00000024  00000+0  18779-4 0  9996
2 69406  88.9883 270.4749 0002050 102.6071 257.5310 13.51029377 14600
QIANFAN-189             
1 69407U 26125G   26261.92823185  .00000020  00000+0  12925-4 0  9991
2 69407  88.9866 270.4689 0002094 107.8292 252.3088 13.51028501 14596
QIANFAN-190             
1 69408U 26125H   26261.84183119  .00000028  00000+0  24962-4 0  9991
2 69408  88.9867 270.4756 0001905  96.5174 263.6194 13.51033337 14592
QIANFAN-191             
1 69409U 26125J   26261.94064738  .00000024  00000+0  19195-4 0  9996
2 69409  88.9881 270.4774 0002011 102.3525 257.7852 13.51032887 14600
QIANFAN-192             
1 69410U 26125K   26261.85006564  .00000010  00000+0 -35418-5 0  9994
2 69410  88.9888 270.4871 0002134 105.5294 254.6093 13.51019577 14593
QIANFAN-193             
1 69411U 26125L   26261.94895911  .00000025  00000+0  20488-4 0  9992
2 69411  88.9866 270.4535 0001923 103.2143 256.9223 13.51027454 14616
QIANFAN-194             
1 69412U 26125M   26261.94483018  .00000023  00000+0  17470-4 0  9999
2 69412  88.9898 270.4682 0002046 102.2486 257.8894 13.51026081 14609
QIANFAN-195             
1 69413U 26125N   26261.95309519  .00000036  00000+0  36392-4 0  9992
2 69413  88.9900 270.4523 0001930  88.8298 271.3074 13.51011803 14628
QIANFAN-196             
1 69414U 26125P   26261.96121963  .00000015  00000+0  44853-5 0  9998
2 69414  88.9905 270.4554 0001860  93.1334 267.0030 13.51035262 14629
QIANFAN-197             
1 69415U 26125Q   26261.96955959  .00000016  00000+0  59211-5 0  9994
2 69415  88.9879 270.4262 0002007 100.2023 259.9354 13.51023699 14625
QIANFAN-198             
1 69416U 26125R   26261.95717248  .00000025  00000+0  19932-4 0  9996
2 69416  88.9873 270.4401 0002044 102.7940 257.3440 13.51028174 14622
QIANFAN-199             
1 69417U 26125S   26261.96544964  .00000011  00000+0 -21101-5 0  9999
2 69417  88.9877 270.3895 0002238 100.9897 259.1506 13.51025676 14659
QIANFAN-200             
1 69418U 26125T   26261.93659259  .00000020  00000+0  11599-4 0  9999
2 69418  88.9884 270.4779 0002054 105.7327 254.4051 13.51026180 14606
QIANFAN-201             
1 69800U 26153A   26261.94674876  .00000040  00000+0  17660-4 0  9995
2 69800  88.9977 351.6330 0005136  13.2209 346.9103 14.00289983 10838
QIANFAN-202             
1 69801U 26153B   26261.95497395  .00000144  00000+0  79071-4 0  9995
2 69801  88.9979 351.5972 0007161 349.7069  10.3966 14.06319915 10848
QIANFAN-203             
1 69802U 26153C   26261.88167791  .00000066  00000+0  30695-4 0  9994
2 69802  88.9978 351.6424 0005649 353.8097   6.3015 14.07838524 10828
QIANFAN-204             
1 69803U 26153D   26261.91171010  .00000269  00000+0  15781-3 0  9991
2 69803  88.9979 351.6291 0005831 346.2606  13.8416 14.05217958 10836
QIANFAN-205             
1 69804U 26153E   26261.86625360 -.01800669  00000+0 -13568+1 0  9991
2 69804  88.9971 351.6581 0005691  77.5638 282.6177 13.98554870 10810
QIANFAN-206             
1 69805U 26153F   26261.80490656 -.01788284  00000+0 -12369+1 0  9990
2 69805  88.9973 351.6123 0010813 338.1395  21.9323 14.03331798 10831
QIANFAN-207             
1 69806U 26153G   26261.87224735  .00000038  00000+0  14835-4 0  9996
2 69806  88.9978 351.6406 0006736 353.9234   6.1865 14.04604109 10822
QIANFAN-208             
1 69807U 26153H   26261.92947150 -.00000021  00000+0 -22026-4 0  9991
2 69807  88.9976 351.6308 0006115  35.3186 324.8398 14.03356987 10840
QIANFAN-209             
1 69808U 26153J   26261.82395904 -.01774796  00000+0 -13377+1 0  9998
2 69808  88.9976 351.6528 0004300  66.5372 293.6258 13.98476722 10810
QIANFAN-210             
1 69809U 26153K   26261.86637765 -.01791838  00000+0 -13307+1 0  9996
2 69809  88.9973 351.6408 0004874   4.2278 355.8941 13.99355610 10829
QIANFAN-211             
1 69810U 26153L   26261.87694163  .00000203  00000+0  98410-4 0  9992
2 69810  88.9979 351.6047 0006842 351.5155   8.5915 14.14539772 10841
QIANFAN-212             
1 69811U 26153M   26261.92933334  .00000002  00000+0 -66895-5 0  9996
2 69811  88.9978 351.6120 0008297 355.0922   5.0178 14.08612065 10843
QIANFAN-213             
1 69812U 26153N   26261.80650701 -.01793961  00000+0 -12767+1 0  9997
2 69812  88.9974 351.6307 0009296 326.1310  33.9275 14.01753421 10828
QIANFAN-214             
1 69813U 26153P   26261.83745287 -.01790602  00000+0 -12123+1 0  9990
2 69813  88.9973 351.5798 0011317 336.2836  23.7822 14.04530016 10857
QIANFAN-215             
1 69814U 26153Q   26261.86504622 -.01784701  00000+0 -10758+1 0  9995
2 69814  88.9971 351.5268 0006545  96.7026 263.4904 14.10966493 10880
QIANFAN-216             
1 69815U 26153R   26261.92122392  .00000033  00000+0  10654-4 0  9998
2 69815  88.9977 351.5549 0006528   6.1077 354.0186 14.10941665 10873
QIANFAN-217             
1 69816U 26153S   26261.90774315  .00000349  00000+0  14912-3 0  9995
2 69816  88.9976 351.4769 0007460   3.3603 356.7638 14.22763126 10919
QIANFAN-218             
1 69817U 26153T   26261.90620099  .00000379  00000+0  16424-3 0  9998
2 69817  88.9980 351.4792 0006054   5.6108 354.5150 14.22319280 10917
QIANFAN-219             
1 69848U 26155A   26261.83374048 -.01804123  00000+0 -30039+1 0  9993
2 69848  89.0079  53.8672 0038635  14.6366 345.5894 13.50405952 10511
QIANFAN-220             
1 69849U 26155B   26261.85054119 -.01843396  00000+0 -30809+1 0  9990
2 69849  89.0087  53.8932 0036232  15.3561 344.8680 13.50294955 10509
QIANFAN-221             
1 69850U 26155C   26261.87663270 -.01798167  00000+0 -21074+1 0  9997
2 69850  89.0083  53.6582 0031417  18.3076 341.9210 13.72375997 10631
QIANFAN-222             
1 69851U 26155D   26261.87139085 -.01805005  00000+0 -30010+1 0  9990
2 69851  89.0088  53.9105 0035552  16.3520 343.8769 13.50547360 10492
QIANFAN-223             
1 69852U 26155E   26261.73908204 -.01766946  00000+0 -31478+1 0  9992
2 69852  89.0086  53.9288 0037563  11.9058 348.2970 13.45993694 10474
QIANFAN-224             
1 69853U 26155F   26261.87803185 -.01796721  00000+0 -29619+1 0  9998
2 69853  89.0065  53.8619 0036637  21.8742 338.3964 13.51054940 10517
QIANFAN-225             
1 69854U 26155G   26261.87808846 -.01805189  00000+0 -30306+1 0  9992
2 69854  89.0077  53.9079 0036781  14.4501 345.7692 13.49909167 10497
QIANFAN-226             
1 69855U 26155H   26261.81394788 -.01812828  00000+0 -29534+1 0  9991
2 69855  89.0077  53.8984 0036167  20.1418 340.1151 13.51852717 10491
QIANFAN-227             
1 69856U 26155J   26261.72920518 -.01762616  00000+0 -31472+1 0  9991
2 69856  89.0079  53.9066 0035031  14.1498 346.0624 13.45872440 10483
QIANFAN-228             
1 69857U 26155K   26261.69055589 -.01821099  00000+0 -29083+1 0  9991
2 69857  89.0083  53.9029 0041476  18.0972 342.1646 13.53058238 10489
QIANFAN-229             
1 69858U 26155L   26261.82520445 -.01812010  00000+0 -30477+1 0  9997
2 69858  89.0085  53.8671 0037763  17.0964 343.1449 13.49793154 10512
QIANFAN-230             
1 69859U 26155M   26261.86097326 -.01870275  00000+0 -32372+1 0  9992
2 69859  89.0082  53.9059 0038668  13.4888 346.7285 13.48079860 10495
QIANFAN-231             
1 69860U 26155N   26261.87131771  .00000045  00000+0  45314-4 0  9999
2 69860  89.0086  53.8557 0036935  11.9580 348.2444 13.57849257 10523
QIANFAN-232             
1 69861U 26155P   26261.87847722 -.01764391  00000+0 -31241+1 0  9994
2 69861  89.0077  53.8536 0030067  12.7726 347.4178 13.46480442 10522
QIANFAN-233             
1 69862U 26155Q   26261.84893170 -.01806202  00000+0 -29507+1 0  9990
2 69862  89.0082  53.8525 0038289  17.7154 342.5323 13.51630531 10521
QIANFAN-234             
1 69863U 26155R   26261.85592050 -.01875502  00000+0 -28135+1 0  9990
2 69863  89.0078  53.7992 0033492  12.4140 347.7832 13.57265500 10553
QIANFAN-235             
1 69864U 26155S   26261.82752279 -.01806162  00000+0 -17062+1 0  9992
2 69864  89.0087  53.6164 0028931  19.0401 341.1845 13.85309507 10659
QIANFAN-236             
1 69865U 26155T   26261.87297839 -.01808282  00000+0 -28787+1 0  9995
2 69865  89.0086  53.8758 0031090  16.8110 343.4066 13.53379883 10516
QIANFAN-237             
1 69866U 26155U   26261.86361228 -.01772327  00000+0 -28448+1 0  9993
2 69866  89.0086  53.8381 0036839  19.8422 340.4153 13.52692602 10525
QIANFAN-238             
1 69867U 26155V   26261.86818367 -.01739936  00000+0 -27896+1 0  9990
2 69867  89.0088  53.8560 0025848  14.6998 345.4900 13.52827301 10527
