QIANFAN-1               
1 60379U 24140A   26273.94479981  .00000026  00000+0  20757-4 0  9999
2 60379  88.9664 268.9354 0019680  90.6554 269.6853 13.51026294106805
QIANFAN-2               
1 60380U 24140B   26273.97366059  .00000014  00000+0  30153-5 0  9994
2 60380  88.9651 268.7323 0014737  66.9520 293.3183 13.51020650106860
QIANFAN-3               
1 60381U 24140C   26273.98203339  .00000019  00000+0  11092-4 0  9992
2 60381  88.9644 268.8418 0016035  77.4753 282.8191 13.51023416106772
QIANFAN-4               
1 60382U 24140D   26273.95723265  .00000005  00000+0 -11814-4 0  9993
2 60382  88.9669 268.8156 0015017  69.0609 291.2148 13.51021181106891
QIANFAN-5               
1 60383U 24140E   26273.93236547  .00000015  00000+0  40534-5 0  9996
2 60383  88.9643 268.8712 0017334  87.3713 272.9422 13.51031728106759
QIANFAN-6               
1 60384U 24140F   26273.95308332  .00000012  00000+0 -40029-7 0  9990
2 60384  88.9671 268.6948 0015206  74.1305 286.1521 13.51024374106955
QIANFAN-7               
1 60385U 24140G   26273.91845265  .00000131  00000+0  47056-4 0  9993
2 60385  88.9729 259.3234 0015958 150.3121 209.8983 14.27896405112083
QIANFAN-8               
1 60386U 24140H   26273.96142599  .00000003  00000+0 -13576-4 0  9998
2 60386  88.9671 268.9348 0018681  75.6032 284.7191 13.51026316106806
QIANFAN-9               
1 60387U 24140J   26273.93669397  .00000013  00000+0  98962-6 0  9990
2 60387  88.9669 269.0068 0018375  75.4905 284.8283 13.51022074106789
QIANFAN-10              
1 60388U 24140K   26273.94079003  .00000006  00000+0 -10116-4 0  9997
2 60388  88.9681 268.3848 0016476  55.6662 304.6045 13.51022182106914
QIANFAN-11              
1 60389U 24140L   26273.97794265  .00000023  00000+0  16586-4 0  9990
2 60389  88.9605 268.7477 0016416  75.4016 284.8954 13.51026418106576
QIANFAN-12              
1 60390U 24140M   26273.92439511  .00000007  00000+0 -84531-5 0  9996
2 60390  88.9648 268.9238 0015298  82.7665 277.5225 13.51023980106694
QIANFAN-13              
1 60391U 24140N   26273.96961416  .00000020  00000+0  12114-4 0  9996
2 60391  88.9908 269.1910 0015129  84.6747 275.6130 13.51024154106721
QIANFAN-14              
1 60392U 24140P   26273.92033655  .00000010  00000+0 -30278-5 0  9990
2 60392  88.9639 268.8954 0018806  84.8936 275.4361 13.51026098106727
QIANFAN-15              
1 60393U 24140Q   26273.92840568  .00000019  00000+0  10712-4 0  9998
2 60393  88.9663 268.9205 0014498  73.2786 286.9955 13.51028701106711
QIANFAN-16              
1 60394U 24140R   26273.91606639  .00000006  00000+0 -92610-5 0  9992
2 60394  88.9665 269.0499 0016754  88.3146 271.9924 13.51025432106623
QIANFAN-17              
1 60395U 24140S   26273.98618126  .00000023  00000+0  16986-4 0  9993
2 60395  88.9678 269.1207 0017113  82.4056 277.9038 13.51024219107592
QIANFAN-18              
1 60396U 24140T   26273.96559821  .00000010  00000+0 -29784-5 0  9996
2 60396  88.9671 268.6376 0016282  67.5977 292.6897 13.51026278106985
QIANFAN-19              
1 61552U 24185A   26273.90028873  .00000246  00000+0  12098-3 0  9990
2 61552  88.9875  44.4758 0008943  89.1024 271.1187 14.14537626110969
QIANFAN-20              
1 61553U 24185B   26273.92677974  .00000356  00000+0  19701-3 0  9995
2 61553  88.9870  45.0845 0007353 123.1279 237.0612 14.09081760110639
QIANFAN-21              
1 61554U 24185C   26273.96696856  .00000380  00000+0  16220-3 0  9990
2 61554  88.9795  42.7678 0012468 125.7321 234.5033 14.22942035111527
QIANFAN-22              
1 61555U 24185D   26273.88256674  .00000223  00000+0  18088-3 0  9992
2 61555  88.9849  47.2476 0006977 165.3074 194.8301 13.86433327109416
QIANFAN-23              
1 61556U 24185E   26273.88443158  .00000227  00000+0  10670-3 0  9991
2 61556  88.9867  44.1513 0009553  95.4962 264.7316 14.16558186111104
QIANFAN-24              
1 61557U 24185F   26273.93201775  .00000374  00000+0  15598-3 0  9992
2 61557  88.9854  43.0754 0011501  71.3796 288.8644 14.24166262111605
QIANFAN-25              
1 61558U 24185G   26273.93219250  .00000312  00000+0  18102-3 0  9996
2 61558  88.9864  45.1351 0013950 140.8458 219.3736 14.06139421110562
QIANFAN-26              
1 61559U 24185H   26273.89503078  .00000150  00000+0  13671-3 0  9992
2 61559  88.9854  48.2244 0005407 188.6572 171.4502 13.77948337108907
QIANFAN-27              
1 61560U 24185J   26273.91573781  .00000275  00000+0  10589-3 0  9998
2 61560  88.9865  42.7092 0008972  60.9331 299.2761 14.27612176111844
QIANFAN-28              
1 61561U 24185K   26273.87212567  .00000468  00000+0  18091-3 0  9996
2 61561  88.9883  42.7297 0008803  58.9681 301.2378 14.28499632111872
QIANFAN-29              
1 61562U 24185L   26273.90556216  .00000139  00000+0  19615-3 0  9991
2 61562  88.9822  51.1155 0008062 288.1115  71.9158 13.51097899107246
QIANFAN-30              
1 61563U 24185M   26273.87916189  .00000111  00000+0  15607-3 0  9994
2 61563  88.9843  50.7557 0005800 270.4677  89.5809 13.50078690107486
QIANFAN-31              
1 61564U 24185N   26273.89949939  .00000145  00000+0  18422-3 0  9991
2 61564  88.9828  50.0921 0005401 248.7132 111.3447 13.58068581107814
QIANFAN-32              
1 61565U 24185P   26273.91010391  .00000123  00000+0  17330-3 0  9999
2 61565  88.9882  50.9716 0008004 309.6704  50.3740 13.50808556107487
QIANFAN-33              
1 61566U 24185Q   26273.92329276  .00000266  00000+0  18150-3 0  9995
2 61566  88.9852  46.2437 0009398 126.3766 233.8280 13.96759555109946
QIANFAN-34              
1 61567U 24185R   26273.90214599  .00000344  00000+0  21453-3 0  9992
2 61567  88.9831  45.4241 0007431 125.1680 235.0197 14.02529659110307
QIANFAN-35              
1 61568U 24185S   26273.93036595  .00000420  00000+0  16239-3 0  9995
2 61568  88.9864  42.5981 0007900  58.1319 302.0643 14.28368486111880
QIANFAN-36              
1 61569U 24185T   26273.95861026  .00000122  00000+0  15801-3 0  9996
2 61569  88.9818  50.5973 0004520 271.6765  88.3871 13.55649164107518
QIANFAN-37              
1 62238U 24232B   26273.94833141  .00000115  00000+0  15921-3 0  9994
2 62238  89.0165  12.0004 0001627  90.5895 269.5442 13.51032759138629
QIANFAN-38              
1 62239U 24232C   26273.89905800  .00000129  00000+0  18010-3 0  9998
2 62239  89.0172  11.9409 0016209  75.3845 284.9102 13.51030914138673
QIANFAN-39              
1 62240U 24232D   26273.79121399  .00000307  00000+0  12368-3 0  9990
2 62240  89.0144   4.0824 0015822 193.6997 166.3770 14.25568619142994
QIANFAN-40              
1 62241U 24232E   26273.93197821  .00000109  00000+0  14957-3 0  9996
2 62241  89.0199  11.6035 0015436  82.6801 277.6104 13.51031191139042
QIANFAN-41              
1 62242U 24232F   26273.94016756  .00000127  00000+0  17776-3 0  9997
2 62242  89.0170  11.8829 0015538  71.9188 288.3655 13.51032367138705
QIANFAN-42              
1 62243U 24232G   26273.90528318  .00000295  00000+0  12077-3 0  9991
2 62243  89.0143   4.1600 0014387 200.0310 160.0319 14.24655426142965
QIANFAN-43              
1 62244U 24232H   26273.93606529  .00000123  00000+0  17223-3 0  9994
2 62244  89.0174  11.9615 0017181  76.2248 284.0814 13.51031753107317
QIANFAN-44              
1 62245U 24232J   26273.92374300  .00000115  00000+0  15990-3 0  9993
2 62245  89.0172  11.7687 0015353  74.0599 286.2242 13.51031975138787
QIANFAN-45              
1 62246U 24232K   26273.96491595  .00000119  00000+0  16530-3 0  9999
2 62246  89.0176  11.9215 0016002  73.4223 286.8684 13.51030702138716
QIANFAN-46              
1 62247U 24232L   26273.91547008  .00000115  00000+0  15885-3 0  9994
2 62247  89.0172  11.9835 0016163  78.4861 281.8104 13.51031806138664
QIANFAN-47              
1 62248U 24232M   26273.91963466  .00000116  00000+0  16145-3 0  9996
2 62248  89.0168  11.9043 0016570  77.5971 282.7034 13.51031087138691
QIANFAN-48              
1 62249U 24232N   26273.95680674  .00000117  00000+0  16173-3 0  9990
2 62249  89.0172  11.9138 0018858  79.4286 280.8988 13.51025487138709
QIANFAN-49              
1 62250U 24232P   26273.94430940  .00000119  00000+0  16571-3 0  9994
2 62250  89.0171  11.9252 0015850  75.2324 285.0582 13.51032587107299
QIANFAN-50              
1 62251U 24232Q   26273.96896431  .00000124  00000+0  17297-3 0  9990
2 62251  89.0176  11.9469 0017520  75.9823 284.3275 13.51032076107320
QIANFAN-51              
1 62252U 24232R   26273.95255424  .00000111  00000+0  15375-3 0  9992
2 62252  89.0170  11.9244 0015073  80.0317 280.2535 13.51031024107317
QIANFAN-52              
1 62253U 24232S   26273.90725097  .00000130  00000+0  18239-3 0  9999
2 62253  89.0166  11.7911 0016955  72.5264 287.7739 13.51033082107391
QIANFAN-53              
1 62254U 24232T   26273.73865581  .00000111  00000+0  15335-3 0  9997
2 62254  89.0174  11.9345 0015865  74.2692 286.0208 13.51029668107339
QIANFAN-54              
1 62255U 24232U   26273.92784799  .00000119  00000+0  16528-3 0  9993
2 62255  89.0165  11.5683 0004137 109.4922 250.6676 13.51031583138865
QIANFAN-55              
1 62785U 25016A   26273.87994057  .00000036  00000+0  37061-4 0  9990
2 62785  88.9683  72.8749 0016254 219.4450 140.5519 13.51025419 86631
QIANFAN-56              
1 62786U 25016B   26273.89620132  .00000032  00000+0  30678-4 0  9996
2 62786  88.9658  72.6319 0014786 221.8032 138.1991 13.51028736 86683
QIANFAN-57              
1 62787U 25016C   26273.92927684  .00000033  00000+0  31805-4 0  9997
2 62787  88.9688  72.8728 0002129  76.8522 283.2867 13.51028421 86655
QIANFAN-58              
1 62788U 25016D   26273.53019350  .00000020  00000+0  12298-4 0  9998
2 62788  88.9659  72.6574 0012863 213.9729 146.0599 13.51027880 86645
QIANFAN-59              
1 62789U 25016E   26273.92504019  .00000038  00000+0  40965-4 0  9994
2 62789  88.9682  72.7586 0013165 216.9539 143.0707 13.51025253 86699
QIANFAN-60              
1 62790U 25016F   26273.88387150  .00000038  00000+0  40666-4 0  9994
2 62790  88.9663  72.6788 0014795 213.9103 146.1103 13.51028806 86676
QIANFAN-61              
1 62791U 25016G   26273.91683657  .00000035  00000+0  36077-4 0  9998
2 62791  88.9729  73.0357 0013780 212.8786 147.1509 13.51028233 86692
QIANFAN-62              
1 62792U 25016H   26273.92107492  .00000046  00000+0  51930-4 0  9995
2 62792  88.9677  72.7470 0015106 213.6030 146.4164 13.51027661 86684
QIANFAN-63              
1 62793U 25016J   26273.87166255  .00000026  00000+0  21931-4 0  9998
2 62793  88.9684  72.7234 0015034 219.5382 140.4673 13.51023540 86711
QIANFAN-64              
1 62794U 25016K   26273.91274709  .00000034  00000+0  34076-4 0  9991
2 62794  88.9671  72.6541 0013159 210.9777 149.0599 13.51028218 86716
QIANFAN-65              
1 62795U 25016L   26273.90856177  .00000020  00000+0  12729-4 0  9992
2 62795  88.9667  72.6701 0012967 212.7778 147.2570 13.51024287 86695
QIANFAN-66              
1 62796U 25016M   26273.93741433  .00000028  00000+0  24969-4 0  9991
2 62796  88.9687  72.6947 0014173 208.5521 151.4855 13.51020437 86742
QIANFAN-67              
1 62797U 25016N   26273.86742755  .00000035  00000+0  35709-4 0  9994
2 62797  88.9677  72.6988 0013963 216.1052 143.9158 13.51020654 86706
QIANFAN-68              
1 62798U 25016P   26273.93335582  .00000032  00000+0  30733-4 0  9998
2 62798  88.9680  72.7475 0014092 213.6601 146.3657 13.51022624 86697
QIANFAN-69              
1 62799U 25016Q   26273.87563803  .00000056  00000+0  68229-4 0  9998
2 62799  88.9660  72.5609 0014785 215.5574 144.4593 13.51021457 86727
QIANFAN-70              
1 62800U 25016R   26273.89222805  .00000039  00000+0  42084-4 0  9999
2 62800  88.9680  72.7583 0014640 205.2274 154.8163 13.51024786 86689
QIANFAN-71              
1 62801U 25016S   26273.88803558  .00000036  00000+0  36721-4 0  9997
2 62801  88.9674  72.7207 0014608 219.3279 140.6813 13.51027542 86689
QIANFAN-72              
1 62802U 25016T   26273.90458862  .00000032  00000+0  31392-4 0  9990
2 62802  88.9664  72.7038 0017706 227.8719 132.0928 13.51029330 86674
QIANFAN-73              
1 63159U 25046A   26273.93153857  .00000011  00000+0 -11229-5 0  9994
2 63159  88.9628 289.6736 0014975   7.1989 352.9375 13.51025909 86865
QIANFAN-74              
1 63160U 25046B   26273.91519402  .00000001  00000+0 -17064-4 0  9997
2 63160  88.9630 289.5652 0001858  99.1250 261.0112 13.51018611 86922
QIANFAN-75              
1 63161U 25046C   26273.97681381  .00000078  00000+0  10216-3 0  9994
2 63161  88.9631 289.7965 0016217  10.0336 350.1135 13.51032788 86808
QIANFAN-76              
1 63162U 25046D   26273.97287069 -.00000096  00000+0 -16759-3 0  9990
2 63162  88.9631 289.7767 0013740  11.5946 348.5519 13.51018321 86815
QIANFAN-77              
1 63163U 25046E   26273.87639555  .00000091  00000+0  56257-4 0  9992
2 63163  88.9638 285.3847 0012770 244.8355 115.1498 13.96248933 89215
QIANFAN-78              
1 63164U 25046F   26273.86641667  .00000044  00000+0  49261-4 0  9994
2 63164  88.9630 289.6495 0015192  13.2200 346.9347 13.51013572 86878
QIANFAN-79              
1 63165U 25046G   26273.96861735  .00000009  00000+0 -45310-5 0  9990
2 63165  88.9633 289.7563 0014864  11.7226 348.4268 13.51021376 86831
QIANFAN-80              
1 63166U 25046H   26273.98500758  .00000054  00000+0  64996-4 0  9997
2 63166  88.9631 289.4537 0013913  16.8428 343.3182 13.51020037 86991
QIANFAN-81              
1 63167U 25046J   26273.96446622  .00000088  00000+0  11680-3 0  9993
2 63167  88.9630 289.5228 0014752   5.7606 354.3712 13.51022785 86944
QIANFAN-82              
1 63168U 25046K   26273.92340767  .00000060  00000+0  74284-4 0  9993
2 63168  88.9630 289.5715 0012895  13.8081 346.3420 13.51022108 86923
QIANFAN-83              
1 63169U 25046L   26273.93822869  .00000030  00000+0  22639-4 0  9997
2 63169  88.9633 288.7701 0013086 341.2615  18.8059 13.62065720 87375
QIANFAN-84              
1 63170U 25046M   26273.87818742 -.00000062  00000+0 -11489-3 0  9994
2 63170  88.9631 289.7089 0015754   8.6871 351.4550 13.51015510 86840
QIANFAN-85              
1 63171U 25046N   26273.87397903  .00000060  00000+0  73573-4 0  9995
2 63171  88.9629 289.5788 0013404  12.4014 347.7465 13.51022466 86913
QIANFAN-86              
1 63172U 25046P   26273.88215560  .00000100  00000+0  13574-3 0  9994
2 63172  88.9631 289.4469 0011433  18.2332 341.9226 13.51020536 86994
QIANFAN-87              
1 63173U 25046Q   26273.92742446  .00000012  00000+0 -34189-6 0  9999
2 63173  88.9629 289.5429 0011788  11.9762 348.1667 13.51020518 86931
QIANFAN-88              
1 63174U 25046R   26273.86984123  .00000065  00000+0  81800-4 0  9990
2 63174  88.9631 289.5108 0012521  21.0162 339.1501 13.51021054 86956
QIANFAN-89              
1 63175U 25046S   26273.98092758  .00000061  00000+0  76077-4 0  9994
2 63175  88.9630 289.6879 0016651   8.4161 351.7267 13.51021746 86865
QIANFAN-90              
1 63176U 25046T   26273.93574539  .00000011  00000+0 -16127-5 0  9999
2 63176  88.9631 289.6661 0013553   8.7118 351.4266 13.51020175 86871
QIANFAN-91              
1 66033U 25233A   26273.74589701  .00000087  00000+0  11632-3 0  9994
2 66033  89.0071  32.5253 0001638  99.7099 260.4238 13.51031046 47433
QIANFAN-92              
1 66034U 25233B   26273.75455541  .00000084  00000+0  11118-3 0  9996
2 66034  89.0055  32.4790 0002208 100.2724 259.8676 13.51028399 47433
QIANFAN-93              
1 66035U 25233C   26273.76259756  .00000096  00000+0  13034-3 0  9990
2 66035  89.0082  32.5585 0001675  98.1410 261.9931 13.51040241 47439
QIANFAN-94              
1 66036U 25233D   26273.75008408  .00000081  00000+0  10706-3 0  9993
2 66036  89.0078  32.4595 0001763 104.8473 255.2873 13.51029414 47482
QIANFAN-95              
1 66037U 25233E   26273.75833180  .00000086  00000+0  11486-3 0  9998
2 66037  89.0077  31.9999 0001579 104.3088 255.8239 13.51029291 47739
QIANFAN-96              
1 66038U 25233F   26273.78294557  .00000082  00000+0  10766-3 0  9997
2 66038  89.0074  32.5379 0001584  98.6164 261.5166 13.51030525 47434
QIANFAN-97              
1 66039U 25233G   26273.76641120  .00000092  00000+0  12385-3 0  9998
2 66039  89.0077  32.5270 0001711  98.9071 261.2274 13.51040441 47435
QIANFAN-98              
1 66040U 25233H   26273.77475006  .00000090  00000+0  12075-3 0  9993
2 66040  89.0066  32.2458 0001880 117.1056 243.0287 13.51030734 47586
QIANFAN-99              
1 66041U 25233J   26273.77873164  .00000090  00000+0  12068-3 0  9993
2 66041  89.0078  32.5305 0001668 115.6430 244.4893 13.51037370 47443
QIANFAN-100             
1 66042U 25233K   26273.77053417  .00000091  00000+0  12182-3 0  9993
2 66042  89.0089  32.4702 0001543  97.0624 263.0703 13.51056278 47496
QIANFAN-101             
1 66043U 25233L   26273.76957924  .00000198  00000+0  75443-4 0  9997
2 66043  89.0078  28.4623 0016323 150.9628 209.2477 14.26866041 49680
QIANFAN-102             
1 66044U 25233M   26273.79119918  .00000078  00000+0  10289-3 0  9997
2 66044  89.0076  32.4365 0001750 106.2307 253.9037 13.51030080 47491
QIANFAN-103             
1 66045U 25233N   26273.79535015  .00000080  00000+0  10481-3 0  9995
2 66045  89.0078  32.5342 0001694  99.1942 260.9401 13.51030104 47447
QIANFAN-104             
1 66046U 25233P   26273.79939244  .00000085  00000+0  11272-3 0  9992
2 66046  89.0082  32.4407 0001849 106.0079 254.1276 13.51028033 47493
QIANFAN-105             
1 66047U 25233Q   26273.80772100  .00000090  00000+0  12148-3 0  9990
2 66047  89.0096  32.2970 0001800 102.6586 257.4767 13.51031313 47603
QIANFAN-106             
1 66048U 25233R   26273.80348635  .00000088  00000+0  11733-3 0  9999
2 66048  89.0064  32.4772 0001833 115.0312 245.1030 13.51031637 47440
QIANFAN-107             
1 66049U 25233S   26273.73767517  .00000093  00000+0  12597-3 0  9991
2 66049  89.0080  32.5330 0001724 100.1362 259.9984 13.51030939 47444
QIANFAN-108             
1 66050U 25233T   26273.74184976  .00000090  00000+0  12023-3 0  9997
2 66050  89.0073  32.5128 0001858 113.4682 246.6665 13.51030680 47445
QIANFAN-109             
1 68636U 26075A   26273.90390960  .00000033  00000+0  33039-4 0  9992
2 68636  88.9844 310.2200 0001732  84.5278 275.6070 13.51021727 24065
QIANFAN-110             
1 68637U 26075B   26273.91207311  .00000037  00000+0  38186-4 0  9993
2 68637  88.9844 310.2407 0002154  94.5433 265.5964 13.51022619 24069
QIANFAN-111             
1 68638U 26075C   26273.89997556  .00000027  00000+0  23363-4 0  9998
2 68638  88.9843 310.2007 0002123  94.3956 265.7438 13.51025149 24080
QIANFAN-112             
1 68639U 26075D   26273.93690995  .00000028  00000+0  25406-4 0  9992
2 68639  88.9842 310.2046 0001942  81.5939 278.5432 13.51024463 24084
QIANFAN-113             
1 68640U 26075E   26273.90798764  .00000043  00000+0  48543-4 0  9998
2 68640  88.9847 310.2072 0002137  91.1884 268.9512 13.51021222 24085
QIANFAN-114             
1 68641U 26075F   26273.91619309  .00000033  00000+0  33075-4 0  9990
2 68641  88.9843 310.2204 0002119  94.0315 266.1078 13.51019748 24076
QIANFAN-115             
1 68642U 26075G   26273.94506464  .00000039  00000+0  41783-4 0  9992
2 68642  88.9843 310.2247 0001952  93.9510 266.1864 13.51025425 24075
QIANFAN-116             
1 68643U 26075H   26273.93268911  .00000020  00000+0  11907-4 0  9999
2 68643  88.9836 310.1786 0002056  84.3024 275.8362 13.51025926 24082
QIANFAN-117             
1 68644U 26075J   26273.92045758  .00000034  00000+0  33317-4 0  9995
2 68644  88.9840 310.2005 0001935  88.9790 271.1583 13.51023808 24089
QIANFAN-118             
1 68645U 26075K   26273.95328179  .00000033  00000+0  32431-4 0  9995
2 68645  88.9845 310.2102 0002244  95.0448 265.0959 13.51025504 24080
QIANFAN-119             
1 68646U 26075L   26273.92854809  .00000029  00000+0  26637-4 0  9993
2 68646  88.9845 310.2085 0001740  89.1821 270.9529 13.51021381 24087
QIANFAN-120             
1 68647U 26075M   26273.94093502  .00000033  00000+0  33135-4 0  9997
2 68647  88.9847 310.1939 0001670  90.1514 269.9829 13.51021164 24091
QIANFAN-121             
1 68648U 26075N   26273.89165467  .00000021  00000+0  14264-4 0  9991
2 68648  88.9844 310.2015 0002163  95.5047 264.6351 13.51024602 24084
QIANFAN-122             
1 68649U 26075P   26273.95740395  .00000034  00000+0  34763-4 0  9998
2 68649  88.9843 310.1916 0001876  87.1018 273.0348 13.51028251 24082
QIANFAN-123             
1 68650U 26075Q   26273.92444396  .00000025  00000+0  19361-4 0  9996
2 68650  88.9840 310.1816 0001730  81.6689 278.4658 13.51021097 24064
QIANFAN-124             
1 68651U 26075R   26273.94920371  .00000035  00000+0  35213-4 0  9996
2 68651  88.9843 310.1909 0001857  85.5084 274.6280 13.51027680 24099
QIANFAN-125             
1 68652U 26075S   26273.96160135  .00000028  00000+0  24941-4 0  9991
2 68652  88.9842 310.1915 0002177  94.7049 265.4351 13.51024787 24097
QIANFAN-126             
1 68653U 26075T   26273.89562202  .00000030  00000+0  28256-4 0  9991
2 68653  88.9847 310.1682 0001722  82.7521 277.3826 13.51020402 24102
QIANFAN-127             
1 69073U 26104A   26273.90101022  .00000067  00000+0  85652-4 0  9995
2 69073  88.9905 330.6938 0002483  96.5936 263.5498 13.51029502 19435
QIANFAN-128             
1 69074U 26104B   26273.90915385  .00000059  00000+0  73055-4 0  9996
2 69074  88.9883 330.7144 0002423 108.2653 251.8762 13.51024984 19413
QIANFAN-129             
1 69075U 26104C   26273.93377264  .00000071  00000+0  91206-4 0  9990
2 69075  88.9885 330.6465 0002398 103.7003 256.4415 13.51025031 19455
QIANFAN-130             
1 69076U 26104D   26273.89673987  .00000077  00000+0  10101-3 0  9997
2 69076  88.9888 330.7164 0002350  91.7690 268.3730 13.51023118 19414
QIANFAN-131             
1 69077U 26104E   26273.91745686  .00000053  00000+0  63677-4 0  9998
2 69077  88.9881 330.6740 0002158 105.9040 254.2349 13.51027155 19437
QIANFAN-132             
1 69078U 26104F   26273.90498673  .00000070  00000+0  89740-4 0  9997
2 69078  88.9883 330.7322 0002295  95.5310 264.6103 13.51023430 19405
QIANFAN-133             
1 69079U 26104G   26273.91325210  .00000060  00000+0  74178-4 0  9993
2 69079  88.9887 330.6819 0002211 111.3731 248.7656 13.51032246 19425
QIANFAN-134             
1 69080U 26104H   26273.94204231  .00000069  00000+0  88521-4 0  9993
2 69080  88.9891 330.7058 0002364 108.3108 251.8300 13.51030571 19421
QIANFAN-135             
1 69081U 26104J   26273.92144208  .00000062  00000+0  77848-4 0  9992
2 69081  88.9884 330.6979 0002586 105.7453 254.3984 13.51023666 19428
QIANFAN-136             
1 69082U 26104K   26273.92963845  .00000071  00000+0  92021-4 0  9999
2 69082  88.9886 330.7004 0002271 109.7071 250.4326 13.51020426 19420
QIANFAN-137             
1 69083U 26104L   26273.92563127  .00000065  00000+0  81433-4 0  9997
2 69083  88.9895 330.5785 0002192  97.5052 262.6349 13.51023308 19499
QIANFAN-138             
1 69084U 26104M   26273.95024311  .00000058  00000+0  70654-4 0  9993
2 69084  88.9880 330.6974 0002540  99.9095 260.2343 13.51023129 19427
QIANFAN-139             
1 69085U 26104N   26273.93800607  .00000064  00000+0  81159-4 0  9991
2 69085  88.9882 330.6806 0002400  95.4210 264.7215 13.51031845 19431
QIANFAN-140             
1 69086U 26104P   26273.94613392  .00000061  00000+0  75766-4 0  9990
2 69086  88.9883 330.6835 0002627 103.9390 256.2054 13.51024295 19438
QIANFAN-141             
1 69087U 26104Q   26273.95444918  .00000058  00000+0  71729-4 0  9999
2 69087  88.9880 330.6465 0002480 107.0142 253.1282 13.51022029 19456
QIANFAN-142             
1 69088U 26104R   26273.96259330  .00000067  00000+0  84691-4 0  9995
2 69088  88.9878 330.6448 0002522 100.9250 259.2185 13.51021206 19459
QIANFAN-143             
1 69089U 26104S   26273.95853110  .00000059  00000+0  73208-4 0  9994
2 69089  88.9889 330.6531 0002090 106.1532 253.9849 13.51028666 19451
QIANFAN-144             
1 69090U 26104T   26273.96670195  .00000067  00000+0  84483-4 0  9993
2 69090  88.9887 330.6702 0002500  97.3424 262.8012 13.51022056 19445
QIANFAN-145             
1 69104U 26108A   26273.96917394 -.01764220  00000+0 -31069+1 0  9997
2 69104  89.0197  11.4969 0001678 276.5841  83.5116 13.47007056 18726
QIANFAN-146             
1 69105U 26108B   26273.92805852 -.01764152  00000+0 -31008+1 0  9996
2 69105  89.0199  11.3381 0026211 177.7360 182.3913 13.46996813 18814
QIANFAN-147             
1 69106U 26108C   26273.90337938 -.01746309  00000+0 -30677+1 0  9995
2 69106  89.0200  11.5078 0002380 249.2436 110.8458 13.47124985 18705
QIANFAN-148             
1 69107U 26108D   26273.96514572 -.01764940  00000+0 -31064+1 0  9995
2 69107  89.0193  11.4909 0009585 256.3874 103.6208 13.47026944 18718
QIANFAN-149             
1 69108U 26108E   26273.90107920  .00000138  00000+0  19471-3 0  9995
2 69108  89.0197  11.5188 0002364 104.5741 255.5673 13.51026432 18707
QIANFAN-150             
1 69109U 26108F   26273.90733353 -.01743943  00000+0 -30636+1 0  9995
2 69109  89.0198  11.4717 0003284   0.3277 359.7873 13.47116071 18720
QIANFAN-151             
1 69110U 26108G   26273.86416126  .00000137  00000+0  19306-3 0  9990
2 69110  89.0201  11.4999 0001856 107.3395 252.7959 13.51030083 18709
QIANFAN-152             
1 69111U 26108H   26273.91567416 -.01756350  00000+0 -30909+1 0  9993
2 69111  89.0194  11.4858 0002091 214.8029 145.2984 13.47032252 18726
QIANFAN-153             
1 69112U 26108J   26273.91150223 -.01745401  00000+0 -30715+1 0  9998
2 69112  89.0190  11.4622 0006049 260.8716  99.1749 13.47003089 18725
QIANFAN-154             
1 69113U 26108K   26273.92172232  .00000128  00000+0  17982-3 0  9995
2 69113  89.0204  11.5116 0002181 104.1117 256.0277 13.51029201 18717
QIANFAN-155             
1 69114U 26108L   26273.92394844 -.01769013  00000+0 -31124+1 0  9990
2 69114  89.0198  11.4752 0002176 226.8587 133.2381 13.47077770 18724
QIANFAN-156             
1 69115U 26108M   26273.87224892  .00000127  00000+0  17762-3 0  9996
2 69115  89.0217  11.4836 0002019 109.1490 250.9879 13.51021738 18730
QIANFAN-157             
1 69116U 26108N   26273.93228863 -.01761815  00000+0 -31012+1 0  9998
2 69116  89.0194  11.3987 0007700 161.4741 198.6690 13.47020918 18770
QIANFAN-158             
1 69117U 26108P   26273.94858061 -.01759453  00000+0 -30984+1 0  9991
2 69117  89.0196  11.4386 0009536 192.1792 167.9128 13.46979431 18758
QIANFAN-159             
1 69118U 26108Q   26273.93995043 -.01399725  00000+0 -25299+1 0  9998
2 69118  89.0187  11.4447 0009030 107.5884 252.6251 13.45031168 18741
QIANFAN-160             
1 69119U 26108R   26273.95699887 -.01766501  00000+0 -31083+1 0  9996
2 69119  89.0201  11.4822 0003348 225.2476 134.8400 13.47064568 18735
QIANFAN-161             
1 69120U 26108S   26273.96089415 -.01742395  00000+0 -30661+1 0  9995
2 69120  89.0209  11.3993 0003017 233.6195 126.4676 13.47003879 18782
QIANFAN-162             
1 69121U 26108T   26273.88049602  .00000117  00000+0  16318-3 0  9993
2 69121  89.0203  11.4316 0002039  98.2429 261.8953 13.51025347 18742
QIANFAN-163             
1 69325U 26121A   26273.77109001 -.00000002  00000+0 -22295-4 0  9999
2 69325  89.0085 289.9979 0002825 110.2506 249.8949 13.51022054 16423
QIANFAN-164             
1 69326U 26121B   26273.81224413  .00000030  00000+0  27687-4 0  9999
2 69326  89.0084 289.9839 0002334 107.0316 253.1091 13.51022262 16434
QIANFAN-165             
1 69382U 26124A   26273.96808533 -.01748477  00000+0 -30686+1 0  9997
2 69382  89.0060 350.9718 0003355  56.1179 304.0289 13.47189867 16323
QIANFAN-166             
1 69383U 26124B   26273.90012602  .00000112  00000+0  15536-3 0  9990
2 69383  89.0082 350.9917 0001878 107.7894 252.3462 13.51025059 16318
QIANFAN-167             
1 69384U 26124C   26273.90229600 -.01758533  00000+0 -30988+1 0  9994
2 69384  89.0052 350.9939 0009307 135.8133 224.3760 13.46937939 16305
QIANFAN-168             
1 69385U 26124D   26273.83413846  .00000119  00000+0  16576-3 0  9991
2 69385  89.0052 350.9806 0001805 114.1450 245.9890 13.51022533 16300
QIANFAN-169             
1 69386U 26124E   26273.91068597 -.01769935  00000+0 -31181+1 0  9997
2 69386  89.0047 350.9723 0003183 167.3245 192.7984 13.46996453 16315
QIANFAN-170             
1 69387U 26124F   26273.91471085 -.01764953  00000+0 -31040+1 0  9997
2 69387  89.0065 350.9462 0023631 160.4477 199.7583 13.46987169 16335
QIANFAN-171             
1 69388U 26124G   26273.92290291 -.01763431  00000+0 -30999+1 0  9999
2 69388  89.0079 350.9593 0016702 230.3786 129.5889 13.47066315 16339
QIANFAN-172             
1 69389U 26124H   26273.91874768 -.01764976  00000+0 -31071+1 0  9993
2 69389  89.0062 350.9476 0002113 333.7487  26.3555 13.47030918 16333
QIANFAN-173             
1 69390U 26124J   26273.92690153 -.01762131  00000+0 -30981+1 0  9990
2 69390  89.0052 350.9423 0020695 203.3286 156.6925 13.47024569 16333
QIANFAN-174             
1 69391U 26124K   26273.93931109 -.01762177  00000+0 -31013+1 0  9998
2 69391  89.0032 350.8963 0018731 151.2372 208.9813 13.46974453 16348
QIANFAN-175             
1 69392U 26124L   26273.94359911 -.01761584  00000+0 -31047+1 0  9993
2 69392  89.0084 350.9465 0002465 231.4094 128.6835 13.46949115 16342
QIANFAN-176             
1 69393U 26124M   26273.94761592 -.01760682  00000+0 -30970+1 0  9998
2 69393  89.0045 350.9217 0004652 285.9634  74.1002 13.47071434 16330
QIANFAN-177             
1 69394U 26124N   26273.88354977  .00000113  00000+0  15614-3 0  9991
2 69394  89.0059 350.9182 0002229 107.1187 253.0209 13.51032500 16347
QIANFAN-178             
1 69395U 26124P   26273.95162547 -.01764266  00000+0 -31032+1 0  9998
2 69395  89.0001 350.8608 0005262 247.2953 112.7640 13.47081029 16361
QIANFAN-179             
1 69396U 26124Q   26273.96001275 -.01762035  00000+0 -31088+1 0  9993
2 69396  89.0033 350.8816 0004435 178.4935 181.6228 13.46879313 16361
QIANFAN-180             
1 69397U 26124R   26273.96419153 -.01773293  00000+0 -31229+1 0  9997
2 69397  89.0039 350.9030 0009125 160.1163 200.0343 13.47012557 16352
QIANFAN-181             
1 69398U 26124S   26273.93117035 -.01763458  00000+0 -31058+1 0  9991
2 69398  89.0062 351.0023 0002873 258.7154 101.3672 13.46998991 16307
QIANFAN-182             
1 69399U 26124T   26273.93516267 -.01763425  00000+0 -30983+1 0  9992
2 69399  89.0038 350.9696 0029327 206.9963 152.9662 13.46985810 16308
QIANFAN-183             
1 69401U 26125A   26273.97011559 -.01792281  00000+0 -31747+1 0  9996
2 69401  88.9829 269.2283 0006264 222.1263 137.9405 13.46692586 16224
QIANFAN-184             
1 69402U 26125B   26273.97817466 -.01770353  00000+0 -31233+1 0  9994
2 69402  88.9879 269.2604 0004187 160.6271 199.5038 13.46903922 16229
QIANFAN-185             
1 69403U 26125C   26273.93055626  .00000004  00000+0 -11865-4 0  9993
2 69403  88.9898 269.2070 0002114  98.7700 261.3691 13.51028800 16259
QIANFAN-186             
1 69404U 26125D   26273.97403816 -.01758153  00000+0 -30938+1 0  9991
2 69404  88.9881 269.2611 0003846 201.6852 158.4135 13.47039426 16226
QIANFAN-187             
1 69405U 26125E   26273.98231677 -.01761292  00000+0 -31028+1 0  9996
2 69405  88.9882 269.2428 0003370 179.4452 180.6701 13.46976965 16238
QIANFAN-188             
1 69406U 26125F   26273.91805530  .00000013  00000+0  13510-5 0  9990
2 69406  88.9883 269.2493 0002300  98.9636 261.1775 13.51029784 16222
QIANFAN-189             
1 69407U 26125G   26273.92631549  .00000000  00000+0 -18112-4 0  9998
2 69407  88.9866 269.2412 0002419 102.4560 257.6862 13.51019257 16213
QIANFAN-190             
1 69408U 26125H   26273.98627562 -.01763620  00000+0 -31084+1 0  9990
2 69408  88.9864 269.2328 0004815 204.7130 155.3789 13.46948748 16233
QIANFAN-191             
1 69409U 26125J   26273.93861710  .00000020  00000+0  12519-4 0  9992
2 69409  88.9882 269.2515 0002177  99.7835 260.3562 13.51019841 16229
QIANFAN-192             
1 69410U 26125K   26273.92220316 -.00000001  00000+0 -20012-4 0  9992
2 69410  88.9888 269.2544 0002426  99.9513 260.1912 13.51019806 16229
QIANFAN-193             
1 69411U 26125L   26273.94696425  .00000016  00000+0  62819-5 0  9999
2 69411  88.9866 269.2258 0002202 101.1886 258.9513 13.51027722 16238
QIANFAN-194             
1 69412U 26125M   26273.94284756  .00000009  00000+0 -46997-5 0  9992
2 69412  88.9898 269.2444 0002281  98.9048 261.2362 13.51026294 16222
QIANFAN-195             
1 69413U 26125N   26273.94941883 -.01764804  00000+0 -31114+1 0  9996
2 69413  88.9897 269.2285 0001793 236.4951 123.6027 13.46935252 16242
QIANFAN-196             
1 69414U 26125P   26273.95739905 -.01771891  00000+0 -31170+1 0  9994
2 69414  88.9901 269.2322 0001870 245.6436 114.4518 13.47095452 16240
QIANFAN-197             
1 69415U 26125Q   26273.96573570 -.01754958  00000+0 -30847+1 0  9995
2 69415  88.9876 269.2000 0005979 174.8595 185.2616 13.47101810 16249
QIANFAN-198             
1 69416U 26125R   26273.95353651 -.01776801  00000+0 -31403+1 0  9991
2 69416  88.9870 269.2136 0001018 183.1498 176.9644 13.46806381 16241
QIANFAN-199             
1 69417U 26125S   26273.96187993 -.01859034  00000+0 -32502+1 0  9998
2 69417  88.9875 269.1632 0002677 207.2087 152.8922 13.47699769 16277
QIANFAN-200             
1 69418U 26125T   26273.93460854  .00000011  00000+0 -13464-5 0  9998
2 69418  88.9884 269.2523 0002345 101.3169 258.8246 13.51026536 16227
QIANFAN-201             
1 69800U 26153A   26273.97126419 -.01846124  00000+0 -15767+1 0  9992
2 69800  88.9966 350.3138 0006795 321.8243  38.2449 13.91473041 12516
QIANFAN-202             
1 69801U 26153B   26273.93459239  .00000087  00000+0  50781-4 0  9994
2 69801  88.9973 350.2711 0005477 313.6980  46.3743 13.98808872 12523
QIANFAN-203             
1 69802U 26153C   26273.92080478  .00000081  00000+0  45459-4 0  9999
2 69802  88.9973 350.3065 0004123 330.4535  29.6411 14.00127147 12515
QIANFAN-204             
1 69803U 26153D   26273.90310637 -.01919060  00000+0 -15563+1 0  9999
2 69803  88.9964 350.3051 0003607 345.7583  14.3490 13.93949784 12517
QIANFAN-205             
1 69804U 26153E   26273.87727662  .00000051  00000+0  27440-4 0  9995
2 69804  88.9969 350.3368 0004736 332.3097  27.7827 13.95903062 12490
QIANFAN-206             
1 69805U 26153F   26273.85884042  .00000082  00000+0  48597-4 0  9990
2 69805  88.9971 350.2785 0004628 332.5771  27.5162 13.97760989 12522
QIANFAN-207             
1 69806U 26153G   26273.87705754  .00000050  00000+0  27289-4 0  9995
2 69806  88.9972 350.3187 0004673 322.7150  37.3701 13.95018717 12502
QIANFAN-208             
1 69807U 26153H   26273.93899458  .00000058  00000+0  33360-4 0  9993
2 69807  88.9968 350.3083 0005281  17.7791 342.3568 13.94507993 12521
QIANFAN-209             
1 69808U 26153J   26273.91146985  .00000050  00000+0  27118-4 0  9998
2 69808  88.9975 350.3247 0004403 301.1266  58.9478 13.94515626 12504
QIANFAN-210             
1 69809U 26153K   26273.88060870  .00000046  00000+0  24354-4 0  9997
2 69809  88.9972 350.3203 0005443 325.6163  34.4660 13.94874109 12502
QIANFAN-211             
1 69810U 26153L   26273.90254527  .00000219  00000+0  10664-3 0  9996
2 69810  88.9972 350.2488 0005695 303.4277  56.6365 14.14546443 12549
QIANFAN-212             
1 69811U 26153M   26273.96571462 -.02087498  00000+0 -15933+1 0  9992
2 69811  88.9960 350.2763 0007084 348.5500  11.5516 13.97755184 12537
QIANFAN-213             
1 69812U 26153N   26273.86908423  .00000067  00000+0  38344-4 0  9991
2 69812  88.9974 350.2979 0005068 318.5841  41.4952 13.97487886 12512
QIANFAN-214             
1 69813U 26153P   26273.79168143  .00000125  00000+0  71452-4 0  9993
2 69813  88.9973 350.2505 0004885 299.5853  60.4840 14.03435487 12531
QIANFAN-215             
1 69814U 26153Q   26273.95580265 -.01768781  00000+0 -10692+1 0  9992
2 69814  88.9964 350.1617 0006614 127.6238 232.5548 14.10776247 12598
QIANFAN-216             
1 69815U 26153R   26273.93810162  .00000124  00000+0  70987-4 0  9997
2 69815  88.9971 350.2162 0004849 324.8552  35.2308 14.03039557 12568
QIANFAN-217             
1 69816U 26153S   26273.93741649 -.01859976  00000+0 -10114+1 0  9993
2 69816  88.9963 350.1029 0007295 261.7187  98.3174 14.16076383 12622
QIANFAN-218             
1 69817U 26153T   26273.87164051 -.01881081  00000+0 -10600+1 0  9995
2 69817  88.9967 350.1145 0007881 247.5966 112.4387 14.14185877 12614
QIANFAN-219             
1 69848U 26155A   26273.89959416 -.01756541  00000+0 -30891+1 0  9996
2 69848  89.0103  52.6581 0011115 341.9420  18.1333 13.47053788 12140
QIANFAN-220             
1 69849U 26155B   26273.91934228 -.01762794  00000+0 -30934+1 0  9999
2 69849  89.0108  52.6854 0038261 342.7485  17.2360 13.46944408 12136
QIANFAN-221             
1 69850U 26155C   26273.90821128 -.01781058  00000+0 -22772+1 0  9999
2 69850  89.0108  52.4102 0027139 351.7251   8.3457 13.67065455 12288
QIANFAN-222             
1 69851U 26155D   26273.86276198 -.01785386  00000+0 -31524+1 0  9999
2 69851  89.0106  52.7099 0005542 346.4805  13.6195 13.46884365 12111
QIANFAN-223             
1 69852U 26155E   26273.89130453 -.01758249  00000+0 -30905+1 0  9996
2 69852  89.0116  52.7140 0020843 340.6616  19.3740 13.47030087 12111
QIANFAN-224             
1 69853U 26155F   26273.86675342 -.01791543  00000+0 -31519+1 0  9991
2 69853  89.0094  52.6589 0015484 340.0502  20.0040 13.47088528 12133
QIANFAN-225             
1 69854U 26155G   26273.87082762 -.01795186  00000+0 -31525+1 0  9995
2 69854  89.0100  52.7068 0013227 344.0839  15.9893 13.47229012 12117
QIANFAN-226             
1 69855U 26155H   26273.87465591 -.01734737  00000+0 -30314+1 0  9991
2 69855  89.0099  52.6888 0013473 334.8012  25.2478 13.47399349 12122
QIANFAN-227             
1 69856U 26155J   26273.88082416  .00000074  00000+0  96488-4 0  9999
2 69856  89.0104  52.6916 0034483 343.7429  16.2613 13.51039764 12125
QIANFAN-228             
1 69857U 26155K   26273.88320612 -.01801851  00000+0 -31585+1 0  9991
2 69857  89.0109  52.6768 0027552 336.7992  23.1911 13.47246659 12139
QIANFAN-229             
1 69858U 26155L   26273.96962939 -.01783485  00000+0 -31339+1 0  9994
2 69858  89.0108  52.6521 0003527 227.2779 132.8073 13.47193550 12159
QIANFAN-230             
1 69859U 26155M   26273.93252507 -.01762985  00000+0 -31049+1 0  9995
2 69859  89.0104  52.6978 0002033 304.5772  55.5185 13.47000314 12122
QIANFAN-231             
1 69860U 26155N   26273.90390203 -.01834271  00000+0 -32016+1 0  9993
2 69860  89.0103  52.6426 0039890 336.0303  23.8988 13.47435439 12154
QIANFAN-232             
1 69861U 26155P   26273.88338564  .00000078  00000+0  10360-3 0  9991
2 69861  89.0101  52.6532 0025183 339.7822  20.2329 13.50453077 12148
QIANFAN-233             
1 69862U 26155Q   26273.90857301 -.01982614  00000+0 -34086+1 0  9996
2 69862  89.0096  52.6406 0013961 324.8694  35.1534 13.48326399 12152
QIANFAN-234             
1 69863U 26155R   26273.93766061 -.01764688  00000+0 -28601+1 0  9997
2 69863  89.0093  52.5741 0030579 341.7039  18.3010 13.52143491 12197
QIANFAN-235             
1 69864U 26155S   26273.88997524  .00000107  00000+0  83958-4 0  9998
2 69864  89.0110  52.3372 0029553 342.4918  17.5231 13.84595460 12323
QIANFAN-236             
1 69865U 26155T   26273.91686502 -.02000371  00000+0 -34329+1 0  9995
2 69865  89.0105  52.6647 0023452 331.7024  28.2850 13.48408284 12140
QIANFAN-237             
1 69866U 26155U   26273.92096923 -.01992326  00000+0 -34226+1 0  9994
2 69866  89.0102  52.6280 0012511 322.5962  37.4316 13.48404426 12158
QIANFAN-238             
1 69867U 26155V   26273.70213464 -.01757281  00000+0 -30986+1 0  9990
2 69867  89.0109  52.6688 0012839 321.6198  38.4036 13.46876987 12122
