KUIPER-00008            
1 63724U 25088A   26257.61697310 -.00000390  00000+0 -22215-4 0  9999
2 63724  51.9023 332.5716 0000407  97.5612 262.5397 14.79923408 76028
KUIPER-00009            
1 63725U 25088B   26257.23435190  .00005684  00000+0  38319-3 0  9994
2 63725  51.9040 342.8372 0000452 109.0791 251.0233 15.08005721 75840
KUIPER-00010            
1 63726U 25088C   26257.92627187 -.00000643  00000+0 -55324-4 0  9998
2 63726  51.9039 326.3162 0000428  75.0999 285.0011 14.79926841 75751
KUIPER-00011            
1 63727U 25088D   26257.95195052 -.00000185  00000+0  46576-5 0  9993
2 63727  51.9038 333.7455 0000268  47.7835 312.3150 14.79927265 75787
KUIPER-00012            
1 63728U 25088E   26257.86682057  .00000160  00000+0  49983-4 0  9996
2 63728  51.9017 319.0598 0000317  31.1130 328.9851 14.79929110 75939
KUIPER-00013            
1 63729U 25088F   26257.25776379  .00001108  00000+0  17426-3 0  9990
2 63729  51.9043 354.2730 0000312  92.2964 267.8034 14.79930141 75497
KUIPER-00014            
1 63730U 25088G   26257.56163926  .00001165  00000+0  18176-3 0  9990
2 63730  51.9038 352.8732 0000325  94.2910 265.8090 14.79927624 75353
KUIPER-00015            
1 63731U 25088H   26257.31450957 -.00000204  00000+0  22101-5 0  9996
2 63731  51.9014   4.0118 0000340 110.4583 249.6416 14.79927751 75630
KUIPER-00016            
1 63732U 25088J   26257.28882826  .00002315  00000+0  33262-3 0  9999
2 63732  51.9030 356.5850 0000277 110.1906 249.9086 14.79930220 75273
KUIPER-00018            
1 63733U 25088K   26256.99573204  .00000887  00000+0  14536-3 0  9999
2 63733  51.9059 347.9280 0000246  93.9667 266.1323 14.79927259 75378
KUIPER-00019            
1 63734U 25088L   26257.22499708  .00000809  00000+0  13507-3 0  9994
2 63734  51.9025 345.6586 0000231 121.3977 238.7008 14.79919652 75429
KUIPER-00020            
1 63735U 25088M   26257.93845964  .00000153  00000+0  49045-4 0  9991
2 63735  51.9034 346.2550 0000464  96.6105 263.4910 14.79927008 75682
KUIPER-00021            
1 63736U 25088N   26257.63456843  .00000828  00000+0  13761-3 0  9997
2 63736  51.9028 347.5469 0000337  88.7431 271.3570 14.79924616 75471
KUIPER-00023            
1 63737U 25088P   26257.26045159  .00005068  00000+0  69388-3 0  9998
2 63737  51.9023 351.6911 0001056  88.2348 271.8735 14.79895735 75686
KUIPER-00024            
1 63738U 25088Q   26257.94924912  .00000608  00000+0  10870-3 0  9994
2 63738  51.9045 336.2598 0000405  86.8142 273.2867 14.79929945 76082
KUIPER-00025            
1 63739U 25088R   26257.63727577 -.00000089  00000+0  17266-4 0  9990
2 63739  51.9061 345.1201 0000561 106.1887 253.9137 14.79928474 75794
KUIPER-00027            
1 63740U 25088S   26257.94655370  .00000388  00000+0  79895-4 0  9994
2 63740  51.9040 338.7119 0000614  87.3865 272.7167 14.79929420 75642
KUIPER-00028            
1 63741U 25088T   26257.91546895  .00000789  00000+0  13252-3 0  9992
2 63741  51.9018 336.2898 0000161 109.7664 250.3316 14.79933359 76081
KUIPER-00029            
1 63742U 25088U   26256.94604983  .00001094  00000+0  17252-3 0  9992
2 63742  51.9041 339.2728 0000060 137.1519 222.9448 14.79916134 75481
KUIPER-00030            
1 63743U 25088V   26257.66024579 -.00000128  00000+0  12154-4 0  9995
2 63743  51.9018 354.9348 0000598 107.3942 252.7086 14.79929159 75618
KUIPER-00031            
1 63744U 25088W   26257.64266874 -.00000284  00000+0 -82049-5 0  9995
2 63744  51.9027 340.0362 0000346 101.4544 258.6457 14.79925567 75532
KUIPER-00032            
1 63745U 25088X   26257.83085639  .00015295  00000+0  35603-3 0  9993
2 63745  51.8669 185.8443 0005293  74.3949 285.7623 15.42477630 78692
KUIPER-00033            
1 63746U 25088Y   26257.67782402  .00002862  00000+0  40429-3 0  9996
2 63746  51.9027   9.8792 0000329  93.1942 266.9058 14.79930040 75600
KUIPER-00034            
1 63747U 25088Z   26257.92083711  .00002125  00000+0  30751-3 0  9991
2 63747  51.9045 331.3430 0000562  82.8203 277.2823 14.79952775 75847
KUIPER-00035            
1 63748U 25088AA  26257.55624527  .00001274  00000+0  19612-3 0  9994
2 63748  51.9023 357.9185 0000566 102.5308 257.5718 14.79920249 75491
KUIPER-00037            
1 63749U 25088AB  26257.68423922 -.00000054  00000+0  21946-4 0  9995
2 63749  51.9026 356.2139 0000508 100.3113 259.7907 14.79928083 76312
KUIPER-00038            
1 63750U 25088AC  26257.94384632 -.00003371  00000+0 -41338-3 0  9992
2 63750  51.9055 341.2385 0000674  98.1069 261.9970 14.79940030 75546
KUIPER-00039            
1 64500U 25134A   26257.64629305  .00002321  00000+0  33342-3 0  9992
2 64500  51.9006 117.5525 0000869 104.6233 255.4825 14.79933710 68050
KUIPER-00040            
1 64501U 25134B   26257.93941107  .00002706  00000+0  38381-3 0  9997
2 64501  51.8969 126.3160 0001031  97.5500 262.5580 14.79931711 67954
KUIPER-00041            
1 64502U 25134C   26257.90293015  .00000482  00000+0  92256-4 0  9994
2 64502  51.8988 128.8700 0000886  88.1350 271.9714 14.79927044 67912
KUIPER-00042            
1 64503U 25134D   26257.67196111  .00002411  00000+0  34518-3 0  9998
2 64503  51.8978 124.8673 0000826 109.2718 250.8333 14.79932529 67955
KUIPER-00043            
1 64504U 25134E   26257.61253102  .00002212  00000+0  31912-3 0  9991
2 64504  51.9013 117.6446 0000779 103.6063 256.4986 14.79927355 68052
KUIPER-00044            
1 64505U 25134F   26257.66657474  .00000029  00000+0  32803-4 0  9992
2 64505  51.8968 129.8949 0000901 103.9792 256.1270 14.79928598 67886
KUIPER-00046            
1 64506U 25134G   26257.90562468  .00002034  00000+0  29574-3 0  9996
2 64506  51.8979 126.3098 0000987 102.6678 257.4394 14.79928118 67956
KUIPER-00047            
1 64507U 25134H   26257.56387703  .00001250  00000+0  19296-3 0  9995
2 64507  51.8991 100.3494 0000734 101.8170 258.2875 14.79923108 68285
KUIPER-00048            
1 64508U 25134J   26257.93525777  .00000479  00000+0  91853-4 0  9994
2 64508  51.9000  98.7194 0000860 103.6652 256.4406 14.79917965 68341
KUIPER-00049            
1 64509U 25134K   26257.88803021  .00002631  00000+0  37395-3 0  9992
2 64509  51.9000 111.4011 0000761 107.3186 252.7860 14.79938081 68161
KUIPER-00050            
1 64510U 25134L   26257.83938032  .00002727  00000+0  38658-3 0  9999
2 64510  51.8999  94.1359 0000719 110.4056 249.6983 14.79926911 68402
KUIPER-00051            
1 64511U 25134M   26257.59393632  .00002211  00000+0  31896-3 0  9999
2 64511  51.9002 111.3982 0000819 107.8675 252.2377 14.79936897 68132
KUIPER-00053            
1 64513U 25134P   26257.60768455  .00001869  00000+0  26321-3 0  9997
2 64513  51.8997 105.8126 0002581 104.6764 255.4485 14.81710733 68212
KUIPER-00054            
1 64514U 25134Q   26257.93259078  .00000617  00000+0  10999-3 0  9994
2 64514  51.8984 101.2062 0001019 110.2760 249.8312 14.79928493 68309
KUIPER-00055            
1 64515U 25134R   26257.81501359  .00002882  00000+0  40686-3 0  9996
2 64515  51.9023  54.3759 0000578 110.9475 249.1549 14.79937122 68950
KUIPER-00056            
1 64516U 25134S   26257.89345382  .00002354  00000+0  33761-3 0  9997
2 64516  51.9013 106.4961 0000941 105.5396 254.5671 14.79934506 68230
KUIPER-00057            
1 64517U 25134T   26257.88534908  .00002512  00000+0  35838-3 0  9994
2 64517  51.8982 113.9469 0000768 105.4895 254.6153 14.79930697 68122
KUIPER-00058            
1 64518U 25134U   26257.58684833  .00000439  00000+0  86566-4 0  9996
2 64518  51.8995 110.2448 0000773 112.2631 247.8413 14.79930918 68156
KUIPER-00059            
1 64519U 25134V   26257.32213946  .00004046  00000+0  55938-3 0  9998
2 64519  51.9011 106.4497 0000891 108.3487 251.7573 14.79938190 68188
KUIPER-00060            
1 64520U 25134W   26257.01824700  .00002407  00000+0  34456-3 0  9993
2 64520  51.9013 107.8732 0000702 105.2424 254.8616 14.79939334 68124
KUIPER-00061            
1 64521U 25134X   26257.85428240  .00002672  00000+0  37939-3 0  9998
2 64521  51.8994 111.6170 0000944 109.2200 250.8864 14.79937366 68141
KUIPER-00062            
1 64522U 25134Y   26257.04121637  .00002421  00000+0  34654-3 0  9993
2 64522  51.8949 117.6609 0000842 106.1208 253.9847 14.79930997 68009
KUIPER-00063            
1 64523U 25134Z   26257.91103406  .00002598  00000+0  36966-3 0  9997
2 64523  51.9010 121.4085 0000678  99.0372 261.0667 14.79933133 68027
KUIPER-00064            
1 64524U 25134AA  26257.03583013 -.00000301  00000+0 -10486-4 0  9999
2 64524  51.9022 122.7054 0001212  97.7815 262.3285 14.79925545 67930
KUIPER-00065            
1 64525U 25134AB  26257.63822652  .00002348  00000+0  33697-3 0  9990
2 64525  51.9029 125.2163 0000790 102.7277 257.3773 14.79930149 67938
KUIPER-00066            
1 64526U 25134AC  26257.87442828  .00002857  00000+0  40364-3 0  9994
2 64526  51.9023  61.4370 0000674 133.2419 226.8600 14.79929839 68869
KUIPER-00069            
1 64816U 25151A   26257.73013164  .00000968  00000+0  15591-3 0  9992
2 64816  51.9016 164.7168 0000819  98.1827 261.9228 14.79933520 64750
KUIPER-00070            
1 64817U 25151B   26257.53433024  .00001768  00000+0  26093-3 0  9990
2 64817  51.8990 190.4818 0001141  73.5806 286.5282 14.79933633 64389
KUIPER-00071            
1 64818U 25151C   26257.19938563  .00000117  00000+0  44329-4 0  9991
2 64818  51.9005 189.5093 0000774  94.9290 265.1761 14.79925714 63180
KUIPER-00072            
1 64819U 25151D   26257.72741479  .00002681  00000+0  38056-3 0  9996
2 64819  51.8971 167.0979 0001080  79.9539 280.1545 14.79936086 63547
KUIPER-00073            
1 64820U 25151E   26257.77338800  .00002837  00000+0  40110-3 0  9990
2 64820  51.8997 186.9480 0000976  64.0936 296.0127 14.79929019 64454
KUIPER-00075            
1 64822U 25151G   26257.72025597  .00031375  00000+0  81313-3 0  9992
2 64822  51.8665  19.9930 0003257 221.3558 138.7183 15.38747998 65585
KUIPER-00076            
1 64823U 25151H   26257.17639727  .00002661  00000+0  37790-3 0  9994
2 64823  51.9002 179.6126 0000918  82.8792 277.2274 14.79934340 63327
KUIPER-00077            
1 64824U 25151J   26257.17100784  .00002845  00000+0  40204-3 0  9999
2 64824  51.9012 184.6580 0000976  75.1295 284.9776 14.79927087 63250
KUIPER-00078            
1 64825U 25151K   26257.81523909  .00001436  00000+0  21732-3 0  9999
2 64825  51.9016 179.2803 0001208  99.6815 260.4284 14.79928766 63383
KUIPER-00079            
1 64826U 25151L   26257.77607705  .00002612  00000+0  37150-3 0  9990
2 64826  51.8984 184.4083 0001192  73.3243 286.7850 14.79936632 64507
KUIPER-00080            
1 64827U 25151M   26257.53972111  .00000583  00000+0  10544-3 0  9994
2 64827  51.9000 185.4682 0000810  89.5499 270.5556 14.79929509 63274
KUIPER-00082            
1 64828U 25151N   26257.72203631  .00000494  00000+0  93764-4 0  9997
2 64828  51.8998 172.2219 0000919  90.5718 269.5350 14.79927972 63470
KUIPER-00083            
1 64829U 25151P   26257.78147757  .00000611  00000+0  10919-3 0  9991
2 64829  51.9001 179.4415 0001019  70.8898 289.2175 14.79931021 64561
KUIPER-00084            
1 64830U 25151Q   26257.83821713  .00001013  00000+0  16185-3 0  9998
2 64830  51.9007 189.1762 0000638  97.0112 263.0923 14.79928348 63241
KUIPER-00085            
1 64831U 25151R   26257.14803669  .00002940  00000+0  41442-3 0  9997
2 64831  51.9023 174.8178 0000869  88.2916 271.8146 14.79935254 63385
KUIPER-00086            
1 64832U 25151S   26257.20476841 -.00000558  00000+0 -44163-4 0  9992
2 64832  51.9005 184.5011 0001010  80.5074 279.6003 14.79921842 63251
KUIPER-00087            
1 64833U 25151T   26257.76363910 -.00011841  00000+0 -15273-2 0  9991
2 64833  51.8996 164.4824 0001902 313.1033  46.9770 14.79921259 63572
KUIPER-00089            
1 64834U 25151U   26257.15072264  .00002782  00000+0  39375-3 0  9996
2 64834  51.9000 172.2215 0000825  93.5829 266.5228 14.79937025 63426
KUIPER-00090            
1 64835U 25151V   26257.76658048  .00002650  00000+0  37655-3 0  9997
2 64835  51.8979 161.9928 0000934  95.7456 264.3613 14.79929278 63614
KUIPER-00091            
1 64836U 25151W   26257.15342673  .00000501  00000+0  94701-4 0  9994
2 64836  51.9006 169.7312 0001202  85.8076 274.3024 14.79926384 63451
KUIPER-00092            
1 64837U 25151X   26257.14533262  .00002888  00000+0  40770-3 0  9996
2 64837  51.9001 177.2544 0000845  87.9350 272.1709 14.79932327 64561
KUIPER-00093            
1 64838U 25151Y   26257.88545361  .00003090  00000+0  43415-3 0  9996
2 64838  51.9002 176.4514 0000857  95.4391 264.6669 14.79935164 63420
KUIPER-00094            
1 64839U 25151Z   26257.93401423  .00000478  00000+0  91755-4 0  9991
2 64839  51.9043 131.3511 0001234  94.6999 265.4105 14.79932920 64060
KUIPER-00081            
1 65132U 25171A   26257.73797586  .00002864  00000+0  40450-3 0  9992
2 65132  51.9016  32.1001 0000517 109.5402 250.5617 14.79934426 61037
KUIPER-00088            
1 65133U 25171B   26257.78662710  .00000575  00000+0  10442-3 0  9993
2 65133  51.9008  49.3846 0000606 105.4602 254.6427 14.79927145 60798
KUIPER-00095            
1 65134U 25171C   26257.74067494  .00002834  00000+0  40056-3 0  9992
2 65134  51.8991  29.6246 0000567 120.2935 239.8083 14.79935596 61067
KUIPER-00096            
1 65135U 25171D   26257.69342510  .00002904  00000+0  40982-3 0  9998
2 65135  51.9002  42.2908 0000585 115.3744 244.7279 14.79933800 60888
KUIPER-00097            
1 65136U 25171E   26256.81285595  .00000772  00000+0  13022-3 0  9997
2 65136  51.9009  48.8529 0000767 120.2157 239.8882 14.79926851 60706
KUIPER-00098            
1 65137U 25171F   26257.68802556  .00002707  00000+0  38403-3 0  9996
2 65137  51.9010  47.3429 0000758 104.1225 255.9822 14.79928156 60151
KUIPER-00099            
1 65138U 25171G   26257.39494240  .00002593  00000+0  36897-3 0  9990
2 65138  51.9033  38.6532 0000526 125.0694 235.0318 14.79933543 60908
KUIPER-00100            
1 65139U 25171H   26257.36386114  .00002666  00000+0  37863-3 0  9993
2 65139  51.9024  36.2565 0000527  96.3859 263.7163 14.79932398 60939
KUIPER-00102            
1 65140U 25171J   26257.76634126  .00002655  00000+0  37710-3 0  9997
2 65140  51.8997  36.9459 0000606 130.5187 229.5829 14.79934958 60956
KUIPER-00103            
1 65141U 25171K   26257.84876170  .00002857  00000+0  40356-3 0  9998
2 65141  51.8993  54.0853 0000553 110.8389 249.2633 14.79931535 60723
KUIPER-00104            
1 65142U 25171L   26257.79471792  .00002993  00000+0  42140-3 0  9998
2 65142  51.9028  41.8407 0000457 106.2680 253.8333 14.79937672 60893
KUIPER-00105            
1 65143U 25171M   26257.68534181  .00002835  00000+0  40065-3 0  9998
2 65143  51.9011  49.9173 0000594 113.0494 247.0532 14.79934222 60777
KUIPER-00106            
1 65144U 25171N   26257.39593145  .00000523  00000+0  97638-4 0  9993
2 65144  51.9013  29.9641 0000738 105.5108 254.5936 14.79923897 61033
KUIPER-00107            
1 65145U 25171P   26257.63667500  .00002701  00000+0  38312-3 0  9991
2 65145  51.9021  32.5742 0000488 109.3789 250.7226 14.79934296 61017
KUIPER-00108            
1 65146U 25171Q   26257.79202960  .00002833  00000+0  40049-3 0  9990
2 65146  51.9032  44.4343 0000547 108.2190 251.8832 14.79929616 60866
KUIPER-00109            
1 65147U 25171R   26257.42599055  .00001099  00000+0  17319-3 0  9992
2 65147  51.9006  40.9923 0000731 110.8949 249.2092 14.79923082 60870
KUIPER-00110            
1 65148U 25171S   26257.71641288  .00002633  00000+0  37425-3 0  9996
2 65148  51.9017  52.2571 0000549 117.5908 242.5110 14.79931836 60732
KUIPER-00111            
1 65149U 25171T   26257.87982140  .00000758  00000+0  12839-3 0  9997
2 65149  51.8981  56.3951 0000645 131.0742 229.0277 14.79930152 60692
KUIPER-00112            
1 65150U 25171U   26257.39223665  .00000682  00000+0  11852-3 0  9996
2 65150  51.9015  41.1880 0000692 122.9336 237.1693 14.79924939 60863
KUIPER-00114            
1 65151U 25171V   26257.47195943  .00002455  00000+0  35094-3 0  9997
2 65151  51.8992  60.7942 0000697 121.3068 238.7963 14.79933467 60596
KUIPER-00115            
1 65152U 25171W   26257.41252101  .00002386  00000+0  34183-3 0  9993
2 65152  51.9007  53.5658 0000622 113.3333 246.7695 14.79933723 60690
KUIPER-00116            
1 65153U 25171X   26257.71101203  .00000414  00000+0  83332-4 0  9994
2 65153  51.9004  57.2771 0000903 101.4247 258.6817 14.79930646 60665
KUIPER-00118            
1 65154U 25171Y   26257.84335633  .00006262  00000+0  84975-3 0  9995
2 65154  51.8996  59.1398 0000736  85.7098 274.3949 14.79925993 60652
KUIPER-00119            
1 65155U 25171Z   26257.85686435  .00001268  00000+0  19530-3 0  9992
2 65155  51.9014  46.6830 0000712 114.3847 245.7190 14.79927229 60825
KUIPER-00120            
1 65762U 25217A   26257.82355940  .00001970  00000+0  28730-3 0  9990
2 65762  51.8999 296.6988 0000443  76.2801 283.8210 14.79929775 52744
KUIPER-00132            
1 65763U 25217B   26257.15575031  .00029841  00000+0  75885-3 0  9992
2 65763  51.8526 166.2287 0005246 276.4272  83.6118 15.39347097 54492
KUIPER-00133            
1 65764U 25217C   26257.51969149 -.00000105  00000+0  15169-4 0  9993
2 65764  51.9034 298.1802 0000592  83.1614 276.9416 14.79926438 52703
KUIPER-00139            
1 65765U 25217D   26257.75730825  .00001955  00000+0  28530-3 0  9995
2 65765  51.8982 264.5546 0000620  49.2851 310.8165 14.79935879 53197
KUIPER-00142            
1 65766U 25217E   26257.36971723  .00000533  00000+0  98953-4 0  9995
2 65766  51.8993 281.2359 0000521  76.6434 283.4586 14.79926440 52925
KUIPER-00145            
1 65767U 25217F   26257.77220353  .00001841  00000+0  27042-3 0  9990
2 65767  51.9006 281.9816 0000461  63.4782 296.6228 14.79931209 52940
KUIPER-00147            
1 65768U 25217G   26257.80325789  .00001938  00000+0  28307-3 0  9996
2 65768  51.8986 284.3167 0000342  41.9610 318.1379 14.79938665 52919
KUIPER-00148            
1 65769U 25217H   26257.75461944  .00001881  00000+0  27564-3 0  9996
2 65769  51.9039 267.0822 0000513  86.6657 273.4364 14.79935543 53159
KUIPER-00150            
1 65770U 25217J   26257.79249744  .00000182  00000+0  52860-4 0  9995
2 65770  51.9017 294.4126 0000624  92.5719 267.5315 14.79928348 52778
KUIPER-00151            
1 65771U 25217K   26257.12528991  .00001974  00000+0  28790-3 0  9991
2 65771  51.9018 289.8616 0000495  82.2345 277.8673 14.79924813 52784
KUIPER-00152            
1 65772U 25217L   26257.78029154 -.00000033  00000+0  24684-4 0  9996
2 65772  51.9011 274.4489 0000768  28.5851 331.5153 14.79926109 53056
KUIPER-00153            
1 65773U 25217M   26257.04285880  .00000012  00000+0  30594-4 0  9999
2 65773  51.9022 272.7909 0000582 117.7726 242.3295 14.79932942 53017
KUIPER-00155            
1 65774U 25217N   26257.95041970  .00002264  00000+0  32595-3 0  9993
2 65774  51.9022 241.2425 0000637  83.1487 276.9548 14.79925309 53533
KUIPER-00156            
1 65775U 25217P   26257.34675400  .00000176  00000+0  52050-4 0  9997
2 65775  51.9028 271.4326 0000535  67.9966 292.1054 14.79927116 53051
KUIPER-00165            
1 65778U 25217S   26257.06561304 -.00016840  00000+0 -21813-2 0  9994
2 65778  51.9020 282.6074 0000440 139.3861 220.7134 14.80012500 52872
KUIPER-00166            
1 65779U 25217T   26257.45072792  .00000168  00000+0  51063-4 0  9992
2 65779  51.9014 268.4666 0000531  92.6551 267.4472 14.79921308 53106
KUIPER-00167            
1 65780U 25217U   26257.52775904  .00001846  00000+0  27113-3 0  9999
2 65780  51.8965 290.4475 0000498  65.6386 294.4628 14.79932018 52802
KUIPER-00168            
1 65781U 25217V   26257.47911290  .00000467  00000+0  90263-4 0  9999
2 65781  51.9010 273.2852 0000553  56.7081 303.3934 14.79927001 53041
KUIPER-00169            
1 65782U 25217W   26256.79841642  .00000973  00000+0  15657-3 0  9992
2 65782  51.9007 281.3062 0000669 108.5250 251.5785 14.79927418 52873
KUIPER-00170            
1 65783U 25217X   26257.33325225 -.00000098  00000+0  16197-4 0  9998
2 65783  51.8994 283.8872 0000497  68.7170 291.3845 14.79923295 52880
KUIPER-00172            
1 65785U 25217Z   26257.72354670  .00001246  00000+0  19242-3 0  9997
2 65785  51.8964 264.6913 0000802  38.5391 321.5628 14.79925166 53180
KUIPER-00173            
1 65786U 25217AA  26257.77759788  .00001627  00000+0  24237-3 0  9995
2 65786  51.9000 276.9708 0000350   1.7775 358.3188 14.79934510 53011
KUIPER-00174            
1 65787U 25217AB  26256.36483275  .00000312  00000+0  69849-4 0  9994
2 65787  51.9030 278.2754 0000445 120.8817 239.2189 14.79948653 52870
KUIPER-00176            
1 65788U 25217AC  26257.49669871  .00001914  00000+0  28001-3 0  9991
2 65788  51.9009 288.1914 0000576  51.9519 308.1495 14.79925917 52833
KUIPER-00101            
1 65947U 25228A   26257.23864208  .00001803  00000+0  26544-3 0  9990
2 65947  51.8973 246.7779 0000619  72.3252 287.7778 14.79930913 51159
KUIPER-00113            
1 65948U 25228B   26257.95304186  .00002520  00000+0  35948-3 0  9999
2 65948  51.8975 238.6392 0000865  76.7065 283.3994 14.79924482 51321
KUIPER-00117            
1 65949U 25228C   26256.97121637  .00000586  00000+0  10580-3 0  9994
2 65949  51.8972 245.4799 0000641  59.5415 300.5610 14.79932322 51145
KUIPER-00121            
1 65950U 25228D   26257.95579810  .00002545  00000+0  36266-3 0  9991
2 65950  51.8983 236.1491 0000696  64.7988 295.3046 14.79935604 51362
KUIPER-00122            
1 65951U 25228E   26256.18922981  .00001955  00000+0  28533-3 0  9999
2 65951  51.8986 253.9303 0000909  62.9179 297.1876 14.79938201 50966
KUIPER-00123            
1 65952U 25228F   26257.97877261  .00002395  00000+0  34307-3 0  9993
2 65952  51.8969 246.0249 0000707  46.0969 314.0052 14.79936751 51229
KUIPER-00124            
1 65953U 25228G   26257.64921643  .00000756  00000+0  12818-3 0  9994
2 65953  51.8982 239.9722 0000807  50.2687 309.8347 14.79930442 51283
KUIPER-00125            
1 65954U 25228H   26257.93552994  .00002669  00000+0  37899-3 0  9997
2 65954  51.9004 223.7584 0000908  71.5824 288.5237 14.79932325 51539
KUIPER-00126            
1 65955U 25228J   26257.94771783  .00002428  00000+0  34745-3 0  9998
2 65955  51.8980 243.6853 0000633  74.6053 285.4980 14.79930773 51250
KUIPER-00127            
1 65956U 25228K   26257.66879781  .00002307  00000+0  33152-3 0  9992
2 65956  51.8996 237.3991 0000706  48.1777 311.9246 14.79933922 51328
KUIPER-00128            
1 65957U 25228L   26257.65193117  .00002167  00000+0  31322-3 0  9995
2 65957  51.9003 237.5404 0000689  68.8244 291.2792 14.79929337 51318
KUIPER-00129            
1 65958U 25228M   26257.96119174  .00002880  00000+0  40661-3 0  9999
2 65958  51.9004 231.1498 0000666  74.8595 285.2441 14.79929157 51431
KUIPER-00130            
1 65959U 25228N   26257.92474432  .00000975  00000+0  15685-3 0  9998
2 65959  51.9007 233.8593 0000804  74.2858 285.8193 14.79927191 41682
KUIPER-00134            
1 65960U 25228P   26257.35718852  .00012383  00000+0  33759-3 0  9992
2 65960  51.8690 124.3686 0003456 247.3422 112.7199 15.37844068 52866
KUIPER-00135            
1 65961U 25228Q   26257.95851159  .00002738  00000+0  38804-3 0  9996
2 65961  51.9015 233.7598 0000546  74.6254 285.4769 14.79927303 51394
KUIPER-00136            
1 65962U 25228R   26257.92740914  .00002628  00000+0  37349-3 0  9991
2 65962  51.8999 231.3439 0000794  45.2974 314.8053 14.79945337 51425
KUIPER-00137            
1 65963U 25228S   26257.93014438  .00000458  00000+0  89044-4 0  9997
2 65963  51.9014 228.8425 0001045  37.7670 322.3365 14.79926203 51465
KUIPER-00138            
1 65964U 25228T   26257.29129012  .00002407  00000+0  34460-3 0  9999
2 65964  51.8975 229.0662 0000754  59.4954 300.6082 14.79931521 51407
KUIPER-00140            
1 65965U 25228U   26257.96390136  .00002402  00000+0  34401-3 0  9991
2 65965  51.8988 228.6856 0000877  67.1391 292.9664 14.79926371 51461
KUIPER-00141            
1 65966U 25228V   26257.90176942  .00002512  00000+0  35853-3 0  9997
2 65966  51.9022 224.0365 0000872  82.4127 277.6934 14.79924580 51526
KUIPER-00146            
1 65967U 25228W   26257.93283258  .00002708  00000+0  38398-3 0  9994
2 65967  51.9021 226.4116 0000866  56.6239 303.4807 14.79940618 51499
KUIPER-00149            
1 65968U 25228X   26257.90445706  .00002850  00000+0  40274-3 0  9994
2 65968  51.8995 221.4106 0000755  68.4296 291.6746 14.79931765 51565
KUIPER-00154            
1 65969U 25228Y   26257.60327352  .00000798  00000+0  13368-3 0  9991
2 65969  51.8985 220.2242 0000866  74.6768 285.4290 14.79926859 51551
KUIPER-00157            
1 65970U 25228Z   26257.91670139  .00007309  00000+0  10660-2 0  9997
2 65970  51.9007 220.9312 0001852 126.3204  50.2301 14.76630450  5691
KUIPER-00144            
1 67133U 25301A   26257.92214601  .00002034  00000+0  29565-3 0  9996
2 67133  51.9020 298.8400 0000608  67.4441 292.6586 14.79935291 41890
KUIPER-00164            
1 67134U 25301B   26257.57103609  .00000725  00000+0  12416-3 0  9995
2 67134  51.9042 312.9123 0000386  75.9942 284.1063 14.79928821 41840
KUIPER-00175            
1 67135U 25301C   26257.55613139  .00001705  00000+0  25261-3 0  9999
2 67135  51.9008 295.4118 0000357  46.1615 313.9376 14.79936523 41988
KUIPER-00179            
1 67136U 25301D   26256.89841066  .00003609  00000+0  50210-3 0  9995
2 67136  51.9007 313.3185 0000464 184.7665 175.3293 14.79942315 41787
KUIPER-00181            
1 67137U 25301E   26257.62778178  .00000342  00000+0  73906-4 0  9990
2 67137  51.9031 322.6574 0000296  69.4730 290.6265 14.79925867 41698
KUIPER-00183            
1 67138U 25301F   26257.49131610  .00000235  00000+0  59869-4 0  9993
2 67138  51.9031 293.2671 0000411  46.2703 313.8293 14.79928382 42103
KUIPER-00184            
1 67139U 25301G   26257.81547327  .00000149  00000+0  48566-4 0  9992
2 67139  51.9001 304.2753 0000439  68.5201 291.5808 14.79926569 42081
KUIPER-00186            
1 67140U 25301H   26257.59400334  .00001137  00000+0  17819-3 0  9999
2 67140  51.9063 322.8147 0000449 160.5968 199.5011 14.79926615 41532
KUIPER-00187            
1 67141U 25301J   26257.92897236  .00000830  00000+0  13790-3 0  9991
2 67141  51.9041 323.8628 0000441  84.8532 275.2481 14.79928956 41545
KUIPER-00188            
1 67142U 25301K   26257.79519546  .00001866  00000+0  27371-3 0  9992
2 67142  51.9034 292.0391 0000414  58.0061 302.0941 14.79934296 41973
KUIPER-00191            
1 67143U 25301L   26257.56564139  .00002058  00000+0  29888-3 0  9995
2 67143  51.9024 317.9434 0000361  73.8905 286.2097 14.79937991 41623
KUIPER-00196            
1 67144U 25301M   26257.74653466  .00000103  00000+0  42505-4 0  9999
2 67144  51.8985 274.5962 0000579  81.8791 278.2237 14.79925433 42217
KUIPER-00204            
1 67145U 25301N   26256.41352573  .00000344  00000+0  74161-4 0  9998
2 67145  51.9023 295.5271 0000519  72.0936 288.0083 14.79925266 41924
KUIPER-00210            
1 67146U 25301P   26257.53187344  .00000425  00000+0  84720-4 0  9997
2 67146  51.9012 318.0388 0000395  82.5915 277.5092 14.79926832 41763
KUIPER-00221            
1 67147U 25301Q   26257.55754811  .00002154  00000+0  31153-3 0  9991
2 67147  51.9031 325.4609 0000610  76.2606 283.8424 14.79931302 41497
KUIPER-00232            
1 67148U 25301R   26256.52701419  .00000583  00000+0  10546-3 0  9991
2 67148  51.9005 315.0281 0000483  93.2123 266.8895 14.79929407 41543
KUIPER-00241            
1 67149U 25301S   26257.56294486  .00002112  00000+0  30598-3 0  9997
2 67149  51.9049 320.4699 0000503  87.4069 272.6951 14.79928184 41899
KUIPER-00245            
1 67150U 25301T   26257.89250931  .00001951  00000+0  28483-3 0  9992
2 67150  51.9044 326.5214 0000359  92.6230 267.4773 14.79932321 41503
KUIPER-00246            
1 67151U 25301U   26257.87491424  .00000245  00000+0  61119-4 0  9994
2 67151  51.9018 311.5382 0000426  75.6084 284.4926 14.79928999 41738
KUIPER-00247            
1 67152U 25301V   26257.14286122  .00001998  00000+0  29106-3 0  9997
2 67152  51.8975 304.7195 0000454  89.4530 270.6485 14.79929201 41741
KUIPER-00248            
1 67153U 25301W   26257.49940022  .00001852  00000+0  27181-3 0  9992
2 67153  51.8992 285.7872 0000452  74.8378 285.2635 14.79934251 42209
KUIPER-00249            
1 67154U 25301X   26257.55076150  .00001934  00000+0  28269-3 0  9991
2 67154  51.9003 300.4942 0000340  75.3757 284.7243 14.79925887 41832
KUIPER-00250            
1 67155U 25301Y   26257.16314055  .00001781  00000+0  26262-3 0  9999
2 67155  51.9009 317.1598 0000652  59.4465 300.6562 14.79924025 41606
KUIPER-00251            
1 67156U 25301Z   26257.51429964  .00001946  00000+0  28428-3 0  9994
2 67156  51.9016 303.1837 0000390  84.4142 275.6865 14.79927725 41983
KUIPER-00252            
1 67157U 25301AA  26257.57912284 -.00000027  00000+0  25413-4 0  9995
2 67157  51.9009 305.3475 0000337  66.7698 293.3300 14.79925943 41776
KUIPER-00261            
1 67158U 25301AB  26257.60210740  .00001977  00000+0  28817-3 0  9992
2 67158  51.9035 315.3102 0000328  82.5680 277.5320 14.79934281 41637
KUIPER-00265            
1 67159U 25301AC  26257.88979156  .00002543  00000+0  36255-3 0  9991
2 67159  51.9036 329.0152 0000717  98.9634 261.1409 14.79923815 41502
KUIPER-00159            
1 67764U 26030A   26257.81359856  .00002117  00000+0  33097-3 0  9993
2 67764  51.9021  47.9170 0000224 113.6862 246.4122 14.76576926 33867
KUIPER-00160            
1 67765U 26030B   26257.91670139 -.00014666  00000+0 -16716-2 0  9997
2 67765  51.8974  28.9850 0010751 352.3351  87.7766 14.85143195  5899
KUIPER-00177            
1 67766U 26030C   26257.56655805  .00000192  00000+0  54278-4 0  9996
2 67766  51.9015  97.9148 0000866  88.3351 271.7710 14.79917354 33147
KUIPER-00178            
1 67767U 26030D   26257.53282291  .00002212  00000+0  31910-3 0  9991
2 67767  51.8982  98.0433 0000748 100.3472 259.7575 14.79929037 33143
KUIPER-00180            
1 67768U 26030E   26257.53820409  .00002103  00000+0  30487-3 0  9998
2 67768  51.8987  93.0130 0000729 117.5250 242.5786 14.79926325 33210
KUIPER-00197            
1 67769U 26030F   26257.76236713  .00002346  00000+0  33662-3 0  9990
2 67769  51.8988  72.0381 0000801 115.0814 245.0232 14.79930122 33525
KUIPER-00198            
1 67770U 26030G   26257.91771181  .00002797  00000+0  39574-3 0  9990
2 67770  51.8971  83.8249 0000809 112.8020 247.3028 14.79928014 33372
KUIPER-00199            
1 67771U 26030H   26257.91670139 -.02029245  00000+0 -91027-1 0  9992
2 67771  51.8842  26.5180 0010645  10.1906 270.9149 15.24104974  5096
KUIPER-00200            
1 67772U 26030J   26257.46118450  .00001916  00000+0  28037-3 0  9990
2 67772  51.8972  70.8880 0000632 104.7927 255.3105 14.79921994 33513
KUIPER-00203            
1 67773U 26030K   26257.29107091  .00002154  00000+0  31149-3 0  9994
2 67773  51.9048 104.2110 0001010 101.8361 258.2715 14.79929812 33031
KUIPER-00205            
1 67774U 26030L   26257.73398585  .00002488  00000+0  35520-3 0  9991
2 67774  51.9001  67.1458 0000655 102.4574 257.6462 14.79935636 33594
KUIPER-00208            
1 67775U 26030M   26257.94069016  .00002654  00000+0  37705-3 0  9991
2 67775  51.8968  93.7300 0001356 108.1672 251.9439 14.79934558 33232
KUIPER-00209            
1 67776U 26030N   26257.90962081  .00002673  00000+0  37945-3 0  9999
2 67776  51.8986  91.4676 0000911 117.0892 243.0163 14.79939593 33266
KUIPER-00213            
1 67777U 26030P   26257.94608653  .00000994  00000+0  15935-3 0  9995
2 67777  51.8971  88.7659 0000768 107.6957 252.4089 14.79932358 33306
KUIPER-00214            
1 67778U 26030Q   26257.91502293  .00000306  00000+0  69190-4 0  9996
2 67778  51.8988  86.4362 0000769 117.2470 242.8570 14.79928695 33339
KUIPER-00215            
1 67779U 26030R   26257.89471582  .00000155  00000+0  49361-4 0  9990
2 67779  51.8971  73.8802 0000693 114.1356 245.9679 14.79924692 33513
KUIPER-00218            
1 67780U 26030S   26257.91231723  .00002724  00000+0  38627-3 0  9992
2 67780  51.8970  88.8430 0000784 110.4789 249.6258 14.79930546 33303
KUIPER-00220            
1 67781U 26030T   26257.46656835  .00000296  00000+0  67794-4 0  9998
2 67781  51.8946  65.8382 0000569 104.5698 255.5328 14.79923378 33581
KUIPER-00222            
1 67782U 26030U   26257.81643110  .00002391  00000+0  34260-3 0  9999
2 67782  51.8979  84.4276 0000968 111.5437 248.5629 14.79925832 33357
KUIPER-00223            
1 67783U 26030V   26257.92577304  .00000752  00000+0  12762-3 0  9995
2 67783  51.9015  76.2532 0000733 109.8558 250.2484 14.79920804 33485
KUIPER-00225            
1 67784U 26030W   26257.51522849  .00000774  00000+0  13060-3 0  9991
2 67784  51.8981  83.2147 0000739 120.3046 239.7990 14.79929051 33345
KUIPER-00226            
1 67785U 26030X   26257.91670139  .00041891  00000+0  54205-2 0  9992
2 67785  51.8993  68.8327 0002568 316.2615 127.6303 14.80466411  5461
KUIPER-00259            
1 67786U 26030Y   26257.88663642  .00000447  00000+0  87590-4 0  9997
2 67786  51.8977  81.4756 0000753 110.6760 249.4283 14.79926527 33404
KUIPER-00260            
1 67787U 26030Z   26257.55169629  .00000547  00000+0  10076-3 0  9993
2 67787  51.9008  80.5694 0001173 116.6634 243.4448 14.79929077 33292
KUIPER-00262            
1 67788U 26030AA  26257.78803981  .00002289  00000+0  32912-3 0  9993
2 67788  51.9000  79.4386 0001054 112.6111 247.4963 14.79932658 33424
KUIPER-00266            
1 67789U 26030AB  26257.89203301  .00002639  00000+0  37499-3 0  9990
2 67789  51.8987  76.4699 0001015 106.7185 253.3888 14.79935550 33475
KUIPER-00268            
1 67790U 26030AC  26257.92849677  .00002811  00000+0  39758-3 0  9990
2 67790  51.9040  73.8498 0000955 121.0410 239.0647 14.79930996 33517
KUIPER-00270            
1 67791U 26030AD  26257.90550723  .00002927  00000+0  41286-3 0  9997
2 67791  51.8996  63.9012 0000587  97.3339 262.7690 14.79924332 33658
KUIPER-00274            
1 67792U 26030AE  26256.93582537  .00002316  00000+0  33274-3 0  9998
2 67792  51.9026  90.7057 0000691 107.1265 252.9774 14.79929214 33192
KUIPER-00275            
1 67793U 26030AF  26256.68726679 -.00000547  00000+0 -42777-4 0  9993
2 67793  51.8994  71.7992 0001255 122.3800 237.7284 14.79925839 33437
KUIPER-00276            
1 67794U 26030AG  26257.86365656  .00000107  00000+0  43083-4 0  9990
2 67794  51.8976  71.5744 0001051  93.4695 266.6388 14.79926963 33542
KUIPER-00279            
1 67795U 26030AH  26257.90821474  .00000431  00000+0  85593-4 0  9993
2 67795  51.9025  61.4258 0000781 112.7108 247.3937 14.79927892 33683
KUIPER-00131            
1 68573U 26072A   26257.16152160  .00000468  00000+0  90447-4 0  9995
2 68573  51.9005 162.2082 0000853  95.9033 264.2027 14.79927177 24291
KUIPER-00189            
1 68574U 26072B   26257.46269734  .00002072  00000+0  30074-3 0  9997
2 68574  51.8970 163.3530 0000945  97.1747 262.9323 14.79924300 24301
KUIPER-00192            
1 68575U 26072C   26257.97457604  .00002929  00000+0  41304-3 0  9998
2 68575  51.8991 156.1078 0001018  92.2463 267.8616 14.79932718 24452
KUIPER-00193            
1 68576U 26072D   26257.10747608  .00001313  00000+0  20116-3 0  9994
2 68576  51.9037 149.9876 0001123 101.8469 258.2620 14.79931278 24461
KUIPER-00194            
1 68577U 26072E   26257.13315163  .00001804  00000+0  26567-3 0  9996
2 68577  51.9015 157.3536 0000910  90.8850 269.2216 14.79930146 24363
KUIPER-00229            
1 68578U 26072F   26257.46539808  .00001424  00000+0  21570-3 0  9994
2 68578  51.8998 160.8649 0000622  97.3101 262.7932 14.79934583 24348
KUIPER-00230            
1 68579U 26072G   26257.91670139 -.00068850  00000+0 -72261-2 0  9998
2 68579  51.8966 106.2678 0005099   4.3642 332.0946 14.89361455  1301
KUIPER-00231            
1 68580U 26072H   26257.36001669  .00001008  00000+0  16128-3 0  9996
2 68580  51.8981 133.9045 0002076 100.5318 259.5879 14.79932672 24707
KUIPER-00234            
1 68581U 26072J   26257.97726373  .00002870  00000+0  40535-3 0  9997
2 68581  51.8995 153.5861 0001205  82.2347 277.8752 14.79935100 24485
KUIPER-00236            
1 68582U 26072K   26257.91670139 -.00032046  00000+0 -41823-2 0  9990
2 68582  51.9017 108.7112 0001549  74.8523 141.0756 14.80053944  5908
KUIPER-00244            
1 68583U 26072L   26257.07640156  .00002803  00000+0  39650-3 0  9996
2 68583  51.8994 147.5932 0000972  93.2456 266.8618 14.79937180 24491
KUIPER-00253            
1 68584U 26072M   26257.95159746  .00000744  00000+0  12660-3 0  9998
2 68584  51.9020 146.2474 0001068  95.1814 264.9270 14.79933606 24588
KUIPER-00254            
1 68585U 26072N   26257.44242561  .00000726  00000+0  12429-3 0  9994
2 68585  51.9025 150.9971 0001489  68.7065 291.4056 14.79931395 24477
KUIPER-00263            
1 68586U 26072P   26257.66119875  .00002481  00000+0  35433-3 0  9990
2 68586  51.9010 135.0972 0000788 102.8672 257.2378 14.79932242 24718
KUIPER-00269            
1 68587U 26072Q   26257.92861514  .00002802  00000+0  39637-3 0  9991
2 68587  51.8994 136.3221 0001118  95.7871 264.3219 14.79935852 24723
KUIPER-00272            
1 68588U 26072R   26257.46809627  .00000775  00000+0  13065-3 0  9992
2 68588  51.8994 158.3273 0000997  88.8712 271.2365 14.79928275 24377
KUIPER-00285            
1 68589U 26072S   26257.69227423  .00002486  00000+0  35497-3 0  9990
2 68589  51.9039 137.4481 0001428  66.4739 293.6374 14.79935450 24684
KUIPER-00286            
1 68590U 26072T   26257.96508053  .00001064  00000+0  16861-3 0  9998
2 68590  51.9017 133.6714 0000774 105.7617 254.3431 14.79930079 24763
KUIPER-00289            
1 68591U 26072U   26257.95698371  .00000913  00000+0  14874-3 0  9995
2 68591  51.8992 141.1849 0001097  93.6141 266.4947 14.79934296 24653
KUIPER-00290            
1 68592U 26072V   26257.92204898  .00110679  00000+0  15112-1 0  9995
2 68592  51.9027 141.3348 0000655 149.5258 210.5742 14.77623031 24652
KUIPER-00293            
1 68593U 26072W   26257.13583918 -.00000023  00000+0  26051-4 0  9991
2 68593  51.8971 154.7962 0001759  37.4689 322.6396 14.79926373 24397
KUIPER-00294            
1 68594U 26072X   26257.95968509  .00000502  00000+0  94923-4 0  9999
2 68594  51.8989 138.6746 0000715 103.0329 257.0714 14.79928558 24695
KUIPER-00296            
1 68595U 26072Y   26256.93184362  .00000957  00000+0  15459-3 0  9994
2 68595  51.9014 125.7371 0000753 103.7319 256.3727 14.79928435 24785
KUIPER-00297            
1 68596U 26072Z   26257.97996320  .00002716  00000+0  38522-3 0  9996
2 68596  51.8994 151.0629 0001285  99.4047 260.7060 14.79929302 24525
KUIPER-00300            
1 68597U 26072AA  26257.67878206  .00002342  00000+0  33611-3 0  9995
2 68597  51.9041 149.9274 0000823 114.5183 245.5865 14.79930131 24514
KUIPER-00301            
1 68598U 26072AB  26257.61823558  .00001397  00000+0  22926-3 0  9996
2 68598  51.9026 119.5972 0002075 176.7666 183.3309 14.76495885 24929
KUIPER-00304            
1 68599U 26072AC  26257.91920268  .00001606  00000+0  25832-3 0  9998
2 68599  51.9003 120.2300 0000568  11.0238 349.0735 14.76613270 24946
KUIPER-00317            
1 68600U 26072AD  26257.38567708  .00001027  00000+0  16371-3 0  9993
2 68600  51.8975 141.2185 0000768  92.8525 267.2526 14.79929355 24607
KUIPER-00320            
1 68601U 26072AE  26257.71794219  .00002624  00000+0  37308-3 0  9997
2 68601  51.9019 144.7649 0000743  95.4561 264.6486 14.79930743 24589
KUIPER-00299            
1 68864U 26095A   26257.91670139 -.00018957  00000+0 -24640-2 0  9991
2 68864  51.8988 213.8457 0001358  94.5086 108.2577 14.79943387  3943
KUIPER-00353            
1 68865U 26095B   26257.86119771  .00003592  00000+0  49985-3 0  9993
2 68865  51.9020 199.1241 0001616 104.5688 255.5454 14.79938649 21109
KUIPER-00357            
1 68866U 26095C   26257.95440869  .00003029  00000+0  42624-3 0  9997
2 68866  51.9005 206.2175 0000957  48.8918 311.2127 14.79927300 21011
KUIPER-00364            
1 68867U 26095D   26257.58029316  .00001344  00000+0  20533-3 0  9990
2 68867  51.9035 210.3939 0001349  40.7558 319.3505 14.79931904 20929
KUIPER-00375            
1 68868U 26095E   26257.21697570  .00002454  00000+0  35082-3 0  9992
2 68868  51.9005 204.4745 0000814  78.3448 281.7606 14.79929534 20972
KUIPER-00433            
1 68869U 26095F   26257.87609116  .00000948  00000+0  15331-3 0  9995
2 68869  51.8987 216.5551 0001067  47.3794 312.7258 14.79930651 20869
KUIPER-00437            
1 68870U 26095G   26257.91670139 -.02056312  00000+0 -13661+0 0  9995
2 68870  51.8862 169.8169 0007606 273.2477 211.0205 15.10639403  5516
KUIPER-00448            
1 68871U 26095H   26257.83509095  .00001928  00000+0  30594-3 0  9996
2 68871  51.9031 206.5544 0003295  38.2822 321.8372 14.76330081 20990
KUIPER-00459            
1 68872U 26095J   26257.29260028  .00001216  00000+0  18845-3 0  9992
2 68872  51.9000 196.7031 0000861  85.0074 275.0986 14.79927894 21082
KUIPER-00468            
1 68873U 26095K   26257.21326899  .00001787  00000+0  28387-3 0  9999
2 68873  51.8982 194.4525 0000907 163.0139 197.0852 14.76621515 21111
KUIPER-00476            
1 68874U 26095L   26257.91670139 -.00097120  00000+0 -83845-2 0  9993
2 68874  51.8892 174.3295 0010619 251.2354 138.3756 14.97222703  5542
KUIPER-00478            
1 68875U 26095M   26257.22235957  .00002608  00000+0  37098-3 0  9998
2 68875  51.8995 199.4489 0000884  77.0308 283.0753 14.79929720 21047
KUIPER-00480            
1 68876U 26095N   26257.25881618  .00000100  00000+0  42112-4 0  9992
2 68876  51.9042 196.8007 0000618 101.2507 258.8525 14.79933296 21089
KUIPER-00482            
1 68877U 26095P   26257.85580696  .00000196  00000+0  54719-4 0  9992
2 68877  51.9009 204.1499 0001283  22.4837 337.6182 14.79930772 21036
KUIPER-00483            
1 68878U 26095Q   26257.30184946  .00002622  00000+0  37240-3 0  9996
2 68878  51.8984 219.0600 0001729 329.4761  30.6101 14.79979363 20778
KUIPER-00488            
1 68879U 26095R   26257.82743968  .00000697  00000+0  12044-3 0  9994
2 68879  51.8969 199.2797 0001118  71.6320 288.4763 14.79928910 21092
KUIPER-00489            
1 68880U 26095S   26257.56540987  .00002877  00000+0  40623-3 0  9999
2 68880  51.8972 192.9212 0001104  74.2596 285.8488 14.79931206 21164
KUIPER-00499            
1 68881U 26095T   26257.52625914  .00002654  00000+0  37705-3 0  9990
2 68881  51.8997 198.1537 0001043  60.7240 299.3827 14.79936336 21085
KUIPER-00500            
1 68882U 26095U   26257.91255443  .00000763  00000+0  12903-3 0  9992
2 68882  51.9009 213.8968 0000751  93.5116 266.5932 14.79928773 20904
KUIPER-00502            
1 68883U 26095V   26257.52454733 -.00000120  00000+0  13345-4 0  9993
2 68883  51.9001 191.8649 0001316  62.7396 297.3700 14.79927285 21176
KUIPER-00503            
1 68884U 26095W   26257.88147577  .00002757  00000+0  39044-3 0  9998
2 68884  51.8981 211.5059 0000845  64.1498 295.9552 14.79936769 20932
KUIPER-00504            
1 68885U 26095X   26257.90715036  .00002801  00000+0  39626-3 0  9999
2 68885  51.9014 218.9257 0000565  82.2302 277.8724 14.79927793 20832
KUIPER-00505            
1 68886U 26095Y   26257.88417150  .00002711  00000+0  38457-3 0  9994
2 68886  51.9012 209.0279 0000581  87.7125 272.3904 14.79927049 20965
KUIPER-00507            
1 68887U 26095Z   26257.87811072  .00024915  00000+0  32897-2 0  9996
2 68887  51.8989 199.0389 0001286  76.7983 283.3123 14.79873073 21100
KUIPER-00511            
1 68888U 26095AA  26257.19398022  .00002933  00000+0  41355-3 0  9993
2 68888  51.9021 194.6760 0000719  32.9744 327.1263 14.79941237 21102
KUIPER-00512            
1 68889U 26095AB  26257.91525247  .00002929  00000+0  41297-3 0  9995
2 68889  51.9012 211.3925 0000858  69.4435 290.6619 14.79935141 20935
KUIPER-00519            
1 68890U 26095AC  26257.85849281 -.00003227  00000+0 -39440-3 0  9998
2 68890  51.9024 201.7032 0000765 113.0919 247.0124 14.79942516 21068
KUIPER-00521            
1 68891U 26095AD  26257.85681059  .00002993  00000+0  42143-3 0  9997
2 68891  51.9034 195.4095 0000804  93.8926 266.2129 14.79935801 21152
KUIPER-00524            
1 68892U 26095AE  26257.82204672  .00002728  00000+0  38678-3 0  9991
2 68892  51.8962 204.2773 0000961  58.4189 301.6867 14.79932468 21021
KUIPER-00370            
1 68919U 26098A   26257.37733589  .00002673  00000+0  37954-3 0  9993
2 68919  51.8993  23.6237 0000437 107.9525 252.1485 14.79929616 20694
KUIPER-00380            
1 68920U 26098B   26257.58803419  .00002679  00000+0  38022-3 0  9991
2 68920  51.8996  15.3306 0000412 100.2397 259.8612 14.79933962 20820
KUIPER-00386            
1 68921U 26098C   26257.33210136  .00002821  00000+0  39891-3 0  9997
2 68921  51.9014  18.9576 0000428 109.3263 250.7746 14.79931228 20753
KUIPER-00388            
1 68922U 26098D   26257.77715847  .00001605  00000+0  23947-3 0  9999
2 68922  51.9030  27.1490 0000502 113.1339 246.9677 14.79929419 20679
KUIPER-00405            
1 68923U 26098E   26257.72918735  .00002871  00000+0  40544-3 0  9994
2 68923  51.9023  24.7146 0001087 185.3970 174.6981 14.79936715 20700
KUIPER-00408            
1 68924U 26098F   26257.72039090  .00002794  00000+0  39539-3 0  9999
2 68924  51.9003  17.1682 0000488  97.9885 262.1133 14.79927388 20817
KUIPER-00409            
1 68925U 26098G   26257.36046915 -.00000126  00000+0  12535-4 0  9990
2 68925  51.9036  23.8443 0000454  96.8265 263.2749 14.79923637 20689
KUIPER-00410            
1 68926U 26098H   26257.36316966  .00002528  00000+0  36047-3 0  9997
2 68926  51.8994  21.3106 0001208 139.1171 220.9882 14.79931599 20725
KUIPER-00412            
1 68927U 26098J   26257.62449006  .00003012  00000+0  42391-3 0  9997
2 68927  51.9045  12.6871 0000602 121.7363 238.3658 14.79930070 20865
KUIPER-00413            
1 68928U 26098K   26257.64477673  .00002728  00000+0  38667-3 0  9995
2 68928  51.9009  25.0711 0000757 156.2820 203.8177 14.79931944 20694
KUIPER-00414            
1 68929U 26098L   26257.39765184  .00002598  00000+0  36972-3 0  9997
2 68929  51.8980  36.2473 0001549 123.4925 236.6186 14.79930577 20519
KUIPER-00415            
1 68930U 26098M   26257.61910568  .00002677  00000+0  38004-3 0  9998
2 68930  51.9028  17.7001 0000548 101.4007 258.7017 14.79931841 20794
KUIPER-00416            
1 68931U 26098N   26257.56947189  .00002819  00000+0  39826-3 0  9993
2 68931  51.9033   9.2719 0000646  93.3541 266.7495 14.79968797 20906
KUIPER-00420            
1 68932U 26098P   26257.69471362  .00002788  00000+0  39458-3 0  9999
2 68932  51.9017   9.8277 0000497 106.7078 253.3939 14.79931997 20910
KUIPER-00421            
1 68933U 26098Q   26257.62179538  .00000538  00000+0  99562-4 0  9997
2 68933  51.9038  15.1346 0000467 104.3997 255.7017 14.79928612 20836
KUIPER-00425            
1 68934U 26098R   26257.34359130  .00002630  00000+0  37392-3 0  9992
2 68934  51.9008  23.9105 0000424 110.4053 249.6955 14.79931757 20688
KUIPER-00430            
1 68935U 26098S   26257.34085786  .00007767  00000+0  10462-2 0  9990
2 68935  51.9045  26.3201 0000861 146.1693 213.9324 14.79953870 20656
KUIPER-00431            
1 68936U 26098T   26257.74338060  .00000362  00000+0  76465-4 0  9992
2 68936  51.8990  27.1295 0000719 128.3900 231.7127 14.79925176 20671
KUIPER-00432            
1 68937U 26098U   26257.61639323  .00002811  00000+0  39750-3 0  9991
2 68937  51.9011  20.0897 0000498 117.5840 242.5173 14.79935142 20769
KUIPER-00434            
1 68938U 26098V   26257.38328976  .00002123  00000+0  33246-3 0  9995
2 68938  51.9020  25.0514 0001770 123.3107 236.8024 14.76511623 20678
KUIPER-00436            
1 68939U 26098W   26257.73187455  .00002682  00000+0  38071-3 0  9991
2 68939  51.9006  22.1934 0000627 103.4614 256.6418 14.79924350 20742
KUIPER-00438            
1 68940U 26098X   26257.73457130 -.00001004  00000+0 -10272-3 0  9995
2 68940  51.9065  19.7026 0000434 115.4646 244.6362 14.79927570 20772
KUIPER-00439            
1 68941U 26098Y   26257.78513367 -.00009544  00000+0 -12245-2 0  9994
2 68941  51.9059  19.4721 0000970  68.9740 291.1326 14.79938601 20782
KUIPER-00440            
1 68942U 26098Z   26257.33748538 -.00000129  00000+0  12068-4 0  9990
2 68942  51.9051  13.9501 0000377 356.2576   3.8383 14.79929780 20825
KUIPER-00442            
1 68943U 26098AA  26257.80734880  .00243926  00000+0  31769-1 0  9997
2 68943  51.9027  14.3903 0001469 109.8646 250.2475 14.78733030 20856
KUIPER-00446            
1 68944U 26098AB  26257.36586370  .00002725  00000+0  38637-3 0  9991
2 68944  51.9007  18.8270 0000791 237.1903 122.8983 14.79930582 20758
KUIPER-00451            
1 68945U 26098AC  26257.76025120  .00000441  00000+0  86892-4 0  9997
2 68945  51.9005  27.0644 0000430 122.3152 237.7852 14.79928996 20673
KUIPER-00452            
1 68946U 26098AD  26257.70621891  .00000379  00000+0  78683-4 0  9998
2 68946  51.9035  14.8189 0000559  97.1664 262.9362 14.79928150 20841
KUIPER-00453            
1 68947U 26098AE  26257.59072171  .00002524  00000+0  36011-3 0  9999
2 68947  51.9005  12.7493 0002078 131.9414 228.1726 14.79926694 20863
KUIPER-00454            
1 68948U 26098AF  26257.91670139 -.00000235  00000+0 -17483-5 0  9997
2 68948  51.9002  28.8635 0001072 105.8868 292.8480 14.79970658  5725
KUIPER-00455            
1 68949U 26098AG  26257.38884614  .00002866  00000+0  40483-3 0  9998
2 68949  51.9024  28.7105 0001957 125.1639 234.9507 14.79933640 20627
KUIPER-00458            
1 68950U 26098AH  26257.30372040  .00002645  00000+0  37594-3 0  9991
2 68950  51.9021  14.1091 0000557 100.4645 259.6381 14.79920850 20811
KUIPER-00282            
1 69267U 26118A   26257.71699578  .00002849  00000+0  40253-3 0  9991
2 69267  51.8985   4.7401 0000481 152.6722 207.4266 14.79932239 17411
KUIPER-00383            
1 69268U 26118B   26257.33139195  .00002019  00000+0  29376-3 0  9996
2 69268  51.8993   3.9653 0000418 121.0128 239.0875 14.79937673 17392
KUIPER-00527            
1 69269U 26118C   26257.70282348  .00001491  00000+0  22452-3 0  9998
2 69269  51.8995   2.4545 0000556 105.3727 254.7297 14.79932505 17449
KUIPER-00562            
1 69270U 26118D   26257.54179920  .00002535  00000+0  36088-3 0  9993
2 69270  51.9048 355.4773 0000357 147.7406 212.3578 14.79997006 17537
KUIPER-00570            
1 69271U 26118E   26257.69742400  .00002593  00000+0  36902-3 0  9998
2 69271  51.9016   7.4502 0000383  98.5787 261.5219 14.79937480 17360
KUIPER-00572            
1 69272U 26118F   26257.28074673  .00002504  00000+0  35726-3 0  9999
2 69272  51.9026   4.1845 0000266 108.8749 251.2242 14.79935044 17387
KUIPER-00581            
1 69273U 26118G   26257.68052725  .00002726  00000+0  38643-3 0  9995
2 69273  51.9029   7.4248 0001388 167.9066 192.1930 14.79931271 17462
KUIPER-00584            
1 69274U 26118H   26257.32332080  .00000734  00000+0  12532-3 0  9998
2 69274  51.9031  11.6155 0000563 133.3352 226.7658 14.79928538 17282
KUIPER-00587            
1 69275U 26118J   26257.28344847  .00000153  00000+0  49111-4 0  9997
2 69275  51.9020   1.6806 0000708  92.3619 267.7425 14.79925713 17429
KUIPER-00590            
1 69276U 26118K   26257.68322915  .00002801  00000+0  39615-3 0  9993
2 69276  51.9038   4.9232 0000608 132.9579 227.1434 14.79939703 17416
KUIPER-00592            
1 69277U 26118L   26257.59894567  .00001991  00000+0  29024-3 0  9993
2 69277  51.9041   5.1760 0000548 106.2513 253.8509 14.79918327 17402
KUIPER-00593            
1 69278U 26118M   26257.91670139 -.00032596  00000+0 -42656-2 0  9999
2 69278  51.8998 346.3905 0001744 149.4136   4.7303 14.79949623  4733
KUIPER-00594            
1 69279U 26118N   26257.67982204  .00002577  00000+0  36694-3 0  9992
2 69279  51.9042 352.4430 0001236  77.8270 282.2831 14.79926457 17581
KUIPER-00595            
1 69280U 26118P   26257.91670139 -.00066433  00000+0 -87300-2 0  9994
2 69280  51.8984 346.3479 0000861  98.2155 235.4329 14.80131961  5752
KUIPER-00596            
1 69281U 26118Q   26257.57655203  .00000363  00000+0  76594-4 0  9995
2 69281  51.9042  10.3901 0000343 102.4479 257.6522 14.79928645 17327
KUIPER-00597            
1 69282U 26118R   26257.91670139 -.00034325  00000+0 -44987-2 0  9995
2 69282  51.8985 348.8862 0001922  37.7974 311.2064 14.79911232  4892
KUIPER-00599            
1 69283U 26118S   26257.26655446  .00000928  00000+0  15068-3 0  9997
2 69283  51.9013   1.6722 0000506  84.7991 275.3030 14.79930470 17424
KUIPER-00600            
1 69284U 26118T   26257.54752199  .00002449  00000+0  35019-3 0  9990
2 69284  51.9006 350.4328 0001672  30.1691 329.9367 14.79924431 17600
KUIPER-00601            
1 69285U 26118U   26257.29492303 -.00000487  00000+0 -34829-4 0  9992
2 69285  51.9043   6.6315 0000559 104.0857 256.0168 14.79927925 17358
KUIPER-00602            
1 69286U 26118V   26257.30301234  .00000471  00000+0  90836-4 0  9998
2 69286  51.9036 359.0101 0000722 187.5394 172.5558 14.79930653 17462
KUIPER-00603            
1 69287U 26118W   26257.58732722  .00002834  00000+0  40065-3 0  9992
2 69287  51.9052   0.3427 0000527  98.6242 261.4780 14.79931817 17463
KUIPER-00605            
1 69288U 26118X   26257.57924039  .00002712  00000+0  38458-3 0  9994
2 69288  51.9000   7.8576 0000432 124.6604 235.4399 14.79933199 17362
KUIPER-00606            
1 69289U 26118Y   26257.70550762  .00002803  00000+0  39651-3 0  9995
2 69289  51.9037 359.8166 0000388 107.4111 252.6894 14.79936538 17484
KUIPER-00607            
1 69290U 26118Z   26257.63189614  .00000217  00000+0  57491-4 0  9993
2 69290  51.9033 350.1499 0001178   5.8184 354.2792 14.79940817 17610
KUIPER-00608            
1 69291U 26118AA  26257.64606437  .00002615  00000+0  37149-3 0  9993
2 69291  51.9020 352.4464 0001127  62.9334 297.1744 14.79975918 17587
KUIPER-00610            
1 69292U 26118AB  26257.67443665 -.00000432  00000+0 -27694-4 0  9991
2 69292  51.9035 357.4538 0000316  90.2781 269.8218 14.79935354 17515
KUIPER-00613            
1 69293U 26118AC  26257.59612470  .00002796  00000+0  39557-3 0  9998
2 69293  51.9016   7.7989 0000391  93.3069 266.7939 14.79935909 17361
KUIPER-00618            
1 69294U 26118AD  26257.30571045  .00002615  00000+0  37202-3 0  9995
2 69294  51.9038 356.5908 0001993 169.0233 191.0773 14.79928806 17493
KUIPER-00620            
1 69295U 26118AE  26257.65755474  .00002478  00000+0  35393-3 0  9990
2 69295  51.9044 357.5395 0000320  90.7837 269.3162 14.79938153 17515
KUIPER-00423            
1 69592U 26140A   26257.91670139 -.00054350  00000+0 -65981-2 0  9991
2 69592  51.9001 328.7470 0011569 106.9861 198.9243 14.83266197  4459
KUIPER-00428            
1 69593U 26140B   26257.58706262  .00021187  00000+0  57000-3 0  9996
2 69593  51.8806 326.6912 0005644 247.1691 112.8700 15.37812641 14989
KUIPER-00481            
1 69594U 26140C   26257.21191227  .00001373  00000+0  22592-3 0  9999
2 69594  51.9025 336.6867 0001765 319.7368  40.3462 14.76494812 14811
KUIPER-00490            
1 69595U 26140D   26257.62576543  .00002247  00000+0  32363-3 0  9991
2 69595  51.9044 340.1230 0000448  82.9449 277.1564 14.79927585 14806
KUIPER-00493            
1 69596U 26140E   26257.24897497  .00000794  00000+0  13310-3 0  9990
2 69596  51.9042 346.8389 0000520 255.7064 104.3841 14.79931591 14673
KUIPER-00496            
1 69597U 26140F   26257.91670139 -.01538082  00000+0 -11373+0 0  9999
2 69597  51.8902 328.9850 0008086 259.6773 337.7212 15.06265818  5517
KUIPER-00513            
1 69598U 26140G   26257.25435613  .00002452  00000+0  35056-3 0  9995
2 69598  51.9019 341.8132 0000511 115.7780 244.3235 14.79925027 14747
KUIPER-00516            
1 69599U 26140H   26257.91670139 -.01882589  00000+0 -93748-1 0  9993
2 69599  51.8822 325.5369 0006732 192.0364   1.1998 15.20393605  4266
KUIPER-00517            
1 69600U 26140J   26257.91670139 -.00661663  00000+0 -20468-1 0  9992
2 69600  51.8778 324.6685 0009563 152.0327  72.5195 15.35196504  5469
KUIPER-00520            
1 69601U 26140K   26257.22142853  .00001517  00000+0  24570-3 0  9998
2 69601  51.9034 343.7940 0001127 170.3480 189.7503 14.76599484 14713
KUIPER-00522            
1 69602U 26140L   26257.91670139 -.00043951  00000+0 -47259-2 0  9996
2 69602  51.8973 329.0696 0015926 119.5129 110.3903 14.88067514  5741
KUIPER-00528            
1 69603U 26140M   26257.23479673  .00000199  00000+0  55097-4 0  9998
2 69603  51.9044 344.4153 0000410  91.7122 268.3887 14.79926421 14709
KUIPER-00532            
1 69604U 26140N   26257.91670139 -.00069043  00000+0 -50160-2 0  9993
2 69604  51.8910 327.5010 0002963 192.2548 138.9246 15.03644130  4352
KUIPER-00533            
1 69605U 26140P   26257.62848242  .00001701  00000+0  25206-3 0  9993
2 69605  51.9029 337.6678 0000578  98.1983 261.9045 14.79939036 14836
KUIPER-00534            
1 69606U 26140Q   26257.91670139 -.00007289  00000+0 -22770-3 0  9996
2 69606  51.8810 325.6681 0013616 115.6791 351.7222 15.30924149  5454
KUIPER-00537            
1 69607U 26140R   26257.62038934  .00000768  00000+0  12969-3 0  9998
2 69607  51.9016 345.1170 0000550 347.8407  12.2542 14.79929604 14738
KUIPER-00538            
1 69608U 26140S   26257.65696771 -.00001882  00000+0 -21886-3 0  9999
2 69608  51.9028 342.4812 0000150 341.7474  18.3482 14.79772298 14777
KUIPER-00540            
1 69609U 26140T   26257.18606257  .00023514  00000+0  62290-3 0  9996
2 69609  51.8824 328.5182 0004425 242.4322 117.6216 15.38230205 14922
KUIPER-00541            
1 69610U 26140U   26257.91670139 -.00676792  00000+0 -27284-1 0  9995
2 69610  51.8865 324.7541 0007368 164.2789  17.4898 15.26825564  4054
KUIPER-00542            
1 69611U 26140V   26257.91670139 -.01698252  00000+0 -57063-1 0  9990
2 69611  51.8808 324.5021 0008336 151.8867 150.8560 15.33420205  3753
KUIPER-00543            
1 69612U 26140W   26257.91670139 -.00052872  00000+0 -40953-2 0  9993
2 69612  51.8951 327.3783 0003390 257.8348  23.0019 15.01095909  5795
KUIPER-00544            
1 69613U 26140X   26257.91670139 -.01493415  00000+0 -63543-1 0  9996
2 69613  51.8785 324.8586 0005139 146.7714   8.9236 15.25463676  5542
KUIPER-00546            
1 69614U 26140Y   26257.91670139 -.00048876  00000+0 -51525-2 0  9991
2 69614  51.8977 329.0828 0018965 109.9354 193.7616 14.88873000  5790
KUIPER-00547            
1 69615U 26140Z   26257.46056704  .00033183  00000+0  91658-3 0  9993
2 69615  51.8810 326.6208 0010385 139.5296 220.6465 15.36705356 14978
KUIPER-00549            
1 69616U 26140AA  26257.91670139 -.01570455  00000+0 -93620-1 0  9998
2 69616  51.8914 325.8511 0005045 223.5849 108.4680 15.14122908  4970
KUIPER-00550            
1 69617U 26140AB  26257.91670139 -.01661473  00000+0 -10040+0 0  9993
2 69617  51.8809 329.6601 0005978 280.0724  39.6845 15.13833966  5747
KUIPER-00551            
1 69618U 26140AC  26257.18604035  .00016671  00000+0  44244-3 0  9993
2 69618  51.8808 327.7546 0011873 127.2387 232.9685 15.38356723 14931
KUIPER-00554            
1 69619U 26140AD  26257.91522277  .00025695  00000+0  70109-3 0  9997
2 69619  51.8777 324.3864 0010124 144.3106 215.8559 15.37225142 15042
KUIPER-00555            
1 69620U 26140AE  26257.91670139  .00003157  00000+0  96201-4 0  9991
2 69620  51.8826 324.3344 0010650 131.6742 274.2065 15.37076238  2677
KUIPER-00556            
1 69621U 26140AF  26257.91670139 -.00062317  00000+0 -79909-2 0  9991
2 69621  51.8974 331.3956 0011286 128.1752 116.2008 14.81068096  3884
KUIPER-00557            
1 69622U 26140AG  26257.92501959  .00040111  00000+0  10401-2 0  9994
2 69622  51.8825 324.4734 0008344 150.5083 209.6377 15.38585495 15041
KUIPER-00560            
1 69623U 26140AH  26257.56763675  .00015051  00000+0  41791-3 0  9992
2 69623  51.8790 326.5490 0008170 168.3607 191.7570 15.37072449 14988
KUIPER-00561            
1 69624U 26140AJ  26257.93240520  .00008216  00000+0  11042-2 0  9993
2 69624  51.9026 336.2923 0000760 101.7428 258.3620 14.79978622 14888
KUIPER-00564            
1 69625U 26140AK  26257.61998961  .00001274  00000+0  21138-3 0  9993
2 69625  51.8992 335.0676 0001954 107.2041 252.9134 14.76577075 14873
KUIPER-00567            
1 69626U 26140AL  26257.91670139 -.00026935  00000+0 -35139-2 0  9999
2 69626  51.8976 331.3902 0002728 121.9949 305.8668 14.79980721  5584
KUIPER-00573            
1 69627U 26140AM  26257.59737417  .00000645  00000+0  11360-3 0  9996
2 69627  51.9025 335.3096 0000812 105.8839 254.2213 14.79912163 14869
KUIPER-00258            
1 69763U 26151A   26257.91670139 -.01085999  00000+0 -78779-1 0  9995
2 69763  51.8836 245.1721 0010395  34.7657  76.0250 15.06342129  5914
KUIPER-00526            
1 69764U 26151B   26257.72895541  .00002003  00000+0  29177-3 0  9993
2 69764  51.8983 259.7881 0000609  67.5463 292.5563 14.79921837 11245
KUIPER-00558            
1 69765U 26151C   26257.96531908  .00002055  00000+0  29845-3 0  9993
2 69765  51.8977 258.6628 0000552  71.3937 288.7085 14.79930382 11287
KUIPER-00569            
1 69766U 26151D   26256.97194020  .00000693  00000+0  11989-3 0  9990
2 69766  51.9013 260.5464 0000672  50.0897 310.0125 14.79931494 11179
KUIPER-00589            
1 69767U 26151E   26257.27241635  .00001533  00000+0  24845-3 0  9999
2 69767  51.9006 262.1447 0002678  48.5928 311.5263 14.76526407 11176
KUIPER-00598            
1 69768U 26151F   26257.39947168  .00001973  00000+0  28794-3 0  9992
2 69768  51.8996 253.6759 0000693 120.8358 239.2673 14.79906501 11307
KUIPER-00604            
1 69769U 26151G   26257.91670139  .00038203  00000+0  50248-2 0  9996
2 69769  51.9007 253.8820 0000522  37.6184 304.4690 14.79823625  3700
KUIPER-00609            
1 69770U 26151H   26257.72380541  .00001713  00000+0  27347-3 0  9993
2 69770  51.9017 251.9234 0002147  19.9899 340.1146 14.76613129 11358
KUIPER-00611            
1 69771U 26151J   26257.27852123  .00000496  00000+0  94083-4 0  9993
2 69771  51.8989 256.6914 0000627  59.0138 301.0886 14.79930466 11250
KUIPER-00612            
1 69772U 26151K   26257.72397364  .00001546  00000+0  24965-3 0  9993
2 69772  51.9005 257.1628 0000718  47.8192 312.2830 14.76637717 11281
KUIPER-00614            
1 69773U 26151L   26257.73436282  .00000811  00000+0  13532-3 0  9990
2 69773  51.8977 254.7440 0000980  50.9301 309.1748 14.79942196 11312
KUIPER-00615            
1 69774U 26151M   26257.91670139  .00095474  00000+0  12471-1 0  9990
2 69774  51.8999 258.8179 0000394 127.1133  64.4658 14.79607836  4963
KUIPER-00616            
1 69775U 26151N   26257.91670139 -.00582497  00000+0 -52355-1 0  9994
2 69775  51.9173 244.5646 0003738 116.8750 205.1327 14.97565872  5933
KUIPER-00617            
1 69776U 26151P   26257.91670139  .00033994  00000+0  44723-2 0  9997
2 69776  51.8989 248.8864 0001056 170.1084 143.1002 14.79868760  5811
KUIPER-00619            
1 69777U 26151Q   26257.72926900  .00001643  00000+0  26385-3 0  9998
2 69777  51.9008 251.8402 0001750 141.0245 219.0842 14.76577176 11350
KUIPER-00621            
1 69778U 26151R   26256.21494514  .00006478  00000+0  87790-3 0  9991
2 69778  51.8994 261.4091 0000812 131.3830 228.7202 14.79932925 11093
KUIPER-00622            
1 69779U 26151S   26257.73539961  .00001405  00000+0  23013-3 0  9999
2 69779  51.9000 258.5203 0001033  73.0140 287.0934 14.76561002 11267
KUIPER-00623            
1 69780U 26151T   26257.69795522  .00001773  00000+0  26088-3 0  9996
2 69780  51.8978 257.3645 0001747 101.8518 258.2640 14.80046698 11279
KUIPER-00626            
1 69781U 26151U   26257.91670139  .00049482  00000+0  64786-2 0  9993
2 69781  51.8967 251.3631 0001106 111.6595 215.6695 14.79889985  5834
KUIPER-00627            
1 69782U 26151V   26257.91670139 -.00019539  00000+0 -17956-2 0  9993
2 69782  51.8928 246.8560 0008501  61.0775 193.5964 14.93966027  2688
KUIPER-00629            
1 69783U 26151W   26257.70937576  .00001906  00000+0  27899-3 0  9997
2 69783  51.9015 262.2401 0000568  67.5251 292.5772 14.79928467 11214
KUIPER-00631            
1 69784U 26151X   26257.38857893 -.00003318  00000+0 -40641-3 0  9996
2 69784  51.8996 263.7172 0000737  93.1119 266.9928 14.79933690 11165
KUIPER-00634            
1 69785U 26151Y   26257.27583124  .00001847  00000+0  27124-3 0  9992
2 69785  51.8998 259.2227 0000865  97.6929 262.4131 14.79927719 11217
KUIPER-00639            
1 69786U 26151Z   26257.91670139 -.00027250  00000+0 -25993-2 0  9996
2 69786  51.8955 246.7183 0009877  30.0911  67.5924 14.92679342  5248
KUIPER-00641            
1 69787U 26151AA  26257.91670139  .00001891  00000+0  25921-3 0  9990
2 69787  51.9008 248.9233 0010741  27.7752 358.9817 14.82843825  4523
KUIPER-00644            
1 69788U 26151AB  26257.91670139 -.00537149  00000+0 -31561-1 0  9998
2 69788  51.8876 243.4467 0008876  36.0754 214.5684 15.13416177  5314
KUIPER-00646            
1 69789U 26151AC  26257.91670139 -.00001731  00000+0 -18628-3 0  9993
2 69789  51.8983 249.0003 0006523  77.8127 133.2256 14.82316607  3587
KUIPER-00647            
1 69790U 26151AD  26257.95785042  .00004176  00000+0  43738-3 0  9993
2 69790  51.8941 248.6071 0010713  44.6297 315.5532 14.91443180 11420
KUIPER-00662            
1 69791U 26151AE  26257.91670139  .00070902  00000+0  92685-2 0  9994
2 69791  51.9007 261.3807 0000436 235.5330 240.0643 14.79765392  4711
