IRIDIUM 106             
1 41917U 17003A   26277.35298860  .00000167  00000+0  52677-4 0  9992
2 41917  86.3975  42.8828 0001824  96.8545 263.2858 14.34218382508852
IRIDIUM 103             
1 41918U 17003B   26277.41007183  .00000152  00000+0  47047-4 0  9995
2 41918  86.3976  42.7584 0002152  89.6357 270.5086 14.34218047508883
IRIDIUM 109             
1 41919U 17003C   26277.41643030  .00000155  00000+0  48196-4 0  9992
2 41919  86.3977  42.8171 0002115  93.4276 266.7162 14.34219295508855
IRIDIUM 102             
1 41920U 17003D   26277.38470161  .00000047  00000+0  96615-5 0  9993
2 41920  86.3975  42.7515 0002111  95.6274 264.5163 14.34217917508939
IRIDIUM 105             
1 41921U 17003E   26277.27352868  .00000165  00000+0  51975-4 0  9995
2 41921  86.4025  11.2638 0002398  93.8445 266.3025 14.34216583510771
IRIDIUM 104             
1 41922U 17003F   26277.39738756  .00000143  00000+0  44016-4 0  9997
2 41922  86.3976  42.7903 0002370  89.3086 270.8381 14.34218421508923
IRIDIUM 114             
1 41923U 17003G   26277.40372942  .00000084  00000+0  23026-4 0  9993
2 41923  86.3976  42.7706 0002151  91.5767 268.5675 14.34218418508907
IRIDIUM 108             
1 41924U 17003H   26277.50178756  .00000070  00000+0  17779-4 0  9995
2 41924  86.4019  11.0518 0002232  96.4976 263.6474 14.34218198510779
IRIDIUM 112             
1 41925U 17003J   26277.39104465  .00000157  00000+0  48909-4 0  9994
2 41925  86.3972  42.6130 0002166  92.7415 267.4029 14.34218512508922
IRIDIUM 111             
1 41926U 17003K   26277.44812757  .00000109  00000+0  31928-4 0  9991
2 41926  86.3975  42.6623 0002090  92.3838 267.7597 14.34218499508910
IRIDIUM 113             
1 42803U 17039A   26277.49786009  .00000045  00000+0  91508-5 0  9990
2 42803  86.3911 276.4755 0002336  89.2309 270.9155 14.34217774486858
IRIDIUM 123             
1 42804U 17039B   26277.53934017 -.00000002  00000+0 -78396-5 0  9995
2 42804  86.3943 307.9464 0001994  91.1736 268.9688 14.34217308485621
IRIDIUM 120             
1 42805U 17039C   26277.49151561  .00000039  00000+0  67678-5 0  9995
2 42805  86.3899 276.2461 0002147  91.5669 268.5773 14.34217707486846
IRIDIUM 115             
1 42806U 17039D   26277.52263449  .00000011  00000+0 -28148-5 0  9999
2 42806  86.4436 276.3767 0002022  86.4626 273.6806 14.43279205490034
IRIDIUM 118             
1 42807U 17039E   26277.50128419  .00000126  00000+0  37776-4 0  9997
2 42807  86.3948 307.9602 0002228  93.5447 266.6003 14.34218208485614
IRIDIUM 117             
1 42808U 17039F   26277.52031122  .00000120  00000+0  35859-4 0  9998
2 42808  86.3945 307.9089 0002186  91.7225 268.4222 14.34218288485642
IRIDIUM 126             
1 42809U 17039G   26277.54568184  .00000066  00000+0  16485-4 0  9997
2 42809  86.3942 307.9509 0002135  90.3564 269.7877 14.34218021485625
IRIDIUM 124             
1 42810U 17039H   26277.38712373  .00000203  00000+0  54330-4 0  9996
2 42810  86.4461 244.6739 0002264  84.6965 275.4494 14.43280319490860
IRIDIUM 128             
1 42811U 17039J   26277.53642057  .00000150  00000+0  46497-4 0  9991
2 42811  86.4004 339.4632 0002119  96.4308 263.7129 14.34218175485657
IRIDIUM 121             
1 42812U 17039K   26277.49494148  .00000093  00000+0  26043-4 0  9994
2 42812  86.3946 308.0009 0002207  94.4819 265.6629 14.34218107485498
IRIDIUM 133             
1 42955U 17061A   26277.42859556  .00000123  00000+0  36747-4 0  9994
2 42955  86.4008 339.6288 0002141  95.3488 264.7952 14.34217403470439
IRIDIUM 100             
1 42956U 17061B   26277.14318024 -.00000009  00000+0 -10286-4 0  9999
2 42956  86.4002 339.6637 0002090  95.6979 264.4455 14.34217366470391
IRIDIUM 122             
1 42957U 17061C   26277.46030962  .00000128  00000+0  38585-4 0  9999
2 42957  86.4006 339.5321 0002172  92.5316 267.6128 14.34218264470443
IRIDIUM 129             
1 42958U 17061D   26277.41591161  .00000049  00000+0  10601-4 0  9999
2 42958  86.4006 339.6189 0002407  93.6432 266.5039 14.34217930470458
IRIDIUM 119             
1 42959U 17061E   26277.45396471  .00000179  00000+0  56896-4 0  9991
2 42959  86.4009 339.5995 0002039  93.8114 266.3315 14.34219657470471
IRIDIUM 107             
1 42960U 17061F   26277.47299477  .00000041  00000+0  76699-5 0  9995
2 42960  86.4004 339.6128 0001930  91.2224 268.9193 14.34217657470481
IRIDIUM 132             
1 42961U 17061G   26277.40956824  .00000049  00000+0  10519-4 0  9991
2 42961  86.4007 339.6184 0002212  94.6293 265.5155 14.34218025470474
IRIDIUM 136             
1 42962U 17061H   26277.44128179  .00000131  00000+0  39811-4 0  9998
2 42962  86.4007 339.6123 0002202  95.9672 264.1774 14.34218302470494
IRIDIUM 139             
1 42963U 17061J   26277.44762377  .00000053  00000+0  11724-4 0  9999
2 42963  86.4009 339.6734 0002160  94.7815 265.3627 14.34217983470500
IRIDIUM 125             
1 42964U 17061K   26277.43493924 -.00000009  00000+0 -10399-4 0  9998
2 42964  86.4008 339.7415 0002115  82.0940 278.0496 14.34217330470518
IRIDIUM 135             
1 43070U 17083A   26277.47883176  .00000038  00000+0  65349-5 0  9993
2 43070  86.3906 276.3131 0002242  89.5510 270.5943 14.34217696459819
IRIDIUM 138             
1 43071U 17083B   26277.50420203  .00000055  00000+0  12634-4 0  9993
2 43071  86.3919 276.0145 0002313  87.0967 273.0494 14.34217962459808
IRIDIUM 116             
1 43072U 17083C   26277.47248955  .00000107  00000+0  31030-4 0  9991
2 43072  86.3904 276.3002 0002053  94.0163 266.1267 14.34218110459835
IRIDIUM 130             
1 43073U 17083D   26277.51054451  .00000075  00000+0  19629-4 0  9997
2 43073  86.3912 276.5706 0002023  89.7332 270.4095 14.34217778459784
IRIDIUM 151             
1 43074U 17083E   26277.48517333  .00000112  00000+0  32952-4 0  9993
2 43074  86.3905 276.3552 0002203  90.5398 269.6050 14.34218668459809
IRIDIUM 134             
1 43075U 17083F   26277.52323075 -.00000003  00000+0 -82363-5 0  9990
2 43075  86.3905 276.3487 0002072  89.7726 270.3707 14.34217381459771
IRIDIUM 137             
1 43076U 17083G   26277.46614812  .00000068  00000+0  17160-4 0  9997
2 43076  86.3909 276.4679 0002245  98.2539 261.8911 14.34217696459837
IRIDIUM 141             
1 43077U 17083H   26277.52957230  .00000052  00000+0  11595-4 0  9998
2 43077  86.3904 276.2656 0002285  88.8660 271.2797 14.34217930459849
IRIDIUM 153             
1 43078U 17083J   26277.41198112  .00000169  00000+0  53257-4 0  9993
2 43078  86.3938 244.7801 0002326  83.3108 276.8353 14.34215924460934
IRIDIUM 131             
1 43079U 17083K   26277.51688678  .00000067  00000+0  16789-4 0  9992
2 43079  86.3909 276.4643 0002267  89.9983 270.1472 14.34218165459775
IRIDIUM 144             
1 43249U 18030A   26277.41832704  .00000151  00000+0  46824-4 0  9991
2 43249  86.3936 244.7039 0002169  88.3621 271.7823 14.34218027445795
IRIDIUM 149             
1 43250U 18030B   26277.42466917  .00000157  00000+0  49168-4 0  9993
2 43250  86.3935 244.6671 0002278  84.7985 275.3470 14.34218356445817
IRIDIUM 157             
1 43251U 18030C   26277.44369686  .00000048  00000+0  10236-4 0  9994
2 43251  86.3936 244.7148 0002220  85.7956 274.3493 14.34217839445791
IRIDIUM 140             
1 43252U 18030D   26277.39295594  .00000103  00000+0  29759-4 0  9997
2 43252  86.3937 244.7483 0002212  85.4639 274.6809 14.34217922445844
IRIDIUM 145             
1 43253U 18030E   26277.45003852  .00000168  00000+0  52761-4 0  9999
2 43253  86.3936 244.6964 0002015  90.1310 270.0116 14.34218441445788
IRIDIUM 146             
1 43254U 18030F   26277.43101198  .00000163  00000+0  51102-4 0  9993
2 43254  86.3936 244.7162 0002141  87.8247 272.3194 14.34218324445794
IRIDIUM 148             
1 43255U 18030G   26277.39929847  .00000125  00000+0  37737-4 0  9994
2 43255  86.3936 244.7743 0002300  87.8370 272.3089 14.34217657445829
IRIDIUM 142             
1 43256U 18030H   26277.43735472  .00000160  00000+0  50085-4 0  9999
2 43256  86.3934 244.6434 0002145  89.5360 270.6081 14.34218360445790
IRIDIUM 150             
1 43257U 18030J   26277.40564132  .00000163  00000+0  51063-4 0  9990
2 43257  86.3938 244.7765 0002173  86.3963 273.7481 14.34218594445818
IRIDIUM 143             
1 43258U 18030K   26277.38661398  .00000052  00000+0  11363-4 0  9996
2 43258  86.3941 244.8814 0002129  86.2901 273.8538 14.34217384445743
IRIDIUM 161             
1 43478U 18047C   26277.36506556  .00000180  00000+0  47415-4 0  9999
2 43478  86.4496  42.7854 0002302  93.3245 266.8219 14.43279518440880
IRIDIUM 152             
1 43479U 18047D   26277.35933161  .00000097  00000+0  27594-4 0  9998
2 43479  86.3971  42.6503 0002130  92.6942 267.4498 14.34217933438137
IRIDIUM 147             
1 43480U 18047E   26277.36568200  .00000100  00000+0  28517-4 0  9990
2 43480  86.3972  42.6546 0002059  96.0062 264.1369 14.34220650438139
IRIDIUM 110             
1 43481U 18047F   26277.44178644  .00000159  00000+0  49801-4 0  9992
2 43481  86.3975  42.7176 0002364  91.9755 268.1711 14.34218299438136
IRIDIUM 162             
1 43482U 18047G   26277.35876355  .00000206  00000+0  55377-4 0  9995
2 43482  86.4495  42.6778 0002152  92.7749 267.3698 14.43281536440872
IRIDIUM 160             
1 43569U 18061A   26277.52715807  .00000114  00000+0  33489-4 0  9998
2 43569  86.4022  11.0823 0002201  96.1264 264.0182 14.34218255429046
IRIDIUM 166             
1 43570U 18061B   26277.55252866  .00000053  00000+0  11828-4 0  9999
2 43570  86.4021  11.0207 0002133  97.2016 262.9422 14.34218003429072
IRIDIUM 158             
1 43571U 18061C   26277.52081565  .00000084  00000+0  22909-4 0  9999
2 43571  86.4022  11.0439 0002135  93.4177 266.7263 14.34218363429039
IRIDIUM 165             
1 43572U 18061D   26277.54618602  .00000133  00000+0  40256-4 0  9990
2 43572  86.4023  11.0819 0002089  96.2681 263.8753 14.34218402429061
IRIDIUM 155             
1 43573U 18061E   26277.50813506  .00000127  00000+0  38161-4 0  9992
2 43573  86.4019  10.9614 0002074  94.8350 265.3083 14.34216336429022
IRIDIUM 154             
1 43574U 18061F   26277.34956556  .00000076  00000+0  20003-4 0  9997
2 43574  86.4023  11.1666 0002112  97.2151 262.9285 14.34218079429053
IRIDIUM 163             
1 43575U 18061G   26277.53984352  .00000144  00000+0  44414-4 0  9992
2 43575  86.4020  10.9990 0002205  94.2004 265.9444 14.34218581429053
IRIDIUM 156             
1 43576U 18061H   26277.30516700  .00000078  00000+0  20892-4 0  9996
2 43576  86.4019  11.1043 0002071  93.9623 266.1810 14.34218180429019
IRIDIUM 164             
1 43577U 18061J   26277.49544507  .00000043  00000+0  81609-5 0  9999
2 43577  86.4021  11.0668 0002135  98.3306 261.8132 14.34217983429089
IRIDIUM 159             
1 43578U 18061K   26277.53350078  .00000122  00000+0  36503-4 0  9993
2 43578  86.4019  10.9857 0002237  94.1998 265.9453 14.34218476429055
IRIDIUM 180             
1 43922U 19002A   26277.53299736  .00000090  00000+0  25123-4 0  9995
2 43922  86.3945 307.9089 0002255  93.4569 266.6885 14.34218079404663
IRIDIUM 176             
1 43923U 19002B   26277.51902649  .00000318  00000+0  46584-4 0  9995
2 43923  86.6067 307.8428 0002377  92.2564 267.8926 14.72252708415339
IRIDIUM 168             
1 43924U 19002C   26277.52665463  .00000072  00000+0  18675-4 0  9994
2 43924  86.3946 307.9919 0002249  93.3251 266.8202 14.34217965404644
IRIDIUM 173             
1 43925U 19002D   26277.51396916  .00000016  00000+0 -12918-5 0  9992
2 43925  86.3940 307.8811 0002090  92.5581 267.5854 14.34217700404626
IRIDIUM 169             
1 43926U 19002E   26277.45480243  .00000150  00000+0  42528-4 0  9990
2 43926  86.4261 339.5415 0001951  87.2066 272.9356 14.38608887405936
IRIDIUM 172             
1 43927U 19002F   26277.50762639  .00000012  00000+0 -29027-5 0  9997
2 43927  86.3941 307.8922 0002154  93.0079 267.1363 14.34217662404630
IRIDIUM 175             
1 43928U 19002G   26277.37574948  .00000192  00000+0  50571-4 0  9992
2 43928  86.4490 244.8528 0002252 177.1725 182.9489 14.43650326414737
IRIDIUM 171             
1 43929U 19002H   26277.48859897  .00000065  00000+0  16257-4 0  9996
2 43929  86.3954 308.2190 0002167  94.5114 265.6329 14.34217912404620
IRIDIUM 170             
1 43930U 19002J   26277.52521461  .00000363  00000+0  53716-4 0  9998
2 43930  86.6066 307.8416 0002391  91.3162 268.8329 14.72250130415349
IRIDIUM 167             
1 43931U 19002K   26277.48225579  .00000131  00000+0  39682-4 0  9994
2 43931  86.3945 307.9264 0002012  93.9618 266.1807 14.34218263404629
IRIDIUM 181             
1 56726U 23068S   26277.30025351  .00000189  00000+0  50232-4 0  9991
2 56726  86.4558  11.1814 0002303  97.6498 262.4965 14.43307627178176
IRIDIUM 177             
1 56727U 23068T   26277.50593060  .00000263  00000+0  33445-4 0  9991
2 56727  86.1909 276.9482 0002479  86.9792 273.1711 14.77172568182521
IRIDIUM 174             
1 56728U 23068U   26277.51285323  .00000398  00000+0  59190-4 0  9997
2 56728  86.6074 308.0051 0002403  88.4281 271.7211 14.72251546182108
IRIDIUM 178             
1 56729U 23068V   26277.43376449  .00000473  00000+0  59080-4 0  9991
2 56729  86.6575 339.7477 0002423  89.7398 270.4101 14.80036911182529
IRIDIUM 179             
1 56730U 23068W   26277.49599564  .00000112  00000+0  11391-4 0  9997
2 56730  86.6827 349.0218 0002331  92.5929 267.5559 14.80046047182534
