EUTELSAT 174A           
1 28924U 05052A   26264.71965856  .00000009  00000+0  00000+0 0  9991
2 28924   4.4561  75.2766 0006038 104.7859 253.6557  1.00275057 53290
EUTELSAT 33F            
1 29270U 06032A   26264.85199645  .00000153  00000+0  00000+0 0  9995
2 29270   1.9037  81.0176 0003374  94.0614 165.4642  1.00272159 48272
EUTELSAT HOTBIRD 13C    
1 33459U 08065A   26264.83552972 -.00000284  00000+0  00000+0 0  9997
2 33459   3.1915  77.9619 0003681 107.1518  66.1058  1.00271601 48315
EUTELSAT 36B            
1 36101U 09065A   26264.92679012  .00000109  00000+0  00000+0 0  9995
2 36101   0.7280  81.1012 0005797  97.9627 205.8944  1.00274065 61678
EUTELSAT KA-SAT 9A      
1 37258U 10069A   26264.84722977  .00000058  00000+0  00000+0 0  9998
2 37258   0.0755 354.1952 0005172 168.7492 151.7776  1.00268846 44978
EUTELSAT 7 WEST A       
1 37816U 11051A   26264.84402308 -.00000063  00000+0  00000+0 0  9990
2 37816   0.0667   7.8697 0006099 170.3331 119.0650  1.00272806 54844
EUTELSAT 16A            
1 37836U 11057A   26264.85600207  .00000101  00000+0  00000+0 0  9999
2 37836   0.1103  66.0968 0005487 115.0031 143.7976  1.00273620  8303
EUTELSAT 21B            
1 38992U 12062B   26264.27950975  .00000126  00000+0  00000+0 0  9993
2 38992   0.0703   4.4606 0002909 173.2716 304.6591  1.00273603 50791
EUTELSAT 70B            
1 39020U 12069A   26264.93069014 -.00000047  00000+0  00000+0 0  9994
2 39020   0.0654 359.5886 0003686 182.6138 224.1545  1.00271360 50476
EUTELSAT 117 WEST A     
1 39122U 13012A   26264.60572502 -.00000017  00000+0  00000+0 0  9998
2 39122   0.0061 218.6412 0002903 318.6667 284.4477  1.00271952 49401
EUTELSAT 7B             
1 39163U 13022A   26264.85600207  .00000101  00000+0  00000+0 0  9998
2 39163   0.0699 343.1914 0004500 122.6352 219.1065  1.00274730 48913
EXPRESS-AT1             
1 39612U 14010A   26265.00835601 -.00000113  00000+0  00000+0 0  9995
2 39612   0.5000  84.3856 0004954  81.6119 274.1695  1.00315779 45781
EXPRESS-AT2             
1 39613U 14010B   26264.89210410  .00000075  00000+0  00000+0 0  9993
2 39613   0.0225 250.7335 0000501 208.7954 278.3996  1.00272132 45460
EUTELSAT 3B             
1 39773U 14030A   26264.91734340  .00000017  00000+0  00000+0 0  9994
2 39773   0.0633 356.8541 0004200 180.7499 156.5402  1.00271704 45036
EUTELSAT 115 WEST B     
1 40425U 15010B   26264.60502814 -.00000029  00000+0  00000+0 0  9998
2 40425   0.0431 356.2475 0000212 302.4063 164.7426  1.00270741 42356
EUTELSAT 8 WEST B       
1 40875U 15039B   26264.77260943 -.00000069  00000+0  00000+0 0  9994
2 40875   0.0686   6.7877 0003632 174.0724  89.9422  1.00271300 40620
EUTELSAT 9B             
1 41310U 16005A   26264.84722977  .00000058  00000+0  00000+0 0  9998
2 41310   0.0502  65.7744 0002567 149.1897  99.7627  1.00271780 39086
EUTELSAT 65 WEST A      
1 41382U 16014A   26264.90382336 -.00000280  00000+0  00000+0 0  9993
2 41382   0.0629 330.1472 0002257 207.1244  83.6869  1.00269952 38491
EUTELSAT 117 WEST B     
1 41589U 16038B   26264.60572449 -.00000015  00000+0  00000+0 0  9997
2 41589   0.0430 357.0368 0000247 338.0962 126.4213  1.00269664 37634
EUTELSAT 172B           
1 42741U 17029B   26264.87955659 -.00000009  00000+0  00000+0 0  9999
2 42741   0.0219 147.1546 0000321 290.9652  51.2940  1.00272749 34728
EUTELSAT 7C             
1 44334U 19034B   26264.91812341  .00000045  00000+0  00000+0 0  9991
2 44334   0.0681 181.6796 0003303 341.5223 175.1247  1.00271770  7809
EUTELSAT 5 WEST B       
1 44624U 19067A   26264.91578340 -.00000045  00000+0  00000+0 0  9998
2 44624   0.0694 337.3565 0003211 200.2645 147.8673  1.00272868 25398
EUTELSAT KONNECT        
1 45027U 20005B   26264.84688309  .00000046  00000+0  00000+0 0  9999
2 45027   0.0638  98.3348 0001997 117.0365  97.4455  1.00271564 25301
EUTELSAT QUANTUM        
1 49056U 21069B   26264.49851740  .00000122  00000+0  00000+0 0  9993
2 49056   0.0263  62.8039 0002325 112.3506  52.4018  1.00272916 18899
EUTELSAT KONNECT VHTS   
1 53765U 22110A   26264.63215800  .00000014  00000+0  00000+0 0  9990
2 53765   0.0544 105.0244 0003189  49.1780  76.6378  1.00273325  7802
EUTELSAT HOTBIRD 13F    
1 54048U 22134A   26264.85600207  .00000084  00000+0  00000+0 0  9991
2 54048   0.0648 287.3722 0001879  80.1585 314.3779  1.00273168 14348
EUTELSAT HOTBIRD 13G    
1 54225U 22146A   26264.84809644  .00000084  00000+0  00000+0 0  9996
2 54225   0.0553 239.6487 0002209 289.5852 149.8276  1.00272995  8431
EUTELSAT 10B            
1 54259U 22157A   26264.34849671  .00000064  00000+0  00000+0 0  9992
2 54259   0.0549 101.3132 0001644   0.4084  33.9584  1.00271676 13991
EUTELSAT 36D            
1 59346U 24059A   26264.85260311  .00000152  00000+0  00000+0 0  9999
2 59346   0.0013 175.9091 0000169 271.8381 255.7965  1.00271403  9119
