KUIPER-00008            
1 63724U 25088A   26283.54843085  .00000330  00000+0  72329-4 0  9995
2 63724  51.9016 217.9021 0000898  69.6922 290.4137 14.79933835 79865
KUIPER-00009            
1 63725U 25088B   26283.54212674  .00005939  00000+0  39706-3 0  9991
2 63725  51.9016 221.2753 0001422  46.4834 313.6259 15.08237478 79816
KUIPER-00010            
1 63726U 25088C   26283.52008018  .00000688  00000+0  11930-3 0  9990
2 63726  51.9030 213.1415 0000929  69.3728 290.7334 14.79929880 79546
KUIPER-00011            
1 63727U 25088D   26283.54575545  .00000518  00000+0  96982-4 0  9990
2 63727  51.9018 220.5693 0000977  66.6196 293.4869 14.79931180 79577
KUIPER-00012            
1 63728U 25088E   26282.98792447  .00000850  00000+0  14054-3 0  9998
2 63728  51.9025 207.9768 0000821  86.8530 273.2526 14.79932655 79655
KUIPER-00013            
1 63729U 25088F   26283.59440757  .00000782  00000+0  13154-3 0  9995
2 63729  51.9019 237.8135 0000769  89.0701 271.0350 14.79929850 79390
KUIPER-00014            
1 63730U 25088G   26283.08789655  .00001279  00000+0  19665-3 0  9999
2 63730  51.9013 239.9993 0001188  38.9739 321.1309 14.79949346 79136
KUIPER-00015            
1 63731U 25088H   26283.11091036  .00000866  00000+0  14256-3 0  9995
2 63731  51.8992 249.9371 0000978  58.5478 301.5580 14.79936109 79458
KUIPER-00016            
1 63732U 25088J   26283.62546904  .00000526  00000+0  98063-4 0  9993
2 63732  51.9003 240.1243 0000870  51.4591 308.6450 14.79934598 79176
KUIPER-00018            
1 63733U 25088K   26283.06225415  .00000982  00000+0  15779-3 0  9991
2 63733  51.9031 232.6682 0000905  62.5107 297.5947 14.79934661 79231
KUIPER-00019            
1 63734U 25088L   26283.15643924 -.00000848  00000+0 -82294-4 0  9991
2 63734  51.9013 230.9900 0000873  45.7032 314.4002 14.79918824 79267
KUIPER-00020            
1 63735U 25088M   26283.59979861  .00001116  00000+0  17534-3 0  9993
2 63735  51.9017 232.7822 0000938  66.1671 293.9390 14.79930621 79487
KUIPER-00021            
1 63736U 25088N   26283.56602743  .00000473  00000+0  91124-4 0  9996
2 63736  51.9005 232.8777 0000830  70.0989 290.0063 14.79930135 79319
KUIPER-00023            
1 63737U 25088P   26283.59709394 -.00000641  00000+0 -55148-4 0  9995
2 63737  51.9013 235.2315 0000857  63.3569 296.7481 14.79925948 79584
KUIPER-00024            
1 63738U 25088Q   26283.54306470  .00000663  00000+0  11595-3 0  9998
2 63738  51.9027 223.0887 0001005  64.3134 295.7932 14.79931180 79871
KUIPER-00025            
1 63739U 25088R   26283.56872666 -.00001890  00000+0 -21898-3 0  9998
2 63739  51.9037 230.4586 0000596 135.2759 224.8252 14.79936947 79634
KUIPER-00027            
1 63740U 25088S   26283.54036713  .00000133  00000+0  46509-4 0  9997
2 63740  51.9028 225.5376 0000765  92.9431 267.1619 14.79930981 79439
KUIPER-00028            
1 63741U 25088T   26283.57681246  .00000340  00000+0  73569-4 0  9994
2 63741  51.9010 222.8123 0000831  53.3580 306.7458 14.79933952 79882
KUIPER-00029            
1 63742U 25088U   26283.55283048  .00000654  00000+0  11484-3 0  9996
2 63742  51.9032 221.6199 0001131  54.3782 305.7286 14.79932780 79422
KUIPER-00030            
1 63743U 25088V   26283.18652697  .00000014  00000+0  30836-4 0  9999
2 63743  51.9023 242.0619 0000889  56.1523 303.9524 14.79933152 79394
KUIPER-00031            
1 63744U 25088W   26283.57411429 -.00000095  00000+0  16585-4 0  9994
2 63744  51.9015 225.3679 0001016  72.0163 288.0910 14.79921294 79370
KUIPER-00032            
1 63745U 25088X   26282.76992327  .00017372  00000+0  39512-3 0  9995
2 63745  51.8664  64.2387 0004657 161.1276 198.9887 15.43071051 82549
KUIPER-00033            
1 63746U 25088Y   26283.60926646 -.00015571  00000+0 -20172-2 0  9993
2 63746  51.8963 255.2130 0001644  47.2380 312.8720 14.79952305 79449
KUIPER-00034            
1 63747U 25088Z   26283.51468153  .00000324  00000+0  71483-4 0  9999
2 63747  51.9022 218.1689 0000656  65.2207 294.8824 14.79932012 79632
KUIPER-00035            
1 63748U 25088AA  26283.62277126  .00001295  00000+0  19882-3 0  9992
2 63748  51.9002 242.6516 0000791  61.0110 299.0932 14.79930704 79351
KUIPER-00037            
1 63749U 25088AB  26283.14298748  .00000493  00000+0  93667-4 0  9996
2 63749  51.9016 243.6354 0000831  55.6602 304.4438 14.79931194 80086
KUIPER-00038            
1 63750U 25088AC  26283.53766397  .00000768  00000+0  12966-3 0  9998
2 63750  51.9023 228.0662 0000489  91.0628 269.0391 14.79933558 79332
KUIPER-00039            
1 64500U 25134A   26283.51022470  .00003151  00000+0  44201-3 0  9995
2 64500  51.9051   3.1860 0000179  73.6613 286.4369 14.79937789 71885
KUIPER-00040            
1 64501U 25134B   26283.53321540  .00001027  00000+0  16368-3 0  9991
2 64501  51.9000  13.1351 0000337 130.4957 229.6035 14.79932247 71743
KUIPER-00041            
1 64502U 25134C   26283.56427038  .00000131  00000+0  46231-4 0  9992
2 64502  51.9004  15.3907 0000231 122.5977 237.5008 14.79929381 71716
KUIPER-00042            
1 64503U 25134D   26282.52294501  .00001207  00000+0  18722-3 0  9993
2 64503  51.8999  14.9730 0000231 105.6204 254.4784 14.79934052 71634
KUIPER-00043            
1 64504U 25134E   26282.93621875  .00002830  00000+0  40004-3 0  9998
2 64504  51.9030   5.6666 0000182  66.3299 293.7682 14.79939126 71808
KUIPER-00044            
1 64505U 25134F   26283.53049528  .00002727  00000+0  38653-3 0  9997
2 64505  51.8955  15.5238 0000750  89.4800 270.6248 14.79936475 71710
KUIPER-00046            
1 64506U 25134G   26282.68907690  .00000377  00000+0  78468-4 0  9994
2 64506  51.9006  16.7127 0000356  87.6350 272.4653 14.79929798 71621
KUIPER-00047            
1 64507U 25134H   26282.48237831  .00000679  00000+0  11799-3 0  9994
2 64507  51.9013 350.1580 0000230  63.7894 296.3092 14.79934337 71972
KUIPER-00048            
1 64508U 25134J   26283.46157463  .00001431  00000+0  21664-3 0  9995
2 64508  51.9011 345.8399 0000175  49.4431 310.6546 14.79929963 72127
KUIPER-00049            
1 64509U 25134K   26283.48184784  .00000977  00000+0  15717-3 0  9990
2 64509  51.9020 358.2243 0000491  96.1119 263.9900 14.79926358 71956
KUIPER-00050            
1 64510U 25134L   26283.43318052  .00002095  00000+0  30366-3 0  9994
2 64510  51.9005 340.9597 0000359  56.6821 303.4175 14.79934171 72198
KUIPER-00051            
1 64511U 25134M   26282.64749637  .00002598  00000+0  36953-3 0  9990
2 64511  51.9020   0.6125 0000128  89.2668 270.8309 14.79938470 71841
KUIPER-00053            
1 64513U 25134P   26282.90145287 -.00002377  00000+0 -27114-3 0  9998
2 64513  51.9040 353.6545 0001323 178.2609 181.8359 14.81642581 71961
KUIPER-00054            
1 64514U 25134Q   26283.45884580  .00000064  00000+0  37448-4 0  9997
2 64514  51.8987 348.3238 0000297  90.8821 269.2176 14.79937167 72081
KUIPER-00055            
1 64515U 25134R   26283.34127800 -.00001926  00000+0 -22370-3 0  9998
2 64515  51.9042 301.5045 0000384 101.8214 258.2792 14.79932656 72730
KUIPER-00056            
1 64516U 25134S   26283.48725012  .00002913  00000+0  41088-3 0  9995
2 64516  51.9038 353.3255 0000139  70.0292 290.0685 14.79940557 72021
KUIPER-00057            
1 64517U 25134T   26283.47914665  .00003024  00000+0  42551-3 0  9999
2 64517  51.9010   0.7687 0000305  82.1866 277.9131 14.79934436 71916
KUIPER-00058            
1 64518U 25134U   26282.64042017  .00002494  00000+0  35604-3 0  9992
2 64518  51.9021 359.4587 0000226  74.8955 285.2033 14.79936075 71869
KUIPER-00059            
1 64519U 25134V   26283.45616509 -.00000021  00000+0  26305-4 0  9990
2 64519  51.8996 350.8850 0000469  64.8965 295.2046 14.79924488 72059
KUIPER-00060            
1 64520U 25134W   26283.48994790  .00002849  00000+0  40254-3 0  9993
2 64520  51.9043 350.8207 0000304  68.4061 291.6934 14.79938742 72049
KUIPER-00061            
1 64521U 25134X   26282.90782803  .00003084  00000+0  43316-3 0  9994
2 64521  51.9021   0.8307 0000195 117.8924 242.2058 14.79950187 71858
KUIPER-00062            
1 64522U 25134Y   26283.51291221  .00000945  00000+0  15297-3 0  9992
2 64522  51.8977   0.5910 0000277  58.8666 301.2324 14.79930995 71928
KUIPER-00063            
1 64523U 25134Z   26282.55941826  .00000339  00000+0  73459-4 0  9991
2 64523  51.9018  12.4161 0000224  77.5014 282.5973 14.79931767 71674
KUIPER-00064            
1 64524U 25134AA  26283.50752250  .00003179  00000+0  44578-3 0  9993
2 64524  51.9048   5.6529 0000205 124.7926 235.3056 14.79938917 71858
KUIPER-00065            
1 64525U 25134AB  26283.50214503  .00003136  00000+0  44005-3 0  9996
2 64525  51.9051  10.8544 0000357  96.9426 263.1577 14.79946233 71768
KUIPER-00066            
1 64526U 25134AC  26283.33318858  .00000311  00000+0  69801-4 0  9990
2 64526  51.8993 308.8647 0000605  51.7157 308.3860 14.79928876 72630
KUIPER-00069            
1 64816U 25151A   26283.66158175  .00003133  00000+0  43963-3 0  9996
2 64816  51.9035  50.0499 0000478 123.1922 236.9087 14.79940433 68593
KUIPER-00070            
1 64817U 25151B   26282.45283756  .00001758  00000+0  25951-3 0  9995
2 64817  51.8998  80.2896 0001011 130.8786 229.2264 14.79931794 68079
KUIPER-00071            
1 64818U 25151C   26282.38800808  .00001940  00000+0  28343-3 0  9992
2 64818  51.8991  78.1266 0000523 112.2338 247.8680 14.79933046 66915
KUIPER-00072            
1 64819U 25151D   26283.65887605  .00001027  00000+0  16376-3 0  9993
2 64819  51.8989  52.4209 0000473 124.8242 235.2765 14.79932248 67382
KUIPER-00073            
1 64820U 25151E   26283.16459747  .00001892  00000+0  27715-3 0  9992
2 64820  51.8989  74.6653 0000908 139.8823 220.2206 14.79935727 68219
KUIPER-00075            
1 64822U 25151G   26283.63224262  .00026667  00000+0  68844-3 0  9993
2 64822  51.8645 254.3910 0002725 340.1968  19.8913 15.38954922 69570
KUIPER-00076            
1 64823U 25151H   26283.64810024  .00001654  00000+0  24596-3 0  9997
2 64823  51.9005  62.5541 0000673 121.9863 238.1165 14.79932797 67247
KUIPER-00077            
1 64824U 25151J   26282.69726605 -.00001923  00000+0 -22328-3 0  9995
2 64824  51.9007  71.7806 0000939 131.1032 229.0012 14.79929521 67030
KUIPER-00078            
1 64825U 25151K   26282.66621244  .00002521  00000+0  35953-3 0  9997
2 64825  51.8996  69.3879 0000804 133.8153 226.2876 14.79937886 67067
KUIPER-00079            
1 64826U 25151L   26282.69458666  .00002461  00000+0  35166-3 0  9996
2 64826  51.8990  74.2155 0000949 130.0079 230.0967 14.79937375 68192
KUIPER-00080            
1 64827U 25151M   26282.72835099  .00002413  00000+0  34535-3 0  9996
2 64827  51.8985  74.0795 0000450 117.1656 242.9352 14.79934106 67007
KUIPER-00082            
1 64828U 25151N   26283.65349409  .00002848  00000+0  40231-3 0  9997
2 64828  51.9015  57.5549 0000677 129.0615 231.0408 14.79939237 67319
KUIPER-00083            
1 64829U 25151P   26282.42986628  .00000086  00000+0  40260-4 0  9997
2 64829  51.9009  70.4463 0000893 132.1045 227.9994 14.79932645 68214
KUIPER-00084            
1 64830U 25151Q   26282.48661107  .00001929  00000+0  28194-3 0  9995
2 64830  51.9004  80.1810 0000718 118.2289 241.8746 14.79927129 66899
KUIPER-00085            
1 64831U 25151R   26282.40419394  .00002008  00000+0  29231-3 0  9999
2 64831  51.9030  63.1390 0000683 143.1485 216.9524 14.79943388 67128
KUIPER-00086            
1 64832U 25151S   26282.39341217  .00002017  00000+0  29358-3 0  9996
2 64832  51.9004  73.1167 0000786 130.2142 229.8889 14.79929875 66989
KUIPER-00087            
1 64833U 25151T   26282.74990906 -.00000520  00000+0 -39158-4 0  9990
2 64833  51.9018  53.9929 0000453 129.6299 230.4703 14.79933605 67275
KUIPER-00089            
1 64834U 25151U   26282.40688872 -.00000062  00000+0  20898-4 0  9991
2 64834  51.8998  60.5362 0000548 124.4251 235.6763 14.79928035 67165
KUIPER-00090            
1 64835U 25151V   26283.63050863  .00003111  00000+0  43678-3 0  9998
2 64835  51.8996  47.6158 0000497 136.0607 224.0395 14.79938330 67443
KUIPER-00091            
1 64836U 25151W   26283.62512135  .00003065  00000+0  43082-3 0  9990
2 64836  51.9012  52.6739 0000631 136.2287 223.8725 14.79936644 67373
KUIPER-00092            
1 64837U 25151X   26282.40146942  .00000745  00000+0  12672-3 0  9998
2 64837  51.9017  65.5723 0000465  79.6259 280.4756 14.79917732 68303
KUIPER-00093            
1 64838U 25151Y   26282.39879300  .00000999  00000+0  16011-3 0  9990
2 64838  51.8985  68.0512 0000971 117.9383 242.1678 14.79930065 67050
KUIPER-00094            
1 64839U 25151Z   26283.52781305  .00004486  00000+0  61674-3 0  9994
2 64839  51.9054  18.1837 0000434 132.7672 227.3327 14.79950446 67854
KUIPER-00081            
1 65132U 25171A   26283.26425243 -.00000591  00000+0 -48575-4 0  9991
2 65132  51.8992 279.2236 0000874  51.6538 308.4503 14.79929101 64816
KUIPER-00088            
1 65133U 25171B   26283.51549662  .00002540  00000+0  36202-3 0  9999
2 65133  51.9001 295.6111 0000499  37.1849 322.9148 14.79935046 64608
KUIPER-00095            
1 65134U 25171C   26283.26695103  .00002643  00000+0  37555-3 0  9990
2 65134  51.8971 276.7431 0000679  68.8240 291.2795 14.79935096 64842
KUIPER-00096            
1 65135U 25171D   26283.28723382  .00002408  00000+0  34481-3 0  9998
2 65135  51.8988 289.1141 0000556  42.7703 317.3303 14.79932421 64671
KUIPER-00097            
1 65136U 25171E   26283.28455709  .00000859  00000+0  14163-3 0  9997
2 65136  51.9026 291.8010 0000461  59.9603 300.1405 14.79934893 64628
KUIPER-00098            
1 65137U 25171F   26283.21431693  .00000190  00000+0  53923-4 0  9993
2 65137  51.9009 294.4692 0000733  60.1715 299.9320 14.79928775 63931
KUIPER-00099            
1 65138U 25171G   26283.25886877  .00001146  00000+0  17927-3 0  9991
2 65138  51.9007 284.2898 0000599  51.0598 309.0418 14.79931963 64736
KUIPER-00100            
1 65139U 25171H   26283.29531971 -.00000161  00000+0  78794-5 0  9996
2 65139  51.9011 281.5920 0000531  58.8463 301.2551 14.79929281 64776
KUIPER-00102            
1 65140U 25171J   26283.29261956 -.00000703  00000+0 -63198-4 0  9995
2 65140  51.8995 284.0672 0000590  38.6630 321.4375 14.79928732 64731
KUIPER-00103            
1 65141U 25171K   26283.30751489  .00000345  00000+0  74275-4 0  9991
2 65141  51.9013 301.5068 0000874  84.4786 275.6276 14.79929977 64499
KUIPER-00104            
1 65142U 25171L   26283.32100022  .00001020  00000+0  16278-3 0  9994
2 65142  51.9019 288.9700 0000682  51.7244 308.3780 14.79930197 64670
KUIPER-00105            
1 65143U 25171M   26283.34668633 -.00000157  00000+0  84254-5 0  9996
2 65143  51.9004 296.4448 0000726  56.5480 303.5552 14.79929437 64570
KUIPER-00106            
1 65144U 25171N   26283.25986841 -.00000093  00000+0  16843-4 0  9998
2 65144  51.8996 275.5970 0000474  71.8970 288.2044 14.79928150 64860
KUIPER-00107            
1 65145U 25171P   26283.29802327 -.00000366  00000+0 -18960-4 0  9995
2 65145  51.9006 279.1025 0000690  69.9781 290.1255 14.79928662 64812
KUIPER-00108            
1 65146U 25171Q   26283.31831003  .00002499  00000+0  35662-3 0  9996
2 65146  51.9019 291.5642 0000591  41.3040 318.7967 14.79935437 64648
KUIPER-00109            
1 65147U 25171R   26283.22240335  .00002462  00000+0  35182-3 0  9996
2 65147  51.9015 286.9296 0000584  47.5605 312.5407 14.79934476 64693
KUIPER-00110            
1 65148U 25171S   26283.24268682  .00002403  00000+0  34404-3 0  9995
2 65148  51.9000 299.3807 0000471  40.0718 320.0279 14.79937999 64517
KUIPER-00111            
1 65149U 25171T   26283.27104266  .00002319  00000+0  33301-3 0  9997
2 65149  51.8976 304.1103 0000599  32.2089 327.8910 14.79935342 64458
KUIPER-00112            
1 65150U 25171U   26283.32370463  .00001632  00000+0  24308-3 0  9993
2 65150  51.9019 286.5230 0000665  32.1267 327.9736 14.79933626 64702
KUIPER-00114            
1 65151U 25171V   26283.33589016  .00002391  00000+0  34251-3 0  9992
2 65151  51.9004 306.4241 0000501  38.2376 321.8622 14.79935329 64426
KUIPER-00115            
1 65152U 25171W   26283.34398095  .00002491  00000+0  35564-3 0  9998
2 65152  51.9014 298.9010 0000512  40.5614 319.5387 14.79935551 64531
KUIPER-00116            
1 65153U 25171X   26283.23729510  .00002444  00000+0  34939-3 0  9990
2 65153  51.9004 304.4024 0000468  47.9301 312.1701 14.79938809 64441
KUIPER-00118            
1 65154U 25171Y   26283.23458631 -.00001393  00000+0 -15383-3 0  9990
2 65154  51.8977 306.8589 0000466  48.6391 311.4612 14.79928029 64410
KUIPER-00119            
1 65155U 25171Z   26283.31561863  .00002477  00000+0  35371-3 0  9993
2 65155  51.9010 294.1088 0000563  50.6242 309.4770 14.79938514 64590
KUIPER-00120            
1 65762U 25217A   26283.41737251  .00000519  00000+0  97117-4 0  9997
2 65762  51.8984 183.5174 0001180  92.4685 267.6413 14.79931110 56530
KUIPER-00132            
1 65763U 25217B   26282.73076921  .00031739  00000+0  79294-3 0  9995
2 65763  51.8535  42.0872 0005832   7.0006 353.1062 15.39854092 58436
KUIPER-00133            
1 65764U 25217C   26283.04596742  .00003257  00000+0  45599-3 0  9994
2 65764  51.9043 185.3094 0001033  82.8722 277.2358 14.79939623 56488
KUIPER-00139            
1 65765U 25217D   26283.35112990 -.00004354  00000+0 -54231-3 0  9992
2 65765  51.8982 151.3740 0001291  95.4252 264.6857 14.79941772 56982
KUIPER-00142            
1 65766U 25217E   26283.36871669  .00000128  00000+0  45802-4 0  9997
2 65766  51.9002 166.2654 0001208  98.8531 261.2568 14.79931592 56779
KUIPER-00145            
1 65767U 25217F   26282.42060646  .00001810  00000+0  26634-3 0  9999
2 65767  51.9011 172.9843 0001118  91.8497 268.2593 14.79931873 56595
KUIPER-00147            
1 65768U 25217G   26283.39708069  .00001530  00000+0  22969-3 0  9991
2 65768  51.8984 171.1381 0001337  83.1651 276.9463 14.79928814 56707
KUIPER-00148            
1 65769U 25217H   26282.94325656  .00002321  00000+0  33335-3 0  9997
2 65769  51.9048 155.7085 0000859 103.3415 256.7644 14.79938961 56880
KUIPER-00150            
1 65770U 25217J   26283.45383582  .00001965  00000+0  28664-3 0  9990
2 65770  51.9009 180.9395 0000888  90.0096 270.0968 14.79936016 56575
KUIPER-00151            
1 65771U 25217K   26283.39439988  .00000752  00000+0  12771-3 0  9991
2 65771  51.9000 173.6997 0000770  96.4732 263.6318 14.79928757 56672
KUIPER-00152            
1 65772U 25217L   26283.37411511  .00001492  00000+0  22474-3 0  9995
2 65772  51.8995 161.2700 0001183  89.2156 270.8942 14.79931950 56840
KUIPER-00153            
1 65773U 25217M   26283.37951745  .00000932  00000+0  15131-3 0  9994
2 65773  51.9046 156.3381 0000986  97.8375 262.2700 14.79931900 56917
KUIPER-00155            
1 65774U 25217N   26283.27411095  .00002187  00000+0  31579-3 0  9991
2 65774  51.9006 129.2662 0000838 113.4607 246.6444 14.79936354 57284
KUIPER-00156            
1 65775U 25217P   26283.34574680  .00001770  00000+0  26115-3 0  9997
2 65775  51.9020 156.4715 0001066  99.9159 260.1924 14.79938277 56904
KUIPER-00165            
1 65778U 25217S   26283.40247614  .00002881  00000+0  40670-3 0  9997
2 65778  51.8999 166.1468 0000802 102.2561 257.8491 14.79939996 56772
KUIPER-00166            
1 65779U 25217T   26283.38220904  .00001770  00000+0  26108-3 0  9994
2 65779  51.9012 153.8026 0000939 103.0963 257.0104 14.79938339 56941
KUIPER-00167            
1 65780U 25217U   26282.91896692  .00001052  00000+0  16704-3 0  9991
2 65780  51.8958 178.1562 0001277  81.2898 278.8208 14.79931440 56566
KUIPER-00168            
1 65781U 25217V   26282.66774428  .00000619  00000+0  11018-3 0  9997
2 65781  51.8999 161.9019 0000838 102.4094 257.6962 14.79930373 56774
KUIPER-00169            
1 65782U 25217W   26283.40518676  .00001820  00000+0  26772-3 0  9990
2 65782  51.9007 163.6547 0000833  97.3448 262.7609 14.79932727 56816
KUIPER-00170            
1 65783U 25217X   26283.39975901 -.00005255  00000+0 -66060-3 0  9999
2 65783  51.8997 168.6168 0000741  96.2349 263.8697 14.79944410 56747
KUIPER-00172            
1 65785U 25217Z   26282.37193094 -.00002279  00000+0 -27006-3 0  9993
2 65785  51.8987 155.6944 0001350  93.1489 266.9628 14.79934619 56832
KUIPER-00173            
1 65786U 25217AA  26283.37141110  .00002877  00000+0  40624-3 0  9990
2 65786  51.9005 163.7919 0001191  82.4358 277.6739 14.79940879 56800
KUIPER-00174            
1 65787U 25217AB  26282.97161212  .00002313  00000+0  33218-3 0  9997
2 65787  51.9025 160.6303 0000953 113.9596 246.1466 14.79946948 56817
KUIPER-00176            
1 65788U 25217AC  26283.42816498  .00000669  00000+0  11681-3 0  9994
2 65788  51.8999 173.5210 0001177  88.9227 271.1870 14.79931491 56676
KUIPER-00101            
1 65947U 25228A   26282.89999237  .00001978  00000+0  28840-3 0  9995
2 65947  51.8979 133.2975 0001189  94.2037 265.9061 14.79934464 54959
KUIPER-00113            
1 65948U 25228B   26283.27679825  .00002269  00000+0  32652-3 0  9997
2 65948  51.8970 126.6535 0001108 109.7157 250.3925 14.79935847 55072
KUIPER-00117            
1 65949U 25228C   26282.29492428  .00000951  00000+0  15372-3 0  9997
2 65949  51.8968 133.4948 0001154 102.0021 258.1071 14.79932697 54898
KUIPER-00121            
1 65950U 25228D   26283.27950020  .00000689  00000+0  11934-3 0  9993
2 65950  51.8979 124.1667 0001177 106.9726 253.1366 14.79929556 55115
KUIPER-00122            
1 65951U 25228E   26282.32329085  .00001028  00000+0  16381-3 0  9999
2 65951  51.8995 138.3609 0000768 109.7176 250.3869 14.79929455 54835
KUIPER-00123            
1 65952U 25228F   26283.30247038  .00000463  00000+0  89705-4 0  9999
2 65952  51.8975 134.0374 0001076 108.0462 252.0618 14.79933291 54978
KUIPER-00124            
1 65953U 25228G   26283.31055120  .00003162  00000+0  44348-3 0  9992
2 65953  51.8984 126.4928 0001220 111.1386 248.9707 14.79941349 55089
KUIPER-00125            
1 65954U 25228H   26283.25921995  .00000616  00000+0  10984-3 0  9998
2 65954  51.8999 111.7766 0001412 116.8574 243.2533 14.79931664 55283
KUIPER-00126            
1 65955U 25228J   26283.27140503  .00001223  00000+0  18940-3 0  9994
2 65955  51.8990 131.7022 0001107 103.2032 256.9054 14.79937442 55001
KUIPER-00127            
1 65956U 25228K   26283.26261043  .00002204  00000+0  31799-3 0  9994
2 65956  51.9007 124.2250 0001184 106.0348 254.0745 14.79936852 55110
KUIPER-00128            
1 65957U 25228L   26282.57044347  .00000830  00000+0  13788-3 0  9995
2 65957  51.9012 127.3527 0000890 105.9371 254.1689 14.79931026 55009
KUIPER-00129            
1 65958U 25228M   26283.28489912  .00002384  00000+0  34159-3 0  9997
2 65958  51.8995 119.1704 0001074 105.8471 254.2610 14.79937462 55184
KUIPER-00130            
1 65959U 25228N   26283.24844305  .00001310  00000+0  20084-3 0  9995
2 65959  51.9019 121.8834 0000892 114.5613 245.5443 14.79933255 45439
KUIPER-00134            
1 65960U 25228P   26282.24426490  .00025720  00000+0  68267-3 0  9993
2 65960  51.8711   3.9113 0004899 351.9464   8.1444 15.38115243 56690
KUIPER-00135            
1 65961U 25228Q   26283.28221227  .00001003  00000+0  16057-3 0  9998
2 65961  51.9018 121.7832 0000900 112.2308 247.8750 14.79937264 55143
KUIPER-00136            
1 65962U 25228R   26283.25110753  .00000761  00000+0  12879-3 0  9995
2 65962  51.9005 119.3637 0001198 107.1363 252.9731 14.79943461 55175
KUIPER-00137            
1 65963U 25228S   26282.84865843  .00002124  00000+0  30754-3 0  9994
2 65963  51.9028 118.6599 0001236 106.3739 253.7359 14.79935797 55157
KUIPER-00138            
1 65964U 25228T   26283.22274184  .00001435  00000+0  21723-3 0  9990
2 65964  51.8962 114.3904 0001012 120.5312 239.5751 14.79940022 55249
KUIPER-00140            
1 65965U 25228U   26282.81488210  .00000826  00000+0  13730-3 0  9994
2 65965  51.8978 118.7912 0001197 115.2644 244.8443 14.79936677 55144
KUIPER-00141            
1 65966U 25228V   26282.82028873  .00002088  00000+0  30282-3 0  9994
2 65966  51.9014 113.8518 0000710 116.4468 243.6568 14.79935007 55211
KUIPER-00146            
1 65967U 25228W   26283.25648604  .00000441  00000+0  86914-4 0  9998
2 65967  51.9019 114.4372 0001258 106.4957 253.6143 14.79914226 55245
KUIPER-00149            
1 65968U 25228X   26283.22815746  .00002171  00000+0  31364-3 0  9999
2 65968  51.8990 109.4301 0000941 113.6365 246.4696 14.79933479 55312
KUIPER-00154            
1 65969U 25228Y   26282.79190565  .00001997  00000+0  29086-3 0  9999
2 65969  51.8988 108.8404 0001006 117.9045 242.2019 14.79934108 55281
KUIPER-00157            
1 65970U 25228Z   26283.60947107  .00028013  00000+0  40258-2 0  9995
2 65970  51.9001 107.9858 0000786 107.8754 252.2293 14.76211788 55365
KUIPER-00144            
1 67133U 25301A   26283.04326408  .00003202  00000+0  44872-3 0  9993
2 67133  51.9009 187.7561 0001155  83.5266 276.5828 14.79940129 45613
KUIPER-00164            
1 67134U 25301B   26283.50249585  .00000639  00000+0  11283-3 0  9996
2 67134  51.9029 198.2483 0000965  80.9121 279.1950 14.79927933 45685
KUIPER-00175            
1 67135U 25301C   26283.42006629  .00001717  00000+0  25415-3 0  9998
2 67135  51.9002 181.0410 0001064  83.3002 276.8082 14.79934604 45811
KUIPER-00179            
1 67136U 25301D   26282.96494249  .00001510  00000+0  22700-3 0  9991
2 67136  51.8995 198.0472 0000844  85.8063 274.2996 14.79932497 45642
KUIPER-00181            
1 67137U 25301E   26283.49170382 -.00000086  00000+0  17795-4 0  9997
2 67137  51.9032 208.2911 0001078  65.8673 294.2402 14.79939808 45527
KUIPER-00183            
1 67138U 25301F   26283.42276518 -.00002092  00000+0 -24548-3 0  9992
2 67138  51.9026 178.6000 0001054  90.0595 270.0488 14.79941609 45941
KUIPER-00184            
1 67139U 25301G   26283.47680856  .00002646  00000+0  37598-3 0  9994
2 67139  51.8990 190.7965 0000982  89.4540 270.6535 14.79934722 45887
KUIPER-00186            
1 67140U 25301H   26283.52546053  .00001699  00000+0  25182-3 0  9995
2 67140  51.9008 208.1515 0000609  78.7873 281.3158 14.79930773 45377
KUIPER-00187            
1 67141U 25301J   26283.52277637  .00001597  00000+0  23842-3 0  9993
2 67141  51.9055 210.6907 0000927  86.8055 273.3014 14.79934824 45337
KUIPER-00188            
1 67142U 25301K   26282.91631139  .00002950  00000+0  41577-3 0  9996
2 67142  51.9023 180.9586 0001176  84.5001 275.6096 14.79936773 45697
KUIPER-00191            
1 67143U 25301L   26283.49710402  .00002421  00000+0  34642-3 0  9990
2 67143  51.9012 203.2748 0001007  78.6502 281.4574 14.79935201 45464
KUIPER-00196            
1 67144U 25301M   26283.40787534 -.00000778  00000+0 -73067-4 0  9992
2 67144  51.8957 161.1139 0001226  94.3073 265.8029 14.79929755 46019
KUIPER-00204            
1 67145U 25301N   26283.42547025  .00000622  00000+0  11062-3 0  9996
2 67145  51.8995 176.0820 0001056  93.0538 267.0546 14.79928012 45929
KUIPER-00210            
1 67146U 25301P   26282.99044041  .00004021  00000+0  55666-3 0  9993
2 67146  51.9006 205.4571 0000563 116.7185 243.3835 14.79894361 45531
KUIPER-00221            
1 67147U 25301Q   26283.48900854  .00002177  00000+0  31446-3 0  9992
2 67147  51.9018 210.7944 0000639  92.4641 267.6395 14.79935675 45331
KUIPER-00232            
1 67148U 25301R   26283.47143149  .00000747  00000+0  12702-3 0  9993
2 67148  51.8994 195.8756 0000873  85.0990 275.0072 14.79931321 45534
KUIPER-00241            
1 67149U 25301S   26283.49440665  .00001659  00000+0  24653-3 0  9990
2 67149  51.9036 205.8072 0001132  72.3654 287.7432 14.79936105 45738
KUIPER-00245            
1 67150U 25301T   26283.08113982  .00001130  00000+0  17717-3 0  9993
2 67150  51.9031 215.1415 0000918  88.1087 271.9980 14.79934834 45231
KUIPER-00246            
1 67151U 25301U   26283.46872639  .00002050  00000+0  29779-3 0  9990
2 67151  51.9003 198.3603 0001080  87.0395 273.0691 14.79931960 45524
KUIPER-00247            
1 67152U 25301V   26283.47950869  .00000402  00000+0  81762-4 0  9994
2 67152  51.8949 188.2473 0001172  84.2797 275.8299 14.79931403 45642
KUIPER-00248            
1 67153U 25301W   26283.43086564  .00002611  00000+0  37131-3 0  9997
2 67153  51.8982 171.1132 0001002  92.4447 267.6630 14.79935217 46048
KUIPER-00249            
1 67154U 25301X   26282.94197921 -.00000066  00000+0  20428-4 0  9998
2 67154  51.8990 188.2113 0001214  80.4598 279.6502 14.79928772 45593
KUIPER-00250            
1 67155U 25301Y   26283.49979271  .00001839  00000+0  27015-3 0  9992
2 67155  51.9000 200.6939 0001158  81.0905 279.0188 14.79933866 45503
KUIPER-00251            
1 67156U 25301Z   26283.44575328  .00001507  00000+0  22666-3 0  9992
2 67156  51.9019 188.5134 0001003  78.8114 281.2961 14.79935192 45823
KUIPER-00252            
1 67157U 25301AA  26282.97034425  .00001296  00000+0  19901-3 0  9991
2 67157  51.8997 193.0676 0001212  72.1200 287.9895 14.79930587 45535
KUIPER-00261            
1 67158U 25301AB  26283.46603744  .00001551  00000+0  23238-3 0  9995
2 67158  51.9021 200.9449 0000955  67.3449 292.7614 14.79934438 45469
KUIPER-00265            
1 67159U 25301AC  26283.55114962  .00001761  00000+0  25999-3 0  9994
2 67159  51.9021 215.5444 0000808  86.4955 273.6099 14.79933476 45307
KUIPER-00159            
1 67764U 26030A   26283.22141144  .00002576  00000+0  36684-3 0  9990
2 67764  51.9019 295.7389 0001736  13.6757 346.4253 14.79934724 37621
KUIPER-00160            
1 67765U 26030B   26283.28384540 -.00000059  00000+0  21204-4 0  9994
2 67765  51.8974 276.7065 0000386  34.5050 325.5937 14.79931713 37890
KUIPER-00177            
1 67766U 26030C   26282.48506372  .00006770  00000+0  91548-3 0  9997
2 67766  51.9022 347.7254 0000183  47.6172 312.4806 14.79962214 36833
KUIPER-00178            
1 67767U 26030D   26282.45131699  .00002235  00000+0  32197-3 0  9998
2 67767  51.9025 347.8560 0000267  27.8078 332.2899 14.79942077 36833
KUIPER-00180            
1 67768U 26030E   26282.45671143  .00000748  00000+0  12708-3 0  9995
2 67768  51.9005 342.8205 0000252  69.6255 290.4735 14.79928603 36909
KUIPER-00197            
1 67769U 26030F   26283.35617100 -.00000725  00000+0 -66134-4 0  9999
2 67769  51.8992 318.8607 0000562  42.9948 317.1059 14.79930817 37312
KUIPER-00198            
1 67770U 26030G   26283.44398340  .00000442  00000+0  87024-4 0  9998
2 67770  51.8988 330.9428 0000292  26.5478 333.5499 14.79934078 37156
KUIPER-00199            
1 67771U 26030H   26283.58335648 -.00069315  00000+0 -91048-2 0  9991
2 67771  51.8979 269.2259 0000676 180.0388 166.8919 14.80174128  4786
KUIPER-00200            
1 67772U 26030J   26283.39264113  .00002407  00000+0  34457-3 0  9998
2 67772  51.8998 316.2158 0000423  45.1900 314.9097 14.79935921 37356
KUIPER-00203            
1 67773U 26030K   26283.49264721  .00002162  00000+0  31248-3 0  9998
2 67773  51.9070 348.3633 0000288  77.3918 282.7076 14.79939161 36918
KUIPER-00205            
1 67774U 26030L   26283.39532032  .00002543  00000+0  36240-3 0  9991
2 67774  51.9005 313.6739 0000460  54.9078 305.1928 14.79931295 37398
KUIPER-00208            
1 67775U 26030M   26283.46695621  .00002746  00000+0  38900-3 0  9994
2 67775  51.8995 340.8481 0000067 138.2393 221.8575 14.79937823 37015
KUIPER-00209            
1 67776U 26030N   26283.43590108  .00002667  00000+0  37868-3 0  9990
2 67776  51.9006 338.5911 0000260  42.7571 317.3411 14.79932649 37048
KUIPER-00213            
1 67777U 26030P   26283.40483286  .00002640  00000+0  37513-3 0  9994
2 67777  51.8971 336.1774 0000320  50.9767 309.1224 14.79934546 37077
KUIPER-00214            
1 67778U 26030Q   26283.44128945  .00002635  00000+0  37450-3 0  9991
2 67778  51.9023 333.5620 0000331  57.5293 302.5702 14.79936846 37115
KUIPER-00215            
1 67779U 26030R   26282.40805439  .00000374  00000+0  78033-4 0  9998
2 67779  51.9000 325.4798 0000280  25.0611 335.0365 14.79931198 37148
KUIPER-00218            
1 67780U 26030S   26283.43857932  .00002593  00000+0  36900-3 0  9990
2 67780  51.8993 335.9615 0000334  48.4619 311.6372 14.79934096 37082
KUIPER-00220            
1 67781U 26030T   26283.26297327  .00002493  00000+0  35590-3 0  9991
2 67781  51.8966 311.7570 0000472  49.9889 310.1115 14.79933161 37400
KUIPER-00222            
1 67782U 26030U   26283.41023795  .00000495  00000+0  93996-4 0  9990
2 67782  51.8970 331.2478 0000546  79.2209 280.8815 14.79929839 37142
KUIPER-00223            
1 67783U 26030V   26283.38454103  .00000814  00000+0  13571-3 0  9993
2 67783  51.9020 323.6792 0000423  49.2964 310.8035 14.79933343 37258
KUIPER-00225            
1 67784U 26030W   26282.43374948  .00000594  00000+0  10691-3 0  9992
2 67784  51.8996 333.0230 0000313  47.3112 312.7877 14.79930764 37039
KUIPER-00226            
1 67785U 26030X   26282.81862292  .00000158  00000+0  49703-4 0  9992
2 67785  51.8975 318.7066 0000895  51.9351 308.1692 14.79932751 37273
KUIPER-00259            
1 67786U 26030Y   26283.41291289  .00002686  00000+0  38114-3 0  9993
2 67786  51.8993 328.5959 0000368  44.1447 315.9545 14.79938949 37187
KUIPER-00260            
1 67787U 26030Z   26283.41562418  .00000582  00000+0  10532-3 0  9996
2 67787  51.9026 326.1993 0000318  25.3168 334.7810 14.79934088 37122
KUIPER-00262            
1 67788U 26030AA  26283.38185509  .00000062  00000+0  37149-4 0  9992
2 67788  51.9012 326.2664 0000246  59.5187 300.5800 14.79925410 37213
KUIPER-00266            
1 67789U 26030AB  26283.41830933  .00002520  00000+0  35931-3 0  9992
2 67789  51.9004 323.5940 0000337  38.7318 321.3668 14.79939943 37251
KUIPER-00268            
1 67790U 26030AC  26283.38724854  .00001147  00000+0  17946-3 0  9994
2 67790  51.9056 321.2834 0000255  37.9155 322.1825 14.79938362 37287
KUIPER-00270            
1 67791U 26030AD  26283.22920901  .00000981  00000+0  15771-3 0  9998
2 67791  51.9000 311.9235 0000852  25.0240 335.0763 14.79933366 37401
KUIPER-00274            
1 67792U 26030AE  26282.52963939  .00002580  00000+0  36719-3 0  9991
2 67792  51.9024 337.5351 0000311  49.4300 310.6690 14.79938945 36986
KUIPER-00275            
1 67793U 26030AF  26283.36154722  .00002381  00000+0  34108-3 0  9996
2 67793  51.9000 313.8471 0000373  16.9336 343.1639 14.79949171 37389
KUIPER-00276            
1 67794U 26030AG  26283.38993762  .00002684  00000+0  38092-3 0  9996
2 67794  51.8993 318.6957 0000461  47.3234 312.7767 14.79940813 37327
KUIPER-00279            
1 67795U 26030AH  26283.23190647  .00002436  00000+0  34843-3 0  9997
2 67795  51.9036 309.4530 0000365  47.5286 312.5707 14.79938789 37437
KUIPER-00131            
1 68573U 26072A   26283.63320842  .00003175  00000+0  44523-3 0  9991
2 68573  51.9003  45.1486 0000414 122.8894 237.2108 14.79939694 28217
KUIPER-00189            
1 68574U 26072B   26282.65132819  .00002743  00000+0  38865-3 0  9990
2 68574  51.9000  51.9639 0000439  91.7133 268.3880 14.79933398 28034
KUIPER-00192            
1 68575U 26072C   26283.63590456  .00003121  00000+0  43813-3 0  9995
2 68575  51.9008  42.6307 0000502 132.4466 227.6539 14.79939927 28252
KUIPER-00193            
1 68576U 26072D   26283.57917845  .00000476  00000+0  91426-4 0  9998
2 68576  51.9059  32.9411 0000393 130.6064 229.4933 14.79929041 28387
KUIPER-00194            
1 68577U 26072E   26283.60485532  .00000975  00000+0  15697-3 0  9995
2 68577  51.9031  40.2966 0000866 114.3253 245.7800 14.79922849 28281
KUIPER-00229            
1 68578U 26072F   26283.59945351  .00001331  00000+0  20357-3 0  9990
2 68578  51.9009  45.3006 0000527 117.3558 242.7458 14.79930973 28219
KUIPER-00230            
1 68579U 26072G   26283.45343558 -.00000787  00000+0 -74252-4 0  9997
2 68579  51.9053 353.4432 0000577 140.1811 219.9194 14.79911589 28929
KUIPER-00231            
1 68580U 26072H   26283.56157866  .00003290  00000+0  46025-3 0  9992
2 68580  51.8998  18.0347 0001129 182.6322 177.4634 14.79940754 28584
KUIPER-00234            
1 68581U 26072J   26282.82824695  .00000791  00000+0  13281-3 0  9993
2 68581  51.9014  43.6924 0000758 153.6031 206.4970 14.79931123 28162
KUIPER-00236            
1 68582U 26072K   26283.48456595  .00000714  00000+0  12268-3 0  9996
2 68582  51.9024 355.8092 0000709 116.1017 244.0018 14.79937845 28890
KUIPER-00244            
1 68583U 26072L   26282.60268559  .00000703  00000+0  12118-3 0  9993
2 68583  51.9013  34.7138 0000428 129.6962 230.4038 14.79931427 28272
KUIPER-00253            
1 68584U 26072M   26283.61293232  .00003301  00000+0  46169-3 0  9992
2 68584  51.9049  32.7805 0000458 134.1632 225.9368 14.79940563 28387
KUIPER-00254            
1 68585U 26072N   26283.57645262  .00003174  00000+0  44494-3 0  9999
2 68585  51.9041  35.4379 0000476 127.2143 232.8863 14.79947288 28340
KUIPER-00263            
1 68586U 26072P   26283.52513290  .00000517  00000+0  96830-4 0  9990
2 68586  51.9029  20.7295 0000350  87.6190 272.4813 14.79931454 28548
KUIPER-00269            
1 68587U 26072Q   26283.58995369  .00001408  00000+0  21368-3 0  9991
2 68587  51.9035  22.8476 0000318 132.7399 227.3590 14.79934588 28527
KUIPER-00272            
1 68588U 26072R   26283.60214137  .00001934  00000+0  28266-3 0  9990
2 68588  51.8991  42.7547 0000536 126.9692 233.1320 14.79935655 28242
KUIPER-00285            
1 68589U 26072S   26283.55619688  .00002199  00000+0  31731-3 0  9990
2 68589  51.9077  23.0871 0000693 115.5742 244.5293 14.79933874 28511
KUIPER-00286            
1 68590U 26072T   26283.55889014  .00001574  00000+0  23540-3 0  9999
2 68590  51.9035  20.4972 0000323  90.6356 269.4644 14.79932442 28554
KUIPER-00289            
1 68591U 26072U   26283.55079401  .00003221  00000+0  45132-3 0  9993
2 68591  51.8997  28.0036 0000398 131.7095 228.3902 14.79937482 28443
KUIPER-00290            
1 68592U 26072V   26283.58455670 -.00000751  00000+0 -69540-4 0  9990
2 68592  51.9034  27.8688 0000057 145.4714 214.6252 14.79932651 28459
KUIPER-00293            
1 68593U 26072W   26283.60753516 -.00000035  00000+0  24502-4 0  9997
2 68593  51.8996  37.7311 0001402 114.2181 245.8928 14.79929923 28315
KUIPER-00294            
1 68594U 26072X   26283.55348610  .00003132  00000+0  43963-3 0  9998
2 68594  51.9008  25.4946 0000288 107.8036 252.2958 14.79939100 28488
KUIPER-00296            
1 68595U 26072Y   26283.53860427  .00001280  00000+0  19690-3 0  9994
2 68595  51.9040   8.0841 0000254 100.9068 259.1923 14.79930527 28727
KUIPER-00297            
1 68596U 26072Z   26283.57376118 -.00000508  00000+0 -37581-4 0  9992
2 68596  51.9011  37.8836 0000797 158.5495 201.5501 14.79931044 28318
KUIPER-00300            
1 68597U 26072AA  26283.61023623 -.00000405  00000+0 -24094-4 0  9999
2 68597  51.9033  35.2651 0000292 146.7452 213.3528 14.79931010 28359
KUIPER-00301            
1 68598U 26072AB  26282.59390005  .00070119  00000+0  97689-2 0  9992
2 68598  51.9052   9.7491 0000367 234.3866 125.7061 14.77073248 28610
KUIPER-00304            
1 68599U 26072AC  26283.50263046  .00001701  00000+0  27160-3 0  9998
2 68599  51.9015   7.6881 0000842  50.6335 309.4700 14.76643586 28728
KUIPER-00317            
1 68600U 26072AD  26283.58725455  .00000753  00000+0  12770-3 0  9993
2 68600  51.9015  25.3503 0000239 104.1466 255.9523 14.79933380 28487
KUIPER-00320            
1 68601U 26072AE  26283.58185605  .00001541  00000+0  23116-3 0  9993
2 68601  51.9039  30.3990 0000775  94.9549 265.1502 14.79933011 28417
KUIPER-00299            
1 68864U 26095A   26282.25705775  .00001999  00000+0  29114-3 0  9999
2 68864  51.8977 106.2124 0000868 121.3519 238.7529 14.79936203 24502
KUIPER-00353            
1 68865U 26095B   26282.50959602  .00001912  00000+0  27971-3 0  9992
2 68865  51.8993  90.1242 0000700 126.2330 233.8697 14.79934162 24754
KUIPER-00357            
1 68866U 26095C   26283.21057386  .00002541  00000+0  36225-3 0  9991
2 68866  51.9008  94.5365 0001288 116.2942 243.8153 14.79933057 24757
KUIPER-00364            
1 68867U 26095D   26283.17411793  .00002391  00000+0  34245-3 0  9996
2 68867  51.9028  97.2261 0001098 115.0632 245.0445 14.79936384 24717
KUIPER-00375            
1 68868U 26095E   26282.87831368 -.00000381  00000+0 -21005-4 0  9997
2 68868  51.8998  91.0008 0000876 123.2609 236.8437 14.79931769 24779
KUIPER-00433            
1 68869U 26095F   26283.19977835  .00001217  00000+0  18865-3 0  9990
2 68869  51.8978 104.5729 0001236 114.8734 245.2357 14.79939584 24615
KUIPER-00437            
1 68870U 26095G   26282.67247047  .00001797  00000+0  28517-3 0  9997
2 68870  51.9016  59.0036 0000520  99.1622 260.9398 14.76638694 25202
KUIPER-00448            
1 68871U 26095H   26283.17680915 -.00000084  00000+0  18058-4 0  9998
2 68871  51.9033  94.6857 0000852 129.2018 230.9020 14.79931044 24745
KUIPER-00459            
1 68872U 26095J   26282.75134959  .00002295  00000+0  32988-3 0  9996
2 68872  51.9007  84.1272 0000664 120.3770 239.7258 14.79938663 24856
KUIPER-00468            
1 68873U 26095K   26282.79661218  .00001684  00000+0  26909-3 0  9991
2 68873  51.8979  81.9024 0000390 213.5553 146.5383 14.76650197 24892
KUIPER-00476            
1 68874U 26095L   26283.65079148  .00002961  00000+0  41721-3 0  9991
2 68874  51.9019  59.9999 0000703 138.1254 221.9762 14.79939528 25276
KUIPER-00478            
1 68875U 26095M   26282.74864373  .00002274  00000+0  32712-3 0  9990
2 68875  51.8990  86.5686 0000939 123.4449 236.6603 14.79937707 24821
KUIPER-00480            
1 68876U 26095N   26282.71758244  .00002253  00000+0  32448-3 0  9990
2 68876  51.9030  84.2305 0000627 122.7645 237.3377 14.79934551 24858
KUIPER-00482            
1 68877U 26095P   26281.89641863  .00001286  00000+0  19765-3 0  9999
2 68877  51.9012  97.8417 0001397 114.4427 245.6682 14.79927595 24596
KUIPER-00483            
1 68878U 26095Q   26283.23352629 -.00001121  00000+0 -11805-3 0  9996
2 68878  51.9000 104.3873 0000689 120.4817 239.6213 14.79929103 24610
KUIPER-00488            
1 68879U 26095R   26282.74595219  .00002210  00000+0  31889-3 0  9998
2 68879  51.8993  89.0896 0001074 126.8716 233.2345 14.79932071 24784
KUIPER-00489            
1 68880U 26095S   26281.87614957  .00002132  00000+0  30861-3 0  9996
2 68880  51.8971  85.4097 0001139 132.3256 227.7803 14.79932721 24765
KUIPER-00499            
1 68881U 26095T   26282.71488353  .00002286  00000+0  32869-3 0  9990
2 68881  51.8985  86.7668 0000649 120.1929 239.9098 14.79938258 24814
KUIPER-00500            
1 68882U 26095U   26283.30375476  .00002136  00000+0  30913-3 0  9990
2 68882  51.9007 101.6178 0000832 132.5457 227.5576 14.79934413 24667
KUIPER-00502            
1 68883U 26095V   26282.71317836  .00002307  00000+0  33157-3 0  9994
2 68883  51.9000  80.4801 0000986 124.4172 235.6884 14.79929214 24904
KUIPER-00503            
1 68884U 26095W   26283.20517545 -.00000030  00000+0  25070-4 0  9997
2 68884  51.8950  99.5184 0001076 116.6114 243.4959 14.79931502 24681
KUIPER-00504            
1 68885U 26095X   26283.23085729  .00002310  00000+0  33189-3 0  9996
2 68885  51.8989 106.9481 0000746 120.2858 239.8178 14.79931391 24583
KUIPER-00505            
1 68886U 26095Y   26282.53257586  .00002145  00000+0  31017-3 0  9995
2 68886  51.8997 100.0358 0000605 115.2248 244.8778 14.79940530 24613
KUIPER-00507            
1 68887U 26095Z   26282.45894420  .00001046  00000+0  16623-3 0  9996
2 68887  51.9006  90.3443 0000761 122.9732 237.1304 14.79931409 24747
KUIPER-00511            
1 68888U 26095AA  26282.72028695  .00000048  00000+0  35310-4 0  9996
2 68888  51.8983  81.7969 0001040 120.5895 239.5170 14.79932866 24883
KUIPER-00512            
1 68889U 26095AB  26282.76623267  .00002071  00000+0  30057-3 0  9997
2 68889  51.9001 101.5045 0000790 126.4013 233.7023 14.79926542 24618
KUIPER-00519            
1 68890U 26095AC  26282.77701213  .00002181  00000+0  31495-3 0  9997
2 68890  51.9014  91.5223 0000669 117.1361 242.9670 14.79946615 24756
KUIPER-00521            
1 68891U 26095AD  26283.18050145  .00000750  00000+0  12734-3 0  9990
2 68891  51.9032  83.4336 0000706 117.0000 243.1035 14.79935326 24905
KUIPER-00524            
1 68892U 26095AE  26283.21326245  .00001161  00000+0  18128-3 0  9992
2 68892  51.8976  91.9901 0000970 118.3997 241.7063 14.79936565 24783
KUIPER-00370            
1 68919U 26098A   26283.24126457  .00000183  00000+0  53017-4 0  9991
2 68919  51.8943 269.2505 0001136  72.3963 287.7124 14.79932386 24521
KUIPER-00380            
1 68920U 26098B   26283.24937327  .00002766  00000+0  39165-3 0  9995
2 68920  51.8971 261.8511 0000735  43.8102 316.2919 14.79935918 24626
KUIPER-00386            
1 68921U 26098C   26283.26355852  .00002698  00000+0  38279-3 0  9994
2 68921  51.8987 264.2861 0000730  49.8384 310.2642 14.79932892 24593
KUIPER-00388            
1 68922U 26098D   26283.16837242 -.00001133  00000+0 -11969-3 0  9994
2 68922  51.8993 274.8724 0000698  37.6789 322.4222 14.79927989 24436
KUIPER-00405            
1 68923U 26098E   26283.25546562 -.00000867  00000+0 -84728-4 0  9994
2 68923  51.8985 271.8422 0001081 357.7357   2.3600 14.79927611 24485
KUIPER-00408            
1 68924U 26098F   26283.17914008  .00000628  00000+0  11135-3 0  9994
2 68924  51.8998 264.5885 0000958  39.9706 320.1326 14.79928517 24584
KUIPER-00409            
1 68925U 26098G   26283.15685769  .00002643  00000+0  37557-3 0  9997
2 68925  51.9019 269.7793 0000544  62.8219 297.2799 14.79931149 24505
KUIPER-00410            
1 68926U 26098H   26283.15956324 -.00000867  00000+0 -84733-4 0  9993
2 68926  51.8947 267.2315 0000412  27.3632 332.7352 14.79925223 24547
KUIPER-00412            
1 68927U 26098J   26283.62349061  .00001872  00000+0  27444-3 0  9990
2 68927  51.9029 257.7276 0000834  60.1978 299.9068 14.79934037 24716
KUIPER-00413            
1 68928U 26098K   26283.23858271  .00002544  00000+0  36258-3 0  9996
2 68928  51.8988 271.8939 0000699  15.5654 344.5329 14.79936173 24481
KUIPER-00414            
1 68929U 26098L   26283.26156958  .00000819  00000+0  13641-3 0  9997
2 68929  51.8958 281.8698 0000158 353.0745   7.0215 14.79931627 24342
KUIPER-00415            
1 68930U 26098M   26283.14537512 -.00001343  00000+0 -14726-3 0  9995
2 68930  51.8987 264.8267 0000729  59.0414 301.0620 14.79922397 24575
KUIPER-00416            
1 68931U 26098N   26283.23071041 -.00003811  00000+0 -47120-3 0  9992
2 68931  51.9007 255.7977 0000931 129.7329 230.3715 14.79924476 24706
KUIPER-00420            
1 68932U 26098P   26283.62618342  .00002514  00000+0  35864-3 0  9996
2 68932  51.9002 255.1597 0000706  61.7477 298.3556 14.79934642 24751
KUIPER-00421            
1 68933U 26098Q   26282.33770641  .00002052  00000+0  29798-3 0  9991
2 68933  51.9006 265.8450 0000764  63.7395 296.3646 14.79940868 24493
KUIPER-00425            
1 68934U 26098R   26283.27504389  .00002458  00000+0  35132-3 0  9999
2 68934  51.8982 269.2394 0000516  74.9097 285.1922 14.79929219 24523
KUIPER-00430            
1 68935U 26098S   26283.20480983  .00002513  00000+0  35844-3 0  9998
2 68935  51.9028 271.9587 0000668  52.4985 307.6039 14.79935366 24489
KUIPER-00431            
1 68936U 26098T   26283.26965759  .00000882  00000+0  14467-3 0  9999
2 68936  51.8983 274.2518 0000810  31.0157 329.0854 14.79932267 24459
KUIPER-00432            
1 68937U 26098U   26283.48031857  .00002895  00000+0  40858-3 0  9996
2 68937  51.8991 265.7186 0000639  59.9987 300.1039 14.79933093 24592
KUIPER-00434            
1 68938U 26098V   26283.24135241  .00001709  00000+0  27412-3 0  9997
2 68938  51.8999 271.3416 0000399 207.0725 153.0215 14.76423034 24495
KUIPER-00436            
1 68939U 26098W   26283.25816349  .00002726  00000+0  38633-3 0  9991
2 68939  51.8997 269.3151 0000573  57.7703 302.3315 14.79938412 24525
KUIPER-00438            
1 68940U 26098X   26283.46345485  .00001772  00000+0  26145-3 0  9999
2 68940  51.8997 265.9385 0000823  48.2408 311.8625 14.79917944 24585
KUIPER-00439            
1 68941U 26098Y   26283.44657237  .00002821  00000+0  39879-3 0  9993
2 68941  51.9013 266.0042 0000799  62.0279 298.0764 14.79937948 24586
KUIPER-00440            
1 68942U 26098Z   26283.13389427 -.00000785  00000+0 -74015-4 0  9994
2 68942  51.8998 259.8824 0001383  52.0892 308.0195 14.79929265 24646
KUIPER-00442            
1 68943U 26098AA  26283.46883735  .00002829  00000+0  40000-3 0  9997
2 68943  51.9016 260.9191 0000856  32.8318 327.2697 14.79930820 24652
KUIPER-00446            
1 68944U 26098AB  26283.43237668  .00002913  00000+0  41084-3 0  9990
2 68944  51.8982 263.5590 0001240   8.1236 351.9746 14.79940691 24611
KUIPER-00451            
1 68945U 26098AC  26283.28654065  .00001602  00000+0  23912-3 0  9992
2 68945  51.8986 274.1851 0000647  35.5736 324.5270 14.79931639 24455
KUIPER-00452            
1 68946U 26098AD  26283.16496019  .00000145  00000+0  48020-4 0  9992
2 68946  51.9030 262.2445 0000521 106.5476 253.5544 14.79927339 24610
KUIPER-00453            
1 68947U 26098AE  26283.25203830  .00005622  00000+0  76536-3 0  9997
2 68947  51.8993 259.2702 0000490 338.6825  21.4116 14.79961706 24669
KUIPER-00454            
1 68948U 26098AF  26283.23316837  .00007384  00000+0  99585-3 0  9994
2 68948  51.8988 276.9126 0001182  32.6229 327.4806 14.79964079 24412
KUIPER-00455            
1 68949U 26098AG  26283.25276689  .00002607  00000+0  37081-3 0  9993
2 68949  51.9005 274.3397 0000040 208.1092 151.9868 14.79931272 24457
KUIPER-00458            
1 68950U 26098AH  26283.23518736 -.00000009  00000+0  27901-4 0  9991
2 68950  51.8998 259.4402 0001110  55.3580 304.7487 14.79930611 24656
KUIPER-00282            
1 69267U 26118A   26283.10818941  .00002721  00000+0  38575-3 0  9993
2 69267  51.8955 252.4515 0000850  35.8661 324.2358 14.79931564 21178
KUIPER-00383            
1 69268U 26118B   26283.60050037 -.00000756  00000+0 -70219-4 0  9993
2 69268  51.8960 247.7957 0001007  48.7876 311.3173 14.79928765 21281
KUIPER-00527            
1 69269U 26118C   26283.16157662 -.00000474  00000+0 -33159-4 0  9996
2 69269  51.8968 249.8698 0000942  71.6997 288.4068 14.79929052 21211
KUIPER-00562            
1 69270U 26118D   26283.06835792  .00001364  00000+0  20795-3 0  9992
2 69270  51.9034 242.6058 0001002  66.2489 293.8578 14.79933145 21318
KUIPER-00570            
1 69271U 26118E   26283.62889110  .00002194  00000+0  31676-3 0  9990
2 69271  51.8995 252.7815 0000835  55.7193 304.3849 14.79933693 21200
KUIPER-00572            
1 69272U 26118F   26283.61737301  .00001823  00000+0  26809-3 0  9994
2 69272  51.9007 247.7235 0000711  62.0449 298.0585 14.79924688 21282
KUIPER-00581            
1 69273U 26118G   26282.66657909  .00000533  00000+0  98974-4 0  9994
2 69273  51.9024 256.9399 0000796 356.3393   3.7563 14.79932757 21165
KUIPER-00584            
1 69274U 26118H   26283.18725139  .00000736  00000+0  12559-3 0  9993
2 69274  51.9027 257.2473 0000829  59.0188 301.0855 14.79926828 21117
KUIPER-00587            
1 69275U 26118J   26283.62008450  .00000310  00000+0  69631-4 0  9995
2 69275  51.8993 245.2210 0001000  67.0321 293.0746 14.79930880 21320
KUIPER-00590            
1 69276U 26118K   26283.61469222  .00001848  00000+0  27129-3 0  9995
2 69276  51.9011 250.2593 0000779  42.8551 317.2472 14.79934466 21252
KUIPER-00592            
1 69277U 26118L   26283.59779512  .00003082  00000+0  43302-3 0  9992
2 69277  51.9020 250.2150 0000828  55.8905 304.2136 14.79938028 21255
KUIPER-00593            
1 69278U 26118M   26283.54915347  .00002478  00000+0  35386-3 0  9997
2 69278  51.8984 233.0398 0000265 352.5824   7.5134 14.79936471 21542
KUIPER-00594            
1 69279U 26118N   26283.07105735  .00002172  00000+0  31381-3 0  9990
2 69279  51.9026 240.1689 0000917  83.1702 276.9364 14.79938771 21349
KUIPER-00595            
1 69280U 26118P   26283.58291311  .00003066  00000+0  43094-3 0  9991
2 69280  51.8986 232.8434 0000486 352.6178   7.4777 14.79932639 21525
KUIPER-00596            
1 69281U 26118Q   26283.44047651 -.00000741  00000+0 -68184-4 0  9990
2 69281  51.9004 256.0217 0001032  43.2864 316.8179 14.79927827 21153
KUIPER-00597            
1 69282U 26118R   26283.58022407  .00000017  00000+0  31219-4 0  9991
2 69282  51.8972 235.3952 0001595  87.3113 272.8031 14.79929470 21450
KUIPER-00599            
1 69283U 26118S   26283.60317118  .00003108  00000+0  43646-3 0  9991
2 69283  51.9003 245.2128 0000972  41.9051 318.1986 14.79932777 21320
KUIPER-00600            
1 69284U 26118T   26283.07374050  .00002191  00000+0  31634-3 0  9996
2 69284  51.8983 237.5480 0001712  79.8754 280.2402 14.79934134 21382
KUIPER-00601            
1 69285U 26118U   26283.63157293  .00001329  00000+0  20333-3 0  9993
2 69285  51.9002 250.1751 0000884  60.4360 299.6691 14.79935353 21250
KUIPER-00602            
1 69286U 26118V   26283.09941090  .00001096  00000+0  17282-3 0  9990
2 69286  51.9000 244.9344 0000684  64.6986 295.4047 14.79930230 21287
KUIPER-00603            
1 69287U 26118W   26283.58632679 -.00000355  00000+0 -17581-4 0  9997
2 69287  51.9036 245.3821 0001258  82.0745 278.0360 14.79928352 21318
KUIPER-00605            
1 69288U 26118X   26283.10551958  .00000611  00000+0  10914-3 0  9991
2 69288  51.8984 254.9778 0000760  53.1447 306.9585 14.79932042 21144
KUIPER-00606            
1 69289U 26118Y   26283.09673758  .00002789  00000+0  39476-3 0  9995
2 69289  51.9005 247.5392 0000849  53.9952 306.1089 14.79932784 21242
KUIPER-00607            
1 69290U 26118Z   26283.56334137  .00001737  00000+0  25684-3 0  9992
2 69290  51.9006 235.4798 0001956  55.6808 304.4339 14.79939067 21453
KUIPER-00608            
1 69291U 26118AA  26283.57751140  .00001208  00000+0  18738-3 0  9996
2 69291  51.9002 237.7789 0001036  64.3452 295.7617 14.79934956 21426
KUIPER-00610            
1 69292U 26118AB  26283.60590107  .00002409  00000+0  34491-3 0  9993
2 69292  51.9022 242.7885 0000778  55.9802 304.1234 14.79935412 21359
KUIPER-00613            
1 69293U 26118AC  26283.18993728  .00002906  00000+0  41003-3 0  9992
2 69293  51.9000 254.6238 0000892  55.6532 304.4515 14.79934674 21156
KUIPER-00618            
1 69294U 26118AD  26283.57482961 -.00000663  00000+0 -57961-4 0  9999
2 69294  51.9005 240.4348 0001011 350.0426  10.0516 14.79926958 21387
KUIPER-00620            
1 69295U 26118AE  26283.58902034  .00002352  00000+0  33737-3 0  9998
2 69295  51.9025 242.8773 0000943  54.5938 305.5112 14.79936024 21351
KUIPER-00423            
1 69592U 26140A   26283.53425774  .00000395  00000+0  80829-4 0  9999
2 69592  51.9002 215.6014 0000997  81.7677 278.3398 14.79925450 18779
KUIPER-00428            
1 69593U 26140B   26283.58335648 -.00968733  00000+0 -38110-1 0  9999
2 69593  51.8829 201.2531 0005625 351.8746 191.8630 15.27730180  3491
KUIPER-00481            
1 69594U 26140C   26283.03927106 -.00002697  00000+0 -32487-3 0  9997
2 69594  51.9014 222.7960 0000928  36.9986 323.1040 14.79938339 18630
KUIPER-00490            
1 69595U 26140D   26283.55724119  .00002629  00000+0  37366-3 0  9998
2 69595  51.9024 225.4610 0000985  69.1356 290.9712 14.79935328 18649
KUIPER-00493            
1 69596U 26140E   26283.58561410  .00002097  00000+0  30406-3 0  9992
2 69596  51.9023 230.3870 0001510  27.3778 332.7264 14.79934506 18577
KUIPER-00496            
1 69597U 26140F   26283.54403765  .00003201  00000+0  44848-3 0  9990
2 69597  51.9021 214.3185 0001160  89.2627 270.8468 14.79953823 18793
KUIPER-00513            
1 69598U 26140G   26282.24041602  .00001014  00000+0  16204-3 0  9990
2 69598  51.8982 231.3224 0000858  68.4224 291.6830 14.79935129 18442
KUIPER-00516            
1 69599U 26140H   26283.53598137  .00001930  00000+0  30468-3 0  9999
2 69599  51.8976 210.2150 0001416 196.3142 163.7774 14.76549803 18859
KUIPER-00517            
1 69600U 26140J   26283.58335648 -.00006509  00000+0 -69136-3 0  9996
2 69600  51.8983 205.5386 0010852 249.3494  56.7555 14.87108041  3872
KUIPER-00520            
1 69601U 26140K   26283.54963620  .00001939  00000+0  30538-3 0  9994
2 69601  51.9006 227.9807 0000999 349.7825  10.3116 14.76632333 18600
KUIPER-00522            
1 69602U 26140L   26283.11220661  .00001659  00000+0  24665-3 0  9992
2 69602  51.9035 217.4753 0001388  91.5475 268.5646 14.79931620 18714
KUIPER-00528            
1 69603U 26140M   26283.57143106  .00002498  00000+0  35663-3 0  9993
2 69603  51.9033 227.9599 0000796  67.7492 292.3555 14.79931794 18607
KUIPER-00532            
1 69604U 26140N   26283.53696472  .00001966  00000+0  28677-3 0  9995
2 69604  51.9028 213.1040 0000823  86.5757 273.5300 14.79937318 18814
KUIPER-00533            
1 69605U 26140P   26283.55994196  .00001937  00000+0  28304-3 0  9997
2 69605  51.9018 222.9995 0001017  64.0323 296.0744 14.79934076 18671
KUIPER-00534            
1 69606U 26140Q   26283.51516810 -.00039881  00000+0 -14156-2 0  9997
2 69606  51.8831 203.4329 0011887 204.2626 155.7799 15.28352884 18946
KUIPER-00537            
1 69607U 26140R   26283.55183848  .00000450  00000+0  88063-4 0  9991
2 69607  51.9008 230.4479 0001548  52.6693 307.4410 14.79938396 18570
KUIPER-00538            
1 69608U 26140S   26283.58830765  .00002597  00000+0  36959-3 0  9992
2 69608  51.9008 227.8140 0001197  58.3604 301.7475 14.79933253 18611
KUIPER-00540            
1 69609U 26140T   26283.49449846  .00032542  00000+0  84351-3 0  9991
2 69609  51.8828 201.1158 0004809 355.8615   4.2332 15.38719794 18979
KUIPER-00541            
1 69610U 26140U   26283.09357899  .00001706  00000+0  27258-3 0  9996
2 69610  51.8985 209.9594 0002647  83.2526 276.8736 14.76612564 18812
KUIPER-00542            
1 69611U 26140V   26283.58335648 -.00015072  00000+0 -17297-2 0  9993
2 69611  51.8991 205.4931 0008643 212.2020 304.9047 14.84902550  4933
KUIPER-00543            
1 69612U 26140W   26282.55778081  .00002344  00000+0  33631-3 0  9999
2 69612  51.9048 217.4303 0000516  88.3994 271.7027 14.79935886 18663
KUIPER-00544            
1 69613U 26140X   26283.58335648  .00009329  00000+0  12501-2 0  9994
2 69613  51.9008 207.8990 0001419  56.2722 162.6458 14.79964699  5229
KUIPER-00546            
1 69614U 26140Y   26283.50047469  .00003402  00000+0  47536-3 0  9991
2 69614  51.8988 215.7561 0000657  14.9193 345.1789 14.79907944 18773
KUIPER-00547            
1 69615U 26140Z   26283.58335648 -.00055647  00000+0 -52847-2 0  9999
2 69615  51.8960 203.3556 0013235 222.3002 296.5912 14.93167005  5608
KUIPER-00549            
1 69616U 26140AA  26283.53966718  .00000979  00000+0  15742-3 0  9993
2 69616  51.9028 210.5931 0000773  95.9356 264.1694 14.79933222 18845
KUIPER-00550            
1 69617U 26140AB  26283.03757533  .00003190  00000+0  44728-3 0  9996
2 69617  51.9012 216.5071 0001174  56.7284 303.3791 14.79937327 18722
KUIPER-00551            
1 69618U 26140AC  26283.58335648 -.01298716  00000+0 -83704-1 0  9994
2 69618  51.8857 201.2635 0014028 219.7060 267.1691 15.11133774  4251
KUIPER-00554            
1 69619U 26140AD  26283.58335648 -.01242637  00000+0 -89267-1 0  9996
2 69619  51.8921 201.9576 0009784 234.1221 274.3293 15.07128251  5526
KUIPER-00555            
1 69620U 26140AE  26283.58335648 -.02381653  00000+0 -15316+0 0  9993
2 69620  51.8863 201.5143 0010250 227.3356 245.2566 15.11705505  1302
KUIPER-00556            
1 69621U 26140AF  26283.53157296  .00001894  00000+0  27732-3 0  9991
2 69621  51.8981 218.1110 0000710  89.1290 270.9754 14.79934848 18740
KUIPER-00557            
1 69622U 26140AG  26283.58335648  .00004426  00000+0  41912-3 0  9996
2 69622  51.8936 203.3974 0009494 249.2674  29.1809 14.95379354  5236
KUIPER-00560            
1 69623U 26140AH  26283.50788915  .00026316  00000+0  71937-3 0  9990
2 69623  51.8789 201.1664 0007562 263.5695  96.4431 15.37175008 18971
KUIPER-00561            
1 69624U 26140AJ  26283.52617345  .00002008  00000+0  29231-3 0  9993
2 69624  51.9003 223.1175 0000794  73.7561 286.3489 14.79933295 18671
KUIPER-00564            
1 69625U 26140AK  26283.56263619  .00002934  00000+0  41371-3 0  9996
2 69625  51.8970 220.4562 0000737 101.7028 258.4017 14.79935561 18711
KUIPER-00567            
1 69626U 26140AL  26283.02509074  .00002141  00000+0  30971-3 0  9990
2 69626  51.8972 220.3516 0000428 162.3556 197.7421 14.79932330 18667
KUIPER-00573            
1 69627U 26140AM  26283.52887844  .00002087  00000+0  30271-3 0  9992
2 69627  51.9008 220.6415 0000816  64.5251 295.5795 14.79935669 18700
KUIPER-00258            
1 69763U 26151A   26283.55834990  .00002190  00000+0  31629-3 0  9995
2 69763  51.8961 130.4855 0000834  91.2093 268.8965 14.79914472 15286
KUIPER-00526            
1 69764U 26151B   26283.32277283  .00001837  00000+0  26987-3 0  9995
2 69764  51.8977 146.6091 0001068 110.3544 249.7533 14.79932937 15037
KUIPER-00558            
1 69765U 26151C   26283.35652178  .00001086  00000+0  17147-3 0  9993
2 69765  51.8989 146.3778 0000634  88.5347 271.5688 14.79932621 15040
KUIPER-00569            
1 69766U 26151D   26282.90340078  .00002101  00000+0  30452-3 0  9990
2 69766  51.9016 145.8806 0000968 103.5098 256.5972 14.79933887 15011
KUIPER-00589            
1 69767U 26151E   26283.33110343  .00001517  00000+0  24610-3 0  9998
2 69767  51.9002 147.5280 0003325 114.4033 245.7275 14.76558751 15029
KUIPER-00598            
1 69768U 26151F   26283.33085614  .00001979  00000+0  28849-3 0  9991
2 69768  51.8987 139.0047 0000806 102.4154 257.6898 14.79936875 15146
KUIPER-00604            
1 69769U 26151G   26283.31127531  .00002308  00000+0  33165-3 0  9999
2 69769  51.9030 141.5928 0000786 104.2413 255.8637 14.79936979 15100
KUIPER-00609            
1 69770U 26151H   26282.94256507  .00000469  00000+0  90497-4 0  9993
2 69770  51.9025 140.7186 0001679  82.9904 277.1250 14.79933181 15089
KUIPER-00611            
1 69771U 26151J   26282.93986706  .00002254  00000+0  32457-3 0  9999
2 69771  51.8981 143.2104 0001148 106.8588 253.2500 14.79932959 15055
KUIPER-00612            
1 69772U 26151K   26283.32546764  .00001051  00000+0  16691-3 0  9996
2 69772  51.9003 144.0333 0001054 131.4562 228.6491 14.79932838 15070
KUIPER-00614            
1 69773U 26151L   26283.32816666  .00000340  00000+0  73667-4 0  9995
2 69773  51.8989 141.5663 0000985  97.6813 262.4261 14.79929513 15106
KUIPER-00615            
1 69774U 26151M   26283.00196598  .00000413  00000+0  83241-4 0  9996
2 69774  51.9003 147.8952 0000818 113.0787 247.0262 14.79922135 14992
KUIPER-00616            
1 69775U 26151N   26283.32206377  .00000055  00000+0  36182-4 0  9993
2 69775  51.9000 131.5480 0001104 104.4999 255.6085 14.79925544 15248
KUIPER-00617            
1 69776U 26151P   26283.31667715  .00000048  00000+0  35282-4 0  9992
2 69776  51.9009 136.5661 0000723 114.2550 245.8488 14.79929700 15170
KUIPER-00619            
1 69777U 26151Q   26283.29707384  .00001898  00000+0  27793-3 0  9998
2 69777  51.9004 139.2081 0000801  92.0473 268.0581 14.79929075 15138
KUIPER-00621            
1 69778U 26151R   26282.88922009  .00002219  00000+0  32005-3 0  9996
2 69778  51.9001 143.4544 0000788 103.9769 256.1281 14.79931904 15040
KUIPER-00622            
1 69779U 26151S   26283.32034735  .00001575  00000+0  25441-3 0  9997
2 69779  51.8993 145.9870 0001800 112.1019 248.0133 14.76527824 15040
KUIPER-00623            
1 69780U 26151T   26283.35922939  .00001080  00000+0  17072-3 0  9996
2 69780  51.8960 143.8829 0001079 117.3773 242.7299 14.79935210 15071
KUIPER-00626            
1 69781U 26151U   26283.31397407  .00000183  00000+0  53050-4 0  9999
2 69781  51.8978 139.0511 0000810 112.0241 248.0808 14.79930853 15141
KUIPER-00627            
1 69782U 26151V   26283.28560629  .00001516  00000+0  22781-3 0  9991
2 69782  51.8988 134.2073 0000827 110.2900 249.8152 14.79935475 15206
KUIPER-00629            
1 69783U 26151W   26283.37071644  .00000673  00000+0  11727-3 0  9997
2 69783  51.9031 148.7689 0001096  98.4817 261.6270 14.79927626 15014
KUIPER-00631            
1 69784U 26151X   26283.32006932  .00001240  00000+0  19166-3 0  9997
2 69784  51.8994 149.0506 0000753 106.1271 253.9774 14.79931527 15001
KUIPER-00634            
1 69785U 26151Y   26282.93714389  .00002370  00000+0  33967-3 0  9996
2 69785  51.8989 145.7469 0000920 106.7800 253.3264 14.79950594 15011
KUIPER-00639            
1 69786U 26151Z   26283.31932838  .00003683  00000+0  51166-3 0  9990
2 69786  51.9033 134.0406 0000502 148.8041 211.2951 14.79944279 15216
KUIPER-00641            
1 69787U 26151AA  26283.29978743  .00001484  00000+0  22367-3 0  9991
2 69787  51.8990 136.6499 0001597 157.6367 202.4665 14.79934188 15179
KUIPER-00644            
1 69788U 26151AB  26282.91958394  .00002287  00000+0  32870-3 0  9992
2 69788  51.8977 130.8274 0001336  99.7982 260.3131 14.79969594 15217
KUIPER-00646            
1 69789U 26151AC  26283.33356859  .00002260  00000+0  32539-3 0  9991
2 69789  51.8990 136.5793 0000799 110.3670 249.7379 14.79934987 15176
KUIPER-00647            
1 69790U 26151AD  26283.58335648  .00007104  00000+0  95945-3 0  9995
2 69790  51.8982 135.3334 0000497  52.1668 109.9662 14.79952163  5652
KUIPER-00662            
1 69791U 26151AE  26283.35383580  .00002283  00000+0  32836-3 0  9992
2 69791  51.9016 148.8986 0000902 113.6400 246.4657 14.79932070 15008
