QIANFAN-1               
1 60379U 24140A   26261.13209345  .00000032  00000+0  30500-4 0  9996
2 60379  88.9664 270.2726 0019295 124.1327 236.1658 13.51025889105076
QIANFAN-2               
1 60380U 24140B   26261.16091257  .00000023  00000+0  16219-4 0  9993
2 60380  88.9651 270.0711 0014880  99.1267 261.1568 13.51020298105139
QIANFAN-3               
1 60381U 24140C   26261.16930709  .00000027  00000+0  22246-4 0  9999
2 60381  88.9643 270.1817 0015939 109.9942 250.2927 13.51023018105046
QIANFAN-4               
1 60382U 24140D   26261.14448956  .00000010  00000+0 -30730-5 0  9997
2 60382  88.9668 270.1523 0015114 101.2967 258.9883 13.51021044105161
QIANFAN-5               
1 60383U 24140E   26261.19377469  .00000025  00000+0  19873-4 0  9992
2 60383  88.9643 270.2034 0017027 120.1146 240.1696 13.51031259105037
QIANFAN-6               
1 60384U 24140F   26261.21442987  .00000019  00000+0  11003-4 0  9994
2 60384  88.9670 270.0234 0015190 106.2158 254.0666 13.51024105105230
QIANFAN-7               
1 60385U 24140G   26261.16422949  .00000126  00000+0  44878-4 0  9990
2 60385  88.9720 260.8287 0014271 191.7097 168.3768 14.27893127110263
QIANFAN-8               
1 60386U 24140H   26261.14872814  .00000012  00000+0 -91571-6 0  9998
2 60386  88.9671 270.2711 0018622 108.7508 251.5665 13.51026056105074
QIANFAN-9               
1 60387U 24140J   26261.19801779  .00000022  00000+0  14485-4 0  9993
2 60387  88.9668 270.3357 0018326 108.3861 251.9285 13.51021664105068
QIANFAN-10              
1 60388U 24140K   26261.20212360  .00000031  00000+0  28321-4 0  9992
2 60388  88.9680 269.7121 0016856  88.3490 271.9592 13.51021757105195
QIANFAN-11              
1 60389U 24140L   26261.16521617  .00000020  00000+0  12105-4 0  9997
2 60389  88.9605 270.0925 0016352 108.0149 252.2785 13.51021056104841
QIANFAN-12              
1 60390U 24140M   26261.18573434  .00000016  00000+0  53106-5 0  9997
2 60390  88.9648 270.2554 0015090 114.8916 245.3805 13.51023647104973
QIANFAN-13              
1 60391U 24140N   26261.15689125  .00000023  00000+0  17184-4 0  9993
2 60391  88.9908 270.4967 0014884 116.9626 243.3047 13.51023728104992
QIANFAN-14              
1 60392U 24140P   26261.18169131  .00000011  00000+0 -13975-5 0  9990
2 60392  88.9639 270.2280 0018550 117.9287 242.3745 13.51018809105009
QIANFAN-15              
1 60393U 24140Q   26261.18979189  .00000029  00000+0  26627-4 0  9998
2 60393  88.9662 270.2502 0014503 105.1007 255.1750 13.51028085104998
QIANFAN-16              
1 60394U 24140R   26261.17741725  .00000016  00000+0  63520-5 0  9991
2 60394  88.9665 270.3793 0016423 120.9255 239.3513 13.51025254104905
QIANFAN-17              
1 60395U 24140S   26261.17343904  .00000027  00000+0  23390-4 0  9991
2 60395  88.9675 270.4563 0016913 115.4365 244.8539 13.51021581105862
QIANFAN-18              
1 60396U 24140T   26261.15287176  .00000013  00000+0  15399-5 0  9994
2 60396  88.9670 269.9739 0016409 100.2383 260.0620 13.51020925105253
QIANFAN-19              
1 61552U 24185A   26261.16720203  .00000311  00000+0  15474-3 0  9995
2 61552  88.9853  45.9270 0008748 119.7465 240.4593 14.14530735109166
QIANFAN-20              
1 61553U 24185B   26261.14441198  .00000327  00000+0  18084-3 0  9994
2 61553  88.9847  46.5291 0006510 151.9063 208.2474 14.09071352108839
QIANFAN-21              
1 61554U 24185C   26261.16835477  .00000422  00000+0  18113-3 0  9993
2 61554  88.9773  44.2584 0011247 162.0833 198.0757 14.22932029109708
QIANFAN-22              
1 61555U 24185D   26261.18027910  .00000156  00000+0  12310-3 0  9998
2 61555  88.9827  48.6328 0005521 203.2819 156.8103 13.86429423107650
QIANFAN-23              
1 61556U 24185E   26261.16949499  .00000293  00000+0  14006-3 0  9998
2 61556  88.9846  45.6064 0009174 126.8394 233.3637 14.16552446109305
QIANFAN-24              
1 61557U 24185F   26261.14441191  .00000473  00000+0  19909-3 0  9990
2 61557  88.9831  44.5593 0011697 104.9311 255.3178 14.24155980109781
QIANFAN-25              
1 61558U 24185G   26261.19425508  .00000398  00000+0  23407-3 0  9994
2 61558  88.9839  46.5689 0012845 177.0362 183.0899 14.06129908108777
QIANFAN-26              
1 61559U 24185H   26261.18721304  .00000221  00000+0  20789-3 0  9992
2 61559  88.9832  49.5899 0004124 233.6743 126.4043 13.77944788107151
QIANFAN-27              
1 61560U 24185J   26261.15897840  .00000295  00000+0  11386-3 0  9994
2 61560  88.9843  44.1962 0009520  92.8580 267.3704 14.27601817110024
QIANFAN-28              
1 61561U 24185K   26261.19331601  .00000578  00000+0  22493-3 0  9992
2 61561  88.9861  44.2070 0009451  91.0284 269.1994 14.28485752110065
QIANFAN-29              
1 61562U 24185L   26261.16759199  .00000145  00000+0  20519-3 0  9993
2 61562  88.9799  52.4270 0008745 331.9792  28.0888 13.51093804105521
QIANFAN-30              
1 61563U 24185M   26261.20569796  .00000141  00000+0  20269-3 0  9999
2 61563  88.9820  52.0557 0006188 318.4520  41.6160 13.50075730105777
QIANFAN-31              
1 61564U 24185N   26261.15317360  .00000168  00000+0  21556-3 0  9991
2 61564  88.9804  51.4195 0005354 299.7277  60.3345 13.58064124106086
QIANFAN-32              
1 61565U 24185P   26261.16941628  .00000104  00000+0  14250-3 0  9996
2 61565  88.9859  52.2750 0009046 351.2655   8.8337 13.50806031105764
QIANFAN-33              
1 61566U 24185Q   26261.17154346  .00000256  00000+0  17441-3 0  9994
2 61566  88.9829  47.6582 0008293 159.6133 200.5376 13.96752413108162
QIANFAN-34              
1 61567U 24185R   26261.20281154  .00000446  00000+0  28083-3 0  9992
2 61567  88.9810  46.8489 0006450 152.0018 208.1510 14.02520352108529
QIANFAN-35              
1 61568U 24185S   26261.18034709  .00000502  00000+0  19519-3 0  9999
2 61568  88.9842  44.0863 0008549  89.1686 271.0489 14.28357220110069
QIANFAN-36              
1 61569U 24185T   26261.18956556  .00000082  00000+0  10105-3 0  9998
2 61569  88.9796  51.9228 0004945 323.8434  36.2385 13.55647232105788
QIANFAN-37              
1 62238U 24232B   26261.13568432  .00000106  00000+0  14504-3 0  9996
2 62238  89.0155  13.2747 0001988  87.2819 272.8560 13.51030240136892
QIANFAN-38              
1 62239U 24232C   26261.16045463  .00000111  00000+0  15264-3 0  9994
2 62239  89.0162  13.2070 0016497 107.7856 252.5097 13.51028416136959
QIANFAN-39              
1 62240U 24232D   26261.15655141  .00000352  00000+0  14247-3 0  9992
2 62240  89.0140   5.5088 0014305 237.8306 122.1500 14.25560687141197
QIANFAN-40              
1 62241U 24232E   26261.11931302  .00000100  00000+0  13575-3 0  9999
2 62241  89.0189  12.8734 0015545 114.7468 245.5302 13.51028622137314
QIANFAN-41              
1 62242U 24232F   26261.12751742  .00000111  00000+0  15355-3 0  9999
2 62242  89.0160  13.1565 0015900 104.3911 255.9006 13.51029843136976
QIANFAN-42              
1 62243U 24232G   26261.12205819  .00000347  00000+0  14313-3 0  9993
2 62243  89.0139   5.6012 0012966 245.6683 114.3156 14.24647821141142
QIANFAN-43              
1 62244U 24232H   26261.12340806  .00000106  00000+0  14447-3 0  9991
2 62244  89.0164  13.2346 0017442 109.0215 251.2827 13.51029272105581
QIANFAN-44              
1 62245U 24232J   26261.11108916  .00000104  00000+0  14190-3 0  9998
2 62245  89.0162  13.0420 0015657 106.4145 253.8729 13.51029559137054
QIANFAN-45              
1 62246U 24232K   26261.15225023  .00000101  00000+0  13746-3 0  9995
2 62246  89.0166  13.1944 0016319 105.9831 254.3119 13.51028300136986
QIANFAN-46              
1 62247U 24232L   26261.10281245  .00000093  00000+0  12518-3 0  9995
2 62247  89.0162  13.2568 0016366 110.9590 249.3314 13.51029364136933
QIANFAN-47              
1 62248U 24232M   26261.18103213  .00000098  00000+0  13302-3 0  9999
2 62248  89.0158  13.1708 0016788 110.0465 250.2495 13.51028630136974
QIANFAN-48              
1 62249U 24232N   26261.14408779  .00000090  00000+0  12031-3 0  9991
2 62249  89.0162  13.1873 0019048 112.5703 247.7466 13.51022940136974
QIANFAN-49              
1 62250U 24232P   26261.13166010  .00000095  00000+0  12797-3 0  9995
2 62250  89.0161  13.1987 0016130 107.6986 252.5928 13.51030096105567
QIANFAN-50              
1 62251U 24232Q   26261.15630991  .00000098  00000+0  13269-3 0  9990
2 62251  89.0166  13.2197 0017789 108.8703 251.4379 13.51029543105594
QIANFAN-51              
1 62252U 24232R   26261.13988856  .00000086  00000+0  11507-3 0  9995
2 62252  89.0160  13.1980 0015243 112.1712 248.1059 13.51028542105584
QIANFAN-52              
1 62253U 24232S   26261.16866904  .00000103  00000+0  14012-3 0  9992
2 62253  89.0157  13.0578 0017286 105.1674 255.1391 13.51030639105678
QIANFAN-53              
1 62254U 24232T   26261.14816544  .00000099  00000+0  13446-3 0  9990
2 62254  89.0164  13.1855 0016163 106.2300 254.0631 13.51027322105633
QIANFAN-54              
1 62255U 24232U   26261.11518749  .00000107  00000+0  14710-3 0  9999
2 62255  89.0155  12.8426 0003792 128.3421 231.8071 13.51029129137135
QIANFAN-55              
1 62785U 25016A   26261.14128378  .00000046  00000+0  52901-4 0  9993
2 62785  88.9671  74.2030 0015536 259.9843  99.9556 13.51024735 84911
QIANFAN-56              
1 62786U 25016B   26261.15757718  .00000033  00000+0  33074-4 0  9997
2 62786  88.9645  73.9633 0014122 262.8241  97.1304 13.51027933 84962
QIANFAN-57              
1 62787U 25016C   26261.19066059  .00000047  00000+0  53447-4 0  9994
2 62787  88.9675  74.2004 0002467  82.9388 277.2043 13.51027686 84937
QIANFAN-58              
1 62788U 25016D   26261.16187024  .00000046  00000+0  53126-4 0  9991
2 62788  88.9646  73.9500 0012066 253.9706 106.0117 13.51020087 84976
QIANFAN-59              
1 62789U 25016E   26261.18638294  .00000051  00000+0  60184-4 0  9992
2 62789  88.9669  74.0869 0012408 258.2589 101.7170 13.51024445 84972
QIANFAN-60              
1 62790U 25016F   26261.14524502  .00000064  00000+0  80164-4 0  9990
2 62790  88.9650  74.0096 0013980 254.5224 105.4383 13.51027916 84958
QIANFAN-61              
1 62791U 25016G   26261.17820576  .00000050  00000+0  59650-4 0  9995
2 62791  88.9716  74.3580 0012951 253.7557 106.2170 13.51027406 84979
QIANFAN-62              
1 62792U 25016H   26261.18242985  .00000056  00000+0  67601-4 0  9990
2 62792  88.9664  74.0760 0014287 254.1526 105.8051 13.51019851 84961
QIANFAN-63              
1 62793U 25016J   26261.13298919  .00000043  00000+0  48317-4 0  9993
2 62793  88.9670  74.0516 0014321 260.3648  99.5885 13.51022860 84992
QIANFAN-64              
1 62794U 25016K   26261.17411637  .00000046  00000+0  52240-4 0  9995
2 62794  88.9657  73.9839 0012297 251.9509 108.0302 13.51027391 84990
QIANFAN-65              
1 62795U 25016L   26261.16989512  .00000042  00000+0  46826-4 0  9996
2 62795  88.9654  74.0004 0012138 253.8977 106.0838 13.51023528 84976
QIANFAN-66              
1 62796U 25016M   26261.19870876  .00000044  00000+0  49967-4 0  9993
2 62796  88.9673  74.0224 0013274 249.0423 110.9308 13.51019697 85022
QIANFAN-67              
1 62797U 25016N   26261.20280573  .00000041  00000+0  45056-4 0  9997
2 62797  88.9664  74.0201 0013185 256.8446 103.1234 13.51029061 84993
QIANFAN-68              
1 62798U 25016P   26261.19467212  .00000043  00000+0  48731-4 0  9998
2 62798  88.9667  74.0760 0013274 254.4616 105.5070 13.51021835 84972
QIANFAN-69              
1 62799U 25016Q   26261.13696843  .00000051  00000+0  60009-4 0  9998
2 62799  88.9646  73.8921 0014003 256.3143 103.6449 13.51024172 85004
QIANFAN-70              
1 62800U 25016R   26261.15356064  .00000053  00000+0  63634-4 0  9990
2 62800  88.9666  74.0870 0013694 245.3610 114.6116 13.51023765 84961
QIANFAN-71              
1 62801U 25016S   26261.14939941  .00000050  00000+0  59387-4 0  9998
2 62801  88.9661  74.0501 0013895 260.3052  99.6529 13.51026765 84961
QIANFAN-72              
1 62802U 25016T   26261.16596567  .00000040  00000+0  44234-4 0  9998
2 62802  88.9651  74.0345 0017150 268.4076  91.5111 13.51020681 84958
QIANFAN-73              
1 63159U 25046A   26261.11885873  .00000066  00000+0  82607-4 0  9997
2 63159  88.9645 291.0148 0016193  42.7131 317.5276 13.51025348 85139
QIANFAN-74              
1 63160U 25046B   26261.17648785  .00000006  00000+0 -88020-5 0  9995
2 63160  88.9646 290.8985 0001810  96.9961 263.1396 13.51018695 85204
QIANFAN-75              
1 63161U 25046C   26261.16419235  .00000071  00000+0  90330-4 0  9998
2 63161  88.9648 291.1374 0017409  45.5060 314.7511 13.51030772 85071
QIANFAN-76              
1 63162U 25046D   26261.16013367 -.00000076  00000+0 -13674-3 0  9997
2 63162  88.9648 291.1176 0014871  46.7264 313.5125 13.51021842 85088
QIANFAN-77              
1 63163U 25046E   26261.12001966  .00000085  00000+0  52076-4 0  9994
2 63163  88.9651 286.8253 0012598 291.3737  68.6095 13.96246709 87432
QIANFAN-78              
1 63164U 25046F   26261.12767700  .00000058  00000+0  71420-4 0  9994
2 63164  88.9647 290.9828 0016374  48.2063 312.0484 13.51012247 85153
QIANFAN-79              
1 63165U 25046G   26261.15589424  .00000022  00000+0  14908-4 0  9992
2 63165  88.9650 291.0969 0016039  46.9313 313.3178 13.51021164 85104
QIANFAN-80              
1 63166U 25046H   26261.17236823  .00000049  00000+0  56872-4 0  9992
2 63166  88.9647 290.7944 0015071  51.4070 308.8428 13.51029749 85267
QIANFAN-81              
1 63167U 25046J   26261.15174816  .00000087  00000+0  11604-3 0  9999
2 63167  88.9647 290.8639 0015969  41.4039 318.8319 13.51020576 85214
QIANFAN-82              
1 63168U 25046K   26261.18474459  .00000058  00000+0  71267-4 0  9999
2 63168  88.9647 290.9048 0014047  48.3895 311.8457 13.51020540 85208
QIANFAN-83              
1 63169U 25046L   26261.15585089  .00000030  00000+0  22827-4 0  9997
2 63169  88.9649 290.1333 0014401  19.4591 340.7113 13.62064775 85633
QIANFAN-84              
1 63170U 25046M   26261.13948150 -.00000048  00000+0 -93273-4 0  9993
2 63170  88.9647 291.0421 0016905  44.0243 316.2251 13.51017165 85124
QIANFAN-85              
1 63171U 25046N   26261.13531919  .00000055  00000+0  66672-4 0  9994
2 63171  88.9646 290.9122 0014567  47.1737 313.0636 13.51020724 85198
QIANFAN-86              
1 63172U 25046P   26261.14352888  .00000067  00000+0  84610-4 0  9997
2 63172  88.9648 290.7800 0012576  51.9859 308.2425 13.51025698 85274
QIANFAN-87              
1 63173U 25046Q   26261.11472169  .00000014  00000+0  26475-5 0  9998
2 63173  88.9645 290.8843 0012951  47.2818 312.9422 13.51031973 85205
QIANFAN-88              
1 63174U 25046R   26260.98303935  .00000060  00000+0  74672-4 0  9999
2 63174  88.9648 290.8595 0013621  55.0785 305.1644 13.51029795 85218
QIANFAN-89              
1 63175U 25046S   26261.16820359  .00000012  00000+0 -40344-6 0  9994
2 63175  88.9647 291.0290 0017843  44.0209 316.2359 13.51019954 85135
QIANFAN-90              
1 63176U 25046T   26261.12300940  .00000025  00000+0  20344-4 0  9999
2 63176  88.9648 291.0070 0014750  43.9856 316.2466 13.51019898 85140
QIANFAN-91              
1 66033U 25233A   26261.15542211  .00000085  00000+0  11327-3 0  9990
2 66033  89.0051  33.7899 0001784  92.9630 267.1725 13.51029288 45739
QIANFAN-92              
1 66034U 25233B   26260.42165568 -.01467260  00000+0 -26395+1 0  9999
2 66034  89.0000  33.8196 0004424 198.4398 161.6590 13.45538092 45630
QIANFAN-93              
1 66035U 25233C   26260.35705125 -.01893751  00000+0 -34531+1 0  9990
2 66035  89.0038  33.9026 0006262  26.1590 333.9873 13.45060301 45628
QIANFAN-94              
1 66036U 25233D   26260.64116165  .00000085  00000+0  11296-3 0  9996
2 66036  89.0058  33.7753 0001784  99.0969 261.0384 13.51027613 45713
QIANFAN-95              
1 66037U 25233E   26260.35280701 -.01881968  00000+0 -34325+1 0  9998
2 66037  89.0070  33.3481 0009145  41.7698 318.4146 13.45007786 45922
QIANFAN-96              
1 66038U 25233F   26260.82215765  .00000082  00000+0  10784-3 0  9992
2 66038  89.0053  33.8394 0001766  91.0736 269.0617 13.51028773 45687
QIANFAN-97              
1 66039U 25233G   26260.35967228 -.01635372  00000+0 -29054+1 0  9995
2 66039  89.0040  33.8674 0000433 110.5298 249.5897 13.46133876 45627
QIANFAN-98              
1 66040U 25233H   26260.81396333  .00000094  00000+0  12645-3 0  9996
2 66040  89.0045  33.5482 0001589 112.1366 247.9954 13.51029072 45832
QIANFAN-99              
1 66041U 25233J   26260.66988541  .00000096  00000+0  12976-3 0  9997
2 66041  89.0057  33.8464 0001458 104.8971 255.2341 13.51035515 45677
QIANFAN-100             
1 66042U 25233K   26260.80986435  .00000092  00000+0  12433-3 0  9998
2 66042  89.0068  33.7698 0001830  93.9419 266.1941 13.51020079 45741
QIANFAN-101             
1 66043U 25233L   26260.65550037  .00000323  00000+0  12694-3 0  9993
2 66043  89.0058  29.9572 0014633 192.5707 167.5124 14.26860646 47812
QIANFAN-102             
1 66044U 25233M   26260.60822143  .00000081  00000+0  10692-3 0  9996
2 66044  89.0054  33.7601 0001726  99.6719 260.4627 13.51028315 45718
QIANFAN-103             
1 66045U 25233N   26260.61075315 -.01823427  00000+0 -32055+1 0  9993
2 66045  89.0052  33.8571 0003867 149.8618 210.2755 13.47260128 45662
QIANFAN-104             
1 66046U 25233P   26260.83858056  .00000085  00000+0  11329-3 0  9997
2 66046  89.0062  33.7410 0001803 101.8709 258.2644 13.51026314 45742
QIANFAN-105             
1 66047U 25233Q   26261.14318728  .00000045  00000+0  51603-4 0  9996
2 66047  89.0073  33.5656 0001886  99.1168 261.0197 13.51029387 45898
QIANFAN-106             
1 66048U 25233R   26260.62052396  .00000088  00000+0  11759-3 0  9999
2 66048  89.0044  33.8022 0001593 108.6442 251.4883 13.51029890 45662
QIANFAN-107             
1 66049U 25233S   26260.85095273  .00000099  00000+0  13512-3 0  9997
2 66049  89.0060  33.8262 0001847  94.7294 265.4068 13.51029266 45701
QIANFAN-108             
1 66050U 25233T   26260.41075406  .00000075  00000+0  98050-4 0  9992
2 66050  89.0052  33.8516 0001611 107.7659 252.3668 13.51028795 45645
QIANFAN-109             
1 68636U 26075A   26261.16522847  .00000052  00000+0  61472-4 0  9991
2 68636  88.9867 311.5256 0002111  83.9203 276.2188 13.51020743 22341
QIANFAN-110             
1 68637U 26075B   26261.17339824  .00000051  00000+0  59841-4 0  9990
2 68637  88.9867 311.5463 0002256  97.6115 262.5292 13.51031779 22341
QIANFAN-111             
1 68638U 26075C   26261.16131888  .00000048  00000+0  55247-4 0  9992
2 68638  88.9866 311.5065 0002236  97.2267 262.9138 13.51021175 22365
QIANFAN-112             
1 68639U 26075D   26261.05013105  .00000044  00000+0  49235-4 0  9998
2 68639  88.9865 311.5257 0002342  85.2197 274.9222 13.51023566 22346
QIANFAN-113             
1 68640U 26075E   26261.16930064  .00000058  00000+0  71529-4 0  9990
2 68640  88.9871 311.5124 0002313  94.7755 265.3660 13.51020120 22366
QIANFAN-114             
1 68641U 26075F   26261.17753750  .00000053  00000+0  62680-4 0  9990
2 68641  88.9866 311.5263 0002229  96.8279 263.3126 13.51027808 22359
QIANFAN-115             
1 68642U 26075G   26261.13235589  .00000051  00000+0  60244-4 0  9994
2 68642  88.9866 311.5382 0002106  94.2251 265.9141 13.51024469 22342
QIANFAN-116             
1 68643U 26075H   26261.11998606  .00000035  00000+0  34925-4 0  9998
2 68643  88.9859 311.4930 0002375  88.5017 271.6406 13.51025065 22359
QIANFAN-117             
1 68644U 26075J   26261.18179579  .00000051  00000+0  60397-4 0  9996
2 68644  88.9864 311.5066 0002184  90.3001 269.8400 13.51022922 22362
QIANFAN-118             
1 68645U 26075K   26260.91838823  .00000051  00000+0  61089-4 0  9990
2 68645  88.9869 311.5461 0002323  99.4900 260.6514 13.51024650 22321
QIANFAN-119             
1 68646U 26075L   26260.89361448  .00000037  00000+0  38186-4 0  9998
2 68646  88.9869 311.5443 0002027  87.1189 273.0194 13.51020326 22324
QIANFAN-120             
1 68647U 26075M   26260.90599974  .00000049  00000+0  56893-4 0  9996
2 68647  88.9870 311.5295 0001960  86.6037 273.5338 13.51020175 22331
QIANFAN-121             
1 68648U 26075N   26260.93081437  .00000039  00000+0  41097-4 0  9999
2 68648  88.9868 311.5299 0002240  98.5889 261.5516 13.51023706 22330
QIANFAN-122             
1 68649U 26075P   26260.92253683  .00000049  00000+0  56611-4 0  9992
2 68649  88.9867 311.5278 0002178  88.1387 272.0013 13.51027253 22324
QIANFAN-123             
1 68650U 26075Q   26260.88950863  .00000045  00000+0  50553-4 0  9998
2 68650  88.9864 311.5181 0002159  82.0525 278.0872 13.51020207 22301
QIANFAN-124             
1 68651U 26075R   26260.91433175  .00000054  00000+0  65020-4 0  9990
2 68651  88.9867 311.5271 0002203  86.8763 273.2640 13.51026793 22330
QIANFAN-125             
1 68652U 26075S   26260.92670046  .00000044  00000+0  50196-4 0  9999
2 68652  88.9866 311.5278 0002264  98.2408 261.9000 13.51023842 22333
QIANFAN-126             
1 68653U 26075T   26260.93475595  .00000047  00000+0  53372-4 0  9995
2 68653  88.9870 311.4963 0002138  82.6508 277.4886 13.51029246 22357
QIANFAN-127             
1 69073U 26104A   26261.16239830  .00000078  00000+0  10290-3 0  9996
2 69073  88.9924 331.9923 0002543 103.6029 256.5405 13.51027958 17716
QIANFAN-128             
1 69074U 26104B   26261.17049909  .00000066  00000+0  84319-4 0  9995
2 69074  88.9902 332.0157 0002235 113.2217 246.9170 13.51023519 17696
QIANFAN-129             
1 69075U 26104C   26261.19511811  .00000083  00000+0  10997-3 0  9993
2 69075  88.9905 331.9474 0002324 108.5900 251.5504 13.51023441 17737
QIANFAN-130             
1 69076U 26104D   26261.15806825  .00000061  00000+0  75984-4 0  9996
2 69076  88.9907 332.0170 0002538  98.0963 262.0477 13.51021526 17697
QIANFAN-131             
1 69077U 26104E   26261.17882297  .00000066  00000+0  83161-4 0  9997
2 69077  88.9900 331.9755 0002062 107.1472 252.9905 13.51025637 17711
QIANFAN-132             
1 69078U 26104F   26261.16631756  .00000077  00000+0  10091-3 0  9992
2 69078  88.9903 332.0334 0002403 100.5005 259.6417 13.51021873 17684
QIANFAN-133             
1 69079U 26104G   26261.10060382  .00000075  00000+0  97902-4 0  9993
2 69079  88.9906 331.9902 0001983 113.0413 247.0947 13.51030694 17692
QIANFAN-134             
1 69080U 26104H   26261.20343970  .00000080  00000+0  10486-3 0  9990
2 69080  88.9910 332.0060 0002191 112.4585 247.6798 13.51029036 17701
QIANFAN-135             
1 69081U 26104J   26261.18277484  .00000070  00000+0  89446-4 0  9996
2 69081  88.9904 331.9990 0002427 112.8790 247.2617 13.51022133 17706
QIANFAN-136             
1 69082U 26104K   26261.19105057  .00000084  00000+0  11160-3 0  9996
2 69082  88.9906 332.0011 0002037 113.1359 247.0007 13.51032110 17704
QIANFAN-137             
1 69083U 26104L   26261.18696153  .00000075  00000+0  97622-4 0  9996
2 69083  88.9915 331.8781 0002270 100.7354 259.4053 13.51021812 17774
QIANFAN-138             
1 69084U 26104M   26261.21157113  .00000072  00000+0  92315-4 0  9990
2 69084  88.9899 331.9990 0002523 107.1645 252.9782 13.51021617 17707
QIANFAN-139             
1 69085U 26104N   26261.19941669  .00000076  00000+0  98379-4 0  9995
2 69085  88.9902 331.9819 0002497 101.6447 258.4984 13.51030381 17716
QIANFAN-140             
1 69086U 26104P   26261.20747227  .00000075  00000+0  97409-4 0  9994
2 69086  88.9902 331.9847 0002511 111.8474 248.2944 13.51022751 17713
QIANFAN-141             
1 69087U 26104Q   26261.21576657  .00000073  00000+0  93736-4 0  9990
2 69087  88.9899 331.9481 0002307 112.8007 247.3388 13.51020515 17739
QIANFAN-142             
1 69088U 26104R   26260.92764447  .00000026  00000+0  21966-4 0  9998
2 69088  88.9898 331.9769 0002481 107.9575 252.1847 13.51030885 17696
QIANFAN-143             
1 69089U 26104S   26261.21991166  .00000073  00000+0  94589-4 0  9995
2 69089  88.9909 331.9536 0002002 106.3715 253.7656 13.51027190 17735
QIANFAN-144             
1 69090U 26104T   26261.15395832  .00000076  00000+0  98790-4 0  9999
2 69090  88.9907 331.9785 0002537 104.6709 255.4724 13.51020569 17714
QIANFAN-145             
1 69104U 26108A   26261.15824954  .00000120  00000+0  16747-3 0  9992
2 69104  89.0192  12.7663 0001603 102.9382 257.1949 13.51034077 16994
QIANFAN-146             
1 69105U 26108B   26261.11718238  .00000128  00000+0  18034-3 0  9995
2 69105  89.0194  12.6074 0001970  99.7713 260.3661 13.51039676 17088
QIANFAN-147             
1 69106U 26108C   26261.16668049  .00000119  00000+0  16571-3 0  9999
2 69106  89.0194  12.7699 0002085 103.5246 256.6138 13.51024714 16988
QIANFAN-148             
1 69107U 26108D   26261.15426957  .00000113  00000+0  15627-3 0  9994
2 69107  89.0187  12.7612 0001993 109.7632 250.3734 13.51024178 16987
QIANFAN-149             
1 69108U 26108E   26261.16243208  .00000119  00000+0  16550-3 0  9994
2 69108  89.0187  12.7817 0002287 109.2328 250.9071 13.51023734 16986
QIANFAN-150             
1 69109U 26108F   26261.17063112  .00000111  00000+0  15317-3 0  9992
2 69109  89.0192  12.7340 0002305 108.0679 252.0723 13.51024241 17006
QIANFAN-151             
1 69110U 26108G   26261.12554881  .00000122  00000+0  17113-3 0  9995
2 69110  89.0192  12.7621 0001820 103.1694 256.9660 13.51027394 16985
QIANFAN-152             
1 69111U 26108H   26261.10478008  .00000112  00000+0  15488-3 0  9992
2 69111  89.0188  12.7560 0002246  97.8372 262.3034 13.51028592 16996
QIANFAN-153             
1 69112U 26108J   26261.17473532  .00000104  00000+0  14280-3 0  9997
2 69112  89.0184  12.7255 0002233 104.1019 256.0380 13.51024528 17002
QIANFAN-154             
1 69113U 26108K   26261.18310179  .00000120  00000+0  16737-3 0  9993
2 69113  89.0195  12.7734 0002137 106.2286 253.9100 13.51026550 16999
QIANFAN-155             
1 69114U 26108L   26261.11303617  .00000116  00000+0  16056-3 0  9995
2 69114  89.0192  12.7449 0002273 105.7318 254.4084 13.51023387 16993
QIANFAN-156             
1 69115U 26108M   26261.13357794  .00000109  00000+0  15076-3 0  9996
2 69115  89.0207  12.7439 0001905 108.0615 252.0744 13.51023349 17016
QIANFAN-157             
1 69116U 26108N   26261.12141343  .00000124  00000+0  17321-3 0  9999
2 69116  89.0188  12.6688 0002077 111.4661 248.6712 13.51028047 17049
QIANFAN-158             
1 69117U 26108P   26261.21173338  .00000114  00000+0  15774-3 0  9998
2 69117  89.0190  12.7010 0001861 105.9215 254.2141 13.51023629 17035
QIANFAN-159             
1 69118U 26108Q   26261.12949485  .00000118  00000+0  16380-3 0  9991
2 69118  89.0181  12.7157 0001892 103.8242 256.3120 13.51023347 17014
QIANFAN-160             
1 69119U 26108R   26261.14608804  .00000106  00000+0  14504-3 0  9994
2 69119  89.0196  12.7512 0002392 106.3156 253.8259 13.51023458 17001
QIANFAN-161             
1 69120U 26108S   26261.15004134  .00000109  00000+0  15033-3 0  9994
2 69120  89.0203  12.6675 0001849 104.8300 255.3056 13.51021807 17054
QIANFAN-162             
1 69121U 26108T   26261.14183969  .00000099  00000+0  13487-3 0  9997
2 69121  89.0193  12.6937 0002145  99.6879 260.4514 13.51022677 17025
QIANFAN-163             
1 69325U 26121A   26261.03241360  .00000009  00000+0 -40639-5 0  9999
2 69325  89.0104 291.2722 0002338 121.3444 238.7936 13.51022043 14700
QIANFAN-164             
1 69326U 26121B   26261.07356644  .00000033  00000+0  32706-4 0  9997
2 69326  89.0101 291.2588 0002031 111.2299 248.9070 13.51021400 14713
QIANFAN-165             
1 69382U 26124A   26261.08325562  .00000113  00000+0  15615-3 0  9996
2 69382  89.0071 352.2657 0001882 120.6563 239.4774 13.51021835 14580
QIANFAN-166             
1 69383U 26124B   26261.16146682  .00000117  00000+0  16188-3 0  9990
2 69383  89.0089 352.2683 0001826 103.9070 256.2284 13.51022413 14591
QIANFAN-167             
1 69384U 26124C   26261.16547284  .00000118  00000+0  16418-3 0  9991
2 69384  89.0063 352.2740 0002212 107.4577 252.6816 13.51031426 14583
QIANFAN-168             
1 69385U 26124D   26261.16951809  .00000119  00000+0  16514-3 0  9992
2 69385  89.0059 352.2535 0001643 107.2028 252.9303 13.51020049 14591
QIANFAN-169             
1 69386U 26124E   26261.17378034  .00000122  00000+0  17104-3 0  9997
2 69386  89.0058 352.2529 0001854  99.9024 260.2337 13.51023322 14597
QIANFAN-170             
1 69387U 26124F   26261.17784980  .00000126  00000+0  17605-3 0  9999
2 69387  89.0075 352.2245 0001808  97.8696 262.2660 13.51025794 14612
QIANFAN-171             
1 69388U 26124G   26261.18615528  .00000117  00000+0  16263-3 0  9991
2 69388  89.0090 352.2359 0002131 104.0212 256.1176 13.51028842 14612
QIANFAN-172             
1 69389U 26124H   26261.18195894  .00000120  00000+0  16736-3 0  9990
2 69389  89.0073 352.2264 0001804 116.9459 243.1876 13.51029376 14616
QIANFAN-173             
1 69390U 26124J   26261.19007006  .00000107  00000+0  14693-3 0  9995
2 69390  89.0062 352.2223 0001632 102.4102 257.7232 13.51022330 14615
QIANFAN-174             
1 69391U 26124K   26261.20247486  .00000119  00000+0  16560-3 0  9994
2 69391  89.0042 352.1789 0002226 109.2077 250.9315 13.51030197 14624
QIANFAN-175             
1 69392U 26124L   26261.20670388  .00000121  00000+0  16907-3 0  9994
2 69392  89.0095 352.2225 0001822 101.9488 258.1868 13.51020243 14629
QIANFAN-176             
1 69393U 26124M   26261.13673767  .00000125  00000+0  17453-3 0  9992
2 69393  89.0056 352.2101 0001839 102.2585 257.8772 13.51021008 14608
QIANFAN-177             
1 69394U 26124N   26261.14496124  .00000120  00000+0  16786-3 0  9997
2 69394  89.0066 352.1977 0002116 109.4891 250.6489 13.51030091 14628
QIANFAN-178             
1 69395U 26124P   26261.21484392  .00000122  00000+0  16989-3 0  9997
2 69395  89.0012 352.1475 0001851 101.2284 258.9076 13.51026024 14640
QIANFAN-179             
1 69396U 26124Q   26261.14908199  .00000117  00000+0  16185-3 0  9998
2 69396  89.0044 352.1716 0001835 100.9268 259.2090 13.51029682 14636
QIANFAN-180             
1 69397U 26124R   26261.15319626  .00000105  00000+0  14430-3 0  9999
2 69397  89.0050 352.1920 0001830  96.7842 263.3517 13.51021915 14626
QIANFAN-181             
1 69398U 26124S   26261.12026818  .00000113  00000+0  15686-3 0  9998
2 69398  89.0072 352.2883 0002171 106.1954 253.9436 13.51023660 14577
QIANFAN-182             
1 69399U 26124T   26261.19838289  .00000118  00000+0  16463-3 0  9998
2 69399  89.0047 352.2514 0001830 104.0207 256.1147 13.51028215 14586
QIANFAN-183             
1 69401U 26125A   26261.15894269  .00000020  00000+0  11972-4 0  9992
2 69401  88.9832 270.5439 0002009 101.4891 258.6486 13.51027475 14497
QIANFAN-184             
1 69402U 26125B   26261.16718977  .00000037  00000+0  38844-4 0  9990
2 69402  88.9883 270.5694 0001963  97.5613 262.5762 13.51028699 14492
QIANFAN-185             
1 69403U 26125C   26260.52372312 -.01777842  00000+0 -31393+1 0  9995
2 69403  88.9894 270.5744 0009178 115.9164 244.2932 13.46850617 14441
QIANFAN-186             
1 69404U 26125D   26261.16311975  .00000022  00000+0  14679-4 0  9993
2 69404  88.9885 270.5697 0002007  96.0500 264.0880 13.51008231 14496
QIANFAN-187             
1 69405U 26125E   26261.17129867  .00000030  00000+0  27103-4 0  9997
2 69405  88.9885 270.5517 0002154  99.8738 260.2657 13.51007328 14503
QIANFAN-188             
1 69406U 26125F   26261.17945108  .00000024  00000+0  19087-4 0  9997
2 69406  88.9883 270.5506 0002037 102.8029 257.3349 13.51029362 14505
QIANFAN-189             
1 69407U 26125G   26261.18761468  .00000013  00000+0  18925-5 0  9993
2 69407  88.9866 270.5447 0002073 107.8647 252.2730 13.51028479 14496
QIANFAN-190             
1 69408U 26125H   26261.17527811  .00000028  00000+0  24714-4 0  9993
2 69408  88.9867 270.5438 0001898  96.4639 263.6728 13.51033339 14502
QIANFAN-191             
1 69409U 26125J   26261.20003263  .00000017  00000+0  83123-5 0  9996
2 69409  88.9881 270.5531 0001999 102.3782 257.7593 13.51032859 14501
QIANFAN-192             
1 69410U 26125K   26261.18350579  .00000011  00000+0 -22667-5 0  9991
2 69410  88.9888 270.5552 0002118 105.7128 254.4257 13.51019592 14508
QIANFAN-193             
1 69411U 26125L   26261.20834140  .00000027  00000+0  23077-4 0  9997
2 69411  88.9866 270.5292 0001910 103.0525 257.0839 13.51027444 14518
QIANFAN-194             
1 69412U 26125M   26261.20421170  .00000022  00000+0  14739-4 0  9993
2 69412  88.9898 270.5437 0002034 102.3450 257.7929 13.51026065 14506
QIANFAN-195             
1 69413U 26125N   26261.21246895  .00000041  00000+0  45583-4 0  9996
2 69413  88.9900 270.5278 0001936  88.8493 271.2880 13.51011774 14529
QIANFAN-196             
1 69414U 26125P   26261.14654486  .00000013  00000+0  94115-6 0  9994
2 69414  88.9905 270.5384 0001858  93.0498 267.0866 13.51035257 14517
QIANFAN-197             
1 69415U 26125Q   26261.15487779  .00000016  00000+0  60357-5 0  9998
2 69415  88.9879 270.5094 0001996 100.3345 259.8031 13.51023714 14510
QIANFAN-198             
1 69416U 26125R   26261.21655516  .00000024  00000+0  18763-4 0  9994
2 69416  88.9873 270.5159 0002031 102.8871 257.2507 13.51028148 14526
QIANFAN-199             
1 69417U 26125S   26261.15076905  .00000011  00000+0 -22075-5 0  9996
2 69417  88.9877 270.4727 0002223 101.1789 258.9612 13.51025693 14543
QIANFAN-200             
1 69418U 26125T   26261.19597414  .00000017  00000+0  71170-5 0  9999
2 69418  88.9884 270.5535 0002036 105.7010 254.4366 13.51026173 14506
QIANFAN-201             
1 69800U 26153A   26260.87320221 -.01814614  00000+0 -14241+1 0  9999
2 69800  88.9972 351.7514 0008479 106.1751 254.0359 13.96256456 10683
QIANFAN-202             
1 69801U 26153B   26260.88612325 -.01866535  00000+0 -13022+1 0  9995
2 69801  88.9974 351.7160 0011161 329.3423  30.7104 14.02364543 10693
QIANFAN-203             
1 69802U 26153C   26260.88487272 -.01777167  00000+0 -12255+1 0  9996
2 69802  88.9974 351.7533 0010716 341.9290  18.1508 14.03477447 10681
QIANFAN-204             
1 69803U 26153D   26260.84194597 -.01806226  00000+0 -13016+1 0  9993
2 69803  88.9972 351.7474 0007689 317.9035  42.1553 14.01085719 10681
QIANFAN-205             
1 69804U 26153E   26260.86784425 -.01871595  00000+0 -13838+1 0  9994
2 69804  88.9972 351.7684 0004906  43.8061 316.3506 13.99125146 10676
QIANFAN-206             
1 69805U 26153F   26260.81007234 -.01900907  00000+0 -12930+1 0  9998
2 69805  88.9974 351.7234 0009911 328.0296  32.0283 14.03856464 10695
QIANFAN-207             
1 69806U 26153G   26260.87355884 -.01928326  00000+0 -13789+1 0  9990
2 69806  88.9972 351.7514 0008558 324.5638  35.4972 14.01113315 10682
QIANFAN-208             
1 69807U 26153H   26260.85813220 -.01768354  00000+0 -13141+1 0  9997
2 69807  88.9969 351.7491 0004278 101.1846 258.9813 13.99264896 10692
QIANFAN-209             
1 69808U 26153J   26260.89680583 -.01808440  00000+0 -13589+1 0  9993
2 69808  88.9976 351.7554 0004847  47.7383 312.4206 13.98731971 10687
QIANFAN-210             
1 69809U 26153K   26260.86874126 -.01917070  00000+0 -13998+1 0  9993
2 69809  88.9973 351.7512 0006825 356.6757   3.4376 13.99920459 10681
QIANFAN-211             
1 69810U 26153L   26261.09881252  .00000192  00000+0  92917-4 0  9996
2 69810  88.9979 351.6924 0006940 354.3010   5.8097 14.14539431 10736
QIANFAN-212             
1 69811U 26153M   26260.86211416 -.01797411  00000+0 -12224+1 0  9999
2 69811  88.9973 351.7308 0012895 344.7302  15.3488 14.04287968 10690
QIANFAN-213             
1 69812U 26153N   26260.88141205 -.01813750  00000+0 -12879+1 0  9991
2 69812  88.9973 351.7335 0010246 338.7718  21.3035 14.01923207 10698
QIANFAN-214             
1 69813U 26153P   26260.91441819 -.01854017  00000+0 -12397+1 0  9996
2 69813  88.9972 351.6827 0007973 282.6776  77.3514 14.04726947 10729
QIANFAN-215             
1 69814U 26153Q   26260.87518277 -.01777301  00000+0 -10736+1 0  9990
2 69814  88.9972 351.6385 0007037 102.0798 258.1176 14.10832575 10746
QIANFAN-216             
1 69815U 26153R   26260.92669962 -.01799497  00000+0 -11721+1 0  9990
2 69815  88.9972 351.6657 0008123 359.1085   1.0081 14.06722827 10732
QIANFAN-217             
1 69816U 26153S   26261.20443830  .00000425  00000+0  18305-3 0  9998
2 69816  88.9977 351.5572 0007563   5.7745 354.3533 14.22762828 10815
QIANFAN-218             
1 69817U 26153T   26261.20267705  .00000082  00000+0  30334-4 0  9990
2 69817  88.9980 351.5596 0006131   8.2179 351.9112 14.22317686 10819
QIANFAN-219             
1 69848U 26155A   26260.87375372 -.01898614  00000+0 -31383+1 0  9998
2 69848  89.0078  53.9636 0036973  20.1383 340.1217 13.51122676 10380
QIANFAN-220             
1 69849U 26155B   26260.89038205 -.01903662  00000+0 -31376+1 0  9994
2 69849  89.0086  53.9899 0034275  22.3325 337.9309 13.51357021 10373
QIANFAN-221             
1 69850U 26155C   26260.85938073 -.01884442  00000+0 -21780+1 0  9996
2 69850  89.0081  53.7647 0033151  19.3548 340.8866 13.73402312 10496
QIANFAN-222             
1 69851U 26155D   26260.91160762 -.01891259  00000+0 -31431+1 0  9994
2 69851  89.0084  54.0074 0035895  19.4176 340.8334 13.50774753 10365
QIANFAN-223             
1 69852U 26155E   26260.84953134 -.01751610  00000+0 -31154+1 0  9998
2 69852  89.0085  54.0181 0038930  17.4090 342.8383 13.46042248 10359
QIANFAN-224             
1 69853U 26155F   26260.84412623 -.01784018  00000+0 -29107+1 0  9995
2 69853  89.0064  53.9663 0036491  25.7242 334.5715 13.51687443 10378
QIANFAN-225             
1 69854U 26155G   26260.84394160 -.01901364  00000+0 -31791+1 0  9998
2 69854  89.0076  54.0125 0035515  17.3656 342.8701 13.50417862 10359
QIANFAN-226             
1 69855U 26155H   26260.85444575 -.01784533  00000+0 -28858+1 0  9993
2 69855  89.0077  53.9954 0034106  21.0815 339.1734 13.52286942 10364
QIANFAN-227             
1 69856U 26155J   26260.91392465 -.01795401  00000+0 -31961+1 0  9996
2 69856  89.0078  53.9885 0037528  15.9846 344.2477 13.46110911 10373
QIANFAN-228             
1 69857U 26155K   26260.87954433 -.01817394  00000+0 -28933+1 0  9992
2 69857  89.0079  53.9848 0033082  23.6009 336.6653 13.53375243 10372
QIANFAN-229             
1 69858U 26155L   26260.86419191 -.01773854  00000+0 -29562+1 0  9990
2 69858  89.0084  53.9637 0036668  21.4613 338.8066 13.50306535 10383
QIANFAN-230             
1 69859U 26155M   26260.89877741 -.01842046  00000+0 -31326+1 0  9994
2 69859  89.0079  54.0025 0037645  17.9717 342.2754 13.49160123 10362
QIANFAN-231             
1 69860U 26155N   26261.13442104  .00000035  00000+0  32135-4 0  9999
2 69860  89.0085  53.9304 0037015  14.1115 346.1065 13.57849199 10422
QIANFAN-232             
1 69861U 26155P   26260.84125898 -.01784525  00000+0 -31622+1 0  9997
2 69861  89.0076  53.9575 0029770  15.6846 344.5218 13.46482901 10388
QIANFAN-233             
1 69862U 26155Q   26260.88940786 -.01795795  00000+0 -29039+1 0  9993
2 69862  89.0081  53.9493 0034811  20.8158 339.4402 13.52307320 10397
QIANFAN-234             
1 69863U 26155R   26260.90049514 -.01903893  00000+0 -27941+1 0  9996
2 69863  89.0077  53.8970 0035805  12.1790 348.0223 13.58680301 10422
QIANFAN-235             
1 69864U 26155S   26260.89123912 -.01781240  00000+0 -16815+1 0  9998
2 69864  89.0083  53.7166 0029592  25.5011 334.7612 13.85281734 10528
QIANFAN-236             
1 69865U 26155T   26260.84107705 -.01811093  00000+0 -28860+1 0  9999
2 69865  89.0084  53.9801 0031601  22.7450 337.5094 13.53318745 10374
QIANFAN-237             
1 69866U 26155U   26260.90507833 -.01822389  00000+0 -29182+1 0  9991
2 69866  89.0084  53.9352 0035963  23.0910 337.1848 13.52977449 10392
QIANFAN-238             
1 69867U 26155V   26260.90993003 -.01846779  00000+0 -29748+1 0  9997
2 69867  89.0086  53.9528 0027041  22.4242 337.8085 13.52772184 10398
