QIANFAN-1               
1 60379U 24140A   26252.54090477  .00000045  00000+0  50548-4 0  9993
2 60379  88.9669 271.1690 0018695 147.0435 213.1886 13.51025655103918
QIANFAN-2               
1 60380U 24140B   26252.56971816  .00000051  00000+0  60003-4 0  9996
2 60380  88.9656 270.9685 0014613 120.6925 239.5669 13.51034419103979
QIANFAN-3               
1 60381U 24140C   26252.57810584  .00000039  00000+0  42156-4 0  9997
2 60381  88.9648 271.0798 0015523 132.0256 228.2219 13.51022777103883
QIANFAN-4               
1 60382U 24140D   26252.55327873  .00000032  00000+0  30965-4 0  9998
2 60382  88.9673 271.0482 0014824 122.9974 237.2604 13.51020932104004
QIANFAN-5               
1 60383U 24140E   26252.60262281  .00000055  00000+0  66828-4 0  9998
2 60383  88.9647 271.1016 0016484 142.6390 217.5911 13.51030971103875
QIANFAN-6               
1 60384U 24140F   26252.54917495  .00000035  00000+0  34882-4 0  9999
2 60384  88.9675 270.9269 0014825 128.2264 232.0224 13.51023927104065
QIANFAN-7               
1 60385U 24140G   26252.54460491  .00000142  00000+0  51443-4 0  9990
2 60385  88.9720 261.8463 0013228 222.2810 137.7365 14.27891269109035
QIANFAN-8               
1 60386U 24140H   26252.55754538  .00000046  00000+0  51899-4 0  9998
2 60386  88.9675 271.1669 0018225 131.1871 229.0855 13.51025880103918
QIANFAN-9               
1 60387U 24140J   26252.60680733  .00000053  00000+0  62323-4 0  9992
2 60387  88.9673 271.2316 0017928 130.7491 229.5220 13.51021422103907
QIANFAN-10              
1 60388U 24140K   26252.53685760  .00000049  00000+0  56153-4 0  9999
2 60388  88.9685 270.6147 0016746 110.4466 249.8485 13.51021518104028
QIANFAN-11              
1 60389U 24140L   26252.57400320  .00000043  00000+0  47395-4 0  9993
2 60389  88.9609 270.9939 0015962 130.0711 230.1843 13.51020949103686
QIANFAN-12              
1 60390U 24140M   26252.52047451  .00000042  00000+0  46256-4 0  9996
2 60390  88.9653 271.1608 0014610 137.1335 223.0958 13.51023388103804
QIANFAN-13              
1 60391U 24140N   26252.56569326  .00000057  00000+0  69147-4 0  9991
2 60391  88.9913 271.3718 0014379 138.9954 221.2281 13.51023448103835
QIANFAN-14              
1 60392U 24140P   26252.59046016  .00000031  00000+0  29735-4 0  9992
2 60392  88.9643 271.1265 0018031 140.5797 219.6670 13.51018673103842
QIANFAN-15              
1 60393U 24140Q   26252.59862424  .00000059  00000+0  72451-4 0  9995
2 60393  88.9667 271.1467 0014157 126.7719 233.4734 13.51027628103832
QIANFAN-16              
1 60394U 24140R   26252.58622766  .00000025  00000+0  19561-4 0  9994
2 60394  88.9669 271.2756 0015872 143.3770 216.8469 13.51025085103749
QIANFAN-17              
1 60395U 24140S   26252.58222670  .00000031  00000+0  29348-4 0  9996
2 60395  88.9680 271.3516 0016426 137.7754 222.4665 13.51021350104702
QIANFAN-18              
1 60396U 24140T   26252.56165996  .00000045  00000+0  50898-4 0  9991
2 60396  88.9675 270.8697 0016131 122.1541 238.1178 13.51020762104097
QIANFAN-19              
1 61552U 24185A   26252.53695866  .00000269  00000+0  13278-3 0  9994
2 61552  88.9838  46.9125 0008087 141.3578 218.8189 14.14525844107940
QIANFAN-20              
1 61553U 24185B   26252.55177293  .00000259  00000+0  14158-3 0  9993
2 61553  88.9833  47.5020 0005485 177.5748 182.5463 14.09066795107622
QIANFAN-21              
1 61554U 24185C   26252.58901226  .00000435  00000+0  18693-3 0  9992
2 61554  88.9759  45.2595 0010126 188.8856 171.2158 14.22925147108486
QIANFAN-22              
1 61555U 24185D   26252.51961063  .00000151  00000+0  11893-3 0  9991
2 61555  88.9812  49.5790 0004651 236.0112 124.0618 13.86426502106450
QIANFAN-23              
1 61556U 24185E   26252.55155858  .00000294  00000+0  14063-3 0  9993
2 61556  88.9832  46.5944 0008442 148.9980 211.1708 14.16547749108087
QIANFAN-24              
1 61557U 24185F   26252.57244091  .00000372  00000+0  15527-3 0  9997
2 61557  88.9816  45.5558 0011245 127.7191 232.5022 14.24148987108563
QIANFAN-25              
1 61558U 24185G   26252.58364652  .00000382  00000+0  22396-3 0  9998
2 61558  88.9822  47.5399 0011733 202.2971 157.7703 14.06123881107562
QIANFAN-26              
1 61559U 24185H   26252.54587712  .00000151  00000+0  13776-3 0  9995
2 61559  88.9817  50.5201 0003715 272.9274  87.1467 13.77941134105965
QIANFAN-27              
1 61560U 24185J   26252.53759784  .00000469  00000+0  18480-3 0  9995
2 61560  88.9828  45.2030 0009354 114.2055 246.0118 14.27596409108790
QIANFAN-28              
1 61561U 24185K   26252.57725246  .00000496  00000+0  19239-3 0  9999
2 61561  88.9846  45.2129 0009272 112.3515 247.8664 14.28476512108832
QIANFAN-29              
1 61562U 24185L   26252.57685129  .00000121  00000+0  16789-3 0  9997
2 61562  88.9784  53.3132 0009546 358.7008   1.4116 13.51091801104364
QIANFAN-30              
1 61563U 24185M   26252.53436704  .00000121  00000+0  17075-3 0  9996
2 61563  88.9805  52.9468 0006928 347.5583  12.5396 13.50073564104606
QIANFAN-31              
1 61564U 24185N   26252.53280585  .00000130  00000+0  16363-3 0  9990
2 61564  88.9790  52.3190 0005897 332.4870  27.5972 13.58061631104912
QIANFAN-32              
1 61565U 24185P   26252.57684917  .00000105  00000+0  14512-3 0  9998
2 61565  88.9844  53.1558 0009940  16.2314 343.9154 13.50804455104607
QIANFAN-33              
1 61566U 24185Q   26252.57482307  .00000285  00000+0  19559-3 0  9993
2 61566  88.9814  48.6136 0007282 185.0027 175.1078 13.96748066106965
QIANFAN-34              
1 61567U 24185R   26252.57006460  .00000357  00000+0  22342-3 0  9990
2 61567  88.9792  47.8195 0005726 172.9952 187.1309 14.02513412107313
QIANFAN-35              
1 61568U 24185S   26252.56351396  .00000450  00000+0  17442-3 0  9990
2 61568  88.9827  45.0939 0008474 109.6747 250.5363 14.28349374108836
QIANFAN-36              
1 61569U 24185T   26252.55384719  .00000080  00000+0  97547-4 0  9999
2 61569  88.9781  52.8209 0005736 353.9451   6.1633 13.55646210104611
QIANFAN-37              
1 62238U 24232B   26252.61859410  .00000061  00000+0  75361-4 0  9997
2 62238  89.0145  14.1228 0002223  88.4748 271.6658 13.51028827135748
QIANFAN-38              
1 62239U 24232C   26252.42115961  .00000061  00000+0  75686-4 0  9993
2 62239  89.0151  14.0765 0016248 129.9626 230.2955 13.51027153135774
QIANFAN-39              
1 62240U 24232D   26252.59302574  .00000280  00000+0  11214-3 0  9990
2 62240  89.0134   6.4762 0013804 270.1371  89.8241 14.25555040139975
QIANFAN-40              
1 62241U 24232E   26252.60220386  .00000071  00000+0  90461-4 0  9993
2 62241  89.0180  13.7186 0015211 136.3214 223.9144 13.51027347136164
QIANFAN-41              
1 62242U 24232F   26252.53635614  .00000055  00000+0  67060-4 0  9991
2 62242  89.0150  14.0115 0015713 126.0529 234.2081 13.51028495135811
QIANFAN-42              
1 62243U 24232G   26252.62329045  .00000265  00000+0  10775-3 0  9993
2 62243  89.0133   6.5600 0012627 278.3660  81.6101 14.24642388139934
QIANFAN-43              
1 62244U 24232H   26252.60630340  .00000058  00000+0  70239-4 0  9997
2 62244  89.0154  14.0818 0017185 130.8383 229.4261 13.51028030104438
QIANFAN-44              
1 62245U 24232J   26252.59398805  .00000064  00000+0  79666-4 0  9993
2 62245  89.0153  13.8894 0015443 127.8630 232.3921 13.51028283135907
QIANFAN-45              
1 62246U 24232K   26252.63514102  .00000070  00000+0  90130-4 0  9995
2 62246  89.0156  14.0414 0016110 127.5392 232.7226 13.51027136135836
QIANFAN-46              
1 62247U 24232L   26252.51164681  .00000062  00000+0  76629-4 0  9994
2 62247  89.0152  14.1117 0016075 132.8348 227.4157 13.51028120135775
QIANFAN-47              
1 62248U 24232M   26252.51579993  .00000067  00000+0  85242-4 0  9997
2 62248  89.0148  14.0333 0016508 132.1567 228.0990 13.51027318135801
QIANFAN-48              
1 62249U 24232N   26252.62694158  .00000072  00000+0  91966-4 0  9997
2 62249  89.0152  14.0347 0018734 134.6717 225.5965 13.51021654135822
QIANFAN-49              
1 62250U 24232P   26252.61456167  .00000053  00000+0  63849-4 0  9992
2 62250  89.0151  14.0463 0015898 129.2503 231.0062 13.51028803104417
QIANFAN-50              
1 62251U 24232Q   26252.56514513  .00000061  00000+0  75921-4 0  9990
2 62251  89.0157  14.0741 0017535 130.9058 229.3615 13.51028269104439
QIANFAN-51              
1 62252U 24232R   26252.62278005  .00000065  00000+0  81498-4 0  9991
2 62252  89.0151  14.0456 0014943 133.6397 226.5997 13.51027301104431
QIANFAN-52              
1 62253U 24232S   26252.57751211  .00000062  00000+0  76543-4 0  9993
2 62253  89.0147  13.9131 0017086 127.0989 233.1727 13.51029301104516
QIANFAN-53              
1 62254U 24232T   26252.63105022  .00000066  00000+0  83683-4 0  9991
2 62254  89.0154  14.0328 0015952 127.7533 232.5067 13.51026123104482
QIANFAN-54              
1 62255U 24232U   26252.59808816  .00000064  00000+0  81057-4 0  9999
2 62255  89.0145  13.6906 0003326 140.7423 219.3970 13.51027861135980
QIANFAN-55              
1 62785U 25016A   26252.55010193  .00000052  00000+0  62590-4 0  9995
2 62785  88.9666  75.0996 0015567 288.0472  71.8983 13.51024282 83751
QIANFAN-56              
1 62786U 25016B   26252.56641630  .00000051  00000+0  60892-4 0  9995
2 62786  88.9640  74.8621 0014196 291.1822  68.7812 13.51027416 83801
QIANFAN-57              
1 62787U 25016C   26252.52543456  .00000052  00000+0  61512-4 0  9990
2 62787  88.9670  75.1043 0002562  87.9155 272.2289 13.51027161 83763
QIANFAN-58              
1 62788U 25016D   26252.57065718  .00000055  00000+0  67271-4 0  9997
2 62788  88.9641  74.8487 0012016 282.9124  77.0685 13.51019535 83811
QIANFAN-59              
1 62789U 25016E   26252.52113639  .00000051  00000+0  60779-4 0  9991
2 62789  88.9663  74.9914 0012428 287.3581  72.6210 13.51023917 83808
QIANFAN-60              
1 62790U 25016F   26252.55408122  .00000056  00000+0  67821-4 0  9990
2 62790  88.9645  74.9079 0013931 282.9356  77.0239 13.51027285 83793
QIANFAN-61              
1 62791U 25016G   26252.58703899  .00000055  00000+0  66367-4 0  9996
2 62791  88.9711  75.2506 0012897 282.4264  77.5444 13.51026892 83819
QIANFAN-62              
1 62792U 25016H   26252.51715287  .00000052  00000+0  61519-4 0  9995
2 62792  88.9658  74.9809 0014239 282.7341  77.2219 13.51019332 83798
QIANFAN-63              
1 62793U 25016J   26252.54179563  .00000058  00000+0  71828-4 0  9990
2 62793  88.9665  74.9481 0014359 288.6935  71.2657 13.51022393 83836
QIANFAN-64              
1 62794U 25016K   26252.58294943  .00000059  00000+0  72211-4 0  9993
2 62794  88.9652  74.8816 0012216 280.8358  79.1418 13.51026900 83837
QIANFAN-65              
1 62795U 25016L   26252.57870419  .00000063  00000+0  79349-4 0  9995
2 62795  88.9649  74.8984 0012090 282.8488  77.1312 13.51023067 83816
QIANFAN-66              
1 62796U 25016M   26252.53343068  .00000059  00000+0  72479-4 0  9999
2 62796  88.9668  74.9265 0013152 277.8268  82.1390 13.51028727 83855
QIANFAN-67              
1 62797U 25016N   26252.53758888  .00000068  00000+0  86377-4 0  9992
2 62797  88.9658  74.9250 0013177 285.7078  74.2620 13.51028555 83827
QIANFAN-68              
1 62798U 25016P   26252.60347021  .00000059  00000+0  72587-4 0  9992
2 62798  88.9661  74.9730 0013229 283.0343  76.9331 13.51021305 83812
QIANFAN-69              
1 62799U 25016Q   26252.54578210  .00000057  00000+0  69090-4 0  9995
2 62799  88.9641  74.7908 0013979 284.7277  75.2324 13.51023740 83844
QIANFAN-70              
1 62800U 25016R   26252.56236818  .00000058  00000+0  71232-4 0  9997
2 62800  88.9661  74.9839 0013506 273.7672  86.1934 13.51023061 83807
QIANFAN-71              
1 62801U 25016S   26252.55823012  .00000049  00000+0  57504-4 0  9991
2 62801  88.9655  74.9475 0013933 288.7282  71.2357 13.51026254 83805
QIANFAN-72              
1 62802U 25016T   26252.57476059  .00000064  00000+0  80217-4 0  9993
2 62802  88.9646  74.9327 0017309 296.1056  63.8314 13.51020145 83796
QIANFAN-73              
1 63159U 25046A   26252.60175084  .00000034  00000+0  33905-4 0  9999
2 63159  88.9659 291.9050 0016805  65.2142 295.0756 13.51024815 83989
QIANFAN-74              
1 63160U 25046B   26252.58526824  .00000003  00000+0 -14285-4 0  9997
2 63160  88.9658 291.7962 0001851  95.2856 264.8506 13.51018849 84045
QIANFAN-75              
1 63161U 25046C   26252.57305536  .00000075  00000+0  97037-4 0  9996
2 63161  88.9662 292.0351 0018000  68.2576 292.0489 13.51029508 83912
QIANFAN-76              
1 63162U 25046D   26252.56894130 -.00000087  00000+0 -15356-3 0  9997
2 63162  88.9660 292.0152 0015426  69.1371 291.1430 13.51021710 83926
QIANFAN-77              
1 63163U 25046E   26252.59187832  .00000107  00000+0  67974-4 0  9990
2 63163  88.9664 287.7871 0013117 321.9007  38.1241 13.96245198 86244
QIANFAN-78              
1 63164U 25046F   26252.53642222  .00000039  00000+0  41871-4 0  9996
2 63164  88.9661 291.8805 0016970  70.7770 289.5215 13.51011388 83996
QIANFAN-79              
1 63165U 25046G   26252.56469834  .00000022  00000+0  15418-4 0  9996
2 63165  88.9664 291.9944 0016619  69.4665 290.8268 13.51020933 83947
QIANFAN-80              
1 63166U 25046H   26252.58122342  .00000071  00000+0  90583-4 0  9999
2 63166  88.9661 291.6922 0015595  73.6437 286.6427 13.51028799 84101
QIANFAN-81              
1 63167U 25046J   26252.56054618  .00000082  00000+0  10764-3 0  9992
2 63167  88.9661 291.7617 0016602  64.1504 296.1357 13.51019207 84050
QIANFAN-82              
1 63168U 25046K   26252.59354151  .00000070  00000+0  90088-4 0  9996
2 63168  88.9661 291.8025 0014614  70.5342 289.7387 13.51019688 84040
QIANFAN-83              
1 63169U 25046L   26252.56079841  .00000089  00000+0  98825-4 0  9991
2 63169  88.9663 291.0484 0015264  43.4807 316.7551 13.62064044 84469
QIANFAN-84              
1 63170U 25046M   26252.54826516 -.00000033  00000+0 -69602-4 0  9992
2 63170  88.9660 291.9397 0017489  66.8216 293.4775 13.51018233 83964
QIANFAN-85              
1 63171U 25046N   26252.54411735  .00000079  00000+0  10315-3 0  9990
2 63171  88.9661 291.8100 0015146  69.4657 290.8118 13.51019684 84035
QIANFAN-86              
1 63172U 25046P   26252.55235637  .00000088  00000+0  11707-3 0  9993
2 63172  88.9663 291.6776 0013101  73.6882 286.5709 13.51024579 84117
QIANFAN-87              
1 63173U 25046Q   26252.59765477  .00000028  00000+0  25155-4 0  9995
2 63173  88.9659 291.7745 0013525  69.0732 291.1865 13.51031842 84052
QIANFAN-88              
1 63174U 25046R   26252.54001604  .00000071  00000+0  90435-4 0  9997
2 63174  88.9662 291.7417 0014096  76.5503 283.7219 13.51028720 84079
QIANFAN-89              
1 63175U 25046S   26252.57702699  .00000077  00000+0  99482-4 0  9990
2 63175  88.9661 291.9267 0018461  66.9738 293.3358 13.51024060 83979
QIANFAN-90              
1 63176U 25046T   26252.60586734  .00000031  00000+0  28345-4 0  9995
2 63176  88.9662 291.8969 0015358  66.2763 293.9997 13.51019588 83998
QIANFAN-91              
1 66033U 25233A   26252.41614197  .00000061  00000+0  75229-4 0  9998
2 66033  89.0035  34.6694 0001933  90.4665 269.6708 13.51028251 44557
QIANFAN-92              
1 66034U 25233B   26252.42451071  .00000053  00000+0  63867-4 0  9996
2 66034  89.0018  34.6265 0001957  98.9104 261.2269 13.50998040 44551
QIANFAN-93              
1 66035U 25233C   26252.43268486  .00000060  00000+0  74204-4 0  9999
2 66035  89.0046  34.7003 0002068  92.2525 267.8863 13.50999959 44554
QIANFAN-94              
1 66036U 25233D   26252.64248861  .00000069  00000+0  87925-4 0  9991
2 66036  89.0042  34.5795 0001830  96.1766 263.9594 13.51026626 44633
QIANFAN-95              
1 66037U 25233E   26252.42852483  .00000072  00000+0  92595-4 0  9992
2 66037  89.0042  34.1428 0001807  89.9629 270.1729 13.51021133 44857
QIANFAN-96              
1 66038U 25233F   26252.45318302  .00000059  00000+0  73229-4 0  9991
2 66038  89.0038  34.6814 0001939  88.4285 271.7089 13.51027840 44559
QIANFAN-97              
1 66039U 25233G   26252.43675043  .00000062  00000+0  77930-4 0  9995
2 66039  89.0041  34.6698 0001932  91.1584 268.9788 13.51027861 44557
QIANFAN-98              
1 66040U 25233H   26252.44498981  .00000057  00000+0  69408-4 0  9997
2 66040  89.0029  34.3909 0001483 103.5542 256.5775 13.51028123 44708
QIANFAN-99              
1 66041U 25233J   26252.44907449  .00000057  00000+0  68980-4 0  9996
2 66041  89.0038  34.6730 0001467  94.6369 265.4950 13.51034511 44569
QIANFAN-100             
1 66042U 25233K   26252.44083589  .00000055  00000+0  66858-4 0  9997
2 66042  89.0053  34.6105 0001979  91.5513 268.5865 13.51019163 44619
QIANFAN-101             
1 66043U 25233L   26252.38027897  .00000332  00000+0  13092-3 0  9990
2 66043  89.0043  30.9022 0013608 221.4537 138.5626 14.26856196 46631
QIANFAN-102             
1 66044U 25233M   26252.46142931  .00000061  00000+0  75245-4 0  9995
2 66044  89.0040  34.5797 0001829  95.0161 265.1199 13.51027340 44614
QIANFAN-103             
1 66045U 25233N   26251.79899272  .00000074  00000+0  95260-4 0  9991
2 66045  89.0040  34.7438 0001970  91.7598 268.3779 13.51020210 44475
QIANFAN-104             
1 66046U 25233P   26252.39552881  .00000063  00000+0  79518-4 0  9997
2 66046  89.0046  34.5897 0001835  98.3440 261.7919 13.51025413 44606
QIANFAN-105             
1 66047U 25233Q   26251.81130330  .00000070  00000+0  89672-4 0  9995
2 66047  89.0059  34.5028 0001826  90.4837 269.6523 13.51025235 44633
QIANFAN-106             
1 66048U 25233R   26252.39967958  .00000060  00000+0  75088-4 0  9999
2 66048  89.0028  34.6301 0001547 100.8887 259.2439 13.51029037 44552
QIANFAN-107             
1 66049U 25233S   26252.40791881  .00000054  00000+0  64496-4 0  9996
2 66049  89.0043  34.6751 0001934  92.7740 267.3633 13.51028237 44564
QIANFAN-108             
1 66050U 25233T   26252.41207042  .00000058  00000+0  71159-4 0  9998
2 66050  89.0037  34.6564 0001575 101.5269 258.6059 13.51020489 44563
QIANFAN-109             
1 68636U 26075A   26252.57401916  .00000080  00000+0  10557-3 0  9997
2 68636  88.9884 312.4045 0002361  87.1624 272.9797 13.51019851 21184
QIANFAN-110             
1 68637U 26075B   26252.58225850  .00000066  00000+0  84125-4 0  9997
2 68637  88.9884 312.4252 0002299 100.2752 259.8659 13.51030917 21181
QIANFAN-111             
1 68638U 26075C   26252.57011188  .00000077  00000+0  10073-3 0  9996
2 68638  88.9883 312.3855 0002292  99.6984 260.4426 13.51020265 21208
QIANFAN-112             
1 68639U 26075D   26252.60706385  .00000073  00000+0  94777-4 0  9991
2 68639  88.9881 312.3896 0002563  90.0760 270.0685 13.51022714 21205
QIANFAN-113             
1 68640U 26075E   26252.57811387  .00000076  00000+0  99686-4 0  9995
2 68640  88.9887 312.3910 0002393  98.1288 262.0135 13.51028819 21208
QIANFAN-114             
1 68641U 26075F   26252.58637245  .00000066  00000+0  83831-4 0  9990
2 68641  88.9882 312.4053 0002281  99.0815 261.0594 13.51026934 21197
QIANFAN-115             
1 68642U 26075G   26252.54116984  .00000068  00000+0  86905-4 0  9996
2 68642  88.9882 312.4171 0002219  95.6935 264.4469 13.51023578 21183
QIANFAN-116             
1 68643U 26075H   26252.60286624  .00000077  00000+0  10063-3 0  9994
2 68643  88.9875 312.3650 0002537  93.0524 267.0918 13.51024237 21200
QIANFAN-117             
1 68644U 26075J   26252.59059986  .00000067  00000+0  85221-4 0  9990
2 68644  88.9880 312.3859 0002334  93.0354 267.1064 13.51022038 21204
QIANFAN-118             
1 68645U 26075K   26252.54938895  .00000061  00000+0  75186-4 0  9994
2 68645  88.9885 312.4021 0002343 102.4858 257.6556 13.51023846 21192
QIANFAN-119             
1 68646U 26075L   26252.59870330  .00000045  00000+0  50424-4 0  9999
2 68646  88.9885 312.3928 0002228  88.8507 271.2900 13.51036838 21200
QIANFAN-120             
1 68647U 26075M   26252.61103563  .00000073  00000+0  95107-4 0  9998
2 68647  88.9886 312.3778 0002185  87.6739 272.4662 13.51019316 21212
QIANFAN-121             
1 68648U 26075N   26252.56180955  .00000070  00000+0  90329-4 0  9991
2 68648  88.9884 312.3860 0002267 100.9522 259.1884 13.51022874 21203
QIANFAN-122             
1 68649U 26075P   26252.55355400  .00000063  00000+0  79023-4 0  9990
2 68649  88.9883 312.3840 0002359  91.1715 268.9706 13.51026369 21190
QIANFAN-123             
1 68650U 26075Q   26252.59457465  .00000068  00000+0  87107-4 0  9997
2 68650  88.9880 312.3670 0002418  85.7075 274.4353 13.51031625 21184
QIANFAN-124             
1 68651U 26075R   26252.54534625  .00000061  00000+0  75414-4 0  9998
2 68651  88.9883 312.3833 0002410  90.1345 270.0082 13.51025964 21204
QIANFAN-125             
1 68652U 26075S   26252.55769626  .00000066  00000+0  84178-4 0  9993
2 68652  88.9882 312.3840 0002300 100.8406 259.3004 13.51022970 21205
QIANFAN-126             
1 68653U 26075T   26252.56578578  .00000076  00000+0  98670-4 0  9992
2 68653  88.9886 312.3522 0002399  86.0022 274.1404 13.51028293 21229
QIANFAN-127             
1 69073U 26104A   26252.57110575  .00000093  00000+0  12597-3 0  9994
2 69073  88.9936 332.8666 0002510 108.4134 251.7290 13.50992830 16556
QIANFAN-128             
1 69074U 26104B   26252.57930451  .00000092  00000+0  12426-3 0  9998
2 69074  88.9914 332.8920 0002069 114.7509 245.3857 13.51022000 16531
QIANFAN-129             
1 69075U 26104C   26252.60392281  .00000088  00000+0  11785-3 0  9998
2 69075  88.9916 332.8235 0002223 111.0939 249.0450 13.51021931 16578
QIANFAN-130             
1 69076U 26104D   26252.56691008  .00000088  00000+0  11809-3 0  9990
2 69076  88.9918 332.8928 0002576 103.0704 257.0735 13.51032562 16535
QIANFAN-131             
1 69077U 26104E   26252.58764244  .00000100  00000+0  13686-3 0  9996
2 69077  88.9912 332.8519 0002000 106.8814 253.2556 13.51024219 16552
QIANFAN-132             
1 69078U 26104F   26252.57511256  .00000094  00000+0  12695-3 0  9990
2 69078  88.9914 332.9096 0002422 104.2579 255.8842 13.51020339 16526
QIANFAN-133             
1 69079U 26104G   26252.58351645  .00000105  00000+0  14337-3 0  9994
2 69079  88.9918 332.8586 0001840 111.4246 248.7101 13.51029163 16543
QIANFAN-134             
1 69080U 26104H   26252.53821804  .00000086  00000+0  11390-3 0  9994
2 69080  88.9921 332.8892 0002030 113.4419 246.6946 13.51027469 16535
QIANFAN-135             
1 69081U 26104J   26252.59157149  .00000103  00000+0  14041-3 0  9991
2 69081  88.9915 332.8751 0002241 116.3962 243.7420 13.51020690 16547
QIANFAN-136             
1 69082U 26104K   26252.59991045  .00000091  00000+0  12277-3 0  9998
2 69082  88.9917 332.8771 0001894 112.0934 248.0419 13.51030589 16541
QIANFAN-137             
1 69083U 26104L   26252.59578715  .00000098  00000+0  13349-3 0  9992
2 69083  88.9926 332.7532 0002334 103.3866 256.7546 13.51030369 16614
QIANFAN-138             
1 69084U 26104M   26252.54630236  .00000072  00000+0  92692-4 0  9996
2 69084  88.9911 332.8830 0002420 111.5505 248.5904 13.51020072 16536
QIANFAN-139             
1 69085U 26104N   26252.60826572  .00000094  00000+0  12661-3 0  9995
2 69085  88.9913 332.8583 0002490 106.0269 254.1157 13.51028881 16558
QIANFAN-140             
1 69086U 26104P   26252.54221022  .00000099  00000+0  13490-3 0  9994
2 69086  88.9914 332.8685 0002339 116.1062 244.0330 13.51021131 16549
QIANFAN-141             
1 69087U 26104Q   26252.55051313  .00000100  00000+0  13652-3 0  9993
2 69087  88.9911 332.8323 0002153 114.3064 245.8312 13.51027201 16567
QIANFAN-142             
1 69088U 26104R   26252.55868329  .00000104  00000+0  14301-3 0  9993
2 69088  88.9909 332.8309 0002366 111.8528 248.2875 13.51029730 16562
QIANFAN-143             
1 69089U 26104S   26252.55467913  .00000102  00000+0  13995-3 0  9994
2 69089  88.9920 332.8368 0001950 105.4431 254.6936 13.51025780 16561
QIANFAN-144             
1 69090U 26104T   26252.56278839  .00000093  00000+0  12571-3 0  9992
2 69090  88.9918 332.8543 0002472 108.9856 251.1563 13.51030017 16550
QIANFAN-145             
1 69104U 26108A   26252.64118296  .00000057  00000+0  70492-4 0  9998
2 69104  89.0182  13.6112 0001663  95.8875 264.2466 13.51032673 15841
QIANFAN-146             
1 69105U 26108B   26252.52608955  .00000070  00000+0  89659-4 0  9992
2 69105  89.0184  13.4595 0002030  98.8591 261.2790 13.51038147 15922
QIANFAN-147             
1 69106U 26108C   26252.57549244  .00000056  00000+0  68028-4 0  9994
2 69106  89.0184  13.6219 0002076 103.6131 256.5252 13.51023215 15822
QIANFAN-148             
1 69107U 26108D   26252.56307838  .00000067  00000+0  84842-4 0  9999
2 69107  89.0177  13.6138 0001896 108.0842 252.0516 13.51022781 15823
QIANFAN-149             
1 69108U 26108E   26252.57123762  .00000056  00000+0  67460-4 0  9998
2 69108  89.0177  13.6343 0002176 111.1922 248.9462 13.51022262 15826
QIANFAN-150             
1 69109U 26108F   26252.57944008  .00000063  00000+0  78786-4 0  9994
2 69109  89.0182  13.5862 0002201 110.2473 249.8915 13.51022814 15846
QIANFAN-151             
1 69110U 26108G   26252.53437782  .00000066  00000+0  83372-4 0  9998
2 69110  89.0182  13.6144 0001842  99.6801 260.4558 13.51025906 15822
QIANFAN-152             
1 69111U 26108H   26252.58767895  .00000073  00000+0  93767-4 0  9992
2 69111  89.0178  13.6012 0002300 100.1965 259.9446 13.51027137 15840
QIANFAN-153             
1 69112U 26108J   26252.58354650  .00000064  00000+0  80534-4 0  9992
2 69112  89.0174  13.5784 0002192 105.7685 254.3708 13.51023109 15846
QIANFAN-154             
1 69113U 26108K   26252.51786373  .00000073  00000+0  93765-4 0  9997
2 69113  89.0185  13.6327 0002079 106.6475 253.4904 13.51025101 15824
QIANFAN-155             
1 69114U 26108L   26252.59590202  .00000073  00000+0  93821-4 0  9993
2 69114  89.0182  13.5897 0002207 107.7741 252.3652 13.51021986 15841
QIANFAN-156             
1 69115U 26108M   26252.61644340  .00000067  00000+0  85833-4 0  9997
2 69115  89.0197  13.5875 0001841 105.2893 254.8462 13.51021904 15866
QIANFAN-157             
1 69116U 26108N   26252.60430819  .00000066  00000+0  84227-4 0  9996
2 69116  89.0178  13.5140 0001949 110.9166 249.2195 13.51026589 15894
QIANFAN-158             
1 69117U 26108P   26252.62055228  .00000072  00000+0  92668-4 0  9991
2 69117  89.0180  13.5534 0001833 102.8201 257.3156 13.51033729 15876
QIANFAN-159             
1 69118U 26108Q   26252.61236021  .00000060  00000+0  74181-4 0  9990
2 69118  89.0172  13.5615 0001895 101.3452 258.7912 13.51021822 15863
QIANFAN-160             
1 69119U 26108R   26252.55489230  .00000074  00000+0  95733-4 0  9997
2 69119  89.0187  13.6030 0002311 109.3301 250.8101 13.51022034 15844
QIANFAN-161             
1 69120U 26108S   26252.63293250  .00000076  00000+0  98714-4 0  9997
2 69120  89.0194  13.5113 0001840 101.5896 258.5462 13.51036995 15907
QIANFAN-162             
1 69121U 26108T   26252.55063944  .00000077  00000+0  10094-3 0  9999
2 69121  89.0183  13.5458 0002184 100.7470 259.3927 13.51021313 15867
QIANFAN-163             
1 69325U 26121A   26252.58933766  .00000041  00000+0  44303-4 0  9993
2 69325  89.0118 292.1158 0002043 124.8710 235.2634 13.51022052 13565
QIANFAN-164             
1 69326U 26121B   26252.55642321  .00000061  00000+0  75598-4 0  9997
2 69326  89.0116 292.1096 0001830 111.1156 249.0191 13.51020937 13562
QIANFAN-165             
1 69382U 26124A   26252.56611061  .00000101  00000+0  13858-3 0  9995
2 69382  89.0072 353.1204 0001646 117.4108 242.7211 13.51019952 13439
QIANFAN-166             
1 69383U 26124B   26252.57026362  .00000108  00000+0  14867-3 0  9999
2 69383  89.0090 353.1289 0001856 100.6440 259.4920 13.51020451 13437
QIANFAN-167             
1 69384U 26124C   26252.57432679  .00000108  00000+0  14909-3 0  9999
2 69384  89.0064 353.1369 0002143 108.6117 251.5267 13.51029553 13425
QIANFAN-168             
1 69385U 26124D   26252.57830019  .00000018  00000+0  88355-5 0  9998
2 69385  89.0060 353.1168 0001635 100.4440 259.6895 13.51018139 13438
QIANFAN-169             
1 69386U 26124E   26252.58258317  .00000092  00000+0  12395-3 0  9996
2 69386  89.0059 353.1163 0001928  97.6677 262.4693 13.51021499 13437
QIANFAN-170             
1 69387U 26124F   26252.51260628  .00000085  00000+0  11241-3 0  9999
2 69387  89.0076 353.0937 0001918  95.1801 264.9569 13.51023929 13446
QIANFAN-171             
1 69388U 26124G   26252.52088296  .00000092  00000+0  12453-3 0  9994
2 69388  89.0091 353.1039 0002114 104.3897 255.7489 13.51016958 13448
QIANFAN-172             
1 69389U 26124H   26252.51673785  .00000091  00000+0  12243-3 0  9993
2 69389  89.0074 353.0959 0001619 112.2361 247.8962 13.51027519 13446
QIANFAN-173             
1 69390U 26124J   26252.52480460  .00000095  00000+0  12854-3 0  9994
2 69390  89.0063 353.0928 0001696  96.3041 263.8303 13.51020474 13444
QIANFAN-174             
1 69391U 26124K   26252.53725932  .00000104  00000+0  14315-3 0  9997
2 69391  89.0043 353.0511 0002124 110.6711 249.4668 13.51028309 13452
QIANFAN-175             
1 69392U 26124L   26252.54142492  .00000098  00000+0  13282-3 0  9997
2 69392  89.0095 353.0901 0001876  99.0390 261.0973 13.51018398 13455
QIANFAN-176             
1 69393U 26124M   26252.61958806  .00000094  00000+0  12694-3 0  9992
2 69393  89.0057 353.0662 0001883  99.2482 260.8882 13.51019234 13456
QIANFAN-177             
1 69394U 26124N   26252.55380657  .00000092  00000+0  12460-3 0  9998
2 69394  89.0067 353.0603 0002016 109.7581 250.3788 13.51028272 13461
QIANFAN-178             
1 69395U 26124P   26252.62366392  .00000091  00000+0  12170-3 0  9994
2 69395  89.0013 353.0148 0001907  98.7981 261.3386 13.51024224 13487
QIANFAN-179             
1 69396U 26124Q   26252.55792520  .00000108  00000+0  14907-3 0  9992
2 69396  89.0045 353.0362 0001907  98.2155 261.9212 13.51027845 13474
QIANFAN-180             
1 69397U 26124R   26252.56199065  .00000018  00000+0  94386-5 0  9990
2 69397  89.0051 353.0561 0001957  94.6701 265.4674 13.51019956 13469
QIANFAN-181             
1 69398U 26124S   26252.52907285  .00000102  00000+0  13920-3 0  9995
2 69398  89.0073 353.1505 0002128 107.0197 253.1187 13.51021757 13412
QIANFAN-182             
1 69399U 26124T   26252.53315500  .00000104  00000+0  14228-3 0  9994
2 69399  89.0048 353.1231 0001854 100.8638 259.2722 13.51026320 13410
QIANFAN-183             
1 69401U 26125A   26252.56777762  .00000044  00000+0  49853-4 0  9990
2 69401  88.9837 271.4256 0001878 100.9423 259.1940 13.51027266 13338
QIANFAN-184             
1 69402U 26125B   26252.57603184  .00000049  00000+0  57092-4 0  9997
2 69402  88.9888 271.4467 0001891  96.4446 263.6921 13.51028360 13333
QIANFAN-185             
1 69403U 26125C   26252.60072768  .00000047  00000+0  53618-4 0  9998
2 69403  88.9902 271.3825 0001801  97.4375 262.6981 13.51017419 13373
QIANFAN-186             
1 69404U 26125D   26252.57183262  .00000046  00000+0  52445-4 0  9993
2 69404  88.9890 271.4468 0001957  95.6342 264.5033 13.51008117 13330
QIANFAN-187             
1 69405U 26125E   26252.58000523  .00000035  00000+0  34846-4 0  9996
2 69405  88.9890 271.4287 0002035 100.8284 259.3097 13.51007159 13340
QIANFAN-188             
1 69406U 26125F   26252.58829729  .00000037  00000+0  39394-4 0  9999
2 69406  88.9888 271.4279 0001882 102.6121 257.5240 13.51029076 13340
QIANFAN-189             
1 69407U 26125G   26252.59645568  .00000044  00000+0  49676-4 0  9990
2 69407  88.9871 271.4235 0001832 108.3040 251.8311 13.51028322 13331
QIANFAN-190             
1 69408U 26125H   26252.58414990  .00000037  00000+0  39328-4 0  9998
2 69408  88.9872 271.4225 0001850  94.6613 265.4750 13.51033061 13340
QIANFAN-191             
1 69409U 26125J   26252.60890187  .00000050  00000+0  59335-4 0  9993
2 69409  88.9886 271.4306 0001850 101.5699 258.5660 13.51032734 13347
QIANFAN-192             
1 69410U 26125K   26252.59232870  .00000039  00000+0  41014-4 0  9994
2 69410  88.9893 271.4321 0001911 106.4320 253.7041 13.51029970 13345
QIANFAN-193             
1 69411U 26125L   26252.54311404  .00000042  00000+0  46003-4 0  9998
2 69411  88.9871 271.4157 0001755 100.9029 259.2320 13.51027255 13345
QIANFAN-194             
1 69412U 26125M   26252.53897581  .00000041  00000+0  45053-4 0  9996
2 69412  88.9903 271.4273 0001885 101.8779 258.2584 13.51025965 13333
QIANFAN-195             
1 69413U 26125N   26251.50877896 -.01881265  00000+0 -32921+1 0  9994
2 69413  88.9901 271.5171 0004216 278.0811  81.9860 13.47692169 13211
QIANFAN-196             
1 69414U 26125P   26252.55542952  .00000034  00000+0  33908-4 0  9997
2 69414  88.9910 271.4138 0001862  90.9419 269.1945 13.51035123 13358
QIANFAN-197             
1 69415U 26125Q   26252.56368891  .00000050  00000+0  58817-4 0  9991
2 69415  88.9884 271.3871 0001878  99.4458 260.6905 13.51023558 13357
QIANFAN-198             
1 69416U 26125R   26252.55133213  .00000038  00000+0  39437-4 0  9992
2 69416  88.9878 271.4016 0001870 102.5978 257.5383 13.51027892 13358
QIANFAN-199             
1 69417U 26125S   26252.55959254  .00000046  00000+0  52365-4 0  9998
2 69417  88.9882 271.3506 0002075 103.1078 257.0305 13.51025499 13386
QIANFAN-200             
1 69418U 26125T   26252.53073885  .00000050  00000+0  58029-4 0  9992
2 69418  88.9889 271.4384 0001830 105.2706 254.8647 13.51026006 13332
QIANFAN-201             
1 69800U 26153A   26252.51491697 -.02089759  00000+0 -15684+1 0  9994
2 69800  88.9967 352.6719 0008027  35.3413 324.8296 13.98709842  9511
QIANFAN-202             
1 69801U 26153B   26252.58086157 -.02074994  00000+0 -12525+1 0  9999
2 69801  88.9975 352.6453 0014945  20.1720 340.0053 14.10792633  9522
QIANFAN-203             
1 69802U 26153C   26252.57487342  .00000078  00000+0  35377-4 0  9992
2 69802  88.9981 352.6813 0007565  20.9631 339.1863 14.11321336  9515
QIANFAN-204             
1 69803U 26153D   26252.53204732  .00000025  00000+0  57714-5 0  9991
2 69803  88.9981 352.6751 0007742  19.2882 340.8595 14.12805961  9516
QIANFAN-205             
1 69804U 26153E   26252.54341313  .00000028  00000+0  80704-5 0  9998
2 69804  88.9979 352.6944 0007999  18.5684 341.5791 14.10097527  9508
QIANFAN-206             
1 69805U 26153F   26252.58418490 -.01989383  00000+0 -11617+1 0  9999
2 69805  88.9975 352.6457 0010973  29.6284 330.5522 14.12455908  9535
QIANFAN-207             
1 69806U 26153G   26252.55357007 -.01943238  00000+0 -12448+1 0  9995
2 69806  88.9975 352.6776 0008328  27.6425 332.5199 14.07291214  9518
QIANFAN-208             
1 69807U 26153H   26252.58941917 -.01974836  00000+0 -14185+1 0  9996
2 69807  88.9973 352.6646 0005385  39.9210 320.2365 14.00967574  9534
QIANFAN-209             
1 69808U 26153J   26252.57142054 -.02043268  00000+0 -13149+1 0  9997
2 69808  88.9975 352.6812 0008577  39.4804 320.7002 14.07238627  9510
QIANFAN-210             
1 69809U 26153K   26252.54780741 -.02035823  00000+0 -12900+1 0  9998
2 69809  88.9977 352.6784 0011105  43.5785 316.6274 14.08069117  9518
QIANFAN-211             
1 69810U 26153L   26252.53938014  .00000198  00000+0  95895-4 0  9998
2 69810  88.9980 352.6571 0008038  21.4631 338.6891 14.14536030  9524
QIANFAN-212             
1 69811U 26153M   26252.56368394  .00000075  00000+0  32842-4 0  9997
2 69811  88.9980 352.6605 0009346  22.2925 337.8666 14.13092544  9528
QIANFAN-213             
1 69812U 26153N   26252.56989193 -.02038486  00000+0 -12670+1 0  9998
2 69812  88.9973 352.6617 0011560  51.8866 308.3358 14.09134183  9529
QIANFAN-214             
1 69813U 26153P   26252.55336324 -.02049001  00000+0 -11800+1 0  9999
2 69813  88.9972 352.6218 0008930  25.4524 334.7101 14.13345430  9546
QIANFAN-215             
1 69814U 26153Q   26252.54935508  .00000057  00000+0  19460-4 0  9996
2 69814  88.9978 352.5827 0008477  28.8718 331.2940 14.21808013  9561
QIANFAN-216             
1 69815U 26153R   26252.57794821  .00000060  00000+0  22076-4 0  9992
2 69815  88.9980 352.6066 0007697  31.4041 328.7606 14.18082305  9556
QIANFAN-217             
1 69816U 26153S   26252.62974519  .00000047  00000+0  13134-4 0  9993
2 69816  88.9978 352.5386 0008248  31.6163 328.5524 14.26809229  9590
QIANFAN-218             
1 69817U 26153T   26252.62770294  .00000432  00000+0  17224-3 0  9999
2 69817  88.9981 352.5405 0007896  30.2971 329.8678 14.26852810  9595
QIANFAN-219             
1 69848U 26155A   26252.61812658  .00000024  00000+0  16329-4 0  9998
2 69848  89.0068  54.8005 0037934  40.6240 319.7734 13.57836530  9264
QIANFAN-220             
1 69849U 26155B   26252.50388792  .00000034  00000+0  26165-4 0  9994
2 69849  89.0074  54.8433 0035029  41.3313 319.0487 13.64379025  9233
QIANFAN-221             
1 69850U 26155C   26252.53651041  .00000042  00000+0  24183-4 0  9996
2 69850  89.0072  54.6446 0032039  47.3299 313.0564 13.87207773  9349
QIANFAN-222             
1 69851U 26155D   26252.58120956  .00000018  00000+0  73364-5 0  9997
2 69851  89.0074  54.8512 0035277  40.2364 320.1392 13.57843973  9231
QIANFAN-223             
1 69852U 26155E   26252.49025090  .00000040  00000+0  38956-4 0  9993
2 69852  89.0072  54.8574 0035739  40.8824 319.5000 13.55765549  9225
QIANFAN-224             
1 69853U 26155F   26252.51681472  .00000035  00000+0  29463-4 0  9996
2 69853  89.0052  54.8125 0036434  44.2944 316.1118 13.60067935  9245
QIANFAN-225             
1 69854U 26155G   26252.58616168  .00000034  00000+0  29311-4 0  9995
2 69854  89.0067  54.8491 0035440  38.9378 321.4319 13.57849373  9236
QIANFAN-226             
1 69855U 26155H   26252.60069323  .00000040  00000+0  37751-4 0  9998
2 69855  89.0066  54.8327 0036723  41.3147 319.0776 13.57849737  9246
QIANFAN-227             
1 69856U 26155J   26252.56385739  .00000036  00000+0  32194-4 0  9997
2 69856  89.0069  54.8277 0036229  42.1649 318.2283 13.58156820  9240
QIANFAN-228             
1 69857U 26155K   26252.62763461  .00000038  00000+0  35161-4 0  9996
2 69857  89.0069  54.8216 0036766  42.6182 317.7815 13.57843603  9254
QIANFAN-229             
1 69858U 26155L   26252.53122319  .00000032  00000+0  26125-4 0  9992
2 69858  89.0070  54.8066 0036098  39.9350 320.4451 13.59891580  9250
QIANFAN-230             
1 69859U 26155M   26252.56214722  .00000034  00000+0  29011-4 0  9995
2 69859  89.0068  54.8453 0035775  41.3201 319.0652 13.59547068  9235
QIANFAN-231             
1 69860U 26155N   26252.58891145  .00000033  00000+0  26612-4 0  9992
2 69860  89.0070  54.7979 0038024  39.2160 321.1741 13.60665149  9261
QIANFAN-232             
1 69861U 26155P   26252.56858151  .00000028  00000+0  22233-4 0  9990
2 69861  89.0064  54.7924 0026690  38.4547 321.8503 13.58224144  9267
QIANFAN-233             
1 69862U 26155Q   26252.56538753  .00000032  00000+0  25932-4 0  9998
2 69862  89.0069  54.7931 0037542  38.6871 321.6963 13.60424004  9269
QIANFAN-234             
1 69863U 26155R   26252.47839284  .00000032  00000+0  21403-4 0  9991
2 69863  89.0061  54.7597 0034636  39.7834 320.5858 13.70232113  9273
QIANFAN-235             
1 69864U 26155S   26252.55840728  .00000036  00000+0  16612-4 0  9996
2 69864  89.0083  54.6164 0031228  46.9071 313.4710 13.95888282  9363
QIANFAN-236             
1 69865U 26155T   26252.58951704  .00000036  00000+0  31757-4 0  9994
2 69865  89.0074  54.8170 0035173  40.4023 319.9735 13.58664748  9256
QIANFAN-237             
1 69866U 26155U   26252.58818432  .00000032  00000+0  25232-4 0  9992
2 69866  89.0074  54.7811 0037343  39.1243 321.2604 13.62826527  9260
QIANFAN-238             
1 69867U 26155V   26252.50979534  .00000029  00000+0  22483-4 0  9997
2 69867  89.0075  54.8047 0026514  37.5039 322.7959 13.57852553  9257
