QIANFAN-1               
1 60379U 24140A   26275.94446902  .00000031  00000+0  29275-4 0  9998
2 60379  88.9666 268.7267 0019683  85.4567 274.8832 13.51026348107072
QIANFAN-2               
1 60380U 24140B   26275.97333685  .00000030  00000+0  27493-4 0  9995
2 60380  88.9653 268.5233 0014659  61.8857 298.3774 13.51020701107139
QIANFAN-3               
1 60381U 24140C   26275.98170601  .00000031  00000+0  28562-4 0  9993
2 60381  88.9645 268.6327 0015989  72.3885 287.9011 13.51023480107046
QIANFAN-4               
1 60382U 24140D   26275.95690824  .00000007  00000+0 -84075-5 0  9991
2 60382  88.9670 268.6070 0014946  64.0037 296.2652 13.51021142107169
QIANFAN-5               
1 60383U 24140E   26275.93202649  .00000036  00000+0  36604-4 0  9999
2 60383  88.9645 268.6621 0017324  82.2487 278.0631 13.51031790107028
QIANFAN-6               
1 60384U 24140F   26275.95275438  .00000021  00000+0  13928-4 0  9996
2 60384  88.9672 268.4862 0015148  69.0933 291.1839 13.51024404107227
QIANFAN-7               
1 60385U 24140G   26275.95071600  .00000167  00000+0  61309-4 0  9999
2 60385  88.9732 259.0837 0016203 144.0523 216.1765 14.27897036112375
QIANFAN-8               
1 60386U 24140H   26275.96109409  .00000016  00000+0  64105-5 0  9991
2 60386  88.9672 268.7263 0018631  70.4250 289.8911 13.51026322107074
QIANFAN-9               
1 60387U 24140J   26275.93636834  .00000033  00000+0  32503-4 0  9991
2 60387  88.9670 268.7982 0018324  70.3260 289.9866 13.51022132107053
QIANFAN-10              
1 60388U 24140K   26275.94046308  .00000041  00000+0  44042-4 0  9994
2 60388  88.9683 268.1764 0016363  50.4695 309.7900 13.51022301107184
QIANFAN-11              
1 60389U 24140L   26275.97761074  .00000022  00000+0  15604-4 0  9993
2 60389  88.9607 268.5378 0016347  70.2976 289.9937 13.51026405106840
QIANFAN-12              
1 60390U 24140M   26275.92406728  .00000018  00000+0  94725-5 0  9999
2 60390  88.9649 268.7148 0015270  77.7346 282.5514 13.51024006106960
QIANFAN-13              
1 60391U 24140N   26275.96928646  .00000023  00000+0  17088-4 0  9994
2 60391  88.9909 268.9872 0015112  79.6446 280.6408 13.51024140106996
QIANFAN-14              
1 60392U 24140P   26275.92000567  .00000010  00000+0 -37943-5 0  9994
2 60392  88.9640 268.6861 0018791  79.7268 280.6001 13.51026067106992
QIANFAN-15              
1 60393U 24140Q   26275.92807036  .00000036  00000+0  36433-4 0  9990
2 60393  88.9664 268.7118 0014437  68.2618 292.0068 13.51028784106987
QIANFAN-16              
1 60394U 24140R   26275.91573673  .00000017  00000+0  78799-5 0  9998
2 60394  88.9666 268.8413 0016748  83.2105 277.0951 13.51025454106899
QIANFAN-17              
1 60395U 24140S   26275.91178817  .00000032  00000+0  31228-4 0  9992
2 60395  88.9677 268.9198 0017104  77.6643 282.6422 13.51026079107850
QIANFAN-18              
1 60396U 24140T   26275.96526611  .00000016  00000+0  63245-5 0  9994
2 60396  88.9672 268.4290 0016206  62.4769 297.8027 13.51026251107252
QIANFAN-19              
1 61552U 24185A   26275.88098516  .00000267  00000+0  13179-3 0  9994
2 61552  88.9878  44.2503 0008901  84.2478 275.9723 14.14538607111241
QIANFAN-20              
1 61553U 24185B   26275.91513937  .00000340  00000+0  18780-3 0  9993
2 61553  88.9873  44.8601 0007494 118.3277 241.8664 14.09083169110915
QIANFAN-21              
1 61554U 24185C   26275.86565565  .00000416  00000+0  17820-3 0  9990
2 61554  88.9798  42.5469 0012578 120.6035 239.6399 14.22943616111790
QIANFAN-22              
1 61555U 24185D   26275.90338211  .00000163  00000+0  12909-3 0  9994
2 61555  88.9852  47.0275 0007202 159.8069 200.3389 13.86433838109695
QIANFAN-23              
1 61556U 24185E   26275.93294372  .00000259  00000+0  12258-3 0  9990
2 61556  88.9870  43.9171 0009571  90.4702 269.7583 14.16559171111399
QIANFAN-24              
1 61557U 24185F   26275.89933296  .00000384  00000+0  16055-3 0  9999
2 61557  88.9857  42.8475 0011397  66.1145 294.1240 14.24167698111884
QIANFAN-25              
1 61558U 24185G   26275.92471084  .00000371  00000+0  21721-3 0  9998
2 61558  88.9867  44.9112 0014090 135.1546 225.0778 14.06140960110849
QIANFAN-26              
1 61559U 24185H   26275.92827875  .00000205  00000+0  19118-3 0  9995
2 61559  88.9857  48.0062 0005631 182.6271 177.4866 13.77949202109187
QIANFAN-27              
1 61560U 24185J   26275.87830877  .00000221  00000+0  83855-4 0  9995
2 61560  88.9868  42.4807 0008790  55.7044 304.4982 14.27612845112128
QIANFAN-28              
1 61561U 24185K   26275.90352593  .00000447  00000+0  17259-3 0  9998
2 61561  88.9886  42.4933 0008617  53.6871 306.5118 14.28501356112165
QIANFAN-29              
1 61562U 24185L   26275.90512444  .00000141  00000+0  19910-3 0  9999
2 61562  88.9825  50.9098 0008029 280.9292  79.0955 13.51098577107519
QIANFAN-30              
1 61563U 24185M   26275.88023365  .00000106  00000+0  14736-3 0  9998
2 61563  88.9846  50.5507 0005832 262.7700  97.2788 13.50078985107757
QIANFAN-31              
1 61564U 24185N   26275.88880805  .00000131  00000+0  16444-3 0  9995
2 61564  88.9831  49.8852 0005505 240.9804 119.0800 13.58068960108081
QIANFAN-32              
1 61565U 24185P   26275.91009386  .00000132  00000+0  18656-3 0  9995
2 61565  88.9885  50.7673 0007897 302.6482  57.3907 13.50809069107757
QIANFAN-33              
1 61566U 24185Q   26275.92917980  .00000300  00000+0  20600-3 0  9994
2 61566  88.9855  46.0216 0009504 121.3737 238.8371 13.96760679110222
QIANFAN-34              
1 61567U 24185R   26275.89978717  .00000370  00000+0  23176-3 0  9994
2 61567  88.9834  45.2002 0007615 120.4908 239.7025 14.02531067110585
QIANFAN-35              
1 61568U 24185S   26275.89189804  .00000419  00000+0  16189-3 0  9996
2 61568  88.9866  42.3694 0007715  53.1084 307.0816 14.28370058112166
QIANFAN-36              
1 61569U 24185T   26275.87765607  .00000142  00000+0  18662-3 0  9997
2 61569  88.9821  50.3983 0004559 263.7074  96.3560 13.55649739107778
QIANFAN-37              
1 62238U 24232B   26275.94799084  .00000114  00000+0  15795-3 0  9991
2 62238  89.0166  11.8017 0001580  92.2461 267.8871 13.51033192138895
QIANFAN-38              
1 62239U 24232C   26275.89871905  .00000119  00000+0  16540-3 0  9993
2 62239  89.0172  11.7423 0016104  70.2187 290.0700 13.51031336138945
QIANFAN-39              
1 62240U 24232D   26275.68640816  .00000305  00000+0  12275-3 0  9995
2 62240  89.0144   3.8685 0016082 187.4989 172.5966 14.25569772143265
QIANFAN-40              
1 62241U 24232E   26275.93163941  .00000080  00000+0  10576-3 0  9995
2 62241  89.0199  11.4055 0015357  77.6141 282.6728 13.51031501139318
QIANFAN-41              
1 62242U 24232F   26275.93982625  .00000117  00000+0  16172-3 0  9993
2 62242  89.0170  11.6842 0015422  66.7625 293.5148 13.51032799138971
QIANFAN-42              
1 62243U 24232G   26275.94216537  .00000287  00000+0  11709-3 0  9996
2 62243  89.0142   3.9304 0014664 193.2185 166.8626 14.24656586143259
QIANFAN-43              
1 62244U 24232H   26275.93572503  .00000119  00000+0  16510-3 0  9993
2 62244  89.0175  11.7629 0017080  71.0310 289.2691 13.51032197107584
QIANFAN-44              
1 62245U 24232J   26275.92340254  .00000113  00000+0  15566-3 0  9993
2 62245  89.0173  11.5700 0015244  68.9193 291.3587 13.51032360139052
QIANFAN-45              
1 62246U 24232K   26275.89051579  .00000119  00000+0  16508-3 0  9992
2 62246  89.0177  11.7303 0015896  68.4499 291.8345 13.51031097138978
QIANFAN-46              
1 62247U 24232L   26275.91513008  .00000104  00000+0  14273-3 0  9997
2 62247  89.0173  11.7849 0016067  73.3316 286.9597 13.51032170138937
QIANFAN-47              
1 62248U 24232M   26275.91929561  .00000116  00000+0  16116-3 0  9994
2 62248  89.0169  11.7056 0016471  72.4307 287.8642 13.51031500138962
QIANFAN-48              
1 62249U 24232N   26275.88241418  .00000119  00000+0  16518-3 0  9998
2 62249  89.0172  11.7226 0018768  74.4106 285.9115 13.51025907138964
QIANFAN-49              
1 62250U 24232P   26275.94396797  .00000109  00000+0  15022-3 0  9996
2 62250  89.0172  11.7266 0015742  70.0912 290.1934 13.51032989107563
QIANFAN-50              
1 62251U 24232Q   26275.89456214  .00000126  00000+0  17562-3 0  9992
2 62251  89.0177  11.7557 0017423  70.9651 289.3386 13.51032522107585
QIANFAN-51              
1 62252U 24232R   26275.95221551  .00000110  00000+0  15099-3 0  9990
2 62252  89.0171  11.7258 0014981  74.9568 285.3240 13.51031430107587
QIANFAN-52              
1 62253U 24232S   26275.90690859  .00000112  00000+0  15396-3 0  9999
2 62253  89.0167  11.5924 0016843  67.3108 292.9822 13.51033473107664
QIANFAN-53              
1 62254U 24232T   26275.88644184  .00000116  00000+0  16031-3 0  9998
2 62254  89.0175  11.7212 0015750  68.7382 291.5450 13.51030116107620
QIANFAN-54              
1 62255U 24232U   26275.92750951  .00000118  00000+0  16399-3 0  9993
2 62255  89.0165  11.3696 0004150 106.5505 253.6102 13.51031998139135
QIANFAN-55              
1 62785U 25016A   26275.87961431  .00000052  00000+0  62390-4 0  9993
2 62785  88.9686  72.6666 0016423 213.3178 146.6941 13.51025536 86904
QIANFAN-56              
1 62786U 25016B   26275.89586981  .00000038  00000+0  39473-4 0  9999
2 62786  88.9660  72.4230 0014952 215.5994 144.4161 13.51028805 86954
QIANFAN-57              
1 62787U 25016C   26275.92894283  .00000044  00000+0  49470-4 0  9996
2 62787  88.9690  72.6646 0002066  76.2152 283.9229 13.51028535 86923
QIANFAN-58              
1 62788U 25016D   26275.90017238  .00000034  00000+0  34188-4 0  9991
2 62788  88.9661  72.4099 0013086 206.6611 153.3869 13.51027940 86968
QIANFAN-59              
1 62789U 25016E   26275.92471361  .00000044  00000+0  49369-4 0  9993
2 62789  88.9684  72.5503 0013340 210.7697 149.2673 13.51025352 86960
QIANFAN-60              
1 62790U 25016F   26275.88354004  .00000059  00000+0  73008-4 0  9997
2 62790  88.9666  72.4701 0014974 207.7966 152.2387 13.51028983 86947
QIANFAN-61              
1 62791U 25016G   26275.91650588  .00000047  00000+0  53580-4 0  9998
2 62791  88.9731  72.8284 0013957 206.7781 153.2651 13.51028345 86964
QIANFAN-62              
1 62792U 25016H   26275.92074533  .00000043  00000+0  47263-4 0  9997
2 62792  88.9679  72.5386 0015285 207.5231 152.5112 13.51027731 86952
QIANFAN-63              
1 62793U 25016J   26275.87133885  .00000053  00000+0  63695-4 0  9996
2 62793  88.9686  72.5152 0015203 213.3714 146.6480 13.51023666 86981
QIANFAN-64              
1 62794U 25016K   26275.91241637  .00000043  00000+0  48520-4 0  9996
2 62794  88.9673  72.4456 0013338 204.9167 155.1342 13.51028299 86988
QIANFAN-65              
1 62795U 25016L   26275.90823674  .00000055  00000+0  66949-4 0  9991
2 62795  88.9669  72.4615 0013148 206.6461 153.4016 13.51024439 86965
QIANFAN-66              
1 62796U 25016M   26275.86303313  .00000043  00000+0  48546-4 0  9990
2 62796  88.9689  72.4941 0014355 202.7392 157.3125 13.51020522 87000
QIANFAN-67              
1 62797U 25016N   26275.86710807  .00000047  00000+0  54482-4 0  9991
2 62797  88.9679  72.4904 0014139 209.9548 150.0796 13.51020738 86979
QIANFAN-68              
1 62798U 25016P   26275.93303346  .00000042  00000+0  45666-4 0  9995
2 62798  88.9682  72.5391 0014273 207.5308 152.5089 13.51022714 86969
QIANFAN-69              
1 62799U 25016Q   26275.87531758  .00000051  00000+0  60080-4 0  9996
2 62799  88.9662  72.3521 0014961 209.4400 150.5910 13.51021516 86992
QIANFAN-70              
1 62800U 25016R   26275.89190277  .00000050  00000+0  59305-4 0  9995
2 62800  88.9682  72.5499 0014828 199.2120 160.8474 13.51024938 86956
QIANFAN-71              
1 62801U 25016S   26275.88770583  .00000043  00000+0  47762-4 0  9995
2 62801  88.9676  72.5122 0014780 213.1544 146.8682 13.51027645 86959
QIANFAN-72              
1 62802U 25016T   26275.90425653  .00000044  00000+0  49703-4 0  9992
2 62802  88.9666  72.4951 0017856 221.6954 138.2837 13.51029410 86942
QIANFAN-73              
1 63159U 25046A   26275.93120490  .00000011  00000+0 -92139-6 0  9993
2 63159  88.9627 289.4640 0014777   1.4332 358.6859 13.51025912 87130
QIANFAN-74              
1 63160U 25046B   26275.91487473  .00000003  00000+0 -14614-4 0  9991
2 63160  88.9627 289.3557 0001877  99.2334 260.9030 13.51018588 87195
QIANFAN-75              
1 63161U 25046C   26275.97646953  .00000070  00000+0  90215-4 0  9992
2 63161  88.9629 289.5870 0016017   4.2977 355.8309 13.51033032 87070
QIANFAN-76              
1 63162U 25046D   26275.97254925 -.00000097  00000+0 -16940-3 0  9990
2 63162  88.9628 289.5673 0013557   5.8851 354.2457 13.51017716 87084
QIANFAN-77              
1 63163U 25046E   26275.95468127  .00000121  00000+0  78437-4 0  9996
2 63163  88.9637 285.1498 0012900 237.4273 122.5659 13.96249308 89506
QIANFAN-78              
1 63164U 25046F   26275.94016348  .00000047  00000+0  53515-4 0  9997
2 63164  88.9628 289.4322 0014988   7.2965 352.8402 13.51013743 87155
QIANFAN-79              
1 63165U 25046G   26275.96829042  .00000007  00000+0 -77574-5 0  9992
2 63165  88.9631 289.5467 0014678   5.7333 354.3984 13.51021342 87100
QIANFAN-80              
1 63166U 25046H   26275.91062222  .00000095  00000+0  12793-3 0  9993
2 63166  88.9629 289.2517 0013708  11.5202 348.6260 13.51019337 87254
QIANFAN-81              
1 63167U 25046J   26275.96413702  .00000091  00000+0  12191-3 0  9990
2 63167  88.9628 289.3133 0014556 359.9670   0.1478 13.51023112 87212
QIANFAN-82              
1 63168U 25046K   26275.92308005  .00000069  00000+0  88405-4 0  9993
2 63168  88.9629 289.3620 0012699   8.1348 352.0006 13.51022326 87195
QIANFAN-83              
1 63169U 25046L   26275.92170078  .00000031  00000+0  24212-4 0  9996
2 63169  88.9631 288.5584 0012899 335.0365  25.0167 13.62065803 87646
QIANFAN-84              
1 63170U 25046M   26275.87786919 -.00000069  00000+0 -12557-3 0  9990
2 63170  88.9628 289.4995 0015566   2.9268 357.1971 13.51015181 87112
QIANFAN-85              
1 63171U 25046N   26275.87365073  .00000070  00000+0  89367-4 0  9999
2 63171  88.9628 289.3693 0013208   6.6896 353.4430 13.51022705 87182
QIANFAN-86              
1 63172U 25046P   26275.95589283  .00000079  00000+0  10371-3 0  9997
2 63172  88.9630 289.2297 0011244  12.4084 347.7342 13.51020742 87274
QIANFAN-87              
1 63173U 25046Q   26275.92709956  .00000006  00000+0 -87566-5 0  9999
2 63173  88.9626 289.3334 0011592   6.2883 353.8412 13.51020486 87201
QIANFAN-88              
1 63174U 25046R   26275.94357732  .00000070  00000+0  89104-4 0  9992
2 63174  88.9629 289.2936 0012326  15.2488 344.9032 13.51021309 87236
QIANFAN-89              
1 63175U 25046S   26275.98059954  .00000069  00000+0  87416-4 0  9994
2 63175  88.9629 289.4784 0016452   2.6541 357.4695 13.51021988 87130
QIANFAN-90              
1 63176U 25046T   26275.93542055  .00000007  00000+0 -81628-5 0  9992
2 63176  88.9630 289.4566 0013357   2.9527 357.1701 13.51020153 87148
QIANFAN-91              
1 66033U 25233A   26275.59743600  .00000087  00000+0  11639-3 0  9996
2 66033  89.0074  32.3396 0001643 100.9249 259.2087 13.51031338 47689
QIANFAN-92              
1 66034U 25233B   26275.60609814  .00000088  00000+0  11781-3 0  9996
2 66034  89.0058  32.2930 0002202  99.7512 260.3888 13.51028660 47681
QIANFAN-93              
1 66035U 25233C   26275.76224615  .00000102  00000+0  13992-3 0  9999
2 66035  89.0085  32.3581 0001650  99.3663 260.7675 13.51040563 47701
QIANFAN-94              
1 66036U 25233D   26275.60162537  .00000086  00000+0  11391-3 0  9999
2 66036  89.0081  32.2739 0001773 105.4632 254.6715 13.51029696 47737
QIANFAN-95              
1 66037U 25233E   26275.60987333  .00000092  00000+0  12399-3 0  9995
2 66037  89.0079  31.8142 0001589 105.6666 254.4661 13.51029560 47987
QIANFAN-96              
1 66038U 25233F   26275.56042374  .00000079  00000+0  10402-3 0  9996
2 66038  89.0076  32.3596 0001566  99.9122 260.2206 13.51030761 47672
QIANFAN-97              
1 66039U 25233G   26275.61793743  .00000095  00000+0  12899-3 0  9996
2 66039  89.0079  32.3413 0001701  99.7383 260.3961 13.51040718 47685
QIANFAN-98              
1 66040U 25233H   26275.62628963  .00000086  00000+0  11444-3 0  9995
2 66040  89.0069  32.0600 0001921 117.3004 242.8343 13.51030996 47835
QIANFAN-99              
1 66041U 25233J   26275.55622018  .00000051  00000+0  60769-4 0  9990
2 66041  89.0081  32.3521 0001729 118.1894 241.9432 13.51020071 47682
QIANFAN-100             
1 66042U 25233K   26275.62203861  .00000091  00000+0  12283-3 0  9991
2 66042  89.0091  32.2847 0001528  98.7274 261.4051 13.51056564 47743
QIANFAN-101             
1 66043U 25233L   26275.38253743  .00000189  00000+0  71839-4 0  9990
2 66043  89.0079  28.2787 0016501 146.1212 214.1039 14.26866543 49916
QIANFAN-102             
1 66044U 25233M   26275.56867805  .00000086  00000+0  11440-3 0  9998
2 66044  89.0078  32.2583 0001761 107.0210 253.1134 13.51030320 47731
QIANFAN-103             
1 66045U 25233N   26275.57282893  .00000092  00000+0  12402-3 0  9994
2 66045  89.0080  32.3559 0001690 100.1199 260.0143 13.51030379 47685
QIANFAN-104             
1 66046U 25233P   26275.57687395  .00000097  00000+0  13223-3 0  9998
2 66046  89.0085  32.2626 0001861 106.4594 253.6762 13.51028326 47733
QIANFAN-105             
1 66047U 25233Q   26275.58519808  .00000093  00000+0  12499-3 0  9993
2 66047  89.0099  32.1192 0001796 103.2849 256.8502 13.51031597 47844
QIANFAN-106             
1 66048U 25233R   26275.58096321  .00000093  00000+0  12533-3 0  9993
2 66048  89.0067  32.2987 0001876 115.3527 244.7819 13.51031890 47684
QIANFAN-107             
1 66049U 25233S   26275.58921429  .00000091  00000+0  12283-3 0  9990
2 66049  89.0082  32.3474 0001710 100.9384 259.1959 13.51031225 47690
QIANFAN-108             
1 66050U 25233T   26275.59338934  .00000087  00000+0  11653-3 0  9991
2 66050  89.0076  32.3271 0001895 113.6999 246.4351 13.51030963 47690
QIANFAN-109             
1 68636U 26075A   26275.90358556  .00000031  00000+0  29374-4 0  9994
2 68636  88.9841 310.0147 0001682  85.2389 274.8954 13.51021811 24331
QIANFAN-110             
1 68637U 26075B   26275.91174775  .00000032  00000+0  30285-4 0  9999
2 68637  88.9841 310.0354 0002134  94.0357 266.1038 13.51022723 24338
QIANFAN-111             
1 68638U 26075C   26275.89964655  .00000025  00000+0  20014-4 0  9992
2 68638  88.9840 309.9954 0002107  93.9909 266.1483 13.51025218 24350
QIANFAN-112             
1 68639U 26075D   26275.93658188  .00000026  00000+0  21301-4 0  9990
2 68639  88.9838 309.9993 0001880  81.5425 278.5939 13.51024524 24356
QIANFAN-113             
1 68640U 26075E   26275.90766435  .00000039  00000+0  41999-4 0  9993
2 68640  88.9844 310.0020 0002109  90.6780 269.4612 13.51021342 24351
QIANFAN-114             
1 68641U 26075F   26275.91587199  .00000023  00000+0  17446-4 0  9996
2 68641  88.9839 310.0151 0002101  93.7296 266.4095 13.51019814 24341
QIANFAN-115             
1 68642U 26075G   26275.94473520  .00000034  00000+0  33537-4 0  9993
2 68642  88.9839 310.0194 0001933  93.9440 266.1932 13.51025517 24348
QIANFAN-116             
1 68643U 26075H   26275.93235888  .00000025  00000+0  19432-4 0  9994
2 68643  88.9832 309.9732 0002004  83.9072 276.2307 13.51025994 24355
QIANFAN-117             
1 68644U 26075J   26275.92013043  .00000019  00000+0  10774-4 0  9994
2 68644  88.9837 309.9952 0001899  89.0079 271.1290 13.51023873 24359
QIANFAN-118             
1 68645U 26075K   26275.87889034  .00000019  00000+0  11352-4 0  9993
2 68645  88.9842 310.0125 0002226  94.2789 265.8617 13.51025553 24341
QIANFAN-119             
1 68646U 26075L   26275.92822456  .00000028  00000+0  24927-4 0  9997
2 68646  88.9842 310.0032 0001703  90.0415 270.0932 13.51021479 24350
QIANFAN-120             
1 68647U 26075M   26275.94061189  .00000027  00000+0  23694-4 0  9997
2 68647  88.9843 309.9887 0001641  91.1930 268.9409 13.51021231 24364
QIANFAN-121             
1 68648U 26075N   26275.89132645  .00000014  00000+0  25253-5 0  9998
2 68648  88.9841 309.9962 0002149  95.0268 265.1129 13.51024639 24350
QIANFAN-122             
1 68649U 26075P   26275.88300852  .00000023  00000+0  17390-4 0  9997
2 68649  88.9840 309.9940 0001839  87.3351 272.8011 13.51028318 24340
QIANFAN-123             
1 68650U 26075Q   26275.92412077  .00000020  00000+0  11697-4 0  9998
2 68650  88.9836 309.9762 0001670  82.3144 277.8197 13.51021170 24335
QIANFAN-124             
1 68651U 26075R   26275.87480911  .00000024  00000+0  17791-4 0  9990
2 68651  88.9839 309.9932 0001812  85.6888 274.4470 13.51027736 24350
QIANFAN-125             
1 68652U 26075S   26275.88721093  .00000019  00000+0  10366-4 0  9996
2 68652  88.9839 309.9938 0002162  94.2945 265.8453 13.51024833 24356
QIANFAN-126             
1 68653U 26075T   26275.89529990  .00000034  00000+0  33561-4 0  9999
2 68653  88.9843 309.9630 0001666  83.3945 276.7396 13.51020515 24370
QIANFAN-127             
1 69073U 26104A   26275.90067455  .00000050  00000+0  59039-4 0  9990
2 69073  88.9901 330.4898 0002460  95.4699 264.6733 13.51029699 19704
QIANFAN-128             
1 69074U 26104B   26275.90882509  .00000036  00000+0  37012-4 0  9997
2 69074  88.9879 330.5099 0002444 107.2846 252.8573 13.51025103 19685
QIANFAN-129             
1 69075U 26104C   26275.93344368  .00000055  00000+0  66007-4 0  9994
2 69075  88.9882 330.4420 0002401 102.6239 257.5181 13.51025231 19729
QIANFAN-130             
1 69076U 26104D   26275.89641364  .00000056  00000+0  68423-4 0  9991
2 69076  88.9884 330.5120 0002315  90.9018 269.2399 13.51023310 19680
QIANFAN-131             
1 69077U 26104E   26275.91712485  .00000051  00000+0  60344-4 0  9997
2 69077  88.9877 330.4695 0002172 105.5247 254.6144 13.51027339 19701
QIANFAN-132             
1 69078U 26104F   26275.90466007  .00000047  00000+0  53662-4 0  9993
2 69078  88.9880 330.5277 0002272  94.8247 265.3164 13.51023602 19670
QIANFAN-133             
1 69079U 26104G   26275.91292551  .00000049  00000+0  57907-4 0  9994
2 69079  88.9883 330.4775 0002294 110.4687 249.6711 13.51022148 19692
QIANFAN-134             
1 69080U 26104H   26275.94170523  .00000046  00000+0  52494-4 0  9996
2 69080  88.9887 330.5015 0002387 107.3322 252.8091 13.51030736 19699
QIANFAN-135             
1 69081U 26104J   26275.92111526  .00000055  00000+0  65790-4 0  9996
2 69081  88.9881 330.4935 0002598 104.4803 255.6637 13.51023849 19694
QIANFAN-136             
1 69082U 26104K   26275.92931640  .00000057  00000+0  70014-4 0  9991
2 69082  88.9883 330.4959 0002296 108.8058 251.3342 13.51020627 19695
QIANFAN-137             
1 69083U 26104L   26275.92530488  .00000062  00000+0  77588-4 0  9996
2 69083  88.9892 330.3742 0002179  97.0542 263.0857 13.51023517 19762
QIANFAN-138             
1 69084U 26104M   26275.94991698  .00000046  00000+0  52675-4 0  9995
2 69084  88.9877 330.4928 0002531  98.6970 261.4468 13.51023299 19696
QIANFAN-139             
1 69085U 26104N   26275.93766695  .00000048  00000+0  55119-4 0  9990
2 69085  88.9879 330.4761 0002376  94.3666 265.7757 13.51032028 19706
QIANFAN-140             
1 69086U 26104P   26275.94580610  .00000048  00000+0  55289-4 0  9991
2 69086  88.9879 330.4790 0002634 102.5272 257.6174 13.51024479 19705
QIANFAN-141             
1 69087U 26104Q   26275.95412477  .00000054  00000+0  65391-4 0  9990
2 69087  88.9876 330.4420 0002501 105.8873 254.2554 13.51022218 19725
QIANFAN-142             
1 69088U 26104R   26275.88820793  .00000061  00000+0  75636-4 0  9998
2 69088  88.9875 330.4478 0002519  99.8216 260.3220 13.51021405 19714
QIANFAN-143             
1 69089U 26104S   26275.88413518  .00000052  00000+0  61911-4 0  9993
2 69089  88.9886 330.4563 0002108 105.9472 254.1912 13.51028833 19710
QIANFAN-144             
1 69090U 26104T   26275.89231529  .00000059  00000+0  73239-4 0  9999
2 69090  88.9884 330.4733 0002487  96.2616 263.8819 13.51022261 19702
QIANFAN-145             
1 69104U 26108A   26275.89479933 -.01761490  00000+0 -31027+1 0  9993
2 69104  89.0198  11.3058 0002632 227.5371 132.5556 13.46987389 18986
QIANFAN-146             
1 69105U 26108B   26275.92951260  .00000037  00000+0  39522-4 0  9998
2 69105  89.0204  11.1401 0001894 102.2516 257.8847 13.51022009 19085
QIANFAN-147             
1 69106U 26108C   26275.90498583  .00000119  00000+0  16507-3 0  9999
2 69106  89.0204  11.3099 0002069 102.6697 257.4686 13.51027814 18973
QIANFAN-148             
1 69107U 26108D   26275.89078309 -.01763295  00000+0 -31057+1 0  9996
2 69107  89.0193  11.3000 0001494 201.0475 159.0613 13.46995284 18978
QIANFAN-149             
1 69108U 26108E   26275.89898813 -.01769071  00000+0 -31189+1 0  9991
2 69108  89.0193  11.3205 0016627 241.1418 118.8062 13.46892340 18972
QIANFAN-150             
1 69109U 26108F   26275.90894285  .00000026  00000+0  21703-4 0  9993
2 69109  89.0202  11.2738 0002366 102.5223 257.6193 13.51026813 18992
QIANFAN-151             
1 69110U 26108G   26275.93788639  .00000121  00000+0  16938-3 0  9992
2 69110  89.0202  11.2945 0001871 107.8525 252.2830 13.51030538 18984
QIANFAN-152             
1 69111U 26108H   26275.91718054  .00000030  00000+0  27494-4 0  9994
2 69111  89.0198  11.2878 0002047  95.2219 264.9165 13.51022869 18990
QIANFAN-153             
1 69112U 26108J   26275.91111377 -.01747729  00000+0 -30684+1 0  9997
2 69112  89.0191  11.2641 0003027 242.7797 117.3044 13.47164386 18994
QIANFAN-154             
1 69113U 26108K   26275.92138720  .00000123  00000+0  17239-3 0  9991
2 69113  89.0205  11.3136 0002183 103.6122 256.5272 13.51029642 18988
QIANFAN-155             
1 69114U 26108L   26275.92541817  .00000128  00000+0  17968-3 0  9991
2 69114  89.0202  11.2774 0002274 101.2063 258.9344 13.51026430 18991
QIANFAN-156             
1 69115U 26108M   26275.94598688  .00000116  00000+0  16084-3 0  9997
2 69115  89.0217  11.2786 0002041 109.3003 250.8369 13.51022182 19018
QIANFAN-157             
1 69116U 26108N   26275.93374376  .00000125  00000+0  17443-3 0  9993
2 69116  89.0198  11.2007 0002249 108.5100 251.6296 13.51031245 19043
QIANFAN-158             
1 69117U 26108P   26275.95006481 -.00000021  00000+0 -50931-4 0  9992
2 69117  89.0200  11.2406 0001951 108.6252 251.5111 13.51024009 19022
QIANFAN-159             
1 69118U 26108Q   26275.94187624  .00000119  00000+0  16562-3 0  9998
2 69118  89.0191  11.2466 0001938 106.7611 253.3753 13.51026572 19019
QIANFAN-160             
1 69119U 26108R   26275.88259807 -.01765170  00000+0 -31070+1 0  9991
2 69119  89.0202  11.2915 0001198  14.0253 346.0929 13.47041082 18992
QIANFAN-161             
1 69120U 26108S   26275.88656676 -.01763292  00000+0 -31049+1 0  9997
2 69120  89.0209  11.2087 0001914 313.8306  46.2684 13.47011585 19045
QIANFAN-162             
1 69121U 26108T   26275.65798100  .00000116  00000+0  16173-3 0  9992
2 69121  89.0203  11.2556 0002025  98.4850 261.6531 13.51025715 18986
QIANFAN-163             
1 69325U 26121A   26275.77076596  .00000010  00000+0 -35689-5 0  9993
2 69325  89.0082 289.7974 0002807 108.5143 251.6313 13.51022057 16698
QIANFAN-164             
1 69326U 26121B   26275.96004373  .00000044  00000+0  49315-4 0  9995
2 69326  89.0082 289.7688 0002378 105.7493 254.3921 13.51022413 16726
QIANFAN-165             
1 69382U 26124A   26275.89389525 -.01763255  00000+0 -31057+1 0  9990
2 69382  89.0057 350.7783 0008269 148.7199 211.4443 13.46981861 16582
QIANFAN-166             
1 69383U 26124B   26275.89794629 -.01757315  00000+0 -30922+1 0  9996
2 69383  89.0076 350.7910 0003386 231.5773 128.5072 13.47042477 16588
QIANFAN-167             
1 69384U 26124C   26275.90183583 -.01760054  00000+0 -30944+1 0  9998
2 69384  89.0050 350.7929 0003559  46.0692 314.0750 13.47101782 16571
QIANFAN-168             
1 69385U 26124D   26275.83381325  .00000111  00000+0  15383-3 0  9996
2 69385  89.0051 350.7796 0001842 114.6236 245.5107 13.51022918 16576
QIANFAN-169             
1 69386U 26124E   26275.91210175  .00000096  00000+0  13013-3 0  9990
2 69386  89.0049 350.7713 0001825 104.7582 255.3772 13.51026099 16580
QIANFAN-170             
1 69387U 26124F   26275.91614440  .00000097  00000+0  13142-3 0  9998
2 69387  89.0067 350.7455 0001745 104.6859 255.4486 13.51028572 16605
QIANFAN-171             
1 69388U 26124G   26275.92441732  .00000088  00000+0  11725-3 0  9997
2 69388  89.0081 350.7591 0002116 102.2803 257.8585 13.51031548 16602
QIANFAN-172             
1 69389U 26124H   26275.92021572  .00000089  00000+0  11990-3 0  9999
2 69389  89.0064 350.7471 0002175 116.8941 243.2432 13.51032101 16606
QIANFAN-173             
1 69390U 26124J   26275.92840254  .00000095  00000+0  12912-3 0  9999
2 69390  89.0053 350.7413 0001738 111.9343 248.1993 13.51025144 16603
QIANFAN-174             
1 69391U 26124K   26275.86505861 -.01868400  00000+0 -32617+1 0  9991
2 69391  89.0030 350.7024 0008467 256.3884 103.6323 13.47806450 16601
QIANFAN-175             
1 69392U 26124L   26275.94503081  .00000101  00000+0  13847-3 0  9993
2 69392  89.0086 350.7463 0001856 107.3168 252.8186 13.51030013 16619
QIANFAN-176             
1 69393U 26124M   26275.94914668  .00000101  00000+0  13793-3 0  9991
2 69393  89.0047 350.7208 0001869 107.0702 253.0655 13.51023752 16604
QIANFAN-177             
1 69394U 26124N   26275.88141622 -.01767125  00000+0 -31118+1 0  9994
2 69394  89.0054 350.7172 0003488 212.8806 147.2126 13.47016159 16618
QIANFAN-178             
1 69395U 26124P   26275.95313623  .00000095  00000+0  12796-3 0  9992
2 69395  89.0003 350.6590 0001866 106.1019 254.0338 13.51028749 16632
QIANFAN-179             
1 69396U 26124Q   26275.88555256 -.01762431  00000+0 -31030+1 0  9996
2 69396  89.0031 350.6877 0005291 165.9171 194.2127 13.47014135 16629
QIANFAN-180             
1 69397U 26124R   26275.88974142 -.01763281  00000+0 -31057+1 0  9999
2 69397  89.0037 350.7090 0001470  56.5309 303.5980 13.46994686 16615
QIANFAN-181             
1 69398U 26124S   26275.93264774  .00000096  00000+0  13039-3 0  9997
2 69398  89.0064 350.8015 0002190 103.5915 256.5480 13.51026492 16574
QIANFAN-182             
1 69399U 26124T   26275.93665087  .00000106  00000+0  14516-3 0  9993
2 69399  89.0039 350.7682 0001905 108.3119 251.8240 13.51031096 16576
QIANFAN-183             
1 69401U 26125A   26273.97011559 -.01792281  00000+0 -31747+1 0  9996
2 69401  88.9829 269.2283 0006264 222.1263 137.9405 13.46692586 16224
QIANFAN-184             
1 69402U 26125B   26275.97952635  .00000038  00000+0  40170-4 0  9991
2 69402  88.9884 269.0562 0002162  95.6986 264.4411 13.51029294 16490
QIANFAN-185             
1 69403U 26125C   26275.93022216  .00000020  00000+0  11697-4 0  9994
2 69403  88.9899 269.0031 0002152  98.3758 261.7637 13.51028805 16525
QIANFAN-186             
1 69404U 26125D   26275.97551731  .00000024  00000+0  17806-4 0  9990
2 69404  88.9887 269.0569 0002164  93.8430 266.2969 13.51028288 16498
QIANFAN-187             
1 69405U 26125E   26275.90795010 -.01762389  00000+0 -31068+1 0  9998
2 69405  88.9883 269.0463 0004491 157.5448 202.5898 13.46933654 16490
QIANFAN-188             
1 69406U 26125F   26275.99178126  .00000019  00000+0  11274-4 0  9994
2 69406  88.9885 269.0375 0002338  97.9754 262.1662 13.51029832 16503
QIANFAN-189             
1 69407U 26125G   26275.92599557  .00000013  00000+0  15609-5 0  9994
2 69407  88.9867 269.0366 0002482 101.3153 258.8277 13.51019237 16486
QIANFAN-190             
1 69408U 26125H   26275.91192217 -.01766703  00000+0 -31149+1 0  9996
2 69408  88.9865 269.0358 0004535 157.3230 202.8120 13.46934130 16493
QIANFAN-191             
1 69409U 26125J   26275.93829640  .00000019  00000+0  11450-4 0  9991
2 69409  88.9882 269.0472 0002304  98.5563 261.5849 13.51019759 16494
QIANFAN-192             
1 69410U 26125K   26275.92008441 -.01761679  00000+0 -31000+1 0  9998
2 69410  88.9885 269.0501 0004992 158.6399 201.4959 13.47047580 16495
QIANFAN-193             
1 69411U 26125L   26275.94663162  .00000030  00000+0  27250-4 0  9998
2 69411  88.9868 269.0211 0002244 100.5047 259.6357 13.51027789 16502
QIANFAN-194             
1 69412U 26125M   26275.94251714  .00000023  00000+0  17174-4 0  9991
2 69412  88.9900 269.0404 0002324  97.8777 262.2638 13.51026319 16499
QIANFAN-195             
1 69413U 26125N   26275.95083253  .00000020  00000+0  12065-4 0  9995
2 69413  88.9902 269.0247 0001940  90.3219 269.8155 13.51028143 16516
QIANFAN-196             
1 69414U 26125P   26275.95887119  .00000015  00000+0  45621-5 0  9998
2 69414  88.9906 269.0285 0001978  94.8139 265.3238 13.51020357 16516
QIANFAN-197             
1 69415U 26125Q   26275.96727072  .00000010  00000+0 -37494-5 0  9996
2 69415  88.9881 268.9957 0002251  96.9766 263.1641 13.51023946 16518
QIANFAN-198             
1 69416U 26125R   26273.95353651 -.01776801  00000+0 -31403+1 0  9991
2 69416  88.9870 269.2136 0001018 183.1498 176.9644 13.46806381 16241
QIANFAN-199             
1 69417U 26125S   26275.96313947  .00000022  00000+0  16197-4 0  9998
2 69417  88.9879 268.9587 0002450  94.2507 265.8925 13.51026109 16542
QIANFAN-200             
1 69418U 26125T   26275.93255504 -.01765092  00000+0 -31123+1 0  9990
2 69418  88.9881 269.0479 0004136 168.0424 192.0824 13.46926830 16496
QIANFAN-201             
1 69800U 26153A   26275.83788763 -.01849966  00000+0 -16456+1 0  9998
2 69800  88.9961 350.1105 0008413 306.1561  53.8833 13.89114087 12778
QIANFAN-202             
1 69801U 26153B   26275.86483638 -.01791458  00000+0 -14603+1 0  9999
2 69801  88.9967 350.0590 0016622 206.2349 153.7986 13.93977409 12798
QIANFAN-203             
1 69802U 26153C   26275.92342346  .00000079  00000+0  45347-4 0  9999
2 69802  88.9972 350.0866 0003724 325.5511  34.5425 13.98747848 12797
QIANFAN-204             
1 69803U 26153D   26275.83731965 -.01816477  00000+0 -15313+1 0  9995
2 69803  88.9962 350.0932 0005040 320.2352  39.8453 13.92161614 12782
QIANFAN-205             
1 69804U 26153E   26275.88321854 -.01781980  00000+0 -15281+1 0  9997
2 69804  88.9964 350.1169 0008110 279.3987  80.6270 13.91078225 12771
QIANFAN-206             
1 69805U 26153F   26275.00254602 -.01801872  00000+0 -14797+1 0  9992
2 69805  88.9966 350.1529 0002720   4.6578 355.4622 13.93640725 12686
QIANFAN-207             
1 69806U 26153G   26275.81255571 -.01801784  00000+0 -15683+1 0  9995
2 69806  88.9967 350.1068 0008591 318.2307  41.8209 13.90261475 12777
QIANFAN-208             
1 69807U 26153H   26275.73149677 -.01817782  00000+0 -15947+1 0  9994
2 69807  88.9961 350.1127 0008238 353.2505   6.8556 13.89842455 12772
QIANFAN-209             
1 69808U 26153J   26275.84742597 -.01814731  00000+0 -15890+1 0  9995
2 69808  88.9967 350.1133 0009391 292.1899  67.8277 13.89941050 12772
QIANFAN-210             
1 69809U 26153K   26275.88887552 -.01805879  00000+0 -15971+1 0  9994
2 69809  88.9966 350.1003 0008334 267.8231  92.1987 13.89343949 12786
QIANFAN-211             
1 69810U 26153L   26275.88152680 -.01773693  00000+0 -10856+1 0  9998
2 69810  88.9964 350.0252 0002948   0.3659 359.7527 14.10110877 12824
QIANFAN-212             
1 69811U 26153M   26275.82352398 -.01814965  00000+0 -14546+1 0  9999
2 69811  88.9960 350.0710 0011334 225.7878 134.2368 13.95041851 12797
QIANFAN-213             
1 69812U 26153N   26275.87387372 -.02050582  00000+0 -16683+1 0  9997
2 69812  88.9967 350.0783 0006993 336.8465  23.2395 13.94026158 12795
QIANFAN-214             
1 69813U 26153P   26275.85916532 -.01820457  00000+0 -13843+1 0  9992
2 69813  88.9967 350.0216 0019058 171.9498 188.1989 13.98003220 12820
QIANFAN-215             
1 69814U 26153Q   26275.93730302  .00000310  00000+0  15233-3 0  9994
2 69814  88.9968 349.9383 0005540 306.9417  53.1262 14.15205281 12877
QIANFAN-216             
1 69815U 26153R   26275.86358654 -.01893559  00000+0 -14465+1 0  9994
2 69815  88.9965 350.0029 0005875  17.6455 342.4925 13.97314104 12834
QIANFAN-217             
1 69816U 26153S   26275.84096605 -.01847478  00000+0 -10343+1 0  9998
2 69816  88.9964 349.8865 0007237 261.3752  98.6615 14.14473935 12890
QIANFAN-218             
1 69817U 26153T   26275.63552249 -.01785017  00000+0 -10290+1 0  9998
2 69817  88.9967 349.9144 0018274 205.8370 154.1905 14.13330175 12861
QIANFAN-219             
1 69848U 26155A   26275.82524058 -.01760338  00000+0 -30972+1 0  9990
2 69848  89.0106  52.4653 0004625  70.4490 289.7158 13.47054049 12401
QIANFAN-220             
1 69849U 26155B   26275.92096855  .00000092  00000+0  12342-3 0  9996
2 69849  89.0115  52.4858 0033599 335.9205  24.0374 13.50935706 12406
QIANFAN-221             
1 69850U 26155C   26275.87842027 -.01767328  00000+0 -22563+1 0  9990
2 69850  89.0111  52.2066 0027796 346.0180  14.0208 13.67116854 12554
QIANFAN-222             
1 69851U 26155D   26275.86227652 -.01754698  00000+0 -30905+1 0  9996
2 69851  89.0112  52.5099 0002268 318.5546  41.5430 13.46976131 12384
QIANFAN-223             
1 69852U 26155E   26275.89101430 -.01763265  00000+0 -31032+1 0  9997
2 69852  89.0110  52.5150 0010405 332.3595  27.6999 13.47026672 12383
QIANFAN-224             
1 69853U 26155F   26275.86637710 -.01772193  00000+0 -31186+1 0  9990
2 69853  89.0093  52.4587 0005606  16.1007 344.0319 13.47069395 12403
QIANFAN-225             
1 69854U 26155G   26275.87076789 -.01884799  00000+0 -32875+1 0  9997
2 69854  89.0102  52.5065 0006212 212.8625 147.2139 13.47907103 12380
QIANFAN-226             
1 69855U 26155H   26275.80076604 -.01841270  00000+0 -32273+1 0  9996
2 69855  89.0105  52.4962 0008146 279.5877  80.4352 13.47483812 12387
QIANFAN-227             
1 69856U 26155J   26275.87862255 -.01755457  00000+0 -30754+1 0  9992
2 69856  89.0103  52.4916 0038450 333.9901  25.9314 13.47032064 12391
QIANFAN-228             
1 69857U 26155K   26275.88271320 -.01755198  00000+0 -30780+1 0  9992
2 69857  89.0110  52.4767 0025094 332.2821  27.6989 13.47133696 12409
QIANFAN-229             
1 69858U 26155L   26275.89523469 -.01762917  00000+0 -31055+1 0  9991
2 69858  89.0112  52.4597 0004185 149.7310 210.4081 13.46983097 12418
QIANFAN-230             
1 69859U 26155M   26275.93398172  .00000082  00000+0  10873-3 0  9991
2 69859  89.0111  52.4983 0001727 102.5254 257.6090 13.51034541 12397
QIANFAN-231             
1 69860U 26155N   26275.90330088 -.01772487  00000+0 -31037+1 0  9992
2 69860  89.0110  52.4428 0038222 332.8400  27.0748 13.47108825 12428
QIANFAN-232             
1 69861U 26155P   26275.88208457 -.01766349  00000+0 -31285+1 0  9999
2 69861  89.0101  52.4533 0028626 328.2377  31.7043 13.46481892 12411
QIANFAN-233             
1 69862U 26155Q   26275.83382662 -.01886567  00000+0 -32941+1 0  9991
2 69862  89.0101  52.4497 0006862 343.2052  16.8869 13.47840583 12413
QIANFAN-234             
1 69863U 26155R   26275.78390747  .00000057  00000+0  64170-4 0  9991
2 69863  89.0101  52.3882 0032849 333.0375  26.9071 13.56203012 12440
QIANFAN-235             
1 69864U 26155S   26275.91346245  .00000111  00000+0  87577-4 0  9998
2 69864  89.0113  52.1232 0029350 336.0728  23.9076 13.84595808 12607
QIANFAN-236             
1 69865U 26155T   26275.84180192 -.01795464  00000+0 -31622+1 0  9999
2 69865  89.0107  52.4727 0017022 335.2222  24.8107 13.47020211 12409
QIANFAN-237             
1 69866U 26155U   26275.84583408 -.01768184  00000+0 -31148+1 0  9999
2 69866  89.0110  52.4360 0012741 334.3103  25.7411 13.46966410 12416
QIANFAN-238             
1 69867U 26155V   26275.84988383 -.01773745  00000+0 -31172+1 0  9997
2 69867  89.0113  52.4548 0002329  68.8750 291.2648 13.47163375 12418
