KUIPER-00008            
1 63724U 25088A   26254.57811665 -.00000258  00000+0 -49068-5 0  9991
2 63724  51.9033 346.0101 0000417  98.5536 261.5473 14.79927696 75570
KUIPER-00009            
1 63725U 25088B   26254.58346351  .00005260  00000+0  35624-3 0  9995
2 63725  51.9036 355.0820 0000614 116.6566 243.4471 15.07977722 75446
KUIPER-00010            
1 63726U 25088C   26254.48224140 -.00000181  00000+0  52114-5 0  9999
2 63726  51.9033 341.5438 0000444  96.6873 263.4140 14.79928473 75248
KUIPER-00011            
1 63727U 25088D   26254.64298290 -.00000677  00000+0 -59889-4 0  9991
2 63727  51.9028 348.3757 0000382  93.7403 266.3603 14.79929475 75294
KUIPER-00012            
1 63728U 25088E   26254.42279490 -.00000259  00000+0 -49290-5 0  9991
2 63728  51.9036 334.2896 0000235  61.9409 298.1577 14.79923492 75423
KUIPER-00013            
1 63729U 25088F   26254.55656910 -.00000297  00000+0 -99615-5 0  9990
2 63729  51.9033   6.2165 0000522 109.5239 250.5780 14.79921331 75096
KUIPER-00014            
1 63730U 25088G   26254.72537679 -.00000425  00000+0 -26738-4 0  9999
2 63730  51.9036   5.4135 0000377 100.6793 259.4212 14.79918126 74932
KUIPER-00015            
1 63731U 25088H   26254.61331006 -.00000108  00000+0  14832-4 0  9993
2 63731  51.9011  15.9567 0000395 128.2400 231.8598 14.79928907 75235
KUIPER-00016            
1 63732U 25088J   26254.58762516  .00002478  00000+0  35389-3 0  9994
2 63732  51.9014   8.5286 0000406 122.7286 237.3716 14.79933751 74874
KUIPER-00018            
1 63733U 25088K   26254.49712224 -.00000807  00000+0 -76929-4 0  9998
2 63733  51.9054 358.9735 0000353  68.0727 292.0273 14.79924016 75009
KUIPER-00019            
1 63734U 25088L   26254.59131095  .00001142  00000+0  17871-3 0  9992
2 63734  51.9015 357.3044 0000306 142.6798 217.4185 14.79932232 75033
KUIPER-00020            
1 63735U 25088M   26254.49442778  .00000514  00000+0  96455-4 0  9993
2 63735  51.9049   1.4830 0000326  90.8604 269.2396 14.79925988 75177
KUIPER-00021            
1 63736U 25088N   26254.59570851  .00000808  00000+0  13502-3 0  9996
2 63736  51.9029   0.9844 0000326 116.9872 243.1124 14.79929419 75029
KUIPER-00023            
1 63737U 25088P   26254.49172497 -.00000532  00000+0 -40759-4 0  9991
2 63737  51.9040   3.9346 0000616  93.4827 266.6206 14.79930171 75279
KUIPER-00024            
1 63738U 25088Q   26254.70781298 -.00001063  00000+0 -11043-3 0  9994
2 63738  51.9049 350.5916 0000372  90.2703 269.8302 14.79925075 75606
KUIPER-00025            
1 63739U 25088R   26254.66595714  .00000229  00000+0  59090-4 0  9992
2 63739  51.9062 358.2582 0000586 106.0163 254.0864 14.79930093 75356
KUIPER-00027            
1 63740U 25088S   26254.70511704  .00000138  00000+0  47172-4 0  9993
2 63740  51.9038 353.0440 0000526  82.2781 277.8242 14.79926911 75168
KUIPER-00028            
1 63741U 25088T   26254.47144825 -.00000142  00000+0  10327-4 0  9992
2 63741  51.9021 351.5193 0000257 124.3281 235.7706 14.79921467 75577
KUIPER-00029            
1 63742U 25088U   26254.65001405  .00000012  00000+0  30515-4 0  9995
2 63742  51.9042 349.4249 0000240 182.8433 177.2528 14.79913788 75141
KUIPER-00030            
1 63743U 25088V   26254.62139836  .00000862  00000+0  14210-3 0  9999
2 63743  51.9030   8.3731 0000248  91.6093 268.4898 14.79928062 75169
KUIPER-00031            
1 63744U 25088W   26254.46875928 -.00000130  00000+0  11907-4 0  9991
2 63744  51.9037 354.0724 0000230  94.6117 265.4872 14.79926139 75062
KUIPER-00032            
1 63745U 25088X   26254.26734025  .00013378  00000+0  31367-3 0  9990
2 63745  51.8663 203.2094 0005230  63.7649 296.3877 15.42380202 78140
KUIPER-00033            
1 63746U 25088Y   26254.63896595  .00002508  00000+0  35779-3 0  9997
2 63746  51.9025  23.3161 0000176 128.3851 231.7127 14.79937605 75150
KUIPER-00034            
1 63747U 25088Z   26254.54437504 -.00000337  00000+0 -15152-4 0  9993
2 63747  51.9055 346.2743 0000609  98.7510 261.3522 14.79928122 75343
KUIPER-00035            
1 63748U 25088AA  26254.58490883  .00001393  00000+0  21176-3 0  9990
2 63748  51.9026  11.0584 0000517  80.0559 280.0462 14.79922320 75050
KUIPER-00037            
1 63749U 25088AB  26254.57785888 -.00000145  00000+0  99767-5 0  9990
2 63749  51.9013   9.9492 0000483 117.7547 242.3465 14.79927579 75851
KUIPER-00038            
1 63750U 25088AC  26254.70240122  .00001145  00000+0  17920-3 0  9993
2 63750  51.9036 355.5725 0000617 105.5395 254.5636 14.79922566 75061
KUIPER-00039            
1 64500U 25134A   26254.81003577  .00000026  00000+0  32380-4 0  9997
2 64500  51.9001 130.0910 0001024 117.1477 242.9590 14.79930063 67637
KUIPER-00040            
1 64501U 25134B   26254.42785306  .00002193  00000+0  31665-3 0  9993
2 64501  51.8969 141.8459 0001093  92.2944 267.8144 14.79930780 67431
KUIPER-00041            
1 64502U 25134C   26254.39136579  .00000188  00000+0  53704-4 0  9993
2 64502  51.8969 144.3972 0000759  93.7790 266.3260 14.79924966 67390
KUIPER-00042            
1 64503U 25134D   26254.70064009  .00000405  00000+0  82199-4 0  9999
2 64503  51.8970 138.0059 0000873 109.5617 250.5439 14.79927157 67512
KUIPER-00043            
1 64504U 25134E   26254.37107668  .00001772  00000+0  26145-3 0  9998
2 64504  51.9000 131.9785 0000751 105.1604 254.9442 14.79928034 67572
KUIPER-00044            
1 64505U 25134F   26254.08748976 -.00000362  00000+0 -18450-4 0  9997
2 64505  51.8995 145.7243 0000898  88.9737 271.1328 14.79925025 67351
KUIPER-00046            
1 64506U 25134G   26254.05641941  .00000629  00000+0  11156-3 0  9998
2 64506  51.8981 143.3313 0001110  94.3781 265.7308 14.79927999 67389
KUIPER-00047            
1 64507U 25134H   26254.86266915  .00002163  00000+0  31271-3 0  9997
2 64507  51.8989 112.2945 0000795 102.2882 257.8170 14.79925554 67882
KUIPER-00048            
1 64508U 25134J   26254.76132365 -.00001482  00000+0 -16545-3 0  9990
2 64508  51.8990 112.7547 0000683  89.7815 270.3226 14.79922555 67878
KUIPER-00049            
1 64509U 25134K   26254.37647650 -.00000032  00000+0  24856-4 0  9990
2 64509  51.9023 126.9293 0000701  98.2935 261.8107 14.79925639 67645
KUIPER-00050            
1 64510U 25134L   26254.86804506  .00000178  00000+0  52394-4 0  9999
2 64510  51.9005 107.2752 0000622  99.0241 261.0792 14.79915784 67967
KUIPER-00051            
1 64511U 25134M   26254.35250524  .00000294  00000+0  67567-4 0  9996
2 64511  51.9006 125.7326 0000885 109.0079 251.0980 14.79928486 67650
KUIPER-00053            
1 64513U 25134P   26254.90973219  .00001407  00000+0  20513-3 0  9998
2 64513  51.8999 117.7773 0002514  96.5619 263.5630 14.81705592 67812
KUIPER-00054            
1 64514U 25134Q   26254.89373773  .00002102  00000+0  30463-3 0  9994
2 64514  51.8981 114.6447 0000923 104.2831 255.8234 14.79930078 67857
KUIPER-00055            
1 64515U 25134R   26254.77616908  .00000966  00000+0  15570-3 0  9990
2 64515  51.9024  67.8155 0000769 103.4421 256.6627 14.79925925 68509
KUIPER-00056            
1 64516U 25134S   26254.92213552 -.00000038  00000+0  24009-4 0  9995
2 64516  51.9033 119.6351 0000906  98.7350 261.3715 14.79928325 67792
KUIPER-00057            
1 64517U 25134T   26254.91402342 -.00000295  00000+0 -96987-5 0  9993
2 64517  51.8978 127.0856 0000696  77.4832 282.6208 14.79924442 67685
KUIPER-00058            
1 64518U 25134U   26252.92728328  .00000485  00000+0  92677-4 0  9998
2 64518  51.9032 130.8481 0001220 114.4794 245.6295 14.79928895 67464
KUIPER-00059            
1 64519U 25134V   26254.35081898  .00000593  00000+0  10681-3 0  9996
2 64519  51.8998 119.5916 0000815  99.5919 260.5136 14.79921301 67749
KUIPER-00060            
1 64520U 25134W   26254.92482802  .00002032  00000+0  29550-3 0  9996
2 64520  51.9016 117.1304 0000612  97.4494 262.6538 14.79928572 67812
KUIPER-00061            
1 64521U 25134X   26254.95049818  .00001172  00000+0  18282-3 0  9990
2 64521  51.9022 124.4576 0001251 112.9409 247.1686 14.79926830 67717
KUIPER-00062            
1 64522U 25134Y   26254.94778610  .00001312  00000+0  20107-3 0  9994
2 64522  51.8944 126.9188 0001077 104.9333 255.1749 14.79923066 67693
KUIPER-00063            
1 64523U 25134Z   26254.93971315  .00000350  00000+0  74988-4 0  9999
2 64523  51.9017 134.5472 0001252  97.1210 262.9895 14.79927201 67580
KUIPER-00064            
1 64524U 25134AA  26254.40216076  .00001556  00000+0  23310-3 0  9999
2 64524  51.8996 134.3505 0001512  96.4406 263.6728 14.79932105 67547
KUIPER-00065            
1 64525U 25134AB  26254.93702175 -.00000370  00000+0 -19476-4 0  9992
2 64525  51.9054 137.1593 0000990  91.6041 268.5035 14.79926288 67532
KUIPER-00066            
1 64526U 25134AC  26254.76801798  .00012186  00000+0  16235-2 0  9999
2 64526  51.8979  75.1727 0001008 140.6788 219.4248 14.79961102 68404
KUIPER-00069            
1 64816U 25151A   26254.15105037  .00000849  00000+0  14046-3 0  9998
2 64816  51.8992 180.5421 0001224  90.3932 269.7171 14.79927312 64229
KUIPER-00070            
1 64817U 25151B   26254.90066508  .00000372  00000+0  77817-4 0  9998
2 64817  51.8988 202.1277 0001030  66.8575 293.2496 14.79926946 63998
KUIPER-00071            
1 64818U 25151C   26254.22806393 -.00000772  00000+0 -72298-4 0  9992
2 64818  51.8999 202.6480 0000717  92.0306 268.0738 14.79921967 62745
KUIPER-00072            
1 64819U 25151D   26254.82362940  .00000871  00000+0  14327-3 0  9990
2 64819  51.8928 179.9384 0001520  77.9810 282.1323 14.79930372 63111
KUIPER-00073            
1 64820U 25151E   26254.26182166  .00000735  00000+0  12544-3 0  9998
2 64820  51.9010 202.4762 0000714  52.2239 307.8788 14.79932426 63935
KUIPER-00075            
1 64822U 25151G   26254.66768362  .00043187  00000+0  11163-2 0  9995
2 64822  51.8676  34.7851 0003122 207.5522 152.5301 15.38675456 65116
KUIPER-00076            
1 64823U 25151H   26254.27260783  .00001372  00000+0  20900-3 0  9997
2 64823  51.9005 192.4534 0000742  82.3060 277.7987 14.79925588 62895
KUIPER-00077            
1 64824U 25151J   26254.19967205  .00000039  00000+0  34160-4 0  9995
2 64824  51.9002 197.7964 0000891  63.3436 296.7618 14.79937421 62812
KUIPER-00078            
1 64825U 25151K   26254.23615185  .00000639  00000+0  11284-3 0  9995
2 64825  51.9007 195.1078 0001004  76.2753 283.8321 14.79926866 62851
KUIPER-00079            
1 64826U 25151L   26254.19698900  .00001934  00000+0  28264-3 0  9992
2 64826  51.8993 200.2353 0000953  56.0483 304.0570 14.79934050 63977
KUIPER-00080            
1 64827U 25151M   26254.23075174  .00001069  00000+0  16918-3 0  9992
2 64827  51.8998 200.0994 0000691  92.6926 267.4116 14.79933264 62781
KUIPER-00082            
1 64828U 25151N   26254.54812578  .00000203  00000+0  55581-4 0  9993
2 64828  51.9008 186.2573 0000836  71.4899 288.6154 14.79929941 63008
KUIPER-00083            
1 64829U 25151P   26254.20239310  .00001186  00000+0  18459-3 0  9997
2 64829  51.8998 195.2675 0000992  66.2588 293.8479 14.79930339 64034
KUIPER-00084            
1 64830U 25151Q   26254.25912394 -.00000382  00000+0 -21161-4 0  9998
2 64830  51.9002 205.0031 0000713  92.2289 267.8755 14.79924407 62717
KUIPER-00085            
1 64831U 25151R   26254.51436651 -.00000103  00000+0  15513-4 0  9999
2 64831  51.9046 186.4615 0000724  87.9672 272.1373 14.79927817 62998
KUIPER-00086            
1 64832U 25151S   26254.57109312  .00002329  00000+0  33453-3 0  9990
2 64832  51.9019 196.1465 0000771  79.2785 280.8264 14.79925241 62861
KUIPER-00087            
1 64833U 25151T   26254.79239385  .00002389  00000+0  34195-3 0  9999
2 64833  51.8991 177.6219 0001105  66.1657 293.9421 14.79980710 63139
KUIPER-00089            
1 64834U 25151U   26254.78717863  .00000371  00000+0  77663-4 0  9998
2 64834  51.9003 182.6718 0000536 102.5460 257.5562 14.79924826 63070
KUIPER-00090            
1 64835U 25151V   26254.18748666  .00000993  00000+0  15925-3 0  9990
2 64835  51.8986 177.8192 0000810  97.1111 262.9943 14.79928537 63086
KUIPER-00091            
1 64836U 25151W   26254.51974997  .00000784  00000+0  13184-3 0  9999
2 64836  51.9059 181.3754 0000618  87.0399 273.0634 14.79931102 63065
KUIPER-00092            
1 64837U 25151X   26254.51166090  .00000881  00000+0  14458-3 0  9990
2 64837  51.9010 188.8987 0000798  88.4408 271.6645 14.79928614 64171
KUIPER-00093            
1 64838U 25151Y   26254.77906956 -.00002632  00000+0 -31654-3 0  9997
2 64838  51.9031 190.1877 0000041 297.0831  63.0127 14.79913822 62966
KUIPER-00094            
1 64839U 25151Z   26254.42245757  .00001180  00000+0  18383-3 0  9994
2 64839  51.9033 146.8793 0001146  86.0071 274.1022 14.79932707 63540
KUIPER-00081            
1 65132U 25171A   26254.42900438  .00000690  00000+0  11949-3 0  9993
2 65132  51.9011  46.7331 0000507 115.1602 244.9413 14.79927892 60548
KUIPER-00088            
1 65133U 25171B   26254.74777634  .00002211  00000+0  31888-3 0  9994
2 65133  51.8991  62.8225 0000621 110.4532 249.6497 14.79932121 60346
KUIPER-00095            
1 65134U 25171C   26254.70182737  .00000256  00000+0  62586-4 0  9992
2 65134  51.8993  43.0634 0000633 118.1170 241.9856 14.79925784 60611
KUIPER-00096            
1 65135U 25171D   26254.65457354 -.00000090  00000+0  17157-4 0  9998
2 65135  51.8994  55.7275 0000636 129.3714 230.7305 14.79927649 60432
KUIPER-00097            
1 65136U 25171E   26254.71942089  .00002326  00000+0  33399-3 0  9998
2 65136  51.9005  58.1110 0000536  96.0035 264.0989 14.79935832 60393
KUIPER-00098            
1 65137U 25171F   26254.71671275  .00002209  00000+0  31868-3 0  9994
2 65137  51.8991  60.4815 0000636 119.0054 241.0972 14.79932640 59718
KUIPER-00099            
1 65138U 25171G   26254.62621384  .00000529  00000+0  98423-4 0  9995
2 65138  51.9035  50.8970 0000371  90.2390 269.8615 14.79930192 60492
KUIPER-00100            
1 65139U 25171H   26254.66266065  .00000847  00000+0  14006-3 0  9998
2 65139  51.9030  48.2009 0000420 106.5935 253.5073 14.79923301 60530
KUIPER-00102            
1 65140U 25171J   26254.72749357 -.00000349  00000+0 -16715-4 0  9996
2 65140  51.8991  50.3842 0000813 136.4383 223.6644 14.79927367 60506
KUIPER-00103            
1 65141U 25171K   26254.67484444 -.00000132  00000+0  11631-4 0  9995
2 65141  51.8999  68.1206 0000709 111.5481 248.5557 14.79927140 60253
KUIPER-00104            
1 65142U 25171L   26254.75587682  .00006481  00000+0  87875-3 0  9997
2 65142  51.9013  55.2771 0000889 124.4704 235.6342 14.79913136 60446
KUIPER-00105            
1 65143U 25171M   26254.78155269  .00000082  00000+0  39700-4 0  9999
2 65143  51.9012  62.7577 0000595 102.2106 257.8923 14.79927146 60343
KUIPER-00106            
1 65144U 25171N   26254.69472553  .00002421  00000+0  34655-3 0  9990
2 65144  51.9020  41.9093 0000762 100.4599 259.6449 14.79920351 60633
KUIPER-00107            
1 65145U 25171P   26254.80041573 -.00000045  00000+0  23155-4 0  9993
2 65145  51.9015  45.1156 0000589 106.6162 253.4866 14.79926110 60594
KUIPER-00108            
1 65146U 25171Q   26254.75317270  .00002256  00000+0  32486-3 0  9999
2 65146  51.9025  57.8713 0000582 117.2578 242.8444 14.79936861 60416
KUIPER-00109            
1 65147U 25171R   26254.65725594  .00002138  00000+0  30942-3 0  9995
2 65147  51.9029  53.2379 0000525 107.1915 252.9105 14.79928121 60460
KUIPER-00110            
1 65148U 25171S   26254.67755890  .00000230  00000+0  59224-4 0  9996
2 65148  51.9003  65.6939 0000671 118.7472 241.3558 14.79926392 60282
KUIPER-00111            
1 65149U 25171T   26254.70591384  .00002235  00000+0  32208-3 0  9996
2 65149  51.8963  70.4316 0000703 119.1736 240.9297 14.79933114 60223
KUIPER-00112            
1 65150U 25171U   26254.62350112  .00002397  00000+0  34332-3 0  9990
2 65150  51.9019  53.4310 0000652 124.6327 235.4697 14.79926869 60450
KUIPER-00114            
1 65151U 25171V   26254.90582090  .00000957  00000+0  15450-3 0  9994
2 65151  51.9003  72.1425 0000669 114.5116 245.5916 14.79926782 60215
KUIPER-00115            
1 65152U 25171W   26254.77885851  .00006270  00000+0  85126-3 0  9992
2 65152  51.9010  65.2118 0000852 109.9833 250.1222 14.79906441 60306
KUIPER-00116            
1 65153U 25171X   26254.67216960  .00001875  00000+0  27487-3 0  9993
2 65153  51.8999  70.7160 0000672 101.8439 258.2599 14.79930931 60210
KUIPER-00118            
1 65154U 25171Y   26254.93956399  .00003078  00000+0  43243-3 0  9995
2 65154  51.8995  71.9804 0000597 121.8026 238.2994 14.79944459 60223
KUIPER-00119            
1 65155U 25171Z   26254.68294931  .00002267  00000+0  32633-3 0  9995
2 65155  51.9008  60.7181 0000610 115.6009 244.5017 14.79927233 60353
KUIPER-00120            
1 65762U 25217A   26254.85223515  .00001158  00000+0  18090-3 0  9998
2 65762  51.9000 309.8382 0000410  79.9111 280.1898 14.79928188 52302
KUIPER-00132            
1 65763U 25217B   26254.81853201  .00025700  00000+0  65670-3 0  9991
2 65763  51.8507 177.5700 0004715 269.8236  90.2210 15.39284507 54136
KUIPER-00133            
1 65764U 25217C   26254.54837322  .00001860  00000+0  27299-3 0  9994
2 65764  51.9047 311.3177 0000529  94.1639 265.9384 14.79929536 52264
KUIPER-00139            
1 65765U 25217D   26254.51587322  .00001794  00000+0  26438-3 0  9994
2 65765  51.8989 278.8891 0000531  38.2463 321.8537 14.79923448 52714
KUIPER-00142            
1 65766U 25217E   26254.80357072  .00001724  00000+0  25513-3 0  9990
2 65766  51.9003 292.5841 0000439  74.5053 285.5958 14.79930457 52548
KUIPER-00145            
1 65767U 25217F   26254.32816736 -.00000175  00000+0  60859-5 0  9999
2 65767  51.8996 297.2114 0000578  75.4654 284.6373 14.79920292 52430
KUIPER-00147            
1 65768U 25217G   26254.42676885  .00001851  00000+0  27183-3 0  9992
2 65768  51.9000 299.2491 0000263  50.6200 309.4786 14.79924259 52410
KUIPER-00148            
1 65769U 25217H   26254.37812667  .00000172  00000+0  51523-4 0  9998
2 65769  51.9055 282.0103 0000286  75.9050 284.1944 14.79932192 52655
KUIPER-00150            
1 65770U 25217J   26254.34846877  .00000313  00000+0  70041-4 0  9990
2 65770  51.9032 309.6431 0000605  83.6204 276.4828 14.79933162 52264
KUIPER-00151            
1 65771U 25217K   26254.49161100  .00001780  00000+0  26243-3 0  9999
2 65771  51.9031 301.5077 0000461  95.4547 264.6468 14.79933560 52397
KUIPER-00152            
1 65772U 25217L   26254.80896822  .00001752  00000+0  25875-3 0  9990
2 65772  51.9017 287.5845 0000316  44.9413 315.1575 14.79930601 52617
KUIPER-00153            
1 65773U 25217M   26254.81438577  .00000824  00000+0  13705-3 0  9999
2 65773  51.9037 282.6477 0000639  88.7300 271.3736 14.79925353 52683
KUIPER-00155            
1 65774U 25217N   26254.03367094  .00001893  00000+0  27727-3 0  9995
2 65774  51.9014 258.5624 0000600  84.0087 276.0943 14.79928744 52953
KUIPER-00156            
1 65775U 25217P   26254.78061275  .00001811  00000+0  26650-3 0  9994
2 65775  51.9033 282.7796 0000424  71.1149 288.9859 14.79930702 52678
KUIPER-00165            
1 65778U 25217S   26254.83725602  .00012436  00000+0  16540-2 0  9995
2 65778  51.9008 292.4612 0000553 240.4405 119.6502 14.80015304 52542
KUIPER-00166            
1 65779U 25217T   26254.07422917  .00004121  00000+0  56925-3 0  9999
2 65779  51.9035 283.3966 0000440  97.7802 262.3211 14.79936739 52605
KUIPER-00167            
1 65780U 25217U   26254.82655920  .00001050  00000+0  16669-3 0  9995
2 65780  51.8967 302.3929 0000454  73.0094 287.0918 14.79923625 52402
KUIPER-00168            
1 65781U 25217V   26254.77790690  .00001684  00000+0  24981-3 0  9993
2 65781  51.9002 285.2301 0000463  58.5853 301.5155 14.79930406 52644
KUIPER-00169            
1 65782U 25217W   26254.84004543  .00001705  00000+0  25269-3 0  9991
2 65782  51.9028 289.9682 0000569 102.8368 257.2658 14.79926906 52585
KUIPER-00170            
1 65783U 25217X   26254.83463719  .00001669  00000+0  24793-3 0  9995
2 65783  51.9000 294.9355 0000424  82.7184 277.3827 14.79928857 52512
KUIPER-00172            
1 65785U 25217Z   26254.48210107  .00001155  00000+0  18046-3 0  9993
2 65785  51.8997 279.0273 0000737   9.8281 350.2696 14.79926364 52703
KUIPER-00173            
1 65786U 25217AA  26254.80628675  .00001784  00000+0  26295-3 0  9996
2 65786  51.9019 290.1082 0000282  56.1107 303.9882 14.79926842 52577
KUIPER-00174            
1 65787U 25217AB  26254.40648327  .00001719  00000+0  25445-3 0  9993
2 65787  51.9042 286.9401 0000703  68.4169 291.6868 14.79925987 52581
KUIPER-00176            
1 65788U 25217AC  26254.39030811  .00001803  00000+0  26540-3 0  9996
2 65788  51.9010 301.9278 0000536  54.5979 305.5033 14.79930220 52378
KUIPER-00101            
1 65947U 25228A   26254.06473048  .00001726  00000+0  25546-3 0  9991
2 65947  51.8969 260.8131 0000575  75.0446 285.0580 14.79920508 50687
KUIPER-00113            
1 65948U 25228B   26254.03635033  .00001800  00000+0  26503-3 0  9990
2 65948  51.8979 255.9609 0000601  46.1403 313.9609 14.79939269 50740
KUIPER-00117            
1 65949U 25228C   26254.06743160  .00001794  00000+0  26427-3 0  9992
2 65949  51.8996 258.3232 0000534  47.0995 313.0012 14.79934212 50719
KUIPER-00121            
1 65950U 25228D   26254.37671166  .00000178  00000+0  52334-4 0  9996
2 65950  51.9006 251.9771 0000631  48.7288 311.3729 14.79929057 50832
KUIPER-00122            
1 65951U 25228E   26254.02827948  .00001756  00000+0  25927-3 0  9990
2 65951  51.8980 263.4872 0000831  65.8476 294.2573 14.79930209 50640
KUIPER-00123            
1 65952U 25228F   26254.73733841  .00001848  00000+0  27142-3 0  9990
2 65952  51.9000 260.3607 0000617  44.0519 316.0493 14.79923576 50740
KUIPER-00124            
1 65953U 25228G   26254.00260018  .00001661  00000+0  24682-3 0  9991
2 65953  51.9004 256.0997 0000602  40.6527 319.4480 14.79933334 50740
KUIPER-00125            
1 65954U 25228H   26254.96420733  .00001443  00000+0  21837-3 0  9996
2 65954  51.9004 236.8993 0000903  63.9063 296.1992 14.79921028 51095
KUIPER-00126            
1 65955U 25228J   26254.43615161  .00001536  00000+0  23044-3 0  9995
2 65955  51.8991 259.2143 0000463  72.3434 287.7579 14.79936037 50736
KUIPER-00127            
1 65956U 25228K   26254.35983017  .00000342  00000+0  73898-4 0  9992
2 65956  51.9005 252.0336 0000830  50.6122 309.4914 14.79924278 50830
KUIPER-00128            
1 65957U 25228L   26254.68060343  .00001601  00000+0  23891-3 0  9993
2 65957  51.9008 250.6795 0000556  83.0038 277.0988 14.79936653 50873
KUIPER-00129            
1 65958U 25228M   26254.71973991  .00001374  00000+0  20925-3 0  9992
2 65958  51.8993 245.4851 0000554  62.4138 297.6880 14.79930675 50957
KUIPER-00130            
1 65959U 25228N   26254.68330092  .00002063  00000+0  29954-3 0  9995
2 65959  51.9027 248.1918 0000480  74.7726 285.3290 14.79923533 41200
KUIPER-00134            
1 65960U 25228P   26254.10788739  .00027873  00000+0  74657-3 0  9995
2 65960  51.8704 140.0935 0004240 235.2265 124.8323 15.37791950 52366
KUIPER-00135            
1 65961U 25228Q   26254.71705100 -.00003273  00000+0 -40054-3 0  9998
2 65961  51.9025 248.0934 0000144  33.1540 326.9431 14.79935403 50914
KUIPER-00136            
1 65962U 25228R   26254.01069205  .00000510  00000+0  95862-4 0  9998
2 65962  51.9008 248.6644 0000588  41.0789 319.0217 14.79932895 50844
KUIPER-00137            
1 65963U 25228S   26254.95881896  .00000631  00000+0  11181-3 0  9995
2 65963  51.9035 241.9814 0000665  33.4092 326.6912 14.79930675 51029
KUIPER-00138            
1 65964U 25228T   26254.38749560 -.00000115  00000+0  13856-4 0  9994
2 65964  51.8982 241.9077 0000615  56.8946 303.2075 14.79927101 50977
KUIPER-00140            
1 65965U 25228U   26254.38480635  .00001732  00000+0  25621-3 0  9997
2 65965  51.8975 244.5127 0000831  60.1211 299.9834 14.79932421 50939
KUIPER-00141            
1 65966U 25228V   26254.93043602  .00001859  00000+0  27280-3 0  9991
2 65966  51.9010 237.1747 0000854  79.9891 280.1168 14.79928844 51087
KUIPER-00146            
1 65967U 25228W   26254.69140164  .00000806  00000+0  13476-3 0  9999
2 65967  51.9031 240.7458 0000723  44.3363 315.7657 14.79929957 51012
KUIPER-00149            
1 65968U 25228X   26254.93313168  .00000370  00000+0  77511-4 0  9990
2 65968  51.8981 234.5498 0000731  64.3628 295.7410 14.79927142 51126
KUIPER-00154            
1 65969U 25228Y   26254.90206943  .00002139  00000+0  30959-3 0  9999
2 65969  51.8981 232.1710 0000790  69.1427 290.9620 14.79929131 51156
KUIPER-00157            
1 65970U 25228Z   26254.43509059 -.00061629  00000+0 -80306-2 0  9994
2 65970  51.9016 236.2809 0000713 179.6389 180.4575 14.80445419 51056
KUIPER-00144            
1 67133U 25301A   26254.88330192 -.00000269  00000+0 -63052-5 0  9993
2 67133  51.9025 312.2775 0000540  73.4894 286.6127 14.79931699 41448
KUIPER-00164            
1 67134U 25301B   26254.59971267  .00000656  00000+0  11502-3 0  9995
2 67134  51.9050 326.0497 0000416  94.1680 265.9330 14.79932214 41402
KUIPER-00175            
1 67135U 25301C   26254.44975891  .00000205  00000+0  55877-4 0  9991
2 67135  51.9009 309.1479 0000346  70.3086 289.7913 14.79930124 41529
KUIPER-00179            
1 67136U 25301D   26254.39981348  .00000193  00000+0  54387-4 0  9991
2 67136  51.9002 324.3683 0001288 105.8180 254.2924 14.79922763 41411
KUIPER-00181            
1 67137U 25301E   26254.92657960  .00001339  00000+0  20457-3 0  9994
2 67137  51.9028 334.6007 0000254  42.5117 317.5865 14.79930493 41295
KUIPER-00183            
1 67138U 25301F   26254.85764651  .00001838  00000+0  27011-3 0  9990
2 67138  51.9034 304.9121 0000305  79.4669 280.6327 14.79929691 41716
KUIPER-00184            
1 67139U 25301G   26254.43897044  .00000416  00000+0  83514-4 0  9990
2 67139  51.9006 319.2057 0000394  90.6124 269.4884 14.79929708 41589
KUIPER-00186            
1 67140U 25301H   26254.62268688  .00000429  00000+0  85357-4 0  9990
2 67140  51.9048 335.9541 0000435  81.2024 278.8988 14.79918738 41097
KUIPER-00187            
1 67141U 25301J   26254.61999961  .00000684  00000+0  11875-3 0  9991
2 67141  51.9069 338.4937 0000634 101.7235 258.3799 14.79927664 41058
KUIPER-00188            
1 67142U 25301K   26254.82387877  .00001878  00000+0  27530-3 0  9993
2 67142  51.9036 305.1775 0000411  69.9352 290.1655 14.79921802 41538
KUIPER-00191            
1 67143U 25301L   26254.66186058  .00001286  00000+0  19766-3 0  9999
2 67143  51.9027 330.7836 0000383  92.6438 267.4568 14.79925303 41199
KUIPER-00196            
1 67144U 25301M   26254.50508963  .00001726  00000+0  25544-3 0  9996
2 67144  51.8996 288.9299 0000506  87.1425 272.9596 14.79926624 41732
KUIPER-00204            
1 67145U 25301N   26254.86033017  .00001891  00000+0  27705-3 0  9993
2 67145  51.9024 302.3946 0000442  81.1565 278.9448 14.79931393 41690
KUIPER-00210            
1 67146U 25301P   26254.89820190  .00001424  00000+0  21581-3 0  9991
2 67146  51.9011 329.6857 0000334  76.5962 283.5037 14.79929565 41378
KUIPER-00221            
1 67147U 25301Q   26254.51869536  .00000636  00000+0  11246-3 0  9999
2 67147  51.9035 338.8981 0000724  74.2335 285.8707 14.79923265 41041
KUIPER-00232            
1 67148U 25301R   26254.90629197  .00001063  00000+0  16844-3 0  9994
2 67148  51.9004 322.1948 0000456  92.3168 267.7847 14.79929334 41300
KUIPER-00241            
1 67149U 25301S   26254.92926776  .00000853  00000+0  14091-3 0  9998
2 67149  51.9052 332.1153 0000461  93.5587 266.5429 14.79928755 41508
KUIPER-00245            
1 67150U 25301T   26254.44847815  .00002363  00000+0  33888-3 0  9996
2 67150  51.9047 341.7497 0000473 109.3308 250.7705 14.79935191 40997
KUIPER-00246            
1 67151U 25301U   26254.49841547  .00000625  00000+0  11101-3 0  9991
2 67151  51.8995 326.4665 0000406  80.9495 279.1514 14.79929167 41230
KUIPER-00247            
1 67152U 25301V   26254.44166117  .00000182  00000+0  52833-4 0  9996
2 67152  51.8975 316.6665 0000383  80.5223 279.5782 14.79922902 41342
KUIPER-00248            
1 67153U 25301W   26254.52808352  .00000597  00000+0  10736-3 0  9995
2 67153  51.8988 298.9268 0000464  93.1541 266.9474 14.79925968 41760
KUIPER-00249            
1 67154U 25301X   26254.37684047  .00001954  00000+0  28519-3 0  9998
2 67154  51.9009 314.5292 0000303  71.9202 288.1794 14.79935197 41360
KUIPER-00250            
1 67155U 25301Y   26254.39442034  .00000397  00000+0  81131-4 0  9999
2 67155  51.9007 329.4043 0000520  91.4130 268.6892 14.79926142 41199
KUIPER-00251            
1 67156U 25301Z   26254.47544211  .00001987  00000+0  28962-3 0  9997
2 67156  51.9026 316.6219 0000332  85.3073 274.7927 14.79931385 41533
KUIPER-00252            
1 67157U 25301AA  26254.60780165  .00000674  00000+0  11739-3 0  9999
2 67157  51.9018 318.4872 0000351  60.5448 299.5549 14.79931490 41332
KUIPER-00261            
1 67158U 25301AB  26254.56326251  .00000457  00000+0  88982-4 0  9991
2 67158  51.9039 328.7471 0000329 100.7928 259.3071 14.79926724 41181
KUIPER-00265            
1 67159U 25301AC  26254.64833460 -.00004022  00000+0 -49895-3 0  9999
2 67159  51.9044 343.3464 0000540  94.8093 265.2931 14.79932797 41025
KUIPER-00159            
1 67764U 26030A   26254.76783720  .00001519  00000+0  24619-3 0  9990
2 67764  51.9008  61.3137 0000272 120.0096 240.0892 14.76570033 33417
KUIPER-00160            
1 67765U 26030B   26254.91668981  .00001643  00000+0  19175-3 0  9998
2 67765  51.8982  42.4468 0010262 339.6817 216.6645 14.90400419  5661
KUIPER-00177            
1 67766U 26030C   26254.79780964  .00002138  00000+0  30947-3 0  9991
2 67766  51.8997 110.1571 0000811  88.9727 271.1328 14.79924367 32731
KUIPER-00178            
1 67767U 26030D   26254.76408707  .00000057  00000+0  36538-4 0  9992
2 67767  51.9010 110.2875 0000793 116.7825 243.3219 14.79925738 32738
KUIPER-00180            
1 67768U 26030E   26254.76946769  .00002125  00000+0  30769-3 0  9995
2 67768  51.8975 105.2567 0000855 113.8471 246.2581 14.79936132 32806
KUIPER-00197            
1 67769U 26030F   26254.79104125  .00000054  00000+0  36116-4 0  9993
2 67769  51.8977  85.1770 0000869 103.7741 256.3319 14.79926159 33084
KUIPER-00198            
1 67770U 26030G   26254.87885281  .00002117  00000+0  30667-3 0  9999
2 67770  51.8967  97.2636 0000898 112.5605 247.5453 14.79934633 32928
KUIPER-00199            
1 67771U 26030H   26254.91668981 -.01132992  00000+0 -40999-1 0  9996
2 67771  51.8832  40.8247 0010042   0.5761 336.4069 15.30803382  4635
KUIPER-00200            
1 67772U 26030J   26254.89502897  .00002363  00000+0  33883-3 0  9998
2 67772  51.8978  82.2357 0000648 113.0174 247.0856 14.79934527 33134
KUIPER-00203            
1 67773U 26030K   26254.79245623  .00000619  00000+0  11030-3 0  9991
2 67773  51.9078 115.2585 0001102  98.7097 261.3990 14.79925295 32663
KUIPER-00205            
1 67774U 26030L   26254.89773056  .00000787  00000+0  13231-3 0  9990
2 67774  51.8994  79.6886 0000792 101.1739 258.9313 14.79925110 33177
KUIPER-00208            
1 67775U 26030M   26254.76678070  .00000465  00000+0  90078-4 0  9995
2 67775  51.8976 107.7661 0001386  97.2029 262.9091 14.79926098 32767
KUIPER-00209            
1 67776U 26030N   26254.80325308  .00000755  00000+0  12799-3 0  9999
2 67776  51.9002 105.2062 0000822 103.6003 256.5051 14.79928976 32802
KUIPER-00213            
1 67777U 26030P   26254.83970803  .00002330  00000+0  33456-3 0  9993
2 67777  51.8953 102.5030 0000717 113.0058 247.0980 14.79928871 32844
KUIPER-00214            
1 67778U 26030Q   26254.74111800  .00002134  00000+0  30885-3 0  9993
2 67778  51.8992 100.4729 0000674 106.5994 253.5043 14.79927608 32869
KUIPER-00215            
1 67779U 26030R   26254.78833449  .00002063  00000+0  29963-3 0  9994
2 67779  51.8977  87.6181 0000723 111.4516 248.6523 14.79925629 33052
KUIPER-00218            
1 67780U 26030S   26254.87346057 -.00000349  00000+0 -16787-4 0  9998
2 67780  51.8970 102.2809 0000866  95.0490 265.0572 14.79924157 32853
KUIPER-00220            
1 67781U 26030T   26254.76536312  .00002179  00000+0  31480-3 0  9999
2 67781  51.8940  77.7842 0000660 101.0930 259.0106 14.79928284 33181
KUIPER-00222            
1 67782U 26030U   26254.77757047  .00000219  00000+0  57789-4 0  9995
2 67782  51.8985  97.8649 0001120 111.7860 248.3221 14.79923301 32904
KUIPER-00223            
1 67783U 26030V   26254.81937744  .00002074  00000+0  30111-3 0  9995
2 67783  51.9004  89.9888 0000830 115.2625 244.8424 14.79921150 33020
KUIPER-00225            
1 67784U 26030W   26254.74649604  .00001021  00000+0  16296-3 0  9992
2 67784  51.8974  95.4607 0000661  98.3334 261.7703 14.79932447 32935
KUIPER-00226            
1 67785U 26030X   26254.91668981  .00112183  00000+0  14772-1 0  9998
2 67785  51.8996  82.1043 0001826  71.0824 216.9825 14.79150085  5019
KUIPER-00259            
1 67786U 26030Y   26254.78025522  .00002127  00000+0  30793-3 0  9991
2 67786  51.8975  95.2132 0000701 110.0349 250.0689 14.79930840 32942
KUIPER-00260            
1 67787U 26030Z   26254.85050056  .00001988  00000+0  28980-3 0  9999
2 67787  51.8997  92.5120 0000895 112.4671 247.6386 14.79927334 32896
KUIPER-00262            
1 67788U 26030AA  26254.81672040  .00000099  00000+0  42037-4 0  9991
2 67788  51.9005  92.5792 0001535  98.0121 262.1016 14.79929323 32986
KUIPER-00266            
1 67789U 26030AB  26254.92071635  .00000846  00000+0  13997-3 0  9999
2 67789  51.8994  89.6103 0001107  96.5024 263.6064 14.79925120 33033
KUIPER-00268            
1 67790U 26030AC  26254.82211244  .00001910  00000+0  27945-3 0  9993
2 67790  51.9029  87.5866 0000996 115.7863 244.3202 14.79937518 33054
KUIPER-00270            
1 67791U 26030AD  26254.73159173  .00002744  00000+0  38870-3 0  9991
2 67791  51.8979  77.9465 0000486  83.4824 276.6193 14.79937335 33186
KUIPER-00274            
1 67792U 26030AE  26254.84239162  .00000034  00000+0  33424-4 0  9992
2 67792  51.9000  99.9612 0000957 108.2339 251.8728 14.79933684 32889
KUIPER-00275            
1 67793U 26030AF  26254.93148766  .00001853  00000+0  27205-3 0  9991
2 67793  51.8995  79.5629 0000914 118.8024 241.3030 14.79932571 33172
KUIPER-00276            
1 67794U 26030AG  26254.89233884  .00002209  00000+0  31869-3 0  9990
2 67794  51.8979  84.7142 0001056  83.0340 277.0743 14.79927798 33100
KUIPER-00279            
1 67795U 26030AH  26254.80183797  .00002326  00000+0  33401-3 0  9993
2 67795  51.9023  75.1629 0000861 111.4541 248.6513 14.79927169 33222
KUIPER-00131            
1 68573U 26072A   26254.79797143  .00000024  00000+0  32149-4 0  9990
2 68573  51.9005 172.6597 0000795  81.7572 278.3480 14.79929215 23948
KUIPER-00189            
1 68574U 26072B   26254.49136694  .00000332  00000+0  72623-4 0  9999
2 68574  51.8997 176.4915 0000906  86.0338 274.0728 14.79929655 23863
KUIPER-00192            
1 68575U 26072C   26254.73313688  .00002336  00000+0  33532-3 0  9998
2 68575  51.9003 170.4404 0001013  90.1076 270.0003 14.79932644 23971
KUIPER-00193            
1 68576U 26072D   26254.13615926  .00001579  00000+0  23609-3 0  9995
2 68576  51.9052 163.1246 0001305  89.3004 270.8108 14.79931454 24023
KUIPER-00194            
1 68577U 26072E   26254.16183352  .00000698  00000+0  12053-3 0  9994
2 68577  51.9020 170.4927 0001033  77.5927 282.5151 14.79930153 23928
KUIPER-00229            
1 68578U 26072F   26254.83173562  .00000403  00000+0  81923-4 0  9998
2 68578  51.9015 172.5120 0000674 109.5803 250.5233 14.79930549 23958
KUIPER-00230            
1 68579U 26072G   26254.91668981 -.00038445  00000+0 -32925-2 0  9997
2 68579  51.8923 119.8051 0004392   0.3114  28.5152 14.97093362  1308
KUIPER-00231            
1 68580U 26072H   26254.72634644  .00001097  00000+0  17295-3 0  9992
2 68580  51.8979 145.5511 0001989  93.0154 267.1036 14.79932568 24318
KUIPER-00234            
1 68581U 26072J   26254.73582243 -.00000073  00000+0  19496-4 0  9991
2 68581  51.8992 167.9202 0001567  74.6979 285.4156 14.79927068 24002
KUIPER-00236            
1 68582U 26072K   26254.91668981 -.00058263  00000+0 -68265-2 0  9997
2 68582  51.8989 122.0294 0005886 337.9062  54.6159 14.84801724  5440
KUIPER-00244            
1 68583U 26072L   26254.44273792  .00000410  00000+0  82843-4 0  9997
2 68583  51.8990 159.2381 0000703  82.1868 277.9175 14.79929852 24107
KUIPER-00253            
1 68584U 26072M   26254.44004323  .00002310  00000+0  33190-3 0  9991
2 68584  51.9036 161.7752 0000928  89.4714 270.6355 14.79928704 24069
KUIPER-00254            
1 68585U 26072N   26254.13345546  .00000483  00000+0  92354-4 0  9990
2 68585  51.9030 165.6283 0001192  47.1601 312.9461 14.79928764 23980
KUIPER-00263            
1 68586U 26072P   26254.95999834 -.00000826  00000+0 -79349-4 0  9998
2 68586  51.9020 147.0415 0000887  95.1352 264.9711 14.79924796 24310
KUIPER-00269            
1 68587U 26072Q   26254.14693510  .00000696  00000+0  12027-3 0  9994
2 68587  51.8981 153.0457 0001435  86.8162 273.2964 14.79931682 24163
KUIPER-00272            
1 68588U 26072R   26254.49677499  .00001601  00000+0  23898-3 0  9996
2 68588  51.8956 171.4650 0001284  86.1622 273.9487 14.79927237 23933
KUIPER-00285            
1 68589U 26072S   26254.72095561 -.00000016  00000+0  26949-4 0  9998
2 68589  51.9044 150.5852 0001535  57.5913 302.5198 14.79923658 24245
KUIPER-00286            
1 68590U 26072T   26254.72363826  .00000706  00000+0  12167-3 0  9993
2 68590  51.9009 148.0046 0000742  97.6520 262.4527 14.79927547 24288
KUIPER-00289            
1 68591U 26072U   26254.44543059  .00001965  00000+0  28669-3 0  9993
2 68591  51.8989 156.7132 0001079  88.5991 271.5095 14.79927683 24138
KUIPER-00290            
1 68592U 26072V   26254.13282406  .00001256  00000+0  20959-3 0  9993
2 68592  51.9014 158.0117 0001537  33.9532 326.1527 14.76417255 24099
KUIPER-00293            
1 68593U 26072W   26254.16451997 -.00000423  00000+0 -26444-4 0  9993
2 68593  51.8981 167.9350 0001661  29.1543 330.9512 14.79926968 23957
KUIPER-00294            
1 68594U 26072X   26254.44812472  .00000704  00000+0  12143-3 0  9994
2 68594  51.8999 154.2030 0000702  94.8595 265.2447 14.79924145 24179
KUIPER-00296            
1 68595U 26072Y   26254.70335279  .00002105  00000+0  30513-3 0  9997
2 68595  51.9005 135.5917 0000762  97.0334 263.0715 14.79925872 24450
KUIPER-00297            
1 68596U 26072Z   26254.26581047  .00001655  00000+0  24614-3 0  9999
2 68596  51.9007 167.4857 0001432  93.3828 266.7298 14.79930906 23978
KUIPER-00300            
1 68597U 26072AA  26254.77499006  .00001429  00000+0  21648-3 0  9992
2 68597  51.9020 162.7674 0000705 102.9256 257.1785 14.79932056 24089
KUIPER-00301            
1 68598U 26072AB  26254.03081266  .00001144  00000+0  19337-3 0  9993
2 68598  51.9019 135.3748 0002064 165.8653 194.2366 14.76490645 24395
KUIPER-00304            
1 68599U 26072AC  26254.94119897  .00000885  00000+0  15596-3 0  9990
2 68599  51.9008 133.3301 0000489 357.9934   2.1025 14.76609018 24500
KUIPER-00317            
1 68600U 26072AD  26254.07670662  .00000359  00000+0  76143-4 0  9991
2 68600  51.8975 155.8510 0000715  95.9319 264.1725 14.79924909 24110
KUIPER-00320            
1 68601U 26072AE  26254.47650207  .00001940  00000+0  28340-3 0  9991
2 68601  51.9012 159.0971 0001035  93.2991 266.8089 14.79931386 24102
KUIPER-00299            
1 68864U 26095A   26254.63605717  .00087493  00000+0  12017-1 0  9990
2 68864  51.8973 228.3407 0001676 244.7632 115.3156 14.77543393 20416
KUIPER-00353            
1 68865U 26095B   26254.28211072  .00000388  00000+0  79859-4 0  9997
2 68865  51.8991 214.9470 0000720  65.7741 294.3297 14.79926295 20578
KUIPER-00357            
1 68866U 26095C   26254.64543084  .00001999  00000+0  29116-3 0  9998
2 68866  51.9009 220.8492 0000905  45.0687 315.0349 14.79932255 20522
KUIPER-00364            
1 68867U 26095D   26254.33885438  .00000563  00000+0  10292-3 0  9998
2 68867  51.9016 224.7281 0001213  32.4728 327.6309 14.79927388 20446
KUIPER-00375            
1 68868U 26095E   26254.92095330 -.00000388  00000+0 -21906-4 0  9990
2 68868  51.9006 214.6259 0000802  81.2317 278.8736 14.79926211 20634
KUIPER-00433            
1 68869U 26095F   26253.95935017 -.00000897  00000+0 -88664-4 0  9997
2 68869  51.8988 233.8738 0000796  36.0116 324.0899 14.79923455 20287
KUIPER-00437            
1 68870U 26095G   26254.91668981 -.00028019  00000+0 -14094-2 0  9999
2 68870  51.8862 183.7811 0006553 261.4072  62.4406 15.16483435  5053
KUIPER-00448            
1 68871U 26095H   26253.97647779  .00001166  00000+0  19727-3 0  9998
2 68871  51.9029 223.5192 0003004  26.5824 333.5291 14.76322995 20428
KUIPER-00459            
1 68872U 26095J   26254.59139688  .00001788  00000+0  26346-3 0  9998
2 68872  51.9014 208.6459 0000726  81.7424 278.3621 14.79932414 20687
KUIPER-00468            
1 68873U 26095K   26254.30296567  .00001571  00000+0  25329-3 0  9998
2 68873  51.8978 207.2558 0001043 157.3956 202.7051 14.76617001 20681
KUIPER-00476            
1 68874U 26095L   26254.91668981 -.01869043  00000+0 -14056+0 0  9999
2 68874  51.8879 188.0285 0010168 239.3378 119.7975 15.05733529  5088
KUIPER-00478            
1 68875U 26095M   26254.25103326  .00000996  00000+0  15961-3 0  9995
2 68875  51.8957 212.5878 0000999  65.1744 294.9322 14.79932431 20600
KUIPER-00480            
1 68876U 26095N   26254.28751494  .00000652  00000+0  11452-3 0  9994
2 68876  51.9037 209.9397 0000801  95.0553 265.0500 14.79923512 20640
KUIPER-00482            
1 68877U 26095P   26254.61437135  .00002038  00000+0  29634-3 0  9996
2 68877  51.9017 218.4817 0001135   2.3785 357.7182 14.79926149 20554
KUIPER-00483            
1 68878U 26095Q   26253.99297848  .00001916  00000+0  28003-3 0  9995
2 68878  51.8975 233.6926 0001605 312.2378  47.8448 14.79964574 20286
KUIPER-00488            
1 68879U 26095R   26254.31588114  .00000615  00000+0  10971-3 0  9992
2 68879  51.8983 214.8093 0001109  60.6506 299.4567 14.79927490 20573
KUIPER-00489            
1 68880U 26095S   26254.32396333  .00002045  00000+0  29722-3 0  9998
2 68880  51.8946 207.2564 0001251  66.1619 293.9474 14.79934316 20680
KUIPER-00499            
1 68881U 26095T   26254.28482144  .00000138  00000+0  47168-4 0  9996
2 68881  51.8987 212.4879 0000830  47.9768 312.1265 14.79925224 20609
KUIPER-00500            
1 68882U 26095U   26254.33346054  .00002081  00000+0  30197-3 0  9994
2 68882  51.9006 229.7234 0000698  81.7462 278.3580 14.79925321 20373
KUIPER-00502            
1 68883U 26095V   26254.89086860  .00002411  00000+0  34521-3 0  9994
2 68883  51.8991 203.5108 0001224  54.0378 306.0698 14.79932761 20781
KUIPER-00503            
1 68884U 26095W   26254.64004091  .00000376  00000+0  78323-4 0  9991
2 68884  51.8980 225.8414 0000794  61.4426 298.6616 14.79927857 20454
KUIPER-00504            
1 68885U 26095X   26254.32804559  .00003928  00000+0  54379-3 0  9994
2 68885  51.8945 234.7456 0002083 117.7202 242.3972 14.79944895 20307
KUIPER-00505            
1 68886U 26095Y   26254.64272354  .00001190  00000+0  18513-3 0  9991
2 68886  51.8979 223.3618 0002049  77.5128 282.6063 14.79934738 20483
KUIPER-00507            
1 68887U 26095Z   26254.90676002  .00002217  00000+0  31979-3 0  9991
2 68887  51.9002 212.1790 0000747  73.5782 286.5262 14.79928277 20669
KUIPER-00511            
1 68888U 26095AA  26254.22267905  .00002408  00000+0  34480-3 0  9997
2 68888  51.8967 207.8176 0001028  28.4948 331.6070 14.79935083 20666
KUIPER-00512            
1 68889U 26095AB  26254.94393044  .00000049  00000+0  35414-4 0  9999
2 68889  51.9006 224.5312 0000909  74.4690 285.6373 14.79926812 20497
KUIPER-00519            
1 68890U 26095AC  26254.27941395  .00000842  00000+0  13940-3 0  9995
2 68890  51.9015 217.5335 0000581  93.7557 266.3471 14.79933364 20538
KUIPER-00521            
1 68891U 26095AD  26254.27773186 -.00000593  00000+0 -48737-4 0  9995
2 68891  51.9012 211.2360 0000933  83.9275 276.1794 14.79916557 20626
KUIPER-00524            
1 68892U 26095AE  26254.31049116  .00001665  00000+0  24737-3 0  9992
2 68892  51.8972 219.8075 0000713  27.9687 332.1314 14.79935948 20502
KUIPER-00370            
1 68919U 26098A   26254.74365874 -.00000304  00000+0 -10944-4 0  9991
2 68919  51.9001  35.2691 0000351  92.9748 267.1254 14.79924700 20300
KUIPER-00380            
1 68920U 26098B   26254.68424407  .00000317  00000+0  70635-4 0  9999
2 68920  51.8992  28.1712 0000465  94.0190 266.0825 14.79924643 20392
KUIPER-00386            
1 68921U 26098C   26254.76595860 -.00000936  00000+0 -93749-4 0  9991
2 68921  51.9003  30.3038 0000499  92.6570 267.4450 14.79927471 20375
KUIPER-00388            
1 68922U 26098D   26254.60324778  .00002280  00000+0  32798-3 0  9991
2 68922  51.9010  41.1843 0000502 105.0188 255.0830 14.79927689 20205
KUIPER-00405            
1 68923U 26098E   26254.42022098  .00000869  00000+0  14299-3 0  9999
2 68923  51.9018  39.3462 0001170 177.5891 182.5077 14.79929421 20211
KUIPER-00408            
1 68924U 26098F   26254.74905898  .00002554  00000+0  36394-3 0  9996
2 68924  51.9001  30.3071 0000555 107.5486 252.5537 14.79933516 20376
KUIPER-00409            
1 68925U 26098G   26254.65926355  .00002357  00000+0  33810-3 0  9999
2 68925  51.9028  35.7894 0000540 105.4012 254.7010 14.79927702 20284
KUIPER-00410            
1 68926U 26098H   26254.59443669 -.00000092  00000+0  16941-4 0  9997
2 68926  51.8980  33.5527 0001572 135.5353 224.5736 14.79925129 20313
KUIPER-00412            
1 68927U 26098J   26254.58563547  .00002421  00000+0  34636-3 0  9992
2 68927  51.9041  26.1231 0000770 123.0096 237.0940 14.79944655 20410
KUIPER-00413            
1 68928U 26098K   26254.67345570  .00002530  00000+0  36073-3 0  9995
2 68928  51.9001  38.2106 0000899 144.6318 215.4704 14.79933797 20255
KUIPER-00414            
1 68929U 26098L   26254.62891597  .00000557  00000+0  10213-3 0  9991
2 68929  51.8967  48.4930 0001768 115.1939 244.9207 14.79929257 20107
KUIPER-00415            
1 68930U 26098M   26254.64778186 -.00001094  00000+0 -11459-3 0  9995
2 68930  51.9012  30.8384 0000597 103.0955 257.0074 14.79923340 20353
KUIPER-00416            
1 68931U 26098N   26254.73327624  .00019696  00000+0  26069-2 0  9990
2 68931  51.9033  21.8137 0000749  90.4924 269.6125 14.79903481 20481
KUIPER-00420            
1 68932U 26098P   26254.72338875 -.00000664  00000+0 -58180-4 0  9998
2 68932  51.9023  22.9668 0000476 107.3373 252.7642 14.79927750 20476
KUIPER-00421            
1 68933U 26098Q   26254.65047475  .00000230  00000+0  59213-4 0  9999
2 68933  51.9005  28.2707 0000787 107.8832 252.2216 14.79927757 20390
KUIPER-00425            
1 68934U 26098R   26254.77744972 -.00000447  00000+0 -29710-4 0  9990
2 68934  51.8995  35.2572 0000528 116.3551 243.7466 14.79925350 20302
KUIPER-00430            
1 68935U 26098S   26254.77473028  .00002513  00000+0  35853-3 0  9990
2 68935  51.9038  37.6666 0001029 134.5672 225.5375 14.79932553 20271
KUIPER-00431            
1 68936U 26098T   26254.77205724  .00000535  00000+0  99131-4 0  9999
2 68936  51.8985  40.2686 0000638 128.4785 231.6235 14.79925767 20234
KUIPER-00432            
1 68937U 26098U   26254.64507595 -.00000533  00000+0 -40966-4 0  9999
2 68937  51.9003  33.2288 0000415  80.5997 279.5012 14.79927799 20324
KUIPER-00434            
1 68938U 26098V   26254.60814046  .00001828  00000+0  29061-3 0  9996
2 68938  51.9013  37.2573 0001829 112.1284 247.9872 14.76500265 20266
KUIPER-00436            
1 68939U 26098W   26254.69301527  .00007813  00000+0  10521-2 0  9991
2 68939  51.9001  35.6308 0000518 113.7013 246.4003 14.79957160 20299
KUIPER-00438            
1 68940U 26098X   26254.76326058  .00002416  00000+0  34576-3 0  9998
2 68940  51.9038  32.8424 0000598 106.1367 253.9661 14.79934999 20338
KUIPER-00439            
1 68941U 26098Y   26254.67888231  .00002473  00000+0  35215-3 0  9999
2 68941  51.9034  33.2068 0001021  73.7435 286.3639 14.80071819 20320
KUIPER-00440            
1 68942U 26098Z   26254.77135350  .00000364  00000+0  76695-4 0  9993
2 68942  51.9029  25.2960 0000181 354.7255   5.3705 14.79929160 20440
KUIPER-00442            
1 68943U 26098AA  26254.62892459  .00001452  00000+0  23695-3 0  9998
2 68943  51.9030  28.3981 0001714 112.8359 247.2783 14.76530864 20383
KUIPER-00446            
1 68944U 26098AB  26254.59712940 -.00000455  00000+0 -30676-4 0  9993
2 68944  51.9009  31.0702 0000893 221.4516 138.6379 14.79924987 20347
KUIPER-00451            
1 68945U 26098AC  26254.58634524  .00002350  00000+0  33717-3 0  9996
2 68945  51.8997  41.0981 0000704 125.7516 234.3512 14.79926641 20207
KUIPER-00452            
1 68946U 26098AD  26254.73489815  .00000635  00000+0  11236-3 0  9991
2 68946  51.9037  27.9564 0000662  97.9477 262.1560 14.79928513 20407
KUIPER-00453            
1 68947U 26098AE  26254.61939328  .00002432  00000+0  34795-3 0  9990
2 68947  51.9000  25.8890 0002293 120.1606 239.9584 14.79933547 20425
KUIPER-00454            
1 68948U 26098AF  26254.59784997  .00070883  00000+0  99298-2 0  9991
2 68948  51.9008  43.5100 0000776  30.9602 329.1405 14.76832751 20171
KUIPER-00455            
1 68949U 26098AG  26254.62011635  .00000370  00000+0  77532-4 0  9991
2 68949  51.9006  40.9519 0002011 113.6676 246.4497 14.79928431 20210
KUIPER-00458            
1 68950U 26098AH  26254.73756143  .00005690  00000+0  77450-3 0  9993
2 68950  51.9023  25.4567 0000496 110.8069 249.2947 14.79946355 20432
KUIPER-00282            
1 69267U 26118A   26254.74567508 -.00000437  00000+0 -28362-4 0  9999
2 69267  51.8989  17.8800 0000635 147.8278 212.2723 14.79926372 16979
KUIPER-00383            
1 69268U 26118B   26254.63020168  .00000847  00000+0  14012-3 0  9993
2 69268  51.8987  15.9102 0000413 112.5374 247.5632 14.79930070 16994
KUIPER-00527            
1 69269U 26118C   26254.59644909  .00002582  00000+0  36761-3 0  9997
2 69269  51.8997  16.1921 0000511 107.6753 252.4265 14.79930258 16987
KUIPER-00562            
1 69270U 26118D   26254.70565968  .00002330  00000+0  33420-3 0  9999
2 69270  51.9043   8.0177 0000525 142.0269 218.0730 14.79981224 17115
KUIPER-00570            
1 69271U 26118E   26254.65857929  .00000060  00000+0  36883-4 0  9990
2 69271  51.9016  20.8871 0000351 115.6346 244.4653 14.79926386 16910
KUIPER-00572            
1 69272U 26118F   26254.71460854  .00000764  00000+0  12919-3 0  9999
2 69272  51.9018  15.5313 0000477 108.1364 251.9650 14.79923624 17004
KUIPER-00581            
1 69273U 26118G   26254.70920281  .00002476  00000+0  35371-3 0  9993
2 69273  51.9024  20.5626 0001563 159.3583 200.7443 14.79934117 17026
KUIPER-00584            
1 69274U 26118H   26254.62212046  .00000581  00000+0  10516-3 0  9997
2 69274  51.9015  23.5588 0000511 115.7555 244.3461 14.79926863 16880
KUIPER-00587            
1 69275U 26118J   26254.58224617  .00002367  00000+0  33946-3 0  9996
2 69275  51.9029  13.6259 0000795  77.1038 283.0013 14.79926873 17023
KUIPER-00590            
1 69276U 26118K   26254.64438635  .00000653  00000+0  11464-3 0  9998
2 69276  51.9041  18.3594 0000783 133.3453 226.7574 14.79924976 16965
KUIPER-00592            
1 69277U 26118L   26254.76265987  .00001892  00000+0  27728-3 0  9996
2 69277  51.9041  17.7171 0000599 100.1358 259.9673 14.79909779 16985
KUIPER-00593            
1 69278U 26118M   26254.91668981 -.00075896  00000+0 -96680-2 0  9994
2 69278  51.8996 359.6676 0001121  72.1460 283.3161 14.81506945  5551
KUIPER-00594            
1 69279U 26118N   26254.70848661  .00000071  00000+0  38318-4 0  9994
2 69279  51.9039   5.5806 0001554  62.6627 297.4494 14.79913481 17149
KUIPER-00595            
1 69280U 26118P   26254.91668981 -.00064652  00000+0 -78406-2 0  9991
2 69280  51.8991 359.6555 0001599  63.8091  94.7123 14.83453475  5295
KUIPER-00596            
1 69281U 26118Q   26254.74029466  .00000763  00000+0  12906-3 0  9997
2 69281  51.9033  22.9301 0000519 106.8417 253.2602 14.79929509 16909
KUIPER-00597            
1 69282U 26118R   26254.74479372  .00227325  00000+0  29766-1 0  9998
2 69282  51.8980   2.9103 0001224 150.3459 209.7573 14.78614253 17182
KUIPER-00599            
1 69283U 26118S   26254.63288691  .00000042  00000+0  34550-4 0  9994
2 69283  51.9043  13.3183 0000413 143.3837 216.7154 14.79927927 17032
KUIPER-00600            
1 69284U 26118T   26254.91668981 -.00031137  00000+0 -40745-2 0  9992
2 69284  51.8995   2.0664 0001704  25.3213 349.9873 14.79928564  1700
KUIPER-00601            
1 69285U 26118U   26254.72878097  .00002713  00000+0  38466-3 0  9997
2 69285  51.9037  17.9781 0000380 101.6014 258.4991 14.79943573 16977
KUIPER-00602            
1 69286U 26118V   26254.66934454  .00000666  00000+0  11637-3 0  9997
2 69286  51.9034  10.6568 0000863 171.0347 189.0631 14.79930928 17076
KUIPER-00603            
1 69287U 26118W   26254.75106193  .00002488  00000+0  35521-3 0  9991
2 69287  51.9051  12.8834 0000513  91.9632 268.1389 14.79936514 17048
KUIPER-00605            
1 69288U 26118X   26254.60791943 -.00000657  00000+0 -57154-4 0  9994
2 69288  51.9006  20.9974 0000442 108.0270 252.0741 14.79924401 16925
KUIPER-00606            
1 69289U 26118Y   26254.59912924  .00000389  00000+0  80076-4 0  9996
2 69289  51.9036  13.5531 0000302  87.5760 272.5237 14.79929101 17027
KUIPER-00607            
1 69290U 26118Z   26254.59307591  .00004943  00000+0  67691-3 0  9993
2 69290  51.9014   3.5870 0001252   0.4760 359.6204 14.79936745 17167
KUIPER-00608            
1 69291U 26118AA  26254.60729306  .00008940  00000+0  12002-2 0  9994
2 69291  51.9032   5.8822 0001212  66.2391 293.8699 14.79932188 17137
KUIPER-00610            
1 69292U 26118AB  26254.70312135  .00002432  00000+0  34791-3 0  9994
2 69292  51.9033  10.5919 0000440 104.3630 255.7381 14.79929225 17077
KUIPER-00613            
1 69293U 26118AC  26254.62480753  .00000153  00000+0  49031-4 0  9990
2 69293  51.9023  20.9381 0000424  98.9796 261.1214 14.79924815 16927
KUIPER-00618            
1 69294U 26118AD  26254.60450495  .00002375  00000+0  34048-3 0  9998
2 69294  51.9042   8.5345 0002173 159.5378 200.5671 14.79931370 17091
KUIPER-00620            
1 69295U 26118AE  26254.61871220 -.00000103  00000+0  15461-4 0  9990
2 69295  51.9049  10.9756 0000250 111.2791 248.8198 14.79927994 17063
KUIPER-00423            
1 69592U 26140A   26254.91668981 -.00059996  00000+0 -60340-2 0  9995
2 69592  51.8995 342.1976 0014963 104.8595 322.3634 14.90912276  5804
KUIPER-00428            
1 69593U 26140B   26254.46763426  .00013541  00000+0  36957-3 0  9998
2 69593  51.8808 341.7833 0005648 236.5846 123.4602 15.37718700 14507
KUIPER-00481            
1 69594U 26140C   26254.91668981 -.00036484  00000+0 -51868-2 0  9999
2 69594  51.9016 346.7816 0001614 311.6832  81.0727 14.76507369  3666
KUIPER-00490            
1 69595U 26140D   26254.65443388  .00000123  00000+0  45122-4 0  9990
2 69595  51.9047 353.2611 0000521  81.6978 278.4043 14.79917907 14366
KUIPER-00493            
1 69596U 26140E   26254.48024812  .00002437  00000+0  34853-3 0  9997
2 69596  51.9057 359.0829 0000610 247.3180 112.7718 14.79930635 14269
KUIPER-00496            
1 69597U 26140F   26254.91668981 -.00929582  00000+0 -57805-1 0  9998
2 69597  51.8873 342.8806 0008385 253.1123 237.3351 15.11966898  5050
KUIPER-00513            
1 69598U 26140G   26254.68820435  .00000567  00000+0  10346-3 0  9999
2 69598  51.9016 353.1624 0001177 108.0017 252.1074 14.79912871 14362
KUIPER-00516            
1 69599U 26140H   26254.91668981 -.00026025  00000+0 -97245-3 0  9994
2 69599  51.8810 339.7249 0007158 186.2536  98.4241 15.26504977  3807
KUIPER-00517            
1 69600U 26140J   26254.62474296  .00018057  00000+0  49889-3 0  9994
2 69600  51.8786 340.5648 0009624 138.5769 221.5949 15.37070752 14530
KUIPER-00520            
1 69601U 26140K   26254.58181340  .00001404  00000+0  22977-3 0  9992
2 69601  51.9037 355.4046 0001213 162.8577 197.2425 14.76597662 14322
KUIPER-00522            
1 69602U 26140L   26254.91668981 -.00060001  00000+0 -55740-2 0  9994
2 69602  51.8947 342.5826 0014809 103.8578 202.5666 14.94052353  5854
KUIPER-00528            
1 69603U 26140M   26254.53359485  .00000611  00000+0  10918-3 0  9997
2 69603  51.9034 356.3577 0000505 101.1228 258.9792 14.79925760 14309
KUIPER-00532            
1 69604U 26140N   26254.91668981 -.00845144  00000+0 -54981-1 0  9990
2 69604  51.8971 341.3315 0003551 194.8253  47.1747 15.10134904  5669
KUIPER-00533            
1 69605U 26140P   26254.45461798  .00002319  00000+0  33266-3 0  9999
2 69605  51.9031 351.7019 0000362 121.8006 238.2992 14.79980944 14366
KUIPER-00534            
1 69606U 26140Q   26254.50385953  .00023542  00000+0  76234-3 0  9997
2 69606  51.8840 342.0186 0012756 102.1013 258.1402 15.31840601 14509
KUIPER-00537            
1 69607U 26140R   26254.58154127 -.00000050  00000+0  22424-4 0  9996
2 69607  51.9019 358.5540 0000495 323.9368  36.1561 14.79931101 14280
KUIPER-00538            
1 69608U 26140S   26254.48275987  .00002608  00000+0  37183-3 0  9991
2 69608  51.9036 356.5130 0000149 160.0300 200.0669 14.79828725 14306
KUIPER-00540            
1 69609U 26140T   26254.52228989  .00023394  00000+0  62107-3 0  9996
2 69609  51.8822 341.4113 0005304 238.1368 121.9104 15.38162139 14516
KUIPER-00541            
1 69610U 26140U   26254.91668981 -.01017436  00000+0 -35439-1 0  9990
2 69610  51.8852 339.1000 0007014 159.2909  55.4595 15.31759631  5825
KUIPER-00542            
1 69611U 26140V   26254.54356466  .00018356  00000+0  49826-3 0  9998
2 69611  51.8803 340.7884 0007661 143.1473 217.0042 15.37624046 14523
KUIPER-00543            
1 69612U 26140W   26254.91668981 -.01948655  00000+0 -13646+0 0  9992
2 69612  51.8937 341.1917 0005521 246.8441 331.2114 15.08555979  5337
KUIPER-00544            
1 69613U 26140X   26254.91668981 -.00026755  00000+0 -89370-3 0  9991
2 69613  51.8806 339.1513 0005254 147.4916  49.7302 15.30178453  5904
KUIPER-00546            
1 69614U 26140Y   26254.91668981 -.00060636  00000+0 -55491-2 0  9994
2 69614  51.8968 342.5818 0020950 100.4468 276.7195 14.94554878  5338
KUIPER-00547            
1 69615U 26140Z   26254.91668981 -.00035263  00000+0 -95712-3 0  9994
2 69615  51.8814 338.9085 0009321 132.1442 185.5373 15.36819070  4268
KUIPER-00549            
1 69616U 26140AA  26254.91668981 -.02089717  00000+0 -10229+0 0  9996
2 69616  51.8878 339.9341 0004846 225.0740 271.4886 15.21366239  5639
KUIPER-00550            
1 69617U 26140AB  26254.91668981 -.00069352  00000+0 -33955-2 0  9992
2 69617  51.8810 343.6715 0006963 262.1193 236.3560 15.17852466  5286
KUIPER-00551            
1 69618U 26140AC  26254.52250442  .00023639  00000+0  62338-3 0  9993
2 69618  51.8788 340.6498 0012348 119.1862 241.0363 15.38305367 14521
KUIPER-00554            
1 69619U 26140AD  26254.46954348 -.00003585  00000+0 -85996-4 0  9999
2 69619  51.8789 341.0411 0010009 130.9409 229.2446 15.37226498 14518
KUIPER-00555            
1 69620U 26140AE  26254.91668981 -.00022057  00000+0 -58896-3 0  9999
2 69620  51.8825 338.8319 0010920 121.9824 233.0829 15.37041357  2216
KUIPER-00556            
1 69621U 26140AF  26254.91668981 -.00076135  00000+0 -90741-2 0  9990
2 69621  51.8986 344.7207 0015618 108.7092 310.8961 14.84161457  3426
KUIPER-00557            
1 69622U 26140AG  26254.67723528  .00019144  00000+0  50449-3 0  9990
2 69622  51.8817 340.2054 0008691 134.2964 225.8737 15.38501849 14540
KUIPER-00560            
1 69623U 26140AH  26254.51176442  .00019100  00000+0  52812-3 0  9999
2 69623  51.8802 341.3147 0008335 158.3272 201.8069 15.37017314 14511
KUIPER-00561            
1 69624U 26140AJ  26254.55594643  .00001410  00000+0  21415-3 0  9991
2 69624  51.9029 351.2224 0001017 106.1109 253.9965 14.79892684 14384
KUIPER-00564            
1 69625U 26140AK  26254.91668981 -.00036388  00000+0 -51629-2 0  9992
2 69625  51.8983 346.9596 0002004  98.7389 282.8574 14.76589363  3793
KUIPER-00567            
1 69626U 26140AL  26254.91668981 -.00082363  00000+0 -10282-1 0  9996
2 69626  51.8976 344.6810 0009766  94.6554 168.4123 14.82354622  5865
KUIPER-00573            
1 69627U 26140AM  26254.91668981 -.00042808  00000+0 -56178-2 0  9992
2 69627  51.9018 347.1631 0000945  93.4997  16.0685 14.79964098  5828
KUIPER-00258            
1 69763U 26151A   26254.91668981 -.01756754  00000+0 -10893+0 0  9999
2 69763  51.8793 259.0346 0010158  25.2641 336.4875 15.12496726  5453
KUIPER-00526            
1 69764U 26151B   26254.75762430  .00001723  00000+0  25499-3 0  9994
2 69764  51.8993 272.9272 0000528  69.5249 290.5770 14.79930160 10809
KUIPER-00558            
1 69765U 26151C   26254.79140309  .00000021  00000+0  31713-4 0  9991
2 69765  51.8983 272.6983 0000498  69.3067 290.7948 14.79925928 10813
KUIPER-00569            
1 69766U 26151D   26254.06815390  .00001701  00000+0  25208-3 0  9998
2 69766  51.9012 273.3881 0000641  44.3745 315.7268 14.79932755 10740
KUIPER-00589            
1 69767U 26151E   26254.36192424  .00001418  00000+0  23222-3 0  9997
2 69767  51.9024 274.9467 0002468  43.4759 316.6396 14.76521294 10746
KUIPER-00598            
1 69768U 26151F   26254.91668981  .00039818  00000+0  52283-2 0  9998
2 69768  51.8978 264.6540 0000823 125.2680 319.4531 14.79876228  4295
KUIPER-00604            
1 69769U 26151G   26253.99998672  .00001981  00000+0  31197-3 0  9991
2 69769  51.8998 271.1651 0003014 345.4671  14.6202 14.76547590 10767
KUIPER-00609            
1 69770U 26151H   26254.33970816 -.00001491  00000+0 -18103-3 0  9992
2 69770  51.9030 266.8096 0002195  13.3343 346.7676 14.76618935 10853
KUIPER-00611            
1 69771U 26151J   26254.77990793 -.00002442  00000+0 -29130-3 0  9996
2 69771  51.8985 267.7420 0000656  42.1588 317.9425 14.79951520 10882
KUIPER-00612            
1 69772U 26151K   26254.47529648  .00000938  00000+0  16352-3 0  9999
2 69772  51.9009 271.4541 0000594  56.6806 303.4212 14.76632573 10808
KUIPER-00614            
1 69773U 26151L   26254.76307123  .00001788  00000+0  26344-3 0  9990
2 69773  51.8988 267.8847 0000887  54.2070 305.8975 14.79940331 10870
KUIPER-00615            
1 69774U 26151M   26254.77031486  .00001295  00000+0  21423-3 0  9994
2 69774  51.9028 272.6906 0000548 244.7788 115.3116 14.76608158 10813
KUIPER-00616            
1 69775U 26151N   26254.91668981 -.00769251  00000+0 -60092-1 0  9995
2 69775  51.9041 258.2817 0003195 112.4832 195.5888 15.03173535  5460
KUIPER-00617            
1 69776U 26151P   26254.91668981 -.00007509  00000+0 -92093-3 0  9995
2 69776  51.8984 262.1626 0000809 302.9798 211.3332 14.81525441  5355
KUIPER-00619            
1 69777U 26151Q   26254.91668981  .00034042  00000+0  48427-2 0  9997
2 69777  51.8991 264.2110 0001955 137.2796  23.0844 14.76551935  5891
KUIPER-00621            
1 69778U 26151R   26254.91668981  .00036559  00000+0  48055-2 0  9990
2 69778  51.8984 267.1491 0001076 137.9903 141.1140 14.79871853  3884
KUIPER-00622            
1 69779U 26151S   26254.75729192  .00001203  00000+0  20137-3 0  9995
2 69779  51.9005 271.6196 0000962  71.9137 288.1928 14.76555626 10823
KUIPER-00623            
1 69780U 26151T   26254.91668981  .00037319  00000+0  48873-2 0  9996
2 69780  51.8960 269.6660 0001816 100.5137 191.6367 14.80017040  4528
KUIPER-00626            
1 69781U 26151U   26254.91668981 -.00014092  00000+0 -18108-2 0  9990
2 69781  51.8960 264.6309 0002216 156.6653  17.6135 14.80219590  5372
KUIPER-00627            
1 69782U 26151V   26254.91668981 -.01093890  00000+0 -94077-1 0  9993
2 69782  51.8883 260.5096 0007226  55.0074 218.4989 15.00041681  2237
KUIPER-00629            
1 69783U 26151W   26254.46792910 -.00000308  00000+0 -11451-4 0  9993
2 69783  51.9019 276.5740 0000489  63.7042 296.3970 14.79926304 10736
KUIPER-00631            
1 69784U 26151X   26254.75489050 -.00003365  00000+0 -41235-3 0  9992
2 69784  51.9014 275.3640 0001422 100.4090 259.7033 14.79951327 10778
KUIPER-00634            
1 69785U 26151Y   26254.03437993  .00000219  00000+0  57770-4 0  9998
2 69785  51.8985 273.5572 0001153  85.4976 274.6118 14.79929779 10737
KUIPER-00639            
1 69786U 26151Z   26254.91668981  .00017573  00000+0  14836-2 0  9994
2 69786  51.8905 260.3030 0008638  15.9548 113.4731 14.98155110  4781
KUIPER-00641            
1 69787U 26151AA  26254.91668981 -.00002872  00000+0 -29317-3 0  9994
2 69787  51.8988 262.2800 0013461  30.5338 150.8830 14.86667103  4062
KUIPER-00644            
1 69788U 26151AB  26254.91668981 -.00930782  00000+0 -47392-1 0  9996
2 69788  51.8830 257.4656 0009400  25.1432  41.6426 15.18953425  4853
KUIPER-00646            
1 69789U 26151AC  26254.91668981  .00001842  00000+0  23658-3 0  9992
2 69789  51.8994 262.3673 0006224  27.0139 345.2701 14.85748730  3138
KUIPER-00647            
1 69790U 26151AD  26254.91668981 -.00014352  00000+0 -14248-2 0  9990
2 69790  51.8936 262.3034 0008014   4.1195 217.6439 14.90709220  5537
KUIPER-00662            
1 69791U 26151AE  26254.51493362  .00001440  00000+0  23565-3 0  9991
2 69791  51.9019 276.3854 0001876 345.7702  14.3205 14.76442312 10734
