EUTELSAT 174A           
1 28924U 05052A   26254.79773481 -.00000005  00000+0  00000+0 0  9996
2 28924   4.4324  75.4077 0005936  95.0003 281.5614  1.00272399 53204
EUTELSAT 33F            
1 29270U 06032A   26254.83853249  .00000141  00000+0  00000+0 0  9996
2 29270   1.8795  81.1552 0003323  90.1744 154.4890  1.00273841 48177
EUTELSAT HOTBIRD 13C    
1 33459U 08065A   26254.85660793 -.00000297  00000+0  00000+0 0  9993
2 33459   3.1674  78.0946 0003562 100.1421  70.7295  1.00271121 48216
EUTELSAT 36B            
1 36101U 09065A   26254.81919780  .00000097  00000+0  00000+0 0  9997
2 36101   0.7038  81.1782 0005731  87.3920 167.6856  1.00269393 61574
EUTELSAT KA-SAT 9A      
1 37258U 10069A   26254.86839464  .00000046  00000+0  00000+0 0  9996
2 37258   0.0741 351.7498 0005432 181.6011 139.1602  1.00272540 44874
EUTELSAT 7 WEST A       
1 37816U 11051A   26254.86510130 -.00000076  00000+0  00000+0 0  9998
2 37816   0.0642 346.5128 0005983 186.7445 121.7396  1.00271707 54742
EUTELSAT 16A            
1 37836U 11057A   26254.86978131  .00000088  00000+0  00000+0 0  9997
2 37836   0.0865  61.3316 0005559 106.4693 152.2196  1.00269825  8200
EUTELSAT 21B            
1 38992U 12062B   26254.87082132  .00000114  00000+0  00000+0 0  9996
2 38992   0.0701 345.3099 0003076 176.1578 164.5316  1.00269432 50698
EUTELSAT 70B            
1 39020U 12069A   26254.86964333 -.00000059  00000+0  00000+0 0  9996
2 39020   0.0654   0.7279 0003672 171.3857 202.3434  1.00272182 50372
EUTELSAT 117 WEST A     
1 39122U 13012A   26254.91470103 -.00000029  00000+0  00000+0 0  9998
2 39122   0.0459 309.9577 0002816 223.8331  29.6342  1.00272410 49305
EUTELSAT 7B             
1 39163U 13022A   26254.86969464  .00000107  00000+0  00000+0 0  9997
2 39163   0.0701 338.5636 0002148  37.9831 303.0353  1.00455620 48813
EXPRESS-AT1             
1 39612U 14010A   26254.99122351 -.00000109  00000+0  00000+0 0  9997
2 39612   0.4757  84.6011 0004857  81.6635 256.2733  1.00314879 45683
EXPRESS-AT2             
1 39613U 14010B   26254.87766801  .00000062  00000+0  00000+0 0  9996
2 39613   0.0223 248.0209 0000723  40.3561  74.4739  1.00273582 45367
EUTELSAT 3B             
1 39773U 14030A   26254.86718131  .00000004  00000+0  00000+0 0  9993
2 39773   0.0665 357.3822 0004099 172.8550 135.9198  1.00272425 44937
EUTELSAT 115 WEST B     
1 40425U 15010B   26254.91513436 -.00000041  00000+0  00000+0 0  9997
2 40425   0.0421 342.6400 0000233  98.8897 123.9603  1.00272548 42256
EUTELSAT 8 WEST B       
1 40875U 15039B   26254.86501463 -.00000081  00000+0  00000+0 0  9992
2 40875   0.0674 346.0610 0003655 183.0277 125.2411  1.00270779 40520
EUTELSAT 9B             
1 41310U 16005A   26254.86839464  .00000046  00000+0  00000+0 0  9996
2 41310   0.0509  70.1793 0002425 138.4419 103.8744  1.00272686 38982
EUTELSAT 65 WEST A      
1 41382U 16014A   26254.85366125 -.00000292  00000+0  00000+0 0  9997
2 41382   0.0765 311.1058 0002187 214.9190  66.9672  1.00273242 38391
EUTELSAT 117 WEST B     
1 41589U 16038B   26254.91470103 -.00000027  00000+0  00000+0 0  9997
2 41589   0.0398   1.3364 0000097 198.1115   3.7755  1.00271457 37530
EUTELSAT 172B           
1 42741U 17029B   26254.56368183 -.00000023  00000+0  00000+0 0  9990
2 42741   0.0232 140.5666 0000022 337.8562 247.0910  1.00270428 34614
EUTELSAT 7C             
1 44334U 19034B   26254.36895484  .00000031  00000+0  00000+0 0  9993
2 44334   0.0707 180.5661 0003205 337.8090 331.8288  1.00272629  7707
EUTELSAT 5 WEST B       
1 44624U 19067A   26254.86562130 -.00000058  00000+0  00000+0 0  9995
2 44624   0.0815 320.0232 0003125 210.9197 126.5613  1.00271319 25294
EUTELSAT KONNECT        
1 45027U 20005B   26254.36895484  .00000032  00000+0  00000+0 0  9994
2 45027   0.0637  99.8848 0001300  85.8968 304.6388  1.00271705 25204
EUTELSAT QUANTUM        
1 49056U 21069B   26254.84350113  .00000110  00000+0  00000+0 0  9996
2 49056   0.0175  74.1035 0002239 100.5055 167.6066  1.00271894 18790
EUTELSAT KONNECT VHTS   
1 53765U 22110A   26254.36817484 -.00000001  00000+0  00000+0 0  9992
2 53765   0.0569 104.0975 0002855  38.0591 343.4768  1.00270605  7700
EUTELSAT HOTBIRD 13F    
1 54048U 22134A   26254.86917464  .00000071  00000+0  00000+0 0  9993
2 54048   0.0643 293.1975 0001940  68.6315 314.9557  1.00271230 14246
EUTELSAT HOTBIRD 13G    
1 54225U 22146A   26254.58404149  .00000070  00000+0  00000+0 0  9992
2 54225   0.0492 232.2936 0002016 309.0506  32.5054  1.00270920  8338
EUTELSAT 10B            
1 54259U 22157A   26253.22906750  .00000048  00000+0  00000+0 0  9991
2 54259   0.0555 102.2355 0001580   7.7511 331.7742  1.00270556 13877
EUTELSAT 36D            
1 59346U 24059A   26254.84093366  .00000140  00000+0  00000+0 0  9998
2 59346   0.0197 166.3030 0000228  20.7115 142.4544  1.00271912  9010
