EUTELSAT 174A           
1 28924U 05052A   26279.56298699 -.00000005  00000+0  00000+0 0  9991
2 28924   4.4956  75.0822 0006098 121.6352 195.1852  1.00271878 53443
EUTELSAT 33F            
1 29270U 06032A   26279.58852660  .00000140  00000+0  00000+0 0  9990
2 29270   1.9434  80.8146 0003369 115.7404  63.6690  1.00271990 48420
EUTELSAT HOTBIRD 13C    
1 33459U 08065A   26279.44730193 -.00000297  00000+0  00000+0 0  9997
2 33459   3.2308  77.7717 0003846 127.1796 280.9143  1.00270133 48468
EUTELSAT 36B            
1 36101U 09065A   26279.58931179  .00000095  00000+0  00000+0 0  9992
2 36101   0.7669  80.9899 0005815 116.7031  80.2350  1.00273903 61822
EUTELSAT KA-SAT 9A      
1 37258U 10069A   26279.60164051  .00000044  00000+0  00000+0 0  9996
2 37258   0.0785 354.5371 0005183 172.7497  73.6131  1.00272349 45120
EUTELSAT 7 WEST A       
1 37816U 11051A   26279.59826050 -.00000078  00000+0  00000+0 0  9998
2 37816   0.0672 353.5359 0006468 196.7137  33.0863  1.00271230 54999
EUTELSAT 16A            
1 37836U 11057A   26279.60060051 -.00000034  00000+0  00000+0 0  9991
2 37836   0.1459  70.4414 0005623 121.5104  43.7641  1.00023555  8451
EUTELSAT 21B            
1 38992U 12062B   26279.60698036  .00000113  00000+0  00000+0 0  9999
2 38992   0.0734 341.1616 0002855 211.1911  63.0607  1.00274006 50945
EUTELSAT 70B            
1 39020U 12069A   26279.61857106 -.00000061  00000+0  00000+0 0  9998
2 39020   0.0658   3.6196 0003808 190.7860 114.0785  1.00271617 50624
EUTELSAT 117 WEST A     
1 39122U 13012A   26279.43412853 -.00000030  00000+0  00000+0 0  9992
2 39122   0.0486  44.2485 0002869 152.7506 217.5952  1.00271203 49544
EUTELSAT 7B             
1 39163U 13022A   26279.60294052  .00000087  00000+0  00000+0 0  9997
2 39163   0.0723 347.0577 0002837 124.8706 136.4246  1.00273442 49065
EXPRESS-AT1             
1 39612U 14010A   26279.47278205 -.00000148  00000+0  00000+0 0  9990
2 39612   0.5380  84.0668 0004818  96.3299  83.4552  1.00313848 45936
EXPRESS-AT2             
1 39613U 14010B   26279.63284056  .00000061  00000+0  00000+0 0  9993
2 39613   0.0205 225.9782 0000097 249.3302 183.8210  1.00271659 45615
EUTELSAT 3B             
1 39773U 14030A   26279.60042718  .00000002  00000+0  00000+0 0  9991
2 39773   0.0652   7.1769 0004257 186.2068  41.1416  1.00271306 45188
EUTELSAT 115 WEST B     
1 40425U 15010B   26279.43447520 -.00000043  00000+0  00000+0 0  9993
2 40425   0.0151  47.6914 0000271  90.5428 278.3792  1.00271434 42492
EUTELSAT 8 WEST B       
1 40875U 15039B   26279.59826050 -.00000083  00000+0  00000+0 0  9993
2 40875   0.0706 342.8000 0003586 212.7077  27.1361  1.00271575 40770
EUTELSAT 9B             
1 41310U 16005A   26279.60155384  .00000044  00000+0  00000+0 0  9995
2 41310   0.0632  63.8264 0003378 164.2897  12.7098  1.00271409 39237
EUTELSAT 65 WEST A      
1 41382U 16014A   26279.50310828 -.00000294  00000+0  00000+0 0  9997
2 41382   0.0752 311.0498 0002245 249.3184 290.7320  1.00269698 38649
EUTELSAT 117 WEST B     
1 41589U 16038B   26279.43412853 -.00000030  00000+0  00000+0 0  9993
2 41589   0.0159  47.4105 0000158  79.1545 287.8563  1.00273851 37770
EUTELSAT 172B           
1 42741U 17029B   26279.56255366 -.00000023  00000+0  00000+0 0  9995
2 42741   0.0232 147.2533 0000167 215.3461  27.1777  1.00270884 34860
EUTELSAT 7C             
1 44334U 19034B   26279.24476105  .00000031  00000+0  00000+0 0  9992
2 44334   0.0678 182.1042 0003173 359.0935 288.8346  1.00270585  7944
EUTELSAT 5 WEST B       
1 44624U 19067A   26278.88611279 -.00000059  00000+0  00000+0 0  9993
2 44624   0.0654   8.9258 0003186 189.2570 130.3971  1.00272037 25530
EUTELSAT KONNECT        
1 45027U 20005B   26278.31294848  .00000033  00000+0  00000+0 0  9993
2 45027   0.0704  95.8547 0002537 151.3017 246.7472  1.00271911 25443
EUTELSAT QUANTUM        
1 49056U 21069B   26278.68270523  .00000109  00000+0  00000+0 0  9998
2 49056   0.0428  28.9592 0002332 171.1869 107.7011  1.00272190 19030
EUTELSAT KONNECT VHTS   
1 53765U 22110A   26278.31850339  .00000000  00000+0  00000+0 0  9997
2 53765   0.0578 100.6280 0002256  75.9847 314.7445  1.00268231  7941
EUTELSAT HOTBIRD 13F    
1 54048U 22134A   26278.24816471  .00000071  00000+0  00000+0 0  9997
2 54048   0.0612 285.1901 0001745  71.2780 119.8210  1.00274090 14482
EUTELSAT HOTBIRD 13G    
1 54225U 22146A   26279.60242052  .00000070  00000+0  00000+0 0  9995
2 54225   0.0496 239.3895 0002034 303.6326  62.1338  1.00272117  8585
EUTELSAT 10B            
1 54259U 22157A   26279.60181384  .00000051  00000+0  00000+0 0  9993
2 54259   0.0573  97.2727 0001406  45.2204  99.4602  1.00268556 14147
EUTELSAT 36D            
1 59346U 24059A   26279.60692720  .00000138  00000+0  00000+0 0  9995
2 59346   0.0090 226.0073 0000266  92.4248 311.2142  1.00271025  9260
