EUTELSAT 174A           
1 28924U 05052A   26269.56820049  .00000016  00000+0  00000+0 0  9991
2 28924   4.4681  75.2094 0006173 109.3893 199.3617  1.00270155 53349
EUTELSAT 33F            
1 29270U 06032A   26269.55636874  .00000161  00000+0  00000+0 0  9996
2 29270   1.9154  80.9461 0003426 105.7489  52.0818  1.00273957 48324
EUTELSAT HOTBIRD 13C    
1 33459U 08065A   26268.96965197 -.00000277  00000+0  00000+0 0  9994
2 33459   3.2017  77.9041 0003782 113.0703 112.6204  1.00272592 48356
EUTELSAT 36B            
1 36101U 09065A   26269.20342255  .00000116  00000+0  00000+0 0  9995
2 36101   0.7382  81.0430 0005835 102.1825 305.5424  1.00270028 61728
EUTELSAT KA-SAT 9A      
1 37258U 10069A   26268.69627431  .00000064  00000+0  00000+0 0  9991
2 37258   0.0764 355.3528 0005213 165.7789 103.0549  1.00273040 45018
EUTELSAT 7 WEST A       
1 37816U 11051A   26269.26326081 -.00000057  00000+0  00000+0 0  9997
2 37816   0.0715  17.2564 0006180 166.1893 269.1178  1.00272472 54899
EUTELSAT 16A            
1 37836U 11057A   26269.55246873  .00000052  00000+0  00000+0 0  9991
2 37836   0.1212  67.0509 0005879 113.1729  37.2954  1.00020372  8356
EUTELSAT 21B            
1 38992U 12062B   26269.55411539  .00000134  00000+0  00000+0 0  9996
2 38992   0.0700 351.6954 0002928 184.6040  50.1551  1.00269914 50843
EUTELSAT 70B            
1 39020U 12069A   26269.59265833 -.00000040  00000+0  00000+0 0  9991
2 39020   0.0680   9.1006 0003688 176.9281 103.2288  1.00271785 50522
EUTELSAT 117 WEST A     
1 39122U 13012A   26269.52672861 -.00000009  00000+0  00000+0 0  9994
2 39122   0.0104 128.0804 0002980  61.0794 249.0145  1.00272191 49442
EUTELSAT 7B             
1 39163U 13022A   26269.26785417  .00000107  00000+0  00000+0 0  9991
2 39163   0.0684 352.3919 0003737 119.0586   6.0804  1.00270204 48965
EXPRESS-AT1             
1 39612U 14010A   26269.66828449 -.00000112  00000+0  00000+0 0  9992
2 39612   0.5114  84.3211 0004965  85.7648 152.9822  1.00315377 45831
EXPRESS-AT2             
1 39613U 14010B   26269.63021994  .00000082  00000+0  00000+0 0  9995
2 39613   0.0202 217.7846 0000072  16.9717  53.5790  1.00273418 45513
EUTELSAT 3B             
1 39773U 14030A   26269.33658112  .00000024  00000+0  00000+0 0  9995
2 39773   0.0659   6.3864 0004245 178.2712 304.7724  1.00272202 45081
EUTELSAT 115 WEST B     
1 40425U 15010B   26269.45583497 -.00000021  00000+0  00000+0 0  9994
2 40425   0.0401  17.8126 0000092 326.2169  70.4480  1.00271081 42398
EUTELSAT 8 WEST B       
1 40875U 15039B   26269.33441444 -.00000062  00000+0  00000+0 0  9991
2 40875   0.0678 350.9963 0003600 193.7492 292.7960  1.00271444 40671
EUTELSAT 9B             
1 41310U 16005A   26269.55151538  .00000066  00000+0  00000+0 0  9999
2 41310   0.0619  67.1234 0002921 156.0619 349.7303  1.00272705 39131
EUTELSAT 65 WEST A      
1 41382U 16014A   26269.53686866 -.00000273  00000+0  00000+0 0  9994
2 41382   0.0961 298.9505 0002326 241.4505 313.0333  1.00273841 38540
EUTELSAT 117 WEST B     
1 41589U 16038B   26269.45540162 -.00000008  00000+0  00000+0 0  9994
2 41589   0.0190  38.8920 0000242  36.9564 336.3710  1.00271377 37674
EUTELSAT 172B           
1 42741U 17029B   26269.47467306 -.00000002  00000+0  00000+0 0  9990
2 42741   0.0237 145.1372 0000034  12.1765 190.8742  1.00271875 34766
EUTELSAT 7C             
1 44334U 19034B   26269.55108205  .00000052  00000+0  00000+0 0  9991
2 44334   0.0669 183.9189 0003411 346.8655  39.9843  1.00273212  7850
EUTELSAT 5 WEST B       
1 44624U 19067A   26269.19241583 -.00000039  00000+0  00000+0 0  9992
2 44624   0.0677 347.6445 0003213 196.9602 244.6927  1.00271505 25436
EUTELSAT KONNECT        
1 45027U 20005B   26269.19484251  .00000053  00000+0  00000+0 0  9990
2 45027   0.0659  97.8769 0001825 128.7828 215.7278  1.00269812 25343
EUTELSAT QUANTUM        
1 49056U 21069B   26269.48798844  .00000000  00000+0  00000+0 0  9997
2 49056   0.0136 148.5141 0002426  44.8083  35.3417  1.00271257 18941
EUTELSAT KONNECT VHTS   
1 53765U 22110A   26268.05352161  .00000018  00000+0  00000+0 0  9996
2 53765   0.0554 104.5802 0002658  53.0728 228.2461  1.00269414  7838
EUTELSAT HOTBIRD 13F    
1 54048U 22134A   26269.55238206  .00000091  00000+0  00000+0 0  9997
2 54048   0.0648 286.6384 0001892  72.4239 218.1708  1.00272282 14393
EUTELSAT HOTBIRD 13G    
1 54225U 22146A   26269.55238206  .00000091  00000+0  00000+0 0  9997
2 54225   0.0515 237.7771 0002134 302.6997  36.7597  1.00272078  8485
EUTELSAT 10B            
1 54259U 22157A   26269.55177539  .00000073  00000+0  00000+0 0  9997
2 54259   0.0552 101.5126 0001196 358.3271 114.1868  1.00273307 14042
EUTELSAT 36D            
1 59346U 24059A   26269.55688874  .00000160  00000+0  00000+0 0  9998
2 59346   0.0207 197.2843 0000067  95.2385 309.2073  1.00270865  9166
