EUTELSAT 174A           
1 28924U 05052A   26281.59002834 -.00000001  00000+0  00000+0 0  9997
2 28924   4.5010  75.0581 0006048 123.0638 205.5172  1.00272547 53462
EUTELSAT 33F            
1 29270U 06032A   26281.58714015  .00000144  00000+0  00000+0 0  9998
2 29270   1.9488  80.7921 0003326 117.1198  63.7896  1.00273206 48441
EUTELSAT HOTBIRD 13C    
1 33459U 08065A   26281.51429797 -.00000293  00000+0  00000+0 0  9999
2 33459   3.2364  77.7481 0003782 125.2060 309.0720  1.00272710 48489
EUTELSAT 36B            
1 36101U 09065A   26281.46299110  .00000098  00000+0  00000+0 0  9997
2 36101   0.7720  80.9854 0005780 118.1667  35.1656  1.00274866 61842
EUTELSAT KA-SAT 9A      
1 37258U 10069A   26280.67069192  .00000046  00000+0  00000+0 0  9997
2 37258   0.0786 354.3436 0005166 173.7031  98.7660  1.00271992 45136
EUTELSAT 7 WEST A       
1 37816U 11051A   26281.38022411 -.00000074  00000+0  00000+0 0  9993
2 37816   0.0672 357.8034 0006422 192.9158 315.8781  1.00271543 55018
EUTELSAT 16A            
1 37836U 11057A   26281.23965021 -.00000042  00000+0  00000+0 0  9993
2 37836   0.1499  70.8351 0005634 123.4219 271.6696  1.00023926  8475
EUTELSAT 21B            
1 38992U 12062B   26281.24337690  .00000116  00000+0  00000+0 0  9991
2 38992   0.0726 344.4377 0002882 210.9646 290.7441  1.00274851 50963
EUTELSAT 70B            
1 39020U 12069A   26281.46689111 -.00000058  00000+0  00000+0 0  9999
2 39020   0.0665   7.2972 0003809 189.4771  58.9270  1.00271759 50645
EUTELSAT 117 WEST A     
1 39122U 13012A   26281.50112458 -.00000027  00000+0  00000+0 0  9997
2 39122   0.0524  52.0623 0002825 145.9774 242.7093  1.00271771 49569
EUTELSAT 7B             
1 39163U 13022A   26281.52721135  .00000090  00000+0  00000+0 0  9992
2 39163   0.0717 351.6886 0002599 123.8711 107.4111  1.00269772 49084
EXPRESS-AT1             
1 39612U 14010A   26281.78779480 -.00000147  00000+0  00000+0 0  9997
2 39612   0.5447  84.0523 0004730  96.9979 198.8405  1.00313830 45955
EXPRESS-AT2             
1 39613U 14010B   26281.60703329  .00000065  00000+0  00000+0 0  9996
2 39613   0.0171 214.3760 0000096 191.9289 245.4814  1.00272762 45633
EUTELSAT 3B             
1 39773U 14030A   26281.23973687  .00000005  00000+0  00000+0 0  9994
2 39773   0.0655  10.2362 0004210 183.0715 272.9843  1.00271857 45200
EUTELSAT 115 WEST B     
1 40425U 15010B   26280.68965405 -.00000041  00000+0  00000+0 0  9997
2 40425   0.0180  47.0502 0000165 140.3648 322.2984  1.00271888 42519
EUTELSAT 8 WEST B       
1 40875U 15039B   26281.38013744 -.00000080  00000+0  00000+0 0  9998
2 40875   0.0699 346.5260 0003624 211.1961 308.1533  1.00271600 40792
EUTELSAT 9B             
1 41310U 16005A   26281.24086355  .00000047  00000+0  00000+0 0  9992
2 41310   0.0671  65.2847 0003332 163.2218 244.0873  1.00272101 39252
EUTELSAT 65 WEST A      
1 41382U 16014A   26281.30564216 -.00000291  00000+0  00000+0 0  9997
2 41382   0.0720 313.7275 0002211 247.1290 220.9181  1.00269221 38656
EUTELSAT 117 WEST B     
1 41589U 16038B   26281.50112458 -.00000026  00000+0  00000+0 0  9997
2 41589   0.0195  47.9266 0000112 167.7721 224.8894  1.00273208 37799
EUTELSAT 172B           
1 42741U 17029B   26281.59002834 -.00000019  00000+0  00000+0 0  9996
2 42741   0.0267 141.6356 0000066 251.6377   8.3843  1.00270457 34889
EUTELSAT 7C             
1 44334U 19034B   26281.24051689  .00000034  00000+0  00000+0 0  9994
2 44334   0.0686 182.2840 0003164 358.7438 289.4419  1.00270830  7967
EUTELSAT 5 WEST B       
1 44624U 19067A   26280.66791858 -.00000058  00000+0  00000+0 0  9993
2 44624   0.0661  12.6986 0003165 185.9692  53.1265  1.00272923 25557
EUTELSAT KONNECT        
1 45027U 20005B   26281.24051689  .00000035  00000+0  00000+0 0  9995
2 45027   0.0708  95.0359 0001229 151.5422 224.1080  1.00268738 25470
EUTELSAT QUANTUM        
1 49056U 21069B   26281.46212443  .00000000  00000+0  00000+0 0  9995
2 49056   0.0108 204.2781 0002199 352.0503  34.8269  1.00270096 19061
EUTELSAT KONNECT VHTS   
1 53765U 22110A   26281.09708297  .00000003  00000+0  00000+0 0  9994
2 53765   0.0559 101.0311 0002590  74.4294 238.9306  1.00274418  7960
EUTELSAT HOTBIRD 13F    
1 54048U 22134A   26281.26988958  .00000072  00000+0  00000+0 0  9994
2 54048   0.0622 286.1092 0002089  73.9190 127.0584  1.00271375 14513
EUTELSAT HOTBIRD 13G    
1 54225U 22146A   26281.26988958  .00000073  00000+0  00000+0 0  9995
2 54225   0.0482 239.3524 0001913 300.5804 307.1489  1.00270876  8603
EUTELSAT 10B            
1 54259U 22157A   26281.09855632  .00000054  00000+0  00000+0 0  9996
2 54259   0.0573  96.2574 0001740  46.0764 279.9174  1.00271644 14159
EUTELSAT 36D            
1 59346U 24059A   26281.25878029  .00000141  00000+0  00000+0 0  9991
2 59346   0.0031 187.0841 0000229 127.9408 190.9212  1.00273200  9284
