QIANFAN-1               
1 60379U 24140A   26266.53861372  .00000033  00000+0  32420-4 0  9993
2 60379  88.9663 269.7083 0019545 109.9315 250.3944 13.51026103105807
QIANFAN-2               
1 60380U 24140B   26266.49338797  .00000041  00000+0  44855-4 0  9994
2 60380  88.9651 269.5139 0014900  85.7611 274.5243 13.51020498105852
QIANFAN-3               
1 60381U 24140C   26266.57583547  .00000037  00000+0  37695-4 0  9998
2 60381  88.9643 269.6163 0016058  96.2705 264.0275 13.51023243105770
QIANFAN-4               
1 60382U 24140D   26266.55102478  .00000027  00000+0  22491-4 0  9994
2 60382  88.9667 269.5882 0015164  87.7397 272.5490 13.51021092105899
QIANFAN-5               
1 60383U 24140E   26266.52621065  .00000052  00000+0  61122-4 0  9992
2 60383  88.9642 269.6457 0017237 106.3927 253.9121 13.51031519105756
QIANFAN-6               
1 60384U 24140F   26266.54689149  .00000027  00000+0  22171-4 0  9995
2 60384  88.9670 269.4672 0015283  92.8105 267.4796 13.51024217105958
QIANFAN-7               
1 60385U 24140G   26266.56025090  .00000153  00000+0  55820-4 0  9994
2 60385  88.9723 260.1916 0015007 173.6534 186.4854 14.27894418111038
QIANFAN-8               
1 60386U 24140H   26266.55524492  .00000039  00000+0  41448-4 0  9998
2 60386  88.9670 269.7072 0018736  94.7660 265.5632 13.51026179105801
QIANFAN-9               
1 60387U 24140J   26266.53048956  .00000052  00000+0  60995-4 0  9996
2 60387  88.9668 269.7794 0018430  94.6147 265.7110 13.51021953105785
QIANFAN-10              
1 60388U 24140K   26266.53459091  .00000046  00000+0  52915-4 0  9999
2 60388  88.9680 269.1564 0016772  74.7623 285.5381 13.51022073105913
QIANFAN-11              
1 60389U 24140L   26266.57175231  .00000031  00000+0  28462-4 0  9999
2 60389  88.9604 269.5250 0016461  94.2292 266.0741 13.51021190105575
QIANFAN-12              
1 60390U 24140M   26266.51819928  .00000047  00000+0  54092-4 0  9998
2 60390  88.9647 269.6979 0015261 101.4560 258.8306 13.51023811105690
QIANFAN-13              
1 60391U 24140N   26266.48935636  .00000056  00000+0  68283-4 0  9997
2 60391  88.9907 269.9532 0015070 103.4838 256.7993 13.51023960105713
QIANFAN-14              
1 60392U 24140P   26266.51415156  .00000035  00000+0  35435-4 0  9992
2 60392  88.9638 269.6702 0018739 104.0893 256.2342 13.51025986105728
QIANFAN-15              
1 60393U 24140Q   26266.52223744  .00000061  00000+0  75436-4 0  9998
2 60393  88.9662 269.6936 0014580  91.8363 268.4458 13.51028390105714
QIANFAN-16              
1 60394U 24140R   26266.50987710  .00000026  00000+0  20686-4 0  9995
2 60394  88.9664 269.8228 0016650 107.2331 253.0644 13.51025335105623
QIANFAN-17              
1 60395U 24140S   26266.57997453  .00000034  00000+0  33850-4 0  9994
2 60395  88.9675 269.8926 0017091 101.5547 258.7524 13.51021735106593
QIANFAN-18              
1 60396U 24140T   26266.55940732  .00000038  00000+0  39684-4 0  9996
2 60396  88.9670 269.4100 0016443  86.4941 273.8090 13.51021028105981
QIANFAN-19              
1 61552U 24185A   26266.47266383  .00000301  00000+0  14929-3 0  9991
2 61552  88.9862  45.3219 0008939 106.8222 253.3946 14.14533546109914
QIANFAN-20              
1 61553U 24185B   26266.47041158  .00000420  00000+0  23401-3 0  9990
2 61553  88.9856  45.9269 0006916 139.9241 220.2454 14.09075321109586
QIANFAN-21              
1 61554U 24185C   26266.51284315  .00000399  00000+0  17097-3 0  9999
2 61554  88.9782  43.6356 0011851 146.5327 213.6616 14.22935956110469
QIANFAN-22              
1 61555U 24185D   26266.59318998  .00000238  00000+0  19373-3 0  9994
2 61555  88.9835  48.0422 0006165 186.0715 174.0383 13.86431212108401
QIANFAN-23              
1 61556U 24185E   26266.46739268  .00000240  00000+0  11328-3 0  9993
2 61556  88.9854  44.9997 0009442 113.7104 246.5076 14.16554760110051
QIANFAN-24              
1 61557U 24185F   26266.48430459  .00000431  00000+0  18097-3 0  9998
2 61557  88.9840  43.9392 0011749  90.9449 269.3090 14.24160251110546
QIANFAN-25              
1 61558U 24185G   26266.60255330  .00000416  00000+0  24487-3 0  9999
2 61558  88.9849  45.9598 0013379 161.6314 198.5355 14.06133729109538
QIANFAN-26              
1 61559U 24185H   26266.48819202  .00000205  00000+0  19120-3 0  9994
2 61559  88.9840  49.0199 0004596 213.0637 147.0242 13.77946520107881
QIANFAN-27              
1 61560U 24185J   26266.48599011  .00000522  00000+0  20629-3 0  9997
2 61560  88.9851  43.5749 0009370  79.6189 280.6061 14.27606922110789
QIANFAN-28              
1 61561U 24185K   26266.51703198  .00000553  00000+0  21509-3 0  9997
2 61561  88.9870  43.5863 0009300  77.7639 282.4597 14.28491631110829
QIANFAN-29              
1 61562U 24185L   26266.49976947  .00000140  00000+0  19843-3 0  9999
2 61562  88.9807  51.8776 0008359 314.1286  45.9177 13.51095433106246
QIANFAN-30              
1 61563U 24185M   26266.54189601  .00000132  00000+0  18904-3 0  9997
2 61563  88.9829  51.5080 0005903 298.7441  61.3116 13.50077039106491
QIANFAN-31              
1 61564U 24185N   26266.53168523  .00000145  00000+0  18366-3 0  9993
2 61564  88.9814  50.8591 0005247 278.1786  81.8774 13.58066210106810
QIANFAN-32              
1 61565U 24185P   26266.57680340  .00000103  00000+0  14105-3 0  9995
2 61565  88.9868  51.7215 0008536 334.2973  25.7753 13.50806961106494
QIANFAN-33              
1 61566U 24185Q   26266.47284147  .00000302  00000+0  20815-3 0  9996
2 61566  88.9838  47.0698 0008811 145.4087 214.7665 13.96755310108900
QIANFAN-34              
1 61567U 24185R   26266.48232048  .00000385  00000+0  24158-3 0  9996
2 61567  88.9819  46.2562 0006829 141.1961 218.9711 14.02524542109269
QIANFAN-35              
1 61568U 24185S   26266.50454464  .00000468  00000+0  18138-3 0  9991
2 61568  88.9850  43.4644 0008385  76.4696 283.7433 14.28361757110829
QIANFAN-36              
1 61569U 24185T   26266.50385135  .00000067  00000+0  79181-4 0  9991
2 61569  88.9805  51.3708 0004637 302.8526  57.2181 13.55647900106503
QIANFAN-37              
1 62238U 24232B   26266.54217977  .00000101  00000+0  13854-3 0  9993
2 62238  89.0161  12.7369 0001819  87.7593 272.3766 13.51031253137620
QIANFAN-38              
1 62239U 24232C   26266.49289746  .00000091  00000+0  12263-3 0  9992
2 62239  89.0168  12.6769 0016460  94.2760 266.0273 13.51029456137678
QIANFAN-39              
1 62240U 24232D   26266.56138661  .00000330  00000+0  13349-3 0  9993
2 62240  89.0144   4.8986 0014885 218.3520 141.6616 14.25564017141965
QIANFAN-40              
1 62241U 24232E   26266.59987924  .00000104  00000+0  14279-3 0  9993
2 62241  89.0195  12.3302 0015608 101.0755 259.2153 13.51029824138058
QIANFAN-41              
1 62242U 24232F   26266.53401564  .00000097  00000+0  13199-3 0  9990
2 62242  89.0166  12.6190 0015829  90.7619 269.5346 13.51030889137705
QIANFAN-42              
1 62243U 24232G   26266.60059035  .00000329  00000+0  13517-3 0  9993
2 62243  89.0143   4.9835 0013481 225.4685 134.5408 14.24650982141925
QIANFAN-43              
1 62244U 24232H   26266.52990935  .00000087  00000+0  11552-3 0  9996
2 62244  89.0170  12.6973 0017422  95.2361 265.0779 13.51030354106317
QIANFAN-44              
1 62245U 24232J   26266.59165058  .00000102  00000+0  13965-3 0  9992
2 62245  89.0168  12.4972 0015617  92.6380 267.6559 13.51030630137795
QIANFAN-45              
1 62246U 24232K   26266.55875507  .00000101  00000+0  13705-3 0  9997
2 62246  89.0172  12.6571 0016277  92.3079 267.9936 13.51029349137712
QIANFAN-46              
1 62247U 24232L   26266.58337564  .00000107  00000+0  14726-3 0  9997
2 62247  89.0168  12.7120 0016370  97.1120 263.1893 13.51030437137678
QIANFAN-47              
1 62248U 24232M   26266.58753653  .00000101  00000+0  13738-3 0  9995
2 62248  89.0164  12.6331 0016789  96.3278 263.9786 13.51029654137709
QIANFAN-48              
1 62249U 24232N   26266.55061571  .00000109  00000+0  15010-3 0  9997
2 62249  89.0168  12.6498 0019058  98.6218 261.7094 13.51024000137707
QIANFAN-49              
1 62250U 24232P   26266.53815804  .00000100  00000+0  13623-3 0  9992
2 62250  89.0167  12.6613 0016099  94.0774 266.2218 13.51031125106290
QIANFAN-50              
1 62251U 24232Q   26266.56281022  .00000100  00000+0  13634-3 0  9997
2 62251  89.0172  12.6825 0017767  95.0541 265.2638 13.51030647106325
QIANFAN-51              
1 62252U 24232R   26266.54639349  .00000108  00000+0  14878-3 0  9994
2 62252  89.0166  12.6605 0015263  98.6504 261.6377 13.51029587106312
QIANFAN-52              
1 62253U 24232S   26266.57516456  .00000095  00000+0  12823-3 0  9994
2 62253  89.0162  12.5201 0017235  91.3797 268.9329 13.51031618106400
QIANFAN-53              
1 62254U 24232T   26266.55467438  .00000108  00000+0  14893-3 0  9992
2 62254  89.0170  12.6482 0016129  92.5585 267.7412 13.51028362106368
QIANFAN-54              
1 62255U 24232U   26266.59575025  .00000101  00000+0  13807-3 0  9996
2 62255  89.0161  12.2974 0003993 120.2422 239.9125 13.51030230137874
QIANFAN-55              
1 62785U 25016A   26266.54780573  .00000040  00000+0  43975-4 0  9998
2 62785  88.9674  73.6391 0015740 242.5286 117.4265 13.51025118 85643
QIANFAN-56              
1 62786U 25016B   26266.49002388  .00000051  00000+0  59950-4 0  9996
2 62786  88.9648  73.4057 0014298 245.3898 114.5764 13.51028342 85687
QIANFAN-57              
1 62787U 25016C   26266.52310561  .00000041  00000+0  44622-4 0  9995
2 62787  88.9678  73.6444 0002348  80.0536 280.0880 13.51028036 85654
QIANFAN-58              
1 62788U 25016D   26266.49432055  .00000055  00000+0  66350-4 0  9992
2 62788  88.9649  73.3925 0012330 236.3300 123.6676 13.51027553 85693
QIANFAN-59              
1 62789U 25016E   26266.51884360  .00000051  00000+0  59820-4 0  9996
2 62789  88.9672  73.5306 0012621 240.6178 119.3714 13.51024875 85698
QIANFAN-60              
1 62790U 25016F   26266.47769282  .00000050  00000+0  58840-4 0  9998
2 62790  88.9653  73.4523 0014232 237.1943 122.7838 13.51028370 85677
QIANFAN-61              
1 62791U 25016G   26266.51065544  .00000049  00000+0  58013-4 0  9994
2 62791  88.9719  73.8043 0013203 236.2807 123.7087 13.51027869 85699
QIANFAN-62              
1 62792U 25016H   26266.51488980  .00000044  00000+0  50184-4 0  9994
2 62792  88.9667  73.5194 0014534 236.8560 123.1197 13.51027302 85683
QIANFAN-63              
1 62793U 25016J   26266.53951849  .00000047  00000+0  54258-4 0  9995
2 62793  88.9674  73.4876 0014518 242.7487 117.2186 13.51023238 85725
QIANFAN-64              
1 62794U 25016K   26266.50656610  .00000055  00000+0  66112-4 0  9992
2 62794  88.9661  73.4270 0012567 234.4264 125.5716 13.51027873 85712
QIANFAN-65              
1 62795U 25016L   26266.50235997  .00000054  00000+0  65694-4 0  9997
2 62795  88.9657  73.4433 0012393 236.2944 123.7026 13.51023969 85694
QIANFAN-66              
1 62796U 25016M   26266.53118987  .00000055  00000+0  67179-4 0  9991
2 62796  88.9677  73.4663 0013564 231.7073 128.2859 13.51020087 85744
QIANFAN-67              
1 62797U 25016N   26266.53526763  .00000057  00000+0  68946-4 0  9992
2 62797  88.9667  73.4635 0013419 239.3072 120.6757 13.51020262 85710
QIANFAN-68              
1 62798U 25016P   26266.52714394  .00000050  00000+0  58950-4 0  9998
2 62798  88.9670  73.5196 0013530 237.0184 122.9667 13.51022222 85691
QIANFAN-69              
1 62799U 25016Q   26266.54349289  .00000044  00000+0  49212-4 0  9992
2 62799  88.9650  73.3269 0014243 238.6991 121.2766 13.51024563 85731
QIANFAN-70              
1 62800U 25016R   26266.48602599  .00000062  00000+0  78152-4 0  9999
2 62800  88.9670  73.5306 0014015 228.1797 131.8158 13.51024264 85689
QIANFAN-71              
1 62801U 25016S   26266.48185108  .00000043  00000+0  48223-4 0  9997
2 62801  88.9664  73.4933 0014093 242.8551 117.1163 13.51027136 85689
QIANFAN-72              
1 62802U 25016T   26266.49841429  .00000062  00000+0  77324-4 0  9999
2 62802  88.9654  73.4772 0017270 251.2626 108.6651 13.51028917 85671
QIANFAN-73              
1 63159U 25046A   26266.52536660  .00000063  00000+0  78350-4 0  9991
2 63159  88.9638 290.4491 0015696  28.0152 332.1841 13.51025811 85868
QIANFAN-74              
1 63160U 25046B   26266.58303168  .00000011  00000+0 -95092-6 0  9992
2 63160  88.9638 290.3328 0001817  98.2460 261.8897 13.51018635 85932
QIANFAN-75              
1 63161U 25046C   26266.57067761  .00000113  00000+0  15605-3 0  9999
2 63161  88.9641 290.5719 0016922  30.8129 329.4012 13.51031608 85801
QIANFAN-76              
1 63162U 25046D   26266.56666090 -.00000079  00000+0 -14164-3 0  9991
2 63162  88.9639 290.5520 0014420  32.1939 328.0090 13.51020351 85819
QIANFAN-77              
1 63163U 25046E   26266.56656317  .00000131  00000+0  85718-4 0  9994
2 63163  88.9646 286.2104 0012534 271.4035  88.5706 13.96247717 88199
QIANFAN-78              
1 63164U 25046F   26266.53423774  .00000081  00000+0  10600-3 0  9992
2 63164  88.9640 290.4172 0015884  33.6615 326.5542 13.51012777 85882
QIANFAN-79              
1 63165U 25046G   26266.56242021  .00000032  00000+0  31266-4 0  9998
2 63165  88.9643 290.5315 0015572  32.3451 327.8652 13.51021233 85832
QIANFAN-80              
1 63166U 25046H   26266.57885988  .00000098  00000+0  13321-3 0  9998
2 63166  88.9641 290.2289 0014624  37.0551 323.1607 13.51030408 85998
QIANFAN-81              
1 63167U 25046J   26266.55827413  .00000112  00000+0  15488-3 0  9999
2 63167  88.9640 290.2983 0015475  26.6606 333.5338 13.51021540 85947
QIANFAN-82              
1 63168U 25046K   26266.51721088  .00000087  00000+0  11513-3 0  9993
2 63168  88.9641 290.3469 0013597  34.2074 325.9951 13.51021237 85923
QIANFAN-83              
1 63169U 25046L   26266.51857382  .00000075  00000+0  81276-4 0  9992
2 63169  88.9643 289.5616 0013835   3.8521 356.2741 13.62065218 86366
QIANFAN-84              
1 63170U 25046M   26266.54602404 -.00000053  00000+0 -10081-3 0  9993
2 63170  88.9639 290.4765 0016443  29.2804 330.9265 13.51016419 85853
QIANFAN-85              
1 63171U 25046N   26266.54184651  .00000103  00000+0  14044-3 0  9990
2 63171  88.9639 290.3465 0014099  32.7217 327.4804 13.51021467 85929
QIANFAN-86              
1 63172U 25046P   26266.55003747  .00000109  00000+0  15066-3 0  9999
2 63172  88.9642 290.2145 0012136  37.9028 322.2976 13.51026546 86001
QIANFAN-87              
1 63173U 25046Q   26266.52122016  .00000013  00000+0  20402-5 0  9994
2 63173  88.9637 290.3183 0012470  32.4206 327.7709 13.51020487 85931
QIANFAN-88              
1 63174U 25046R   26266.53769929  .00000110  00000+0  15081-3 0  9999
2 63174  88.9641 290.2784 0013181  40.8231 319.3905 13.51019974 85961
QIANFAN-89              
1 63175U 25046S   26266.57473193  .00000104  00000+0  14254-3 0  9993
2 63175  88.9641 290.4634 0017360  29.2688 330.9432 13.51020713 85864
QIANFAN-90              
1 63176U 25046T   26266.52954070  .00000033  00000+0  32398-4 0  9998
2 63176  88.9641 290.4414 0014267  29.4241 330.7711 13.51019997 85872
QIANFAN-91              
1 66033U 25233A   26266.41379876  .00000069  00000+0  88129-4 0  9996
2 66033  89.0060  33.2615 0001701  95.0978 265.0367 13.51029989 46444
QIANFAN-92              
1 66034U 25233B   26265.31149668  .00000033  00000+0  32227-4 0  9998
2 66034  89.0042  33.3282 0002238 102.3225 257.8177 13.50961815 46292
QIANFAN-93              
1 66035U 25233C   26266.57864661  .00000072  00000+0  93221-4 0  9999
2 66035  89.0070  33.2790 0001762  94.4004 265.7348 13.51013248 46460
QIANFAN-94              
1 66036U 25233D   26266.41797709  .00000074  00000+0  96433-4 0  9991
2 66036  89.0067  33.1951 0001763 101.5856 258.5493 13.51028392 46491
QIANFAN-95              
1 66037U 25233E   26266.42622418  .00000076  00000+0  98571-4 0  9994
2 66037  89.0065  32.7356 0001595  98.0349 262.0983 13.51028305 46740
QIANFAN-96              
1 66038U 25233F   26266.30272133  .00000070  00000+0  89801-4 0  9997
2 66038  89.0061  33.2887 0001669  93.6821 266.4521 13.51029477 46422
QIANFAN-97              
1 66039U 25233G   26266.58248614  .00000067  00000+0  85507-4 0  9990
2 66039  89.0065  33.2479 0001769  95.5418 264.5935 13.51039492 46468
QIANFAN-98              
1 66040U 25233H   26266.29452630  .00000062  00000+0  77737-4 0  9996
2 66040  89.0054  32.9972 0001696 114.9729 245.1599 13.51029731 46570
QIANFAN-99              
1 66041U 25233J   26266.37260590  .00000072  00000+0  93143-4 0  9998
2 66041  89.0065  33.2736 0001531 110.5070 249.6245 13.51036296 46441
QIANFAN-100             
1 66042U 25233K   26266.43857239  .00000059  00000+0  73049-4 0  9996
2 66042  89.0066  33.2088 0001497  85.7160 274.4163 13.51056619 46500
QIANFAN-101             
1 66043U 25233L   26266.40606553  .00000248  00000+0  96017-4 0  9995
2 66043  89.0066  29.3014 0015411 173.8082 186.3305 14.26863106 48634
QIANFAN-102             
1 66044U 25233M   26266.31097245  .00000076  00000+0  99815-4 0  9996
2 66044  89.0063  33.1872 0001724 102.5944 257.5401 13.51029042 46484
QIANFAN-103             
1 66045U 25233N   26266.31512383  .00000081  00000+0  10747-3 0  9994
2 66045  89.0066  33.2847 0001758  95.4836 264.6516 13.51029135 46432
QIANFAN-104             
1 66046U 25233P   26266.31915432  .00000073  00000+0  94721-4 0  9993
2 66046  89.0071  33.1909 0001806 103.8279 256.3073 13.51027078 46481
QIANFAN-105             
1 66047U 25233Q   26266.32750093  .00000064  00000+0  79765-4 0  9996
2 66047  89.0084  33.0462 0001801  99.9371 260.1984 13.51030338 46591
QIANFAN-106             
1 66048U 25233R   26266.32326793  .00000068  00000+0  86186-4 0  9992
2 66048  89.0053  33.2287 0001678 112.5321 247.6008 13.51030702 46439
QIANFAN-107             
1 66049U 25233S   26266.40557623  .00000060  00000+0  74256-4 0  9997
2 66049  89.0068  33.2684 0001764  96.9657 263.1695 13.51029919 46455
QIANFAN-108             
1 66050U 25233T   26266.40974911  .00000064  00000+0  80654-4 0  9995
2 66050  89.0062  33.2488 0001718 110.9652 249.1683 13.51029653 46450
QIANFAN-109             
1 68636U 26075A   26266.57176317  .00000067  00000+0  85540-4 0  9996
2 68636  88.9859 310.9719 0001943  83.3352 276.8020 13.51021192 23071
QIANFAN-110             
1 68637U 26075B   26266.57993102  .00000059  00000+0  73427-4 0  9998
2 68637  88.9859 310.9926 0002214  96.2608 263.8796 13.51022111 23079
QIANFAN-111             
1 68638U 26075C   26266.56784742  .00000032  00000+0  30999-4 0  9994
2 68638  88.9858 310.9527 0002186  95.9473 264.1927 13.51024526 23094
QIANFAN-112             
1 68639U 26075D   26266.53071665  .00000069  00000+0  88901-4 0  9991
2 68639  88.9857 310.9642 0002174  83.2629 276.8769 13.51023949 23083
QIANFAN-113             
1 68640U 26075E   26266.57583788  .00000069  00000+0  87831-4 0  9992
2 68640  88.9863 310.9588 0002240  93.0554 267.0854 13.51020618 23099
QIANFAN-114             
1 68641U 26075F   26266.58404426  .00000053  00000+0  62788-4 0  9992
2 68641  88.9858 310.9724 0002184  95.6693 264.4707 13.51028173 23086
QIANFAN-115             
1 68642U 26075G   26266.53887596  .00000065  00000+0  82018-4 0  9992
2 68642  88.9858 310.9843 0002036  93.8554 266.2830 13.51024893 23072
QIANFAN-116             
1 68643U 26075H   26266.52650383  .00000071  00000+0  91687-4 0  9993
2 68643  88.9851 310.9388 0002245  86.4048 273.7360 13.51025433 23081
QIANFAN-117             
1 68644U 26075J   26266.58832211  .00000059  00000+0  72431-4 0  9994
2 68644  88.9855 310.9527 0002070  89.3850 270.7539 13.51023260 23092
QIANFAN-118             
1 68645U 26075K   26266.54709347  .00000054  00000+0  64581-4 0  9996
2 68645  88.9861 310.9696 0002292  97.4982 262.6430 13.51024990 23089
QIANFAN-119             
1 68646U 26075L   26266.52233742  .00000071  00000+0  91180-4 0  9990
2 68646  88.9861 310.9679 0001890  87.3299 272.8069 13.51020762 23087
QIANFAN-120             
1 68647U 26075M   26266.53472327  .00000069  00000+0  87872-4 0  9996
2 68647  88.9862 310.9531 0001818  87.3836 272.7523 13.51020622 23093
QIANFAN-121             
1 68648U 26075N   26266.55952360  .00000068  00000+0  85980-4 0  9996
2 68648  88.9860 310.9534 0002209  97.3361 262.8042 13.51024089 23091
QIANFAN-122             
1 68649U 26075P   26266.55123083  .00000059  00000+0  72243-4 0  9997
2 68649  88.9859 310.9512 0002043  87.2715 272.8670 13.51027646 23082
QIANFAN-123             
1 68650U 26075Q   26266.51823206  .00000056  00000+0  67681-4 0  9996
2 68650  88.9855 310.9414 0001966  81.0930 279.0443 13.51020541 23067
QIANFAN-124             
1 68651U 26075R   26266.54302771  .00000054  00000+0  65440-4 0  9998
2 68651  88.9858 310.9505 0002050  85.4070 274.7316 13.51027158 23095
QIANFAN-125             
1 68652U 26075S   26266.55540912  .00000061  00000+0  75517-4 0  9995
2 68652  88.9858 310.9512 0002231  96.8141 263.3265 13.51024203 23095
QIANFAN-126             
1 68653U 26075T   26266.48940611  .00000078  00000+0  10280-3 0  9991
2 68653  88.9862 310.9275 0001953  82.0194 278.1179 13.51019757 23100
QIANFAN-127             
1 69073U 26104A   26266.56890402  .00000073  00000+0  93849-4 0  9990
2 69073  88.9918 331.4415 0002533 100.6930 259.4506 13.51028574 18447
QIANFAN-128             
1 69074U 26104B   26266.57702306  .00000080  00000+0  10488-3 0  9992
2 69074  88.9896 331.4638 0002324 111.6146 248.5253 13.51024082 18425
QIANFAN-129             
1 69075U 26104C   26266.52758004  .00000080  00000+0  10503-3 0  9992
2 69075  88.9899 331.4032 0002359 106.6107 253.5303 13.51024081 18450
QIANFAN-130             
1 69076U 26104D   26266.56459925  .00000070  00000+0  90005-4 0  9992
2 69076  88.9901 331.4653 0002470  95.0684 265.0749 13.51022200 18429
QIANFAN-131             
1 69077U 26104E   26266.58533823  .00000094  00000+0  12707-3 0  9993
2 69077  88.9894 331.4235 0002103 106.7716 253.3666 13.51026301 18442
QIANFAN-132             
1 69078U 26104F   26266.57284768  .00000082  00000+0  10893-3 0  9995
2 69078  88.9897 331.4815 0002368  98.4667 261.6753 13.51022483 18418
QIANFAN-133             
1 69079U 26104G   26266.58116069  .00000087  00000+0  11668-3 0  9991
2 69079  88.9900 331.4309 0002081 112.8180 247.3191 13.51031294 18434
QIANFAN-134             
1 69080U 26104H   26266.53587990  .00000073  00000+0  94549-4 0  9998
2 69080  88.9904 331.4621 0002270 111.1006 249.0388 13.51029582 18429
QIANFAN-135             
1 69081U 26104J   26266.51524222  .00000088  00000+0  11778-3 0  9994
2 69081  88.9898 331.4547 0002510 110.1598 249.9823 13.51022772 18428
QIANFAN-136             
1 69082U 26104K   26266.52347619  .00000071  00000+0  91031-4 0  9992
2 69082  88.9899 331.4568 0002172 111.6018 248.5364 13.51042680 18425
QIANFAN-137             
1 69083U 26104L   26266.51942980  .00000079  00000+0  10365-3 0  9992
2 69083  88.9909 331.3344 0002242  99.2231 260.9173 13.51022428 18496
QIANFAN-138             
1 69084U 26104M   26266.54404052  .00000089  00000+0  11913-3 0  9990
2 69084  88.9894 331.4545 0002544 104.2962 255.8472 13.51022212 18426
QIANFAN-139             
1 69085U 26104N   26266.53185123  .00000073  00000+0  95052-4 0  9995
2 69085  88.9896 331.4376 0002470  99.0197 261.1234 13.51030948 18432
QIANFAN-140             
1 69086U 26104P   26266.53993735  .00000079  00000+0  10317-3 0  9998
2 69086  88.9897 331.4403 0002579 108.7865 251.3566 13.51023305 18433
QIANFAN-141             
1 69087U 26104Q   26266.54824041  .00000030  00000+0  27651-4 0  9990
2 69087  88.9894 331.4036 0002385 110.1947 249.9461 13.51021117 18454
QIANFAN-142             
1 69088U 26104R   26266.55638009  .00000080  00000+0  10486-3 0  9991
2 69088  88.9892 331.4020 0002510 105.0260 255.1169 13.51020333 18450
QIANFAN-143             
1 69089U 26104S   26266.55235890  .00000085  00000+0  11346-3 0  9994
2 69089  88.9903 331.4095 0002036 106.5489 253.5886 13.51027823 18457
QIANFAN-144             
1 69090U 26104T   26266.56049352  .00000074  00000+0  95620-4 0  9999
2 69090  88.9901 331.4268 0002537 101.4355 258.7082 13.51021215 18444
QIANFAN-145             
1 69104U 26108A   26266.49071507  .00000099  00000+0  13523-3 0  9996
2 69104  89.0198  12.2378 0001617 106.7482 253.3847 13.51022342 17714
QIANFAN-146             
1 69105U 26108B   26266.59770099  .00000112  00000+0  15496-3 0  9997
2 69105  89.0200  12.0644 0001933 100.4771 259.6598 13.51040897 17825
QIANFAN-147             
1 69106U 26108C   26266.57319822  .00000103  00000+0  14113-3 0  9994
2 69106  89.0200  12.2342 0002083 103.0829 257.0555 13.51025804 17717
QIANFAN-148             
1 69107U 26108D   26266.56078919  .00000110  00000+0  15173-3 0  9998
2 69107  89.0193  12.2251 0002053 109.5481 250.5892 13.51025410 17715
QIANFAN-149             
1 69108U 26108E   26266.56895370  .00000096  00000+0  13052-3 0  9994
2 69108  89.0193  12.2455 0002340 107.4398 252.7009 13.51024856 17712
QIANFAN-150             
1 69109U 26108F   26266.57715106  .00000101  00000+0  13792-3 0  9992
2 69109  89.0198  12.1982 0002339 106.0333 254.1076 13.51025274 17731
QIANFAN-151             
1 69110U 26108G   26266.53205565  .00000101  00000+0  13735-3 0  9990
2 69110  89.0197  12.2263 0001824 105.0204 255.1149 13.51028516 17711
QIANFAN-152             
1 69111U 26108H   26266.06692554 -.00000004  00000+0 -24376-4 0  9995
2 69111  89.0193  12.2640 0002141  96.5000 263.6395 13.51024130 17667
QIANFAN-153             
1 69112U 26108J   26266.58125375  .00000107  00000+0  14699-3 0  9993
2 69112  89.0190  12.1893 0002234 102.7208 257.4193 13.51025658 17738
QIANFAN-154             
1 69113U 26108K   26266.51555055  .00000111  00000+0  15405-3 0  9990
2 69113  89.0201  12.2451 0002166 105.2978 254.8413 13.51027664 17712
QIANFAN-155             
1 69114U 26108L   26266.59362118  .00000110  00000+0  15144-3 0  9994
2 69114  89.0198  12.2018 0002292 104.0727 256.0679 13.51024536 17731
QIANFAN-156             
1 69115U 26108M   26266.54010123  .00000111  00000+0  15395-3 0  9995
2 69115  89.0213  12.2089 0001952 108.9140 251.2223 13.51024472 17744
QIANFAN-157             
1 69116U 26108N   26266.60197937  .00000105  00000+0  14394-3 0  9993
2 69116  89.0194  12.1254 0002154 110.8418 249.2964 13.51029247 17789
QIANFAN-158             
1 69117U 26108P   26266.54419372  .00000110  00000+0  15219-3 0  9990
2 69117  89.0196  12.1725 0001898 107.3697 252.7662 13.51024707 17756
QIANFAN-159             
1 69118U 26108Q   26266.53601788  .00000107  00000+0  14750-3 0  9999
2 69118  89.0187  12.1793 0001899 104.9491 255.1870 13.51024491 17745
QIANFAN-160             
1 69119U 26108R   26266.55261080  .00000118  00000+0  16361-3 0  9991
2 69119  89.0202  12.2156 0002410 103.9701 256.1718 13.51024640 17738
QIANFAN-161             
1 69120U 26108S   26266.55657050  .00000114  00000+0  15752-3 0  9998
2 69120  89.0210  12.1322 0001870 106.2223 253.9134 13.51023009 17787
QIANFAN-162             
1 69121U 26108T   26266.54836542  .00000115  00000+0  15942-3 0  9995
2 69121  89.0199  12.1580 0002107  98.9936 261.1454 13.51023836 17753
QIANFAN-163             
1 69325U 26121A   26266.51300701  .00000012  00000+0  56622-6 0  9995
2 69325  89.0094 290.7241 0002525 117.2991 242.8418 13.51022035 15441
QIANFAN-164             
1 69326U 26121B   26266.55416167  .00000064  00000+0  80551-4 0  9997
2 69326  89.0094 290.7106 0002160 110.0008 250.1376 13.51021812 15455
QIANFAN-165             
1 69382U 26124A   26266.48978554  .00000117  00000+0  16269-3 0  9990
2 69382  89.0070 351.7230 0002050 120.8210 239.3144 13.51022863 15313
QIANFAN-166             
1 69383U 26124B   26266.49393191  .00000125  00000+0  17456-3 0  9998
2 69383  89.0089 351.7340 0001837 105.6526 254.4828 13.51023519 15315
QIANFAN-167             
1 69384U 26124C   26266.57196401  .00000120  00000+0  16714-3 0  9994
2 69384  89.0062 351.7309 0002240 106.1759 253.9639 13.51032512 15312
QIANFAN-168             
1 69385U 26124D   26266.57605465  .00000119  00000+0  16540-3 0  9995
2 69385  89.0059 351.7103 0001690 110.7735 249.3598 13.51021130 15322
QIANFAN-169             
1 69386U 26124E   26266.58030368  .00000106  00000+0  14538-3 0  9992
2 69386  89.0058 351.7096 0001823 101.6737 258.4619 13.51024354 15328
QIANFAN-170             
1 69387U 26124F   26266.58436330  .00000105  00000+0  14460-3 0  9995
2 69387  89.0075 351.6821 0001760 100.2003 259.9347 13.51026801 15349
QIANFAN-171             
1 69388U 26124G   26266.59265688  .00000105  00000+0  14429-3 0  9998
2 69388  89.0090 351.6943 0002121 103.3843 256.7545 13.51029796 15341
QIANFAN-172             
1 69389U 26124H   26266.58845855  .00000107  00000+0  14653-3 0  9999
2 69389  89.0073 351.6840 0001938 118.0522 242.0825 13.51030360 15349
QIANFAN-173             
1 69390U 26124J   26266.52253561  .00000109  00000+0  15087-3 0  9996
2 69390  89.0062 351.6867 0001634 106.2480 253.8851 13.51023301 15338
QIANFAN-174             
1 69391U 26124K   26266.53490937  .00000113  00000+0  15591-3 0  9993
2 69391  89.0042 351.6422 0002271 107.9873 252.1525 13.51031248 15346
QIANFAN-175             
1 69392U 26124L   26266.53917746  .00000106  00000+0  14622-3 0  9992
2 69392  89.0094 351.6886 0001818 104.1445 255.9908 13.51021272 15340
QIANFAN-176             
1 69393U 26124M   26266.54327029  .00000103  00000+0  14157-3 0  9993
2 69393  89.0055 351.6667 0001831 104.2583 255.8772 13.51022023 15336
QIANFAN-177             
1 69394U 26124N   26266.47739625  .00000098  00000+0  13360-3 0  9993
2 69394  89.0065 351.6622 0002176 108.9599 251.1788 13.51031043 15349
QIANFAN-178             
1 69395U 26124P   26266.47323292  .00000088  00000+0  11753-3 0  9996
2 69395  89.0011 351.6165 0001842 103.1745 256.9612 13.51026929 15359
QIANFAN-179             
1 69396U 26124Q   26266.55558021  .00000103  00000+0  14106-3 0  9999
2 69396  89.0043 351.6275 0001815 102.9082 257.2272 13.51030608 15364
QIANFAN-180             
1 69397U 26124R   26266.48566349  .00000109  00000+0  14993-3 0  9994
2 69397  89.0050 351.6557 0001771  98.8962 261.2390 13.51022836 15345
QIANFAN-181             
1 69398U 26124S   26266.60085245  .00000119  00000+0  16613-3 0  9992
2 69398  89.0072 351.7384 0002180 105.1862 254.9530 13.51024712 15312
QIANFAN-182             
1 69399U 26124T   26266.53082527  .00000112  00000+0  15497-3 0  9997
2 69399  89.0047 351.7150 0001844 105.8648 254.2707 13.51029218 15305
QIANFAN-183             
1 69401U 26125A   26266.49138995  .00000051  00000+0  60170-4 0  9999
2 69401  88.9831 269.9964 0002116 100.9060 259.2330 13.51027682 15218
QIANFAN-184             
1 69402U 26125B   26266.49963187  .00000043  00000+0  47580-4 0  9990
2 69402  88.9882 270.0246 0002033  97.3833 262.7549 13.51028963 15210
QIANFAN-185             
1 69403U 26125C   26266.52438685  .00000045  00000+0  51733-4 0  9992
2 69403  88.9897 269.9625 0001979 100.1720 259.9654 13.51028687 15253
QIANFAN-186             
1 69404U 26125D   26266.56967860  .00000046  00000+0  52998-4 0  9994
2 69404  88.9881 270.0183 0002054  94.8735 265.2650 13.51028071 15229
QIANFAN-187             
1 69405U 26125E   26266.57788819  .00000030  00000+0  27206-4 0  9998
2 69405  88.9885 269.9994 0002239  98.2751 261.8654 13.51007450 15237
QIANFAN-188             
1 69406U 26125F   26266.51189076  .00000038  00000+0  39630-4 0  9995
2 69406  88.9883 270.0058 0002149 102.0544 258.0848 13.51029548 15228
QIANFAN-189             
1 69407U 26125G   26266.52009368  .00000043  00000+0  48419-4 0  9993
2 69407  88.9865 269.9990 0002234 106.6319 253.5078 13.51019162 15211
QIANFAN-190             
1 69408U 26125H   26266.58180542  .00000040  00000+0  43698-4 0  9995
2 69408  88.9867 269.9906 0001967  96.8552 263.2823 13.51019055 15231
QIANFAN-191             
1 69409U 26125J   26266.53245839  .00000043  00000+0  48424-4 0  9997
2 69409  88.9881 270.0082 0002110 101.9159 258.2229 13.51033110 15229
QIANFAN-192             
1 69410U 26125K   26266.51598431  .00000036  00000+0  36757-4 0  9994
2 69410  88.9887 270.0107 0002255 104.2628 255.8774 13.51019706 15225
QIANFAN-193             
1 69411U 26125L   26266.54078861  .00000030  00000+0  27140-4 0  9998
2 69411  88.9866 269.9836 0002034 103.0112 257.1266 13.51027605 15238
QIANFAN-194             
1 69412U 26125M   26266.53666437  .00000033  00000+0  32870-4 0  9999
2 69412  88.9898 269.9998 0002144 101.2846 258.8546 13.51026245 15226
QIANFAN-195             
1 69413U 26125N   26266.54497765  .00000039  00000+0  41739-4 0  9997
2 69413  88.9900 269.9840 0001927  89.5118 270.6254 13.51011976 15240
QIANFAN-196             
1 69414U 26125P   26266.55302276  .00000038  00000+0  39499-4 0  9990
2 69414  88.9904 269.9873 0001897  94.3470 265.7898 13.51035353 15246
QIANFAN-197             
1 69415U 26125Q   26266.48734000  .00000048  00000+0  55799-4 0  9999
2 69415  88.9879 269.9645 0002093  99.9559 260.1828 13.51023876 15231
QIANFAN-198             
1 69416U 26125R   26266.54899971  .00000036  00000+0  37792-4 0  9996
2 69416  88.9873 269.9706 0002152 101.9778 258.1614 13.51028308 15243
QIANFAN-199             
1 69417U 26125S   26266.55728519  .00000048  00000+0  55511-4 0  9999
2 69417  88.9877 269.9201 0002322  99.1670 260.9744 13.51025894 15271
QIANFAN-200             
1 69418U 26125T   26266.52842652  .00000041  00000+0  45398-4 0  9997
2 69418  88.9883 270.0088 0002177 104.5413 255.5980 13.51026384 15221
QIANFAN-201             
1 69800U 26153A   26266.52203132 -.01815906  00000+0 -14910+1 0  9996
2 69800  88.9971 351.1300 0004546  59.2953 300.8670 13.93680628 11475
QIANFAN-202             
1 69801U 26153B   26266.50896130 -.01782213  00000+0 -12892+1 0  9992
2 69801  88.9973 351.0907 0007287 293.3496  66.6916 14.00814803 11482
QIANFAN-203             
1 69802U 26153C   26266.50163739 -.01857352  00000+0 -12985+1 0  9995
2 69802  88.9972 351.1271 0007801 284.6780  75.3535 14.02243894 11479
QIANFAN-204             
1 69803U 26153D   26266.47177022  .00000038  00000+0  15530-4 0  9993
2 69803  88.9976 351.1237 0005203 328.1724  31.9141 14.03070124 11478
QIANFAN-205             
1 69804U 26153E   26266.50493788 -.01771095  00000+0 -13710+1 0  9993
2 69804  88.9970 351.1457 0006228  77.7589 282.4285 13.96945045 11466
QIANFAN-206             
1 69805U 26153F   26266.50054835 -.01826822  00000+0 -13277+1 0  9997
2 69805  88.9972 351.0896 0006409 306.5414  53.5174 14.00657109 11490
QIANFAN-207             
1 69806U 26153G   26266.50488044 -.01811516  00000+0 -13840+1 0  9991
2 69806  88.9974 351.1274 0006033  33.5843 326.5716 13.97789289 11473
QIANFAN-208             
1 69807U 26153H   26266.56709082  .00000109  00000+0  62795-4 0  9998
2 69807  88.9970 351.1178 0005801  26.3810 333.7664 14.01618672 11496
QIANFAN-209             
1 69808U 26153J   26266.53494063 -.01866861  00000+0 -14446+1 0  9990
2 69808  88.9976 351.1335 0007174 151.1635 208.9940 13.96522302 11470
QIANFAN-210             
1 69809U 26153K   26266.43261165 -.01831543  00000+0 -14221+1 0  9995
2 69809  88.9974 351.1363 0007558  34.3962 325.7703 13.96911338 11466
QIANFAN-211             
1 69810U 26153L   26266.40423367  .00000268  00000+0  13257-3 0  9998
2 69810  88.9979 351.0944 0006345 334.4323  25.6549 14.14542529 11484
QIANFAN-212             
1 69811U 26153M   26265.83689506 -.01854469  00000+0 -12889+1 0  9994
2 69811  88.9969 351.1758 0008741 302.4430  57.5904 14.02563864 11395
QIANFAN-213             
1 69812U 26153N   26266.50714378 -.01808251  00000+0 -13423+1 0  9999
2 69812  88.9973 351.1090 0004663 273.6469  86.4176 13.99422792 11481
QIANFAN-214             
1 69813U 26153P   26266.52779060 -.01799687  00000+0 -12579+1 0  9994
2 69813  88.9972 351.0566 0008826 301.6026  58.4292 14.02782492 11517
QIANFAN-215             
1 69814U 26153Q   26266.53341463  .00000325  00000+0  16023-3 0  9990
2 69814  88.9976 351.0002 0006380 345.7597  14.3409 14.15199636 11542
QIANFAN-216             
1 69815U 26153R   26266.53255381 -.01809147  00000+0 -12301+1 0  9998
2 69815  88.9971 351.0387 0008403 307.5839  52.4579 14.04354145 11522
QIANFAN-217             
1 69816U 26153S   26266.54782947 -.01779051  00000+0 -93606+0 0  9999
2 69816  88.9971 350.9463 0012234 337.1239  22.9404 14.18297552 11573
QIANFAN-218             
1 69817U 26153T   26266.54945596  .00000407  00000+0  17668-3 0  9998
2 69817  88.9979 350.9492 0005452 349.1392  10.9681 14.22322852 11572
QIANFAN-219             
1 69848U 26155A   26266.49375479 -.01864411  00000+0 -32512+1 0  9993
2 69848  89.0087  53.3982 0038890 354.6248   5.4478 13.47584255 11148
QIANFAN-220             
1 69849U 26155B   26266.58858538  .00000033  00000+0  33129-4 0  9994
2 69849  89.0098  53.4183 0034490   3.4375 356.7006 13.50934523 11147
QIANFAN-221             
1 69850U 26155C   26265.88198245 -.01894695  00000+0 -23769+1 0  9993
2 69850  89.0090  53.2408 0030155  18.7061 341.5201 13.68469795 11180
QIANFAN-222             
1 69851U 26155D   26266.53098848 -.01860343  00000+0 -32435+1 0  9998
2 69851  89.0095  53.4425 0030559 357.8226   2.2785 13.47699971 11125
QIANFAN-223             
1 69852U 26155E   26266.48469985  .00000063  00000+0  79960-4 0  9997
2 69852  89.0097  53.4551 0034391   3.0050 357.1301 13.49929640 11117
QIANFAN-224             
1 69853U 26155F   26266.46242359  .00000021  00000+0  13703-4 0  9997
2 69853  89.0082  53.4012 0034794   7.9997 352.1702 13.51642919 11130
QIANFAN-225             
1 69854U 26155G   26266.46461445 -.01784819  00000+0 -31230+1 0  9995
2 69854  89.0086  53.4478 0034807 352.5764   7.4865 13.47232897 11110
QIANFAN-226             
1 69855U 26155H   26265.87753836 -.01797753  00000+0 -30426+1 0  9995
2 69855  89.0085  53.4891 0038182   6.8990 353.2677 13.49352977 11048
QIANFAN-227             
1 69856U 26155J   26266.47258633 -.01726185  00000+0 -30556+1 0  9993
2 69856  89.0086  53.4321 0037737   0.8425 359.2780 13.46306823 11126
QIANFAN-228             
1 69857U 26155K   26266.48548879 -.01862199  00000+0 -30853+1 0  9995
2 69857  89.0091  53.4178 0036532   4.3874 355.7590 13.50893181 11136
QIANFAN-229             
1 69858U 26155L   26266.56342476 -.01780029  00000+0 -31279+1 0  9994
2 69858  89.0095  53.3933 0025377 352.3974   7.6786 13.47058733 11155
QIANFAN-230             
1 69859U 26155M   26266.52811891  .00000026  00000+0  22239-4 0  9992
2 69859  89.0094  53.4388 0021740   3.8385 356.2929 13.51028190 11122
QIANFAN-231             
1 69860U 26155N   26265.85082869 -.01818494  00000+0 -29262+1 0  9992
2 69860  89.0087  53.4528 0035393   7.6588 352.5097 13.52665222 11060
QIANFAN-232             
1 69861U 26155P   26266.47408136  .00000069  00000+0  89015-4 0  9995
2 69861  89.0088  53.3940 0025893   1.7379 358.3857 13.50452296 11146
QIANFAN-233             
1 69862U 26155Q   26266.50318179 -.01790054  00000+0 -30270+1 0  9995
2 69862  89.0089  53.3837 0038413 359.0489   1.0582 13.49386560 11152
QIANFAN-234             
1 69863U 26155R   26266.56578673 -.01858370  00000+0 -29139+1 0  9997
2 69863  89.0083  53.3201 0036716   4.9835 355.1676 13.54385694 11191
QIANFAN-235             
1 69864U 26155S   26266.51747815 -.01871966  00000+0 -19042+1 0  9997
2 69864  89.0094  53.1175 0033239  11.6262 348.5666 13.81032339 11301
QIANFAN-236             
1 69865U 26155T   26266.44787044  .00000039  00000+0  38812-4 0  9990
2 69865  89.0097  53.4137 0034115   2.2475 357.8826 13.55706160 11135
QIANFAN-237             
1 69866U 26155U   26265.85125057 -.01810832  00000+0 -30611+1 0  9993
2 69866  89.0092  53.4362 0038215   2.2343 357.8971 13.49460879 11060
QIANFAN-238             
1 69867U 26155V   26266.52200423 -.01810561  00000+0 -30510+1 0  9997
2 69867  89.0095  53.3873 0027062 355.6076   4.4832 13.49806946 11156
