QIANFAN-1               
1 60379U 24140A   26274.53729443  .00000033  00000+0  31405-4 0  9996
2 60379  88.9665 268.8736 0019685  89.1174 271.2233 13.51026332106887
QIANFAN-2               
1 60380U 24140B   26274.56615730  .00000026  00000+0  20683-4 0  9992
2 60380  88.9652 268.6704 0014714  65.4686 294.7998 13.51020675106940
QIANFAN-3               
1 60381U 24140C   26274.57452903  .00000031  00000+0  29574-4 0  9999
2 60381  88.9644 268.7798 0016025  75.9710 284.3221 13.51023454106859
QIANFAN-4               
1 60382U 24140D   26274.54972916  .00000002  00000+0 -16526-4 0  9990
2 60382  88.9669 268.7538 0015000  67.5701 292.7037 13.51021150106970
QIANFAN-5               
1 60383U 24140E   26274.59891917  .00000014  00000+0  26224-5 0  9996
2 60383  88.9644 268.8015 0017331  85.6599 274.6533 13.51031725106845
QIANFAN-6               
1 60384U 24140F   26274.54557850  .00000007  00000+0 -84107-5 0  9994
2 60384  88.9671 268.6330 0015192  72.6408 287.6403 13.51024352107032
QIANFAN-7               
1 60385U 24140G   26274.54915515  .00000147  00000+0  53252-4 0  9991
2 60385  88.9730 259.2490 0016036 148.3569 211.8593 14.27896620112178
QIANFAN-8               
1 60386U 24140H   26274.55392029  .00000007  00000+0 -82560-5 0  9993
2 60386  88.9672 268.8730 0018670  74.0748 286.2459 13.51026309106880
QIANFAN-9               
1 60387U 24140J   26274.60325212  .00000019  00000+0  10602-4 0  9999
2 60387  88.9669 268.9373 0018364  73.7667 286.5503 13.51022091106873
QIANFAN-10              
1 60388U 24140K   26274.60734773  .00000015  00000+0  42698-5 0  9993
2 60388  88.9682 268.3153 0016437  53.9385 306.3286 13.51022211107004
QIANFAN-11              
1 60389U 24140L   26274.57043692  .00000019  00000+0  10992-4 0  9998
2 60389  88.9606 268.6855 0016386  73.9044 286.3910 13.51026394106657
QIANFAN-12              
1 60390U 24140M   26274.59095250  .00000011  00000+0 -20806-5 0  9998
2 60390  88.9649 268.8541 0015290  81.0802 279.2079 13.51024001106789
QIANFAN-13              
1 60391U 24140N   26274.56210971  .00000019  00000+0  10690-4 0  9991
2 60391  88.9908 269.1306 0015128  83.1931 277.0941 13.51024135106802
QIANFAN-14              
1 60392U 24140P   26274.58689295  .00000005  00000+0 -11734-4 0  9999
2 60392  88.9640 268.8256 0018807  83.1697 277.1593 13.51026078106815
QIANFAN-15              
1 60393U 24140Q   26274.59496057  .00000022  00000+0  15325-4 0  9991
2 60393  88.9663 268.8509 0014478  71.6043 288.6681 13.51028730106800
QIANFAN-16              
1 60394U 24140R   26274.58262319  .00000009  00000+0 -54058-5 0  9996
2 60394  88.9666 268.9804 0016755  86.6139 273.6928 13.51025440106718
QIANFAN-17              
1 60395U 24140S   26274.57867558  .00000026  00000+0  21782-4 0  9997
2 60395  88.9676 269.0587 0017128  81.0478 279.2612 13.51025849107671
QIANFAN-18              
1 60396U 24140T   26274.55809245  .00000011  00000+0 -22397-5 0  9994
2 60396  88.9671 268.5758 0016261  66.0887 294.1965 13.51026256107068
QIANFAN-19              
1 61552U 24185A   26274.60768049  .00000251  00000+0  12344-3 0  9994
2 61552  88.9877  44.3953 0008926  87.3620 272.8589 14.14537962111069
QIANFAN-20              
1 61553U 24185B   26274.56589554  .00000354  00000+0  19585-3 0  9990
2 61553  88.9871  45.0124 0007393 121.6033 238.5873 14.09082239110722
QIANFAN-21              
1 61554U 24185C   26274.59986453  .00000398  00000+0  17036-3 0  9990
2 61554  88.9796  42.6941 0012510 124.0255 236.2127 14.22942566111618
QIANFAN-22              
1 61555U 24185D   26274.60428661  .00000211  00000+0  17073-3 0  9990
2 61555  88.9850  47.1690 0007058 163.3252 196.8153 13.86433576109516
QIANFAN-23              
1 61556U 24185E   26274.59081527  .00000245  00000+0  11578-3 0  9996
2 61556  88.9869  44.0706 0009562  93.7678 266.4604 14.16558531111208
QIANFAN-24              
1 61557U 24185F   26274.56436931  .00000373  00000+0  15543-3 0  9995
2 61557  88.9855  43.0022 0011465  69.6994 290.5430 14.24166710111693
QIANFAN-25              
1 61558U 24185G   26274.57264510  .00000341  00000+0  19913-3 0  9999
2 61558  88.9865  45.0632 0013997 139.0138 221.2099 14.06139909110655
QIANFAN-26              
1 61559U 24185H   26274.54857492  .00000174  00000+0  16045-3 0  9991
2 61559  88.9855  48.1543 0005475 186.7051 173.4043 13.77948598108995
QIANFAN-27              
1 61560U 24185J   26274.61665616  .00000236  00000+0  89998-4 0  9993
2 61560  88.9866  42.6276 0008906  59.0901 301.1168 14.27612372111940
QIANFAN-28              
1 61561U 24185K   26274.57260884  .00000464  00000+0  17924-3 0  9999
2 61561  88.9884  42.6482 0008745  57.1589 303.0447 14.28500250111978
QIANFAN-29              
1 61562U 24185L   26274.57208301  .00000144  00000+0  20487-3 0  9999
2 61562  88.9823  51.0469 0008052 285.7287  74.2976 13.51098124107332
QIANFAN-30              
1 61563U 24185M   26274.54618584  .00000104  00000+0  14436-3 0  9998
2 61563  88.9844  50.6874 0005806 267.8817  92.1669 13.50078774107577
QIANFAN-31              
1 61564U 24185N   26274.56260233  .00000139  00000+0  17526-3 0  9996
2 61564  88.9829  50.0232 0005433 246.0858 113.9728 13.58068698107900
QIANFAN-32              
1 61565U 24185P   26274.57676731  .00000129  00000+0  18217-3 0  9999
2 61565  88.9883  50.9035 0007968 307.3415  52.7010 13.50808714107576
QIANFAN-33              
1 61566U 24185Q   26274.56804236  .00000279  00000+0  19152-3 0  9997
2 61566  88.9853  46.1723 0009431 124.7769 235.4297 13.96759915110035
QIANFAN-34              
1 61567U 24185R   26274.61558951  .00000354  00000+0  22129-3 0  9996
2 61567  88.9832  45.3441 0007496 123.5195 236.6703 14.02530150110402
QIANFAN-35              
1 61568U 24185S   26274.56085868  .00000417  00000+0  16095-3 0  9998
2 61568  88.9865  42.5246 0007842  56.5349 303.6595 14.28368979111975
QIANFAN-36              
1 61569U 24185T   26274.54908598  .00000136  00000+0  17890-3 0  9993
2 61569  88.9819  50.5361 0004532 269.2390  90.8245 13.55649337107593
QIANFAN-37              
1 62238U 24232B   26274.61488465  .00000118  00000+0  16386-3 0  9993
2 62238  89.0165  11.9342 0001607  91.2794 268.8541 13.51032898138712
QIANFAN-38              
1 62239U 24232C   26274.56561180  .00000128  00000+0  17978-3 0  9993
2 62239  89.0172  11.8747 0016175  73.6756 286.6173 13.51031056138766
QIANFAN-39              
1 62240U 24232D   26274.49313792  .00000310  00000+0  12479-3 0  9995
2 62240  89.0144   4.0032 0015914 191.4016 168.6819 14.25569049143094
QIANFAN-40              
1 62241U 24232E   26274.59853197  .00000133  00000+0  18647-3 0  9991
2 62241  89.0199  11.5374 0015415  81.0574 279.2322 13.51031425139134
QIANFAN-41              
1 62242U 24232F   26274.60672059  .00000128  00000+0  17974-3 0  9996
2 62242  89.0170  11.8166 0015498  70.2003 290.0817 13.51032517138798
QIANFAN-42              
1 62243U 24232G   26274.60765649  .00000305  00000+0  12513-3 0  9996
2 62243  89.0143   4.0808 0014487 197.6705 162.3986 14.24655890143066
QIANFAN-43              
1 62244U 24232H   26274.60261867  .00000132  00000+0  18472-3 0  9998
2 62244  89.0174  11.8953 0017147  74.4965 285.8078 13.51031927107403
QIANFAN-44              
1 62245U 24232J   26274.59029627  .00000119  00000+0  16507-3 0  9995
2 62245  89.0172  11.7025 0015316  72.3504 287.9318 13.51032117138870
QIANFAN-45              
1 62246U 24232K   26274.55740835  .00000117  00000+0  16232-3 0  9996
2 62246  89.0176  11.8627 0015968  71.8969 288.3920 13.51030781138796
QIANFAN-46              
1 62247U 24232L   26274.58202349  .00000114  00000+0  15693-3 0  9990
2 62247  89.0172  11.9173 0016131  76.7766 283.5183 13.51031949138753
QIANFAN-47              
1 62248U 24232M   26274.58618840  .00000118  00000+0  16309-3 0  9997
2 62248  89.0168  11.8381 0016536  75.8881 284.4106 13.51031232138789
QIANFAN-48              
1 62249U 24232N   26274.54930148  .00000120  00000+0  16694-3 0  9992
2 62249  89.0172  11.8550 0018826  77.8940 282.4319 13.51025593138782
QIANFAN-49              
1 62250U 24232P   26274.61086240  .00000122  00000+0  16946-3 0  9999
2 62250  89.0171  11.8590 0015813  73.5268 286.7619 13.51032727107385
QIANFAN-50              
1 62251U 24232Q   26274.56145607  .00000132  00000+0  18471-3 0  9993
2 62251  89.0177  11.8880 0017490  74.4452 285.8629 13.51032223107407
QIANFAN-51              
1 62252U 24232R   26274.61910812  .00000117  00000+0  16185-3 0  9991
2 62252  89.0171  11.8582 0015041  78.3485 281.9353 13.51031167107407
QIANFAN-52              
1 62253U 24232S   26274.57380362  .00000123  00000+0  17172-3 0  9992
2 62253  89.0167  11.7248 0016919  70.8066 289.4915 13.51033211107485
QIANFAN-53              
1 62254U 24232T   26274.33114862  .00000109  00000+0  14954-3 0  9996
2 62254  89.0174  11.8757 0015834  72.7429 287.5453 13.51029777107410
QIANFAN-54              
1 62255U 24232U   26274.59440191  .00000122  00000+0  17019-3 0  9992
2 62255  89.0165  11.5021 0004143 108.5532 251.6070 13.51031725138952
QIANFAN-55              
1 62785U 25016A   26274.54649849  .00000039  00000+0  41235-4 0  9992
2 62785  88.9684  72.8054 0016307 217.3966 142.6051 13.51025434 86720
QIANFAN-56              
1 62786U 25016B   26274.56275747  .00000030  00000+0  28016-4 0  9990
2 62786  88.9659  72.5622 0014839 219.7276 140.2789 13.51028739 86777
QIANFAN-57              
1 62787U 25016C   26274.59583216  .00000034  00000+0  33209-4 0  9991
2 62787  88.9689  72.8034 0002111  76.5693 283.5693 13.51028454 86749
QIANFAN-58              
1 62788U 25016D   26274.34487371  .00000025  00000+0  19484-4 0  9999
2 62788  88.9660  72.5723 0012933 211.4443 148.5936 13.51027907 86750
QIANFAN-59              
1 62789U 25016E   26274.59159796  .00000037  00000+0  38229-4 0  9995
2 62789  88.9683  72.6891 0013219 214.8910 145.1376 13.51025283 86786
QIANFAN-60              
1 62790U 25016F   26274.55042771  .00000041  00000+0  45313-4 0  9994
2 62790  88.9664  72.6092 0014851 211.8562 148.1692 13.51028831 86767
QIANFAN-61              
1 62791U 25016G   26274.58339296  .00000045  00000+0  50747-4 0  9990
2 62791  88.9730  72.9666 0013837 210.8488 149.1852 13.51028292 86783
QIANFAN-62              
1 62792U 25016H   26274.58763170  .00000040  00000+0  43882-4 0  9990
2 62792  88.9678  72.6775 0015161 211.5766 148.4477 13.51027673 86778
QIANFAN-63              
1 62793U 25016J   26274.61228339  .00000034  00000+0  34599-4 0  9996
2 62793  88.9684  72.6463 0015094 217.2422 142.7684 13.51023564 86814
QIANFAN-64              
1 62794U 25016K   26274.57930348  .00000048  00000+0  56408-4 0  9990
2 62794  88.9672  72.5846 0013213 209.0008 151.0411 13.51028272 86807
QIANFAN-65              
1 62795U 25016L   26274.57512008  .00000034  00000+0  34685-4 0  9998
2 62795  88.9668  72.6006 0013025 210.7272 149.3118 13.51024332 86789
QIANFAN-66              
1 62796U 25016M   26274.60397467  .00000026  00000+0  21971-4 0  9998
2 62796  88.9687  72.6252 0014232 206.5256 153.5168 13.51020443 86837
QIANFAN-67              
1 62797U 25016N   26274.60804995  .00000032  00000+0  30974-4 0  9998
2 62797  88.9677  72.6216 0014023 213.8255 146.2003 13.51020656 86805
QIANFAN-68              
1 62798U 25016P   26274.59991500  .00000027  00000+0  22919-4 0  9990
2 62798  88.9681  72.6780 0014149 211.5978 148.4325 13.51022635 86780
QIANFAN-69              
1 62799U 25016Q   26274.61626009  .00000037  00000+0  38613-4 0  9992
2 62799  88.9660  72.4836 0014848 213.2893 146.7326 13.51021417 86823
QIANFAN-70              
1 62800U 25016R   26274.55878631  .00000048  00000+0  55669-4 0  9990
2 62800  88.9680  72.6889 0014699 203.2075 156.8414 13.51024839 86778
QIANFAN-71              
1 62801U 25016S   26274.55459235  .00000033  00000+0  32836-4 0  9991
2 62801  88.9674  72.6512 0014662 217.2605 142.7530 13.51027540 86774
QIANFAN-72              
1 62802U 25016T   26274.57114456  .00000037  00000+0  38937-4 0  9999
2 62802  88.9665  72.6343 0017752 225.8185 134.1508 13.51029353 86761
QIANFAN-73              
1 63159U 25046A   26274.59809399  .00000013  00000+0  21451-5 0  9995
2 63159  88.9628 289.6037 0014911   5.2840 354.8465 13.51025928 86956
QIANFAN-74              
1 63160U 25046B   26274.58175424  .00000001  00000+0 -17629-4 0  9990
2 63160  88.9629 289.4954 0001863  99.1770 260.9592 13.51018605 87011
QIANFAN-75              
1 63161U 25046C   26274.56930441  .00000078  00000+0  10168-3 0  9990
2 63161  88.9630 289.7344 0016155   8.3466 351.7950 13.51032884 86880
QIANFAN-76              
1 63162U 25046D   26274.56536790 -.00000097  00000+0 -16918-3 0  9992
2 63162  88.9630 289.7147 0013678   9.9200 350.2219 13.51018141 86895
QIANFAN-77              
1 63163U 25046E   26274.59304581  .00000093  00000+0  58141-4 0  9996
2 63163  88.9638 285.3037 0012815 242.2683 117.7195 13.96249037 89311
QIANFAN-78              
1 63164U 25046F   26274.53297816  .00000047  00000+0  54130-4 0  9996
2 63164  88.9629 289.5797 0015124  11.3200 348.8288 13.51013646 86961
QIANFAN-79              
1 63165U 25046G   26274.56111306  .00000014  00000+0  23411-5 0  9992
2 63165  88.9633 289.6943 0014805  10.0408 350.1036 13.51021400 86911
QIANFAN-80              
1 63166U 25046H   26274.57750441  .00000053  00000+0  63768-4 0  9994
2 63166  88.9630 289.3914 0013839  15.2871 344.8696 13.51019145 87074
QIANFAN-81              
1 63167U 25046J   26274.55696131  .00000101  00000+0  13714-3 0  9997
2 63167  88.9630 289.4608 0014692   4.0542 356.0726 13.51022927 87021
QIANFAN-82              
1 63168U 25046K   26274.58996512  .00000067  00000+0  85094-4 0  9999
2 63168  88.9630 289.5017 0012830  11.9222 348.2230 13.51022215 87013
QIANFAN-83              
1 63169U 25046L   26274.59938602  .00000038  00000+0  33806-4 0  9999
2 63169  88.9632 288.6996 0013024 339.1931  20.8694 13.62065794 87467
QIANFAN-84              
1 63170U 25046M   26274.61881020 -.00000060  00000+0 -11215-3 0  9991
2 63170  88.9630 289.6314 0015683   6.5622 353.5731 13.51015409 86943
QIANFAN-85              
1 63171U 25046N   26274.54053630  .00000063  00000+0  78927-4 0  9997
2 63171  88.9629 289.5090 0013337  10.5012 349.6415 13.51022553 87005
QIANFAN-86              
1 63172U 25046P   26274.62277607  .00000105  00000+0  14402-3 0  9993
2 63172  88.9631 289.3694 0011364  16.1904 343.9608 13.51020668 87092
QIANFAN-87              
1 63173U 25046Q   26274.59398281  .00000006  00000+0 -97756-5 0  9998
2 63173  88.9628 289.4731 0011717  10.0912 350.0472 13.51020498 87028
QIANFAN-88              
1 63174U 25046R   26274.53639932  .00000061  00000+0  75610-4 0  9998
2 63174  88.9630 289.4410 0012455  19.1826 340.9792 13.51021123 87041
QIANFAN-89              
1 63175U 25046S   26274.57342297  .00000059  00000+0  72816-4 0  9990
2 63175  88.9630 289.6259 0016589   6.7153 353.4217 13.51021824 86949
QIANFAN-90              
1 63176U 25046T   26274.60230376  .00000003  00000+0 -13558-4 0  9997
2 63176  88.9630 289.5963 0013486   6.8018 353.3314 13.51020157 86962
QIANFAN-91              
1 66033U 25233A   26274.33838954  .00000085  00000+0  11278-3 0  9991
2 66033  89.0072  32.4659 0001642 100.0205 260.1131 13.51031141 47517
QIANFAN-92              
1 66034U 25233B   26274.34704913  .00000085  00000+0  11314-3 0  9991
2 66034  89.0056  32.4195 0002208 100.0793 260.0607 13.51028490 47516
QIANFAN-93              
1 66035U 25233C   26274.35508613  .00000093  00000+0  12486-3 0  9992
2 66035  89.0083  32.4991 0001672  98.4761 261.6580 13.51040295 47514
QIANFAN-94              
1 66036U 25233D   26274.34257733  .00000080  00000+0  10589-3 0  9994
2 66036  89.0079  32.4001 0001765 105.0103 255.1244 13.51029505 47561
QIANFAN-95              
1 66037U 25233E   26274.35082515  .00000089  00000+0  11982-3 0  9997
2 66037  89.0077  31.9405 0001583 104.7094 255.4233 13.51029383 47818
QIANFAN-96              
1 66038U 25233F   26274.37543835  .00000083  00000+0  11048-3 0  9994
2 66038  89.0074  32.4784 0001581  99.0146 261.1184 13.51030612 47517
QIANFAN-97              
1 66039U 25233G   26274.35889966  .00000095  00000+0  12870-3 0  9998
2 66039  89.0077  32.4676 0001708  99.1499 260.9846 13.51040530 47516
QIANFAN-98              
1 66040U 25233H   26274.36724278  .00000092  00000+0  12443-3 0  9998
2 66040  89.0066  32.1863 0001894 117.1855 242.9489 13.51030827 47661
QIANFAN-99              
1 66041U 25233J   26274.37122145  .00000092  00000+0  12328-3 0  9997
2 66041  89.0078  32.4711 0001683 115.8601 244.2724 13.51037466 47528
QIANFAN-100             
1 66042U 25233K   26274.36301566  .00000095  00000+0  12825-3 0  9998
2 66042  89.0089  32.4108 0001541  97.5383 262.5943 13.51056380 47574
QIANFAN-101             
1 66043U 25233L   26274.33060825  .00000196  00000+0  74665-4 0  9999
2 66043  89.0078  28.3984 0016380 149.2880 210.9276 14.26866226 49763
QIANFAN-102             
1 66044U 25233M   26274.38369218  .00000080  00000+0  10571-3 0  9990
2 66044  89.0076  32.3771 0001751 106.4550 253.6794 13.51030156 47574
QIANFAN-103             
1 66045U 25233N   26274.38784312  .00000083  00000+0  10933-3 0  9992
2 66045  89.0078  32.4747 0001691  99.4445 260.6898 13.51030190 47524
QIANFAN-104             
1 66046U 25233P   26274.39188630  .00000090  00000+0  12007-3 0  9997
2 66046  89.0084  32.3814 0001850 106.1603 253.9752 13.51028139 47574
QIANFAN-105             
1 66047U 25233Q   26274.32615182  .00000091  00000+0  12264-3 0  9994
2 66047  89.0096  32.2452 0001793 102.8353 257.2999 13.51031415 47678
QIANFAN-106             
1 66048U 25233R   26274.32191714  .00000089  00000+0  11972-3 0  9997
2 66048  89.0065  32.4251 0001848 115.0348 245.0995 13.51031722 47510
QIANFAN-107             
1 66049U 25233S   26274.33016769  .00000093  00000+0  12491-3 0  9997
2 66049  89.0081  32.4736 0001717 100.3425 259.7920 13.51031056 47526
QIANFAN-108             
1 66050U 25233T   26274.33434246  .00000087  00000+0  11586-3 0  9990
2 66050  89.0074  32.4534 0001868 113.4963 246.6384 13.51030779 47525
QIANFAN-109             
1 68636U 26075A   26274.57046823  .00000036  00000+0  37644-4 0  9991
2 68636  88.9843 310.1515 0001714  84.8389 275.2958 13.51021790 24159
QIANFAN-110             
1 68637U 26075B   26274.57863133  .00000034  00000+0  33230-4 0  9998
2 68637  88.9843 310.1723 0002144  94.4269 265.7127 13.51022665 24157
QIANFAN-111             
1 68638U 26075C   26274.56653254  .00000026  00000+0  21462-4 0  9994
2 68638  88.9842 310.1323 0002117  94.3963 265.7430 13.51025191 24179
QIANFAN-112             
1 68639U 26075D   26274.52940535  .00000029  00000+0  25669-4 0  9998
2 68639  88.9841 310.1438 0001923  81.6546 278.4824 13.51024491 24165
QIANFAN-113             
1 68640U 26075E   26274.57454654  .00000046  00000+0  53351-4 0  9995
2 68640  88.9846 310.1388 0002126  91.0956 269.0439 13.51021296 24171
QIANFAN-114             
1 68641U 26075F   26274.58275272  .00000025  00000+0  20644-4 0  9990
2 68641  88.9841 310.1520 0002110  94.0219 266.1174 13.51019773 24163
QIANFAN-115             
1 68642U 26075G   26274.53755963  .00000040  00000+0  43361-4 0  9994
2 68642  88.9842 310.1639 0001945  94.0632 266.0742 13.51025470 24150
QIANFAN-116             
1 68643U 26075H   26274.59924570  .00000020  00000+0  11829-4 0  9995
2 68643  88.9834 310.1101 0002037  84.1920 275.9463 13.51025948 24170
QIANFAN-117             
1 68644U 26075J   26274.58701520  .00000031  00000+0  28610-4 0  9991
2 68644  88.9839 310.1321 0001919  89.1225 271.0146 13.51023850 24176
QIANFAN-118             
1 68645U 26075K   26274.54577672  .00000036  00000+0  37674-4 0  9992
2 68645  88.9844 310.1494 0002241  94.8719 265.2688 13.51025562 24161
QIANFAN-119             
1 68646U 26075L   26274.59510691  .00000032  00000+0  31391-4 0  9992
2 68646  88.9844 310.1401 0001724  89.6039 270.5310 13.51021435 24179
QIANFAN-120             
1 68647U 26075M   26274.53343187  .00000042  00000+0  46070-4 0  9992
2 68647  88.9846 310.1331 0001658  90.5689 269.5653 13.51021226 24178
QIANFAN-121             
1 68648U 26075N   26274.55821189  .00000020  00000+0  12373-4 0  9993
2 68648  88.9843 310.1331 0002158  95.3986 264.7412 13.51024652 24171
QIANFAN-122             
1 68649U 26075P   26274.54989765  .00000028  00000+0  24551-4 0  9997
2 68649  88.9842 310.1308 0001865  87.2272 272.9093 13.51028285 24168
QIANFAN-123             
1 68650U 26075Q   26274.59100290  .00000019  00000+0  11281-4 0  9998
2 68650  88.9839 310.1132 0001706  81.9082 278.2263 13.51021121 24154
QIANFAN-124             
1 68651U 26075R   26274.54169768  .00000036  00000+0  36886-4 0  9996
2 68651  88.9842 310.1301 0001843  85.6282 274.5080 13.51027727 24178
QIANFAN-125             
1 68652U 26075S   26274.55409658  .00000023  00000+0  16731-4 0  9996
2 68652  88.9841 310.1307 0002172  94.6203 265.5197 13.51024821 24174
QIANFAN-126             
1 68653U 26075T   26274.56218128  .00000032  00000+0  30583-4 0  9999
2 68653  88.9845 310.0998 0001702  83.0089 277.1255 13.51020468 24195
QIANFAN-127             
1 69073U 26104A   26274.56756503  .00000062  00000+0  76867-4 0  9991
2 69073  88.9904 330.6258 0002474  96.2516 263.8917 13.51029581 19526
QIANFAN-128             
1 69074U 26104B   26274.57571096  .00000050  00000+0  58874-4 0  9990
2 69074  88.9882 330.6463 0002428 108.0143 252.1273 13.51025032 19508
QIANFAN-129             
1 69075U 26104C   26274.60032968  .00000067  00000+0  84343-4 0  9993
2 69075  88.9884 330.5784 0002398 103.3517 256.7901 13.51025123 19548
QIANFAN-130             
1 69076U 26104D   26274.56329783  .00000070  00000+0  90485-4 0  9991
2 69076  88.9887 330.6482 0002337  91.4203 268.7216 13.51023196 19506
QIANFAN-131             
1 69077U 26104E   26274.58401288  .00000060  00000+0  74165-4 0  9991
2 69077  88.9880 330.6059 0002157 105.8705 254.2684 13.51027251 19524
QIANFAN-132             
1 69078U 26104F   26274.57154455  .00000058  00000+0  71580-4 0  9997
2 69078  88.9882 330.6640 0002286  95.3381 264.8031 13.51023493 19492
QIANFAN-133             
1 69079U 26104G   26274.57980842  .00000057  00000+0  69613-4 0  9998
2 69079  88.9885 330.6138 0002262 110.8673 249.2720 13.51022095 19511
QIANFAN-134             
1 69080U 26104H   26274.60859661  .00000061  00000+0  75774-4 0  9998
2 69080  88.9890 330.6377 0002371 108.0297 252.1113 13.51030659 19510
QIANFAN-135             
1 69081U 26104J   26274.58799984  .00000067  00000+0  85099-4 0  9994
2 69081  88.9883 330.6298 0002588 105.4017 254.7420 13.51023761 19511
QIANFAN-136             
1 69082U 26104K   26274.59619779  .00000075  00000+0  97671-4 0  9997
2 69082  88.9885 330.6322 0002278 109.4290 250.7107 13.51020539 19513
QIANFAN-137             
1 69083U 26104L   26274.59218918  .00000064  00000+0  80423-4 0  9993
2 69083  88.9894 330.5104 0002186  97.4555 262.6845 13.51023386 19580
QIANFAN-138             
1 69084U 26104M   26274.61680105  .00000056  00000+0  68442-4 0  9996
2 69084  88.9879 330.6292 0002537  99.5315 260.6123 13.51023223 19510
QIANFAN-139             
1 69085U 26104N   26274.60455971  .00000061  00000+0  76433-4 0  9992
2 69085  88.9881 330.6125 0002391  95.0200 265.1224 13.51031940 19529
QIANFAN-140             
1 69086U 26104P   26274.61269132  .00000056  00000+0  67751-4 0  9993
2 69086  88.9882 330.6153 0002630 103.4994 256.6451 13.51024383 19522
QIANFAN-141             
1 69087U 26104Q   26274.62100770  .00000057  00000+0  70267-4 0  9994
2 69087  88.9878 330.5783 0002485 106.6828 253.4596 13.51022121 19540
QIANFAN-142             
1 69088U 26104R   26274.62915222  .00000068  00000+0  86965-4 0  9995
2 69088  88.9877 330.5766 0002519 100.5855 259.5580 13.51021309 19549
QIANFAN-143             
1 69089U 26104S   26274.62508636  .00000060  00000+0  74244-4 0  9992
2 69089  88.9888 330.5850 0002095 106.1326 254.0056 13.51028758 19543
QIANFAN-144             
1 69090U 26104T   26274.55919837  .00000071  00000+0  90890-4 0  9992
2 69090  88.9886 330.6096 0002494  97.0286 263.1149 13.51022153 19527
QIANFAN-145             
1 69104U 26108A   26274.56347375  .00000134  00000+0  18825-3 0  9992
2 69104  89.0202  11.4381 0001704 112.2150 247.9183 13.51024058 18805
QIANFAN-146             
1 69105U 26108B   26274.59639544  .00000138  00000+0  19538-3 0  9994
2 69105  89.0203  11.2721 0001894 102.2041 257.9323 13.51022029 18905
QIANFAN-147             
1 69106U 26108C   26274.57187425  .00000123  00000+0  17210-3 0  9998
2 69106  89.0204  11.4419 0002074 102.8441 257.2942 13.51027519 18790
QIANFAN-148             
1 69107U 26108D   26274.55946782  .00000136  00000+0  19224-3 0  9997
2 69107  89.0197  11.4324 0002136 109.1555 250.9828 13.51027121 18794
QIANFAN-149             
1 69108U 26108E   26274.56763560  .00000133  00000+0  18788-3 0  9991
2 69108  89.0197  11.4528 0002366 104.2993 255.8422 13.51026579 18798
QIANFAN-150             
1 69109U 26108F   26274.57583033  .00000121  00000+0  16959-3 0  9993
2 69109  89.0202  11.4058 0002362 103.0832 257.0583 13.51026964 18812
QIANFAN-151             
1 69110U 26108G   26274.60477750  .00000133  00000+0  18681-3 0  9994
2 69110  89.0202  11.4265 0001859 107.5156 252.6199 13.51030234 18800
QIANFAN-152             
1 69111U 26108H   26274.58406423  .00000124  00000+0  17412-3 0  9992
2 69111  89.0198  11.4200 0002064  95.5659 264.5728 13.51022912 18812
QIANFAN-153             
1 69112U 26108J   26274.57994956  .00000123  00000+0  17240-3 0  9993
2 69112  89.0194  11.3963 0002206 100.9261 259.2139 13.51024158 18813
QIANFAN-154             
1 69113U 26108K   26274.58827735  .00000129  00000+0  18111-3 0  9999
2 69113  89.0205  11.4456 0002181 103.9479 256.1914 13.51029358 18804
QIANFAN-155             
1 69114U 26108L   26274.59230517  .00000129  00000+0  18072-3 0  9993
2 69114  89.0202  11.4094 0002279 101.6693 258.4714 13.51026130 18810
QIANFAN-156             
1 69115U 26108M   26274.61286973  .00000129  00000+0  18116-3 0  9993
2 69115  89.0217  11.4104 0002024 109.3023 250.8347 13.51021900 18839
QIANFAN-157             
1 69116U 26108N   26274.60063553  .00000138  00000+0  19491-3 0  9997
2 69116  89.0198  11.3327 0002241 108.9478 251.1916 13.51030956 18864
QIANFAN-158             
1 69117U 26108P   26274.61694977  .00000124  00000+0  17344-3 0  9999
2 69117  89.0200  11.3726 0001955 108.7414 251.3949 13.51024192 18842
QIANFAN-159             
1 69118U 26108Q   26274.60876345  .00000131  00000+0  18492-3 0  9993
2 69118  89.0191  11.3787 0001926 106.5749 253.5614 13.51026267 18831
QIANFAN-160             
1 69119U 26108R   26274.55129384  .00000102  00000+0  13879-3 0  9994
2 69119  89.0206  11.4236 0002384 100.4121 259.7299 13.51026242 18813
QIANFAN-161             
1 69120U 26108S   26274.55526341  .00000131  00000+0  18453-3 0  9995
2 69120  89.0214  11.3408 0001920 108.0993 252.0367 13.51024643 18860
QIANFAN-162             
1 69121U 26108T   26274.54705296  .00000121  00000+0  16903-3 0  9990
2 69121  89.0203  11.3657 0002033  98.2345 261.9037 13.51025491 18834
QIANFAN-163             
1 69325U 26121A   26274.28952454  .00000010  00000+0 -23436-5 0  9991
2 69325  89.0085 289.9458 0002770 109.9554 250.1896 13.51022063 16495
QIANFAN-164             
1 69326U 26121B   26274.33067856  .00000030  00000+0  28648-4 0  9991
2 69326  89.0084 289.9320 0002348 106.6322 253.5087 13.51022277 16509
QIANFAN-165             
1 69382U 26124A   26274.56254117  .00000101  00000+0  13730-3 0  9993
2 69382  89.0063 350.9124 0002277 118.6011 241.5370 13.51024494 16402
QIANFAN-166             
1 69383U 26124B   26274.56668312  .00000107  00000+0  14659-3 0  9997
2 69383  89.0082 350.9249 0001881 107.9744 252.1613 13.51025168 16403
QIANFAN-167             
1 69384U 26124C   26274.57060050  .00000105  00000+0  14475-3 0  9998
2 69384  89.0055 350.9270 0002258 104.0053 256.1350 13.51034064 16393
QIANFAN-168             
1 69385U 26124D   26274.57475883  .00000113  00000+0  15599-3 0  9990
2 69385  89.0052 350.9062 0001812 114.4336 245.7004 13.51022657 16401
QIANFAN-169             
1 69386U 26124E   26274.57898852  .00000112  00000+0  15496-3 0  9991
2 69386  89.0051 350.9054 0001820 104.5079 255.6274 13.51025895 16401
QIANFAN-170             
1 69387U 26124F   26274.58303363  .00000113  00000+0  15675-3 0  9991
2 69387  89.0068 350.8793 0001744 104.1761 255.9584 13.51028366 16423
QIANFAN-171             
1 69388U 26124G   26274.59130948  .00000099  00000+0  13521-3 0  9991
2 69388  89.0083 350.8927 0002117 102.4314 257.7075 13.51031344 16425
QIANFAN-172             
1 69389U 26124H   26274.58710834  .00000103  00000+0  14131-3 0  9993
2 69389  89.0066 350.8809 0002140 117.1980 242.9389 13.51031907 16423
QIANFAN-173             
1 69390U 26124J   26274.59528833  .00000104  00000+0  14229-3 0  9991
2 69390  89.0055 350.8753 0001717 111.3047 248.8288 13.51024927 16427
QIANFAN-174             
1 69391U 26124K   26274.60761472  .00000113  00000+0  15666-3 0  9998
2 69391  89.0035 350.8292 0002315 105.5074 254.6333 13.51032876 16433
QIANFAN-175             
1 69392U 26124L   26274.61192140  .00000103  00000+0  14137-3 0  9991
2 69392  89.0087 350.8799 0001840 106.9429 253.1924 13.51029788 16432
QIANFAN-176             
1 69393U 26124M   26274.61603114  .00000102  00000+0  13916-3 0  9993
2 69393  89.0049 350.8549 0001854 106.7818 253.3537 13.51023504 16420
QIANFAN-177             
1 69394U 26124N   26274.62416466  .00000101  00000+0  13854-3 0  9997
2 69394  89.0059 350.8438 0002236 107.0344 253.1052 13.51032621 16444
QIANFAN-178             
1 69395U 26124P   26274.62002566  .00000107  00000+0  14736-3 0  9996
2 69395  89.0004 350.7937 0001856 105.8826 254.2530 13.51028528 16451
QIANFAN-179             
1 69396U 26124Q   26274.62828933  .00000095  00000+0  12792-3 0  9997
2 69396  89.0036 350.8147 0001828 105.8637 254.2716 13.51032168 16451
QIANFAN-180             
1 69397U 26124R   26274.55841900  .00000090  00000+0  12095-3 0  9990
2 69397  89.0043 350.8434 0001724 102.6921 257.4423 13.51024327 16431
QIANFAN-181             
1 69398U 26124S   26274.59953487  .00000085  00000+0  11355-3 0  9991
2 69398  89.0065 350.9354 0002187 103.8871 256.2523 13.51026247 16395
QIANFAN-182             
1 69399U 26124T   26274.60354250  .00000110  00000+0  15202-3 0  9991
2 69399  89.0040 350.9024 0001890 108.1613 251.9744 13.51030857 16394
QIANFAN-183             
1 69401U 26125A   26273.97011559 -.01792281  00000+0 -31747+1 0  9996
2 69401  88.9829 269.2283 0006264 222.1263 137.9405 13.46692586 16224
QIANFAN-184             
1 69402U 26125B   26274.57235457  .00000035  00000+0  36226-4 0  9996
2 69402  88.9883 269.1999 0002149  96.0946 264.0451 13.51029248 16309
QIANFAN-185             
1 69403U 26125C   26274.59711152  .00000007  00000+0 -78129-5 0  9999
2 69403  88.9898 269.1390 0002124  98.6900 261.4492 13.51028801 16346
QIANFAN-186             
1 69404U 26125D   26274.56834447  .00000021  00000+0  13479-4 0  9991
2 69404  88.9886 269.2006 0002147  94.3575 265.7822 13.51028294 16301
QIANFAN-187             
1 69405U 26125E   26274.57657687  .00000026  00000+0  22126-4 0  9996
2 69405  88.9886 269.1825 0002349  94.7592 265.3828 13.51028971 16312
QIANFAN-188             
1 69406U 26125F   26274.58461004  .00000022  00000+0  16005-4 0  9999
2 69406  88.9884 269.1812 0002311  98.6830 261.4583 13.51029832 16316
QIANFAN-189             
1 69407U 26125G   26274.59287547  .00000011  00000+0 -14128-5 0  9993
2 69407  88.9866 269.1730 0002449 102.4470 257.6956 13.51019267 16303
QIANFAN-190             
1 69408U 26125H   26274.58052531  .00000026  00000+0  21956-4 0  9997
2 69408  88.9868 269.1723 0002073  96.2143 263.9245 13.51019270 16314
QIANFAN-191             
1 69409U 26125J   26274.60517675  .00000023  00000+0  16906-4 0  9992
2 69409  88.9882 269.1835 0002189  99.5189 260.6209 13.51019869 16317
QIANFAN-192             
1 69410U 26125K   26274.58876281  .00000006  00000+0 -92998-5 0  9990
2 69410  88.9888 269.1864 0002432  99.7351 260.4075 13.51019829 16316
QIANFAN-193             
1 69411U 26125L   26274.61352003  .00000023  00000+0  17709-4 0  9990
2 69411  88.9866 269.1575 0002216 100.9152 259.2249 13.51027753 16321
QIANFAN-194             
1 69412U 26125M   26274.60940407  .00000012  00000+0 -60790-6 0  9990
2 69412  88.9899 269.1764 0002296  98.5383 261.6028 13.51026300 16312
QIANFAN-195             
1 69413U 26125N   26274.61772137  .00000017  00000+0  82150-5 0  9992
2 69413  88.9900 269.1607 0001935  90.1055 270.0318 13.51028124 16339
QIANFAN-196             
1 69414U 26125P   26274.62575234  .00000007  00000+0 -77208-5 0  9991
2 69414  88.9905 269.1644 0001971  94.6796 265.4581 13.51020342 16331
QIANFAN-197             
1 69415U 26125Q   26274.56009338  .00000006  00000+0 -94557-5 0  9997
2 69415  88.9880 269.1395 0002227  97.6131 262.5273 13.51023972 16325
QIANFAN-198             
1 69416U 26125R   26273.95353651 -.01776801  00000+0 -31403+1 0  9991
2 69416  88.9870 269.2136 0001018 183.1498 176.9644 13.46806381 16241
QIANFAN-199             
1 69417U 26125S   26274.55596440  .00000063  00000+0  78672-4 0  9994
2 69417  88.9878 269.1026 0002441  95.1546 264.9884 13.51026148 16351
QIANFAN-200             
1 69418U 26125T   26274.60116496  .00000013  00000+0  12059-5 0  9993
2 69418  88.9884 269.1843 0002366 100.8953 259.2465 13.51026535 16316
QIANFAN-201             
1 69800U 26153A   26274.54537017 -.01833196  00000+0 -15882+1 0  9999
2 69800  88.9964 350.2513 0007943 313.4835  46.5678 13.90607993 12598
QIANFAN-202             
1 69801U 26153B   26274.57723168 -.01938326  00000+0 -15398+1 0  9990
2 69801  88.9968 350.2007 0003983 151.3694 208.7701 13.95175505 12619
QIANFAN-203             
1 69802U 26153C   26274.56330588 -.01969286  00000+0 -15452+1 0  9990
2 69802  88.9967 350.2361 0008487 358.6361   1.4791 13.95929734 12606
QIANFAN-204             
1 69803U 26153D   26274.54764766 -.01844986  00000+0 -15372+1 0  9998
2 69803  88.9964 350.2344 0004468 315.1083  44.9730 13.92907109 12603
QIANFAN-205             
1 69804U 26153E   26274.52149062 -.01973977  00000+0 -16546+1 0  9990
2 69804  88.9965 350.2662 0005281 317.7731  42.3036 13.92157128 12586
QIANFAN-206             
1 69805U 26153F   26274.57310727 -.01823626  00000+0 -14947+1 0  9992
2 69805  88.9966 350.2000 0003851  62.0675 298.0890 13.93801667 12620
QIANFAN-207             
1 69806U 26153G   26274.52137030 -.01886087  00000+0 -16148+1 0  9997
2 69806  88.9967 350.2480 0008804 310.4052  49.6353 13.90741235 12597
QIANFAN-208             
1 69807U 26153H   26274.58347930 -.01928740  00000+0 -16473+1 0  9990
2 69807  88.9962 350.2381 0003701  41.4395 318.7059 13.90982171 12617
QIANFAN-209             
1 69808U 26153J   26274.55564469 -.01823946  00000+0 -15816+1 0  9998
2 69808  88.9969 350.2543 0008370 299.3387  60.6950 13.90532732 12591
QIANFAN-210             
1 69809U 26153K   26274.52516016 -.01887296  00000+0 -16317+1 0  9996
2 69809  88.9965 350.2492 0009961 307.4580  52.5686 13.90169012 12597
QIANFAN-211             
1 69810U 26153L   26274.60993211  .00000267  00000+0  13188-3 0  9991
2 69810  88.9971 350.1691 0005670 300.1951  59.8674 14.14546982 12646
QIANFAN-212             
1 69811U 26153M   26274.53662232 -.01911247  00000+0 -14966+1 0  9994
2 69811  88.9962 350.2125 0004744  24.5590 335.5812 13.95939228 12619
QIANFAN-213             
1 69812U 26153N   26274.51210761 -.01840898  00000+0 -15231+1 0  9998
2 69812  88.9970 350.2275 0003440 286.6244  73.4554 13.93302625 12607
QIANFAN-214             
1 69813U 26153P   26274.57488691 -.01865918  00000+0 -13911+1 0  9997
2 69813  88.9968 350.1634 0002743 257.2872 102.8000 13.98645328 12641
QIANFAN-215             
1 69814U 26153Q   26274.59389231  .00000295  00000+0  14471-3 0  9991
2 69814  88.9969 350.0900 0005633 312.7058  47.3655 14.15204470 12684
QIANFAN-216             
1 69815U 26153R   26274.57821560 -.01777106  00000+0 -13325+1 0  9995
2 69815  88.9966 350.1450 0002359 324.5643  35.5378 13.98781440 12651
QIANFAN-217             
1 69816U 26153S   26274.57190318 -.01902058  00000+0 -10493+1 0  9995
2 69816  88.9961 350.0306 0007229 268.1736  91.8623 14.15381229 12719
QIANFAN-218             
1 69817U 26153T   26274.57711831 -.01869984  00000+0 -10606+1 0  9991
2 69817  88.9965 350.0348 0008780 231.3474 128.6927 14.13809367 12716
QIANFAN-219             
1 69848U 26155A   26274.49197436 -.01741467  00000+0 -30558+1 0  9990
2 69848  89.0105  52.5981 0007261 323.1919  36.8730 13.47175535 12229
QIANFAN-220             
1 69849U 26155B   26274.58777104  .00000083  00000+0  10944-3 0  9996
2 69849  89.0113  52.6189 0033713 339.8919  20.0902 13.50935500 12221
QIANFAN-221             
1 69850U 26155C   26274.56670292  .00000090  00000+0  86768-4 0  9992
2 69850  89.0114  52.3425 0029905 344.0971  15.9250 13.71188167 12375
QIANFAN-222             
1 69851U 26155D   26273.86276198 -.01785386  00000+0 -31524+1 0  9999
2 69851  89.0106  52.7099 0005542 346.4805  13.6195 13.46884365 12111
QIANFAN-223             
1 69852U 26155E   26274.48383474 -.01770963  00000+0 -31125+1 0  9997
2 69852  89.0105  52.6555 0017499 334.0686  25.9584 13.47092662 12199
QIANFAN-224             
1 69853U 26155F   26274.53296135 -.01748990  00000+0 -30538+1 0  9993
2 69853  89.0091  52.5916 0014168 344.8126  15.2595 13.47483743 12224
QIANFAN-225             
1 69854U 26155G   26274.53747053 -.01773160  00000+0 -31276+1 0  9991
2 69854  89.0101  52.6405 0005447 272.3019  87.7506 13.46921680 12207
QIANFAN-226             
1 69855U 26155H   26274.54163512 -.01778618  00000+0 -31347+1 0  9997
2 69855  89.0098  52.6214 0006916 287.1495  72.8896 13.46981325 12215
QIANFAN-227             
1 69856U 26155J   26274.54737138  .00000080  00000+0  10574-3 0  9999
2 69856  89.0105  52.6250 0034421 341.7671  18.2243 13.51039856 12219
QIANFAN-228             
1 69857U 26155K   26274.54990412 -.01828782  00000+0 -32089+1 0  9998
2 69857  89.0107  52.6100 0021576 327.7908  32.1922 13.47304556 12227
QIANFAN-229             
1 69858U 26155L   26274.56390881  .00000074  00000+0  95421-4 0  9991
2 69858  89.0113  52.5930 0001795  99.5373 260.5981 13.51036119 12231
QIANFAN-230             
1 69859U 26155M   26274.60087672  .00000082  00000+0  10878-3 0  9999
2 69859  89.0109  52.6315 0001722 101.9535 258.1809 13.51034385 12216
QIANFAN-231             
1 69860U 26155N   26274.49639793 -.01810259  00000+0 -31829+1 0  9999
2 69860  89.0104  52.5833 0034333 331.1247  28.8001 13.46988614 12233
QIANFAN-232             
1 69861U 26155P   26274.55022298  .00000075  00000+0  98667-4 0  9994
2 69861  89.0102  52.5867 0025128 337.7788  22.2271 13.50453135 12230
QIANFAN-233             
1 69862U 26155Q   26274.35274988 -.01922874  00000+0 -33567+1 0  9995
2 69862  89.0104  52.5984 0010606 315.5769  44.4529 13.47931578 12219
QIANFAN-234             
1 69863U 26155R   26274.60344949  .00000053  00000+0  58710-4 0  9993
2 69863  89.0099  52.5073 0032982 336.5918  23.3732 13.56218070 12286
QIANFAN-235             
1 69864U 26155S   26274.61264929  .00000104  00000+0  80703-4 0  9998
2 69864  89.0112  52.2608 0029485 340.2033  19.7990 13.84595551 12422
QIANFAN-236             
1 69865U 26155T   26274.58231612 -.01752576  00000+0 -30530+1 0  9997
2 69865  89.0108  52.5980 0023744 329.0896  30.8855 13.47570007 12239
QIANFAN-237             
1 69866U 26155U   26274.51267670 -.01762551  00000+0 -31011+1 0  9993
2 69866  89.0109  52.5696 0016289 331.1436  28.8810 13.47010696 12236
QIANFAN-238             
1 69867U 26155V   26274.51672694 -.01751744  00000+0 -30823+1 0  9992
2 69867  89.0112  52.5877 0010803 327.0315  33.0159 13.47010169 12237
