EUTELSAT 174A           
1 28924U 05052A   26267.66543625  .00000013  00000+0  00000+0 0  9999
2 28924   4.4632  75.2361 0006138 106.2812 235.5843  1.00270004 53325
EUTELSAT 33F            
1 29270U 06032A   26267.77441847  .00000158  00000+0  00000+0 0  9998
2 29270   1.9108  80.9735 0003406 101.2043 133.3283  1.00273303 48304
EUTELSAT HOTBIRD 13C    
1 33459U 08065A   26267.82916985 -.00000279  00000+0  00000+0 0  9991
2 33459   3.1989  77.9200 0003744 110.5005  63.4718  1.00273157 48345
EUTELSAT 36B            
1 36101U 09065A   26267.71989115  .00000114  00000+0  00000+0 0  9999
2 36101   0.7345  81.0629 0005905 102.0721 130.1059  1.00264348 61701
EUTELSAT KA-SAT 9A      
1 37258U 10069A   26267.69834397  .00000062  00000+0  00000+0 0  9999
2 37258   0.0758 356.0990 0005169 166.4732 101.3717  1.00273306 45000
EUTELSAT 7 WEST A       
1 37816U 11051A   26267.76644510 -.00000059  00000+0  00000+0 0  9992
2 37816   0.0703  13.6106 0006129 168.0660  90.5538  1.00272682 54871
EUTELSAT 16A            
1 37836U 11057A   26266.27423903  .00000102  00000+0  00000+0 0  9994
2 37836   0.1138  66.6453 0005489 115.8946 294.3317  1.00274177  8323
EUTELSAT 21B            
1 38992U 12062B   26267.27323002  .00000130  00000+0  00000+0 0  9996
2 38992   0.0709 347.0284 0002867 194.6612 301.4188  1.00274982 50822
EUTELSAT 70B            
1 39020U 12069A   26267.73169697 -.00000043  00000+0  00000+0 0  9999
2 39020   0.0668   5.3107 0003688 179.1803 152.9864  1.00271617 50506
EUTELSAT 117 WEST A     
1 39122U 13012A   26267.88716625  .00000000  00000+0  00000+0 0  9998
2 39122   0.0128 155.7786 0003029  34.6684  15.8462  1.00270010 49431
EUTELSAT 7B             
1 39163U 13022A   26267.88435775  .00000105  00000+0  00000+0 0  9994
2 39163   0.0690 349.5644 0003869 121.0593 227.4927  1.00269821 48948
EXPRESS-AT1             
1 39612U 14010A   26267.92564640 -.00000113  00000+0  00000+0 0  9990
2 39612   0.5071  84.3534 0004959  82.5472 246.8282  1.00315562 45811
EXPRESS-AT2             
1 39613U 14010B   26267.73732928  .00000079  00000+0  00000+0 0  9996
2 39613   0.0148 226.3550 0000257 251.5937 207.0716  1.00272712 45493
EUTELSAT 3B             
1 39773U 14030A   26267.83974322  .00000021  00000+0  00000+0 0  9999
2 39773   0.0648   3.2130 0004232 178.9317 126.9456  1.00272058 45068
EUTELSAT 115 WEST B     
1 40425U 15010B   26267.62764081 -.00000025  00000+0  00000+0 0  9995
2 40425   0.0388  16.6711 0000257 257.1076 200.7487  1.00273183 42380
EUTELSAT 8 WEST B       
1 40875U 15039B   26267.83757654 -.00000065  00000+0  00000+0 0  9990
2 40875   0.0684 347.9476 0003608 195.5174 113.7411  1.00271362 40658
EUTELSAT 9B             
1 41310U 16005A   26267.76965178  .00000063  00000+0  00000+0 0  9990
2 41310   0.0576  66.7714 0002781 153.1570  69.7546  1.00272384 39118
EUTELSAT 65 WEST A      
1 41382U 16014A   26267.75485088 -.00000276  00000+0  00000+0 0  9992
2 41382   0.0995 297.4837 0002324 237.6483  35.0026  1.00274793 38524
EUTELSAT 117 WEST B     
1 41589U 16038B   26267.88716625 -.00000011  00000+0  00000+0 0  9992
2 41589   0.0398  16.2965 0000202 306.4726 243.3441  1.00272900 37664
EUTELSAT 172B           
1 42741U 17029B   26267.64157050 -.00000005  00000+0  00000+0 0  9992
2 42741   0.0227 146.2688 0000162 325.0397 295.1534  1.00271273 34744
EUTELSAT 7C             
1 44334U 19034B   26267.27028333  .00000048  00000+0  00000+0 0  9996
2 44334   0.0680 182.4320 0003268 343.7374 301.2579  1.00271558  7827
EUTELSAT 5 WEST B       
1 44624U 19067A   26267.76687844 -.00000041  00000+0  00000+0 0  9990
2 44624   0.0676 343.6696 0003190 198.5308  92.4989  1.00271537 25425
EUTELSAT KONNECT        
1 45027U 20005B   26267.05656243  .00000049  00000+0  00000+0 0  9990
2 45027   0.0648  98.2729 0001980 120.3501 171.8706  1.00271073 25328
EUTELSAT QUANTUM        
1 49056U 21069B   26267.90905462  .00000000  00000+0  00000+0 0  9998
2 49056   0.0148 157.9100 0002400  31.1716 189.6133  1.00270506 18929
EUTELSAT KONNECT VHTS   
1 53765U 22110A   26267.69713062  .00000018  00000+0  00000+0 0  9996
2 53765   0.0545 105.0405 0002628  52.8454  99.3643  1.00269420  7839
EUTELSAT HOTBIRD 13F    
1 54048U 22134A   26267.91217573  .00000088  00000+0  00000+0 0  9995
2 54048   0.0664 287.6216 0001953  74.3893 343.1289  1.00271175 14372
EUTELSAT HOTBIRD 13G    
1 54225U 22146A   26267.91213270  .00000088  00000+0  00000+0 0  9995
2 54225   0.0532 238.9890 0002075 298.9802 167.1600  1.00270939  8461
EUTELSAT 10B            
1 54259U 22157A   26267.84112988  .00000069  00000+0  00000+0 0  9999
2 54259   0.0546 101.4572 0001286   3.1565 211.8787  1.00272201 14025
EUTELSAT 36D            
1 59346U 24059A   26267.20476307  .00000000  00000+0  00000+0 0  9997
2 59346   0.0269 180.0522 0000249  18.9949 273.5810  1.00271896  9143
