QIANFAN-1               
1 60379U 24140A   26252.91121473  .00000044  00000+0  48416-4 0  9995
2 60379  88.9668 271.1303 0018728 146.0323 214.2032 13.51025680103968
QIANFAN-2               
1 60380U 24140B   26252.86596396  .00000044  00000+0  49609-4 0  9996
2 60380  88.9655 270.9376 0014632 119.9350 240.3256 13.51034407104014
QIANFAN-3               
1 60381U 24140C   26252.94841638  .00000043  00000+0  47754-4 0  9996
2 60381  88.9648 271.0411 0015551 131.0583 229.1915 13.51022804103938
QIANFAN-4               
1 60382U 24140D   26252.92358969  .00000034  00000+0  33799-4 0  9999
2 60382  88.9672 271.0096 0014842 122.0330 238.2266 13.51020941104051
QIANFAN-5               
1 60383U 24140E   26252.89886954  .00000053  00000+0  62426-4 0  9996
2 60383  88.9647 271.0706 0016508 141.8398 218.3925 13.51030984103919
QIANFAN-6               
1 60384U 24140F   26252.91948514  .00000030  00000+0  26757-4 0  9993
2 60384  88.9674 270.8883 0014846 127.2667 232.9840 13.51023918104113
QIANFAN-7               
1 60385U 24140G   26252.82491800  .00000145  00000+0  52678-4 0  9993
2 60385  88.9719 261.8132 0013255 221.2465 138.7729 14.27891345109075
QIANFAN-8               
1 60386U 24140H   26252.92785516  .00000055  00000+0  65859-4 0  9990
2 60386  88.9675 271.1283 0018252 130.2025 230.0727 13.51025920103961
QIANFAN-9               
1 60387U 24140J   26252.90305609  .00000053  00000+0  63061-4 0  9991
2 60387  88.9673 271.2007 0017948 129.9629 230.3102 13.51021450103943
QIANFAN-10              
1 60388U 24140K   26252.90716827  .00000048  00000+0  55467-4 0  9995
2 60388  88.9684 270.5762 0016760 109.4919 250.8045 13.51021546104076
QIANFAN-11              
1 60389U 24140L   26252.94431424  .00000043  00000+0  48362-4 0  9998
2 60389  88.9609 270.9551 0015990 129.1066 231.1509 13.51020966103734
QIANFAN-12              
1 60390U 24140M   26252.89078491  .00000039  00000+0  41304-4 0  9999
2 60390  88.9652 271.1222 0014641 136.1580 224.0736 13.51023386103858
QIANFAN-13              
1 60391U 24140N   26252.86194160  .00000054  00000+0  65155-4 0  9996
2 60391  88.9912 271.3417 0014404 138.2092 222.0162 13.51023448103876
QIANFAN-14              
1 60392U 24140P   26252.96077198  .00000036  00000+0  36076-4 0  9999
2 60392  88.9643 271.0878 0018062 139.5866 220.6631 13.51018696103899
QIANFAN-15              
1 60393U 24140Q   26252.89487154  .00000062  00000+0  76769-4 0  9991
2 60393  88.9667 271.1158 0014177 126.0130 234.2337 13.51027662103871
QIANFAN-16              
1 60394U 24140R   26252.95653766  .00000031  00000+0  29208-4 0  9995
2 60394  88.9669 271.2369 0015904 142.3865 217.8402 13.51025117103798
QIANFAN-17              
1 60395U 24140S   26252.95253772  .00000031  00000+0  28718-4 0  9994
2 60395  88.9680 271.3130 0016455 136.7933 223.4512 13.51021361104753
QIANFAN-18              
1 60396U 24140T   26252.93197099  .00000048  00000+0  55243-4 0  9993
2 60396  88.9674 270.8311 0016153 121.1960 239.0777 13.51020785104143
QIANFAN-19              
1 61552U 24185A   26252.89065773  .00000279  00000+0  13791-3 0  9992
2 61552  88.9839  46.8721 0008116 140.4636 219.7145 14.14526102107995
QIANFAN-20              
1 61553U 24185B   26252.90684111  .00000266  00000+0  14571-3 0  9991
2 61553  88.9833  47.4618 0005531 176.3549 183.7676 14.09067048107678
QIANFAN-21              
1 61554U 24185C   26252.94062537  .00000444  00000+0  19102-3 0  9991
2 61554  88.9759  45.2184 0010179 187.7692 172.3344 14.22925537108532
QIANFAN-22              
1 61555U 24185D   26252.88047211  .00000146  00000+0  11450-3 0  9994
2 61555  88.9813  49.5395 0004688 234.5224 125.5511 13.86426607106509
QIANFAN-23              
1 61556U 24185E   26252.90475322  .00000309  00000+0  14779-3 0  9994
2 61556  88.9833  46.5538 0008476 148.0879 212.0824 14.16548047108139
QIANFAN-24              
1 61557U 24185F   26252.92375200  .00000383  00000+0  15983-3 0  9991
2 61557  88.9817  45.5149 0011271 126.7889 233.4340 14.24149336108610
QIANFAN-25              
1 61558U 24185G   26252.93945743  .00000377  00000+0  22134-3 0  9997
2 61558  88.9823  47.4998 0011784 201.2184 158.8512 14.06124166107611
QIANFAN-26              
1 61559U 24185H   26252.90895884  .00000154  00000+0  14039-3 0  9993
2 61559  88.9817  50.4810 0003720 271.1604  88.9136 13.77941270106014
QIANFAN-27              
1 61560U 24185J   26252.88806117  .00000471  00000+0  18558-3 0  9995
2 61560  88.9829  45.1620 0009370 113.3164 246.9017 14.27596803108845
QIANFAN-28              
1 61561U 24185K   26252.92750000  .00000519  00000+0  20130-3 0  9992
2 61561  88.9846  45.1719 0009290 111.4815 248.7371 14.28477005108887
QIANFAN-29              
1 61562U 24185L   26252.94714205  .00000125  00000+0  17537-3 0  9992
2 61562  88.9784  53.2750 0009507 357.5995   2.5109 13.51091917104416
QIANFAN-30              
1 61563U 24185M   26252.90493694  .00000116  00000+0  16332-3 0  9997
2 61563  88.9805  52.9087 0006890 346.3643  13.7321 13.50073662104650
QIANFAN-31              
1 61564U 24185N   26252.90119786  .00000133  00000+0  16703-3 0  9996
2 61564  88.9790  52.2806 0005862 331.1359  28.9471 13.58061758104969
QIANFAN-32              
1 61565U 24185P   26252.94721865  .00000106  00000+0  14562-3 0  9999
2 61565  88.9845  53.1178 0009898  15.2043 344.9404 13.50804536104650
QIANFAN-33              
1 61566U 24185Q   26252.93302026  .00000292  00000+0  20084-3 0  9995
2 61566  88.9815  48.5737 0007322 183.8676 176.2446 13.96748334107019
QIANFAN-34              
1 61567U 24185R   26252.92679049  .00000364  00000+0  22783-3 0  9995
2 61567  88.9793  47.7793 0005761 171.9775 188.1499 14.02513723107369
QIANFAN-35              
1 61568U 24185S   26252.91379263  .00000464  00000+0  17987-3 0  9991
2 61568  88.9828  45.0529 0008485 108.8280 251.3836 14.28349799108887
QIANFAN-36              
1 61569U 24185T   26252.92289505  .00000078  00000+0  94064-4 0  9995
2 61569  88.9782  52.7825 0005694 352.7330   7.3740 13.55646267104660
QIANFAN-37              
1 62238U 24232B   26252.91484087  .00000065  00000+0  81944-4 0  9992
2 62238  89.0146  14.0932 0002219  88.4126 271.7280 13.51028885135785
QIANFAN-38              
1 62239U 24232C   26252.86553081  .00000058  00000+0  70641-4 0  9992
2 62239  89.0152  14.0322 0016265 128.8324 231.4283 13.51027199135830
QIANFAN-39              
1 62240U 24232D   26252.87379743  .00000292  00000+0  11737-3 0  9996
2 62240  89.0135   6.4444 0013809 269.0599  90.9012 14.25555287140016
QIANFAN-40              
1 62241U 24232E   26252.89845138  .00000046  00000+0  53042-4 0  9998
2 62241  89.0180  13.6891 0015226 135.5311 224.7066 13.51027322136201
QIANFAN-41              
1 62242U 24232F   26252.90666509  .00000056  00000+0  68393-4 0  9990
2 62242  89.0150  13.9746 0015732 125.1055 235.1574 13.51028548135865
QIANFAN-42              
1 62243U 24232G   26252.90424179  .00000277  00000+0  11296-3 0  9990
2 62243  89.0133   6.5283 0012629 277.2804  82.6953 14.24642622139972
QIANFAN-43              
1 62244U 24232H   26252.90255069  .00000060  00000+0  73769-4 0  9995
2 62244  89.0155  14.0523 0017199 130.0799 230.1864 13.51028094104472
QIANFAN-44              
1 62245U 24232J   26252.89023521  .00000068  00000+0  86972-4 0  9998
2 62245  89.0153  13.8599 0015455 127.1222 233.1344 13.51028363135943
QIANFAN-45              
1 62246U 24232K   26252.93138850  .00000066  00000+0  83214-4 0  9990
2 62246  89.0157  14.0119 0016123 126.7775 233.4859 13.51027166135876
QIANFAN-46              
1 62247U 24232L   26252.95601773  .00000057  00000+0  69502-4 0  9996
2 62247  89.0153  14.0674 0016097 131.6907 228.5625 13.51028168135836
QIANFAN-47              
1 62248U 24232M   26252.96017110  .00000069  00000+0  87941-4 0  9994
2 62248  89.0149  13.9890 0016531 131.0117 229.2466 13.51027396135866
QIANFAN-48              
1 62249U 24232N   26252.92319039  .00000070  00000+0  88873-4 0  9993
2 62249  89.0153  14.0052 0018751 133.8954 226.3749 13.51021692135864
QIANFAN-49              
1 62250U 24232P   26252.91080874  .00000065  00000+0  82043-4 0  9993
2 62250  89.0152  14.0167 0015911 128.5001 231.7580 13.51028899104451
QIANFAN-50              
1 62251U 24232Q   26252.93545421  .00000063  00000+0  78012-4 0  9999
2 62251  89.0157  14.0372 0017553 129.9359 230.3338 13.51028339104488
QIANFAN-51              
1 62252U 24232R   26252.91902750  .00000067  00000+0  84262-4 0  9998
2 62252  89.0151  14.0161 0014958 132.8764 227.3646 13.51027354104471
QIANFAN-52              
1 62253U 24232S   26252.94782085  .00000055  00000+0  66253-4 0  9996
2 62253  89.0147  13.8762 0017100 126.1443 234.1294 13.51029345104560
QIANFAN-53              
1 62254U 24232T   26252.92729791  .00000067  00000+0  85588-4 0  9995
2 62254  89.0155  14.0033 0015964 126.9962 233.2653 13.51026174104526
QIANFAN-54              
1 62255U 24232U   26252.89433519  .00000068  00000+0  86708-4 0  9998
2 62255  89.0146  13.6611 0003347 140.3127 219.8270 13.51027930136025
QIANFAN-55              
1 62785U 25016A   26252.92041138  .00000052  00000+0  61465-4 0  9999
2 62785  88.9666  75.0609 0015555 286.8133  73.1312 13.51024311 83809
QIANFAN-56              
1 62786U 25016B   26252.93672491  .00000050  00000+0  59459-4 0  9991
2 62786  88.9640  74.8233 0014182 289.9482  70.0141 13.51027435 83859
QIANFAN-57              
1 62787U 25016C   26252.89574344  .00000048  00000+0  55087-4 0  9995
2 62787  88.9670  75.0656 0002564  87.8295 272.3150 13.51027172 83814
QIANFAN-58              
1 62788U 25016D   26252.94096806  .00000063  00000+0  78775-4 0  9990
2 62788  88.9641  74.8100 0012007 281.6675  78.3129 13.51019585 83867
QIANFAN-59              
1 62789U 25016E   26252.89144602  .00000042  00000+0  46643-4 0  9999
2 62789  88.9663  74.9528 0012413 286.1155  73.8630 13.51023912 83856
QIANFAN-60              
1 62790U 25016F   26252.92438994  .00000055  00000+0  66977-4 0  9991
2 62790  88.9645  74.8692 0013923 281.7019  78.2570 13.51027315 83848
QIANFAN-61              
1 62791U 25016G   26252.88328607  .00000050  00000+0  58753-4 0  9994
2 62791  88.9711  75.2199 0012890 281.4327  78.5376 13.51026901 83859
QIANFAN-62              
1 62792U 25016H   26252.88746377  .00000043  00000+0  48208-4 0  9999
2 62792  88.9659  74.9422 0014228 281.5034  78.4519 13.51019336 83840
QIANFAN-63              
1 62793U 25016J   26252.91210561  .00000059  00000+0  73638-4 0  9997
2 62793  88.9666  74.9095 0014345 287.4643  72.4940 13.51022427 83887
QIANFAN-64              
1 62794U 25016K   26252.87919653  .00000052  00000+0  62582-4 0  9990
2 62794  88.9652  74.8507 0012210 279.8553  80.1219 13.51026907 83875
QIANFAN-65              
1 62795U 25016L   26252.94901410  .00000059  00000+0  72772-4 0  9990
2 62795  88.9649  74.8597 0012081 281.6099  78.3696 13.51023092 83862
QIANFAN-66              
1 62796U 25016M   26252.90374063  .00000051  00000+0  59846-4 0  9994
2 62796  88.9666  74.8880 0013179 276.5288  83.4362 13.51021634 83901
QIANFAN-67              
1 62797U 25016N   26252.90789723  .00000066  00000+0  83481-4 0  9996
2 62797  88.9658  74.8863 0013165 284.4637  75.5053 13.51028584 83871
QIANFAN-68              
1 62798U 25016P   26252.89971850  .00000062  00000+0  76962-4 0  9991
2 62798  88.9662  74.9420 0013220 282.0427  77.9243 13.51021340 83858
QIANFAN-69              
1 62799U 25016Q   26252.91609174  .00000053  00000+0  64164-4 0  9993
2 62799  88.9641  74.7520 0013974 283.4626  76.4968 13.51023768 83895
QIANFAN-70              
1 62800U 25016R   26252.93267813  .00000067  00000+0  84811-4 0  9994
2 62800  88.9661  74.9453 0013510 272.4968  87.4636 13.51023130 83853
QIANFAN-71              
1 62801U 25016S   26252.92853906  .00000055  00000+0  66373-4 0  9998
2 62801  88.9656  74.9088 0013919 287.4891  72.4739 13.51026295 83859
QIANFAN-72              
1 62802U 25016T   26252.94507107  .00000065  00000+0  82460-4 0  9996
2 62802  88.9646  74.8940 0017291 294.9142  65.0211 13.51020186 83849
QIANFAN-73              
1 63159U 25046A   26252.89799821  .00000036  00000+0  36528-4 0  9997
2 63159  88.9659 291.8740 0016793  64.4500 295.8385 13.51024825 84022
QIANFAN-74              
1 63160U 25046B   26252.95557940  .00000006  00000+0 -95349-5 0  9995
2 63160  88.9658 291.7576 0001853  95.3265 264.8098 13.51018851 84097
QIANFAN-75              
1 63161U 25046C   26252.86930171  .00000080  00000+0  10431-3 0  9995
2 63161  88.9661 292.0042 0017988  67.4842 292.8212 13.51029551 83953
QIANFAN-76              
1 63162U 25046D   26252.93925141 -.00000078  00000+0 -13952-3 0  9995
2 63162  88.9659 291.9765 0015412  68.1960 292.0829 13.51021649 83978
QIANFAN-77              
1 63163U 25046E   26252.95020369  .00000114  00000+0  72717-4 0  9990
2 63163  88.9663 287.7467 0013083 320.6477  39.3748 13.96245266 86299
QIANFAN-78              
1 63164U 25046F   26252.90673518  .00000043  00000+0  47485-4 0  9991
2 63164  88.9660 291.8418 0016956  69.8183 290.4790 13.51011405 84042
QIANFAN-79              
1 63165U 25046G   26252.93500866  .00000028  00000+0  24231-4 0  9997
2 63165  88.9664 291.9558 0016606  68.5189 291.7731 13.51020952 83996
QIANFAN-80              
1 63166U 25046H   26252.95153164  .00000070  00000+0  88883-4 0  9995
2 63166  88.9661 291.6535 0015582  72.7033 287.5822 13.51028839 84158
QIANFAN-81              
1 63167U 25046J   26252.93085688  .00000111  00000+0  15215-3 0  9993
2 63167  88.9660 291.7230 0016587  63.1984 297.0862 13.51019336 84103
QIANFAN-82              
1 63168U 25046K   26252.88979004  .00000077  00000+0  99919-4 0  9997
2 63168  88.9661 291.7716 0014602  69.7827 290.4893 13.51019746 84081
QIANFAN-83              
1 63169U 25046L   26252.92810853  .00000090  00000+0  10088-3 0  9993
2 63169  88.9662 291.0093 0015235  42.4967 317.7367 13.62064104 84517
QIANFAN-84              
1 63170U 25046M   26252.91857618 -.00000033  00000+0 -70229-4 0  9997
2 63170  88.9659 291.9010 0017474  65.8608 294.4368 13.51018179 84017
QIANFAN-85              
1 63171U 25046N   26252.91442805  .00000081  00000+0  10649-3 0  9996
2 63171  88.9660 291.7713 0015132  68.5240 291.7523 13.51019722 84084
QIANFAN-86              
1 63172U 25046P   26252.92266580  .00000090  00000+0  12023-3 0  9990
2 63172  88.9662 291.6389 0013090  72.7728 287.4855 13.51024628 84164
QIANFAN-87              
1 63173U 25046Q   26252.89390064  .00000035  00000+0  35803-4 0  9993
2 63173  88.9659 291.7435 0013512  68.3355 291.9233 13.51031877 84096
QIANFAN-88              
1 63174U 25046R   26252.91032436  .00000072  00000+0  92138-4 0  9998
2 63174  88.9661 291.7030 0014087  75.6241 284.6473 13.51028751 84120
QIANFAN-89              
1 63175U 25046S   26252.87327452  .00000076  00000+0  97945-4 0  9994
2 63175  88.9661 291.8957 0018449  66.1953 294.1130 13.51024084 84010
QIANFAN-90              
1 63176U 25046T   26252.90211586  .00000042  00000+0  45656-4 0  9994
2 63176  88.9661 291.8660 0015345  65.5183 294.7566 13.51019629 84032
QIANFAN-91              
1 66033U 25233A   26252.93457401  .00000057  00000+0  69268-4 0  9999
2 66033  89.0036  34.6172 0001929  90.5754 269.5618 13.51028295 44629
QIANFAN-92              
1 66034U 25233B   26252.94295429  .00000058  00000+0  71410-4 0  9994
2 66034  89.0019  34.5742 0001952  99.0226 261.1146 13.50998120 44623
QIANFAN-93              
1 66035U 25233C   26252.87706447  .00000059  00000+0  73428-4 0  9996
2 66035  89.0047  34.6556 0002059  92.0976 268.0411 13.51000011 44617
QIANFAN-94              
1 66036U 25233D   26252.93873586  .00000052  00000+0  61246-4 0  9991
2 66036  89.0043  34.5497 0001832  96.3842 263.7518 13.51026624 44678
QIANFAN-95              
1 66037U 25233E   26252.94695955  .00000069  00000+0  88096-4 0  9995
2 66037  89.0043  34.0906 0001793  90.2616 269.8741 13.51021196 44929
QIANFAN-96              
1 66038U 25233F   26252.89755356  .00000056  00000+0  68773-4 0  9998
2 66038  89.0039  34.6367 0001923  88.5695 271.5677 13.51027837 44616
QIANFAN-97              
1 66039U 25233G   26252.95518262  .00000057  00000+0  69288-4 0  9992
2 66039  89.0042  34.6176 0001922  91.1870 268.9502 13.51027894 44624
QIANFAN-98              
1 66040U 25233H   26252.88936023  .00000058  00000+0  70523-4 0  9990
2 66040  89.0030  34.3460 0001478 103.9584 256.1732 13.51028140 44760
QIANFAN-99              
1 66041U 25233J   26252.89344283  .00000058  00000+0  71950-4 0  9998
2 66041  89.0040  34.6283 0001462  95.2670 264.8648 13.51034500 44624
QIANFAN-100             
1 66042U 25233K   26252.88520916  .00000054  00000+0  64615-4 0  9993
2 66042  89.0053  34.5658 0001957  91.6910 268.4466 13.51019204 44677
QIANFAN-101             
1 66043U 25233L   26252.94131154  .00000327  00000+0  12872-3 0  9993
2 66043  89.0044  30.8381 0013682 219.4658 140.5540 14.26856511 46710
QIANFAN-102             
1 66044U 25233M   26252.90579987  .00000064  00000+0  80915-4 0  9992
2 66044  89.0040  34.5349 0001780  95.6689 264.4665 13.51027402 44679
QIANFAN-103             
1 66045U 25233N   26252.90992506  .00000065  00000+0  82544-4 0  9990
2 66045  89.0043  34.6320 0001956  91.8099 268.3276 13.51020333 44623
QIANFAN-104             
1 66046U 25233P   26252.91396192  .00000059  00000+0  72367-4 0  9996
2 66046  89.0047  34.5375 0001823  98.6903 261.4454 13.51025456 44677
QIANFAN-105             
1 66047U 25233Q   26252.92223153  .00000052  00000+0  62686-4 0  9990
2 66047  89.0061  34.3912 0001804  90.8350 269.3008 13.51025316 44787
QIANFAN-106             
1 66048U 25233R   26252.91811129  .00000056  00000+0  67669-4 0  9996
2 66048  89.0030  34.5778 0001542 101.4645 258.6680 13.51029088 44621
QIANFAN-107             
1 66049U 25233S   26252.92635085  .00000049  00000+0  57431-4 0  9991
2 66049  89.0045  34.6229 0001933  92.8067 267.3306 13.51028282 44633
QIANFAN-108             
1 66050U 25233T   26252.93050545  .00000054  00000+0  64663-4 0  9997
2 66050  89.0038  34.6042 0001579 101.8718 258.2610 13.51020534 44639
QIANFAN-109             
1 68636U 26075A   26252.87026786  .00000079  00000+0  10418-3 0  9992
2 68636  88.9883 312.3743 0002356  86.9828 273.1592 13.51019886 21223
QIANFAN-110             
1 68637U 26075B   26252.95256636  .00000069  00000+0  87563-4 0  9996
2 68637  88.9883 312.3874 0002302 100.1314 260.0097 13.51030962 21233
QIANFAN-111             
1 68638U 26075C   26252.94042266  .00000079  00000+0  10378-3 0  9998
2 68638  88.9882 312.3476 0002294  99.5189 260.6222 13.51020320 21257
QIANFAN-112             
1 68639U 26075D   26252.90331195  .00000076  00000+0  99447-4 0  9999
2 68639  88.9881 312.3593 0002560  89.8908 270.2537 13.51022741 21248
QIANFAN-113             
1 68640U 26075E   26252.87436062  .00000075  00000+0  97546-4 0  9993
2 68640  88.9886 312.3607 0002394  98.0302 262.1121 13.51028845 21246
QIANFAN-114             
1 68641U 26075F   26252.95668142  .00000068  00000+0  86834-4 0  9999
2 68641  88.9882 312.3674 0002283  98.9178 261.2232 13.51026973 21247
QIANFAN-115             
1 68642U 26075G   26252.91147971  .00000072  00000+0  92934-4 0  9991
2 68642  88.9882 312.3793 0002219  95.5070 264.6334 13.51023630 21239
QIANFAN-116             
1 68643U 26075H   26252.89911402  .00000080  00000+0  10487-3 0  9998
2 68643  88.9875 312.3347 0002537  92.8229 267.3212 13.51024267 21249
QIANFAN-117             
1 68644U 26075J   26252.96091018  .00000070  00000+0  89264-4 0  9998
2 68644  88.9879 312.3480 0002333  92.8840 267.2578 13.51022073 21253
QIANFAN-118             
1 68645U 26075K   26252.91969877  .00000061  00000+0  76147-4 0  9997
2 68645  88.9884 312.3642 0002345 102.2605 257.8809 13.51023878 21243
QIANFAN-119             
1 68646U 26075L   26252.89494832  .00000043  00000+0  48208-4 0  9996
2 68646  88.9884 312.3625 0002229  88.7359 271.4047 13.51036845 21244
QIANFAN-120             
1 68647U 26075M   26252.90728447  .00000079  00000+0  10386-3 0  9995
2 68647  88.9886 312.3475 0002183  87.5848 272.5553 13.51019356 21252
QIANFAN-121             
1 68648U 26075N   26252.93211964  .00000068  00000+0  86753-4 0  9990
2 68648  88.9883 312.3481 0002272 100.8366 259.3041 13.51022901 21255
QIANFAN-122             
1 68649U 26075P   26252.92386311  .00000069  00000+0  88950-4 0  9991
2 68649  88.9882 312.3461 0002355  90.9639 269.1782 13.51026422 21249
QIANFAN-123             
1 68650U 26075Q   26252.96488233  .00000070  00000+0  90142-4 0  9991
2 68650  88.9879 312.3291 0002412  85.4175 274.7252 13.51031660 21239
QIANFAN-124             
1 68651U 26075R   26252.91565549  .00000058  00000+0  71718-4 0  9997
2 68651  88.9882 312.3454 0002403  89.9800 270.1626 13.51025979 21252
QIANFAN-125             
1 68652U 26075S   26252.92800632  .00000066  00000+0  82911-4 0  9990
2 68652  88.9881 312.3461 0002304 100.6289 259.5122 13.51023004 21251
QIANFAN-126             
1 68653U 26075T   26252.93609434  .00000075  00000+0  97790-4 0  9990
2 68653  88.9885 312.3143 0002393  85.8355 274.3070 13.51028332 21277
QIANFAN-127             
1 69073U 26104A   26252.86736040  .00000096  00000+0  13071-3 0  9998
2 69073  88.9935 332.8364 0002514 108.2483 251.8942 13.50992897 16591
QIANFAN-128             
1 69074U 26104B   26252.94961487  .00000095  00000+0  12856-3 0  9992
2 69074  88.9913 332.8542 0002080 114.6522 245.4846 13.51022058 16584
QIANFAN-129             
1 69075U 26104C   26252.90017109  .00000089  00000+0  11852-3 0  9990
2 69075  88.9916 332.7933 0002229 110.9052 249.2338 13.51021983 16611
QIANFAN-130             
1 69076U 26104D   26252.93721750  .00000091  00000+0  12232-3 0  9994
2 69076  88.9918 332.8551 0002582 102.8602 257.2838 13.51032635 16580
QIANFAN-131             
1 69077U 26104E   26252.95795218  .00000099  00000+0  13409-3 0  9992
2 69077  88.9911 332.8141 0002007 106.8421 253.2950 13.51024269 16602
QIANFAN-132             
1 69078U 26104F   26252.87136121  .00000094  00000+0  12695-3 0  9997
2 69078  88.9913 332.8794 0002427 104.1365 256.0056 13.51020383 16569
QIANFAN-133             
1 69079U 26104G   26252.95382485  .00000106  00000+0  14508-3 0  9992
2 69079  88.9917 332.8209 0001849 111.5064 248.6285 13.51029220 16593
QIANFAN-134             
1 69080U 26104H   26252.90852687  .00000085  00000+0  11251-3 0  9993
2 69080  88.9921 332.8514 0002041 113.3172 246.8194 13.51027532 16586
QIANFAN-135             
1 69081U 26104J   26252.88782005  .00000104  00000+0  14180-3 0  9993
2 69081  88.9915 332.8449 0002251 116.1349 244.0034 13.51020751 16586
QIANFAN-136             
1 69082U 26104K   26252.89615684  .00000092  00000+0  12320-3 0  9993
2 69082  88.9917 332.8469 0001901 111.9305 248.2048 13.51030640 16586
QIANFAN-137             
1 69083U 26104L   26252.89203356  .00000102  00000+0  13916-3 0  9997
2 69083  88.9926 332.7230 0002336 103.1805 256.9607 13.51030437 16652
QIANFAN-138             
1 69084U 26104M   26252.91661321  .00000079  00000+0  10311-3 0  9990
2 69084  88.9910 332.8453 0002432 111.3360 248.8051 13.51020144 16587
QIANFAN-139             
1 69085U 26104N   26252.90451248  .00000092  00000+0  12424-3 0  9997
2 69085  88.9913 332.8280 0002492 105.7846 254.3580 13.51028924 16595
QIANFAN-140             
1 69086U 26104P   26252.91252080  .00000102  00000+0  13946-3 0  9994
2 69086  88.9913 332.8307 0002352 115.8557 244.2837 13.51021214 16590
QIANFAN-141             
1 69087U 26104Q   26252.92082202  .00000102  00000+0  13944-3 0  9991
2 69087  88.9910 332.7945 0002163 114.1532 245.9845 13.51027283 16612
QIANFAN-142             
1 69088U 26104R   26252.92899149  .00000104  00000+0  14295-3 0  9990
2 69088  88.9909 332.7931 0002377 111.6541 248.4864 13.51029811 16613
QIANFAN-143             
1 69089U 26104S   26252.92498839  .00000101  00000+0  13724-3 0  9995
2 69089  88.9919 332.7991 0001957 105.5018 254.6350 13.51025851 16614
QIANFAN-144             
1 69090U 26104T   26252.93309651  .00000094  00000+0  12636-3 0  9993
2 69090  88.9918 332.8165 0002481 108.7634 251.3786 13.51030087 16604
QIANFAN-145             
1 69104U 26108A   26252.93742888  .00000056  00000+0  68301-4 0  9995
2 69104  89.0183  13.5817 0001662  95.9510 264.1830 13.51032719 15888
QIANFAN-146             
1 69105U 26108B   26252.89639543  .00000073  00000+0  94449-4 0  9995
2 69105  89.0185  13.4227 0002031  98.9165 261.2217 13.51038228 15973
QIANFAN-147             
1 69106U 26108C   26252.87174041  .00000060  00000+0  73970-4 0  9993
2 69106  89.0184  13.5925 0002074 103.6022 256.5360 13.51023287 15865
QIANFAN-148             
1 69107U 26108D   26252.93338849  .00000068  00000+0  87208-4 0  9996
2 69107  89.0178  13.5770 0001899 108.1062 252.0296 13.51022850 15870
QIANFAN-149             
1 69108U 26108E   26252.86748582  .00000059  00000+0  72955-4 0  9991
2 69108  89.0178  13.6048 0002179 111.1001 249.0383 13.51022328 15861
QIANFAN-150             
1 69109U 26108F   26252.94975018  .00000065  00000+0  81441-4 0  9994
2 69109  89.0183  13.5494 0002205 110.1428 249.9961 13.51022887 15898
QIANFAN-151             
1 69110U 26108G   26252.90468709  .00000066  00000+0  83991-4 0  9999
2 69110  89.0182  13.5776 0001842  99.8791 260.2568 13.51025964 15870
QIANFAN-152             
1 69111U 26108H   26252.95798784  .00000073  00000+0  94983-4 0  9995
2 69111  89.0179  13.5644 0002300 100.0825 260.0586 13.51027211 15891
QIANFAN-153             
1 69112U 26108J   26252.95385651  .00000064  00000+0  80630-4 0  9995
2 69112  89.0175  13.5416 0002194 105.6579 254.4814 13.51023174 15898
QIANFAN-154             
1 69113U 26108K   26252.88817319  .00000074  00000+0  96469-4 0  9997
2 69113  89.0185  13.5959 0002084 106.6623 253.4757 13.51025178 15870
QIANFAN-155             
1 69114U 26108L   26252.89215026  .00000076  00000+0  99779-4 0  9995
2 69114  89.0183  13.5603 0002209 107.7431 252.3961 13.51022066 15882
QIANFAN-156             
1 69115U 26108M   26252.91269169  .00000072  00000+0  92835-4 0  9998
2 69115  89.0198  13.5581 0001843 105.3862 254.7493 13.51021968 15908
QIANFAN-157             
1 69116U 26108N   26252.90055542  .00000070  00000+0  90477-4 0  9994
2 69116  89.0179  13.4845 0001953 111.0044 249.1316 13.51026668 15935
QIANFAN-158             
1 69117U 26108P   26252.91679797  .00000077  00000+0  10015-3 0  9996
2 69117  89.0181  13.5240 0001834 103.0358 257.0998 13.51033797 15919
QIANFAN-159             
1 69118U 26108Q   26252.90860851  .00000065  00000+0  82326-4 0  9991
2 69118  89.0172  13.5320 0001896 101.4456 258.6908 13.51021889 15904
QIANFAN-160             
1 69119U 26108R   26252.92520264  .00000075  00000+0  98345-4 0  9994
2 69119  89.0187  13.5663 0002317 109.1534 250.9868 13.51022098 15893
QIANFAN-161             
1 69120U 26108S   26252.92917746  .00000076  00000+0  99899-4 0  9997
2 69120  89.0195  13.4819 0001838 101.6887 258.4471 13.51037056 15940
QIANFAN-162             
1 69121U 26108T   26252.92094999  .00000076  00000+0  98550-4 0  9997
2 69121  89.0184  13.5090 0002185 100.5980 259.5418 13.51021360 15910
QIANFAN-163             
1 69325U 26121A   26252.66339974  .00000039  00000+0  41540-4 0  9990
2 69325  89.0117 292.1084 0002046 124.8318 235.3025 13.51022044 13576
QIANFAN-164             
1 69326U 26121B   26252.85267174  .00000064  00000+0  80454-4 0  9999
2 69326  89.0115 292.0800 0001848 111.3500 248.7849 13.51020958 13601
QIANFAN-165             
1 69382U 26124A   26252.93642152  .00000107  00000+0  14702-3 0  9996
2 69382  89.0072 353.0832 0001659 117.5449 242.5871 13.51020043 13486
QIANFAN-166             
1 69383U 26124B   26252.94057437  .00000110  00000+0  15186-3 0  9995
2 69383  89.0090 353.0918 0001860 100.6353 259.5007 13.51020543 13487
QIANFAN-167             
1 69384U 26124C   26252.87057340  .00000111  00000+0  15386-3 0  9994
2 69384  89.0064 353.1071 0002149 108.5179 251.6206 13.51029634 13466
QIANFAN-168             
1 69385U 26124D   26252.87454929  .00000018  00000+0  98258-5 0  9996
2 69385  89.0060 353.0870 0001638 100.5832 259.5504 13.51018168 13478
QIANFAN-169             
1 69386U 26124E   26252.95289361  .00000092  00000+0  12364-3 0  9996
2 69386  89.0059 353.0790 0001930  97.6410 262.4960 13.51021580 13483
QIANFAN-170             
1 69387U 26124F   26252.95697801  .00000089  00000+0  11978-3 0  9995
2 69387  89.0076 353.0491 0001919  95.1252 265.0118 13.51024035 13500
QIANFAN-171             
1 69388U 26124G   26252.89119467  .00000093  00000+0  12474-3 0  9993
2 69388  89.0091 353.0668 0002118 104.3198 255.8189 13.51017036 13494
QIANFAN-172             
1 69389U 26124H   26252.96110841  .00000097  00000+0  13219-3 0  9991
2 69389  89.0074 353.0513 0001628 112.3768 247.7556 13.51027633 13506
QIANFAN-173             
1 69390U 26124J   26252.89511532  .00000098  00000+0  13313-3 0  9993
2 69390  89.0063 353.0555 0001693  96.4380 263.6964 13.51020567 13493
QIANFAN-174             
1 69391U 26124K   26252.90756791  .00000104  00000+0  14192-3 0  9998
2 69391  89.0043 353.0138 0002132 110.5109 249.6271 13.51028398 13502
QIANFAN-175             
1 69392U 26124L   26252.91173620  .00000098  00000+0  13273-3 0  9995
2 69392  89.0095 353.0530 0001876  99.0678 261.0686 13.51018484 13505
QIANFAN-176             
1 69393U 26124M   26252.91583691  .00000093  00000+0  12541-3 0  9991
2 69393  89.0057 353.0364 0001884  99.2894 260.8471 13.51019295 13498
QIANFAN-177             
1 69394U 26124N   26252.92411519  .00000095  00000+0  12869-3 0  9997
2 69394  89.0067 353.0231 0002024 109.6608 250.4762 13.51028358 13510
QIANFAN-178             
1 69395U 26124P   26252.91991168  .00000092  00000+0  12416-3 0  9995
2 69395  89.0013 352.9848 0001908  98.8026 261.3341 13.51024290 13523
QIANFAN-179             
1 69396U 26124Q   26252.92823392  .00000118  00000+0  16336-3 0  9994
2 69396  89.0045 352.9989 0001910  98.2461 261.8907 13.51027962 13527
QIANFAN-180             
1 69397U 26124R   26252.93230154  .00000021  00000+0  13359-4 0  9990
2 69397  89.0051 353.0188 0001956  94.5826 265.5548 13.51019978 13511
QIANFAN-181             
1 69398U 26124S   26252.89938325  .00000101  00000+0  13857-3 0  9992
2 69398  89.0073 353.1133 0002132 106.9488 253.1897 13.51021839 13469
QIANFAN-182             
1 69399U 26124T   26252.90346412  .00000107  00000+0  14706-3 0  9995
2 69399  89.0048 353.0858 0001856 100.9194 259.2166 13.51026416 13467
QIANFAN-183             
1 69401U 26125A   26252.86402474  .00000046  00000+0  51830-4 0  9998
2 69401  88.9836 271.3953 0001887 100.9409 259.1954 13.51027274 13372
QIANFAN-184             
1 69402U 26125B   26252.94634042  .00000051  00000+0  59591-4 0  9994
2 69402  88.9887 271.4089 0001898  96.5129 263.6239 13.51028387 13384
QIANFAN-185             
1 69403U 26125C   26252.89697694  .00000051  00000+0  59854-4 0  9993
2 69403  88.9902 271.3523 0001807  97.5745 262.5612 13.51017446 13411
QIANFAN-186             
1 69404U 26125D   26252.94214676  .00000047  00000+0  53980-4 0  9994
2 69404  88.9890 271.4090 0001965  95.6945 264.4431 13.51008134 13384
QIANFAN-187             
1 69405U 26125E   26252.95031962  .00000036  00000+0  37153-4 0  9993
2 69405  88.9890 271.3909 0002047 100.9771 259.1610 13.51007180 13393
QIANFAN-188             
1 69406U 26125F   26252.95860570  .00000035  00000+0  36284-4 0  9992
2 69406  88.9888 271.3901 0001891 102.6880 257.4483 13.51029081 13392
QIANFAN-189             
1 69407U 26125G   26252.89270257  .00000045  00000+0  50455-4 0  9990
2 69407  88.9870 271.3932 0001844 108.3304 251.8048 13.51028330 13379
QIANFAN-190             
1 69408U 26125H   26252.88039573  .00000042  00000+0  46522-4 0  9991
2 69408  88.9872 271.3922 0001855  94.6910 265.4453 13.51033085 13388
QIANFAN-191             
1 69409U 26125J   26252.90514777  .00000049  00000+0  56841-4 0  9991
2 69409  88.9886 271.4003 0001857 101.6037 258.5322 13.51032752 13384
QIANFAN-192             
1 69410U 26125K   26252.96263687  .00000039  00000+0  41760-4 0  9993
2 69410  88.9892 271.3943 0001922 106.4565 253.6798 13.51029986 13396
QIANFAN-193             
1 69411U 26125L   26252.91342291  .00000040  00000+0  43199-4 0  9998
2 69411  88.9871 271.3778 0001765 101.0600 259.0750 13.51027271 13399
QIANFAN-194             
1 69412U 26125M   26252.90928503  .00000039  00000+0  41759-4 0  9992
2 69412  88.9903 271.3895 0001895 101.9057 258.2307 13.51025982 13380
QIANFAN-195             
1 69413U 26125N   26251.50877896 -.01881265  00000+0 -32921+1 0  9994
2 69413  88.9901 271.5171 0004216 278.0811  81.9860 13.47692169 13211
QIANFAN-196             
1 69414U 26125P   26252.92573626  .00000037  00000+0  38567-4 0  9999
2 69414  88.9909 271.3761 0001866  91.0408 269.0957 13.51035139 13406
QIANFAN-197             
1 69415U 26125Q   26252.85993685  .00000054  00000+0  64311-4 0  9998
2 69415  88.9884 271.3569 0001887  99.4700 260.6665 13.51023573 13395
QIANFAN-198             
1 69416U 26125R   26252.92164085  .00000042  00000+0  46304-4 0  9990
2 69416  88.9878 271.3638 0001878 102.6295 257.5066 13.51027913 13406
QIANFAN-199             
1 69417U 26125S   26252.92990193  .00000049  00000+0  57178-4 0  9996
2 69417  88.9882 271.3127 0002087 103.0537 257.0847 13.51025520 13439
QIANFAN-200             
1 69418U 26125T   26252.90104807  .00000050  00000+0  58368-4 0  9998
2 69418  88.9888 271.4006 0001842 105.2904 254.8451 13.51026032 13382
QIANFAN-201             
1 69800U 26153A   26252.87233612  .00000025  00000+0  73503-5 0  9998
2 69800  88.9980 352.6328 0006575  39.0877 321.0776 14.00501214  9567
QIANFAN-202             
1 69801U 26153B   26252.79342081  .00000058  00000+0  23398-4 0  9993
2 69801  88.9967 352.6250 0007480  20.4598 339.6886 14.13399257  9559
QIANFAN-203             
1 69802U 26153C   26252.85854134  .00000085  00000+0  39638-4 0  9992
2 69802  88.9978 352.6501 0007456  21.3467 338.8027 14.10881048  9558
QIANFAN-204             
1 69803U 26153D   26252.81437106 -.01948592  00000+0 -12177+1 0  9997
2 69803  88.9974 352.6433 0010191  50.4620 309.7462 14.08661172  9554
QIANFAN-205             
1 69804U 26153E   26252.82611634 -.01935874  00000+0 -12645+1 0  9998
2 69804  88.9974 352.6627 0009088   4.9790 355.1481 14.06189810  9542
QIANFAN-206             
1 69805U 26153F   26252.79721206  .00000056  00000+0  21605-4 0  9994
2 69805  88.9988 352.6222 0008384  24.0793 336.0784 14.15006513  9567
QIANFAN-207             
1 69806U 26153G   26252.83741633 -.01952862  00000+0 -12582+1 0  9990
2 69806  88.9973 352.6457 0008606  19.2604 340.8902 14.06988588  9551
QIANFAN-208             
1 69807U 26153H   26252.87547995 -.00000017  00000+0 -19722-4 0  9992
2 69807  88.9977 352.6330 0007536  51.1652 309.0201 14.03813092  9570
QIANFAN-209             
1 69808U 26153J   26252.85502940 -.01996693  00000+0 -12999+1 0  9992
2 69808  88.9974 352.6492 0007058  33.3934 326.7692 14.06505539  9556
QIANFAN-210             
1 69809U 26153K   26252.83140524 -.02005569  00000+0 -12880+1 0  9990
2 69809  88.9976 352.6463 0008761  41.3227 318.8617 14.07274965  9559
QIANFAN-211             
1 69810U 26153L   26252.96381525  .00000192  00000+0  92608-4 0  9997
2 69810  88.9980 352.6093 0007984  20.1533 339.9968 14.14536204  9587
QIANFAN-212             
1 69811U 26153M   26252.91774079  .00000077  00000+0  33420-4 0  9992
2 69811  88.9980 352.6206 0009309  21.2907 338.8665 14.13092813  9577
QIANFAN-213             
1 69812U 26153N   26252.78237413 -.02015419  00000+0 -12614+1 0  9992
2 69812  88.9972 352.6377 0011753  42.2638 317.9449 14.08703788  9558
QIANFAN-214             
1 69813U 26153P   26252.83573143 -.01999017  00000+0 -11638+1 0  9991
2 69813  88.9973 352.5897 0009940  37.5703 322.6175 14.12647185  9586
QIANFAN-215             
1 69814U 26153Q   26252.82976124 -.01939158  00000+0 -10237+1 0  9991
2 69814  88.9972 352.5506 0006526 345.7450  14.3553 14.17833133  9606
QIANFAN-216             
1 69815U 26153R   26252.93086995  .00000063  00000+0  23853-4 0  9995
2 69815  88.9979 352.5664 0007665  30.5599 329.6035 14.17519020  9600
QIANFAN-217             
1 69816U 26153S   26252.91027000  .00000060  00000+0  18822-4 0  9993
2 69816  88.9977 352.5062 0008209  30.8785 329.2890 14.26809377  9631
QIANFAN-218             
1 69817U 26153T   26252.62770294  .00000432  00000+0  17224-3 0  9999
2 69817  88.9981 352.5405 0007896  30.2971 329.8678 14.26852810  9595
QIANFAN-219             
1 69848U 26155A   26252.91288824  .00000023  00000+0  15251-4 0  9995
2 69848  89.0069  54.7705 0037905  39.7965 320.5959 13.57836513  9307
QIANFAN-220             
1 69849U 26155B   26252.94391173  .00000033  00000+0  25461-4 0  9996
2 69849  89.0078  54.7977 0035031  39.7793 320.5924 13.64380261  9298
QIANFAN-221             
1 69850U 26155C   26252.82503631  .00000043  00000+0  25074-4 0  9990
2 69850  89.0072  54.6138 0031990  46.5269 313.8554 13.87207664  9380
QIANFAN-222             
1 69851U 26155D   26252.94965962  .00000014  00000+0  28816-5 0  9999
2 69851  89.0074  54.8138 0035239  39.1933 321.1764 13.57843999  9289
QIANFAN-223             
1 69852U 26155E   26252.85829960 -.01974074  00000+0 -31694+1 0  9999
2 69852  89.0072  54.8203 0038372  44.7119 315.7116 13.52429662  9271
QIANFAN-224             
1 69853U 26155F   26252.81068549 -.02069755  00000+0 -30845+1 0  9993
2 69853  89.0044  54.7817 0035964  41.7935 318.5957 13.57368059  9280
QIANFAN-225             
1 69854U 26155G   26252.88092057  .00000033  00000+0  28555-4 0  9991
2 69854  89.0068  54.8191 0035413  38.1078 322.2571 13.57849400  9277
QIANFAN-226             
1 69855U 26155H   26252.96914177  .00000037  00000+0  34730-4 0  9993
2 69855  89.0066  54.7953 0036688  40.2763 320.1099 13.57849697  9293
QIANFAN-227             
1 69856U 26155J   26252.85759135 -.01976755  00000+0 -30553+1 0  9990
2 69856  89.0065  54.7994 0038794  46.7475 313.6905 13.54838234  9283
QIANFAN-228             
1 69857U 26155K   26252.92239480  .00000037  00000+0  33382-4 0  9990
2 69857  89.0072  54.7918 0036744  41.6923 318.7022 13.57843651  9292
QIANFAN-229             
1 69858U 26155L   26252.89911886  .00000032  00000+0  25953-4 0  9994
2 69858  89.0076  54.7702 0035909  39.1896 321.1850 13.59890328  9305
QIANFAN-230             
1 69859U 26155M   26252.78181598 -.01964279  00000+0 -29508+1 0  9993
2 69859  89.0066  54.8231 0036227  42.3778 318.0164 13.56647577  9263
QIANFAN-231             
1 69860U 26155N   26252.88306079  .00000032  00000+0  25553-4 0  9994
2 69860  89.0071  54.7679 0037990  38.3765 322.0083 13.60665104  9306
QIANFAN-232             
1 69861U 26155P   26252.86325947  .00000029  00000+0  23229-4 0  9992
2 69861  89.0068  54.7625 0026669  37.6925 322.6092 13.58223800  9301
QIANFAN-233             
1 69862U 26155Q   26252.85915542 -.02065752  00000+0 -30627+1 0  9992
2 69862  89.0067  54.7650 0036203  36.5488 323.8127 13.57680720  9305
QIANFAN-234             
1 69863U 26155R   26252.84255665 -.01970069  00000+0 -25079+1 0  9995
2 69863  89.0064  54.7256 0037011  43.8951 316.5140 13.66944987  9323
QIANFAN-235             
1 69864U 26155S   26252.91682153  .00000035  00000+0  15246-4 0  9993
2 69864  89.0076  54.5742 0031322  44.6154 315.7535 13.95898152  9411
QIANFAN-236             
1 69865U 26155T   26252.95774499  .00000032  00000+0  26957-4 0  9991
2 69865  89.0076  54.7796 0035163  39.3287 321.0413 13.58664213  9309
QIANFAN-237             
1 69866U 26155U   26252.95528841  .00000031  00000+0  24143-4 0  9994
2 69866  89.0075  54.7433 0037316  38.0202 322.3579 13.62826370  9319
QIANFAN-238             
1 69867U 26155V   26252.95193293  .00000023  00000+0  15506-4 0  9998
2 69867  89.0076  54.7598 0026456  36.2802 324.0140 13.57852537  9313
