IRIDIUM 106             
1 41917U 17003A   26252.16655058 -.00000116  00000+0 -48569-4 0  9991
2 41917  86.3930  53.4165 0001934  81.9391 278.2024 14.34216479505247
IRIDIUM 103             
1 41918U 17003B   26251.94455936  .00000185  00000+0  59027-4 0  9995
2 41918  86.3931  53.4080 0002344  92.2322 267.9142 14.34217323505234
IRIDIUM 109             
1 41919U 17003C   26251.95090295  .00000038  00000+0  63688-5 0  9996
2 41919  86.3932  53.4668 0002192  90.8948 269.2499 14.34218153505206
IRIDIUM 102             
1 41920U 17003D   26251.98896196  .00000040  00000+0  72277-5 0  9992
2 41920  86.3930  53.3726 0002093  90.4024 269.7412 14.34217579505291
IRIDIUM 105             
1 41921U 17003E   26252.29640353  .00000167  00000+0  52423-4 0  9990
2 41921  86.3999  21.6926 0002268  99.5503 260.5950 14.34218262507190
IRIDIUM 104             
1 41922U 17003F   26251.86212818  .00000040  00000+0  72750-5 0  9990
2 41922  86.3931  53.4695 0002380  96.1021 264.0446 14.34216440505267
IRIDIUM 114             
1 41923U 17003G   26251.86845182  .00000039  00000+0  68953-5 0  9995
2 41923  86.3931  53.4499 0002262  91.3513 268.7942 14.34217551505246
IRIDIUM 108             
1 41924U 17003H   26251.89673925  .00000091  00000+0  25308-4 0  9997
2 41924  86.3993  21.7444 0002112  95.0899 265.0538 14.34217230507107
IRIDIUM 112             
1 41925U 17003J   26251.99530620  .00000025  00000+0  19039-5 0  9995
2 41925  86.3927  53.2349 0002174  92.8751 267.2694 14.34217086505282
IRIDIUM 111             
1 41926U 17003K   26251.98261639 -.00000138  00000+0 -56269-4 0  9998
2 41926  86.3929  53.3130 0002071  89.9352 270.2081 14.34216394505267
IRIDIUM 113             
1 42803U 17039A   26252.10212028  .00000076  00000+0  20181-4 0  9998
2 42803  86.3932 287.1056 0002342  94.6099 265.5365 14.34218037483210
IRIDIUM 123             
1 42804U 17039B   26252.14359687 -.00000025  00000+0 -16053-4 0  9995
2 42804  86.3987 318.5627 0002212  91.2949 268.8500 14.34216774481982
IRIDIUM 120             
1 42805U 17039C   26252.30508258  .00000006  00000+0 -47690-5 0  9994
2 42805  86.3919 286.7917 0002062  89.9049 270.2384 14.34217619483230
IRIDIUM 115             
1 42806U 17039D   26252.28621602  .00000208  00000+0  55926-4 0  9994
2 42806  86.4458 286.9402 0002416  88.0368 272.1110 14.43279773486395
IRIDIUM 118             
1 42807U 17039E   26251.68692830  .00000154  00000+0  47853-4 0  9999
2 42807  86.3992 318.7515 0002227  95.9638 264.1812 14.34216709481917
IRIDIUM 117             
1 42808U 17039F   26252.19433670  .00000174  00000+0  55121-4 0  9991
2 42808  86.3990 318.4964 0002278  93.0223 267.1234 14.34217555482019
IRIDIUM 126             
1 42809U 17039G   26251.73132728  .00000162  00000+0  50623-4 0  9990
2 42809  86.3992 318.7423 0002357  95.0919 265.0546 14.34217049481927
IRIDIUM 124             
1 42810U 17039H   26252.01203341  .00000136  00000+0  34559-4 0  9995
2 42810  86.4430 255.2941 0002407  88.6992 271.4485 14.43281514487200
IRIDIUM 128             
1 42811U 17039J   26252.21044583  .00000101  00000+0  29045-4 0  9995
2 42811  86.4026 350.0362 0002140  92.9144 267.2297 14.34217370482022
IRIDIUM 121             
1 42812U 17039K   26252.16896501  .00000157  00000+0  48977-4 0  9991
2 42812  86.3992 318.5878 0002202  94.2821 265.8626 14.34217206481860
IRIDIUM 133             
1 42955U 17061A   26252.24215947  .00000144  00000+0  44365-4 0  9995
2 42955  86.4028 350.1427 0002188  93.6453 266.4993 14.34217722466824
IRIDIUM 100             
1 42956U 17061B   26252.23581575  .00000150  00000+0  46375-4 0  9998
2 42956  86.4026 350.0620 0002182  94.8170 265.3275 14.34217804466822
IRIDIUM 122             
1 42957U 17061C   26252.20410062  .00000169  00000+0  53276-4 0  9996
2 42957  86.4027 350.0758 0002260  93.7791 266.3663 14.34216886466821
IRIDIUM 129             
1 42958U 17061D   26252.02016789  .00000173  00000+0  54677-4 0  9996
2 42958  86.4028 350.2205 0002293  99.9498 260.1956 14.34217603466814
IRIDIUM 119             
1 42959U 17061E   26251.77915098  .00000158  00000+0  49526-4 0  9999
2 42959  86.4028 350.3172 0002284  94.9370 265.2086 14.34216691466796
IRIDIUM 107             
1 42960U 17061F   26252.21678986  .00000171  00000+0  53933-4 0  9995
2 42960  86.4029 350.1563 0002322  89.3202 270.8260 14.34217496466864
IRIDIUM 132             
1 42961U 17061G   26252.01382659  .00000170  00000+0  53672-4 0  9992
2 42961  86.4028 350.2199 0002200  94.9432 265.2015 14.34217704466837
IRIDIUM 136             
1 42962U 17061H   26251.97577046  .00000170  00000+0  53607-4 0  9991
2 42962  86.4028 350.2428 0002157  94.6242 265.5200 14.34217776466849
IRIDIUM 139             
1 42963U 17061J   26251.98211310  .00000168  00000+0  52997-4 0  9990
2 42963  86.4029 350.3035 0002192  93.5172 266.6274 14.34217243466858
IRIDIUM 125             
1 42964U 17061K   26252.24850438  .00000157  00000+0  48876-4 0  9990
2 42964  86.4031 350.2549 0002700  92.1582 267.9923 14.34217409466901
IRIDIUM 135             
1 43070U 17083A   26251.59471252  .00000179  00000+0  56692-4 0  9992
2 43070  86.3927 287.1492 0002253  92.9313 267.2141 14.34218713456106
IRIDIUM 138             
1 43071U 17083B   26252.10846276  .00000069  00000+0  17717-4 0  9996
2 43071  86.3938 286.6423 0002384  94.0534 266.0935 14.34218085456166
IRIDIUM 116             
1 43072U 17083C   26252.07674887  .00000140  00000+0  42950-4 0  9997
2 43072  86.3924 286.9324 0002087  87.4913 272.6522 14.34218568456196
IRIDIUM 130             
1 43073U 17083D   26252.04503721  .00000013  00000+0 -24298-5 0  9999
2 43073  86.3933 287.2291 0002133  87.0786 273.0654 14.34217486456133
IRIDIUM 151             
1 43074U 17083E   26252.08943466  .00000033  00000+0  48830-5 0  9997
2 43074  86.3927 286.9866 0002179  91.1397 269.0049 14.34217752456167
IRIDIUM 134             
1 43075U 17083F   26252.33679591  .00000062  00000+0  14923-4 0  9998
2 43075  86.3928 286.8925 0002266  90.8868 269.2588 14.34217932456160
IRIDIUM 137             
1 43076U 17083G   26252.07040611  .00000027  00000+0  24321-5 0  9990
2 43076  86.3929 287.0983 0001793  94.1690 265.9711 14.34217727456199
IRIDIUM 141             
1 43077U 17083H   26252.06406428  .00000153  00000+0  47614-4 0  9991
2 43077  86.3926 286.9269 0002288  93.6252 266.5206 14.34218504456190
IRIDIUM 153             
1 43078U 17083J   26252.29531374  .00000085  00000+0  23418-4 0  9996
2 43078  86.3908 255.2912 0002452  90.8692 269.2784 14.34217480457335
IRIDIUM 131             
1 43079U 17083K   26252.33045328  .00000163  00000+0  51263-4 0  9997
2 43079  86.3931 287.0071 0002261  94.1078 266.0376 14.34218525456167
IRIDIUM 144             
1 43249U 18030A   26251.53420584  .00000107  00000+0  31175-4 0  9999
2 43249  86.3907 255.5368 0002202  88.2137 271.9311 14.34217217442080
IRIDIUM 149             
1 43250U 18030B   26252.30800162 -.00000049  00000+0 -24478-4 0  9996
2 43250  86.3907 255.1790 0002269  90.7869 269.3586 14.34217019442210
IRIDIUM 157             
1 43251U 18030C   26252.25725858 -.00000217  00000+0 -84737-4 0  9990
2 43251  86.3909 255.2553 0002208  89.1653 270.9795 14.34216118442182
IRIDIUM 140             
1 43252U 18030D   26251.57860108  .00000134  00000+0  40824-4 0  9998
2 43252  86.3905 255.5518 0002328  89.3187 270.8275 14.34217858442140
IRIDIUM 145             
1 43253U 18030E   26252.26360198  .00000014  00000+0 -20723-5 0  9995
2 43253  86.3909 255.2372 0002025  84.2894 275.8532 14.34217279442174
IRIDIUM 146             
1 43254U 18030F   26251.54688636  .00000062  00000+0  15212-4 0  9994
2 43254  86.3907 255.5491 0002201  88.0670 272.0777 14.34217202442084
IRIDIUM 148             
1 43255U 18030G   26252.28263020  .00000106  00000+0  30628-4 0  9990
2 43255  86.3909 255.2855 0002229  91.6361 268.5090 14.34217790442221
IRIDIUM 142             
1 43256U 18030H   26252.25091573  .00000030  00000+0  35465-5 0  9991
2 43256  86.3905 255.1847 0002146  87.6953 272.4488 14.34217375442187
IRIDIUM 150             
1 43257U 18030J   26252.28897241 -.00000074  00000+0 -33663-4 0  9998
2 43257  86.3910 255.2879 0002170  87.5653 272.5791 14.34217023442215
IRIDIUM 143             
1 43258U 18030K   26251.50248835  .00000125  00000+0  37689-4 0  9999
2 43258  86.3912 255.7129 0002271  87.3969 272.7486 14.34218027442039
IRIDIUM 161             
1 43478U 18047C   26251.92064473  .00000058  00000+0  11291-4 0  9997
2 43478  86.4451  53.4284 0002219  96.1020 264.0434 14.43280379437215
IRIDIUM 152             
1 43479U 18047D   26252.17289697  .00000027  00000+0  27522-5 0  9994
2 43479  86.3927  53.1849 0002186  91.6480 268.4966 14.34217647434527
IRIDIUM 147             
1 43480U 18047E   26251.90016315  .00000045  00000+0  89307-5 0  9990
2 43480  86.3928  53.3057 0002054  88.6413 271.5018 14.34217808434486
IRIDIUM 110             
1 43481U 18047F   26251.97627771 -.00000170  00000+0 -67782-4 0  9995
2 43481  86.3930  53.3682 0002174  97.1529 262.9914 14.34216019434482
IRIDIUM 162             
1 43482U 18047G   26251.84501232  .00000058  00000+0  11119-4 0  9991
2 43482  86.4451  53.3502 0002189  89.6323 270.5128 14.43280354437193
IRIDIUM 160             
1 43569U 18061A   26251.85233944  .00000097  00000+0  27511-4 0  9992
2 43569  86.3995  21.8029 0002138  94.5088 265.6353 14.34216929425360
IRIDIUM 166             
1 43570U 18061B   26251.80793922  .00000049  00000+0  10509-4 0  9992
2 43570  86.3995  21.7709 0002088  92.6897 267.4538 14.34217566425382
IRIDIUM 158             
1 43571U 18061C   26252.12507379  .00000168  00000+0  53036-4 0  9992
2 43571  86.3995  21.6483 0002226  93.1271 267.0180 14.34217388425399
IRIDIUM 165             
1 43572U 18061D   26252.08067522  .00000174  00000+0  54989-4 0  9994
2 43572  86.3997  21.7148 0002101  91.5813 268.5624 14.34217492425415
IRIDIUM 155             
1 43573U 18061E   26251.83331385  .00000100  00000+0  28747-4 0  9990
2 43573  86.3991  21.6831 0002149  90.9951 269.1491 14.34217449425349
IRIDIUM 154             
1 43574U 18061F   26251.88405441  .00000171  00000+0  54013-4 0  9994
2 43574  86.3996  21.7998 0002051  91.7235 268.4196 14.34217561425402
IRIDIUM 163             
1 43575U 18061G   26251.93479551  .00000161  00000+0  50390-4 0  9997
2 43575  86.3993  21.6911 0002193  94.3005 265.8441 14.34217090425383
IRIDIUM 156             
1 43576U 18061H   26252.11872414  .00000158  00000+0  49396-4 0  9994
2 43576  86.3993  21.6218 0002181  90.3108 269.8338 14.34216957425404
IRIDIUM 164             
1 43577U 18061J   26251.89039740  .00000193  00000+0  61692-4 0  9998
2 43577  86.3995  21.7587 0002003  92.1350 268.0075 14.34217502425416
IRIDIUM 159             
1 43578U 18061K   26252.06798934  .00000160  00000+0  50173-4 0  9992
2 43578  86.3993  21.6197 0002208  95.1786 264.9662 14.34217797425406
IRIDIUM 180             
1 43922U 19002A   26252.13725738  .00000169  00000+0  53428-4 0  9996
2 43922  86.3991 318.5253 0002212  95.6276 264.5172 14.34218231401020
IRIDIUM 176             
1 43923U 19002B   26252.16706809  .00000479  00000+0  72041-4 0  9994
2 43923  86.6110 318.4448 0002395  93.9868 266.1623 14.72255561411605
IRIDIUM 168             
1 43924U 19002C   26251.71229559  .00000151  00000+0  46783-4 0  9998
2 43924  86.3998 318.7822 0002474  94.0784 266.0694 14.34217293400943
IRIDIUM 173             
1 43925U 19002D   26252.18799431  .00000157  00000+0  48869-4 0  9995
2 43925  86.3989 318.4691 0002274  94.3808 265.7648 14.34217340400996
IRIDIUM 169             
1 43926U 19002E   26252.20606207  .00000188  00000+0  55021-4 0  9999
2 43926  86.4283 350.0818 0002503  86.6524 273.4960 14.38608826402309
IRIDIUM 172             
1 43927U 19002F   26252.18165390  .00000151  00000+0  47003-4 0  9991
2 43927  86.3990 318.4801 0002262  95.5641 264.5813 14.34217137401006
IRIDIUM 175             
1 43928U 19002G   26252.00710818  .00000126  00000+0  31178-4 0  9992
2 43928  86.4460 255.4678 0001923 351.3226   8.7942 14.43644607411072
IRIDIUM 171             
1 43929U 19002H   26252.16262599  .00000154  00000+0  47755-4 0  9997
2 43929  86.4000 318.8036 0002199  92.7285 267.4163 14.34217769400995
IRIDIUM 170             
1 43930U 19002J   26252.17326334  .00000473  00000+0  71093-4 0  9994
2 43930  86.6110 318.4439 0002462  95.0402 265.1096 14.72252958411616
IRIDIUM 167             
1 43931U 19002K   26252.15627910  .00000138  00000+0  42058-4 0  9994
2 43931  86.3990 318.5137 0002179  88.5191 271.6254 14.34217237400999
IRIDIUM 181             
1 56726U 23068S   26251.85636051  .00000239  00000+0  64992-4 0  9992
2 56726  86.4531  21.8030 0002059  96.8036 263.3400 14.43310018174507
IRIDIUM 177             
1 56727U 23068T   26245.80301371  .00000536  00000+0  67333-4 0  9997
2 56727  86.1940 291.9483 0002598  93.8466 266.3052 14.80048058177842
IRIDIUM 174             
1 56728U 23068U   26252.16090489  .00000487  00000+0  73257-4 0  9997
2 56728  86.6119 318.6050 0002696  94.6677 265.4848 14.72253338178377
IRIDIUM 178             
1 56729U 23068V   26252.21510069  .00000728  00000+0  92826-4 0  9996
2 56729  86.6597 350.2681 0002428  94.0767 266.0732 14.80054565178792
IRIDIUM 179             
1 56730U 23068W   26252.27736978  .00000736  00000+0  93913-4 0  9990
2 56730  86.6835 359.4650 0002382  90.6645 269.4850 14.80042537178808
