QIANFAN-1               
1 60379U 24140A   26283.57283127  .00000027  00000+0  22246-4 0  9990
2 60379  88.9672 267.9308 0019543  65.5293 294.7894 13.51026731108106
QIANFAN-2               
1 60380U 24140B   26283.60172728  .00000024  00000+0  17861-4 0  9994
2 60380  88.9659 267.7264 0014243  42.2524 317.9722 13.51021102108164
QIANFAN-3               
1 60381U 24140C   26283.61008235  .00000028  00000+0  24495-4 0  9992
2 60381  88.9651 267.8352 0015687  52.8080 307.4500 13.51023846108078
QIANFAN-4               
1 60382U 24140D   26283.58529721  .00000023  00000+0  16600-4 0  9991
2 60382  88.9676 267.8115 0014553  44.3918 315.8397 13.51021366108195
QIANFAN-5               
1 60383U 24140E   26283.63441899  .00000023  00000+0  16804-4 0  9993
2 60383  88.9651 267.8568 0017141  62.4056 297.8833 13.51032246108060
QIANFAN-6               
1 60384U 24140F   26283.58112564  .00000031  00000+0  29667-4 0  9992
2 60384  88.9678 267.6908 0014815  49.5737 310.6704 13.51024712108254
QIANFAN-7               
1 60385U 24140G   26283.58921132  .00000242  00000+0  91518-4 0  9990
2 60385  88.9741 258.1832 0016977 121.1547 239.1315 14.27900111113466
QIANFAN-8               
1 60386U 24140H   26283.58945311  .00000027  00000+0  22369-4 0  9995
2 60386  88.9678 267.9309 0018306  50.4359 309.8406 13.51026646108105
QIANFAN-9               
1 60387U 24140J   26283.56475059  .00000020  00000+0  12683-4 0  9992
2 60387  88.9676 268.0027 0018001  50.3599 309.9137 13.51022543108081
QIANFAN-10              
1 60388U 24140K   26283.56884178  .00000019  00000+0  10964-4 0  9997
2 60388  88.9689 267.3819 0015828  30.2457 329.9604 13.51022615108217
QIANFAN-11              
1 60389U 24140L   26283.60597006  .00000018  00000+0  83575-5 0  9992
2 60389  88.9613 267.7373 0016022  50.6177 309.6390 13.51026685107875
QIANFAN-12              
1 60390U 24140M   26283.55244229  .00000033  00000+0  32395-4 0  9994
2 60390  88.9656 267.9176 0015038  58.3394 301.9222 13.51024402107996
QIANFAN-13              
1 60391U 24140N   26283.59766115  .00000030  00000+0  27001-4 0  9997
2 60391  88.9915 268.2101 0014898  60.2878 299.9753 13.51024588108024
QIANFAN-14              
1 60392U 24140P   26283.54836866  .00000024  00000+0  18785-4 0  9996
2 60392  88.9647 267.8883 0018583  59.8468 300.4521 13.51026331108022
QIANFAN-15              
1 60393U 24140Q   26283.63047771  .00000041  00000+0  45072-4 0  9994
2 60393  88.9670 267.9080 0014090  48.6431 311.5929 13.51029397108024
QIANFAN-16              
1 60394U 24140R   26283.61816664  .00000025  00000+0  19410-4 0  9997
2 60394  88.9673 268.0377 0016575  63.4705 296.8143 13.51025678107938
QIANFAN-17              
1 60395U 24140S   26283.61421249  .00000026  00000+0  21496-4 0  9997
2 60395  88.9683 268.1170 0016852  57.8147 302.4636 13.51026409108897
QIANFAN-18              
1 60396U 24140T   26283.59362483  .00000021  00000+0  13744-4 0  9991
2 60396  88.9678 267.6336 0015793  42.6231 317.6142 13.51026580108282
QIANFAN-19              
1 61552U 24185A   26283.59153666  .00000315  00000+0  15655-3 0  9994
2 61552  88.9892  43.3735 0008531  65.4974 294.7102 14.14543103112333
QIANFAN-20              
1 61553U 24185B   26283.58450999  .00000301  00000+0  16564-3 0  9998
2 61553  88.9886  43.9952 0007887 100.1463 260.0611 14.09087534111994
QIANFAN-21              
1 61554U 24185C   26283.60102546  .00000449  00000+0  19312-3 0  9991
2 61554  88.9812  41.6479 0012792  99.8774 260.3863 14.22949710112893
QIANFAN-22              
1 61555U 24185D   26283.62577566  .00000108  00000+0  81638-4 0  9995
2 61555  88.9866  46.1873 0007890 140.2680 219.9070 13.86435903110768
QIANFAN-23              
1 61556U 24185E   26283.63250752  .00000343  00000+0  16512-3 0  9991
2 61556  88.9884  43.0379 0009298  71.4118 288.8080 14.16563622112482
QIANFAN-24              
1 61557U 24185F   26283.62804534  .00000586  00000+0  24799-3 0  9999
2 61557  88.9871  41.9527 0010754  44.9208 315.2853 14.24175537112986
QIANFAN-25              
1 61558U 24185G   26283.61011608  .00000345  00000+0  20114-3 0  9991
2 61558  88.9882  44.0481 0014614 113.4347 246.8373 14.06146632111920
QIANFAN-26              
1 61559U 24185H   26283.62556472  .00000142  00000+0  12881-3 0  9993
2 61559  88.9872  47.1811 0006443 161.7192 198.4208 13.77951793110248
QIANFAN-27              
1 61560U 24185J   26283.58838580  .00000479  00000+0  18880-3 0  9991
2 61560  88.9881  41.5840 0007973  34.7207 325.4506 14.27620277113225
QIANFAN-28              
1 61561U 24185K   26283.60881105  .00000634  00000+0  24744-3 0  9995
2 61561  88.9900  41.5974 0007784  32.5535 327.6138 14.28509614113267
QIANFAN-29              
1 61562U 24185L   26283.60713462  .00000158  00000+0  22555-3 0  9995
2 61562  88.9840  50.1187 0008174 253.3549 106.6705 13.51101299108558
QIANFAN-30              
1 61563U 24185M   26283.58806472  .00000036  00000+0  37566-4 0  9991
2 61563  88.9860  49.7620 0006280 234.4745 125.5820 13.50079315108797
QIANFAN-31              
1 61564U 24185N   26283.62500630  .00000011  00000+0 -14442-5 0  9997
2 61564  88.9846  49.0815 0006158 213.7668 146.3096 13.58069333109131
QIANFAN-32              
1 61565U 24185P   26283.61375220  .00000149  00000+0  21261-3 0  9998
2 61565  88.9900  49.9810 0007743 275.0138  85.0129 13.50811510108792
QIANFAN-33              
1 61566U 24185Q   26283.59451750  .00000203  00000+0  13618-3 0  9997
2 61566  88.9870  45.1733 0009784 102.5879 257.6393 13.96764328111297
QIANFAN-34              
1 61567U 24185R   26283.60495299  .00000525  00000+0  33210-3 0  9993
2 61567  88.9846  44.3373 0008257 101.5961 258.6147 14.02537759111660
QIANFAN-35              
1 61568U 24185S   26283.59789324  .00000544  00000+0  21197-3 0  9999
2 61568  88.9880  41.4719 0006886  32.5194 327.6423 14.28377412113266
QIANFAN-36              
1 61569U 24185T   26283.62764375  .00000115  00000+0  14777-3 0  9993
2 61569  88.9836  49.5958 0004970 233.0723 126.9976 13.55651422108824
QIANFAN-37              
1 62238U 24232B   26283.57631659  .00000135  00000+0  19052-3 0  9995
2 62238  89.0168  11.0434 0001461  99.6945 260.4372 13.51034704139928
QIANFAN-38              
1 62239U 24232C   26283.60110933  .00000126  00000+0  17630-3 0  9997
2 62239  89.0175  10.9772 0015555  50.0042 310.2472 13.51032812139987
QIANFAN-39              
1 62240U 24232D   26283.54793889  .00000401  00000+0  16296-3 0  9992
2 62240  89.0143   2.9809 0017099 162.6317 197.5465 14.25575066144389
QIANFAN-40              
1 62241U 24232E   26283.55996810  .00000120  00000+0  16632-3 0  9995
2 62241  89.0201  10.6498 0014873  58.0388 302.2207 13.51033177140349
QIANFAN-41              
1 62242U 24232F   26283.56814650  .00000130  00000+0  18247-3 0  9993
2 62242  89.0173  10.9263 0014844  46.7181 313.5206 13.51034291140009
QIANFAN-42              
1 62243U 24232G   26283.59801900  .00000373  00000+0  15404-3 0  9992
2 62243  89.0141   3.0671 0015685 168.7457 191.4090 14.24661458144343
QIANFAN-43              
1 62244U 24232H   26283.49004094  .00000117  00000+0  16236-3 0  9991
2 62244  89.0177  11.0128 0016543  51.0634 309.1989 13.51021462108602
QIANFAN-44              
1 62245U 24232J   26283.62578704  .00000109  00000+0  14963-3 0  9997
2 62245  89.0175  10.8051 0014680  48.7775 311.4639 13.51033809140097
QIANFAN-45              
1 62246U 24232K   26283.59290729  .00000116  00000+0  16046-3 0  9994
2 62246  89.0179  10.9656 0015330  48.1927 312.0530 13.51032498140012
QIANFAN-46              
1 62247U 24232L   26283.61751642  .00000120  00000+0  16733-3 0  9992
2 62247  89.0175  11.0198 0015554  53.2386 307.0190 13.51033638139972
QIANFAN-47              
1 62248U 24232M   26283.54762381  .00000127  00000+0  17857-3 0  9992
2 62248  89.0171  10.9476 0015956  52.4476 307.8122 13.51033030139994
QIANFAN-48              
1 62249U 24232N   26283.58483530  .00000121  00000+0  16862-3 0  9992
2 62249  89.0175  10.9575 0018258  53.9972 306.2869 13.51027413140007
QIANFAN-49              
1 62250U 24232P   26283.57232367  .00000130  00000+0  18311-3 0  9994
2 62250  89.0174  10.9688 0015198  50.1118 310.1367 13.51021352108595
QIANFAN-50              
1 62251U 24232Q   26283.59694515  .00000125  00000+0  17431-3 0  9990
2 62251  89.0179  10.9910 0016875  50.5977 309.6666 13.51034012108625
QIANFAN-51              
1 62252U 24232R   26283.58054558  .00000125  00000+0  17469-3 0  9998
2 62252  89.0173  10.9680 0014489  55.2398 305.0115 13.51032883108614
QIANFAN-52              
1 62253U 24232S   26283.60928588  .00000133  00000+0  18662-3 0  9990
2 62253  89.0169  10.8269 0016265  46.9148 313.3362 13.51034967108707
QIANFAN-53              
1 62254U 24232T   26283.58883895  .00000118  00000+0  16427-3 0  9999
2 62254  89.0177  10.9563 0015188  48.5054 311.7398 13.51031579108664
QIANFAN-54              
1 62255U 24232U   26283.55584227  .00000117  00000+0  16329-3 0  9994
2 62255  89.0168  10.6113 0004104  95.2692 264.8928 13.51033467140162
QIANFAN-55              
1 62785U 25016A   26283.65612320  .00000051  00000+0  60118-4 0  9993
2 62785  88.9698  71.8572 0017161 190.2361 169.8443 13.51026047 87959
QIANFAN-56              
1 62786U 25016B   26283.59834075  .00000061  00000+0  75097-4 0  9993
2 62786  88.9673  71.6194 0015686 192.5654 167.5108 13.51021384 87997
QIANFAN-57              
1 62787U 25016C   26283.63135816  .00000058  00000+0  71734-4 0  9996
2 62787  88.9702  71.8633 0001767  74.7656 285.3691 13.51029063 87964
QIANFAN-58              
1 62788U 25016D   26283.60260278  .00000060  00000+0  73492-4 0  9991
2 62788  88.9673  71.6064 0013828 184.0157 176.0885 13.51028607 88000
QIANFAN-59              
1 62789U 25016E   26283.62715893  .00000056  00000+0  68665-4 0  9993
2 62789  88.9696  71.7485 0014082 187.8974 172.1958 13.51025948 88008
QIANFAN-60              
1 62790U 25016F   26283.58599807  .00000060  00000+0  74151-4 0  9997
2 62790  88.9678  71.6669 0015723 185.1236 174.9757 13.51022458 87984
QIANFAN-61              
1 62791U 25016G   26283.61893471  .00000051  00000+0  60371-4 0  9995
2 62791  88.9743  72.0303 0014711 184.1145 175.9887 13.51028961 88006
QIANFAN-62              
1 62792U 25016H   26283.62317889  .00000056  00000+0  67398-4 0  9992
2 62792  88.9691  71.7364 0016036 184.8735 175.2263 13.51028330 87994
QIANFAN-63              
1 62793U 25016J   26283.64785730  .00000046  00000+0  52277-4 0  9998
2 62793  88.9698  71.7058 0015942 190.2370 169.8459 13.51024224 88033
QIANFAN-64              
1 62794U 25016K   26283.61484482  .00000047  00000+0  53681-4 0  9997
2 62794  88.9685  71.6429 0014092 182.3493 177.7594 13.51028935 88024
QIANFAN-65              
1 62795U 25016L   26283.61068726  .00000050  00000+0  58718-4 0  9997
2 62795  88.9681  71.6586 0013902 183.9919 176.1124 13.51025037 88004
QIANFAN-66              
1 62796U 25016M   26283.56550736  .00000059  00000+0  72337-4 0  9991
2 62796  88.9701  71.6927 0015109 180.3109 179.8035 13.51021157 88044
QIANFAN-67              
1 62797U 25016N   26283.64364238  .00000053  00000+0  64048-4 0  9995
2 62797  88.9691  71.6805 0014889 186.9474 173.1473 13.51021416 88028
QIANFAN-68              
1 62798U 25016P   26283.63549485  .00000062  00000+0  78006-4 0  9993
2 62798  88.9694  71.7372 0015023 184.8664 175.2343 13.51023360 88008
QIANFAN-69              
1 62799U 25016Q   26283.65184837  .00000050  00000+0  58694-4 0  9990
2 62799  88.9674  71.5409 0015709 186.4892 173.6059 13.51022093 88040
QIANFAN-70              
1 62800U 25016R   26283.59435220  .00000068  00000+0  86513-4 0  9991
2 62800  88.9694  71.7480 0015588 176.9526 183.1723 13.51025654 87992
QIANFAN-71              
1 62801U 25016S   26283.59013938  .00000060  00000+0  73930-4 0  9991
2 62801  88.9688  71.7097 0015514 190.2201 169.8637 13.51028201 87994
QIANFAN-72              
1 62802U 25016T   26283.60668094  .00000055  00000+0  66164-4 0  9998
2 62802  88.9678  71.6920 0018558 198.5532 161.4945 13.51030105 87982
QIANFAN-73              
1 63159U 25046A   26283.63362341  .00000027  00000+0  23717-4 0  9992
2 63159  88.9622 288.6565 0014050 338.5171  21.5389 13.51026150 88175
QIANFAN-74              
1 63160U 25046B   26283.61734886  .00000009  00000+0 -49332-5 0  9992
2 63160  88.9623 288.5483 0001948  98.7209 261.4163 13.51018503 88230
QIANFAN-75              
1 63161U 25046C   26283.60478254  .00000099  00000+0  13429-3 0  9990
2 63161  88.9625 288.7875 0015296 341.8048  18.2554 13.51034235 88102
QIANFAN-76              
1 63162U 25046D   26283.60095312 -.00000043  00000+0 -84573-4 0  9991
2 63162  88.9625 288.7678 0012837 343.3951  16.6778 13.51017506 88115
QIANFAN-77              
1 63163U 25046E   26283.62283676  .00000095  00000+0  59323-4 0  9996
2 63163  88.9635 284.2828 0013521 210.8202 149.2182 13.96250665 90572
QIANFAN-78              
1 63164U 25046F   26283.56858699  .00000081  00000+0  10658-3 0  9995
2 63164  88.9623 288.6326 0014260 344.8818  15.1905 13.51014656 88180
QIANFAN-79              
1 63165U 25046G   26283.59667292  .00000009  00000+0 -47107-5 0  9998
2 63165  88.9627 288.7474 0013964 343.2943  16.7747 13.51021445 88132
QIANFAN-80              
1 63166U 25046H   26283.61307731  .00000084  00000+0  11160-3 0  9991
2 63166  88.9624 288.4444 0012980 349.1075  10.9794 13.51020322 88290
QIANFAN-81              
1 63167U 25046J   26283.59250700  .00000099  00000+0  13395-3 0  9990
2 63167  88.9624 288.5137 0013838 337.1831  22.8703 13.51024409 88248
QIANFAN-82              
1 63168U 25046K   26283.62551860  .00000070  00000+0  90480-4 0  9996
2 63168  88.9624 288.5547 0011965 345.5069  14.5737 13.51023284 88233
QIANFAN-83              
1 63169U 25046L   26283.63520331  .00000047  00000+0  44610-4 0  9995
2 63169  88.9627 287.7347 0012307 310.0829  49.9249 13.62066417 88695
QIANFAN-84              
1 63170U 25046M   26283.58031317 -.00000053  00000+0 -99770-4 0  9998
2 63170  88.9624 288.6922 0014802 340.3020  19.7558 13.51027806 88150
QIANFAN-85              
1 63171U 25046N   26283.57608666  .00000086  00000+0  11517-3 0  9991
2 63171  88.9623 288.5618 0012473 344.0069  16.0687 13.51023798 88224
QIANFAN-86              
1 63172U 25046P   26283.58427914  .00000084  00000+0  11218-3 0  9994
2 63172  88.9626 288.4302 0010508 350.2715   9.8231 13.51021928 88308
QIANFAN-87              
1 63173U 25046Q   26283.62955218  .00000013  00000+0  10975-5 0  9996
2 63173  88.9622 288.5261 0010859 343.8877  16.1927 13.51020575 88249
QIANFAN-88              
1 63174U 25046R   26283.57195994  .00000095  00000+0  12803-3 0  9998
2 63174  88.9624 288.4940 0011595 353.3059   6.7935 13.51022447 88267
QIANFAN-89              
1 63175U 25046S   26283.60897491  .00000093  00000+0  12528-3 0  9996
2 63175  88.9624 288.6789 0015731 340.0838  19.9697 13.51023086 88165
QIANFAN-90              
1 63176U 25046T   26283.56381119  .00000032  00000+0  31268-4 0  9993
2 63176  88.9625 288.6571 0012633 340.2720  19.7941 13.51020387 88178
QIANFAN-91              
1 66033U 25233A   26283.59607975  .00000112  00000+0  15507-3 0  9996
2 66033  89.0085  31.5378 0001641 106.8389 253.2943 13.51032798 48766
QIANFAN-92              
1 66034U 25233B   26283.60475693  .00000098  00000+0  13360-3 0  9997
2 66034  89.0069  31.4899 0002120  98.0913 262.0479 13.51030183 48762
QIANFAN-93              
1 66035U 25233C   26283.53865216  .00000091  00000+0  12237-3 0  9999
2 66035  89.0095  31.5794 0001614 104.6411 255.4919 13.51041905 48759
QIANFAN-94              
1 66036U 25233D   26283.60027860  .00000098  00000+0  13280-3 0  9999
2 66036  89.0093  31.4726 0001805 108.6406 251.4942 13.51031129 48818
QIANFAN-95              
1 66037U 25233E   26283.53446544  .00000095  00000+0  12876-3 0  9993
2 66037  89.0090  31.0203 0001640 111.7280 248.4046 13.51031043 49057
QIANFAN-96              
1 66038U 25233F   26283.55907079  .00000112  00000+0  15468-3 0  9991
2 66038  89.0088  31.5580 0001556 107.0653 253.0669 13.51032208 48759
QIANFAN-97              
1 66039U 25233G   26283.54255292  .00000092  00000+0  12423-3 0  9999
2 66039  89.0092  31.5475 0001631 104.4170 255.7162 13.51022936 48751
QIANFAN-98              
1 66040U 25233H   26283.55087445  .00000099  00000+0  13504-3 0  9993
2 66040  89.0081  31.2652 0002108 116.9354 243.2013 13.51032305 48902
QIANFAN-99              
1 66041U 25233J   26283.55492894  .00000105  00000+0  14478-3 0  9991
2 66041  89.0092  31.5511 0001920 118.2464 241.8881 13.51021808 48767
QIANFAN-100             
1 66042U 25233K   26283.25038879  .00000103  00000+0  14057-3 0  9999
2 66042  89.0102  31.5213 0001505 106.1370 253.9947 13.51022431 48771
QIANFAN-101             
1 66043U 25233L   26283.58757455  .00000182  00000+0  68841-4 0  9992
2 66043  89.0090  27.3451 0017227 121.9566 238.3306 14.26869002 51085
QIANFAN-102             
1 66044U 25233M   26283.56732753  .00000102  00000+0  13964-3 0  9992
2 66044  89.0089  31.4567 0001814 110.0430 250.0917 13.51031814 48817
QIANFAN-103             
1 66045U 25233N   26283.57147777  .00000097  00000+0  13088-3 0  9990
2 66045  89.0092  31.5547 0001645 104.9175 255.2159 13.51031845 48764
QIANFAN-104             
1 66046U 25233P   26283.57553523  .00000092  00000+0  12425-3 0  9990
2 66046  89.0097  31.4617 0001873 108.5022 251.6333 13.51029730 48811
QIANFAN-105             
1 66047U 25233Q   26283.58383993  .00000099  00000+0  13515-3 0  9992
2 66047  89.0110  31.3194 0001784 106.2920 253.8428 13.51033008 48924
QIANFAN-106             
1 66048U 25233R   26283.57960346  .00000094  00000+0  12768-3 0  9999
2 66048  89.0080  31.4964 0002014 115.8885 244.2474 13.51033319 48762
QIANFAN-107             
1 66049U 25233S   26283.58785843  .00000104  00000+0  14278-3 0  9998
2 66049  89.0094  31.5463 0001680 105.0804 255.0534 13.51032635 48771
QIANFAN-108             
1 66050U 25233T   26283.59203555  .00000102  00000+0  13991-3 0  9995
2 66050  89.0087  31.5254 0002019 114.1861 245.9501 13.51032345 48774
QIANFAN-109             
1 68636U 26075A   26283.53197744  .00000046  00000+0  53324-4 0  9990
2 68636  88.9828 309.2309 0001538  89.8639 270.2688 13.51022343 25363
QIANFAN-110             
1 68637U 26075B   26283.54013514  .00000049  00000+0  57134-4 0  9990
2 68637  88.9828 309.2516 0002067  92.5884 267.5504 13.51023139 25365
QIANFAN-111             
1 68638U 26075C   26283.52801943  .00000042  00000+0  46697-4 0  9995
2 68638  88.9827 309.2115 0002042  92.7933 267.3451 13.51025738 25388
QIANFAN-112             
1 68639U 26075D   26283.56495874  .00000043  00000+0  48335-4 0  9994
2 68639  88.9826 309.2153 0001668  83.0073 277.1268 13.51024948 25388
QIANFAN-113             
1 68640U 26075E   26283.53608110  .00000040  00000+0  43767-4 0  9993
2 68640  88.9831 309.2184 0002048  89.7566 270.3820 13.51011973 25386
QIANFAN-114             
1 68641U 26075F   26283.54427602  .00000051  00000+0  59767-4 0  9999
2 68641  88.9826 309.2312 0002036  92.7430 267.3955 13.51020179 25377
QIANFAN-115             
1 68642U 26075G   26283.57310674  .00000044  00000+0  49896-4 0  9997
2 68642  88.9827 309.2355 0001879  94.6986 265.4380 13.51025947 25376
QIANFAN-116             
1 68643U 26075H   26283.56072773  .00000039  00000+0  42145-4 0  9996
2 68643  88.9819 309.1887 0001816  83.8748 276.2610 13.51026356 25386
QIANFAN-117             
1 68644U 26075J   26283.54851142  .00000046  00000+0  52726-4 0  9994
2 68644  88.9824 309.2110 0001786  90.5232 269.6124 13.51024258 25387
QIANFAN-118             
1 68645U 26075K   26283.58132370  .00000048  00000+0  56047-4 0  9996
2 68645  88.9829 309.2212 0002158  92.0056 268.1343 13.51025951 25389
QIANFAN-119             
1 68646U 26075L   26283.48255678  .00000063  00000+0  78305-4 0  9991
2 68646  88.9829 309.2271 0001626  94.0500 266.0837 13.51022020 25378
QIANFAN-120             
1 68647U 26075M   26283.56900745  .00000038  00000+0  40374-4 0  9990
2 68647  88.9831 309.2050 0001576  96.0573 264.0758 13.51021665 25399
QIANFAN-121             
1 68648U 26075N   26283.59376488  .00000044  00000+0  48830-4 0  9997
2 68648  88.9828 309.2048 0002102  93.3017 266.8374 13.51025093 25395
QIANFAN-122             
1 68649U 26075P   26283.58542572  .00000051  00000+0  59597-4 0  9996
2 68649  88.9827 309.2025 0001715  89.5221 270.6127 13.51028819 25380
QIANFAN-123             
1 68650U 26075Q   26283.55251692  .00000050  00000+0  59464-4 0  9997
2 68650  88.9824 309.1921 0001491  87.1352 272.9969 13.51021573 25360
QIANFAN-124             
1 68651U 26075R   26283.57722969  .00000045  00000+0  51585-4 0  9990
2 68651  88.9827 309.2017 0001659  88.3077 271.8264 13.51028151 25392
QIANFAN-125             
1 68652U 26075S   26283.58964823  .00000059  00000+0  72832-4 0  9992
2 68652  88.9826 309.2023 0002103  92.4425 267.6967 13.51025351 25399
QIANFAN-126             
1 68653U 26075T   26283.59776091  .00000061  00000+0  75678-4 0  9996
2 68653  88.9830 309.1717 0001506  88.3218 271.8106 13.51021222 25412
QIANFAN-127             
1 69073U 26104A   26283.52902195  .00000085  00000+0  11360-3 0  9998
2 69073  88.9889 329.7105 0002345  91.4969 268.6451 13.51030426 20735
QIANFAN-128             
1 69074U 26104B   26283.53719873  .00000082  00000+0  10881-3 0  9993
2 69074  88.9867 329.7290 0002480 103.0352 257.1076 13.51025869 20712
QIANFAN-129             
1 69075U 26104C   26283.56181628  .00000087  00000+0  11674-3 0  9994
2 69075  88.9869 329.6613 0002380  98.8920 261.2500 13.51026021 20757
QIANFAN-130             
1 69076U 26104D   26283.59885882  .00000077  00000+0  10114-3 0  9998
2 69076  88.9871 329.7238 0002142  88.0152 272.1244 13.51024023 20722
QIANFAN-131             
1 69077U 26104E   26283.54548567  .00000081  00000+0  10684-3 0  9997
2 69077  88.9865 329.6884 0002207 103.2770 256.8627 13.51028126 20733
QIANFAN-132             
1 69078U 26104F   26283.53304186  .00000088  00000+0  11744-3 0  9999
2 69078  88.9867 329.7468 0002156  92.3738 267.7660 13.51024341 20700
QIANFAN-133             
1 69079U 26104G   26283.54131578  .00000090  00000+0  12080-3 0  9991
2 69079  88.9870 329.6968 0002384 106.9624 253.1788 13.51023000 20721
QIANFAN-134             
1 69080U 26104H   26283.57004710  .00000090  00000+0  12087-3 0  9990
2 69080  88.9875 329.7211 0002435 103.4436 256.6986 13.51031535 20720
QIANFAN-135             
1 69081U 26104J   26283.54949551  .00000076  00000+0  98672-4 0  9998
2 69081  88.9868 329.7126 0002595  99.2269 260.9176 13.51024673 20725
QIANFAN-136             
1 69082U 26104K   26283.48365302  .00000086  00000+0  11394-3 0  9994
2 69082  88.9871 329.7228 0002368 105.5052 254.6361 13.51021405 20717
QIANFAN-137             
1 69083U 26104L   26283.55368697  .00000076  00000+0  99208-4 0  9993
2 69083  88.9879 329.5942 0002098  95.3110 264.8281 13.51024274 20797
QIANFAN-138             
1 69084U 26104M   26283.57830028  .00000084  00000+0  11091-3 0  9990
2 69084  88.9864 329.7116 0002458  94.0907 266.0525 13.51024134 20720
QIANFAN-139             
1 69085U 26104N   26283.49193971  .00000075  00000+0  96741-4 0  9997
2 69085  88.9866 329.7027 0002251  91.1759 268.9650 13.51032702 20728
QIANFAN-140             
1 69086U 26104P   26283.57418299  .00000089  00000+0  11888-3 0  9993
2 69086  88.9867 329.6980 0002607  97.2247 262.9201 13.51025305 20739
QIANFAN-141             
1 69087U 26104Q   26283.58251443  .00000078  00000+0  10203-3 0  9999
2 69087  88.9863 329.6608 0002525 101.3319 258.8116 13.51023028 20750
QIANFAN-142             
1 69088U 26104R   26283.59066399  .00000075  00000+0  97484-4 0  9999
2 69088  88.9862 329.6589 0002464  95.2146 264.9286 13.51022182 20755
QIANFAN-143             
1 69089U 26104S   26283.58654896  .00000070  00000+0  90260-4 0  9994
2 69089  88.9873 329.6682 0002158 104.4776 255.6615 13.51029647 20750
QIANFAN-144             
1 69090U 26104T   26283.59476662  .00000070  00000+0  89851-4 0  9994
2 69090  88.9871 329.6851 0002380  91.9486 268.1937 13.51022945 20742
QIANFAN-145             
1 69104U 26108A   26283.59903472  .00000029  00000+0  26787-4 0  9991
2 69104  89.0204  10.5433 0001856 115.5076 244.6267 13.51022200 20027
QIANFAN-146             
1 69105U 26108B   26283.55789888  .00000137  00000+0  19287-3 0  9997
2 69105  89.0206  10.3849 0001875 104.3823 255.7537 13.51024019 20119
QIANFAN-147             
1 69106U 26108C   26283.60740353  .00000137  00000+0  19291-3 0  9993
2 69106  89.0206  10.5473 0002045 102.3406 257.7975 13.51029429 20017
QIANFAN-148             
1 69107U 26108D   26283.59499953  .00000132  00000+0  18581-3 0  9995
2 69107  89.0200  10.5372 0002204 107.3410 252.7983 13.51029095 20010
QIANFAN-149             
1 69108U 26108E   26283.60317123  .00000137  00000+0  19390-3 0  9990
2 69108  89.0199  10.5576 0002335 100.6584 259.4830 13.51028471 20019
QIANFAN-150             
1 69109U 26108F   26283.61140535  .00000137  00000+0  19437-3 0  9995
2 69109  89.0205  10.5111 0002315  99.5509 260.5904 13.51022295 20039
QIANFAN-151             
1 69110U 26108G   26283.56622720  .00000134  00000+0  18931-3 0  9997
2 69110  89.0204  10.5391 0001933 109.4585 250.6775 13.51032106 20016
QIANFAN-152             
1 69111U 26108H   26283.61962371  .00000133  00000+0  18756-3 0  9997
2 69111  89.0200  10.5248 0001931  95.7224 264.4147 13.51024924 20036
QIANFAN-153             
1 69112U 26108J   26283.61550150  .00000132  00000+0  18620-3 0  9995
2 69112  89.0197  10.5008 0002141  99.1137 261.0256 13.51026033 20038
QIANFAN-154             
1 69113U 26108K   26283.54973268  .00000124  00000+0  17327-3 0  9991
2 69113  89.0207  10.5584 0002170 102.2578 257.8817 13.51031260 20019
QIANFAN-155             
1 69114U 26108L   26283.55378180  .00000122  00000+0  17006-3 0  9997
2 69114  89.0204  10.5220 0002222  99.1383 261.0019 13.51027999 20026
QIANFAN-156             
1 69115U 26108M   26283.57437488  .00000142  00000+0  20213-3 0  9993
2 69115  89.0219  10.5243 0002109 108.8965 251.2415 13.51023821 20049
QIANFAN-157             
1 69116U 26108N   26283.56208047  .00000129  00000+0  18110-3 0  9998
2 69116  89.0200  10.4449 0002298 106.3520 253.7884 13.51032827 20072
QIANFAN-158             
1 69117U 26108P   26283.50437769  .00000139  00000+0  19614-3 0  9999
2 69117  89.0202  10.4923 0002038 108.9844 251.1528 13.51026119 20042
QIANFAN-159             
1 69118U 26108Q   26283.57023941  .00000138  00000+0  19587-3 0  9998
2 69118  89.0194  10.4903 0001976 107.5808 252.5560 13.51028175 20041
QIANFAN-160             
1 69119U 26108R   26283.58683089  .00000129  00000+0  18192-3 0  9996
2 69119  89.0209  10.5293 0002304  96.8754 263.2659 13.51028256 20035
QIANFAN-161             
1 69120U 26108S   26283.59081189  .00000126  00000+0  17612-3 0  9995
2 69120  89.0216  10.4471 0001997 108.9937 251.1431 13.51026552 20083
QIANFAN-162             
1 69121U 26108T   26283.58259579  .00000130  00000+0  18214-3 0  9999
2 69121  89.0205  10.4710 0001950  99.0177 261.1195 13.51027367 20053
QIANFAN-163             
1 69325U 26121A   26283.25103503  .00000012  00000+0  30397-6 0  9997
2 69325  89.0080 289.0480 0003020 100.3049 259.8443 13.51022140 17704
QIANFAN-164             
1 69326U 26121B   26283.29218521  .00000046  00000+0  52923-4 0  9993
2 69326  89.0077 289.0338 0002520 100.8941 259.2494 13.51022955 17718
QIANFAN-165             
1 69382U 26124A   26283.59809242  .00000111  00000+0  15253-3 0  9994
2 69382  89.0054 350.0043 0002488 113.9018 246.2394 13.51026017 17628
QIANFAN-166             
1 69383U 26124B   26283.60222933  .00000101  00000+0  13823-3 0  9993
2 69383  89.0073 350.0186 0001969 109.1501 250.9863 13.51026662 17624
QIANFAN-167             
1 69384U 26124C   26283.53208212  .00000109  00000+0  14969-3 0  9990
2 69384  89.0047 350.0257 0002244 101.3123 258.8280 13.51020073 17604
QIANFAN-168             
1 69385U 26124D   26283.53625977  .00000109  00000+0  15031-3 0  9993
2 69385  89.0043 350.0045 0002001 115.2685 244.8674 13.51024179 17618
QIANFAN-169             
1 69386U 26124E   26283.54046809  .00000099  00000+0  13471-3 0  9990
2 69386  89.0042 350.0036 0001864 107.0076 253.1280 13.51027282 17611
QIANFAN-170             
1 69387U 26124F   26283.54449692  .00000107  00000+0  14772-3 0  9993
2 69387  89.0060 349.9792 0001790 107.8884 252.2462 13.51029781 17631
QIANFAN-171             
1 69388U 26124G   26283.55275316  .00000121  00000+0  16888-3 0  9991
2 69388  89.0074 349.9939 0002097 101.3108 258.8279 13.51032809 17632
QIANFAN-172             
1 69389U 26124H   26283.54854893  .00000117  00000+0  16257-3 0  9999
2 69389  89.0057 349.9806 0002345 114.0508 246.0889 13.51033326 17639
QIANFAN-173             
1 69390U 26124J   26283.55679027  .00000041  00000+0  45565-4 0  9997
2 69390  89.0046 349.9740 0001925 114.6087 245.5265 13.51015193 17631
QIANFAN-174             
1 69391U 26124K   26283.56912635  .00000096  00000+0  12987-3 0  9995
2 69391  89.0026 349.9260 0002319 101.9123 258.2289 13.51021144 17646
QIANFAN-175             
1 69392U 26124L   26283.57337505  .00000099  00000+0  13515-3 0  9995
2 69392  89.0078 349.9815 0001918 108.9863 251.1496 13.51031256 17649
QIANFAN-176             
1 69393U 26124M   26283.57752648  .00000102  00000+0  13995-3 0  9992
2 69393  89.0040 349.9529 0001927 108.4996 251.6364 13.51024942 17635
QIANFAN-177             
1 69394U 26124N   26283.58559981  .00000106  00000+0  14479-3 0  9991
2 69394  89.0050 349.9427 0002279 104.2129 255.9276 13.51034034 17651
QIANFAN-178             
1 69395U 26124P   26283.58148795  .00000102  00000+0  13891-3 0  9992
2 69395  88.9995 349.8877 0001915 107.6130 252.5230 13.51029892 17661
QIANFAN-179             
1 69396U 26124Q   26283.58972763  .00000105  00000+0  14341-3 0  9997
2 69396  89.0028 349.9116 0001891 107.8579 252.2778 13.51033554 17664
QIANFAN-180             
1 69397U 26124R   26283.59397114  .00000105  00000+0  14342-3 0  9991
2 69397  89.0034 349.9335 0001759 106.8830 253.2514 13.51025701 17650
QIANFAN-181             
1 69398U 26124S   26283.56101184  .00000115  00000+0  15892-3 0  9991
2 69398  89.0057 350.0350 0002177 101.6992 258.4404 13.51027820 17607
QIANFAN-182             
1 69399U 26124T   26283.56498910  .00000102  00000+0  13930-3 0  9995
2 69399  89.0031 349.9997 0001979 109.2106 250.9259 13.51032347 17609
QIANFAN-183             
1 69401U 26125A   26283.59965316  .00000017  00000+0  73749-5 0  9993
2 69401  88.9839 268.2401 0002409  93.4947 266.6479 13.51028114 17522
QIANFAN-184             
1 69402U 26125B   26283.60787666  .00000031  00000+0  29209-4 0  9993
2 69402  88.9890 268.2771 0002264  92.6984 267.4426 13.51029754 17523
QIANFAN-185             
1 69403U 26125C   26283.63263714  .00000016  00000+0  62302-5 0  9995
2 69403  88.9905 268.2175 0002293  94.8542 265.2872 13.51029185 17568
QIANFAN-186             
1 69404U 26125D   26283.60387371  .00000011  00000+0 -12742-5 0  9998
2 69404  88.9892 268.2780 0002243  91.0633 269.0776 13.51028533 17528
QIANFAN-187             
1 69405U 26125E   26283.61210144  .00000023  00000+0  16466-4 0  9991
2 69405  88.9893 268.2599 0002436  89.7858 270.3572 13.51029265 17538
QIANFAN-188             
1 69406U 26125F   26283.62017362  .00000035  00000+0  35699-4 0  9992
2 69406  88.9891 268.2584 0002459  93.5040 266.6392 13.51018654 17530
QIANFAN-189             
1 69407U 26125G   26283.62846538  .00000021  00000+0  14149-4 0  9990
2 69407  88.9873 268.2486 0002636  95.3389 264.8063 13.51019574 17521
QIANFAN-190             
1 69408U 26125H   26283.61611453  .00000033  00000+0  33165-4 0  9998
2 69408  88.9875 268.2480 0002201  93.6911 266.4492 13.51019676 17536
QIANFAN-191             
1 69409U 26125J   26283.56670018  .00000022  00000+0  16190-4 0  9992
2 69409  88.9889 268.2680 0002432  93.9513 266.1916 13.51020255 17523
QIANFAN-192             
1 69410U 26125K   26283.62434861  .00000029  00000+0  25942-4 0  9997
2 69410  88.9895 268.2640 0002596  93.5824 266.5624 13.51020207 17538
QIANFAN-193             
1 69411U 26125L   26283.57499078  .00000024  00000+0  18988-4 0  9990
2 69411  88.9874 268.2408 0002404  96.1740 263.9685 13.51028153 17538
QIANFAN-194             
1 69412U 26125M   26283.57088435  .00000021  00000+0  13723-4 0  9991
2 69412  88.9906 268.2626 0002442  93.3440 266.7991 13.51026690 17529
QIANFAN-195             
1 69413U 26125N   26283.57918957  .00000028  00000+0  25287-4 0  9998
2 69413  88.9907 268.2470 0001995  89.8632 270.2748 13.51028484 17548
QIANFAN-196             
1 69414U 26125P   26283.58727263  .00000026  00000+0  20885-4 0  9995
2 69414  88.9912 268.2511 0002084  93.3176 266.8214 13.51020647 17546
QIANFAN-197             
1 69415U 26125Q   26283.59565161  .00000017  00000+0  72386-5 0  9998
2 69415  88.9887 268.2164 0002362  93.1402 267.0019 13.51024254 17545
QIANFAN-198             
1 69416U 26125R   26283.58319293  .00000028  00000+0  25041-4 0  9998
2 69416  88.9881 268.2290 0002459  93.7853 266.3580 13.51028806 17545
QIANFAN-199             
1 69417U 26125S   26283.59150812  .00000022  00000+0  15500-4 0  9993
2 69417  88.9885 268.1792 0002515  89.3029 270.8410 13.51026453 17576
QIANFAN-200             
1 69418U 26125T   26283.56264372  .00000021  00000+0  14561-4 0  9993
2 69418  88.9891 268.2691 0002546  94.9476 265.1966 13.51026990 17529
QIANFAN-201             
1 69800U 26153A   26282.81666152 -.01827159  00000+0 -17661+1 0  9990
2 69800  88.9958 349.3528 0002527 124.0480 236.0930 13.84197786 13743
QIANFAN-202             
1 69801U 26153B   26282.60707626 -.01862082  00000+0 -16874+1 0  9999
2 69801  88.9960 349.3224 0008652 276.8618  83.1569 13.88056428 13733
QIANFAN-203             
1 69802U 26153C   26282.80442454 -.01896569  00000+0 -16795+1 0  9996
2 69802  88.9959 349.3336 0008069 227.5750 132.4741 13.88805644 13752
QIANFAN-204             
1 69803U 26153D   26282.80465504 -.01854938  00000+0 -17257+1 0  9996
2 69803  88.9957 349.3341 0008682 206.1814 153.8920 13.86500080 13752
QIANFAN-205             
1 69804U 26153E   26282.56713384 -.01865904  00000+0 -17704+1 0  9994
2 69804  88.9957 349.3901 0002132 268.6512  91.4415 13.85385997 13705
QIANFAN-206             
1 69805U 26153F   26282.60688836 -.01896410  00000+0 -17146+1 0  9999
2 69805  88.9958 349.3221 0004346 306.6109  53.4662 13.87603961 13748
QIANFAN-207             
1 69806U 26153G   26282.85838099 -.01911259  00000+0 -18024+1 0  9990
2 69806  88.9961 349.3412 0021783 186.8078 173.2800 13.85059286 13751
QIANFAN-208             
1 69807U 26153H   26282.56340792 -.01856684  00000+0 -17723+1 0  9992
2 69807  88.9954 349.3704 0003725  62.4203 297.7345 13.85008387 13722
QIANFAN-209             
1 69808U 26153J   26282.75586955 -.01904608  00000+0 -18536+1 0  9990
2 69808  88.9960 349.3644 0003436 178.5425 181.5755 13.83292771 13733
QIANFAN-210             
1 69809U 26153K   26282.86792409 -.01854921  00000+0 -17886+1 0  9995
2 69809  88.9957 349.3437 0002796 255.3830 104.7031 13.84409631 13754
QIANFAN-211             
1 69810U 26153L   26283.59373178  .00000349  00000+0  17453-3 0  9993
2 69810  88.9963 349.1551 0005604 259.7446 100.3109 14.14552466 13915
QIANFAN-212             
1 69811U 26153M   26282.85184605 -.01907098  00000+0 -17104+1 0  9997
2 69811  88.9954 349.3020 0009415 258.8209 101.1905 13.88078769 13776
QIANFAN-213             
1 69812U 26153N   26282.83890991 -.01918380  00000+0 -17812+1 0  9990
2 69812  88.9961 349.3194 0012436 170.7527 189.3875 13.86058317 13767
QIANFAN-214             
1 69813U 26153P   26282.65092549 -.01841087  00000+0 -15240+1 0  9996
2 69813  88.9962 349.2737 0008825 174.9622 185.1643 13.93259862 13774
QIANFAN-215             
1 69814U 26153Q   26283.57351797  .00000387  00000+0  19220-3 0  9994
2 69814  88.9961 349.0752 0005430 272.0918  87.9647 14.15210593 13952
QIANFAN-216             
1 69815U 26153R   26282.66007059 -.01832840  00000+0 -15498+1 0  9993
2 69815  88.9958 349.2562 0004936 305.1476  54.9236 13.92025526 13780
QIANFAN-217             
1 69816U 26153S   26282.62723161 -.01854720  00000+0 -11543+1 0  9997
2 69816  88.9958 349.1192 0002401 182.8237 177.2934 14.08717259 13850
QIANFAN-218             
1 69817U 26153T   26282.77838506 -.01804213  00000+0 -11461+1 0  9995
2 69817  88.9959 349.1078 0001129 305.4474  54.6604 14.08135997 13874
QIANFAN-219             
1 69848U 26155A   26283.60354708  .00000080  00000+0  10518-3 0  9993
2 69848  89.0123  51.6890 0001683 112.5604 247.5726 13.51030942 13450
QIANFAN-220             
1 69849U 26155B   26283.62388689  .00000086  00000+0  11493-3 0  9990
2 69849  89.0130  51.7173 0033082 312.6730  47.1635 13.50936916 13442
QIANFAN-221             
1 69850U 26155C   26282.82790606  .00000025  00000+0  16348-4 0  9997
2 69850  89.0137  51.4934 0029066 320.3091  39.5941 13.64681355 13507
QIANFAN-222             
1 69851U 26155D   26283.64059538  .00000078  00000+0  10195-3 0  9992
2 69851  89.0130  51.7343 0001726 102.6168 257.5176 13.51026374 13431
QIANFAN-223             
1 69852U 26155E   26283.59525216  .00000073  00000+0  94891-4 0  9999
2 69852  89.0129  51.7467 0001806 102.9616 257.1737 13.51033025 13426
QIANFAN-224             
1 69853U 26155F   26283.64466814  .00000087  00000+0  11627-3 0  9994
2 69853  89.0113  51.6813 0001774 104.3561 255.7787 13.51029460 13453
QIANFAN-225             
1 69854U 26155G   26283.64875007  .00000088  00000+0  11737-3 0  9996
2 69854  89.0121  51.7299 0001770 105.6114 254.5233 13.51033157 13435
QIANFAN-226             
1 69855U 26155H   26283.57886948  .00000083  00000+0  11062-3 0  9991
2 69855  89.0123  51.7198 0001741 107.8725 252.2616 13.51034287 13431
QIANFAN-227             
1 69856U 26155J   26282.84233271 -.02123718  00000+0 -36118+1 0  9997
2 69856  89.0115  51.7957 0016061 308.8204  51.1512 13.49297760 13336
QIANFAN-228             
1 69857U 26155K   26283.58708147  .00000069  00000+0  88675-4 0  9997
2 69857  89.0128  51.7081 0007863 309.4647  50.5808 13.51027994 13443
QIANFAN-229             
1 69858U 26155L   26283.59938190  .00000073  00000+0  93952-4 0  9991
2 69858  89.0130  51.6914 0001780 102.7376 257.3974 13.51037409 13450
QIANFAN-230             
1 69859U 26155M   26283.63636205  .00000066  00000+0  82916-4 0  9999
2 69859  89.0126  51.7296 0001755 105.9021 254.2324 13.51035555 13437
QIANFAN-231             
1 69860U 26155N   26282.56905946 -.01767779  00000+0 -31148+1 0  9994
2 69860  89.0116  51.7779 0004985 240.1044 119.9610 13.46977478 13325
QIANFAN-232             
1 69861U 26155P   26283.58957212  .00000074  00000+0  96863-4 0  9995
2 69861  89.0119  51.6846 0024519 310.1333  49.7669 13.50454464 13455
QIANFAN-233             
1 69862U 26155Q   26283.61177947  .00000084  00000+0  11083-3 0  9990
2 69862  89.0125  51.6741 0001777 110.3700 249.7642 13.51036677 13463
QIANFAN-234             
1 69863U 26155R   26282.72627094 -.01799834  00000+0 -30540+1 0  9992
2 69863  89.0108  51.6898 0035344 312.9315  46.8871 13.49235269 13383
QIANFAN-235             
1 69864U 26155S   26282.87008946 -.02077757  00000+0 -23570+1 0  9997
2 69864  89.0130  51.3933 0028851 303.4404  56.4002 13.74305495 13565
QIANFAN-236             
1 69865U 26155T   26283.62003300  .00000087  00000+0  11568-3 0  9996
2 69865  89.0129  51.6963 0001861  95.3477 264.7886 13.51035923 13452
QIANFAN-237             
1 69866U 26155U   26283.62411017  .00000084  00000+0  11086-3 0  9997
2 69866  89.0129  51.6604 0001875  94.4508 265.6857 13.51037042 13468
QIANFAN-238             
1 69867U 26155V   26283.62823731  .00000078  00000+0  10267-3 0  9991
2 69867  89.0131  51.6787 0001855  94.9467 265.1896 13.51025643 13463
