GLOBALSTAR M069         
1 31573U 07020C   26269.48378668 -.00000097  00000+0 -38739-4 0  9994
2 31573  52.0053 325.4172 0001647   5.0154   8.1171 12.23474745891200
GLOBALSTAR M072         
1 31574U 07020D   26269.14306377 -.00000084  00000+0  13347-5 0  9990
2 31574  51.9922 191.4730 0001344 116.7653  20.9944 11.91659969887014
GLOBALSTAR M066         
1 32265U 07048C   26269.32192186 -.00000066  00000+0  24091-3 0  9995
2 32265  51.9555 127.5823 0003926 252.6132 279.2157 12.30390776872670
GLOBALSTAR M079         
1 37188U 10054A   26269.43694435 -.00000075  00000+0  15855-3 0  9999
2 37188  52.0023 160.4514 0000564  87.7685  83.6779 12.62262631735330
GLOBALSTAR M074         
1 37189U 10054B   26269.14521582 -.00000072  00000+0  17627-3 0  9996
2 37189  52.0006 160.5908 0000706  61.8390 102.2238 12.62263346735909
GLOBALSTAR M076         
1 37190U 10054C   26269.41081985 -.00000078  00000+0  14158-3 0  9998
2 37190  52.0016 159.9941 0000475  64.0042 107.6332 12.62263819735654
GLOBALSTAR M077         
1 37191U 10054D   26269.32693764 -.00000090  00000+0 -21523-3 0  9992
2 37191  51.9954 282.5898 0002790   5.9981 101.5353 11.67547511732950
GLOBALSTAR M075         
1 37192U 10054E   26269.17890473 -.00000100  00000+0  21522-4 0  9993
2 37192  51.9937 202.6961 0000663  69.6443  68.5337 12.62260695734691
GLOBALSTAR M073         
1 37193U 10054F   26269.34469279 -.00000072  00000+0  17669-3 0  9993
2 37193  52.0041 116.3686 0000591  91.6333  79.3335 12.62268334736708
GLOBALSTAR M083         
1 37739U 11033A   26269.40415545 -.00000096  00000+0  45997-4 0  9993
2 37739  51.9867  64.2773 0000448 118.4627 262.4715 12.62269289705737
GLOBALSTAR M088         
1 37740U 11033B   26269.47487590 -.00000077  00000+0  15096-3 0  9996
2 37740  52.0238 330.7361 0000439 100.7689   2.3999 12.62270503701281
GLOBALSTAR M091         
1 37741U 11033C   26269.38943999 -.00000087  00000+0  91478-4 0  9997
2 37741  51.9992 293.8139 0000400 113.6248 260.6382 12.62265047702060
GLOBALSTAR M085         
1 37742U 11033D   26269.40941958 -.00000112  00000+0 -48490-4 0  9990
2 37742  52.0113 245.1323 0000389  95.7673  69.2114 12.62265410702577
GLOBALSTAR M081         
1 37743U 11033E   26269.26387653 -.00000110  00000+0 -37226-4 0  9994
2 37743  51.9945 247.8954 0000286  61.7544  41.9061 12.62266550702703
GLOBALSTAR M089         
1 37744U 11033F   26269.55569069 -.00000103  00000+0  27324-5 0  9990
2 37744  51.9921 201.1461 0000718  43.2187 128.0780 12.62263800703589
GLOBALSTAR M084         
1 38040U 11080A   26269.62779780 -.00000109  00000+0 -30931-4 0  9997
2 38040  52.0006  68.4585 0000569  79.3720 359.8210 12.62264182681573
GLOBALSTAR M080         
1 38041U 11080B   26269.22389528 -.00000104  00000+0 -19232-5 0  9998
2 38041  52.0057  71.4450 0001158 102.6861  68.1830 12.62268663681640
GLOBALSTAR M082         
1 38042U 11080C   26269.60006958 -.00000120  00000+0 -91892-4 0  9993
2 38042  52.0097  25.8086 0000772 123.4458 249.4892 12.62262681682408
GLOBALSTAR M092         
1 38043U 11080D   26268.96945694 -.00000068  00000+0  19933-3 0  9996
2 38043  52.0065 118.1323 0000812  82.9176  62.5674 12.62266310680778
GLOBALSTAR M090         
1 38044U 11080E   26269.62690063 -.00000115  00000+0 -64252-4 0  9997
2 38044  52.0145  19.7150 0000680 130.4988 243.6520 12.62267998682525
GLOBALSTAR M086         
1 38045U 11080F   26269.50317803 -.00000107  00000+0 -17784-4 0  9992
2 38045  51.9921  19.8535 0000541 260.3930 180.5063 12.62289299682451
GLOBALSTAR M097         
1 39072U 13005A   26269.35986653 -.00000087  00000+0  95770-4 0  9997
2 39072  52.0045 295.3560 0000326 117.4673 242.6227 12.62271510629682
GLOBALSTAR M093         
1 39073U 13005B   26269.33338243 -.00000089  00000+0  84395-4 0  9995
2 39073  52.0101 288.8252 0000307 151.7712 208.3171 12.62267375629631
GLOBALSTAR M094         
1 39074U 13005C   26269.49168705 -.00000110  00000+0 -34471-4 0  9993
2 39074  51.9948 202.3576 0000406  80.0758 280.0154 12.62264760631268
GLOBALSTAR M096         
1 39075U 13005D   26269.34663083 -.00000114  00000+0 -59711-4 0  9995
2 39075  52.0059 251.6792 0000409  97.5389 262.5524 12.62264591630163
GLOBALSTAR M078         
1 39076U 13005E   26269.55775179 -.00000030  00000+0  41238-3 0  9999
2 39076  51.9892 334.9115 0001402 121.7452 238.3551 12.62259596628815
GLOBALSTAR M095         
1 39077U 13005F   26269.34670458 -.00000087  00000+0  94941-4 0  9993
2 39077  52.0105 333.3000 0000747 135.9738 224.1189 12.62264556628649
GLOBALSTAR M087         
1 52888U 22064A   26269.28065301 -.00000083  00000+0  11624-3 0  9993
2 52888  51.9976 114.6800 0000791 102.4942 257.6014 12.62263204203906
