QIANFAN-1               
1 60379U 24140A   26270.24170755  .00000022  00000+0  15256-4 0  9990
2 60379  88.9663 269.3219 0019650 100.2742 260.0626 13.51026216106305
QIANFAN-2               
1 60380U 24140B   26270.27055582  .00000013  00000+0  65685-6 0  9998
2 60380  88.9650 269.1192 0014845  76.2813 283.9989 13.51020604106360
QIANFAN-3               
1 60381U 24140C   26270.27893505  .00000020  00000+0  12552-4 0  9995
2 60381  88.9643 269.2290 0016088  86.8854 273.4138 13.51023351106278
QIANFAN-4               
1 60382U 24140D   26270.25412931  .00000018  00000+0  94645-5 0  9995
2 60382  88.9667 269.2019 0015124  78.4276 281.8573 13.51021178106393
QIANFAN-5               
1 60383U 24140E   26270.30335028  .00000019  00000+0  11151-4 0  9994
2 60383  88.9642 269.2507 0017317  96.6693 263.6429 13.51031673106265
QIANFAN-6               
1 60384U 24140F   26270.24998805  .00000024  00000+0  17915-4 0  9996
2 60384  88.9669 269.0809 0015280  83.5125 276.7765 13.51024324106454
QIANFAN-7               
1 60385U 24140G   26270.27439219  .00000158  00000+0  57906-4 0  9991
2 60385  88.9725 259.7533 0015496 161.6846 198.4910 14.27895533111567
QIANFAN-8               
1 60386U 24140H   26270.25833625  .00000019  00000+0  10427-4 0  9992
2 60386  88.9670 269.3210 0018748  85.1883 275.1409 13.51026285106308
QIANFAN-9               
1 60387U 24140J   26270.23359242  .00000012  00000+0 -71033-6 0  9995
2 60387  88.9668 269.3931 0018437  85.0759 275.2496 13.51022041106282
QIANFAN-10              
1 60388U 24140K   26270.23769101  .00000025  00000+0  19353-4 0  9993
2 60388  88.9680 268.7705 0016669  65.2806 295.0078 13.51022206106411
QIANFAN-11              
1 60389U 24140L   26270.12672959  .00000023  00000+0  16723-4 0  9992
2 60389  88.9606 269.1522 0016430  84.9999 275.3027 13.51024573106053
QIANFAN-12              
1 60390U 24140M   26270.29535980  .00000027  00000+0  22505-4 0  9993
2 60390  88.9647 269.3031 0015307  91.8950 268.3955 13.51023962106203
QIANFAN-13              
1 60391U 24140N   26270.26651685  .00000016  00000+0  66841-5 0  9992
2 60391  88.9907 269.5683 0015126  93.9752 266.3129 13.51024060106223
QIANFAN-14              
1 60392U 24140P   26270.29130670  .00000016  00000+0  64644-5 0  9991
2 60392  88.9638 269.2750 0018815  94.2614 266.0688 13.51026060106236
QIANFAN-15              
1 60393U 24140Q   26270.29938389  .00000030  00000+0  27830-4 0  9996
2 60393  88.9662 269.2993 0014563  82.3770 277.9034 13.51028601106228
QIANFAN-16              
1 60394U 24140R   26270.28703427  .00000025  00000+0  19956-4 0  9993
2 60394  88.9664 269.4286 0016731  97.5608 262.7444 13.51025443106133
QIANFAN-17              
1 60395U 24140S   26270.28307896  .00000021  00000+0  13887-4 0  9997
2 60395  88.9675 269.5065 0017132  92.0851 268.2262 13.51021834107093
QIANFAN-18              
1 60396U 24140T   26269.81813907  .00000044  00000+0  49437-4 0  9995
2 60396  88.9670 269.0701 0016408  78.2006 282.0985 13.51021269106428
QIANFAN-19              
1 61552U 24185A   26270.22184905  .00000323  00000+0  16093-3 0  9996
2 61552  88.9870  44.8947 0009021  97.8793 262.3418 14.14535875110441
QIANFAN-20              
1 61553U 24185B   26270.30511952  .00000449  00000+0  25108-3 0  9998
2 61553  88.9864  45.4936 0007133 131.4767 228.7031 14.09079019110127
QIANFAN-21              
1 61554U 24185C   26270.23991002  .00000455  00000+0  19577-3 0  9999
2 61554  88.9790  43.2015 0012199 136.0431 224.1733 14.22939411110997
QIANFAN-22              
1 61555U 24185D   26270.27396556  .00000075  00000+0  53314-4 0  9993
2 61555  88.9843  47.6409 0006580 175.2108 184.9127 13.86431876108915
QIANFAN-23              
1 61556U 24185E   26270.21123387  .00000262  00000+0  12423-3 0  9991
2 61556  88.9862  44.5713 0009548 104.5057 255.7191 14.16556666110589
QIANFAN-24              
1 61557U 24185F   26270.20816548  .00000467  00000+0  19632-3 0  9995
2 61557  88.9848  43.5072 0011668  81.1916 279.0597 14.24163703111070
QIANFAN-25              
1 61558U 24185G   26270.30295753  .00000428  00000+0  25177-3 0  9994
2 61558  88.9858  45.5433 0013687 151.0795 209.1148 14.06137079110050
QIANFAN-26              
1 61559U 24185H   26270.26422858  .00000134  00000+0  12051-3 0  9999
2 61559  88.9848  48.6143 0004998 199.9947 160.1024 13.77947378108400
QIANFAN-27              
1 61560U 24185J   26270.27095962  .00000445  00000+0  17467-3 0  9995
2 61560  88.9859  43.1337 0009214  70.1910 290.0277 14.27610276111323
QIANFAN-28              
1 61561U 24185K   26270.22960840  .00000605  00000+0  23595-3 0  9994
2 61561  88.9877  43.1538 0009094  68.3785 291.8378 14.28496353111355
QIANFAN-29              
1 61562U 24185L   26270.27672505  .00000146  00000+0  20763-3 0  9992
2 61562  88.9816  51.4888 0008163 301.0146  59.0203 13.51096745106758
QIANFAN-30              
1 61563U 24185M   26270.24758658  .00000116  00000+0  16340-3 0  9997
2 61563  88.9836  51.1279 0005800 284.5987  75.4521 13.50077960106993
QIANFAN-31              
1 61564U 24185N   26270.21559329  .00000144  00000+0  18299-3 0  9995
2 61564  88.9822  50.4755 0005273 263.3579  96.6976 13.58067601107311
QIANFAN-32              
1 61565U 24185P   26270.20641753  .00000116  00000+0  16234-3 0  9994
2 61565  88.9876  51.3502 0008247 322.3809  37.6764 13.50807761106980
QIANFAN-33              
1 61566U 24185Q   26270.26970882  .00000279  00000+0  19128-3 0  9994
2 61566  88.9846  46.6487 0009153 135.5172 224.6741 13.96757674109434
QIANFAN-34              
1 61567U 24185R   26270.26358081  .00000341  00000+0  21290-3 0  9999
2 61567  88.9826  45.8321 0007127 133.2486 226.9290 14.02527331109799
QIANFAN-35              
1 61568U 24185S   26270.21745990  .00000526  00000+0  20469-3 0  9996
2 61568  88.9858  43.0311 0008188  67.3910 292.8150 14.28365595111353
QIANFAN-36              
1 61569U 24185T   26270.26813605  .00000081  00000+0  99800-4 0  9993
2 61569  88.9812  50.9801 0004527 287.2635  72.8023 13.55648478107011
QIANFAN-37              
1 62238U 24232B   26270.24525671  .00000109  00000+0  15017-3 0  9999
2 62238  89.0164  12.3686 0001726  89.0169 271.1180 13.51031981138123
QIANFAN-38              
1 62239U 24232C   26270.27004087  .00000104  00000+0  14238-3 0  9995
2 62239  89.0170  12.3015 0016369  84.6870 275.6149 13.51030177138182
QIANFAN-39              
1 62240U 24232D   26270.28159161  .00000367  00000+0  14882-3 0  9998
2 62240  89.0145   4.4787 0015354 205.4174 154.6266 14.25566633142495
QIANFAN-40              
1 62241U 24232E   26270.30296112  .00000082  00000+0  10769-3 0  9994
2 62241  89.0198  11.9632 0015556  91.8188 268.4745 13.51030378138550
QIANFAN-41              
1 62242U 24232F   26270.31115474  .00000110  00000+0  15222-3 0  9998
2 62242  89.0169  12.2435 0015713  81.2062 279.0868 13.51031602138211
QIANFAN-42              
1 62243U 24232G   26270.25293919  .00000344  00000+0  14174-3 0  9997
2 62243  89.0143   4.5717 0013921 212.4895 147.5442 14.24653423142441
QIANFAN-43              
1 62244U 24232H   26270.30705045  .00000109  00000+0  14949-3 0  9991
2 62244  89.0173  12.3220 0017333  85.5733 274.7398 13.51031070106824
QIANFAN-44              
1 62245U 24232J   26270.22066743  .00000096  00000+0  13011-3 0  9992
2 62245  89.0171  12.1366 0015520  83.4930 276.7988 13.51031284138283
QIANFAN-45              
1 62246U 24232K   26270.26183697  .00000092  00000+0  12413-3 0  9996
2 62246  89.0175  12.2893 0016176  82.9215 277.3775 13.51029985138211
QIANFAN-46              
1 62247U 24232L   26270.28645520  .00000103  00000+0  14054-3 0  9993
2 62247  89.0171  12.3441 0016301  87.7269 272.5749 13.51031111138177
QIANFAN-47              
1 62248U 24232M   26270.29061791  .00000106  00000+0  14479-3 0  9991
2 62248  89.0167  12.2650 0016713  86.8874 273.4189 13.51030402138207
QIANFAN-48              
1 62249U 24232N   26270.25371294  .00000102  00000+0  13842-3 0  9999
2 62249  89.0171  12.2818 0018994  89.0489 271.2838 13.51024730138203
QIANFAN-49              
1 62250U 24232P   26270.24123541  .00000110  00000+0  15116-3 0  9995
2 62250  89.0170  12.2932 0016011  84.7118 275.5860 13.51031806106793
QIANFAN-50              
1 62251U 24232Q   26270.26588884  .00000094  00000+0  12647-3 0  9990
2 62251  89.0175  12.3146 0017681  85.5586 274.7585 13.51031317106825
QIANFAN-51              
1 62252U 24232R   26270.24947545  .00000104  00000+0  14158-3 0  9993
2 62252  89.0169  12.2924 0015204  89.3823 270.9070 13.51030286106817
QIANFAN-52              
1 62253U 24232S   26270.27824018  .00000105  00000+0  14303-3 0  9999
2 62253  89.0165  12.1519 0017131  81.8919 278.4175 13.51032292106905
QIANFAN-53              
1 62254U 24232T   26270.18369729  .00000094  00000+0  12650-3 0  9993
2 62254  89.0173  12.2876 0016029  83.3788 276.9187 13.51029006106857
QIANFAN-54              
1 62255U 24232U   26270.29883087  .00000099  00000+0  13472-3 0  9992
2 62255  89.0164  11.9292 0004087 114.7703 245.3874 13.51030896138377
QIANFAN-55              
1 62785U 25016A   26270.25090367  .00000021  00000+0  13357-4 0  9996
2 62785  88.9679  73.2530 0015958 230.7625 129.2110 13.51025278 86149
QIANFAN-56              
1 62786U 25016B   26269.89686509  .00000047  00000+0  53519-4 0  9996
2 62786  88.9653  73.0497 0014495 234.4004 125.5798 13.51028628 86142
QIANFAN-57              
1 62787U 25016C   26270.22619144  .00000038  00000+0  39547-4 0  9992
2 62787  88.9684  73.2585 0002253  78.3039 281.8365 13.51028280 86150
QIANFAN-58              
1 62788U 25016D   26270.27147321  .00000024  00000+0  19248-4 0  9992
2 62788  88.9655  72.9978 0012582 224.1432 135.8715 13.51027746 86204
QIANFAN-59              
1 62789U 25016E   26270.22194158  .00000032  00000+0  31645-4 0  9992
2 62789  88.9677  73.1445 0012867 228.6278 131.3768 13.51025073 86192
QIANFAN-60              
1 62790U 25016F   26270.25484367  .00000040  00000+0  43327-4 0  9990
2 62790  88.9659  73.0577 0014485 225.1715 134.8260 13.51028623 86183
QIANFAN-61              
1 62791U 25016G   26270.28780741  .00000030  00000+0  28388-4 0  9998
2 62791  88.9725  73.4122 0013468 224.2202 135.7874 13.51028111 86205
QIANFAN-62              
1 62792U 25016H   26270.21798195  .00000029  00000+0  25986-4 0  9993
2 62792  88.9672  73.1332 0014795 225.0966 134.8985 13.51027484 86189
QIANFAN-63              
1 62793U 25016J   26270.24262106  .00000022  00000+0  16210-4 0  9998
2 62793  88.9679  73.1016 0014744 230.8910 129.0931 13.51023454 86228
QIANFAN-64              
1 62794U 25016K   26270.28371802  .00000025  00000+0  19888-4 0  9994
2 62794  88.9666  73.0328 0012841 222.3170 137.6991 13.51028081 86222
QIANFAN-65              
1 62795U 25016L   26270.27952252  .00000020  00000+0  12113-4 0  9997
2 62795  88.9663  73.0489 0012652 224.1301 135.8842 13.51024188 86201
QIANFAN-66              
1 62796U 25016M   26270.23430181  .00000030  00000+0  28144-4 0  9998
2 62796  88.9682  73.0804 0013841 219.9811 140.0322 13.51020309 86249
QIANFAN-67              
1 62797U 25016N   26270.23837835  .00000035  00000+0  35596-4 0  9990
2 62797  88.9672  73.0772 0013660 227.4965 132.5033 13.51020530 86214
QIANFAN-68              
1 62798U 25016P   26270.23024963  .00000030  00000+0  27159-4 0  9992
2 62798  88.9676  73.1335 0013778 225.1812 134.8220 13.51022451 86195
QIANFAN-69              
1 62799U 25016Q   26270.24659226  .00000019  00000+0  10835-4 0  9990
2 62799  88.9655  72.9399 0014480 226.8745 133.1196 13.51024730 86235
QIANFAN-70              
1 62800U 25016R   26270.26318899  .00000049  00000+0  56729-4 0  9998
2 62800  88.9675  73.1366 0014303 216.2870 143.7312 13.51024559 86194
QIANFAN-71              
1 62801U 25016S   26270.25900489  .00000034  00000+0  34208-4 0  9992
2 62801  88.9670  73.0992 0014317 230.7211 129.2671 13.51027356 86194
QIANFAN-72              
1 62802U 25016T   26270.27556263  .00000033  00000+0  33031-4 0  9994
2 62802  88.9660  73.0827 0017457 239.2418 120.7015 13.51029194 86181
QIANFAN-73              
1 63159U 25046A   26270.30251456  .00000026  00000+0  21184-4 0  9991
2 63159  88.9633 290.0536 0015334  17.5161 342.6516 13.51025861 86378
QIANFAN-74              
1 63160U 25046B   26270.28614398  .00000013  00000+0  14221-5 0  9999
2 63160  88.9635 289.9451 0001834  98.6351 261.5008 13.51018630 86434
QIANFAN-75              
1 63161U 25046C   26270.27374676  .00000096  00000+0  13010-3 0  9995
2 63161  88.9635 290.1843 0016578  20.5371 339.6443 13.51032227 86305
QIANFAN-76              
1 63162U 25046D   26270.19570252 -.00000098  00000+0 -17099-3 0  9990
2 63162  88.9636 290.1722 0014089  22.2240 337.9519 13.51019275 86305
QIANFAN-77              
1 63163U 25046E   26270.29314440  .00000088  00000+0  54159-4 0  9993
2 63163  88.9641 285.7895 0012581 257.7459 102.2309 13.96248402 88717
QIANFAN-78              
1 63164U 25046F   26270.31142163  .00000083  00000+0  10988-3 0  9994
2 63164  88.9634 290.0217 0015541  23.2306 336.9544 13.51013273 86399
QIANFAN-79              
1 63165U 25046G   26270.26551903  .00000026  00000+0  20768-4 0  9990
2 63165  88.9638 290.1440 0015217  22.1676 338.0130 13.51021344 86337
QIANFAN-80              
1 63166U 25046H   26270.28193364  .00000066  00000+0  83821-4 0  9999
2 63166  88.9635 289.8412 0014299  26.9978 333.1914 13.51030876 86498
QIANFAN-81              
1 63167U 25046J   26270.26137109  .00000094  00000+0  12638-3 0  9991
2 63167  88.9634 289.9106 0015110  16.3356 343.8280 13.51022183 86446
QIANFAN-82              
1 63168U 25046K   26270.29437192  .00000064  00000+0  79587-4 0  9994
2 63168  88.9635 289.9516 0013247  23.9344 336.2421 13.51021718 86438
QIANFAN-83              
1 63169U 25046L   26270.26513245  .00000048  00000+0  46680-4 0  9996
2 63169  88.9637 289.1620 0013450 352.5932   7.5025 13.62065501 86875
QIANFAN-84              
1 63170U 25046M   26270.24913641 -.00000041  00000+0 -82582-4 0  9996
2 63170  88.9636 290.0889 0016102  18.9819 341.1929 13.51015978 86352
QIANFAN-85              
1 63171U 25046N   26270.24494462  .00000076  00000+0  99056-4 0  9992
2 63171  88.9634 289.9588 0013764  22.5687 337.6066 13.51022007 86420
QIANFAN-86              
1 63172U 25046P   26270.17906091  .00000082  00000+0  10745-3 0  9995
2 63172  88.9636 289.8346 0011811  28.2403 331.9386 13.51027111 86494
QIANFAN-87              
1 63173U 25046Q   26270.29838463  .00000014  00000+0  27914-5 0  9999
2 63173  88.9633 289.9231 0012140  22.4566 337.7114 13.51020532 86446
QIANFAN-88              
1 63174U 25046R   26270.31486435  .00000089  00000+0  11826-3 0  9996
2 63174  88.9635 289.8830 0012858  30.7362 329.4539 13.51020564 86472
QIANFAN-89              
1 63175U 25046S   26270.27783067  .00000083  00000+0  11009-3 0  9990
2 63175  88.9635 290.0757 0017013  18.9453 341.2328 13.51021273 86366
QIANFAN-90              
1 63176U 25046T   26270.23264336  .00000029  00000+0  26111-4 0  9991
2 63176  88.9636 290.0538 0013913  19.2080 340.9593 13.51020115 86375
QIANFAN-91              
1 66033U 25233A   26269.74657138  .00000087  00000+0  11660-3 0  9990
2 66033  89.0065  32.9268 0001669  97.0730 263.0611 13.51030501 46891
QIANFAN-92              
1 66034U 25233B   26270.27365406  .00000096  00000+0  13036-3 0  9994
2 66034  89.0050  32.8290 0002231 101.0674 259.0728 13.51028030 46965
QIANFAN-93              
1 66035U 25233C   26269.76329900  .00000074  00000+0  96018-4 0  9994
2 66035  89.0077  32.9596 0001720  95.7630 264.3717 13.51039686 46896
QIANFAN-94              
1 66036U 25233D   26270.26918536  .00000085  00000+0  11362-3 0  9991
2 66036  89.0073  32.8086 0001762 103.3144 256.8204 13.51029011 47011
QIANFAN-95              
1 66037U 25233E   26270.27743272  .00000077  00000+0  10005-3 0  9990
2 66037  89.0072  32.3491 0001574 101.2656 258.8672 13.51028867 47268
QIANFAN-96              
1 66038U 25233F   26270.30204981  .00000086  00000+0  11480-3 0  9992
2 66038  89.0069  32.8872 0001615  96.2068 263.9267 13.51030074 46965
QIANFAN-97              
1 66039U 25233G   26270.28554080  .00000073  00000+0  94156-4 0  9996
2 66039  89.0072  32.8762 0001728  97.0536 263.0812 13.51039978 46961
QIANFAN-98              
1 66040U 25233H   26270.29385450  .00000080  00000+0  10537-3 0  9990
2 66040  89.0061  32.5954 0001792 116.3923 243.7412 13.51030252 47112
QIANFAN-99              
1 66041U 25233J   26270.29785323  .00000090  00000+0  12088-3 0  9998
2 66041  89.0073  32.8797 0001598 113.5974 246.5345 13.51036884 46979
QIANFAN-100             
1 66042U 25233K   26270.14158422  .00000073  00000+0  94858-4 0  9994
2 66042  89.0084  32.8338 0001601  94.3236 265.8098 13.51055779 47003
QIANFAN-101             
1 66043U 25233L   26270.26314605  .00000266  00000+0  10364-3 0  9998
2 66043  89.0073  28.8618 0015913 161.6664 198.5107 14.26864979 49189
QIANFAN-102             
1 66044U 25233M   26270.31030218  .00000078  00000+0  10254-3 0  9999
2 66044  89.0071  32.7858 0001727 104.5051 255.6292 13.51029649 47027
QIANFAN-103             
1 66045U 25233N   26269.79602172  .00000071  00000+0  91466-4 0  9992
2 66045  89.0072  32.9354 0001715  97.2512 262.8834 13.51029619 46904
QIANFAN-104             
1 66046U 25233P   26270.09630474  .00000067  00000+0  85884-4 0  9996
2 66046  89.0077  32.8120 0001824 104.9655 255.1699 13.51027566 46997
QIANFAN-105             
1 66047U 25233Q   26269.73433433  .00000075  00000+0  98197-4 0  9992
2 66047  89.0090  32.7049 0001788 101.2569 258.8783 13.51030812 47055
QIANFAN-106             
1 66048U 25233R   26269.73010053  .00000069  00000+0  88429-4 0  9992
2 66048  89.0059  32.8863 0001743 114.0516 246.0817 13.51031154 46899
QIANFAN-107             
1 66049U 25233S   26270.10865705  .00000081  00000+0  10720-3 0  9990
2 66049  89.0075  32.8969 0001735  98.4353 261.6995 13.51030459 46954
QIANFAN-108             
1 66050U 25233T   26270.11283085  .00000083  00000+0  11051-3 0  9998
2 66050  89.0069  32.8770 0001778 112.5365 247.5975 13.51030191 46951
QIANFAN-109             
1 68636U 26075A   26270.20080576  .00000052  00000+0  61317-4 0  9992
2 68636  88.9852 310.5998 0001842  83.6652 276.4709 13.51021510 23561
QIANFAN-110             
1 68637U 26075B   26270.20897151  .00000049  00000+0  57845-4 0  9995
2 68637  88.9852 310.6205 0002189  95.2884 264.8517 13.51022381 23560
QIANFAN-111             
1 68638U 26075C   26270.27094289  .00000053  00000+0  62898-4 0  9993
2 68638  88.9851 310.5730 0002161  95.0385 265.1012 13.51024943 23599
QIANFAN-112             
1 68639U 26075D   26270.23381373  .00000047  00000+0  54449-4 0  9999
2 68639  88.9850 310.5845 0002065  82.1635 277.9751 13.51024251 23586
QIANFAN-113             
1 68640U 26075E   26270.27894430  .00000056  00000+0  67968-4 0  9998
2 68640  88.9855 310.5793 0002194  92.0658 268.0744 13.51020950 23599
QIANFAN-114             
1 68641U 26075F   26270.28714584  .00000101  00000+0  13714-3 0  9991
2 68641  88.9849 310.5926 0002187  95.2493 264.8907 13.51019633 23585
QIANFAN-115             
1 68642U 26075G   26270.24197071  .00000051  00000+0  59840-4 0  9999
2 68642  88.9850 310.6046 0001996  93.8661 266.2718 13.51025184 23573
QIANFAN-116             
1 68643U 26075H   26270.22959694  .00000053  00000+0  63647-4 0  9997
2 68643  88.9843 310.5588 0002156  85.1020 275.0377 13.51025747 23583
QIANFAN-117             
1 68644U 26075J   26270.21735943  .00000059  00000+0  72241-4 0  9992
2 68644  88.9848 310.5805 0002008  88.9995 271.1386 13.51023557 23583
QIANFAN-118             
1 68645U 26075K   26270.25018810  .00000053  00000+0  63055-4 0  9991
2 68645  88.9853 310.5900 0002278  96.3454 263.7957 13.51025274 23587
QIANFAN-119             
1 68646U 26075L   26270.29950543  .00000067  00000+0  85077-4 0  9997
2 68646  88.9853 310.5807 0001813  88.0895 272.0464 13.51021146 23596
QIANFAN-120             
1 68647U 26075M   26270.23782956  .00000050  00000+0  58167-4 0  9995
2 68647  88.9855 310.5736 0001744  88.4359 271.6992 13.51020933 23596
QIANFAN-121             
1 68648U 26075N   26270.26262059  .00000053  00000+0  63165-4 0  9993
2 68648  88.9852 310.5738 0002190  96.3840 263.7561 13.51024410 23593
QIANFAN-122             
1 68649U 26075P   26270.25431793  .00000061  00000+0  76401-4 0  9992
2 68649  88.9851 310.5715 0001963  87.0893 273.0483 13.51027999 23581
QIANFAN-123             
1 68650U 26075Q   26270.22133858  .00000065  00000+0  82221-4 0  9993
2 68650  88.9848 310.5616 0001853  81.0682 279.0679 13.51020885 23565
QIANFAN-124             
1 68651U 26075R   26270.24611613  .00000053  00000+0  64085-4 0  9991
2 68651  88.9851 310.5708 0001956  85.1604 274.9770 13.51027466 23596
QIANFAN-125             
1 68652U 26075S   26270.25850580  .00000059  00000+0  73134-4 0  9992
2 68652  88.9850 310.5715 0002214  95.7887 264.3517 13.51024548 23592
QIANFAN-126             
1 68653U 26075T   26270.26657677  .00000059  00000+0  71995-4 0  9999
2 68653  88.9854 310.5404 0001835  81.9939 278.1421 13.51020147 23616
QIANFAN-127             
1 69073U 26104A   26270.19792714  .00000079  00000+0  10432-3 0  9993
2 69073  88.9912 331.0716 0002519  98.6505 261.4931 13.51029019 18933
QIANFAN-128             
1 69074U 26104B   26270.20605833  .00000082  00000+0  10809-3 0  9993
2 69074  88.9890 331.0930 0002387 110.0183 250.1225 13.51024548 18912
QIANFAN-129             
1 69075U 26104C   26270.23067713  .00000083  00000+0  10927-3 0  9998
2 69075  88.9892 331.0250 0002391 105.1632 254.9784 13.51024567 18956
QIANFAN-130             
1 69076U 26104D   26270.26770134  .00000079  00000+0  10338-3 0  9991
2 69076  88.9894 331.0872 0002419  93.5531 266.5896 13.51022651 18920
QIANFAN-131             
1 69077U 26104E   26270.21436739  .00000072  00000+0  93154-4 0  9998
2 69077  88.9888 331.0527 0002136 106.3521 253.7865 13.51026730 18936
QIANFAN-132             
1 69078U 26104F   26270.20188709  .00000085  00000+0  11290-3 0  9993
2 69078  88.9890 331.1107 0002344  97.0294 263.1124 13.51022939 18906
QIANFAN-133             
1 69079U 26104G   26270.21017643  .00000075  00000+0  97539-4 0  9993
2 69079  88.9894 331.0603 0002155 112.3021 247.8359 13.51031777 18921
QIANFAN-134             
1 69080U 26104H   26270.23896197  .00000079  00000+0  10304-3 0  9994
2 69080  88.9898 331.0840 0002332 109.8837 250.2566 13.51030074 18920
QIANFAN-135             
1 69081U 26104J   26270.21834287  .00000075  00000+0  97034-4 0  9997
2 69081  88.9891 331.0764 0002559 107.9881 252.1549 13.51023244 18921
QIANFAN-136             
1 69082U 26104K   26269.78215730  .00000083  00000+0  11052-3 0  9998
2 69082  88.9894 331.1241 0002236 111.7589 248.3801 13.51042318 18860
QIANFAN-137             
1 69083U 26104L   26270.22253122  .00000071  00000+0  91815-4 0  9990
2 69083  88.9902 330.9565 0002229  98.4690 261.6714 13.51022886 18996
QIANFAN-138             
1 69084U 26104M   26270.24714261  .00000082  00000+0  10826-3 0  9993
2 69084  88.9887 331.0760 0002556 102.1432 258.0006 13.51022719 18920
QIANFAN-139             
1 69085U 26104N   26270.23492945  .00000084  00000+0  11216-3 0  9991
2 69085  88.9889 331.0592 0002445  97.2108 262.9321 13.51031419 18939
QIANFAN-140             
1 69086U 26104P   26270.24303651  .00000082  00000+0  10872-3 0  9993
2 69086  88.9890 331.0620 0002618 106.4986 253.6453 13.51023837 18931
QIANFAN-141             
1 69087U 26104Q   26270.25134552  .00000071  00000+0  91874-4 0  9997
2 69087  88.9887 331.0252 0002451 109.0851 251.0565 13.51021605 18953
QIANFAN-142             
1 69088U 26104R   26270.18542527  .00000069  00000+0  88253-4 0  9999
2 69088  88.9885 331.0311 0002530 103.1363 257.0071 13.51020766 18943
QIANFAN-143             
1 69089U 26104S   26270.25544567  .00000074  00000+0  95220-4 0  9992
2 69089  88.9896 331.0314 0002067 106.3400 253.7978 13.51028281 18951
QIANFAN-144             
1 69090U 26104T   26270.26359843  .00000070  00000+0  89413-4 0  9999
2 69090  88.9894 331.0486 0002530  99.4460 260.6977 13.51021633 18943
QIANFAN-145             
1 69104U 26108A   26269.74757951 -.01757380  00000+0 -30907+1 0  9998
2 69104  89.0196  11.9150 0013426 230.8878 129.1077 13.47041407 18157
QIANFAN-146             
1 69105U 26108B   26269.70671138 -.01785545  00000+0 -31619+1 0  9992
2 69105  89.0199  11.7563 0011375 237.2494 122.7559 13.46676915 18244
QIANFAN-147             
1 69106U 26108C   26269.97854595 -.01789993  00000+0 -31708+1 0  9992
2 69106  89.0198  11.8966 0007069 130.5328 229.6437 13.46682496 18173
QIANFAN-148             
1 69107U 26108D   26269.89203239 -.01788833  00000+0 -31678+1 0  9995
2 69107  89.0192  11.8946 0003460 234.6649 125.4176 13.46705897 18162
QIANFAN-149             
1 69108U 26108E   26269.75180998 -.01763411  00000+0 -31035+1 0  9999
2 69108  89.0191  11.9298 0005613 141.5044 218.6506 13.47039257 18141
QIANFAN-150             
1 69109U 26108F   26269.76006044 -.01788053  00000+0 -31436+1 0  9994
2 69109  89.0197  11.8824 0004540 101.3789 258.7870 13.47168097 18166
QIANFAN-151             
1 69110U 26108G   26269.86326930 -.01784074  00000+0 -31582+1 0  9997
2 69110  89.0196  11.8959 0001759 222.7196 137.3816 13.46720054 18163
QIANFAN-152             
1 69111U 26108H   26269.84228817 -.01764064  00000+0 -31062+1 0  9991
2 69111  89.0193  11.8896 0003877  50.8558 309.2935 13.47013660 18178
QIANFAN-153             
1 69112U 26108J   26269.76408899 -.01762810  00000+0 -31021+1 0  9995
2 69112  89.0189  11.8735 0015972 235.9800 123.9833 13.47001532 18163
QIANFAN-154             
1 69113U 26108K   26269.77250752 -.01761783  00000+0 -31010+1 0  9996
2 69113  89.0200  11.9221 0018873 147.0733 213.1596 13.46965913 18158
QIANFAN-155             
1 69114U 26108L   26269.99883539 -.01787950  00000+0 -31603+1 0  9998
2 69114  89.0198  11.8640 0003436  47.4764 312.6674 13.46823737 18198
QIANFAN-156             
1 69115U 26108M   26269.79702346 -.01758615  00000+0 -30967+1 0  9991
2 69115  89.0212  11.8865 0007811 177.4229 182.6961 13.46988153 18183
QIANFAN-157             
1 69116U 26108N   26269.93324745 -.01790391  00000+0 -31670+1 0  9990
2 69116  89.0193  11.7951 0020210 158.2081 201.9932 13.46704932 18238
QIANFAN-158             
1 69117U 26108P   26269.80112235 -.01770287  00000+0 -31154+1 0  9995
2 69117  89.0195  11.8494 0001710 297.3139  62.7836 13.47067010 18198
QIANFAN-159             
1 69118U 26108Q   26270.01523791 -.01777924  00000+0 -31376+1 0  9995
2 69118  89.0188  11.8340 0009349 120.2111 239.9965 13.46887579 18214
QIANFAN-160             
1 69119U 26108R   26269.80955575 -.01762901  00000+0 -31033+1 0  9999
2 69119  89.0201  11.8928 0015774 165.4472 194.7134 13.46982542 18170
QIANFAN-161             
1 69120U 26108S   26269.88755583 -.01764081  00000+0 -31066+1 0  9993
2 69120  89.0209  11.8024 0005751 182.4922 177.6199 13.47002253 18231
QIANFAN-162             
1 69121U 26108T   26269.95368400 -.01792640  00000+0 -31726+1 0  9995
2 69121  89.0198  11.8203 0003718 165.0655 195.0604 13.46752799 18218
QIANFAN-163             
1 69325U 26121A   26269.77173839  .00000018  00000+0  88715-5 0  9999
2 69325  89.0091 290.3983 0002716 113.9128 246.2308 13.51022119 15881
QIANFAN-164             
1 69326U 26121B   26270.03507905  .00000043  00000+0  47544-4 0  9998
2 69326  89.0088 290.3621 0002232 108.5627 251.5767 13.51022075 15928
QIANFAN-165             
1 69382U 26124A   26269.82102642 -.01783784  00000+0 -31567+1 0  9994
2 69382  89.0064 351.3884 0011378 155.2824 204.8872 13.46714275 15766
QIANFAN-166             
1 69383U 26124B   26269.75083838 -.01765879  00000+0 -31082+1 0  9999
2 69383  89.0083 351.4073 0002030 356.6583   3.4552 13.47043303 15758
QIANFAN-167             
1 69384U 26124C   26269.75479714 -.01764110  00000+0 -31047+1 0  9990
2 69384  89.0057 351.4107 0006603 120.8215 239.3585 13.47041178 15744
QIANFAN-168             
1 69385U 26124D   26269.75891407 -.01764649  00000+0 -31074+1 0  9995
2 69385  89.0053 351.3900 0003072   1.7474 358.3685 13.47012414 15757
QIANFAN-169             
1 69386U 26124E   26269.76311588 -.01759396  00000+0 -30953+1 0  9992
2 69386  89.0052 351.3893 0004012 167.9326 192.1920 13.47056527 15753
QIANFAN-170             
1 69387U 26124F   26269.91559373 -.01807253  00000+0 -31941+1 0  9990
2 69387  89.0069 351.3476 0020263 233.2200 126.7089 13.46798561 15796
QIANFAN-171             
1 69388U 26124G   26269.92389644 -.01793437  00000+0 -31762+1 0  9993
2 69388  89.0083 351.3602 0002161 334.3074  25.7967 13.46713108 15790
QIANFAN-172             
1 69389U 26124H   26270.06769822 -.01788308  00000+0 -31592+1 0  9993
2 69389  89.0066 351.3345 0003004  51.6915 308.4504 13.46860765 15819
QIANFAN-173             
1 69390U 26124J   26269.92757397 -.01763986  00000+0 -31063+1 0  9990
2 69390  89.0056 351.3441 0005370 285.3146  74.7409 13.47005380 15796
QIANFAN-174             
1 69391U 26124K   26269.79179930 -.01757084  00000+0 -30941+1 0  9993
2 69391  89.0036 351.3138 0001366  33.1600 326.9634 13.46995749 15780
QIANFAN-175             
1 69392U 26124L   26270.16662429 -.01782372  00000+0 -31506+1 0  9993
2 69392  89.0088 351.3250 0003943 170.6888 189.4334 13.46807740 15839
QIANFAN-176             
1 69393U 26124M   26269.80018894 -.01763537  00000+0 -31050+1 0  9990
2 69393  89.0050 351.3388 0003234  30.0242 330.1092 13.47017595 15778
QIANFAN-177             
1 69394U 26124N   26269.88244907 -.01772656  00000+0 -31206+1 0  9990
2 69394  89.0060 351.3198 0001246 340.8408  19.2694 13.47050316 15801
QIANFAN-178             
1 69395U 26124P   26269.87830382 -.01773621  00000+0 -31226+1 0  9993
2 69395  89.0005 351.2723 0006017 176.3625 183.7568 13.47041366 15811
QIANFAN-179             
1 69396U 26124Q   26269.81250226 -.01762563  00000+0 -31050+1 0  9999
2 69396  89.0037 351.2992 0001277 272.1392  87.9611 13.46982103 15809
QIANFAN-180             
1 69397U 26124R   26270.11302187 -.01782825  00000+0 -31499+1 0  9999
2 69397  89.0044 351.2906 0002949 199.4682 160.6355 13.46840244 15839
QIANFAN-181             
1 69398U 26124S   26270.08010408 -.01786304  00000+0 -31562+1 0  9995
2 69398  89.0066 351.3889 0003645  98.8724 261.2838 13.46845536 15785
QIANFAN-182             
1 69399U 26124T   26269.93587180 -.01762919  00000+0 -31055+1 0  9997
2 69399  89.0041 351.3719 0000577 231.5795 128.5302 13.46986768 15768
QIANFAN-183             
1 69401U 26125A   26270.19300800 -.01793834  00000+0 -31813+1 0  9996
2 69401  88.9827 269.6161 0002212 194.5530 165.5556 13.46624401 15717
QIANFAN-184             
1 69402U 26125B   26269.90454122 -.01749935  00000+0 -30723+1 0  9993
2 69402  88.9877 269.6765 0002598 294.4950  65.5927 13.47170551 15675
QIANFAN-185             
1 69403U 26125C   26270.07794047 -.01809276  00000+0 -32094+1 0  9995
2 69403  88.9893 269.5998 0007712 152.0372 208.1192 13.46637092 15734
QIANFAN-186             
1 69404U 26125D   26269.90078316 -.01776188  00000+0 -31367+1 0  9997
2 69404  88.9880 269.6771 0001725 264.4706  95.6246 13.46855255 15673
QIANFAN-187             
1 69405U 26125E   26270.27924029 -.01766903  00000+0 -31132+1 0  9995
2 69405  88.9880 269.6210 0001496 200.5755 159.5334 13.46980108 15733
QIANFAN-188             
1 69406U 26125F   26269.76890356 -.01773096  00000+0 -31302+1 0  9993
2 69406  88.9879 269.6729 0006185 102.0654 258.1188 13.46862091 15666
QIANFAN-189             
1 69407U 26125G   26269.92537403 -.01784273  00000+0 -31554+1 0  9991
2 69407  88.9861 269.6504 0003202 181.9254 178.1883 13.46784128 15676
QIANFAN-190             
1 69408U 26125H   26269.98709998 -.01780982  00000+0 -31517+1 0  9990
2 69408  88.9862 269.6419 0004000 177.7890 182.3277 13.46730249 15690
QIANFAN-191             
1 69409U 26125J   26270.08613412 -.01818340  00000+0 -32365+1 0  9991
2 69409  88.9876 269.6449 0000969 280.9141  79.1898 13.46450313 15700
QIANFAN-192             
1 69410U 26125K   26269.92116979 -.01774455  00000+0 -31313+1 0  9990
2 69410  88.9883 269.6627 0003767 177.5283 182.5885 13.46896775 15683
QIANFAN-193             
1 69411U 26125L   26269.79769575 -.01765329  00000+0 -31016+1 0  9992
2 69411  88.9863 269.6500 0023875 174.0032 186.1408 13.47049266 15674
QIANFAN-194             
1 69412U 26125M   26269.86770321 -.01762583  00000+0 -31081+1 0  9993
2 69412  88.9894 269.6597 0002482 200.2061 159.8990 13.46918493 15679
QIANFAN-195             
1 69413U 26125N   26269.79954173 -.02107133  00000+0 -34499+1 0  9996
2 69413  88.9908 269.6688 0041747 349.5661  10.4617 13.48048165 15688
QIANFAN-196             
1 69414U 26125P   26269.88403519 -.01766532  00000+0 -31118+1 0  9998
2 69414  88.9900 269.6474 0006028 164.8950 195.2380 13.46988362 15696
QIANFAN-197             
1 69415U 26125Q   26270.04046696 -.01761541  00000+0 -30922+1 0  9995
2 69415  88.9875 269.6013 0026350 194.0072 166.0349 13.47072631 15715
QIANFAN-198             
1 69416U 26125R   26269.80591422 -.01763538  00000+0 -31058+1 0  9999
2 69416  88.9869 269.6373 0005051 188.1035 172.0033 13.46998936 15683
QIANFAN-199             
1 69417U 26125S   26270.11102050 -.01819921  00000+0 -32335+1 0  9998
2 69417  88.9874 269.5568 0031935 188.0151 172.0491 13.46370646 15751
QIANFAN-200             
1 69418U 26125T   26270.15623858 -.01825034  00000+0 -32524+1 0  9999
2 69418  88.9879 269.6381 0002098 333.7837  26.3205 13.46385341 15717
QIANFAN-201             
1 69800U 26153A   26270.03001547 -.01776733  00000+0 -14681+1 0  9992
2 69800  88.9971 350.7452 0003918  33.5030 326.6392 13.93224288 11968
QIANFAN-202             
1 69801U 26153B   26269.71794017 -.01834081  00000+0 -13920+1 0  9993
2 69801  88.9971 350.7357 0016269 220.7806 139.2155 13.98167612 11931
QIANFAN-203             
1 69802U 26153C   26270.13601327 -.01945251  00000+0 -14643+1 0  9998
2 69802  88.9971 350.7247 0007859 343.4238  16.6682 13.98246709 11980
QIANFAN-204             
1 69803U 26153D   26269.89729782 -.01879633  00000+0 -14580+1 0  9996
2 69803  88.9971 350.7455 0005177  97.2718 262.9047 13.96414396 11955
QIANFAN-205             
1 69804U 26153E   26269.72200684 -.01842713  00000+0 -14916+1 0  9996
2 69804  88.9970 350.7915 0005178  28.7771 331.3690 13.94564810 11911
QIANFAN-206             
1 69805U 26153F   26269.78236582 -.01925354  00000+0 -14739+1 0  9995
2 69805  88.9971 350.7272 0007574 114.2479 245.9490 13.97253600 11954
QIANFAN-207             
1 69806U 26153G   26269.72130054 -.01844497  00000+0 -14861+1 0  9991
2 69806  88.9972 350.7736 0004974  36.0445 324.1065 13.94835659 11928
QIANFAN-208             
1 69807U 26153H   26269.85398108 -.01906820  00000+0 -15333+1 0  9996
2 69807  88.9966 350.7560 0008731  36.8328 323.3446 13.94399818 11959
QIANFAN-209             
1 69808U 26153J   26269.82543231 -.01894516  00000+0 -15452+1 0  9993
2 69808  88.9975 350.7717 0006440 318.6015  41.4671 13.93564483 11930
QIANFAN-210             
1 69809U 26153K   26269.72247275 -.01871529  00000+0 -15187+1 0  9996
2 69809  88.9971 350.7742 0005720 359.8424   0.2748 13.93814318 11928
QIANFAN-211             
1 69810U 26153L   26269.93940697 -.01788781  00000+0 -10916+1 0  9991
2 69810  88.9972 350.6956 0006788 215.4884 144.5850 14.10302596 11981
QIANFAN-212             
1 69811U 26153M   26269.75387418 -.02035588  00000+0 -14770+1 0  9991
2 69811  88.9966 350.7415 0008672 306.1292  53.9084 14.00511552 11942
QIANFAN-213             
1 69812U 26153N   26269.57674219 -.01830970  00000+0 -14317+1 0  9994
2 69812  88.9971 350.7701 0008009  30.9956 329.1692 13.96509613 11919
QIANFAN-214             
1 69813U 26153P   26270.01546985 -.01831043  00000+0 -13292+1 0  9997
2 69813  88.9973 350.6689 0003170 225.3304 134.7617 14.00742378 12008
QIANFAN-215             
1 69814U 26153Q   26269.85494768 -.01784042  00000+0 -10809+1 0  9996
2 69814  88.9969 350.6250 0005647 169.6219 190.5084 14.10686270 12012
QIANFAN-216             
1 69815U 26153R   26269.87516980 -.01911419  00000+0 -13560+1 0  9997
2 69815  88.9970 350.6664 0004963 277.3730  82.6885 14.01540525 11997
QIANFAN-217             
1 69816U 26153S   26269.43162170 -.01821303  00000+0 -95342+0 0  9997
2 69816  88.9969 350.6169 0012065 333.4074  26.6495 14.18015064 11980
QIANFAN-218             
1 69817U 26153T   26269.78451572 -.01842771  00000+0 -98110+0 0  9991
2 69817  88.9972 350.5796 0009487 305.6034  54.4270 14.17166878 12037
QIANFAN-219             
1 69848U 26155A   26269.75183447 -.01718161  00000+0 -30021+1 0  9990
2 69848  89.0092  53.0723 0027827 345.8995  14.1374 13.47250789 11585
QIANFAN-220             
1 69849U 26155B   26270.21784572  .00000058  00000+0  70703-4 0  9991
2 69849  89.0106  53.0555 0034120 352.8425   7.2234 13.50935011 11631
QIANFAN-221             
1 69850U 26155C   26269.82183714 -.01816319  00000+0 -23212+1 0  9996
2 69850  89.0104  52.8334 0030237   4.0954 356.0447 13.67142754 11724
QIANFAN-222             
1 69851U 26155D   26269.78948253 -.01888798  00000+0 -32941+1 0  9998
2 69851  89.0099  53.1164 0025049 345.1618  14.8793 13.47807791 11566
QIANFAN-223             
1 69852U 26155E   26269.74356227 -.01728577  00000+0 -30440+1 0  9999
2 69852  89.0101  53.1297 0037315 350.2642   9.7779 13.46651611 11554
QIANFAN-224             
1 69853U 26155F   26269.79314700 -.01762753  00000+0 -30848+1 0  9991
2 69853  89.0084  53.0664 0037794 357.0624   3.0297 13.47129720 11585
QIANFAN-225             
1 69854U 26155G   26269.79704035 -.01743558  00000+0 -30352+1 0  9998
2 69854  89.0093  53.1139 0032574 342.0891  17.9108 13.47495204 11561
QIANFAN-226             
1 69855U 26155H   26269.72803934 -.01936809  00000+0 -33742+1 0  9999
2 69855  89.0095  53.1031 0029245 344.5002  15.5248 13.47947248 11566
QIANFAN-227             
1 69856U 26155J   26269.80589495 -.01796229  00000+0 -31609+1 0  9992
2 69856  89.0094  53.0989 0038740 352.2958   7.7591 13.46837951 11576
QIANFAN-228             
1 69857U 26155K   26269.73752773 -.02027054  00000+0 -33781+1 0  9993
2 69857  89.0099  53.0917 0034587 355.2232   4.8583 13.50215047 11576
QIANFAN-229             
1 69858U 26155L   26269.74804071 -.01799406  00000+0 -31484+1 0  9998
2 69858  89.0103  53.0736 0010908 349.5521  10.5400 13.47485651 11589
QIANFAN-230             
1 69859U 26155M   26269.78493556 -.01762791  00000+0 -30905+1 0  9999
2 69859  89.0099  53.1128 0011959 343.6889  16.3874 13.47264130 11563
QIANFAN-231             
1 69860U 26155N   26269.76293427 -.01793738  00000+0 -29693+1 0  9991
2 69860  89.0097  53.0583 0036503 352.0127   8.0438 13.50786147 11596
QIANFAN-232             
1 69861U 26155P   26270.25282678  .00000048  00000+0  57069-4 0  9998
2 69861  89.0096  53.0161 0025521 350.6500   9.4172 13.50452649 11659
QIANFAN-233             
1 69862U 26155Q   26269.76073844 -.01916572  00000+0 -33232+1 0  9999
2 69862  89.0096  53.0581 0034163 345.7798  14.2387 13.48141697 11592
QIANFAN-234             
1 69863U 26155R   26269.73406851 -.01785919  00000+0 -28218+1 0  9992
2 69863  89.0089  52.9993 0031071 355.5692   4.5181 13.53804398 11625
QIANFAN-235             
1 69864U 26155S   26270.27660476  .00000088  00000+0  66355-4 0  9991
2 69864  89.0105  52.7197 0029945 353.8502   6.2297 13.84594890 11823
QIANFAN-236             
1 69865U 26155T   26269.77041257 -.01880486  00000+0 -31834+1 0  9996
2 69865  89.0102  53.0788 0035905 352.4556   7.6049 13.49568463 11589
QIANFAN-237             
1 69866U 26155U   26269.77276552 -.01804536  00000+0 -31597+1 0  9993
2 69866  89.0093  53.0426 0038240 348.5148  11.5125 13.47187353 11599
QIANFAN-238             
1 69867U 26155V   26269.77713303 -.01844838  00000+0 -32285+1 0  9998
2 69867  89.0102  53.0616 0028783 345.1692  14.8610 13.47442143 11596
