EUTELSAT 174A           
1 28924U 05052A   26251.76465287 -.00000011  00000+0  00000+0 0  9999
2 28924   4.4244  75.4456 0005948  93.2655 268.3573  1.00271436 53176
EUTELSAT 33F            
1 29270U 06032A   26251.87931333  .00000135  00000+0  00000+0 0  9991
2 29270   1.8717  81.1910 0003317  88.4507 167.9280  1.00272030 48147
EUTELSAT HOTBIRD 13C    
1 33459U 08065A   26251.86284661 -.00000303  00000+0  00000+0 0  9995
2 33459   3.1595  78.1318 0003555  98.5032  71.6282  1.00271953 48187
EUTELSAT 36B            
1 36101U 09065A   26251.89526541  .00000091  00000+0  00000+0 0  9995
2 36101   0.6964  81.1879 0005700  89.4722 190.1027  1.00274171 61545
EUTELSAT KA-SAT 9A      
1 37258U 10069A   26251.73197940  .00000040  00000+0  00000+0 0  9999
2 37258   0.0744 345.9646 0005424 184.7271  89.6139  1.00271577 44840
EUTELSAT 7 WEST A       
1 37816U 11051A   26251.87133998 -.00000082  00000+0  00000+0 0  9996
2 37816   0.0646 340.1726 0005968 192.4227 121.6996  1.00271184 54716
EUTELSAT 16A            
1 37836U 11057A   26251.87593332  .00000083  00000+0  00000+0 0  9996
2 37836   0.0798  59.6755 0005560 108.0342 151.5756  1.00274191  8175
EUTELSAT 21B            
1 38992U 12062B   26251.80581970  .00000109  00000+0  00000+0 0  9994
2 38992   0.0714 339.6573 0002969 185.5975 134.3220  1.00274734 50667
EUTELSAT 70B            
1 39020U 12069A   26251.88676670 -.00000065  00000+0  00000+0 0  9996
2 39020   0.0642 354.0359 0003673 174.4833 209.1576  1.00271924 50344
EUTELSAT 117 WEST A     
1 39122U 13012A   26251.63577900 -.00000034  00000+0  00000+0 0  9993
2 39122   0.0503 296.8760 0002800 235.8188 287.0827  1.00271509 49271
EUTELSAT 7B             
1 39163U 13022A   26251.87549999  .00000092  00000+0  00000+0 0  9995
2 39163   0.0727 332.5594 0002166  44.5407 299.6459  1.00454141 48781
EXPRESS-AT1             
1 39612U 14010A   26251.95879088 -.00000110  00000+0  00000+0 0  9998
2 39612   0.4669  84.5951 0004919  81.7562 241.0504  1.00314657 45655
EXPRESS-AT2             
1 39613U 14010B   26251.17106223  .00000058  00000+0  00000+0 0  9997
2 39613   0.0278 256.1196 0000563 352.5914 216.1046  1.00270531 45338
EUTELSAT 3B             
1 39773U 14030A   26251.87341998 -.00000002  00000+0  00000+0 0  9993
2 39773   0.0651 349.8688 0004092 180.1470 135.4337  1.00271387 44907
EUTELSAT 115 WEST B     
1 40425U 15010B   26251.42727661 -.00000046  00000+0  00000+0 0  9992
2 40425   0.0389   4.9345 0000291  74.9390 306.5289  1.00272537 42215
EUTELSAT 8 WEST B       
1 40875U 15039B   26251.37219285 -.00000086  00000+0  00000+0 0  9998
2 40875   0.0693 339.3004 0003520 185.4885 308.6780  1.00272741 40498
EUTELSAT 9B             
1 41310U 16005A   26251.73197940  .00000040  00000+0  00000+0 0  9999
2 41310   0.0425  68.5179 0002389 139.3924  52.3805  1.00271339 38955
EUTELSAT 65 WEST A      
1 41382U 16014A   26251.00453942  .00000000  00000+0  00000+0 0  9991
2 41382   0.0269  17.9946 0002320 151.2730 114.2409  1.00267639 38353
EUTELSAT 117 WEST B     
1 41589U 16038B   26251.70701931 -.00000033  00000+0  00000+0 0  9994
2 41589   0.0335  15.2061 0000044 208.8076 261.2841  1.00271553 37507
EUTELSAT 172B           
1 42741U 17029B   26251.90687346 -.00000027  00000+0  00000+0 0  9994
2 42741   0.0204 145.8822 0000198 209.4338 131.1423  1.00271350 34598
EUTELSAT 7C             
1 44334U 19034B   26251.66030578  .00000027  00000+0  00000+0 0  9993
2 44334   0.0718 177.6473 0003088 338.2064  76.5631  1.00270720  7673
EUTELSAT 5 WEST B       
1 44624U 19067A   26251.87177331 -.00000063  00000+0  00000+0 0  9994
2 44624   0.0862 315.2960 0003165 217.2057 124.2707  1.00272302 25268
EUTELSAT KONNECT        
1 45027U 20005B   26251.66039244  .00000028  00000+0  00000+0 0  9993
2 45027   0.0660  99.5737 0000943  58.0092  75.0868  1.00267000 25177
EUTELSAT QUANTUM        
1 49056U 21069B   26251.94692675  .00000000  00000+0  00000+0 0  9994
2 49056   0.0211 123.9704 0002192  48.8205 203.8112  1.00271343 18767
EUTELSAT KONNECT VHTS   
1 53765U 22110A   26251.73076606 -.00000004  00000+0  00000+0 0  9996
2 53765   0.0549 104.0886 0002788  39.2348 110.2425  1.00269762  7675
EUTELSAT HOTBIRD 13F    
1 54048U 22134A   26251.30511256  .00000066  00000+0  00000+0 0  9992
2 54048   0.0663 291.4620 0001841  66.5051 112.2552  1.00271996 14210
EUTELSAT HOTBIRD 13G    
1 54225U 22146A   26251.80408637  .00000066  00000+0  00000+0 0  9995
2 54225   0.0527 234.8688 0002109 306.5958 108.8745  1.00271457  8302
EUTELSAT 10B            
1 54259U 22157A   26251.80347969  .00000047  00000+0  00000+0 0  9993
2 54259   0.0563 101.6460 0001284 357.6708 187.8311  1.00268968 13867
EUTELSAT 36D            
1 59346U 24059A   26251.87992001  .00000134  00000+0  00000+0 0  9995
2 59346   0.0182 152.2270 0000239 126.1430  62.2119  1.00271249  8982
