GLOBALSTAR M069         
1 31573U 07020C   26265.24007285 -.00000089  00000+0  35031-4 0  9990
2 31573  52.0063 337.4288 0001547 357.7889  35.1527 12.23474890890680
GLOBALSTAR M072         
1 31574U 07020D   26265.20133014 -.00000098  00000+0 -19073-3 0  9995
2 31574  51.9921 201.9668 0001322 113.0859  27.1098 11.91659828886544
GLOBALSTAR M066         
1 32265U 07048C   26264.83313038 -.00000099  00000+0 -37696-4 0  9990
2 32265  51.9574 140.4697 0003936 242.4347 197.3307 12.30390837872125
GLOBALSTAR M079         
1 37188U 10054A   26265.15968543 -.00000102  00000+0  11651-4 0  9990
2 37188  52.0036 173.4719 0000469  87.0155  78.4898 12.62267652734795
GLOBALSTAR M074         
1 37189U 10054B   26264.99443861 -.00000107  00000+0 -15399-4 0  9992
2 37189  52.0010 173.2267 0000622  57.1138 316.0351 12.62263235735388
GLOBALSTAR M076         
1 37190U 10054C   26265.02094014 -.00000113  00000+0 -53247-4 0  9992
2 37190  52.0020 173.3576 0000381  60.6153 313.0558 12.62263725735103
GLOBALSTAR M077         
1 37191U 10054D   26264.80458087 -.00000086  00000+0 -14979-3 0  9999
2 37191  51.9961 294.0688 0002683 358.1100 172.8491 11.67547731732420
GLOBALSTAR M075         
1 37192U 10054E   26265.21960909 -.00000106  00000+0 -11701-4 0  9991
2 37192  51.9936 214.7511 0000586  67.6099  70.2274 12.62260597734190
GLOBALSTAR M073         
1 37193U 10054F   26265.06472758 -.00000091  00000+0  71062-4 0  9993
2 37193  52.0044 129.3976 0000564  88.6199  64.0236 12.62268160736161
GLOBALSTAR M083         
1 37739U 11033A   26264.92221562 -.00000072  00000+0  17737-3 0  9993
2 37739  51.9852  77.9268 0000522 108.4195  55.9053 12.62269162705160
GLOBALSTAR M088         
1 37740U 11033B   26265.18015657 -.00000091  00000+0  72004-4 0  9990
2 37740  52.0243 343.8042 0000507 102.4303 275.3213 12.62270345700741
GLOBALSTAR M091         
1 37741U 11033C   26265.11643316 -.00000087  00000+0  92761-4 0  9990
2 37741  52.0004 306.8235 0000462 116.3451 271.2745 12.62264906701526
GLOBALSTAR M085         
1 37742U 11033D   26265.25840847 -.00000091  00000+0  72157-4 0  9996
2 37742  52.0114 257.7667 0000395 106.6914 266.2847 12.62265386702052
GLOBALSTAR M081         
1 37743U 11033E   26265.30462944 -.00000082  00000+0  11917-3 0  9997
2 37743  51.9945 259.9507 0000229  75.2814  28.1752 12.62266518702201
GLOBALSTAR M089         
1 37744U 11033F   26265.27813302 -.00000106  00000+0 -99947-5 0  9991
2 37744  51.9920 214.1707 0000604  36.5494 127.4270 12.62263780703040
GLOBALSTAR M084         
1 38040U 11080A   26264.97496387 -.00000094  00000+0  53792-4 0  9991
2 38040  51.9997  82.6241 0000569  76.3271  89.4050 12.62264121680980
GLOBALSTAR M080         
1 38041U 11080B   26264.94652090 -.00000084  00000+0  11022-3 0  9992
2 38041  52.0049  84.4660 0001184  97.1752  67.1435 12.62268619681106
GLOBALSTAR M082         
1 38042U 11080C   26264.71110487 -.00000109  00000+0 -30611-4 0  9992
2 38042  52.0088  40.6893 0000867 116.1203 349.8532 12.62262757681781
GLOBALSTAR M092         
1 38043U 11080D   26265.00921764 -.00000095  00000+0  46186-4 0  9991
2 38043  52.0066 130.1872 0000775  78.3469  62.4396 12.62266113680270
GLOBALSTAR M090         
1 38044U 11080E   26265.14809150 -.00000114  00000+0 -57753-4 0  9996
2 38044  52.0139  33.3460 0000763 124.1420  47.6790 12.62268083681950
GLOBALSTAR M086         
1 38045U 11080F   26264.59448078 -.00000092  00000+0  67113-4 0  9998
2 38045  51.9914  34.8010 0000554 239.1847 204.5543 12.62289305681832
GLOBALSTAR M097         
1 39072U 13005A   26265.16312660 -.00000082  00000+0  12326-3 0  9993
2 39072  52.0054 308.1318 0000423 121.6723 238.4186 12.62271382629153
GLOBALSTAR M093         
1 39073U 13005B   26265.05744352 -.00000080  00000+0  13334-3 0  9997
2 39073  52.0108 301.8404 0000413 149.2428 210.8464 12.62267274629098
GLOBALSTAR M094         
1 39074U 13005C   26265.21574219 -.00000115  00000+0 -62089-4 0  9991
2 39074  51.9946 215.3764 0000351  85.2748 274.8159 12.62264807630722
GLOBALSTAR M096         
1 39075U 13005D   26264.75394673 -.00000087  00000+0  92027-4 0  9996
2 39075  52.0063 265.6598 0000421 105.4409 254.6505 12.62264602629581
GLOBALSTAR M078         
1 39076U 13005E   26265.28178992 -.00000116  00000+0 -66296-4 0  9993
2 39076  51.9904 347.9323 0001450 115.0281 245.0737 12.62258740628274
GLOBALSTAR M095         
1 39077U 13005F   26265.22912460 -.00000099  00000+0  28192-4 0  9996
2 39077  52.0111 345.8328 0000834 130.3039 229.7901 12.62264475628123
GLOBALSTAR M087         
1 52888U 22064A   26265.00470212 -.00000095  00000+0  47449-4 0  9998
2 52888  51.9979 127.6985 0000777  98.4218 261.6737 12.62263126203361
