IRIDIUM 106             
1 41917U 17003A   26256.49219831  .00000052  00000+0  11393-4 0  9998
2 41917  86.3938  51.6061 0001986  83.9435 276.1986 14.34217765505869
IRIDIUM 103             
1 41918U 17003B   26256.82835764  .00000000  00000+0 -68978-5 0  9991
2 41918  86.3937  51.3654 0002201  89.7880 270.3568 14.34216906505939
IRIDIUM 109             
1 41919U 17003C   26256.48585669  .00000162  00000+0  50803-4 0  9995
2 41919  86.3941  51.5696 0002206  92.7877 267.3571 14.34214216505851
IRIDIUM 102             
1 41920U 17003D   26256.52391463  .00000075  00000+0  19827-4 0  9993
2 41920  86.3939  51.4752 0002083  91.3254 268.8181 14.34218211505941
IRIDIUM 105             
1 41921U 17003E   26256.62205125  .00000140  00000+0  42836-4 0  9993
2 41921  86.4006  19.8856 0002272  98.5089 261.6364 14.34217609507818
IRIDIUM 104             
1 41922U 17003F   26256.67615302  .00000272  00000+0  90097-4 0  9999
2 41922  86.3940  51.4552 0002425  94.8526 265.2946 14.34219645505956
IRIDIUM 114             
1 41923U 17003G   26256.47317466  .00000176  00000+0  55675-4 0  9994
2 41923  86.3944  51.5233 0002195  90.9149 269.2298 14.34215443505901
IRIDIUM 108             
1 41924U 17003H   26256.36192584  .00000072  00000+0  18680-4 0  9995
2 41924  86.3999  19.8789 0002128  95.8745 264.2693 14.34217526507749
IRIDIUM 112             
1 41925U 17003J   26256.46049148  .00000105  00000+0  30593-4 0  9998
2 41925  86.3935  51.3664 0002175  93.2909 266.8535 14.34217995505920
IRIDIUM 111             
1 41926U 17003K   26256.51757090  .00000051  00000+0  11081-4 0  9998
2 41926  86.3937  51.4150 0002161  90.4040 269.7404 14.34217485505914
IRIDIUM 113             
1 42803U 17039A   26256.49753622  .00000011  00000+0 -32327-5 0  9990
2 42803  86.3925 285.2658 0002209  93.7672 266.3776 14.34217678483842
IRIDIUM 123             
1 42804U 17039B   26256.74832071  .00000046  00000+0  93340-5 0  9994
2 42804  86.3983 316.6391 0002244  90.3673 269.7780 14.34217225482640
IRIDIUM 120             
1 42805U 17039C   26256.84003595  .00000005  00000+0 -51483-5 0  9995
2 42805  86.3914 284.8934 0002041  90.2914 269.8515 14.34217586483880
IRIDIUM 115             
1 42806U 17039D   26256.86204918  .00000195  00000+0  52063-4 0  9993
2 42806  86.4450 285.0255 0002365  86.9028 273.2443 14.43281400487051
IRIDIUM 118             
1 42807U 17039E   26256.43119089  .00000068  00000+0  17078-4 0  9997
2 42807  86.3986 316.7694 0002215  95.3117 264.8332 14.34216844482598
IRIDIUM 117             
1 42808U 17039F   26256.86882971  .00000021  00000+0  55111-6 0  9993
2 42808  86.3986 316.5433 0002265  92.9599 267.1856 14.34216965482681
IRIDIUM 126             
1 42809U 17039G   26256.61512625  .00000136  00000+0  41613-4 0  9990
2 42809  86.3984 316.7019 0002328  94.2663 265.8799 14.34217301482629
IRIDIUM 124             
1 42810U 17039H   26256.51854049  .00000123  00000+0  30460-4 0  9994
2 42810  86.4432 253.4076 0002379  88.1801 271.9673 14.43279449487852
IRIDIUM 128             
1 42811U 17039J   26256.32679037  .00000012  00000+0 -27853-5 0  9997
2 42811  86.4022 348.3181 0002009  93.4270 266.7156 14.34216973482618
IRIDIUM 121             
1 42812U 17039K   26256.63415293  .00000022  00000+0  92637-6 0  9997
2 42812  86.3986 316.7222 0002161  94.6730 265.4713 14.34216786482500
IRIDIUM 133             
1 42955U 17061A   26256.35850378  .00000175  00000+0  55442-4 0  9996
2 42955  86.4030 348.4247 0002155  94.2891 265.8551 14.34217654467417
IRIDIUM 100             
1 42956U 17061B   26256.77077178 -.00000022  00000+0 -15014-4 0  9996
2 42956  86.4024 348.1692 0002034  95.1837 264.9591 14.34216759467473
IRIDIUM 122             
1 42957U 17061C   26256.52975147  .00000075  00000+0  19584-4 0  9995
2 42957  86.4028 348.2703 0002234  93.5834 266.5617 14.34216935467443
IRIDIUM 129             
1 42958U 17061D   26256.83419807  .00000088  00000+0  24473-4 0  9993
2 42958  86.4028 348.2111 0002324  99.6226 260.5232 14.34217412467504
IRIDIUM 119             
1 42959U 17061E   26256.52341140  .00000191  00000+0  61166-4 0  9999
2 42959  86.4029 348.3370 0002260  94.0949 266.0505 14.34218169467474
IRIDIUM 107             
1 42960U 17061F   26256.33313356  .00000081  00000+0  21764-4 0  9996
2 42960  86.4029 348.4382 0002251  88.6600 271.4854 14.34217564467456
IRIDIUM 132             
1 42961U 17061G   26256.82785567  .00000063  00000+0  15420-4 0  9990
2 42961  86.4029 348.2107 0002196  95.1959 264.9487 14.34217577467529
IRIDIUM 136             
1 42962U 17061H   26256.78979979  .00000051  00000+0  11272-4 0  9996
2 42962  86.4030 348.2337 0002168  95.3567 264.7876 14.34217470467536
IRIDIUM 139             
1 42963U 17061J   26256.51706810  .00000105  00000+0  30345-4 0  9992
2 42963  86.4031 348.4107 0002160  93.5771 266.5672 14.34217662467508
IRIDIUM 125             
1 42964U 17061K   26256.78345847  .00000133  00000+0  40597-4 0  9992
2 42964  86.4033 348.3623 0002653  89.3391 270.8109 14.34218133467553
IRIDIUM 135             
1 43070U 17083A   26256.82735117  .00000009  00000+0 -37318-5 0  9994
2 43070  86.3919 284.9590 0002146  92.8550 267.2891 14.34217507456858
IRIDIUM 138             
1 43071U 17083B   26256.15503582  .00000011  00000+0 -32255-5 0  9998
2 43071  86.3933 284.9492 0002276  93.3010 266.8446 14.34217804456746
IRIDIUM 116             
1 43072U 17083C   26256.54193411  .00000018  00000+0 -76643-6 0  9995
2 43072  86.3919 285.0633 0001915  88.1673 271.9742 14.34217627456835
IRIDIUM 130             
1 43073U 17083D   26256.51022162  .00000055  00000+0  12637-4 0  9998
2 43073  86.3929 285.3610 0002208  87.8274 272.3174 14.34218042456773
IRIDIUM 151             
1 43074U 17083E   26256.83369339  .00000014  00000+0 -21362-5 0  9996
2 43074  86.3920 285.0012 0002171  91.6449 268.4996 14.34217727456849
IRIDIUM 134             
1 43075U 17083F   26256.52290667  .00000015  00000+0 -18793-5 0  9995
2 43075  86.3923 285.1404 0002138  90.8155 269.3286 14.34217633456766
IRIDIUM 137             
1 43076U 17083G   26256.60535991  .00000017  00000+0 -83742-6 0  9996
2 43076  86.3924 285.2006 0001824  96.2786 263.8618 14.34217609456848
IRIDIUM 141             
1 43077U 17083H   26256.52924909  .00000013  00000+0 -23273-5 0  9997
2 43077  86.3918 285.0579 0002187  93.1786 266.9660 14.34217676456838
IRIDIUM 153             
1 43078U 17083J   26256.48142549  .00000013  00000+0 -25471-5 0  9997
2 43078  86.3910 253.5389 0002440  89.1838 270.9637 14.34217352457937
IRIDIUM 131             
1 43079U 17083K   26256.51656302  .00000043  00000+0  82004-5 0  9996
2 43079  86.3925 285.2555 0002214  93.8419 266.3030 14.34218252456763
IRIDIUM 144             
1 43249U 18030A   26256.69707625  .00000082  00000+0  22233-4 0  9992
2 43249  86.3907 253.3756 0002186  88.1389 272.0057 14.34217906442822
IRIDIUM 149             
1 43250U 18030B   26256.70341868 -.00000018  00000+0 -13560-4 0  9993
2 43250  86.3909 253.3391 0002220  89.8065 270.3385 14.34217104442846
IRIDIUM 157             
1 43251U 18030C   26256.51313976 -.00000028  00000+0 -17032-4 0  9991
2 43251  86.3910 253.4737 0002171  88.8062 271.3383 14.34216610442799
IRIDIUM 140             
1 43252U 18030D   26256.74147183 -.00000054  00000+0 -26422-4 0  9994
2 43252  86.3911 253.3907 0002178  88.3230 271.8215 14.34216894442881
IRIDIUM 145             
1 43253U 18030E   26256.79855684 -.00000002  00000+0 -79566-5 0  9993
2 43253  86.3911 253.3388 0001950  84.2168 275.9250 14.34217043442822
IRIDIUM 146             
1 43254U 18030F   26256.70975736  .00000062  00000+0  15098-4 0  9999
2 43254  86.3908 253.3878 0002197  88.0900 272.0547 14.34217661442826
IRIDIUM 148             
1 43255U 18030G   26256.60827911 -.00000025  00000+0 -16122-4 0  9990
2 43255  86.3911 253.4748 0002127  91.5679 268.5760 14.34217041442844
IRIDIUM 142             
1 43256U 18030H   26256.50679547  .00000024  00000+0  16141-5 0  9999
2 43256  86.3906 253.4030 0002126  88.2354 271.9085 14.34217552442794
IRIDIUM 150             
1 43257U 18030J   26256.47508300  .00000017  00000+0 -10815-5 0  9999
2 43257  86.3908 253.5354 0002239  87.4553 272.6899 14.34217715442819
IRIDIUM 143             
1 43258U 18030K   26256.52582213 -.00000009  00000+0 -10427-4 0  9991
2 43258  86.3916 253.6103 0002134  87.1883 272.9557 14.34217241442750
IRIDIUM 161             
1 43478U 18047C   26256.49648034  .00000287  00000+0  79301-4 0  9995
2 43478  86.4459  51.5133 0002265  95.9435 264.2024 14.43279977437874
IRIDIUM 152             
1 43479U 18047D   26256.49854459  .00000167  00000+0  52564-4 0  9995
2 43479  86.3935  51.3743 0002106  92.2809 267.8628 14.34216390435144
IRIDIUM 147             
1 43480U 18047E   26256.85373104  .00000154  00000+0  47932-4 0  9999
2 43480  86.3938  51.2330 0002021  90.6373 269.5054 14.34212568435194
IRIDIUM 110             
1 43481U 18047F   26256.51123067  .00000095  00000+0  26974-4 0  9991
2 43481  86.3940  51.4704 0002328  96.8200 263.3261 14.34218062435133
IRIDIUM 162             
1 43482U 18047G   26256.49016907  .00000147  00000+0  37634-4 0  9996
2 43482  86.4458  51.4060 0002185  90.7986 269.3465 14.43279105437868
IRIDIUM 160             
1 43569U 18061A   26256.59660068  .00000078  00000+0  20652-4 0  9997
2 43569  86.4005  19.8211 0002159  95.3084 264.8358 14.34217345426046
IRIDIUM 166             
1 43570U 18061B   26256.62197061 -.00000021  00000+0 -14645-4 0  9996
2 43570  86.3998  19.7603 0001950  93.5398 266.6021 14.34216499426077
IRIDIUM 158             
1 43571U 18061C   26256.59026053  .00000156  00000+0  48764-4 0  9991
2 43571  86.4004  19.7831 0002187  92.8856 267.2590 14.34217628426033
IRIDIUM 165             
1 43572U 18061D   26256.75516749  .00000063  00000+0  15432-4 0  9999
2 43572  86.4007  19.7624 0002084  92.6009 267.5425 14.34217440426088
IRIDIUM 155             
1 43573U 18061E   26256.78688022  .00000024  00000+0  15932-5 0  9990
2 43573  86.4002  19.6138 0002145  91.6501 268.4941 14.34217251426057
IRIDIUM 154             
1 43574U 18061F   26256.76785229  .00000009  00000+0 -37326-5 0  9991
2 43574  86.4000  19.7601 0001934  93.4257 266.7160 14.34217108426106
IRIDIUM 163             
1 43575U 18061G   26256.39998212  .00000072  00000+0  18823-4 0  9998
2 43575  86.4001  19.8256 0002209  95.3481 264.7966 14.34217427426028
IRIDIUM 156             
1 43576U 18061H   26256.58391352  .00000132  00000+0  40225-4 0  9990
2 43576  86.4002  19.7566 0002164  90.0276 270.1167 14.34216661426042
IRIDIUM 164             
1 43577U 18061J   26256.42535176  .00000068  00000+0  17349-4 0  9997
2 43577  86.4003  19.8643 0001990  93.9835 266.1589 14.34217676426062
IRIDIUM 159             
1 43578U 18061K   26256.39363889  .00000014  00000+0 -20209-5 0  9996
2 43578  86.3998  19.8130 0002092  95.4746 264.6688 14.34217200426020
IRIDIUM 180             
1 43922U 19002A   26256.74197874  .00000128  00000+0  38530-4 0  9993
2 43922  86.3984 316.6016 0002206  95.9218 264.2229 14.34217358401681
IRIDIUM 176             
1 43923U 19002B   26256.72090501  .00000767  00000+0  11768-3 0  9993
2 43923  86.6103 316.5415 0002377  92.8066 267.3423 14.72245729412278
IRIDIUM 168             
1 43924U 19002C   26256.73563271  .00000112  00000+0  32900-4 0  9990
2 43924  86.3988 316.6839 0002230  95.8040 264.3410 14.34216634401666
IRIDIUM 173             
1 43925U 19002D   26256.44387595  .00000059  00000+0  13830-4 0  9993
2 43925  86.3982 316.6907 0002244  93.9022 266.2431 14.34217178401603
IRIDIUM 169             
1 43926U 19002E   26256.30984951  .00000227  00000+0  67664-4 0  9999
2 43926  86.4283 348.3690 0002415  85.4139 274.7335 14.38610382402892
IRIDIUM 172             
1 43927U 19002F   26256.78637789  .00000075  00000+0  19778-4 0  9990
2 43927  86.3982 316.5560 0002235  95.9495 264.1956 14.34217128401665
IRIDIUM 175             
1 43928U 19002G   26256.51247331  .00000105  00000+0  24885-4 0  9991
2 43928  86.4462 253.5822 0001371 329.3885  30.7236 14.43645362411729
IRIDIUM 171             
1 43929U 19002H   26256.69757986  .00000156  00000+0  48542-4 0  9995
2 43929  86.3991 316.9092 0002136  93.2993 266.8447 14.34217066401648
IRIDIUM 170             
1 43930U 19002J   26256.45522299  .00000501  00000+0  75539-4 0  9998
2 43930  86.6104 316.6542 0002480  94.7048 265.4453 14.72256836412245
IRIDIUM 167             
1 43931U 19002K   26256.69123613  .00000151  00000+0  46995-4 0  9997
2 43931  86.3984 316.6190 0002108  89.1086 271.0351 14.34217043401642
IRIDIUM 181             
1 56726U 23068S   26256.36277013  .00000196  00000+0  52231-4 0  9997
2 56726  86.4540  19.9210 0002115  97.4243 262.7199 14.43311325175157
IRIDIUM 177             
1 56727U 23068T   26256.84476139  .00000612  00000+0  82956-4 0  9991
2 56727  86.1924 286.7255 0002590  92.1152 268.0364 14.77163888179470
IRIDIUM 174             
1 56728U 23068U   26256.17099301  .00000521  00000+0  78704-4 0  9995
2 56728  86.6112 316.9293 0002704  93.1238 267.0288 14.72257176178962
IRIDIUM 178             
1 56729U 23068V   26256.54218146  .00000735  00000+0  93668-4 0  9990
2 56729  86.6598 348.4634 0002548  94.4405 265.7107 14.80036924179439
IRIDIUM 179             
1 56730U 23068W   26256.33398112  .00000810  00000+0  10356-3 0  9997
2 56730  86.6838 357.7852 0002369  90.8593 269.2900 14.80048756179405
