IRIDIUM 106             
1 41917U 17003A   26254.74798556  .00000039  00000+0  68491-5 0  9997
2 41917  86.3934  52.3359 0002000  83.3827 276.7596 14.34217527505612
IRIDIUM 103             
1 41918U 17003B   26254.80506961  .00000100  00000+0  28742-4 0  9995
2 41918  86.3936  52.2117 0002325  90.4948 269.6514 14.34217428505643
IRIDIUM 109             
1 41919U 17003C   26254.81141078  .00000042  00000+0  79976-5 0  9992
2 41919  86.3936  52.2699 0002184  91.1420 269.0026 14.34218370505611
IRIDIUM 102             
1 41920U 17003D   26254.77970244  .00000036  00000+0  57938-5 0  9991
2 41920  86.3935  52.2048 0002086  91.0913 269.0522 14.34217741505697
IRIDIUM 105             
1 41921U 17003E   26254.59876356  .00000142  00000+0  43544-4 0  9996
2 41921  86.4005  20.7309 0002298  99.2429 260.9027 14.34218705507529
IRIDIUM 104             
1 41922U 17003F   26254.79240494  .00000222  00000+0  72074-4 0  9996
2 41922  86.3936  52.2434 0002405  95.2681 264.8789 14.34218521505686
IRIDIUM 114             
1 41923U 17003G   26254.79872920  .00000049  00000+0  10566-4 0  9997
2 41923  86.3935  52.2237 0002247  91.5663 268.5790 14.34217849505663
IRIDIUM 108             
1 41924U 17003H   26254.75724959  .00000058  00000+0  13598-4 0  9990
2 41924  86.3998  20.5493 0002125  95.3681 264.7758 14.34217317507510
IRIDIUM 112             
1 41925U 17003J   26254.78604743  .00000045  00000+0  89096-5 0  9995
2 41925  86.3932  52.0670 0002172  93.2423 266.9021 14.34217381505683
IRIDIUM 111             
1 41926U 17003K   26254.77335771  .00000011  00000+0 -30568-5 0  9991
2 41926  86.3932  52.1453 0002042  90.3484 269.7946 14.34217081505667
IRIDIUM 113             
1 42803U 17039A   26254.54401811  .00000037  00000+0  62991-5 0  9991
2 42803  86.3927 286.0838 0002342  94.3362 265.8102 14.34217882483567
IRIDIUM 123             
1 42804U 17039B   26254.65526451  .00000035  00000+0  55402-5 0  9999
2 42804  86.3987 317.5137 0002282  90.5669 269.5789 14.34217094482349
IRIDIUM 120             
1 42805U 17039C   26254.81674928  .00000040  00000+0  72963-5 0  9998
2 42805  86.3917 285.7407 0002161  90.1506 269.9937 14.34217784483594
IRIDIUM 115             
1 42806U 17039D   26254.78212560  .00000205  00000+0  54964-4 0  9998
2 42806  86.4454 285.8958 0002391  87.1209 273.0265 14.43280702486756
IRIDIUM 118             
1 42807U 17039E   26254.68697648  .00000134  00000+0  40634-4 0  9992
2 42807  86.3988 317.4981 0002261  96.0400 264.1054 14.34217173482344
IRIDIUM 117             
1 42808U 17039F   26254.70600451  .00000074  00000+0  19297-4 0  9996
2 42808  86.3986 317.4469 0002262  92.9889 267.1566 14.34217230482379
IRIDIUM 126             
1 42809U 17039G   26254.66160686  .00000160  00000+0  49984-4 0  9995
2 42809  86.3988 317.5180 0002306  94.3767 265.7692 14.34216837482346
IRIDIUM 124             
1 42810U 17039H   26254.71593780  .00000152  00000+0  39084-4 0  9999
2 42810  86.4430 254.1626 0002412  89.6719 270.4758 14.43279113487598
IRIDIUM 128             
1 42811U 17039J   26254.58257661  .00000052  00000+0  11585-4 0  9995
2 42811  86.4026 349.0461 0002126  93.0787 267.0652 14.34217189482367
IRIDIUM 121             
1 42812U 17039K   26254.68063302  .00000117  00000+0  34613-4 0  9993
2 42812  86.3988 317.5385 0002216  94.3689 265.7760 14.34217332482224
IRIDIUM 133             
1 42955U 17061A   26254.54452174  .00000124  00000+0  37209-4 0  9992
2 42955  86.4029 349.1817 0002110  93.4629 266.6809 14.34217052467155
IRIDIUM 100             
1 42956U 17061B   26254.60794648  .00000062  00000+0  15008-4 0  9999
2 42956  86.4026 349.0720 0002186  94.9234 265.2212 14.34217403467160
IRIDIUM 122             
1 42957U 17061C   26254.71576875  .00000166  00000+0  52305-4 0  9998
2 42957  86.4028 349.0272 0002210  93.7810 266.3638 14.34216736467184
IRIDIUM 129             
1 42958U 17061D   26254.60160457  .00000136  00000+0  41571-4 0  9992
2 42958  86.4029 349.1429 0002287 100.1604 259.9850 14.34217245467189
IRIDIUM 119             
1 42959U 17061E   26254.56989294  .00000177  00000+0  56296-4 0  9991
2 42959  86.4028 349.1524 0002282  94.5605 265.5852 14.34217546467197
IRIDIUM 107             
1 42960U 17061F   26254.58891995  .00000134  00000+0  40617-4 0  9998
2 42960  86.4029 349.1661 0002284  88.8797 271.2661 14.34217744467206
IRIDIUM 132             
1 42961U 17061G   26254.59526256  .00000096  00000+0  27070-4 0  9990
2 42961  86.4029 349.1424 0002214  95.1694 264.9755 14.34217625467205
IRIDIUM 136             
1 42962U 17061H   26254.55720646  .00000095  00000+0  26712-4 0  9997
2 42962  86.4029 349.1654 0002168  94.8660 265.2784 14.34217658467211
IRIDIUM 139             
1 42963U 17061J   26254.56354909  .00000146  00000+0  44934-4 0  9997
2 42963  86.4030 349.2260 0002189  93.3322 266.8124 14.34217668467227
IRIDIUM 125             
1 42964U 17061K   26254.69040304  .00000136  00000+0  41574-4 0  9999
2 42964  86.4033 349.2357 0002679  90.6391 269.5112 14.34217778467250
IRIDIUM 135             
1 43070U 17083A   26254.52499035  .00000141  00000+0  43324-4 0  9994
2 43070  86.3923 285.9227 0002228  91.3974 268.7477 14.34217786456525
IRIDIUM 138             
1 43071U 17083B   26254.82943434  .00000045  00000+0  91561-5 0  9995
2 43071  86.3934 285.5040 0002400  93.3547 266.7923 14.34218060456550
IRIDIUM 116             
1 43072U 17083C   26254.51864759 -.00000076  00000+0 -34086-4 0  9998
2 43072  86.3922 285.9104 0002036  87.7385 272.4044 14.34217380456546
IRIDIUM 130             
1 43073U 17083D   26254.55670339  .00000060  00000+0  14319-4 0  9990
2 43073  86.3931 286.1784 0002200  86.9924 273.1523 14.34217966456491
IRIDIUM 151             
1 43074U 17083E   26254.53133238  .00000011  00000+0 -31200-5 0  9997
2 43074  86.3922 285.9643 0002062  91.3852 268.7580 14.34217628456510
IRIDIUM 134             
1 43075U 17083F   26254.56938832  .00000008  00000+0 -40391-5 0  9991
2 43075  86.3925 285.9580 0002131  90.9406 269.2034 14.34217585456489
IRIDIUM 137             
1 43076U 17083G   26254.51230425  .00000017  00000+0 -11451-5 0  9995
2 43076  86.3926 286.0765 0001788  95.4812 264.6587 14.34217625456540
IRIDIUM 141             
1 43077U 17083H   26254.78503630 -.00000015  00000+0 -12339-4 0  9990
2 43077  86.3921 285.7879 0002186  93.4909 266.6537 14.34217604456584
IRIDIUM 153             
1 43078U 17083J   26254.52790674  .00000016  00000+0 -14762-5 0  9992
2 43078  86.3909 254.3566 0002447  89.9554 270.1923 14.34217318457652
IRIDIUM 131             
1 43079U 17083K   26254.63281404  .00000210  00000+0  67898-4 0  9993
2 43079  86.3927 286.0437 0002262  93.8154 266.3300 14.34218391456496
IRIDIUM 144             
1 43249U 18030A   26254.74355803  .00000085  00000+0  23376-4 0  9995
2 43249  86.3907 254.1933 0002192  88.1482 271.9965 14.34217617442543
IRIDIUM 149             
1 43250U 18030B   26254.74989964  .00000015  00000+0 -16262-5 0  9999
2 43250  86.3909 254.1569 0002236  90.1785 269.9667 14.34217395442561
IRIDIUM 157             
1 43251U 18030C   26254.55962034 -.00000096  00000+0 -41183-4 0  9997
2 43251  86.3910 254.2915 0002190  89.2828 270.8619 14.34216417442513
IRIDIUM 140             
1 43252U 18030D   26254.50887829  .00000058  00000+0  13548-4 0  9991
2 43252  86.3910 254.3252 0002319  89.0794 271.0667 14.34217936442560
IRIDIUM 145             
1 43253U 18030E   26254.77526913 -.00000008  00000+0 -98508-5 0  9992
2 43253  86.3910 254.1857 0001979  84.2672 275.8750 14.34217153442536
IRIDIUM 146             
1 43254U 18030F   26254.75623892  .00000038  00000+0  63611-5 0  9993
2 43254  86.3907 254.2055 0002197  88.2008 271.9439 14.34217303442543
IRIDIUM 148             
1 43255U 18030G   26254.51522303  .00000035  00000+0  56083-5 0  9995
2 43255  86.3909 254.3508 0002242  91.6970 268.4482 14.34217575442547
IRIDIUM 142             
1 43256U 18030H   26254.55327698  .00000028  00000+0  28209-5 0  9991
2 43256  86.3905 254.2208 0002140  87.9153 272.2288 14.34217479442515
IRIDIUM 150             
1 43257U 18030J   26254.52156474  .00000032  00000+0  42713-5 0  9992
2 43257  86.3908 254.3532 0002264  88.0101 272.1354 14.34217727442533
IRIDIUM 143             
1 43258U 18030K   26254.50253482  .00000002  00000+0 -65207-5 0  9999
2 43258  86.3914 254.4571 0002132  86.9572 273.1867 14.34217354442466
IRIDIUM 161             
1 43478U 18047C   26254.48588501  .00000028  00000+0  22378-5 0  9990
2 43478  86.4455  52.3547 0002255  96.0067 264.1391 14.43280412437580
IRIDIUM 152             
1 43479U 18047D   26254.75433154  .00000041  00000+0  77287-5 0  9998
2 43479  86.3930  52.1046 0002178  91.9397 268.2049 14.34217925434899
IRIDIUM 147             
1 43480U 18047E   26254.76067199  .00000019  00000+0 -32766-6 0  9993
2 43480  86.3933  52.1086 0002041  89.2007 270.9422 14.34217784434893
IRIDIUM 110             
1 43481U 18047F   26254.76701815  .00000051  00000+0  10973-4 0  9993
2 43481  86.3935  52.2001 0002301  97.0480 263.0977 14.34217521434881
IRIDIUM 162             
1 43482U 18047G   26254.68756558  .00000201  00000+0  53856-4 0  9993
2 43482  86.4455  52.1603 0002078  89.0121 271.1318 14.43280484437601
IRIDIUM 160             
1 43569U 18061A   26254.78261841  .00000086  00000+0  23469-4 0  9990
2 43569  86.4002  20.5788 0002149  95.1880 264.9561 14.34217287425784
IRIDIUM 166             
1 43570U 18061B   26254.73821912  .00000078  00000+0  20709-4 0  9993
2 43570  86.4000  20.5467 0002067  93.1395 267.0037 14.34217001425805
IRIDIUM 158             
1 43571U 18061C   26254.77627859  .00000102  00000+0  29450-4 0  9992
2 43571  86.4001  20.5408 0002185  92.7352 267.4094 14.34217063425772
IRIDIUM 165             
1 43572U 18061D   26254.73187966  .00000096  00000+0  27323-4 0  9998
2 43572  86.4001  20.6075 0002087  91.7286 268.4149 14.34217555425790
IRIDIUM 155             
1 43573U 18061E   26254.76359241  .00000045  00000+0  90530-5 0  9994
2 43573  86.3999  20.4589 0002161  91.3586 268.7858 14.34217407425769
IRIDIUM 154             
1 43574U 18061F   26254.74456442  .00000080  00000+0  21445-4 0  9991
2 43574  86.4003  20.6048 0002045  92.4348 267.7082 14.34217543425813
IRIDIUM 163             
1 43575U 18061G   26254.72553678  .00000143  00000+0  44073-4 0  9991
2 43575  86.4000  20.5252 0002204  94.9730 265.1718 14.34217724425781
IRIDIUM 156             
1 43576U 18061H   26254.76993042  .00000125  00000+0  37731-4 0  9992
2 43576  86.3998  20.5142 0002163  89.7569 270.3874 14.34216251425786
IRIDIUM 164             
1 43577U 18061J   26254.75090687  .00000116  00000+0  34380-4 0  9992
2 43577  86.4000  20.5637 0001989  92.7565 267.3858 14.34217860425826
IRIDIUM 159             
1 43578U 18061K   26254.71919377  .00000053  00000+0  11787-4 0  9991
2 43578  86.4000  20.5121 0002200  95.2770 264.8677 14.34217481425783
IRIDIUM 180             
1 43922U 19002A   26254.64892281  .00000164  00000+0  51562-4 0  9994
2 43922  86.3988 317.4759 0002226  95.6319 264.5130 14.34218818401382
IRIDIUM 176             
1 43923U 19002B   26254.68186683  .00000460  00000+0  69014-4 0  9991
2 43923  86.6107 317.3937 0002405  94.1066 266.0426 14.72257590411971
IRIDIUM 168             
1 43924U 19002C   26254.71234387  .00000156  00000+0  48560-4 0  9996
2 43924  86.3991 317.5297 0002203  96.0282 264.1165 14.34216347401373
IRIDIUM 173             
1 43925U 19002D   26254.69966219  .00000110  00000+0  32268-4 0  9998
2 43925  86.3985 317.4195 0002303  94.5308 265.6150 14.34217406401351
IRIDIUM 169             
1 43926U 19002E   26254.71006859  .00000205  00000+0  60582-4 0  9992
2 43926  86.4283 349.0367 0002469  85.9493 274.1987 14.38609681402660
IRIDIUM 172             
1 43927U 19002F   26254.69332113  .00000159  00000+0  49540-4 0  9994
2 43927  86.3986 317.4307 0002276  95.6209 264.5247 14.34217749401366
IRIDIUM 175             
1 43928U 19002G   26254.50238758  .00000105  00000+0  25150-4 0  9997
2 43928  86.4462 254.4235 0001602 340.4154  19.6985 14.43644993411431
IRIDIUM 171             
1 43929U 19002H   26254.67429198  .00000163  00000+0  51070-4 0  9990
2 43929  86.3997 317.7544 0002187  92.8918 267.2528 14.34218430401352
IRIDIUM 170             
1 43930U 19002J   26254.68806645  .00000461  00000+0  69162-4 0  9991
2 43930  86.6107 317.3928 0002483  95.0422 265.1079 14.72255025411987
IRIDIUM 167             
1 43931U 19002K   26254.66794787  .00000099  00000+0  28466-4 0  9992
2 43931  86.3990 317.4643 0002120  88.6462 271.4977 14.34216414401354
IRIDIUM 181             
1 56726U 23068S   26254.42154783  .00000207  00000+0  55469-4 0  9999
2 56726  86.4536  20.7317 0002099  97.3457 262.7983 14.43310847174874
IRIDIUM 177             
1 56727U 23068T   26254.54154049  .00000570  00000+0  76908-4 0  9992
2 56727  86.1928 287.8150 0002580  92.7046 267.4469 14.77161114179139
IRIDIUM 174             
1 56728U 23068U   26254.67570703  .00000481  00000+0  72415-4 0  9996
2 56728  86.6116 317.5541 0002699  93.7269 266.4257 14.72255597178742
IRIDIUM 178             
1 56729U 23068V   26254.64908267  .00000492  00000+0  61554-4 0  9998
2 56729  86.6603 349.2531 0002461  92.2708 267.8795 14.80037580179151
IRIDIUM 179             
1 56730U 23068W   26254.71133839  .00000746  00000+0  95221-4 0  9993
2 56730  86.6837 358.4571 0002366  90.9769 269.1723 14.80046047179169
