EUTELSAT 174A           
1 28924U 05052A   26263.73950913  .00000007  00000+0  00000+0 0  9998
2 28924   4.4538  75.2897 0006018 103.3602 261.2372  1.00274915 53290
EUTELSAT 33F            
1 29270U 06032A   26263.78289610  .00000152  00000+0  00000+0 0  9997
2 29270   1.9012  81.0321 0003367  91.8032 141.7773  1.00271690 48268
EUTELSAT HOTBIRD 13C    
1 33459U 08065A   26263.69513560 -.00000286  00000+0  00000+0 0  9992
2 33459   3.1888  77.9774 0003651 104.8922  16.6839  1.00272117 48305
EUTELSAT 36B            
1 36101U 09065A   26263.78636278  .00000108  00000+0  00000+0 0  9994
2 36101   0.7253  81.1116 0005781  96.1676 155.9922  1.00273665 61666
EUTELSAT KA-SAT 9A      
1 37258U 10069A   26263.35042509  .00000058  00000+0  00000+0 0  9999
2 37258   0.0743 352.8777 0005350 175.2807 326.2535  1.00277377 44966
EUTELSAT 7 WEST A       
1 37816U 11051A   26263.84619448 -.00000064  00000+0  00000+0 0  9995
2 37816   0.0658   6.1772 0006083 170.9714 119.9139  1.00272808 54836
EUTELSAT 16A            
1 37836U 11057A   26263.77951608  .00000100  00000+0  00000+0 0  9992
2 37836   0.1077  65.6919 0005491 114.1524 116.4510  1.00273193  8290
EUTELSAT 21B            
1 38992U 12062B   26263.63802200  .00000126  00000+0  00000+0 0  9999
2 38992   0.0699   3.2153 0002915 173.8369  73.7672  1.00273315 50789
EUTELSAT 70B            
1 39020U 12069A   26263.71896903 -.00000047  00000+0  00000+0 0  9994
2 39020   0.0649 356.8162 0003691 184.1953 147.9336  1.00271244 50465
EUTELSAT 117 WEST A     
1 39122U 13012A   26263.68187554 -.00000017  00000+0  00000+0 0  9994
2 39122   0.0107 217.2631 0002897 318.2031 312.7922  1.00271847 49394
EUTELSAT 7B             
1 39163U 13022A   26263.77951608  .00000100  00000+0  00000+0 0  9991
2 39163   0.0665 354.6153 0004663 111.1703 190.5402  1.00274341 48905
EXPRESS-AT1             
1 39612U 14010A   26263.93392501 -.00000112  00000+0  00000+0 0  9991
2 39612   0.4974  84.4033 0004962  81.0267 246.7123  1.00315806 45776
EXPRESS-AT2             
1 39613U 14010B   26263.80530830  .00000075  00000+0  00000+0 0  9994
2 39613   0.0253 253.8400 0000439 214.9984 236.7689  1.00269825 45451
EUTELSAT 3B             
1 39773U 14030A   26263.77691608  .00000016  00000+0  00000+0 0  9995
2 39773   0.0624 354.4435 0004188 181.7280 106.2954  1.00271509 45022
EUTELSAT 115 WEST B     
1 40425U 15010B   26263.68230888 -.00000029  00000+0  00000+0 0  9994
2 40425   0.0430 354.4127 0000148 298.3879 197.5069  1.00271029 42341
EUTELSAT 8 WEST B       
1 40875U 15039B   26263.70345564 -.00000070  00000+0  00000+0 0  9991
2 40875   0.0679   4.5036 0003637 175.3701  64.9816  1.00271241 40612
EUTELSAT 9B             
1 41310U 16005A   26263.35042509  .00000058  00000+0  00000+0 0  9999
2 41310   0.0468  64.5537 0002473 148.2977 281.5513  1.00271373 39071
EUTELSAT 65 WEST A      
1 41382U 16014A   26263.49675035 -.00000280  00000+0  00000+0 0  9997
2 41382   0.0634 326.5628 0002243 207.5456 298.9247  1.00270571 38482
EUTELSAT 117 WEST B     
1 41589U 16038B   26263.68187554 -.00000016  00000+0  00000+0 0  9994
2 41589   0.0427 355.6847 0000167 319.3527 173.0231  1.00270649 37628
EUTELSAT 172B           
1 42741U 17029B   26263.85739311 -.00000009  00000+0  00000+0 0  9991
2 42741   0.0257 138.1031 0000232 290.6233  51.6975  1.00273075 34716
EUTELSAT 7C             
1 44334U 19034B   26263.20750083  .00000044  00000+0  00000+0 0  9995
2 44334   0.0681 180.8583 0003261 338.8270 281.1249  1.00271868  7783
EUTELSAT 5 WEST B       
1 44624U 19067A   26263.84662781 -.00000046  00000+0  00000+0 0  9993
2 44624   0.0700 334.8970 0003199 200.9667 123.6705  1.00272822 25381
EUTELSAT KONNECT        
1 45027U 20005B   26263.77778274  .00000046  00000+0  00000+0 0  9991
2 45027   0.0637  99.1303 0002160 107.7457  80.0096  1.00276188 25295
EUTELSAT QUANTUM        
1 49056U 21069B   26263.78575611  .00000122  00000+0  00000+0 0  9994
2 49056   0.0240  63.4089 0002316 110.0548 156.7934  1.00272664 18881
EUTELSAT KONNECT VHTS   
1 53765U 22110A   26263.77682941  .00000013  00000+0  00000+0 0  9997
2 53765   0.0543 104.2778 0002797  44.6242 133.1719  1.00270688  7796
EUTELSAT HOTBIRD 13F    
1 54048U 22134A   26263.77890941  .00000083  00000+0  00000+0 0  9996
2 54048   0.0645 287.6261 0001826  83.1550 282.3067  1.00272013 14334
EUTELSAT HOTBIRD 13G    
1 54225U 22146A   26263.77890941  .00000083  00000+0  00000+0 0  9996
2 54225   0.0526 237.5248 0002273 293.7595 121.8113  1.00271992  8420
EUTELSAT 10B            
1 54259U 22157A   26263.73145841  .00000064  00000+0  00000+0 0  9992
2 54259   0.0554 101.2682 0001584 359.8137 171.8566  1.00271670 13984
EUTELSAT 36D            
1 59346U 24059A   26263.78341610  .00000152  00000+0  00000+0 0  9992
2 59346   0.0202 193.2241 0000305 259.8245 224.5353  1.00272429  9109
