KUIPER-00008            
1 63724U 25088A   26260.38569558  .00000617  00000+0  10992-3 0  9997
2 63724  51.9016 320.3290 0000420  87.7363 272.3648 14.79931682 76437
KUIPER-00009            
1 63725U 25088B   26260.48161102  .00005749  00000+0  38687-3 0  9994
2 63725  51.9032 327.8347 0000296  92.3023 267.7986 15.08047998 76330
KUIPER-00010            
1 63726U 25088C   26260.35734848  .00000969  00000+0  15605-3 0  9998
2 63726  51.9033 315.5658 0000464  84.8665 275.2351 14.79929746 76119
KUIPER-00011            
1 63727U 25088D   26260.45055018  .00000968  00000+0  15597-3 0  9994
2 63727  51.9019 322.6959 0000383  80.8973 279.2033 14.79933724 76151
KUIPER-00012            
1 63728U 25088E   26260.43293705  .00003579  00000+0  49803-3 0  9998
2 63728  51.9025 307.7136 0000257  28.0483 332.0493 14.79949234 76319
KUIPER-00013            
1 63729U 25088F   26260.43167353  .00000914  00000+0  14886-3 0  9991
2 63729  51.9025 340.2385 0000408  76.9970 283.1038 14.79927544 75960
KUIPER-00014            
1 63730U 25088G   26260.39787178  .00001897  00000+0  27772-3 0  9990
2 63730  51.9037 340.3320 0000365  85.9653 274.1351 14.79944450 75777
KUIPER-00015            
1 63731U 25088H   26260.42088217 -.00000672  00000+0 -59133-4 0  9992
2 63731  51.9023 350.2756 0000658 116.9876 243.1154 14.79928970 76095
KUIPER-00016            
1 63732U 25088J   26260.53026443  .00002753  00000+0  38993-3 0  9998
2 63732  51.9009 342.2515 0000325  98.1002 261.9998 14.79934361 75754
KUIPER-00018            
1 63733U 25088K   26260.50729020  .00000762  00000+0  12894-3 0  9997
2 63733  51.9034 332.4000 0000575  78.0705 282.0322 14.79931229 75897
KUIPER-00019            
1 63734U 25088L   26260.39890752 -.00000711  00000+0 -64260-4 0  9997
2 63734  51.9039 331.6259 0000441 104.1191 255.9820 14.79924951 75898
KUIPER-00020            
1 63735U 25088M   26260.43705156  .00001095  00000+0  17254-3 0  9990
2 63735  51.9037 335.2064 0000383  86.9250 273.1756 14.79939559 76058
KUIPER-00021            
1 63736U 25088N   26260.40329555 -.00001106  00000+0 -11608-3 0  9995
2 63736  51.9051 335.3065 0000698  75.0770 285.0269 14.79925864 75887
KUIPER-00023            
1 63737U 25088P   26260.23176767  .00000000  00000+0  29072-4 0  9997
2 63737  51.8976 338.5528 0001087  49.6589 310.4468 14.79923315 76121
KUIPER-00024            
1 63738U 25088Q   26260.17773972  .00000818  00000+0  13634-3 0  9995
2 63738  51.9051 326.4059 0000427  91.8108 268.2903 14.79927263 76417
KUIPER-00025            
1 63739U 25088R   26260.40599885  .00001704  00000+0  25243-3 0  9995
2 63739  51.9056 332.8782 0000520  90.9967 269.1055 14.79933608 76209
KUIPER-00027            
1 63740U 25088S   26260.44514806  .00001308  00000+0  20054-3 0  9996
2 63740  51.9029 327.6626 0000417  94.5643 265.5367 14.79937040 76015
KUIPER-00028            
1 63741U 25088T   26260.48160633  .00000872  00000+0  14341-3 0  9993
2 63741  51.9017 324.9427 0000151  86.0776 274.0204 14.79930403 76460
KUIPER-00029            
1 63742U 25088U   26260.39007283  .00001650  00000+0  24534-3 0  9995
2 63742  51.9035 324.0443 0000107  40.5449 319.5521 14.79934274 75997
KUIPER-00030            
1 63743U 25088V   26260.49649619 -.00000269  00000+0 -63565-5 0  9998
2 63743  51.9029 342.3944 0000421  97.2465 262.8546 14.79929223 76037
KUIPER-00031            
1 63744U 25088W   26260.47891675  .00001180  00000+0  18368-3 0  9998
2 63744  51.9017 327.4949 0000281  78.3970 281.7024 14.79934437 75953
KUIPER-00032            
1 63745U 25088X   26260.48714668  .00013495  00000+0  31454-3 0  9999
2 63745  51.8659 172.8970 0005239  84.1074 276.0512 15.42552663 79107
KUIPER-00033            
1 63746U 25088Y   26260.58161167  .00000691  00000+0  11958-3 0  9992
2 63746  51.9020 357.0386 0000215  87.5630 272.5357 14.79929269 76039
KUIPER-00034            
1 63747U 25088Z   26260.35186674 -.00000265  00000+0 -57818-5 0  9994
2 63747  51.9038 320.5909 0000166 156.5283 203.5687 14.79960070 76205
KUIPER-00035            
1 63748U 25088AA  26260.52754736  .00001399  00000+0  21241-3 0  9990
2 63748  51.9019 344.7799 0000411  89.1381 270.9628 14.79940681 75931
KUIPER-00037            
1 63749U 25088AB  26260.38543414 -.00000391  00000+0 -22241-4 0  9999
2 63749  51.9031 344.2702 0000469  95.1039 264.9977 14.79926387 76719
KUIPER-00038            
1 63750U 25088AC  26260.37492618  .00001389  00000+0  21117-3 0  9995
2 63750  51.9034 330.4902 0000490  95.1992 264.9027 14.79932769 75902
KUIPER-00039            
1 64500U 25134A   26260.95526591  .00001478  00000+0  22292-3 0  9997
2 64500  51.9003 102.9204 0000819 104.6086 255.4967 14.79929534 68540
KUIPER-00040            
1 64501U 25134B   26260.30294680  .00001081  00000+0  17075-3 0  9991
2 64501  51.8961 115.8634 0001127 103.9626 256.1462 14.79936961 68302
KUIPER-00041            
1 64502U 25134C   26259.99636005  .00002629  00000+0  37380-3 0  9996
2 64502  51.8986 119.6115 0000803 106.7264 253.3786 14.79929129 68222
KUIPER-00042            
1 64503U 25134D   26260.44069412  .00001654  00000+0  24596-3 0  9993
2 64503  51.8976 112.6238 0000646 110.4591 249.6441 14.79927111 68361
KUIPER-00043            
1 64504U 25134E   26260.92148149  .00002407  00000+0  34456-3 0  9995
2 64504  51.9010 103.0127 0000729 105.5816 254.5227 14.79942955 68540
KUIPER-00044            
1 64505U 25134F   26260.03012034  .00002640  00000+0  37519-3 0  9993
2 64505  51.8992 119.4442 0000740 111.3150 248.7891 14.79934156 68231
KUIPER-00046            
1 64506U 25134G   26260.94445973  .00002283  00000+0  32834-3 0  9994
2 64506  51.8976 112.8713 0001041 106.6955 253.4121 14.79940562 68403
KUIPER-00047            
1 64507U 25134H   26259.92742956  .00002587  00000+0  36822-3 0  9990
2 64507  51.8981  89.8972 0000665 106.9100 253.1936 14.79929946 68635
KUIPER-00048            
1 64508U 25134J   26260.23129071  .00002239  00000+0  32266-3 0  9996
2 64508  51.8979  88.5654 0000742 107.4387 252.6656 14.79919648 68681
KUIPER-00049            
1 64509U 25134K   26260.25156274  .00002053  00000+0  29817-3 0  9996
2 64509  51.8987 100.9488 0000804 108.1982 251.9068 14.79942657 68510
KUIPER-00050            
1 64510U 25134L   26260.94575084  .00002249  00000+0  32392-3 0  9997
2 64510  51.8992  80.3984 0000653 109.6994 250.4039 14.79937888 68861
KUIPER-00051            
1 64511U 25134M   26259.95748428  .00001005  00000+0  16081-3 0  9997
2 64511  51.9001 100.9476 0000997 114.7148 245.3918 14.79932787 68488
KUIPER-00053            
1 64513U 25134P   26259.76604171  .00002075  00000+0  28910-3 0  9996
2 64513  51.9002  96.2417 0002591 110.3156 249.8086 14.81714434 68537
KUIPER-00054            
1 64514U 25134Q   26259.95849281  .00002483  00000+0  35457-3 0  9998
2 64514  51.8975  92.2469 0000894 109.2070 250.8989 14.79930889 68608
KUIPER-00055            
1 64515U 25134R   26259.43571947  .00003015  00000+0  42422-3 0  9995
2 64515  51.9027  47.2091 0000531 118.7796 241.3220 14.79944691 69191
KUIPER-00056            
1 64516U 25134S   26259.98686667  .00002546  00000+0  36275-3 0  9999
2 64516  51.9012  97.2390 0000975 111.3563 248.7504 14.79944088 68540
KUIPER-00057            
1 64517U 25134T   26259.30347252  .00002577  00000+0  36694-3 0  9999
2 64517  51.8986 107.6755 0000806 106.2671 253.8380 14.79937239 68333
KUIPER-00058            
1 64518U 25134U   26260.28805246  .00002294  00000+0  32991-3 0  9993
2 64518  51.8985  98.3004 0000745 111.6366 248.4676 14.79929266 68552
KUIPER-00059            
1 64519U 25134V   26260.22590305 -.00001917  00000+0 -22252-3 0  9997
2 64519  51.8986  93.6094 0000513 116.9889 243.1125 14.79938055 68616
KUIPER-00060            
1 64520U 25134W   26260.93499306  .00002199  00000+0  31734-3 0  9992
2 64520  51.9014  90.5533 0000714 105.1364 254.9678 14.79932073 68703
KUIPER-00061            
1 64521U 25134X   26260.96065385  .00002726  00000+0  38649-3 0  9990
2 64521  51.9016  97.8800 0000982 121.9958 238.1100 14.79928433 68603
KUIPER-00062            
1 64522U 25134Y   26260.28265716  .00001000  00000+0  16013-3 0  9991
2 64522  51.8956 103.3258 0000982 107.2918 252.8152 14.79926714 68485
KUIPER-00063            
1 64523U 25134Z   26260.94987867  .00000673  00000+0  11724-3 0  9992
2 64523  51.9014 107.9716 0000677  98.1716 261.9323 14.79930791 68476
KUIPER-00064            
1 64524U 25134AA  26260.95256555  .00002271  00000+0  32676-3 0  9992
2 64524  51.9023 105.3859 0001137 107.7914 252.3172 14.79934784 68513
KUIPER-00065            
1 64525U 25134AB  26260.00177283  .00000186  00000+0  53368-4 0  9994
2 64525  51.9022 114.7661 0000840  99.2210 260.8848 14.79928440 68282
KUIPER-00066            
1 64526U 25134AC  26260.77821184  .00000208  00000+0  56238-4 0  9999
2 64526  51.9008  48.5971 0000590 125.0597 235.0421 14.79930143 69299
KUIPER-00069            
1 64816U 25151A   26260.43132604  .00000582  00000+0  10528-3 0  9991
2 64816  51.9020 152.7725 0000780 100.6800 259.4251 14.79933040 65158
KUIPER-00070            
1 64817U 25151B   26259.08751955  .00001117  00000+0  17550-3 0  9994
2 64817  51.8995 183.6136 0001184  78.1761 281.9335 14.79932658 64619
KUIPER-00071            
1 64818U 25151C   26260.50834328  .00002398  00000+0  34335-3 0  9992
2 64818  51.8993 174.8776 0000783  94.1003 266.0049 14.79940104 63677
KUIPER-00072            
1 64819U 25151D   26260.42861367  .00001868  00000+0  27399-3 0  9990
2 64819  51.8967 155.1537 0001178  86.7657 273.3440 14.79929652 63948
KUIPER-00073            
1 64820U 25151E   26260.47457895  .00001142  00000+0  17878-3 0  9990
2 64820  51.9006 175.0021 0001141  75.0116 285.0972 14.79931501 64852
KUIPER-00075            
1 64822U 25151G   26260.57788220  .00030059  00000+0  77891-3 0  9992
2 64822  51.8652   6.1427 0002482 223.0249 137.0544 15.38775267 66028
KUIPER-00076            
1 64823U 25151H   26260.82301575  .00002674  00000+0  37956-3 0  9995
2 64823  51.9004 163.4881 0000936  91.9418 268.1652 14.79936787 63869
KUIPER-00077            
1 64824U 25151J   26260.47997640  .00001834  00000+0  26947-3 0  9996
2 64824  51.9015 170.0270 0000961  79.6809 280.4261 14.79932705 63749
KUIPER-00078            
1 64825U 25151K   26260.44889787  .00001007  00000+0  16107-3 0  9995
2 64825  51.8993 167.6350 0001049  87.5257 272.5825 14.79934743 63773
KUIPER-00079            
1 64826U 25151L   26260.47727393  .00002728  00000+0  38678-3 0  9991
2 64826  51.8989 172.4647 0000947  78.7049 281.4019 14.79930842 64905
KUIPER-00080            
1 64827U 25151M   26260.44349879  .00000583  00000+0  10547-3 0  9990
2 64827  51.8977 172.6260 0000520 142.1081 217.9918 14.79934269 63701
KUIPER-00082            
1 64828U 25151N   26260.42322381  .00002477  00000+0  35375-3 0  9998
2 64828  51.9008 160.2791 0000988  83.9457 276.1618 14.79940562 63872
KUIPER-00083            
1 64829U 25151P   26260.48267250  .00002861  00000+0  40411-3 0  9992
2 64829  51.8997 167.4967 0001207  87.2048 272.9053 14.79936632 64962
KUIPER-00084            
1 64830U 25151Q   26260.80953004  .00002623  00000+0  37286-3 0  9991
2 64830  51.9004 176.0374 0000637  98.5441 261.5594 14.79937913 63685
KUIPER-00085            
1 64831U 25151R   26259.03887770  .00001064  00000+0  16860-3 0  9994
2 64831  51.9022 166.4575 0000925  89.9041 270.2028 14.79931798 63664
KUIPER-00086            
1 64832U 25151S   26259.50079200  .00003141  00000+0  44085-3 0  9996
2 64832  51.8998 174.3489 0001031  89.5882 270.5198 14.79930541 63594
KUIPER-00087            
1 64833U 25151T   26260.12735612 -.00004925  00000+0 -61938-3 0  9992
2 64833  51.8972 154.0281 0002025 132.4161 227.6973 14.79801468 63920
KUIPER-00089            
1 64834U 25151U   26260.45967185  .00000747  00000+0  12699-3 0  9997
2 64834  51.9017 157.5901 0000715  99.7730 260.3313 14.79930208 63916
KUIPER-00090            
1 64835U 25151V   26260.40022524  .00002812  00000+0  39757-3 0  9991
2 64835  51.8978 150.3465 0000981 101.0277 259.0796 14.79947552 64007
KUIPER-00091            
1 64836U 25151W   26260.12473392  .00003021  00000+0  42505-3 0  9992
2 64836  51.8999 156.5928 0000960  92.0968 268.0105 14.79939710 63893
KUIPER-00092            
1 64837U 25151X   26260.45429978  .00002707  00000+0  38394-3 0  9991
2 64837  51.8997 162.6223 0000789 100.1658 259.9394 14.79936443 65053
KUIPER-00093            
1 64838U 25151Y   26260.45159104 -.00000327  00000+0 -13914-4 0  9993
2 64838  51.8988 165.1042 0000834 104.3125 255.7931 14.79934897 63800
KUIPER-00094            
1 64839U 25151Z   26260.02744314  .00002682  00000+0  38070-3 0  9993
2 64839  51.9027 122.0956 0001211  99.6865 260.4235 14.79934843 64373
KUIPER-00081            
1 65132U 25171A   26260.64175112 -.00001159  00000+0 -12313-3 0  9996
2 65132  51.9016  19.2598 0000496 104.5216 255.5802 14.79929239 61462
KUIPER-00088            
1 65133U 25171B   26260.89299697  .00002506  00000+0  35759-3 0  9993
2 65133  51.9011  35.6487 0000549  98.5909 261.5115 14.79939741 61257
KUIPER-00095            
1 65134U 25171C   26259.36139390  .00000806  00000+0  13471-3 0  9995
2 65134  51.8999  22.4577 0000515 124.0637 236.0374 14.79931794 61302
KUIPER-00096            
1 65135U 25171D   26260.39461686  .00000629  00000+0  11154-3 0  9996
2 65135  51.8977  30.3439 0000615 105.2374 254.8657 14.79932749 61284
KUIPER-00097            
1 65136U 25171E   26260.39194518  .00002547  00000+0  36294-3 0  9997
2 65136  51.9008  33.0279 0000615 100.7973 259.3059 14.79931935 61235
KUIPER-00098            
1 65137U 25171F   26260.11910595  .00000958  00000+0  15471-3 0  9997
2 65137  51.9038  36.5947 0000527  98.8958 261.2065 14.79928867 60510
KUIPER-00099            
1 65138U 25171G   26259.35330141  .00001388  00000+0  21106-3 0  9995
2 65138  51.9001  29.9940 0000481 106.3430 253.7585 14.79935953 61191
KUIPER-00100            
1 65139U 25171H   26260.60529964  .00003039  00000+0  42739-3 0  9999
2 65139  51.9029  21.9239 0000500  94.8316 265.2703 14.79934042 61414
KUIPER-00102            
1 65140U 25171J   26260.60260062  .00002956  00000+0  41656-3 0  9996
2 65140  51.8993  24.4034 0000534 133.2459 226.8549 14.79933273 61370
KUIPER-00103            
1 65141U 25171K   26260.88760532  .00002458  00000+0  35140-3 0  9992
2 65141  51.8983  40.6470 0000589 115.5170 244.5853 14.79926173 61171
KUIPER-00104            
1 65142U 25171L   26259.88814579  .00002204  00000+0  31808-3 0  9998
2 65142  51.9028  32.5829 0000943 148.1004 212.0015 14.79933656 61201
KUIPER-00105            
1 65143U 25171M   26260.38652712 -.00000558  00000+0 -44173-4 0  9997
2 65143  51.9000  37.9721 0000645 103.5453 256.5581 14.79932046 61173
KUIPER-00106            
1 65144U 25171N   26260.36725289  .00002449  00000+0  35016-3 0  9990
2 65144  51.9021  16.8264 0000695  99.5238 260.5803 14.79933001 61472
KUIPER-00107            
1 65145U 25171P   26259.86511601  .00010885  00000+0  14527-2 0  9991
2 65145  51.9019  22.7210 0000176  42.1803 317.9173 14.79985592 61348
KUIPER-00108            
1 65146U 25171Q   26259.88544624  .00002933  00000+0  41345-3 0  9999
2 65146  51.9032  35.1779 0000414 127.4194 232.6806 14.79942247 61174
KUIPER-00109            
1 65147U 25171R   26260.39731202  .00000673  00000+0  11730-3 0  9992
2 65147  51.9027  27.8557 0000616 109.9352 250.1677 14.79927373 61316
KUIPER-00110            
1 65148U 25171S   26260.35007551  .00000996  00000+0  15958-3 0  9996
2 65148  51.8979  40.6103 0000866 108.3499 251.7558 14.79933763 61128
KUIPER-00111            
1 65149U 25171T   26260.37842948  .00002758  00000+0  39055-3 0  9998
2 65149  51.8978  45.3457 0000572 121.7316 238.3702 14.79935850 61067
KUIPER-00112            
1 65150U 25171U   26259.89084516  .00002982  00000+0  41994-3 0  9998
2 65150  51.9006  30.1405 0000415 131.1795 228.9203 14.79935144 61235
KUIPER-00114            
1 65151U 25171V   26260.84842852  .00003478  00000+0  48485-3 0  9994
2 65151  51.9003  45.8635 0001235 117.8808 242.2279 14.79952130 61098
KUIPER-00115            
1 65152U 25171W   26259.91113044  .00002294  00000+0  32986-3 0  9999
2 65152  51.9027  42.5151 0000611 123.6720 236.4301 14.79930904 61060
KUIPER-00116            
1 65153U 25171X   26260.88492495  .00002634  00000+0  37439-3 0  9994
2 65153  51.9004  43.2429 0000549 107.2029 252.8993 14.79933303 61135
KUIPER-00118            
1 65154U 25171Y   26260.40950389  .00002738  00000+0  38809-3 0  9991
2 65154  51.9000  47.7928 0000616  89.1362 270.9671 14.79924765 61033
KUIPER-00119            
1 65155U 25171Z   26259.88274441  .00004350  00000+0  59898-3 0  9993
2 65155  51.8997  37.7250 0000566 115.1702 244.9319 14.79949483 61121
KUIPER-00120            
1 65762U 25217A   26260.32215807  .00001945  00000+0  28402-3 0  9994
2 65762  51.8994 285.6490 0000438  73.1518 286.9492 14.79938593 53116
KUIPER-00132            
1 65763U 25217B   26260.14207823  .00034227  00000+0  86647-3 0  9998
2 65763  51.8536 151.7384 0005928 282.5419  77.4906 15.39411863 54958
KUIPER-00133            
1 65764U 25217C   26260.35594669  .00000813  00000+0  13570-3 0  9998
2 65764  51.9034 285.6387 0000590  81.0107 279.0922 14.79932676 53128
KUIPER-00139            
1 65765U 25217D   26260.93120309  .00002439  00000+0  34897-3 0  9990
2 65765  51.8972 250.5186 0000750  54.9416 305.1617 14.79919522 53663
KUIPER-00142            
1 65766U 25217E   26260.20597662  .00001355  00000+0  20668-3 0  9998
2 65766  51.8997 268.6937 0000497  67.5316 292.5699 14.79932996 53346
KUIPER-00145            
1 65767U 25217F   26260.27080049  .00002060  00000+0  29909-3 0  9993
2 65767  51.8992 270.9318 0000539  47.8118 312.2890 14.79939325 53312
KUIPER-00147            
1 65768U 25217G   26260.70701764  .00002087  00000+0  30259-3 0  9995
2 65768  51.8976 271.4762 0000557  28.7768 331.3225 14.79948142 53347
KUIPER-00148            
1 65769U 25217H   26260.18570098  .00000337  00000+0  73259-4 0  9996
2 65769  51.8996 256.3324 0000808  82.4076 277.6978 14.79929659 53512
KUIPER-00150            
1 65770U 25217J   26260.35863921  .00001904  00000+0  27876-3 0  9991
2 65770  51.9015 283.0663 0000558  88.2901 271.8125 14.79929882 53151
KUIPER-00151            
1 65771U 25217K   26260.70437217  .00002129  00000+0  30814-3 0  9992
2 65771  51.9005 274.0352 0000511  53.0096 307.0913 14.79937355 53319
KUIPER-00152            
1 65772U 25217L   26260.95420722  .00001010  00000+0  16153-3 0  9991
2 65772  51.9006 260.4102 0000541  50.5575 309.5435 14.79929440 53525
KUIPER-00153            
1 65773U 25217M   26260.95959058  .00000184  00000+0  53103-4 0  9999
2 65773  51.9034 255.4740 0000878  76.4422 283.6638 14.79928547 53591
KUIPER-00155            
1 65774U 25217N   26260.92173429  .00002533  00000+0  36108-3 0  9992
2 65774  51.9014 228.1037 0000700  75.5163 284.5877 14.79937338 53977
KUIPER-00156            
1 65775U 25217P   26260.38560651  .00001969  00000+0  28721-3 0  9994
2 65775  51.9017 257.9945 0000625  68.9587 291.1443 14.79929499 53502
KUIPER-00165            
1 65778U 25217S   26260.23968874 -.00003466  00000+0 -42714-3 0  9994
2 65778  51.8993 268.5698 0000749 144.9535 215.1477 14.79807194 53347
KUIPER-00166            
1 65779U 25217T   26260.96228959  .00002325  00000+0  33388-3 0  9996
2 65779  51.9024 252.9398 0000942  42.8199 317.2837 14.79938707 53625
KUIPER-00167            
1 65780U 25217U   26260.36399848  .00001766  00000+0  26059-3 0  9993
2 65780  51.8965 277.9034 0000533  62.0004 298.1013 14.79926821 53222
KUIPER-00168            
1 65781U 25217V   26260.99066999  .00001974  00000+0  28780-3 0  9995
2 65781  51.9010 257.7564 0000572  52.6027 307.4987 14.79934502 53568
KUIPER-00169            
1 65782U 25217W   26260.98528638  .00001841  00000+0  27049-3 0  9998
2 65782  51.9001 262.7927 0000647 100.7756 259.3279 14.79928996 53496
KUIPER-00170            
1 65783U 25217X   26260.97988367  .00001963  00000+0  28652-3 0  9993
2 65783  51.8988 267.7602 0000543  70.6093 289.4928 14.79927173 53423
KUIPER-00172            
1 65785U 25217Z   26260.96498616  .00002138  00000+0  30937-3 0  9991
2 65785  51.8985 250.3580 0000855  41.6787 318.4240 14.79932254 53661
KUIPER-00173            
1 65786U 25217AA  26260.27621403  .00000518  00000+0  96934-4 0  9998
2 65786  51.9002 265.9203 0000460  43.5687 316.5311 14.79929776 53381
KUIPER-00174            
1 65787U 25217AB  26260.21406718  .00000682  00000+0  11844-3 0  9991
2 65787  51.9024 261.2592 0000715  86.9032 273.2012 14.79924306 53442
KUIPER-00176            
1 65788U 25217AC  26260.33295199  .00002027  00000+0  29480-3 0  9994
2 65788  51.8992 275.6488 0000691  43.5316 316.5701 14.79935656 53251
KUIPER-00101            
1 65947U 25228A   26260.88516406  .00014600  00000+0  19366-2 0  9991
2 65947  51.8968 230.6488 0000397  74.5479 285.5528 14.80004419 51693
KUIPER-00113            
1 65948U 25228B   26260.18154906  .00001074  00000+0  16989-3 0  9998
2 65948  51.8967 228.7864 0001024  89.3097 270.7982 14.79918070 51658
KUIPER-00117            
1 65949U 25228C   26260.88794013  .00002484  00000+0  35471-3 0  9998
2 65949  51.8965 228.1595 0000894  54.7788 305.3258 14.79942471 51720
KUIPER-00121            
1 65950U 25228D   26260.92711874  .00002468  00000+0  35265-3 0  9992
2 65950  51.8986 223.0093 0000847  69.9940 290.1114 14.79930529 51800
KUIPER-00122            
1 65951U 25228E   26260.64619025 -.00001793  00000+0 -20626-3 0  9994
2 65951  51.9003 234.2191 0000073  18.2856 341.8109 14.79934858 51626
KUIPER-00123            
1 65952U 25228F   26260.34232385  .00001526  00000+0  22911-3 0  9993
2 65952  51.8972 235.5729 0000802  52.3980 307.7055 14.79929554 51571
KUIPER-00124            
1 65953U 25228G   26260.89065194  .00000116  00000+0  44284-4 0  9998
2 65953  51.8961 225.6374 0001011  58.7980 301.3081 14.79929547 51761
KUIPER-00125            
1 65954U 25228H   26260.16400343  .00002982  00000+0  41984-3 0  9994
2 65954  51.8989 213.9052 0001052  69.8307 290.2769 14.79944358 51863
KUIPER-00126            
1 65955U 25228J   26260.31125477  .00002357  00000+0  33807-3 0  9995
2 65955  51.8987 233.2339 0000649  61.5464 298.5564 14.79940528 51600
KUIPER-00127            
1 65956U 25228K   26260.16740650  .00000328  00000+0  72092-4 0  9991
2 65956  51.8964 226.3523 0000634  11.5050 348.5927 14.79927434 51693
KUIPER-00128            
1 65957U 25228L   26260.89335860 -.00000152  00000+0  90857-5 0  9991
2 65957  51.8992 223.2036 0000702  99.5001 260.6040 14.79931108 51792
KUIPER-00129            
1 65958U 25228M   26260.18968248  .00000205  00000+0  55863-4 0  9991
2 65958  51.8984 221.2969 0000877  70.9452 289.1605 14.79925633 51769
KUIPER-00130            
1 65959U 25228N   26260.89606914  .00002497  00000+0  35638-3 0  9991
2 65959  51.9027 220.7207 0000775  74.2632 285.8416 14.79931309 42122
KUIPER-00134            
1 65960U 25228P   26260.93127446  .00025499  00000+0  68112-3 0  9996
2 65960  51.8681 107.0711 0003939 259.9078 100.1464 15.37927415 53411
KUIPER-00135            
1 65961U 25228Q   26260.59217305  .00002228  00000+0  32112-3 0  9999
2 65961  51.9005 222.1140 0000676  69.5499 290.5536 14.79937288 51781
KUIPER-00136            
1 65962U 25228R   26260.62856444  .00002730  00000+0  38673-3 0  9993
2 65962  51.8997 219.3993 0000946  50.6749 309.4298 14.79958305 51827
KUIPER-00137            
1 65963U 25228S   26260.09110252  .00002613  00000+0  37160-3 0  9995
2 65963  51.9032 219.2868 0000954  54.3696 305.7355 14.79933626 51787
KUIPER-00138            
1 65964U 25228T   26260.60025728  .00001937  00000+0  28305-3 0  9995
2 65964  51.8980 214.4336 0000813  64.2718 295.8328 14.79930990 51897
KUIPER-00140            
1 65965U 25228U   26260.86768846  .00000997  00000+0  15977-3 0  9995
2 65965  51.8972 215.8449 0001104  70.8885 289.2197 14.79930190 51894
KUIPER-00141            
1 65966U 25228V   26260.26531644  .00002439  00000+0  34886-3 0  9997
2 65966  51.9019 213.5844 0000946  88.4733 271.6338 14.79935097 51873
KUIPER-00146            
1 65967U 25228W   26260.29638499  .00000341  00000+0  73708-4 0  9994
2 65967  51.9004 215.9612 0001081  73.3385 286.7696 14.79926672 51844
KUIPER-00149            
1 65968U 25228X   26260.06541434  .00000303  00000+0  68820-4 0  9999
2 65968  51.9010 211.8566 0001115  70.0975 290.0108 14.79929065 51881
KUIPER-00154            
1 65969U 25228Y   26260.57458897  .00002742  00000+0  38845-3 0  9998
2 65969  51.9000 207.0868 0000913  74.7769 285.3295 14.79936596 51993
KUIPER-00157            
1 65970U 25228Z   26260.25235256  .00002333  00000+0  36114-3 0  9990
2 65970  51.9007 210.6574 0001713 126.4898 233.6221 14.76640342 51918
KUIPER-00144            
1 67133U 25301A   26260.55581947  .00000394  00000+0  80663-4 0  9993
2 67133  51.9016 287.1942 0000658  67.5394 292.5638 14.79929375 42287
KUIPER-00164            
1 67134U 25301B   26260.40729024  .00001869  00000+0  27413-3 0  9999
2 67134  51.9033 300.3704 0000379  67.6868 292.4134 14.79935462 42260
KUIPER-00175            
1 67135U 25301C   26260.32486651  .00000631  00000+0  11178-3 0  9994
2 67135  51.8999 283.1680 0000426  51.9980 308.1020 14.79930620 42390
KUIPER-00179            
1 67136U 25301D   26260.40996725  .00002073  00000+0  30084-3 0  9991
2 67136  51.8991 297.7907 0000432  67.7128 292.3880 14.79925670 42300
KUIPER-00181            
1 67137U 25301E   26260.39650334  .00002160  00000+0  31228-3 0  9991
2 67137  51.9026 310.4146 0000367  62.5141 297.5859 14.79934809 42109
KUIPER-00183            
1 67138U 25301F   26260.26004478  .00002024  00000+0  29441-3 0  9993
2 67138  51.9022 281.0230 0000432  79.7269 280.3743 14.79931761 42518
KUIPER-00184            
1 67139U 25301G   26260.31408294  .00000934  00000+0  15148-3 0  9991
2 67139  51.8997 293.2256 0000462  73.6264 286.4749 14.79930858 42455
KUIPER-00186            
1 67140U 25301H   26260.36272087 -.00001920  00000+0 -22300-3 0  9993
2 67140  51.8998 310.5715 0000887  88.5640 271.5424 14.79926705 41949
KUIPER-00187            
1 67141U 25301J   26260.36003268  .00001924  00000+0  28121-3 0  9996
2 67141  51.9041 313.1064 0000571 203.1511 156.9426 14.79938313 41900
KUIPER-00188            
1 67142U 25301K   26260.36134556  .00001900  00000+0  27824-3 0  9995
2 67142  51.9022 280.6918 0000440  56.6206 303.4798 14.79925734 42357
KUIPER-00191            
1 67143U 25301L   26260.40190509  .00001975  00000+0  28800-3 0  9998
2 67143  51.9012 305.4017 0000335  77.6958 282.4042 14.79929332 42045
KUIPER-00196            
1 67144U 25301M   26260.98798057  .00002060  00000+0  29915-3 0  9998
2 67144  51.8970 260.2611 0000559  68.4779 291.6243 14.79928392 42694
KUIPER-00204            
1 67145U 25301N   26260.33025671  .00001334  00000+0  20392-3 0  9996
2 67145  51.9015 278.2072 0000541  71.0682 289.0339 14.79935696 42502
KUIPER-00210            
1 67146U 25301P   26260.36812921  .00001970  00000+0  28730-3 0  9992
2 67146  51.9000 305.4966 0000385  68.6899 291.4105 14.79932653 42182
KUIPER-00221            
1 67147U 25301Q   26260.39380599  .00001019  00000+0  16265-3 0  9991
2 67147  51.9020 312.9185 0000523  79.5575 280.5447 14.79930208 41919
KUIPER-00232            
1 67148U 25301R   26260.37622121 -.00000659  00000+0 -57437-4 0  9998
2 67148  51.8988 298.0072 0000543  82.1674 277.9350 14.79925709 42119
KUIPER-00241            
1 67149U 25301S   26260.33164315  .00003719  00000+0  51626-3 0  9992
2 67149  51.9036 308.2263 0000425 111.2463 248.8545 14.79955120 42304
KUIPER-00245            
1 67150U 25301T   26260.39111796  .00001912  00000+0  27979-3 0  9992
2 67150  51.9039 315.4744 0000416  81.0919 279.0091 14.79930880 41872
KUIPER-00246            
1 67151U 25301U   26260.37352166  .00002043  00000+0  29695-3 0  9992
2 67151  51.9006 300.4873 0000412  85.0656 275.0353 14.79932221 42107
KUIPER-00247            
1 67152U 25301V   26260.31676503  .00000508  00000+0  95679-4 0  9991
2 67152  51.8970 290.6830 0000327  75.7423 284.3576 14.79931706 42212
KUIPER-00248            
1 67153U 25301W   26260.33566020  .00001233  00000+0  19080-3 0  9993
2 67153  51.8970 273.2443 0000641  77.6619 282.4416 14.79925404 42622
KUIPER-00249            
1 67154U 25301X   26260.72465940  .00002038  00000+0  29625-3 0  9996
2 67154  51.8989 286.4591 0000407  43.3944 316.7051 14.79938368 42308
KUIPER-00250            
1 67155U 25301Y   26260.33704991 -.00000982  00000+0 -99904-4 0  9992
2 67155  51.8993 303.1248 0000734  61.3057 298.7979 14.79922624 42078
KUIPER-00251            
1 67156U 25301Z   26260.28301763  .00002012  00000+0  29279-3 0  9998
2 67156  51.9006 290.9411 0000420  54.5759 305.5242 14.79938154 42395
KUIPER-00252            
1 67157U 25301AA  26260.68548546  .00001994  00000+0  29056-3 0  9996
2 67157  51.9010 291.6113 0000509  83.8431 276.2590 14.79928387 42238
KUIPER-00261            
1 67158U 25301AB  26260.37083898  .00001905  00000+0  27882-3 0  9994
2 67158  51.9032 303.0684 0000312  57.2179 302.8813 14.79929212 42041
KUIPER-00265            
1 67159U 25301AC  26260.45593545  .00000924  00000+0  15025-3 0  9995
2 67159  51.9030 317.6679 0000777 101.0387 259.0663 14.79925486 41885
KUIPER-00159            
1 67764U 26030A   26260.85934865  .00001641  00000+0  26345-3 0  9999
2 67764  51.9024  34.5200 0000153  73.9105 286.1873 14.76581469 34318
KUIPER-00160            
1 67765U 26030B   26260.91668981 -.00042577  00000+0 -53063-2 0  9991
2 67765  51.8978  15.6366 0006365   1.5268 271.9594 14.82098116  4584
KUIPER-00177            
1 67766U 26030C   26260.94308390  .00009856  00000+0  13193-2 0  9991
2 67766  51.9019  82.9868 0001639  50.5723 309.5384 14.79953966 33648
KUIPER-00178            
1 67767U 26030D   26259.49118328  .00002498  00000+0  35656-3 0  9994
2 67767  51.9001  89.3842 0000679 119.3734 240.7296 14.79938294 33434
KUIPER-00180            
1 67768U 26030E   26260.91469106  .00002279  00000+0  32775-3 0  9993
2 67768  51.8984  78.0812 0000651 116.3734 243.7295 14.79939445 33715
KUIPER-00197            
1 67769U 26030F   26259.18049106  .00002778  00000+0  39324-3 0  9996
2 67769  51.8984  65.7666 0000788 120.9628 239.1412 14.79936940 33739
KUIPER-00198            
1 67770U 26030G   26260.21372530  .00002556  00000+0  36411-3 0  9992
2 67770  51.8976  73.6711 0000847 115.8798 244.2252 14.79936557 33719
KUIPER-00199            
1 67771U 26030H   26260.91668981 -.01435529  00000+0 -75307-1 0  9996
2 67771  51.8851  12.3625 0012806  23.9425 126.5864 15.18181683  5558
KUIPER-00200            
1 67772U 26030J   26260.90520955  .00002591  00000+0  36875-3 0  9999
2 67772  51.8989  55.6580 0000610 114.0580 246.0446 14.79937098 34028
KUIPER-00203            
1 67773U 26030K   26260.93768735  .00000762  00000+0  12897-3 0  9999
2 67773  51.9060  88.0873 0001017 104.3854 255.7221 14.79931609 33572
KUIPER-00205            
1 67774U 26030L   26260.90789892  .00002600  00000+0  37000-3 0  9990
2 67774  51.9008  53.1118 0000542 102.0848 258.0176 14.79930886 34066
KUIPER-00208            
1 67775U 26030M   26260.23669614  .00001572  00000+0  23519-3 0  9993
2 67775  51.8965  83.5760 0001336 111.7570 248.3535 14.79938633 33573
KUIPER-00209            
1 67776U 26030N   26259.53035825  .00011077  00000+0  14812-2 0  9992
2 67776  51.8976  84.3008 0001408 104.5228 255.5891 14.79887900 33508
KUIPER-00213            
1 67777U 26030P   26260.91740109  .00002570  00000+0  36596-3 0  9997
2 67777  51.8954  75.6243 0000714 112.3963 247.7075 14.79937487 33740
KUIPER-00214            
1 67778U 26030Q   26259.94092332  .00002629  00000+0  37376-3 0  9999
2 67778  51.9002  77.4789 0000617 108.8002 251.3028 14.79931593 33636
KUIPER-00215            
1 67779U 26030R   26260.93356978  .00002560  00000+0  36471-3 0  9999
2 67779  51.8987  60.4426 0000658 113.1056 246.9976 14.79931633 33964
KUIPER-00218            
1 67780U 26030S   26259.46550186  .00002612  00000+0  37143-3 0  9999
2 67780  51.8967  81.9744 0000719 117.8040 242.2995 14.79936022 33537
KUIPER-00220            
1 67781U 26030T   26260.91059569  .00002422  00000+0  34660-3 0  9991
2 67781  51.8955  50.6067 0000544 104.4576 255.6447 14.79935546 34090
KUIPER-00222            
1 67782U 26030U   26260.92280022  .00002476  00000+0  35359-3 0  9998
2 67782  51.8976  70.6894 0000996 129.5067 230.5984 14.79938400 33817
KUIPER-00223            
1 67783U 26030V   26260.82957687  .00002306  00000+0  33142-3 0  9996
2 67783  51.9015  63.4130 0000706 108.4301 251.6738 14.79926953 33914
KUIPER-00225            
1 67784U 26030W   26260.95925121  .00002475  00000+0  35351-3 0  9990
2 67784  51.8981  67.9859 0000675 107.4561 252.6475 14.79937526 33855
KUIPER-00226            
1 67785U 26030X   26259.92611342  .00002393  00000+0  33846-3 0  9999
2 67785  51.8996  59.9374 0002437 320.9208  39.1578 14.80496066 33889
KUIPER-00259            
1 67786U 26030Y   26260.92548413  .00002213  00000+0  31919-3 0  9990
2 67786  51.8981  68.0367 0000664 110.8625 249.2408 14.79934622 33852
KUIPER-00260            
1 67787U 26030Z   26260.92819367  .00002411  00000+0  34511-3 0  9991
2 67787  51.9011  65.6349 0000842 127.8195 232.2843 14.79934676 33796
KUIPER-00262            
1 67788U 26030AA  26260.96194611  .00000578  00000+0  10482-3 0  9997
2 67788  51.9018  65.4046 0000986 114.3689 245.7376 14.79930927 33890
KUIPER-00266            
1 67789U 26030AB  26260.86334564  .00000157  00000+0  49564-4 0  9997
2 67789  51.8994  63.3304 0000956 108.2532 251.8534 14.79929791 33917
KUIPER-00268            
1 67790U 26030AC  26260.96734441 -.00000726  00000+0 -66277-4 0  9992
2 67790  51.9043  60.4138 0001089 104.3864 255.7219 14.79926412 33966
KUIPER-00270            
1 67791U 26030AD  26260.40411608  .00002750  00000+0  38961-3 0  9994
2 67791  51.8991  52.8528 0000538 101.4579 258.6444 14.79933865 34025
KUIPER-00274            
1 67792U 26030AE  26260.92008664  .00000364  00000+0  76789-4 0  9996
2 67792  51.9011  73.0877 0000951  97.3349 262.7722 14.79932981 33784
KUIPER-00275            
1 67793U 26030AF  26260.40142166  .00002566  00000+0  36542-3 0  9994
2 67793  51.9000  55.3752 0000801 120.4742 239.6300 14.79932836 33983
KUIPER-00276            
1 67794U 26030AG  26260.69991477  .00002051  00000+0  29793-3 0  9992
2 67794  51.8985  59.0318 0001016  95.7083 264.3996 14.79932638 33969
KUIPER-00279            
1 67795U 26030AH  26260.40682620  .00002466  00000+0  35237-3 0  9999
2 67795  51.9026  50.3779 0000735 120.1917 239.9119 14.79931167 34050
KUIPER-00131            
1 68573U 26072A   26260.06529812  .00003061  00000+0  43026-3 0  9992
2 68573  51.8993 149.3672 0000893 105.9084 254.1977 14.79941758 24720
KUIPER-00189            
1 68574U 26072B   26260.09635416  .00003003  00000+0  42266-3 0  9995
2 68574  51.8986 151.7063 0000903 100.9072 259.1992 14.79941742 24699
KUIPER-00192            
1 68575U 26072C   26260.40564788  .00000372  00000+0  77750-4 0  9997
2 68575  51.9007 145.3571 0001004  97.1292 262.9785 14.79932550 24815
KUIPER-00193            
1 68576U 26072D   26260.34890826 -.00000850  00000+0 -82494-4 0  9990
2 68576  51.9025 135.6558 0001024 105.4453 254.6623 14.79927367 24940
KUIPER-00194            
1 68577U 26072E   26259.09150919  .00003017  00000+0  42447-3 0  9992
2 68577  51.9014 148.6940 0001011  97.4795 262.6283 14.79941860 24656
KUIPER-00229            
1 68578U 26072F   26259.08613351  .00010808  00000+0  14452-2 0  9996
2 68578  51.9008 153.6988 0001546 106.8124 253.3009 14.79909342 24586
KUIPER-00230            
1 68579U 26072G   26260.91668981 -.00005686  00000+0 -65692-3 0  9993
2 68579  51.9012  92.8751 0003293 352.7486 216.0427 14.83545485  1302
KUIPER-00231            
1 68580U 26072H   26260.33132234  .00000732  00000+0  12500-3 0  9993
2 68580  51.8969 120.7647 0002071 108.4717 251.6471 14.79935950 25142
KUIPER-00234            
1 68581U 26072J   26260.40834550  .00002382  00000+0  34146-3 0  9995
2 68581  51.8963 142.8365 0001733  86.0609 274.0552 14.79931084 24843
KUIPER-00236            
1 68582U 26072K   26260.91668981  .00020600  00000+0  29485-2 0  9997
2 68582  51.9025  95.4889 0001495 191.9602 155.9578 14.76550018  4206
KUIPER-00244            
1 68583U 26072L   26260.04772180  .00002813  00000+0  39782-3 0  9997
2 68583  51.8991 134.4542 0001030  94.0651 266.0429 14.79933596 24930
KUIPER-00253            
1 68584U 26072M   26260.38267068  .00000916  00000+0  14921-3 0  9999
2 68584  51.9028 135.4984 0001107  98.8039 261.3049 14.79933253 24948
KUIPER-00254            
1 68585U 26072N   26260.07608261  .00002915  00000+0  41114-3 0  9995
2 68585  51.9025 139.3518 0001335  70.4920 289.6187 14.79940862 24861
KUIPER-00263            
1 68586U 26072P   26260.36239480  .00000161  00000+0  50114-4 0  9993
2 68586  51.9016 123.1529 0000907 100.4832 259.6233 14.79930554 25110
KUIPER-00269            
1 68587U 26072Q   26260.35969523  .00001614  00000+0  24070-3 0  9996
2 68587  51.9003 125.5696 0001344 108.0888 252.0221 14.79930822 25087
KUIPER-00272            
1 68588U 26072R   26257.94080402  .00000771  00000+0  13009-3 0  9991
2 68588  51.8989 156.2363 0001006  89.4459 270.6618 14.79931389 24447
KUIPER-00285            
1 68589U 26072S   26260.05581937  .00001091  00000+0  17213-3 0  9994
2 68589  51.9044 126.9984 0001532  70.4065 289.7063 14.79936164 25038
KUIPER-00286            
1 68590U 26072T   26260.32862318  .00002629  00000+0  37369-3 0  9993
2 68590  51.9001 123.2195 0000739 105.2791 254.8254 14.79937838 25111
KUIPER-00289            
1 68591U 26072U   26259.37511015  .00002989  00000+0  42088-3 0  9995
2 68591  51.8977 134.9136 0001117  97.8224 262.2866 14.79936179 24865
KUIPER-00290            
1 68592U 26072V   26260.91668981 -.00022445  00000+0 -29239-2 0  9996
2 68592  51.9006 128.1053 0000922 116.0809   2.4239 14.79948346  4617
KUIPER-00293            
1 68593U 26072W   26260.10714604  .00002947  00000+0  41531-3 0  9995
2 68593  51.8973 141.6556 0001801  48.4807 311.6309 14.79941467 24837
KUIPER-00294            
1 68594U 26072X   26258.97263429  .00000981  00000+0  15768-3 0  9991
2 68594  51.8980 134.1949 0000770 103.8824 256.2224 14.79929657 24846
KUIPER-00296            
1 68595U 26072Y   26259.02527197  .00002378  00000+0  34082-3 0  9996
2 68595  51.9001 116.4799 0000745 107.8838 252.2206 14.79930378 25095
KUIPER-00297            
1 68596U 26072Z   26259.39808683  .00002570  00000+0  36593-3 0  9992
2 68596  51.9003 144.7904 0001307 100.5026 259.6084 14.79936615 24739
KUIPER-00300            
1 68597U 26072AA  26260.92021344  .00001733  00000+0  25635-3 0  9990
2 68597  51.9014 135.5962 0001017  96.2563 263.8515 14.79930672 24990
KUIPER-00301            
1 68598U 26072AB  26260.93489836  .00001650  00000+0  26530-3 0  9999
2 68598  51.9014 105.0102 0001961 184.0754 176.0192 14.76501173 25416
KUIPER-00304            
1 68599U 26072AC  26260.01733713  .00001549  00000+0  25025-3 0  9990
2 68599  51.8997 111.0009 0000642  20.0764 340.0222 14.76614812 25258
KUIPER-00317            
1 68600U 26072AD  26260.35699537  .00002041  00000+0  29669-3 0  9991
2 68600  51.8977 128.0788 0000722 100.3639 259.7405 14.79933197 25042
KUIPER-00320            
1 68601U 26072AE  26260.08148371  .00000233  00000+0  59623-4 0  9992
2 68601  51.9033 134.3150 0000821 101.3553 258.7502 14.79931505 24931
KUIPER-00299            
1 68864U 26095A   26260.03969809 -.00012667  00000+0 -16369-2 0  9994
2 68864  51.8981 204.4584 0001268  96.7941 263.3165 14.79901271 21219
KUIPER-00353            
1 68865U 26095B   26260.49485147 -.00000828  00000+0 -79607-4 0  9995
2 68865  51.8998 187.4739 0001097 100.6374 259.4712 14.79937390 21490
KUIPER-00357            
1 68866U 26095C   26260.04783091  .00003172  00000+0  44483-3 0  9992
2 68866  51.9007 196.9601 0001129  55.7556 304.3514 14.79939403 21323
KUIPER-00364            
1 68867U 26095D   26260.55161764  .00002903  00000+0  40968-3 0  9991
2 68867  51.9033 197.2562 0001418  52.4237 307.6854 14.79932617 21361
KUIPER-00375            
1 68868U 26095E   26260.52594122  .00002790  00000+0  39485-3 0  9993
2 68868  51.9013 189.8429 0000884  84.9801 275.1262 14.79931972 21468
KUIPER-00433            
1 68869U 26095F   26260.23964027  .00002699  00000+0  38287-3 0  9994
2 68869  51.8998 206.1021 0001016  60.4557 299.6507 14.79932955 21214
KUIPER-00437            
1 68870U 26095G   26260.91668981 -.01884568  00000+0 -15350+0 0  9999
2 68870  51.8882 156.0200 0009356 282.6342 282.2736 15.02816933  1983
KUIPER-00448            
1 68871U 26095H   26260.54287880  .00001709  00000+0  27469-3 0  9997
2 68871  51.9014 194.6489 0003319  46.5130 313.6106 14.76333530 21398
KUIPER-00459            
1 68872U 26095J   26260.80415385  .00000311  00000+0  69759-4 0  9997
2 68872  51.9027 181.1754 0000766  92.9946 267.1104 14.79930015 21601
KUIPER-00468            
1 68873U 26095K   26260.80037616  .00001578  00000+0  25430-3 0  9998
2 68873  51.8967 178.6720 0000785 165.0993 194.9991 14.76625446 21644
KUIPER-00476            
1 68874U 26095L   26260.91668981 -.00048611  00000+0 -49286-2 0  9991
2 68874  51.8931 160.7858 0011265 271.4137  69.1723 14.90526177  5271
KUIPER-00478            
1 68875U 26095M   26260.53132766  .00001536  00000+0  23041-3 0  9992
2 68875  51.8992 184.8169 0000879  81.5915 278.5147 14.79931498 21530
KUIPER-00480            
1 68876U 26095N   26260.16259335  .00003719  00000+0  51641-3 0  9996
2 68876  51.9041 183.9616 0000783  99.0162 261.0889 14.79943059 21510
KUIPER-00482            
1 68877U 26095P   26260.82712182  .00002424  00000+0  34687-3 0  9997
2 68877  51.9004 191.0102 0001397  31.6136 328.4911 14.79936527 21476
KUIPER-00483            
1 68878U 26095Q   26260.88099504  .00002706  00000+0  38458-3 0  9993
2 68878  51.8984 203.2333 0001582 359.5421   0.5540 14.79849841 21300
KUIPER-00488            
1 68879U 26095R   26260.52863311  .00001438  00000+0  21761-3 0  9990
2 68879  51.8944 187.3358 0001061  80.1730 279.9352 14.79934309 21495
KUIPER-00489            
1 68880U 26095S   26260.80683719  .00001632  00000+0  24307-3 0  9990
2 68880  51.8939 178.5855 0001744  97.0241 263.0920 14.79935361 21648
KUIPER-00499            
1 68881U 26095T   26260.49757390  .00002549  00000+0  36320-3 0  9999
2 68881  51.9003 185.0148 0000990  68.9960 291.1109 14.79932208 21522
KUIPER-00500            
1 68882U 26095U   26260.54622093  .00002926  00000+0  41268-3 0  9993
2 68882  51.9004 202.2511 0000847  83.5288 276.5771 14.79936553 21290
KUIPER-00502            
1 68883U 26095V   26260.22575124  .00000834  00000+0  13838-3 0  9999
2 68883  51.9009 179.9212 0001337  63.0168 297.0931 14.79928495 21572
KUIPER-00503            
1 68884U 26095W   26260.85279384  .00002789  00000+0  39465-3 0  9993
2 68884  51.8952 198.3664 0000954  66.3171 293.7892 14.79931670 21375
KUIPER-00504            
1 68885U 26095X   26260.87847173  .00000902  00000+0  14739-3 0  9995
2 68885  51.9009 205.7859 0000773  94.0448 266.0602 14.79928294 21272
KUIPER-00505            
1 68886U 26095Y   26260.85549178  .00000788  00000+0  13240-3 0  9996
2 68886  51.9011 195.8894 0000599  88.5980 271.5051 14.79928107 21406
KUIPER-00507            
1 68887U 26095Z   26260.51174940  .00002797  00000+0  39577-3 0  9994
2 68887  51.8994 187.3938 0000816  83.0463 277.0592 14.79936579 21491
KUIPER-00511            
1 68888U 26095AA  26260.43542666  .00000886  00000+0  14518-3 0  9995
2 68888  51.9011 180.3447 0001058  62.0259 298.0810 14.79933348 21587
KUIPER-00512            
1 68889U 26095AB  26260.88656967  .00002686  00000+0  38122-3 0  9992
2 68889  51.9006 198.2544 0000850  79.7707 280.3351 14.79932531 21374
KUIPER-00519            
1 68890U 26095AC  26260.82982200  .00002627  00000+0  37348-3 0  9994
2 68890  51.9025 188.5692 0000691  91.4761 268.6280 14.79928241 21505
KUIPER-00521            
1 68891U 26095AD  26260.22031758  .00006984  00000+0  94336-3 0  9992
2 68891  51.9054 184.9561 0000243 250.0514 110.0422 14.79971471 21506
KUIPER-00524            
1 68892U 26095AE  26260.25311805  .00000428  00000+0  85158-4 0  9990
2 68892  51.8978 193.5277 0000861  59.3360 300.7687 14.79932020 21380
KUIPER-00370            
1 68919U 26098A   26259.80841051  .00000960  00000+0  15490-3 0  9995
2 68919  51.8998  12.8746 0000311 100.2869 259.8129 14.79932014 21058
KUIPER-00380            
1 68920U 26098B   26259.88405306  .00002253  00000+0  32437-3 0  9991
2 68920  51.9000   5.1787 0000363  92.3705 267.7299 14.79932744 21160
KUIPER-00386            
1 68921U 26098C   26259.83070355  .00000482  00000+0  92164-4 0  9995
2 68921  51.9010   7.9085 0000498  97.7084 262.3935 14.79931596 21129
KUIPER-00388            
1 68922U 26098D   26260.34329332 -.00000388  00000+0 -21846-4 0  9992
2 68922  51.9005  15.8037 0000326 111.7493 248.3504 14.79928150 21050
KUIPER-00405            
1 68923U 26098E   26260.29532620  .00001552  00000+0  23260-3 0  9996
2 68923  51.9031  13.3686 0000889 192.4309 167.6632 14.79933381 21089
KUIPER-00408            
1 68924U 26098F   26260.55664228 -.00000177  00000+0  57270-5 0  9999
2 68924  51.9007   4.6275 0000541  96.3167 263.7857 14.79929420 21232
KUIPER-00409            
1 68925U 26098G   26259.79152823  .00002158  00000+0  31190-3 0  9998
2 68925  51.9042  13.0958 0000699  82.8021 277.3021 14.79941907 21044
KUIPER-00410            
1 68926U 26098H   26260.60459374 -.00002899  00000+0 -35127-3 0  9990
2 68926  51.8971   6.9756 0001358 140.5155 219.5906 14.79942448 21204
KUIPER-00412            
1 68927U 26098J   26260.32568708  .00001276  00000+0  19639-3 0  9998
2 68927  51.9006   0.7414 0001135 128.1934 231.9130 14.79928910 21269
KUIPER-00413            
1 68928U 26098K   26260.61608888  .00002324  00000+0  33377-3 0  9995
2 68928  51.9033  11.9332 0000524 176.8626 183.2340 14.79931037 21134
KUIPER-00414            
1 68929U 26098L   26260.63907875  .00001899  00000+0  27805-3 0  9991
2 68929  51.8959  21.9125 0001596 129.9664 230.1439 14.79934155 20991
KUIPER-00415            
1 68930U 26098M   26260.25276764  .00001129  00000+0  17713-3 0  9990
2 68930  51.8978   6.0515 0000923 106.8333 253.2730 14.79932256 21183
KUIPER-00416            
1 68931U 26098N   26260.54077919  .00002614  00000+0  37168-3 0  9990
2 68931  51.9004 356.1341 0000626 108.9682 251.1349 14.79935798 21346
KUIPER-00420            
1 68932U 26098P   26260.26085396  .00001616  00000+0  24094-3 0  9993
2 68932  51.9017 358.4805 0000480 106.0806 254.0209 14.79931859 21291
KUIPER-00421            
1 68933U 26098Q   26260.32298485  .00002893  00000+0  40828-3 0  9997
2 68933  51.9040   3.1908 0000457 105.6949 254.4064 14.79939482 21230
KUIPER-00425            
1 68934U 26098R   26260.58503638  .00000384  00000+0  79403-4 0  9990
2 68934  51.8985   9.5771 0000518 105.1143 254.9877 14.79921054 21160
KUIPER-00430            
1 68935U 26098S   26260.58230118  .00002372  00000+0  34014-3 0  9998
2 68935  51.9080  11.9898 0000627 107.3196 252.7836 14.79925736 21137
KUIPER-00431            
1 68936U 26098T   26260.57963064  .00002770  00000+0  39215-3 0  9991
2 68936  51.9006  14.5885 0000470 131.9511 228.1491 14.79938622 21098
KUIPER-00432            
1 68937U 26098U   26260.31759045  .00002943  00000+0  41493-3 0  9999
2 68937  51.9006   8.1456 0000481 100.5790 259.5226 14.79933943 21168
KUIPER-00434            
1 68938U 26098V   26260.76777918 -.00014013  00000+0 -19693-2 0  9997
2 68938  51.9021  10.1684 0001663 140.7254 219.3828 14.76451953 21172
KUIPER-00436            
1 68939U 26098W   26260.29800897  .00001361  00000+0  20754-3 0  9990
2 68939  51.9008  10.8461 0000600 101.9127 258.1902 14.79932307 21125
KUIPER-00438            
1 68940U 26098X   26260.57083356  .00003010  00000+0  42372-3 0  9999
2 68940  51.9038   7.1640 0000598  90.3861 269.7170 14.79932176 21196
KUIPER-00439            
1 68941U 26098Y   26260.55391888  .00002390  00000+0  34263-3 0  9990
2 68941  51.9046   7.2301 0000849  65.8266 294.2785 14.79908564 21195
KUIPER-00440            
1 68942U 26098Z   26260.57892170  .00000498  00000+0  94325-4 0  9996
2 68942  51.9060 359.6176 0000452 333.8034  26.2906 14.79928606 21307
KUIPER-00442            
1 68943U 26098AA  26260.91668981 -.00035935  00000+0 -47065-2 0  9999
2 68943  51.9018   0.6429 0000197 165.0018 210.7407 14.79963713  5483
KUIPER-00446            
1 68944U 26098AB  26260.33718039  .00001720  00000+0  25454-3 0  9998
2 68944  51.9014   5.6887 0000714 258.9180 101.1702 14.79933494 21190
KUIPER-00451            
1 68945U 26098AC  26260.59650812  .00002956  00000+0  41653-3 0  9992
2 68945  51.9012  14.5219 0000512 128.6316 231.4692 14.79936351 21096
KUIPER-00452            
1 68946U 26098AD  26260.54246637  .00002662  00000+0  37792-3 0  9997
2 68946  51.9034   2.2775 0000552  95.4222 264.6804 14.79940562 21264
KUIPER-00453            
1 68947U 26098AE  26260.56203523  .00001581  00000+0  23645-3 0  9998
2 68947  51.8984 359.6095 0002103 130.6567 229.4578 14.79933050 21306
KUIPER-00454            
1 68948U 26098AF  26260.00004630 -.00034835  00000+0 -45640-2 0  9994
2 68948  51.9004  19.6504 0001023 101.2475 243.9396 14.79933535  5434
KUIPER-00455            
1 68949U 26098AG  26260.63027836  .00002067  00000+0  30008-3 0  9990
2 68949  51.9020  14.3776 0001880 129.4869 230.6260 14.79936661 21104
KUIPER-00458            
1 68950U 26098AH  26260.27503886  .00000895  00000+0  14646-3 0  9993
2 68950  51.8964   0.9719 0002304  86.9546 273.1680 14.79933430 21256
KUIPER-00282            
1 69267U 26118A   26260.41818698  .00001250  00000+0  19292-3 0  9992
2 69267  51.9012 352.7969 0000820 144.4216 215.6801 14.79933568 17818
KUIPER-00383            
1 69268U 26118B   26260.43777515  .00001577  00000+0  23583-3 0  9997
2 69268  51.8991 350.2293 0000402  98.7233 261.3775 14.79930141 17859
KUIPER-00527            
1 69269U 26118C   26260.40401809  .00001023  00000+0  16316-3 0  9997
2 69269  51.8972 350.5102 0000553  90.7376 269.3650 14.79932314 17841
KUIPER-00562            
1 69270U 26118D   26260.71591004 -.00007994  00000+0 -10246-2 0  9990
2 69270  51.9041 341.4444 0000491  96.0844 264.0174 14.79778075 18003
KUIPER-00570            
1 69271U 26118E   26260.26356389  .00001505  00000+0  22637-3 0  9994
2 69271  51.9016 356.1030 0000395  92.3898 267.7110 14.79932906 17746
KUIPER-00572            
1 69272U 26118F   26260.25206431  .00002634  00000+0  37434-3 0  9991
2 69272  51.9020 351.0457 0000349  91.9605 268.1398 14.79931694 17824
KUIPER-00581            
1 69273U 26118G   26260.24666065  .00000090  00000+0  40788-4 0  9995
2 69273  51.8994 356.0755 0001348 180.8698 179.2262 14.79929980 17849
KUIPER-00584            
1 69274U 26118H   26260.56475015  .00002896  00000+0  40865-3 0  9995
2 69274  51.9024 357.2819 0000372 107.7643 252.3360 14.79940739 17761
KUIPER-00587            
1 69275U 26118J   26260.52488398  .00000450  00000+0  88089-4 0  9995
2 69275  51.9011 347.3501 0000826  93.5925 266.5132 14.79929717 17908
KUIPER-00590            
1 69276U 26118K   26260.24936962  .00001167  00000+0  18202-3 0  9995
2 69276  51.9036 353.5761 0000568 130.1256 229.9756 14.79931936 17799
KUIPER-00592            
1 69277U 26118L   26260.43521218  .00002457  00000+0  35124-3 0  9996
2 69277  51.9043 352.6357 0000499  99.4619 260.6400 14.79930679 17827
KUIPER-00593            
1 69278U 26118M   26260.38640796 -.00000248  00000+0 -35463-5 0  9990
2 69278  51.9013 335.4693 0001709 155.5613 204.5431 14.79929175 18113
KUIPER-00594            
1 69279U 26118N   26260.38102386  .00000787  00000+0  13222-3 0  9992
2 69279  51.9026 340.4989 0001372  81.9368 278.1751 14.79928226 17989
KUIPER-00595            
1 69280U 26118P   26260.91668981 -.00026005  00000+0 -33958-2 0  9991
2 69280  51.8988 333.0804 0001248 173.0270 313.6214 14.79925977  4152
KUIPER-00596            
1 69281U 26118Q   26260.27774513  .00000039  00000+0  34053-4 0  9996
2 69281  51.8985 358.4430 0000324  89.4732 270.6267 14.79928114 17726
KUIPER-00597            
1 69282U 26118R   26260.48496627  .00002491  00000+0  35592-3 0  9999
2 69282  51.8989 337.5289 0001963  44.8852 315.2269 14.79908247 18037
KUIPER-00599            
1 69283U 26118S   26260.44045035  .00002606  00000+0  37068-3 0  9997
2 69283  51.9018 347.6375 0000258 142.8642 217.2338 14.79937477 17890
KUIPER-00600            
1 69284U 26118T   26260.51880994  .00006727  00000+0  90979-3 0  9995
2 69284  51.9011 337.2949 0002089  38.0922 322.0188 14.79965539 18043
KUIPER-00601            
1 69285U 26118U   26259.79353698  .00003081  00000+0  43301-3 0  9997
2 69285  51.9030 355.5828 0000474  89.8704 270.2313 14.79931558 17724
KUIPER-00602            
1 69286U 26118V   26260.40938371 -.00000918  00000+0 -91390-4 0  9995
2 69286  51.9054 345.2786 0000373 287.6676  72.4246 14.79929665 17929
KUIPER-00603            
1 69287U 26118W   26260.42358370  .00000843  00000+0  13959-3 0  9992
2 69287  51.9054 347.8038 0000310  95.1457 264.9541 14.79929214 17889
KUIPER-00605            
1 69288U 26118X   26260.55055065  .00000968  00000+0  15598-3 0  9991
2 69288  51.9015 354.7214 0000570 104.1397 255.9629 14.79933326 17800
KUIPER-00606            
1 69289U 26118Y   26260.54176230  .00002837  00000+0  40089-3 0  9999
2 69289  51.9016 347.2754 0000394 103.3010 256.7997 14.79936013 17909
KUIPER-00607            
1 69290U 26118Z   26260.40061216 -.00000714  00000+0 -64576-4 0  9995
2 69290  51.9039 337.9089 0001533   9.3112 350.7879 14.79930868 18027
KUIPER-00608            
1 69291U 26118AA  26260.41478018  .00002608  00000+0  37090-3 0  9991
2 69291  51.9015 340.2033 0000938  75.2168 284.8899 14.79937632 17999
KUIPER-00610            
1 69292U 26118AB  26260.24057770  .00001375  00000+0  20938-3 0  9994
2 69292  51.9032 346.1063 0000499  78.6317 281.4701 14.79928196 17891
KUIPER-00613            
1 69293U 26118AC  26260.56743816  .00002738  00000+0  38802-3 0  9996
2 69293  51.9022 354.6610 0000342  94.4450 265.6552 14.79936654 17801
KUIPER-00618            
1 69294U 26118AD  26260.41209332  .00002711  00000+0  38451-3 0  9992
2 69294  51.9037 342.8557 0001790 180.5662 179.5298 14.79929739 17959
KUIPER-00620            
1 69295U 26118AE  26260.49381456  .00002681  00000+0  38058-3 0  9998
2 69295  51.9040 344.9982 0000388  94.8731 265.2276 14.79933108 17937
KUIPER-00423            
1 69592U 26140A   26260.91668981 -.00053136  00000+0 -73052-2 0  9996
2 69592  51.9000 315.4443 0007150 134.4927 340.6121 14.78091440  4914
KUIPER-00428            
1 69593U 26140B   26260.38139814  .00018431  00000+0  49626-3 0  9994
2 69593  51.8805 313.1731 0005307 260.1023  99.9365 15.37885427 15411
KUIPER-00481            
1 69594U 26140C   26260.46089368  .00001295  00000+0  21472-3 0  9991
2 69594  51.9018 322.3981 0001802 330.7892  29.2968 14.76497462 15293
KUIPER-00490            
1 69595U 26140D   26260.46202737  .00000604  00000+0  10819-3 0  9995
2 69595  51.9033 327.5832 0000253  61.6369 298.4618 14.79925985 15225
KUIPER-00493            
1 69596U 26140E   26260.42287555 -.00000090  00000+0  17206-4 0  9991
2 69596  51.9042 332.8060 0000712 282.3515  77.7367 14.79931367 15144
KUIPER-00496            
1 69597U 26140F   26260.91668981 -.00013706  00000+0 -10835-2 0  9990
2 69597  51.8927 315.2145 0006601 276.9945   4.2983 14.99539025  4003
KUIPER-00513            
1 69598U 26140G   26260.42826854  .00000629  00000+0  11147-3 0  9998
2 69598  51.9013 327.7785 0000563 104.5471 255.5554 14.79926080 15219
KUIPER-00516            
1 69599U 26140H   26260.91668981 -.01193804  00000+0 -74193-1 0  9997
2 69599  51.8917 311.5258 0006895 206.4033 172.1343 15.12263358  4722
KUIPER-00517            
1 69600U 26140J   26260.91668981 -.00089979  00000+0 -31379-2 0  9996
2 69600  51.8818 310.2883 0008945 162.7731  63.6817 15.29339047  5922
KUIPER-00520            
1 69601U 26140K   26260.40249696  .00001270  00000+0  21073-3 0  9996
2 69601  51.9033 329.8021 0001017 183.7479 176.3475 14.76601955 15180
KUIPER-00522            
1 69602U 26140L   26260.91668981 -.00048304  00000+0 -57977-2 0  9997
2 69602  51.9014 315.6745 0013881 131.2549 318.0146 14.83654089  5907
KUIPER-00528            
1 69603U 26140M   26260.47623210  .00002448  00000+0  34997-3 0  9990
2 69603  51.9034 330.0830 0000364  77.1536 282.9467 14.79936225 15188
KUIPER-00532            
1 69604U 26140N   26260.91668981 -.00020056  00000+0 -16555-2 0  9990
2 69604  51.8939 313.7973 0002538 181.8167 177.1207 14.98175493  4814
KUIPER-00533            
1 69605U 26140P   26260.46474032  .00002359  00000+0  33835-3 0  9998
2 69605  51.9017 325.1263 0000419  77.8203 282.2807 14.79934067 15256
KUIPER-00534            
1 69606U 26140Q   26260.91668981  .00026576  00000+0  89228-3 0  9991
2 69606  51.8801 311.3059 0013255 125.2826 326.2058 15.30598973  5917
KUIPER-00537            
1 69607U 26140R   26260.45663352  .00002436  00000+0  34837-3 0  9993
2 69607  51.9018 332.5759 0000703 350.2420   9.8528 14.79940824 15156
KUIPER-00538            
1 69608U 26140S   26260.42571950  .00001492  00000+0  22460-3 0  9993
2 69608  51.9025 330.2381 0000405 100.1669 259.9339 14.79948422 15180
KUIPER-00540            
1 69609U 26140T   26260.75926489  .00017381  00000+0  46251-3 0  9999
2 69609  51.8806 311.2188 0004891 257.3198 102.7243 15.38295001 15471
KUIPER-00541            
1 69610U 26140U   26260.91668981  .00012755  00000+0  58873-3 0  9992
2 69610  51.8899 310.5353 0007477 174.2895 270.9241 15.20535254  4523
KUIPER-00542            
1 69611U 26140V   26260.91668981 -.00940019  00000+0 -37390-1 0  9997
2 69611  51.8843 310.1362 0007683 157.0815 122.5443 15.27270078  4229
KUIPER-00543            
1 69612U 26140W   26260.91668981 -.00019480  00000+0 -17226-2 0  9994
2 69612  51.8971 313.6923 0003807 280.8928 358.1876 14.95493390  5863
KUIPER-00544            
1 69613U 26140X   26260.91668981 -.02200985  00000+0 -11893+0 0  9990
2 69613  51.8831 310.7273 0005718 172.9314 226.4481 15.18192225  3921
KUIPER-00546            
1 69614U 26140Y   26260.91668981 -.00023329  00000+0 -27306-2 0  9993
2 69614  51.9004 315.6931 0021834 120.4882  50.6857 14.84212497  5916
KUIPER-00547            
1 69615U 26140Z   26260.51713189  .00016260  00000+0  45551-3 0  9998
2 69615  51.8821 311.8605 0009215 150.9212 209.2289 15.36723484 15444
KUIPER-00549            
1 69616U 26140AA  26260.91668981 -.01909334  00000+0 -14139+0 0  9992
2 69616  51.8944 311.9151 0004894 225.5084 227.5400 15.06446131  5436
KUIPER-00550            
1 69617U 26140AB  26260.91668981 -.00054420  00000+0 -36031-2 0  9997
2 69617  51.8847 315.7643 0004983 293.5159 151.4433 15.06965418  5888
KUIPER-00551            
1 69618U 26140AC  26260.69397104  .00023114  00000+0  60766-3 0  9996
2 69618  51.8763 310.7659 0011424 140.7370 219.4447 15.38424722 15473
KUIPER-00554            
1 69619U 26140AD  26260.71073140  .00026544  00000+0  72575-3 0  9992
2 69619  51.8779 310.8745 0009376 149.8651 210.2877 15.37150299 15473
KUIPER-00555            
1 69620U 26140AE  26260.76914236  .00012957  00000+0  36038-3 0  9996
2 69620  51.8820 310.5501 0010415 141.6140 218.5589 15.37139857 15487
KUIPER-00556            
1 69621U 26140AF  26260.91668981 -.00010252  00000+0 -13248-2 0  9992
2 69621  51.8982 318.1196 0000952 137.9615 263.5301 14.79712708  4332
KUIPER-00557            
1 69622U 26140AG  26260.78298492  .00035004  00000+0  91020-3 0  9999
2 69622  51.8813 310.6305 0008401 153.8893 206.2520 15.38564732 15480
KUIPER-00560            
1 69623U 26140AH  26260.42835157  .00028053  00000+0  76699-3 0  9997
2 69623  51.8788 312.7214 0007955 179.5317 180.5679 15.37131871 15429
KUIPER-00561            
1 69624U 26140AJ  26260.43091699 -.00005590  00000+0 -70425-3 0  9998
2 69624  51.9026 325.2434 0000819  97.8737 262.2318 14.79964670 15254
KUIPER-00564            
1 69625U 26140AK  26260.46269057  .00001320  00000+0  21790-3 0  9993
2 69625  51.8984 322.5632 0001906 112.5519 247.5643 14.76578694 15293
KUIPER-00567            
1 69626U 26140AL  26260.40256094 -.00004543  00000+0 -56714-3 0  9991
2 69626  51.8977 320.3963 0002488 128.4074 231.7112 14.79938348 15315
KUIPER-00573            
1 69627U 26140AM  26260.43365230  .00002280  00000+0  32802-3 0  9994
2 69627  51.9016 322.7684 0000614 114.1144 245.9883 14.79920961 15286
KUIPER-00258            
1 69763U 26151A   26260.91668981 -.01577367  00000+0 -13300+0 0  9993
2 69763  51.8888 231.4265 0010100  45.3103 114.5519 15.00886128  2627
KUIPER-00526            
1 69764U 26151B   26260.97039605  .00002214  00000+0  31928-3 0  9996
2 69764  51.8976 245.4533 0000749  64.3002 295.8038 14.79933285 11728
KUIPER-00558            
1 69765U 26151C   26260.66650969  .00001938  00000+0  28317-3 0  9995
2 69765  51.8973 246.7165 0000614  61.2759 298.8265 14.79937215 11684
KUIPER-00569            
1 69766U 26151D   26260.95619981  .00002260  00000+0  32530-3 0  9998
2 69766  51.9004 242.9268 0000940  40.8573 319.2459 14.79938846 11765
KUIPER-00589            
1 69767U 26151E   26260.92743916  .00001611  00000+0  25955-3 0  9994
2 69767  51.8996 246.0689 0002750  58.4824 301.6406 14.76531836 11719
KUIPER-00598            
1 69768U 26151F   26260.23571079  .00004219  00000+0  58163-3 0  9992
2 69768  51.8975 241.1321 0000789  98.6758 261.4293 14.79962868 11722
KUIPER-00604            
1 69769U 26151G   26260.91668981  .00027495  00000+0  36224-2 0  9991
2 69769  51.9012 240.6180 0000372  72.1385  62.2482 14.79914557  4141
KUIPER-00609            
1 69770U 26151H   26260.63411806  .00001836  00000+0  29097-3 0  9996
2 69770  51.9003 239.1211 0002290  27.6538 332.4545 14.76617263 11788
KUIPER-00611            
1 69771U 26151J   26260.31736610  .00002175  00000+0  31419-3 0  9993
2 69771  51.8970 243.2531 0000697  63.8805 296.2229 14.79936028 11704
KUIPER-00612            
1 69772U 26151K   26260.16038643  .00009500  00000+0  13733-2 0  9995
2 69772  51.8996 246.4439 0002278  68.7796 291.3408 14.76711976 11643
KUIPER-00614            
1 69773U 26151L   26260.97579460  .00002159  00000+0  31213-3 0  9999
2 69773  51.8977 240.4085 0001088  69.6007 290.5073 14.79935773 11798
KUIPER-00615            
1 69774U 26151M   26260.91668981  .00032225  00000+0  42372-2 0  9995
2 69774  51.9002 245.5536 0001313 134.0049 209.8169 14.79918317  5416
KUIPER-00616            
1 69775U 26151N   26260.91668981 -.00007220  00000+0 -69373-3 0  9996
2 69775  51.8967 230.9678 0003188 153.6883 122.2645 14.91300132  2391
KUIPER-00617            
1 69776U 26151P   26260.89685736  .00008773  00000+0  11782-2 0  9993
2 69776  51.8979 235.7087 0000853 153.6751 206.4255 14.79935298 11858
KUIPER-00619            
1 69777U 26151Q   26260.16586820  .00001591  00000+0  25640-3 0  9998
2 69777  51.9000 241.1215 0001686 145.7151 214.3919 14.76580352 11714
KUIPER-00621            
1 69778U 26151R   26260.94202605  .00001909  00000+0  27939-3 0  9997
2 69778  51.8999 240.5040 0000627 107.1084 252.9947 14.79931618 11796
KUIPER-00622            
1 69779U 26151S   26260.98423298  .00001561  00000+0  25222-3 0  9992
2 69779  51.8988 244.2287 0001136  74.1068 286.0018 14.76566207 11747
KUIPER-00623            
1 69780U 26151T   26260.66911590 -.00011682  00000+0 -15050-2 0  9990
2 69780  51.8949 244.2231 0000623  98.9160 261.1872 14.79960702 11712
KUIPER-00626            
1 69781U 26151U   26260.96163672  .00002342  00000+0  33580-3 0  9994
2 69781  51.8964 237.8983 0001137 109.3108 250.7977 14.79970353 11838
KUIPER-00627            
1 69782U 26151V   26260.91668981 -.00021017  00000+0 -21821-2 0  9999
2 69782  51.8963 233.3245 0003065  22.9868 154.6355 14.89201281  3139
KUIPER-00629            
1 69783U 26151W   26260.95079152  .00000622  00000+0  11053-3 0  9994
2 69783  51.9009 247.9049 0000429  74.1193 285.9816 14.79935870 11693
KUIPER-00631            
1 69784U 26151X   26260.96769061  .00002922  00000+0  41216-3 0  9990
2 69784  51.8998 247.8916 0000753  77.7682 282.3365 14.79930083 11695
KUIPER-00634            
1 69785U 26151Y   26260.38219822  .00002126  00000+0  30774-3 0  9995
2 69785  51.8996 245.4856 0001007  93.8347 266.2730 14.79939189 11672
KUIPER-00639            
1 69786U 26151Z   26260.91668981 -.00007257  00000+0 -76511-3 0  9990
2 69786  51.8974 233.2491 0011266  31.2843 335.6814 14.87561459  5705
KUIPER-00641            
1 69787U 26151AA  26260.91668981 -.00007772  00000+0 -98916-3 0  9996
2 69787  51.8989 235.6276 0002239 115.9813  80.2868 14.80031664  4979
KUIPER-00644            
1 69788U 26151AB  26260.91668981 -.01407110  00000+0 -98847-1 0  9999
2 69788  51.8859 229.5486 0008664  48.1291 326.7450 15.07834214  5772
KUIPER-00646            
1 69789U 26151AC  26260.91668981  .00024042  00000+0  31711-2 0  9994
2 69789  51.8972 235.7097 0000833 115.6316 260.8201 14.79937510  4035
KUIPER-00647            
1 69790U 26151AD  26260.91668981 -.00001908  00000+0 -18389-3 0  9991
2 69790  51.8980 235.3199 0011296  59.7875 345.6458 14.87097377  4165
KUIPER-00662            
1 69791U 26151AE  26260.91668981  .00028021  00000+0  36928-2 0  9993
2 69791  51.9003 248.1131 0000184 135.8574 132.1440 14.79893022  5159
