IRIDIUM 106             
1 41917U 17003A   26278.88789524  .00000136  00000+0  41508-4 0  9990
2 41917  86.3977  42.2412 0001825  97.6109 262.5294 14.34218587509071
IRIDIUM 103             
1 41918U 17003B   26278.87521347  .00000122  00000+0  36381-4 0  9995
2 41918  86.3977  42.1461 0002089  88.9397 271.2038 14.34215907509098
IRIDIUM 109             
1 41919U 17003C   26278.88157302  .00000097  00000+0  27683-4 0  9999
2 41919  86.3979  42.2048 0002078  93.3695 266.7738 14.34214614509069
IRIDIUM 102             
1 41920U 17003D   26278.84984040  .00000026  00000+0  20738-5 0  9991
2 41920  86.3979  42.1393 0002107  95.8039 264.3397 14.34217835509147
IRIDIUM 105             
1 41921U 17003E   26278.80843698  .00000166  00000+0  52197-4 0  9999
2 41921  86.4025  10.6231 0002403  93.3518 266.7953 14.34217067510992
IRIDIUM 104             
1 41922U 17003F   26278.86252617  .00000176  00000+0  55756-4 0  9996
2 41922  86.3977  42.1778 0002253  90.0914 270.0540 14.34217780509137
IRIDIUM 114             
1 41923U 17003G   26279.07817377  .00000054  00000+0  12154-4 0  9991
2 41923  86.3979  42.0710 0002112  91.8340 268.3098 14.34217886509147
IRIDIUM 108             
1 41924U 17003H   26279.17623149  .00000054  00000+0  12180-4 0  9994
2 41924  86.4020  10.3528 0002222  96.0121 264.1328 14.34218269511012
IRIDIUM 112             
1 41925U 17003J   26278.85618236  .00000157  00000+0  48956-4 0  9994
2 41925  86.3975  42.0006 0002159  92.8737 267.2706 14.34218944509134
IRIDIUM 111             
1 41926U 17003K   26278.84349769  .00000044  00000+0  85125-5 0  9991
2 41926  86.3978  42.0791 0002078  92.7638 267.3796 14.34218198509117
IRIDIUM 113             
1 42803U 17039A   26279.03276701  .00000078  00000+0  20738-4 0  9997
2 42803  86.3911 275.8328 0002325  88.7372 271.4090 14.34218082487071
IRIDIUM 123             
1 42804U 17039B   26279.14401588  .00000071  00000+0  18383-4 0  9999
2 42804  86.3944 307.2755 0002087  91.2207 268.9228 14.34217846485858
IRIDIUM 120             
1 42805U 17039C   26279.16595953  .00000091  00000+0  25366-4 0  9993
2 42805  86.3900 275.5448 0002156  91.5468 268.5975 14.34218115487088
IRIDIUM 115             
1 42806U 17039D   26279.11724422  .00000122  00000+0  30172-4 0  9990
2 42806  86.4437 275.7091 0002125  87.1015 273.0429 14.43279850490268
IRIDIUM 118             
1 42807U 17039E   26279.17572834  .00000022  00000+0  94966-6 0  9997
2 42807  86.3940 307.2594 0002134  93.7010 266.4430 14.34217879485854
IRIDIUM 117             
1 42808U 17039F   26279.12498594  .00000165  00000+0  51881-4 0  9998
2 42808  86.3941 307.2375 0002175  91.5818 268.5627 14.34218911485871
IRIDIUM 126             
1 42809U 17039G   26279.15035745  .00000083  00000+0  22419-4 0  9991
2 42809  86.3944 307.2799 0002241  90.2570 269.8883 14.34218232485852
IRIDIUM 124             
1 42810U 17039H   26279.18972441  .00000219  00000+0  59185-4 0  9990
2 42810  86.4464 243.9199 0002249  84.6035 275.5422 14.43281087491121
IRIDIUM 128             
1 42811U 17039J   26279.14109598  .00000146  00000+0  44986-4 0  9994
2 42811  86.4001 338.7929 0002135  96.5438 263.6001 14.34218499485880
IRIDIUM 121             
1 42812U 17039K   26279.16938544  .00000095  00000+0  26871-4 0  9994
2 42812  86.3944 307.3004 0002216  94.3407 265.8042 14.34218292485738
IRIDIUM 133             
1 42955U 17061A   26279.17280856  .00000140  00000+0  42813-4 0  9999
2 42955  86.4005 338.9003 0002159  95.5360 264.6082 14.34217898470681
IRIDIUM 100             
1 42956U 17061B   26279.16646701  .00000047  00000+0  98366-5 0  9995
2 42956  86.4002 338.8190 0002205  95.3356 264.8092 14.34217878470681
IRIDIUM 122             
1 42957U 17061C   26279.13475339  .00000096  00000+0  27180-4 0  9999
2 42957  86.4003 338.8327 0002177  92.5800 267.5645 14.34218423470687
IRIDIUM 129             
1 42958U 17061D   26279.16012457  .00000030  00000+0  35908-5 0  9997
2 42958  86.4004 338.8904 0002411  92.9537 267.1935 14.34217844470709
IRIDIUM 119             
1 42959U 17061E   26279.12840485  .00000240  00000+0  78760-4 0  9999
2 42959  86.4004 338.8998 0002177  92.8320 267.3125 14.34221643470717
IRIDIUM 107             
1 42960U 17061F   26279.14743836  .00000100  00000+0  28513-4 0  9991
2 42960  86.4004 338.9138 0002043  91.3327 268.8103 14.34218357470720
IRIDIUM 132             
1 42961U 17061G   26279.15378103  .00000029  00000+0  34257-5 0  9997
2 42961  86.4005 338.8900 0002214  94.3780 265.7669 14.34217957470722
IRIDIUM 136             
1 42962U 17061H   26279.11572566  .00000119  00000+0  35411-4 0  9995
2 42962  86.4005 338.9130 0002216  96.0495 264.0953 14.34218515470733
IRIDIUM 139             
1 42963U 17061J   26279.12206801  .00000045  00000+0  90826-5 0  9993
2 42963  86.4006 338.9741 0002158  94.8724 265.2719 14.34218012470745
IRIDIUM 125             
1 42964U 17061K   26279.17915161  .00000072  00000+0  18547-4 0  9994
2 42964  86.4008 339.0133 0002174  82.2091 277.9351 14.34218049470765
IRIDIUM 135             
1 43070U 17083A   26279.08350727  .00000016  00000+0 -13419-5 0  9991
2 43070  86.3904 275.6411 0002143  89.3820 270.7621 14.34217662460047
IRIDIUM 138             
1 43071U 17083B   26279.03910949 -.00000011  00000+0 -10965-4 0  9993
2 43071  86.3917 275.3720 0002203  86.8816 273.2632 14.34217494460027
IRIDIUM 116             
1 43072U 17083C   26279.07716463  .00000125  00000+0  37696-4 0  9997
2 43072  86.3905 275.6282 0002062  94.3283 265.8149 14.34218500460069
IRIDIUM 130             
1 43073U 17083D   26279.04545208  .00000011  00000+0 -30266-5 0  9994
2 43073  86.3911 275.9280 0001932  90.2443 269.8974 14.34217422460002
IRIDIUM 151             
1 43074U 17083E   26279.22938706  .00000083  00000+0  22490-4 0  9991
2 43074  86.3907 275.6249 0002225  90.9495 269.1955 14.34217513460058
IRIDIUM 134             
1 43075U 17083F   26279.05813816  .00000005  00000+0 -51809-5 0  9999
2 43075  86.3905 275.7061 0002065  89.3636 270.7797 14.34217435459997
IRIDIUM 137             
1 43076U 17083G   26279.07082331  .00000123  00000+0  36704-4 0  9998
2 43076  86.3909 275.7959 0002283  98.2754 261.8701 14.34218304460062
IRIDIUM 141             
1 43077U 17083H   26279.06447920  .00000064  00000+0  15625-4 0  9990
2 43077  86.3905 275.6228 0002278  88.6421 271.5036 14.34218096460062
IRIDIUM 153             
1 43078U 17083J   26279.15619558  .00000181  00000+0  57461-4 0  9993
2 43078  86.3942 244.0506 0002304  82.8879 277.2579 14.34216543461180
IRIDIUM 131             
1 43079U 17083K   26279.05179419  .00000036  00000+0  58334-5 0  9990
2 43079  86.3909 275.8217 0002287  89.9193 270.2265 14.34217930459994
IRIDIUM 144             
1 43249U 18030A   26279.16253900  .00000161  00000+0  50412-4 0  9999
2 43249  86.3940 243.9743 0002168  88.2266 271.9178 14.34218580446044
IRIDIUM 149             
1 43250U 18030B   26278.88980714  .00000144  00000+0  44472-4 0  9999
2 43250  86.3937 244.0542 0002255  84.4176 275.7277 14.34218651446025
IRIDIUM 157             
1 43251U 18030C   26279.18790970  .00000022  00000+0  63331-6 0  9999
2 43251  86.3940 243.9853 0002216  85.4868 274.6581 14.34217720446043
IRIDIUM 140             
1 43252U 18030D   26279.13716887  .00000072  00000+0  18468-4 0  9994
2 43252  86.3940 244.0187 0002216  85.4309 274.7139 14.34217877446094
IRIDIUM 145             
1 43253U 18030E   26279.19425019  .00000156  00000+0  48780-4 0  9998
2 43253  86.3940 243.9669 0002028  90.5974 269.5454 14.34218882446037
IRIDIUM 146             
1 43254U 18030F   26278.96591834  .00000166  00000+0  52207-4 0  9992
2 43254  86.3939 244.0742 0002151  87.8673 272.2769 14.34218795446013
IRIDIUM 148             
1 43255U 18030G   26279.14351141  .00000086  00000+0  23735-4 0  9994
2 43255  86.3940 244.0447 0002300  87.6487 272.4972 14.34217739446076
IRIDIUM 142             
1 43256U 18030H   26279.18156709  .00000117  00000+0  34888-4 0  9998
2 43256  86.3937 243.9138 0002155  89.2675 270.8768 14.34218423446046
IRIDIUM 150             
1 43257U 18030J   26278.94054764  .00000148  00000+0  45914-4 0  9996
2 43257  86.3941 244.1346 0002168  86.2842 273.8602 14.34218892446032
IRIDIUM 143             
1 43258U 18030K   26279.20059413  .00000172  00000+0  54515-4 0  9997
2 43258  86.3944 244.1227 0002126  86.3061 273.8378 14.34218586446009
IRIDIUM 161             
1 43478U 18047C   26278.82101307  .00000205  00000+0  54984-4 0  9993
2 43478  86.4499  42.1768 0002296  93.4070 266.7394 14.43280203441090
IRIDIUM 152             
1 43479U 18047D   26279.10354344  .00000138  00000+0  42131-4 0  9993
2 43479  86.3973  41.9212 0002130  93.0297 267.1143 14.34218596438383
IRIDIUM 147             
1 43480U 18047E   26279.17965885  .00000141  00000+0  43334-4 0  9990
2 43480  86.3976  41.8965 0002077  96.3192 263.8241 14.34221360438398
IRIDIUM 110             
1 43481U 18047F   26278.90692457  .00000139  00000+0  42467-4 0  9996
2 43481  86.3978  42.1053 0002360  91.7791 268.3675 14.34218562438348
IRIDIUM 162             
1 43482U 18047G   26278.88403986  .00000207  00000+0  55614-4 0  9995
2 43482  86.4497  42.0403 0002142  92.8996 267.2450 14.43282165441096
IRIDIUM 160             
1 43569U 18061A   26278.78299108  .00000090  00000+0  25138-4 0  9993
2 43569  86.4023  10.5581 0002195  96.1881 263.9565 14.34218314429228
IRIDIUM 166             
1 43570U 18061B   26278.87813046  .00000048  00000+0  10155-4 0  9994
2 43570  86.4021  10.4673 0002133  97.2398 262.9041 14.34218017429268
IRIDIUM 158             
1 43571U 18061C   26278.77664886  .00000018  00000+0 -76580-6 0  9994
2 43571  86.4022  10.5197 0002123  93.6967 266.4472 14.34218057429219
IRIDIUM 165             
1 43572U 18061D   26278.80201947  .00000072  00000+0  18479-4 0  9994
2 43572  86.4023  10.5576 0002087  96.3943 263.7490 14.34218136429246
IRIDIUM 155             
1 43573U 18061E   26278.76396926  .00000150  00000+0  46442-4 0  9990
2 43573  86.4020  10.4371 0002083  95.1125 265.0308 14.34216797429201
IRIDIUM 154             
1 43574U 18061F   26278.74493594  .00000041  00000+0  77201-5 0  9995
2 43574  86.4024  10.5841 0002108  97.0706 263.0729 14.34217936429259
IRIDIUM 163             
1 43575U 18061G   26278.79567691  .00000186  00000+0  59418-4 0  9990
2 43575  86.4019  10.4746 0002175  94.3461 265.7983 14.34218161429239
IRIDIUM 156             
1 43576U 18061H   26279.11914867  .00000154  00000+0  48050-4 0  9994
2 43576  86.4022  10.3470 0002019  94.8193 265.3234 14.34217957429272
IRIDIUM 164             
1 43577U 18061J   26279.16988983 -.00000012  00000+0 -11409-4 0  9993
2 43577  86.4019  10.3679 0002032  98.8414 261.3012 14.34217485429327
IRIDIUM 159             
1 43578U 18061K   26279.13817678  .00000042  00000+0  78074-5 0  9996
2 43578  86.4020  10.3158 0002213  93.9848 266.1601 14.34218055429286
IRIDIUM 180             
1 43922U 19002A   26279.13767289  .00000088  00000+0  24243-4 0  9995
2 43922  86.3943 307.2376 0002268  93.2462 266.8993 14.34218213404894
IRIDIUM 176             
1 43923U 19002B   26279.15025010  .00000503  00000+0  75864-4 0  9994
2 43923  86.6064 307.1600 0002374  92.1301 268.0188 14.72254651415574
IRIDIUM 168             
1 43924U 19002C   26279.13133037  .00000058  00000+0  13516-4 0  9993
2 43924  86.3944 307.3206 0002247  93.1196 267.0257 14.34217954404875
IRIDIUM 173             
1 43925U 19002D   26279.11864503  .00000040  00000+0  70852-5 0  9999
2 43925  86.3941 307.2101 0002206  92.2930 267.8518 14.34217847404854
IRIDIUM 169             
1 43926U 19002E   26279.12414022  .00000151  00000+0  42807-4 0  9999
2 43926  86.4259 338.8442 0001940  87.9939 272.1481 14.38609306406174
IRIDIUM 172             
1 43927U 19002F   26279.11230194  .00000066  00000+0  16496-4 0  9995
2 43927  86.3941 307.2211 0002278  92.5744 267.5712 14.34218075404861
IRIDIUM 175             
1 43928U 19002G   26279.17788926  .00000207  00000+0  55253-4 0  9994
2 43928  86.4494 244.0991 0002484 171.3677 188.7567 14.43651052414992
IRIDIUM 171             
1 43929U 19002H   26279.16304278  .00000094  00000+0  26439-4 0  9996
2 43929  86.3952 307.5186 0002172  94.4769 265.6675 14.34218277404861
IRIDIUM 170             
1 43930U 19002J   26279.15644128  .00000448  00000+0  67148-4 0  9993
2 43930  86.6063 307.1588 0002391  91.2069 268.9422 14.72251768415583
IRIDIUM 167             
1 43931U 19002K   26279.15669985  .00000108  00000+0  31467-4 0  9990
2 43931  86.3942 307.2258 0002016  94.5551 265.5875 14.34218322404869
IRIDIUM 181             
1 56726U 23068S   26278.75617291  .00000196  00000+0  52297-4 0  9992
2 56726  86.4559  10.5738 0002320  97.4650 262.6814 14.43308220178380
IRIDIUM 177             
1 56727U 23068T   26279.06398049  .00000283  00000+0  36378-4 0  9994
2 56727  86.1909 276.2107 0002468  86.6838 273.4663 14.77173429182755
IRIDIUM 174             
1 56728U 23068U   26279.14407836  .00000480  00000+0  72157-4 0  9993
2 56728  86.6072 307.3226 0002394  88.3425 271.8066 14.72253247182345
IRIDIUM 178             
1 56729U 23068V   26279.12402685  .00000560  00000+0  70516-4 0  9995
2 56729  86.6572 339.0423 0002414  89.6803 270.4695 14.80039106182774
IRIDIUM 179             
1 56730U 23068W   26279.11863619  .00000397  00000+0  49014-4 0  9991
2 56730  86.6825 348.3498 0002354  92.5550 267.5941 14.80048819182779
