KUIPER-00008            
1 63724U 25088A   26282.80560675 -.00000231  00000+0 -13437-5 0  9992
2 63724  51.9002 221.1865 0000886  68.7565 291.3492 14.79929473 79758
KUIPER-00009            
1 63725U 25088B   26282.54820197  .00004861  00000+0  32848-3 0  9998
2 63725  51.9019 225.8687 0001403  45.5498 314.5591 15.08224556 79665
KUIPER-00010            
1 63726U 25088C   26282.23701355 -.00000294  00000+0 -95935-5 0  9995
2 63726  51.9021 218.8157 0000926  66.3954 293.7105 14.79930735 79355
KUIPER-00011            
1 63727U 25088D   26282.26268911 -.00000391  00000+0 -22302-4 0  9990
2 63727  51.9008 226.2421 0001172  43.6550 316.4505 14.79934708 79386
KUIPER-00012            
1 63728U 25088E   26282.51521727  .00000417  00000+0  83694-4 0  9994
2 63728  51.9005 210.0670 0001127  82.5134 277.5956 14.79933204 79580
KUIPER-00013            
1 63729U 25088F   26282.91911362 -.00000364  00000+0 -18780-4 0  9994
2 63729  51.9019 240.8009 0000689  81.4530 278.6510 14.79927386 79293
KUIPER-00014            
1 63730U 25088G   26282.88530959  .00001202  00000+0  18654-3 0  9990
2 63730  51.9013 240.8951 0001164  37.6974 322.4070 14.79948421 79101
KUIPER-00015            
1 63731U 25088H   26282.63820388  .00000900  00000+0  14705-3 0  9999
2 63731  51.8986 252.0273 0000970  58.6306 301.4751 14.79933141 79384
KUIPER-00016            
1 63732U 25088J   26282.20733773  .00002394  00000+0  34293-3 0  9997
2 63732  51.8995 246.3944 0000830  47.0237 313.0795 14.79940755 78965
KUIPER-00018            
1 63733U 25088K   26282.92719589  .00000845  00000+0  13978-3 0  9992
2 63733  51.9041 233.2653 0000934  63.0089 297.0969 14.79933672 79212
KUIPER-00019            
1 63734U 25088L   26282.88631045  .00000560  00000+0  10244-3 0  9995
2 63734  51.9003 232.1843 0000892  46.8915 313.2122 14.79927106 79228
KUIPER-00020            
1 63735U 25088M   26282.58685349 -.00000281  00000+0 -78033-5 0  9993
2 63735  51.9021 237.2610 0000773  58.0575 302.0463 14.79931154 79336
KUIPER-00021            
1 63736U 25088N   26282.89073171 -.00000149  00000+0  95341-5 0  9995
2 63736  51.9013 235.8651 0000875  57.9718 302.1330 14.79927299 79213
KUIPER-00023            
1 63737U 25088P   26281.09848434  .00000756  00000+0  12811-3 0  9991
2 63737  51.9011 246.2802 0000815  59.0135 301.0907 14.79933721 79211
KUIPER-00024            
1 63738U 25088Q   26281.85482035 -.00000212  00000+0  12617-5 0  9991
2 63738  51.9027 230.5555 0001017  58.4013 301.7048 14.79929172 79626
KUIPER-00025            
1 63739U 25088R   26282.89343166 -.00003038  00000+0 -36962-3 0  9995
2 63739  51.9044 233.4457 0000541  65.9615 294.1404 14.79944064 79539
KUIPER-00027            
1 63740U 25088S   26282.59494468  .00001049  00000+0  16657-3 0  9993
2 63740  51.9023 229.7165 0000754  80.8844 279.2204 14.79933881 79298
KUIPER-00028            
1 63741U 25088T   26282.56386593  .00000181  00000+0  52785-4 0  9999
2 63741  51.8981 227.2922 0000960  55.7550 304.3503 14.79932908 79739
KUIPER-00029            
1 63742U 25088U   26282.53988127  .00000488  00000+0  93089-4 0  9990
2 63742  51.9014 226.0998 0001078  45.4431 314.6619 14.79934648 79277
KUIPER-00030            
1 63743U 25088V   26282.91640936 -.00000246  00000+0 -32151-5 0  9994
2 63743  51.9026 243.2560 0000850  58.6253 301.4793 14.79931038 79358
KUIPER-00031            
1 63744U 25088W   26282.56115452 -.00003466  00000+0 -42579-3 0  9996
2 63744  51.9005 229.8476 0001073  65.9949 294.1126 14.79940816 79221
KUIPER-00032            
1 63745U 25088X   26282.76992327  .00017372  00000+0  39512-3 0  9995
2 63745  51.8664  64.2387 0004657 161.1276 198.9887 15.43071051 82549
KUIPER-00033            
1 63746U 25088Y   26282.32620266  .00003686  00000+0  51200-3 0  9999
2 63746  51.9002 260.8806 0000304  22.7010 337.3966 14.79955105 79250
KUIPER-00034            
1 63747U 25088Z   26282.56926481  .00000584  00000+0  10560-3 0  9992
2 63747  51.9022 222.3492 0000727  74.9786 285.1257 14.79930527 79495
KUIPER-00035            
1 63748U 25088AA  26282.60982646 -.00000389  00000+0 -21984-4 0  9991
2 63748  51.9012 247.1301 0000789  52.7094 307.3940 14.79933082 79207
KUIPER-00037            
1 63749U 25088AB  26282.60275014 -.00000421  00000+0 -26202-4 0  9991
2 63749  51.9012 246.0245 0000775  54.6978 305.4057 14.79932249 80002
KUIPER-00038            
1 63750U 25088AC  26282.59224789  .00000828  00000+0  13767-3 0  9994
2 63750  51.9027 232.2459 0000696  96.3601 263.7440 14.79932253 79197
KUIPER-00039            
1 64500U 25134A   26282.49727931  .00001015  00000+0  16206-3 0  9996
2 64500  51.9029   7.6641 0000174  66.4660 293.6321 14.79931872 71732
KUIPER-00040            
1 64501U 25134B   26281.98002618  .00000644  00000+0  11346-3 0  9995
2 64501  51.9000  20.0031 0000325 145.1819 214.9164 14.79934785 71516
KUIPER-00041            
1 64502U 25134C   26282.55131829  .00002850  00000+0  40269-3 0  9994
2 64502  51.9007  19.8699 0000305 115.7567 244.3427 14.79937990 71566
KUIPER-00042            
1 64503U 25134D   26282.52294501  .00001207  00000+0  18722-3 0  9993
2 64503  51.8999  14.9730 0000231 105.6204 254.4784 14.79934052 71634
KUIPER-00043            
1 64504U 25134E   26282.93621875  .00002830  00000+0  40004-3 0  9998
2 64504  51.9030   5.6666 0000182  66.3299 293.7682 14.79939126 71808
KUIPER-00044            
1 64505U 25134F   26282.65260887 -.00000535  00000+0 -41130-4 0  9994
2 64505  51.9001  19.4034 0000367 120.0954 240.0045 14.79930296 71582
KUIPER-00046            
1 64506U 25134G   26282.68907690  .00000377  00000+0  78468-4 0  9994
2 64506  51.9006  16.7127 0000356  87.6350 272.4653 14.79929798 71621
KUIPER-00047            
1 64507U 25134H   26282.48237831  .00000679  00000+0  11799-3 0  9994
2 64507  51.9013 350.1580 0000230  63.7894 296.3092 14.79934337 71972
KUIPER-00048            
1 64508U 25134J   26282.58368269  .00000268  00000+0  64182-4 0  9995
2 64508  51.9011 349.7215 0000146  58.4913 301.6064 14.79930695 71993
KUIPER-00049            
1 64509U 25134K   26282.73901295  .00001532  00000+0  22996-3 0  9996
2 64509  51.9026   1.5081 0000443 107.8511 252.2500 14.79933762 71845
KUIPER-00050            
1 64510U 25134L   26282.48775971 -.00002163  00000+0 -25479-3 0  9992
2 64510  51.9006 345.1406 0000325 330.4795  29.6149 14.79935285 72051
KUIPER-00051            
1 64511U 25134M   26282.64749637  .00002598  00000+0  36953-3 0  9990
2 64511  51.9020   0.6125 0000128  89.2668 270.8309 14.79938470 71841
KUIPER-00053            
1 64513U 25134P   26282.90145287 -.00002377  00000+0 -27114-3 0  9998
2 64513  51.9040 353.6545 0001323 178.2609 181.8359 14.81642581 71961
KUIPER-00054            
1 64514U 25134Q   26282.24331065  .00000298  00000+0  68042-4 0  9991
2 64514  51.8978 353.6931 0000258 210.5883 149.5065 14.79940208 71903
KUIPER-00055            
1 64515U 25134R   26282.80103555 -.00001882  00000+0 -21794-3 0  9999
2 64515  51.9029 303.8900 0000518 160.4656 199.6327 14.79937225 72650
KUIPER-00056            
1 64516U 25134S   26282.74442585  .00002757  00000+0  39043-3 0  9998
2 64516  51.9040 356.6096 0000141 100.5507 259.5471 14.79935564 71916
KUIPER-00057            
1 64517U 25134T   26282.93890926  .00002167  00000+0  31313-3 0  9993
2 64517  51.9003   3.1579 0000403  84.9876 275.1132 14.79931562 71834
KUIPER-00058            
1 64518U 25134U   26282.64042017  .00002494  00000+0  35604-3 0  9992
2 64518  51.9021 359.4587 0000226  74.8955 285.2033 14.79936075 71869
KUIPER-00059            
1 64519U 25134V   26282.24062095  .00002242  00000+0  32308-3 0  9996
2 64519  51.9016 356.2613 0000311  34.6581 325.4401 14.79927479 71878
KUIPER-00060            
1 64520U 25134W   26282.61206314  .00000741  00000+0  12613-3 0  9992
2 64520  51.9031 354.7034 0000359  63.0292 297.0707 14.79933952 71915
KUIPER-00061            
1 64521U 25134X   26282.90782803  .00003084  00000+0  43316-3 0  9994
2 64521  51.9021   0.8307 0000195 117.8924 242.2058 14.79950187 71858
KUIPER-00062            
1 64522U 25134Y   26282.22984341 -.00000062  00000+0  20806-4 0  9995
2 64522  51.8974   6.2665 0000428  36.9895 323.1097 14.79929839 71738
KUIPER-00063            
1 64523U 25134Z   26282.55941826  .00000339  00000+0  73459-4 0  9991
2 64523  51.9018  12.4161 0000224  77.5014 282.5973 14.79931767 71674
KUIPER-00064            
1 64524U 25134AA  26282.29198960  .00000853  00000+0  14093-3 0  9995
2 64524  51.9036  11.0291 0000346 138.3122 221.7867 14.79930823 71674
KUIPER-00065            
1 64525U 25134AB  26282.55673547  .00002969  00000+0  41819-3 0  9990
2 64525  51.9046  15.0340 0000294  85.6049 274.4947 14.79939504 71623
KUIPER-00066            
1 64526U 25134AC  26282.79294609  .00001387  00000+0  21083-3 0  9999
2 64526  51.9021 311.2551 0000438  46.0542 314.0457 14.79934302 72552
KUIPER-00069            
1 64816U 25151A   26282.64863849  .00002671  00000+0  37925-3 0  9991
2 64816  51.9022  54.5285 0000511 126.3805 233.7204 14.79934067 68440
KUIPER-00070            
1 64817U 25151B   26282.45283756  .00001758  00000+0  25951-3 0  9995
2 64817  51.8998  80.2896 0001011 130.8786 229.2264 14.79931794 68079
KUIPER-00071            
1 64818U 25151C   26282.38800808  .00001940  00000+0  28343-3 0  9992
2 64818  51.8991  78.1266 0000523 112.2338 247.8680 14.79933046 66915
KUIPER-00072            
1 64819U 25151D   26282.37580710  .00002086  00000+0  30251-3 0  9992
2 64819  51.8980  58.0942 0000563 129.2462 230.8550 14.79932855 67198
KUIPER-00073            
1 64820U 25151E   26282.69188914  .00002731  00000+0  38706-3 0  9999
2 64820  51.9005  76.7585 0000887 109.8114 250.2945 14.79938160 68141
KUIPER-00075            
1 64822U 25151G   26282.65816666  .00031547  00000+0  81265-3 0  9994
2 64822  51.8638 259.1124 0002647 331.9558  28.1286 15.38932483 69426
KUIPER-00076            
1 64823U 25151H   26282.43256256 -.00000379  00000+0 -20724-4 0  9999
2 64823  51.8988  67.9291 0000667 117.2359 242.8672 14.79927080 67062
KUIPER-00077            
1 64824U 25151J   26282.69726605 -.00001923  00000+0 -22328-3 0  9995
2 64824  51.9007  71.7806 0000939 131.1032 229.0012 14.79929521 67030
KUIPER-00078            
1 64825U 25151K   26282.66621244  .00002521  00000+0  35953-3 0  9997
2 64825  51.8996  69.3879 0000804 133.8153 226.2876 14.79937886 67067
KUIPER-00079            
1 64826U 25151L   26282.69458666  .00002461  00000+0  35166-3 0  9996
2 64826  51.8990  74.2155 0000949 130.0079 230.0967 14.79937375 68192
KUIPER-00080            
1 64827U 25151M   26282.72835099  .00002413  00000+0  34535-3 0  9996
2 64827  51.8985  74.0795 0000450 117.1656 242.9352 14.79934106 67007
KUIPER-00082            
1 64828U 25151N   26282.91066889  .00003074  00000+0  43207-3 0  9991
2 64828  51.9014  60.8397 0000663 125.0906 235.0119 14.79936588 67207
KUIPER-00083            
1 64829U 25151P   26282.42986628  .00000086  00000+0  40260-4 0  9997
2 64829  51.9009  70.4463 0000893 132.1045 227.9994 14.79932645 68214
KUIPER-00084            
1 64830U 25151Q   26282.48661107  .00001929  00000+0  28194-3 0  9995
2 64830  51.9004  80.1810 0000718 118.2289 241.8746 14.79927129 66899
KUIPER-00085            
1 64831U 25151R   26282.40419394  .00002008  00000+0  29231-3 0  9999
2 64831  51.9030  63.1390 0000683 143.1485 216.9524 14.79943388 67128
KUIPER-00086            
1 64832U 25151S   26282.39341217  .00002017  00000+0  29358-3 0  9996
2 64832  51.9004  73.1167 0000786 130.2142 229.8889 14.79929875 66989
KUIPER-00087            
1 64833U 25151T   26282.74990906 -.00000520  00000+0 -39158-4 0  9990
2 64833  51.9018  53.9929 0000453 129.6299 230.4703 14.79933605 67275
KUIPER-00089            
1 64834U 25151U   26282.40688872 -.00000062  00000+0  20898-4 0  9991
2 64834  51.8998  60.5362 0000548 124.4251 235.6763 14.79928035 67165
KUIPER-00090            
1 64835U 25151V   26282.61756381  .00001600  00000+0  23882-3 0  9999
2 64835  51.8989  52.0976 0000345  42.5026 317.5963 14.79935944 67291
KUIPER-00091            
1 64836U 25151W   26282.67970580  .00000785  00000+0  13200-3 0  9991
2 64836  51.9000  56.8555 0000494 134.4952 225.6051 14.79931718 67232
KUIPER-00092            
1 64837U 25151X   26282.40146942  .00000745  00000+0  12672-3 0  9998
2 64837  51.9017  65.5723 0000465  79.6259 280.4756 14.79917732 68303
KUIPER-00093            
1 64838U 25151Y   26282.39879300  .00000999  00000+0  16011-3 0  9990
2 64838  51.8985  68.0512 0000971 117.9383 242.1678 14.79930065 67050
KUIPER-00094            
1 64839U 25151Z   26282.58240814  .00000958  00000+0  15463-3 0  9999
2 64839  51.9068  22.3653 0000413 143.3692 216.7299 14.79933083 67712
KUIPER-00081            
1 65132U 25171A   26282.38635805  .00002133  00000+0  30863-3 0  9992
2 65132  51.9000 283.1066 0000632  33.6183 326.4820 14.79941277 64685
KUIPER-00088            
1 65133U 25171B   26282.57007989  .00002245  00000+0  32336-3 0  9991
2 65133  51.9004 299.7928 0000484  54.1369 305.9638 14.79930485 64463
KUIPER-00095            
1 65134U 25171C   26282.72671305  .00002522  00000+0  35964-3 0  9996
2 65134  51.8972 279.1320 0000594  76.8473 283.2555 14.79932525 64760
KUIPER-00096            
1 65135U 25171D   26282.74699419  .00001556  00000+0  23309-3 0  9991
2 65135  51.8999 291.5031 0000528  38.0463 322.0537 14.79931877 64595
KUIPER-00097            
1 65136U 25171E   26282.74431822  .00000591  00000+0  10656-3 0  9993
2 65136  51.9026 294.1899 0000429  55.0046 305.0957 14.79934722 64549
KUIPER-00098            
1 65137U 25171F   26282.74160374  .00001490  00000+0  22444-3 0  9992
2 65137  51.8985 296.5579 0000604  40.3145 319.7862 14.79934289 63865
KUIPER-00099            
1 65138U 25171G   26282.71862999  .00000646  00000+0  11376-3 0  9996
2 65138  51.9023 286.6783 0000526  34.7384 325.3613 14.79934770 64652
KUIPER-00100            
1 65139U 25171H   26282.28236674  .00001940  00000+0  28333-3 0  9993
2 65139  51.9004 286.0708 0000600  42.4293 317.6716 14.79939631 64627
KUIPER-00102            
1 65140U 25171J   26282.75237455  .00001869  00000+0  27399-3 0  9996
2 65140  51.8982 286.4547 0000651  19.6832 340.4155 14.79940623 64656
KUIPER-00103            
1 65141U 25171K   26282.76726986  .00002178  00000+0  31449-3 0  9995
2 65141  51.8995 303.8935 0000456  37.6743 322.4251 14.79938884 64417
KUIPER-00104            
1 65142U 25171L   26282.30805287  .00000541  00000+0  99899-4 0  9994
2 65142  51.9021 293.4482 0000575  44.9274 315.1735 14.79931682 64529
KUIPER-00105            
1 65143U 25171M   26282.73891390  .00001211  00000+0  18783-3 0  9999
2 65143  51.8985 299.1319 0000535  36.3931 323.7067 14.79934365 64480
KUIPER-00106            
1 65144U 25171N   26281.23396867  .00002182  00000+0  31509-3 0  9992
2 65144  51.9006 284.5572 0000447  59.0490 301.0516 14.79937394 64561
KUIPER-00107            
1 65145U 25171P   26282.69024967  .00001393  00000+0  21161-3 0  9999
2 65145  51.8980 281.7890 0000534  52.9104 307.1908 14.79936350 64726
KUIPER-00108            
1 65146U 25171Q   26282.77807185  .00002174  00000+0  31404-3 0  9999
2 65146  51.9033 293.9525 0000458  48.2116 311.8885 14.79933217 64560
KUIPER-00109            
1 65147U 25171R   26282.74969396  .00002015  00000+0  29324-3 0  9992
2 65147  51.9036 289.0202 0000525  36.9946 323.1052 14.79934399 64623
KUIPER-00110            
1 65148U 25171S   26282.43233177  .00001900  00000+0  27809-3 0  9998
2 65148  51.9000 302.9645 0000464  41.5570 318.5428 14.79933550 64395
KUIPER-00111            
1 65149U 25171T   26282.79833491  .00002085  00000+0  30237-3 0  9997
2 65149  51.8992 306.2007 0000592  38.6446 321.4559 14.79933481 64385
KUIPER-00112            
1 65150U 25171U   26282.71593568  .00000436  00000+0  86181-4 0  9997
2 65150  51.9006 289.2098 0000541  30.1485 329.9509 14.79934548 64617
KUIPER-00114            
1 65151U 25171V   26282.45800425  .00001236  00000+0  19115-3 0  9993
2 65151  51.9006 310.3046 0000477  40.4280 319.6718 14.79931645 64299
KUIPER-00115            
1 65152U 25171W   26282.33103488  .00000677  00000+0  11773-3 0  9996
2 65152  51.9011 303.3792 0000408  45.5424 314.5571 14.79934295 64381
KUIPER-00116            
1 65153U 25171X   26282.76458775  .00002483  00000+0  35460-3 0  9992
2 65153  51.8997 306.4924 0000446  43.6879 316.4118 14.79937565 64370
KUIPER-00118            
1 65154U 25171Y   26282.49175119  .00002364  00000+0  33891-3 0  9995
2 65154  51.9002 310.1462 0000436  49.4880 310.6120 14.79942923 64309
KUIPER-00119            
1 65155U 25171Z   26282.77538208  .00002376  00000+0  34057-3 0  9997
2 65155  51.9010 296.4979 0000557  48.8391 311.2620 14.79935946 64514
KUIPER-00120            
1 65762U 25217A   26282.94466251  .00000613  00000+0  10936-3 0  9991
2 65762  51.8977 185.6061 0001142 101.7163 258.3927 14.79931384 56465
KUIPER-00132            
1 65763U 25217B   26282.73076921  .00031739  00000+0  79294-3 0  9995
2 65763  51.8535  42.0872 0005832   7.0006 353.1062 15.39854092 58436
KUIPER-00133            
1 65764U 25217C   26282.91090922  .00003031  00000+0  42641-3 0  9993
2 65764  51.9041 185.9065 0001023  68.5732 291.5339 14.79938027 56464
KUIPER-00139            
1 65765U 25217D   26282.94596556  .00007405  00000+0  99972-3 0  9999
2 65765  51.8975 153.1660 0001389  84.2196 275.8925 14.79916858 56927
KUIPER-00142            
1 65766U 25217E   26282.69341682  .00000650  00000+0  11426-3 0  9993
2 65766  51.8989 169.2514 0001184 101.4684 258.6411 14.79933525 56677
KUIPER-00145            
1 65767U 25217F   26282.42060646  .00001810  00000+0  26634-3 0  9999
2 65767  51.9011 172.9843 0001118  91.8497 268.2593 14.79931873 56595
KUIPER-00147            
1 65768U 25217G   26282.92436921  .00002889  00000+0  40784-3 0  9997
2 65768  51.8982 173.2280 0001312  84.0934 276.0178 14.79932102 56634
KUIPER-00148            
1 65769U 25217H   26282.94325656  .00002321  00000+0  33335-3 0  9997
2 65769  51.9048 155.7085 0000859 103.3415 256.7644 14.79938961 56880
KUIPER-00150            
1 65770U 25217J   26282.91359718  .00002951  00000+0  41595-3 0  9998
2 65770  51.9017 183.3279 0000923  89.7763 270.3305 14.79937871 56497
KUIPER-00151            
1 65771U 25217K   26282.92169038  .00000570  00000+0  10373-3 0  9999
2 65771  51.9001 175.7896 0000782  91.5782 268.5270 14.79927994 56604
KUIPER-00152            
1 65772U 25217L   26282.96893435  .00002856  00000+0  40344-3 0  9999
2 65772  51.8997 163.0611 0001187  89.9898 270.1200 14.79935545 56784
KUIPER-00153            
1 65773U 25217M   26282.90680888  .00000703  00000+0  12122-3 0  9992
2 65773  51.9037 158.4279 0001052  91.9718 268.1364 14.79930661 56843
KUIPER-00155            
1 65774U 25217N   26282.32869551  .00001654  00000+0  24599-3 0  9992
2 65774  51.9008 133.4472 0000880 109.5539 250.5518 14.79931946 57142
KUIPER-00156            
1 65775U 25217P   26282.40033173  .00002223  00000+0  32047-3 0  9995
2 65775  51.9018 160.6513 0001046  96.7115 263.3967 14.79936462 56769
KUIPER-00165            
1 65778U 25217S   26282.92977049  .00002843  00000+0  40170-3 0  9998
2 65778  51.9002 168.2372 0000801 101.7067 258.3985 14.79936746 56706
KUIPER-00166            
1 65779U 25217T   26282.36926441  .00002138  00000+0  30933-3 0  9990
2 65779  51.9025 158.2808 0000898 102.3296 257.7767 14.79936238 56798
KUIPER-00167            
1 65780U 25217U   26282.91896692  .00001052  00000+0  16704-3 0  9991
2 65780  51.8958 178.1562 0001277  81.2898 278.8208 14.79931440 56566
KUIPER-00168            
1 65781U 25217V   26282.66774428  .00000619  00000+0  11018-3 0  9997
2 65781  51.8999 161.9019 0000838 102.4094 257.6962 14.79930373 56774
KUIPER-00169            
1 65782U 25217W   26282.93247717  .00002751  00000+0  38967-3 0  9995
2 65782  51.9007 165.7450 0000901  96.4980 263.6085 14.79934585 56743
KUIPER-00170            
1 65783U 25217X   26282.92705663 -.00002075  00000+0 -24329-3 0  9992
2 65783  51.8984 170.7071 0000742  91.8796 268.2251 14.79936177 56676
KUIPER-00172            
1 65785U 25217Z   26282.37193094 -.00002279  00000+0 -27006-3 0  9993
2 65785  51.8987 155.6944 0001350  93.1489 266.9628 14.79934619 56832
KUIPER-00173            
1 65786U 25217AA  26282.96623462  .00002446  00000+0  34970-3 0  9998
2 65786  51.9004 165.5837 0001140  82.7004 277.4088 14.79937676 56742
KUIPER-00174            
1 65787U 25217AB  26282.90408302  .00001205  00000+0  18697-3 0  9997
2 65787  51.9015 160.9293 0000870 113.3435 246.7619 14.79946558 56803
KUIPER-00176            
1 65788U 25217AC  26282.68533101  .00000719  00000+0  12338-3 0  9994
2 65788  51.8996 176.8078 0001100  91.2321 268.8767 14.79933849 56564
KUIPER-00101            
1 65947U 25228A   26282.89999237  .00001978  00000+0  28840-3 0  9995
2 65947  51.8979 133.2975 0001189  94.2037 265.9061 14.79934464 54959
KUIPER-00113            
1 65948U 25228B   26282.60150141  .00002055  00000+0  29848-3 0  9994
2 65948  51.8980 129.6391 0001103 112.0227 248.0853 14.79932784 54975
KUIPER-00117            
1 65949U 25228C   26282.29492428  .00000951  00000+0  15372-3 0  9997
2 65949  51.8968 133.4948 0001154 102.0021 258.1071 14.79932697 54898
KUIPER-00121            
1 65950U 25228D   26282.60420011  .00000811  00000+0  13539-3 0  9991
2 65950  51.8989 127.1524 0001173 109.0322 251.0767 14.79928261 55016
KUIPER-00122            
1 65951U 25228E   26282.32329085  .00001028  00000+0  16381-3 0  9999
2 65951  51.8995 138.3609 0000768 109.7176 250.3869 14.79929455 54835
KUIPER-00123            
1 65952U 25228F   26282.89729178  .00000434  00000+0  85998-4 0  9990
2 65952  51.8978 135.8287 0001074 111.2349 248.8728 14.79931998 54912
KUIPER-00124            
1 65953U 25228G   26282.29761316  .00000346  00000+0  74451-4 0  9999
2 65953  51.8978 130.9726 0001181 107.7918 252.3174 14.79935555 54938
KUIPER-00125            
1 65954U 25228H   26282.78650793  .00000563  00000+0  10286-3 0  9996
2 65954  51.8997 113.8666 0001319 104.6178 255.4930 14.79937656 55210
KUIPER-00126            
1 65955U 25228J   26282.32599131  .00000601  00000+0  10785-3 0  9992
2 65955  51.8998 135.8833 0001077 101.9942 258.1141 14.79932543 54866
KUIPER-00127            
1 65956U 25228K   26282.58731405  .00002071  00000+0  30058-3 0  9991
2 65956  51.8997 127.2118 0001148 106.3882 253.7206 14.79933662 55012
KUIPER-00128            
1 65957U 25228L   26282.57044347  .00000830  00000+0  13788-3 0  9995
2 65957  51.9012 127.3527 0000890 105.9371 254.1689 14.79931026 55009
KUIPER-00129            
1 65958U 25228M   26282.81219207  .00002008  00000+0  29237-3 0  9997
2 65958  51.8992 121.2602 0001053 105.0367 255.0712 14.79934592 55111
KUIPER-00130            
1 65959U 25228N   26282.57314585  .00000717  00000+0  12302-3 0  9996
2 65959  51.9035 124.8693 0000982 107.7005 252.4065 14.79930579 45334
KUIPER-00134            
1 65960U 25228P   26282.24426490  .00025720  00000+0  68267-3 0  9993
2 65960  51.8711   3.9113 0004899 351.9464   8.1444 15.38115243 56690
KUIPER-00135            
1 65961U 25228Q   26282.26926847  .00000134  00000+0  46565-4 0  9997
2 65961  51.9028 126.2630 0000955 124.4405 235.6647 14.79931577 54996
KUIPER-00136            
1 65962U 25228R   26282.57581258  .00002096  00000+0  30379-3 0  9999
2 65962  51.8999 122.3504 0001261 105.8315 254.2786 14.79947295 55079
KUIPER-00137            
1 65963U 25228S   26282.84865843  .00002124  00000+0  30754-3 0  9994
2 65963  51.9028 118.6599 0001236 106.3739 253.7359 14.79935797 55157
KUIPER-00138            
1 65964U 25228T   26282.81756344  .00001981  00000+0  28869-3 0  9991
2 65964  51.8981 116.1820 0001111 119.0149 241.0925 14.79942715 55183
KUIPER-00140            
1 65965U 25228U   26282.81488210  .00000826  00000+0  13730-3 0  9994
2 65965  51.8978 118.7912 0001197 115.2644 244.8443 14.79936677 55144
KUIPER-00141            
1 65966U 25228V   26282.82028873  .00002088  00000+0  30282-3 0  9994
2 65966  51.9014 113.8518 0000710 116.4468 243.6568 14.79935007 55211
KUIPER-00146            
1 65967U 25228W   26282.85129845  .00000082  00000+0  39754-4 0  9995
2 65967  51.9013 116.2285 0001338 106.8532 253.2577 14.79914392 55188
KUIPER-00149            
1 65968U 25228X   26282.82297874  .00002123  00000+0  30737-3 0  9990
2 65968  51.8990 111.2218 0000973 112.0318 248.0748 14.79931957 55254
KUIPER-00154            
1 65969U 25228Y   26282.79190565  .00001997  00000+0  29086-3 0  9999
2 65969  51.8988 108.8404 0001006 117.9045 242.2019 14.79934108 55281
KUIPER-00157            
1 65970U 25228Z   26282.66165314  .00019132  00000+0  27719-2 0  9991
2 65970  51.9010 112.1515 0001036 130.0200 230.0852 14.76071681 55222
KUIPER-00144            
1 67133U 25301A   26282.90820550  .00003004  00000+0  42280-3 0  9995
2 67133  51.9012 188.3535 0001114  82.1817 277.9271 14.79938723 45598
KUIPER-00164            
1 67134U 25301B   26282.48954405  .00001334  00000+0  20395-3 0  9993
2 67134  51.9027 202.7278 0000931  75.2322 284.8744 14.79928904 45536
KUIPER-00175            
1 67135U 25301C   26282.94735717  .00002817  00000+0  39830-3 0  9999
2 67135  51.8997 183.1307 0001107  83.1684 276.9405 14.79936782 45744
KUIPER-00179            
1 67136U 25301D   26282.15458436 -.00000076  00000+0  19029-4 0  9998
2 67136  51.8985 201.6310 0000923  70.8156 289.2906 14.79931161 45529
KUIPER-00181            
1 67137U 25301E   26282.95146896  .00000282  00000+0  65954-4 0  9997
2 67137  51.9024 210.6803 0001091  66.5141 293.5936 14.79931999 45446
KUIPER-00183            
1 67138U 25301F   26282.13970850  .00000170  00000+0  51365-4 0  9990
2 67138  51.9020 184.2753 0001118  81.1663 278.9426 14.79927981 45756
KUIPER-00184            
1 67139U 25301G   26282.93656944  .00001559  00000+0  23352-3 0  9990
2 67139  51.8964 193.1833 0001128 101.4405 258.6684 14.79934167 45803
KUIPER-00186            
1 67140U 25301H   26282.78263191  .00000824  00000+0  13713-3 0  9997
2 67140  51.9024 211.4356 0000712  77.7155 282.3887 14.79927419 45263
KUIPER-00187            
1 67141U 25301J   26282.50982799  .00002342  00000+0  33610-3 0  9995
2 67141  51.9060 215.1677 0001118  99.3961 260.7128 14.79936596 45182
KUIPER-00188            
1 67142U 25301K   26282.91631139  .00002950  00000+0  41577-3 0  9996
2 67142  51.9023 180.9586 0001176  84.5001 275.6096 14.79936773 45697
KUIPER-00191            
1 67143U 25301L   26282.75427729  .00001156  00000+0  18063-3 0  9998
2 67143  51.8984 206.5590 0001069  65.2449 294.8625 14.79930224 45355
KUIPER-00196            
1 67144U 25301M   26282.39492392  .00000656  00000+0  11507-3 0  9997
2 67144  51.8978 165.5923 0001078  94.6669 265.4417 14.79936465 45865
KUIPER-00204            
1 67145U 25301N   26282.75017008  .00000337  00000+0  73237-4 0  9990
2 67145  51.8999 179.0676 0001057  93.1810 266.9273 14.79926340 45826
KUIPER-00210            
1 67146U 25301P   26282.85537303  .00001747  00000+0  25825-3 0  9992
2 67146  51.8983 206.0566 0000970 124.8186 235.2868 14.79908310 45512
KUIPER-00221            
1 67147U 25301Q   26282.54359173  .00002571  00000+0  36614-3 0  9990
2 67147  51.9016 214.9750 0000694  92.9459 267.1583 14.79935077 45197
KUIPER-00232            
1 67148U 25301R   26282.93119134  .00001729  00000+0  25575-3 0  9993
2 67148  51.8997 198.2635 0000970  85.5249 274.5824 14.79934334 45457
KUIPER-00241            
1 67149U 25301S   26282.21134477  .00003410  00000+0  47604-3 0  9998
2 67149  51.9023 211.4803 0001194  56.6172 303.4904 14.79932164 45547
KUIPER-00245            
1 67150U 25301T   26282.13572223  .00000997  00000+0  15980-3 0  9995
2 67150  51.9026 219.3210 0001057  93.4888 266.6196 14.79934215 45094
KUIPER-00246            
1 67151U 25301U   26282.92848672  .00000903  00000+0  14750-3 0  9998
2 67151  51.9009 200.7481 0001019  88.7802 271.3277 14.79931702 45441
KUIPER-00247            
1 67152U 25301V   26282.93927073 -.00000051  00000+0  22348-4 0  9991
2 67152  51.8958 190.6370 0001122  82.8662 277.2428 14.79928893 45565
KUIPER-00248            
1 67153U 25301W   26282.41792164  .00000520  00000+0  97231-4 0  9999
2 67153  51.8990 175.5930 0000977  91.6680 268.4395 14.79933863 45895
KUIPER-00249            
1 67154U 25301X   26282.94197921 -.00000066  00000+0  20428-4 0  9998
2 67154  51.8990 188.2113 0001214  80.4598 279.6502 14.79928772 45593
KUIPER-00250            
1 67155U 25301Y   26282.14919645  .00000636  00000+0  11247-3 0  9996
2 67155  51.8998 206.6686 0001166  88.4521 271.6575 14.79932622 45302
KUIPER-00251            
1 67156U 25301Z   26282.90551457  .00002815  00000+0  39811-3 0  9992
2 67156  51.9003 190.9028 0000985  81.7050 278.4024 14.79937533 45745
KUIPER-00252            
1 67157U 25301AA  26282.76775416  .00001020  00000+0  16284-3 0  9996
2 67157  51.8996 193.9634 0001212  71.5813 288.5281 14.79929811 45501
KUIPER-00261            
1 67158U 25301AB  26282.52062002  .00002946  00000+0  41531-3 0  9992
2 67158  51.9018 205.1251 0000960  70.2253 289.8813 14.79935583 45320
KUIPER-00265            
1 67159U 25301AC  26282.13302225  .00001429  00000+0  21638-3 0  9995
2 67159  51.9013 221.8150 0000958  86.1192 273.9880 14.79931990 45094
KUIPER-00159            
1 67764U 26030A   26282.74870266  .00000937  00000+0  15188-3 0  9995
2 67764  51.8995 297.8280 0001760  17.1806 342.9216 14.79934155 37557
KUIPER-00160            
1 67765U 26030B   26282.00077662  .00002301  00000+0  33068-3 0  9998
2 67765  51.8976 282.3813 0000328  37.9649 322.1336 14.79940256 37701
KUIPER-00177            
1 67766U 26030C   26282.48506372  .00006770  00000+0  91548-3 0  9997
2 67766  51.9022 347.7254 0000183  47.6172 312.4806 14.79962214 36833
KUIPER-00178            
1 67767U 26030D   26282.45131699  .00002235  00000+0  32197-3 0  9998
2 67767  51.9025 347.8560 0000267  27.8078 332.2899 14.79942077 36833
KUIPER-00180            
1 67768U 26030E   26282.45671143  .00000748  00000+0  12708-3 0  9995
2 67768  51.9005 342.8205 0000252  69.6255 290.4735 14.79928603 36909
KUIPER-00197            
1 67769U 26030F   26282.54580795  .00002298  00000+0  33030-3 0  9991
2 67769  51.8998 322.4453 0000364  36.3147 323.7840 14.79941808 37195
KUIPER-00198            
1 67770U 26030G   26282.43103631 -.00000193  00000+0  36244-5 0  9996
2 67770  51.8989 335.4223 0000229  40.8349 319.2631 14.79929348 37003
KUIPER-00199            
1 67771U 26030H   26282.91668981  .00037117  00000+0  48000-2 0  9999
2 67771  51.9225 272.1756 0002088 147.9243 243.5830 14.80549610  4683
KUIPER-00200            
1 67772U 26030J   26282.51475430  .00001136  00000+0  17799-3 0  9995
2 67772  51.8999 320.1005 0000605  24.6053 335.4939 14.79935428 37226
KUIPER-00203            
1 67773U 26030K   26282.61476307  .00000489  00000+0  93168-4 0  9996
2 67773  51.9074 352.2428 0000211  87.4016 272.6970 14.79936396 36788
KUIPER-00205            
1 67774U 26030L   26282.78754386 -.00002058  00000+0 -24092-3 0  9996
2 67774  51.9014 316.3604 0000481  56.2722 303.8286 14.79944525 37306
KUIPER-00208            
1 67775U 26030M   26282.85918910  .00001972  00000+0  28750-3 0  9997
2 67775  51.9009 343.5351 0000110 164.8003 195.2963 14.79936967 36922
KUIPER-00209            
1 67776U 26030N   26282.89566287  .00001735  00000+0  25657-3 0  9998
2 67776  51.9013 340.9806 0000300  38.5847 321.5136 14.79931210 36964
KUIPER-00213            
1 67777U 26030P   26282.79706820  .00003189  00000+0  44714-3 0  9997
2 67777  51.8980 338.8651 0000451  50.7667 309.3335 14.79927700 36980
KUIPER-00214            
1 67778U 26030Q   26282.42834409  .00001316  00000+0  20158-3 0  9999
2 67778  51.8997 338.0383 0000279  71.4959 288.6033 14.79933812 36968
KUIPER-00215            
1 67779U 26030R   26282.40805439  .00000374  00000+0  78033-4 0  9998
2 67779  51.9000 325.4798 0000280  25.0611 335.0365 14.79931198 37148
KUIPER-00218            
1 67780U 26030S   26282.89834052  .00002475  00000+0  35354-3 0  9998
2 67780  51.9002 338.3501 0000270  54.2481 305.8506 14.79932330 37001
KUIPER-00220            
1 67781U 26030T   26282.79026359  .00001622  00000+0  24174-3 0  9992
2 67781  51.8969 313.8464 0000425  43.3075 316.7921 14.79933337 37335
KUIPER-00222            
1 67782U 26030U   26282.86999444  .00000508  00000+0  95613-4 0  9994
2 67782  51.8970 333.6382 0000492  64.4372 295.6641 14.79931863 37061
KUIPER-00223            
1 67783U 26030V   26282.50665132 -.00000146  00000+0  99073-5 0  9994
2 67783  51.8999 327.5619 0000407  19.9967 340.1011 14.79930335 37126
KUIPER-00225            
1 67784U 26030W   26282.43374948  .00000594  00000+0  10691-3 0  9992
2 67784  51.8996 333.0230 0000313  47.3112 312.7877 14.79930764 37039
KUIPER-00226            
1 67785U 26030X   26282.81862292  .00000158  00000+0  49703-4 0  9992
2 67785  51.8975 318.7066 0000895  51.9351 308.1692 14.79932751 37273
KUIPER-00259            
1 67786U 26030Y   26282.87267730  .00002614  00000+0  37175-3 0  9993
2 67786  51.8996 330.9847 0000326  50.8843 309.2148 14.79935459 37101
KUIPER-00260            
1 67787U 26030Z   26282.40267695  .00000446  00000+0  87545-4 0  9991
2 67787  51.9032 330.6806 0000567  19.8482 340.2503 14.79932390 36972
KUIPER-00262            
1 67788U 26030AA  26282.43643069  .00002018  00000+0  29365-3 0  9990
2 67788  51.9010 330.4466 0000223  69.4690 290.6297 14.79932007 37075
KUIPER-00266            
1 67789U 26030AB  26282.54042588  .00002397  00000+0  34323-3 0  9992
2 67789  51.9006 327.4760 0000305  47.2464 312.8524 14.79935263 37121
KUIPER-00268            
1 67790U 26030AC  26281.42888841  .00000489  00000+0  93184-4 0  9991
2 67790  51.9062 329.9430 0000135  19.3887 340.7081 14.79931993 36994
KUIPER-00270            
1 67791U 26030AD  26282.48638063  .00000779  00000+0  13116-3 0  9996
2 67791  51.9004 315.2055 0000632  21.8985 338.2004 14.79932248 37296
KUIPER-00274            
1 67792U 26030AE  26282.52963939  .00002580  00000+0  36719-3 0  9991
2 67792  51.9024 337.5351 0000311  49.4300 310.6690 14.79938945 36986
KUIPER-00275            
1 67793U 26030AF  26282.82131507  .00002513  00000+0  35841-3 0  9994
2 67793  51.8999 316.2363 0000367  17.3286 342.7689 14.79946822 37306
KUIPER-00276            
1 67794U 26030AG  26282.10687646  .00002169  00000+0  31342-3 0  9995
2 67794  51.8999 324.3692 0000415  45.6812 314.4185 14.79933820 37137
KUIPER-00279            
1 67795U 26030AH  26282.35402262  .00001890  00000+0  27683-3 0  9995
2 67795  51.9043 313.3347 0000344  44.3544 315.7446 14.79932929 37305
KUIPER-00131            
1 68573U 26072A   26282.62026431  .00001207  00000+0  18733-3 0  9994
2 68573  51.8998  49.6288 0000370 106.6249 253.4754 14.79935784 28069
KUIPER-00189            
1 68574U 26072B   26282.65132819  .00002743  00000+0  38865-3 0  9990
2 68574  51.9000  51.9639 0000439  91.7133 268.3880 14.79933398 28034
KUIPER-00192            
1 68575U 26072C   26282.62296052  .00001113  00000+0  17499-3 0  9998
2 68575  51.9008  47.1113 0000461 124.0438 236.0568 14.79936438 28101
KUIPER-00193            
1 68576U 26072D   26282.70128490  .00001987  00000+0  28949-3 0  9999
2 68576  51.9058  36.8226 0000418 132.7847 227.3151 14.79936862 28257
KUIPER-00194            
1 68577U 26072E   26282.38930810 -.00000558  00000+0 -44219-4 0  9995
2 68577  51.9024  45.6716 0000938 132.1131 227.9911 14.79927865 28107
KUIPER-00229            
1 68578U 26072F   26282.65403431  .00000413  00000+0  83136-4 0  9999
2 68578  51.9001  49.4811 0000355 113.5862 246.5138 14.79930082 28077
KUIPER-00230            
1 68579U 26072G   26282.91668981 -.00026807  00000+0 -35029-2 0  9995
2 68579  51.9043 355.8174 0000653 122.9120 255.8517 14.79915429  4315
KUIPER-00231            
1 68580U 26072H   26282.54863571  .00001024  00000+0  16334-3 0  9999
2 68580  51.8998  22.5145 0001164 180.2816 179.8146 14.79935475 28433
KUIPER-00234            
1 68581U 26072J   26282.82824695  .00000791  00000+0  13281-3 0  9993
2 68581  51.9014  43.6924 0000758 153.6031 206.4970 14.79931123 28162
KUIPER-00236            
1 68582U 26072K   26282.74173652  .00002582  00000+0  36743-3 0  9993
2 68582  51.9052 359.0959 0000554 119.7607 240.3410 14.79944822 28787
KUIPER-00244            
1 68583U 26072L   26282.60268559  .00000703  00000+0  12118-3 0  9993
2 68583  51.9013  34.7138 0000428 129.6962 230.4038 14.79931427 28272
KUIPER-00253            
1 68584U 26072M   26282.59998850  .00001260  00000+0  19420-3 0  9998
2 68584  51.9037  37.2593 0000428 138.0683 222.0312 14.79935639 28233
KUIPER-00254            
1 68585U 26072N   26282.63104367  .00002709  00000+0  38409-3 0  9993
2 68585  51.9034  39.6183 0000408 120.4842 239.6161 14.79940763 28209
KUIPER-00263            
1 68586U 26072P   26282.57971167  .00002998  00000+0  42197-3 0  9996
2 68586  51.9027  24.9093 0000267  91.1068 268.9925 14.79939043 28400
KUIPER-00269            
1 68587U 26072Q   26282.57700678  .00000710  00000+0  12209-3 0  9995
2 68587  51.9015  27.3248 0000289 144.7278 215.3704 14.79932264 28374
KUIPER-00272            
1 68588U 26072R   26282.38660603 -.00000007  00000+0  28044-4 0  9993
2 68588  51.8989  48.1300 0000553 128.2806 231.8207 14.79929649 28062
KUIPER-00285            
1 68589U 26072S   26282.67830870  .00000630  00000+0  11169-3 0  9991
2 68589  51.9069  26.9697 0000625 119.8019 240.3006 14.79931686 28389
KUIPER-00286            
1 68590U 26072T   26282.00570131  .00000776  00000+0  13075-3 0  9990
2 68590  51.9028  27.3651 0000354  90.0873 270.0130 14.79935173 28325
KUIPER-00289            
1 68591U 26072U   26282.60537894  .00001570  00000+0  23488-3 0  9998
2 68591  51.8992  32.1845 0000331 128.0502 232.0490 14.79932195 28306
KUIPER-00290            
1 68592U 26072V   26282.70666515  .00002727  00000+0  38642-3 0  9996
2 68592  51.9036  31.7526 0000196 158.4763 201.6208 14.79944843 28327
KUIPER-00293            
1 68593U 26072W   26282.59458284  .00002839  00000+0  40122-3 0  9996
2 68593  51.8988  42.2087 0001452 116.0663 244.0449 14.79940123 28164
KUIPER-00294            
1 68594U 26072X   26282.67560110  .00002079  00000+0  30163-3 0  9998
2 68594  51.9007  29.3765 0000293 114.4207 245.6786 14.79934975 28355
KUIPER-00296            
1 68595U 26072Y   26282.25553279  .00000963  00000+0  15524-3 0  9995
2 68595  51.9036  13.7607 0000382  63.7718 296.3283 14.79935935 28534
KUIPER-00297            
1 68596U 26072Z   26282.35822141 -.00000216  00000+0  72788-6 0  9994
2 68596  51.8996  43.2575 0000688 165.5672 194.5310 14.79937392 28135
KUIPER-00300            
1 68597U 26072AA  26282.59728358  .00003072  00000+0  43172-3 0  9990
2 68597  51.9034  39.7428 0000435 122.0059 238.0946 14.79942897 28207
KUIPER-00301            
1 68598U 26072AB  26282.59390005  .00070119  00000+0  97689-2 0  9992
2 68598  51.9052   9.7491 0000367 234.3866 125.7061 14.77073248 28610
KUIPER-00304            
1 68599U 26072AC  26282.62278470  .00001500  00000+0  24310-3 0  9998
2 68599  51.9012  11.5582 0000775  49.0044 311.0984 14.76642772 28595
KUIPER-00317            
1 68600U 26072AD  26282.30418786 -.00000014  00000+0  27108-4 0  9991
2 68600  51.9008  31.0233 0000226 106.1415 253.9573 14.79933333 28295
KUIPER-00320            
1 68601U 26072AE  26282.83902865  .00000148  00000+0  48393-4 0  9992
2 68601  51.9038  33.6851 0000795  65.7525 294.3520 14.79930823 28300
KUIPER-00299            
1 68864U 26095A   26282.25705775  .00001999  00000+0  29114-3 0  9999
2 68864  51.8977 106.2124 0000868 121.3519 238.7529 14.79936203 24502
KUIPER-00353            
1 68865U 26095B   26282.50959602  .00001912  00000+0  27971-3 0  9992
2 68865  51.8993  90.1242 0000700 126.2330 233.8697 14.79934162 24754
KUIPER-00357            
1 68866U 26095C   26282.46774626  .00001671  00000+0  24823-3 0  9994
2 68866  51.9016  97.8221 0001277 109.5667 250.5434 14.79930227 24641
KUIPER-00364            
1 68867U 26095D   26282.90399973  .00002308  00000+0  33167-3 0  9991
2 68867  51.9028  98.4206 0001099 114.0382 246.0696 14.79935152 24677
KUIPER-00375            
1 68868U 26095E   26282.87831368 -.00000381  00000+0 -21005-4 0  9997
2 68868  51.8998  91.0008 0000876 123.2609 236.8437 14.79931769 24779
KUIPER-00433            
1 68869U 26095F   26282.79459958  .00002133  00000+0  30872-3 0  9996
2 68869  51.8993 106.3647 0001356 112.3401 247.7705 14.79943073 24553
KUIPER-00437            
1 68870U 26095G   26282.67247047  .00001797  00000+0  28517-3 0  9997
2 68870  51.9016  59.0036 0000520  99.1622 260.9398 14.76638694 25202
KUIPER-00448            
1 68871U 26095H   26282.83915929  .00000262  00000+0  63339-4 0  9995
2 68871  51.9022  96.1794 0000873 130.7446 229.3592 14.79932342 24697
KUIPER-00459            
1 68872U 26095J   26282.75134959  .00002295  00000+0  32988-3 0  9996
2 68872  51.9007  84.1272 0000664 120.3770 239.7258 14.79938663 24856
KUIPER-00468            
1 68873U 26095K   26282.79661218  .00001684  00000+0  26909-3 0  9991
2 68873  51.8979  81.9024 0000390 213.5553 146.5383 14.76650197 24892
KUIPER-00476            
1 68874U 26095L   26282.43525885  .00002015  00000+0  29325-3 0  9996
2 68874  51.9014  65.3750 0000719 138.7177 221.3840 14.79931287 25099
KUIPER-00478            
1 68875U 26095M   26282.74864373  .00002274  00000+0  32712-3 0  9990
2 68875  51.8990  86.5686 0000939 123.4449 236.6603 14.79937707 24821
KUIPER-00480            
1 68876U 26095N   26282.71758244  .00002253  00000+0  32448-3 0  9990
2 68876  51.9030  84.2305 0000627 122.7645 237.3377 14.79934551 24858
KUIPER-00482            
1 68877U 26095P   26281.89641863  .00001286  00000+0  19765-3 0  9999
2 68877  51.9012  97.8417 0001397 114.4427 245.6682 14.79927595 24596
KUIPER-00483            
1 68878U 26095Q   26282.49068870  .00005396  00000+0  73591-3 0  9991
2 68878  51.8949 107.6724 0001019  94.5532 265.5547 14.79951853 24508
KUIPER-00488            
1 68879U 26095R   26282.74595219  .00002210  00000+0  31889-3 0  9998
2 68879  51.8993  89.0896 0001074 126.8716 233.2345 14.79932071 24784
KUIPER-00489            
1 68880U 26095S   26281.87614957  .00002132  00000+0  30861-3 0  9996
2 68880  51.8971  85.4097 0001139 132.3256 227.7803 14.79932721 24765
KUIPER-00499            
1 68881U 26095T   26282.71488353  .00002286  00000+0  32869-3 0  9990
2 68881  51.8985  86.7668 0000649 120.1929 239.9098 14.79938258 24814
KUIPER-00500            
1 68882U 26095U   26281.95315848  .00000506  00000+0  95437-4 0  9998
2 68882  51.9025 107.5885 0001079 133.0555 227.0498 14.79935267 24460
KUIPER-00502            
1 68883U 26095V   26282.71317836  .00002307  00000+0  33157-3 0  9994
2 68883  51.9000  80.4801 0000986 124.4172 235.6884 14.79929214 24904
KUIPER-00503            
1 68884U 26095W   26282.79999439  .00000132  00000+0  46280-4 0  9994
2 68884  51.8954 101.3096 0001065 118.3889 241.7181 14.79932841 24624
KUIPER-00504            
1 68885U 26095X   26282.55555838  .00001959  00000+0  28596-3 0  9997
2 68885  51.9001 109.9336 0000769 131.4922 228.6107 14.79928316 24482
KUIPER-00505            
1 68886U 26095Y   26282.53257586  .00002145  00000+0  31017-3 0  9995
2 68886  51.8997 100.0358 0000605 115.2248 244.8778 14.79940530 24613
KUIPER-00507            
1 68887U 26095Z   26282.45894420  .00001046  00000+0  16623-3 0  9996
2 68887  51.9006  90.3443 0000761 122.9732 237.1304 14.79931409 24747
KUIPER-00511            
1 68888U 26095AA  26282.72028695  .00000048  00000+0  35310-4 0  9996
2 68888  51.8983  81.7969 0001040 120.5895 239.5170 14.79932866 24883
KUIPER-00512            
1 68889U 26095AB  26282.76623267  .00002071  00000+0  30057-3 0  9997
2 68889  51.9001 101.5045 0000790 126.4013 233.7023 14.79926542 24618
KUIPER-00519            
1 68890U 26095AC  26282.77701213  .00002181  00000+0  31495-3 0  9997
2 68890  51.9014  91.5223 0000669 117.1361 242.9670 14.79946615 24756
KUIPER-00521            
1 68891U 26095AD  26281.89743339  .00000214  00000+0  57045-4 0  9990
2 68891  51.9014  89.1067 0000741 125.4519 234.6513 14.79932717 24712
KUIPER-00524            
1 68892U 26095AE  26282.87561302  .00002417  00000+0  34590-3 0  9994
2 68892  51.8975  93.4855 0000997 115.5787 244.5279 14.79940575 24733
KUIPER-00370            
1 68919U 26098A   26282.70102444  .00000385  00000+0  79481-4 0  9998
2 68919  51.8953 271.6411 0000943  56.3100 303.7952 14.79934599 24442
KUIPER-00380            
1 68920U 26098B   26282.64160468  .00002473  00000+0  35324-3 0  9990
2 68920  51.8968 264.5384 0000608  41.6653 318.4355 14.79935241 24533
KUIPER-00386            
1 68921U 26098C   26282.85837994  .00002737  00000+0  38794-3 0  9996
2 68921  51.8982 266.0777 0000700  45.5024 314.5995 14.79930742 24539
KUIPER-00388            
1 68922U 26098D   26282.29047871  .00002096  00000+0  30383-3 0  9996
2 68922  51.8997 278.7542 0000703  37.3965 322.7046 14.79941833 24308
KUIPER-00405            
1 68923U 26098E   26282.71522076  .00000692  00000+0  11983-3 0  9994
2 68923  51.8993 274.2279 0001035 343.1649  16.9279 14.79936197 24407
KUIPER-00408            
1 68924U 26098F   26282.36877841 -.00000602  00000+0 -49997-4 0  9999
2 68924  51.9001 268.1728 0000790  29.2166 330.8840 14.79931332 24467
KUIPER-00409            
1 68925U 26098G   26282.68414357 -.00001181  00000+0 -12589-3 0  9993
2 68925  51.9020 271.8698 0000370 100.2349 259.8655 14.79935906 24435
KUIPER-00410            
1 68926U 26098H   26282.68684826  .00000917  00000+0  14924-3 0  9993
2 68926  51.8959 269.3231 0000424 359.4276   0.6685 14.79935174 24474
KUIPER-00412            
1 68927U 26098J   26282.67807408  .00000745  00000+0  12677-3 0  9998
2 68927  51.9035 261.9100 0001029  43.2776 316.8267 14.79933989 24570
KUIPER-00413            
1 68928U 26098K   26282.69834506  .00002483  00000+0  35460-3 0  9996
2 68928  51.8989 274.2830 0000684  13.0659 347.0321 14.79934071 24408
KUIPER-00414            
1 68929U 26098L   26282.04603073  .00002396  00000+0  34309-3 0  9993
2 68929  51.8960 287.2457 0000094  10.3035 349.7930 14.79935871 24167
KUIPER-00415            
1 68930U 26098M   26282.67265859  .00001288  00000+0  19791-3 0  9997
2 68930  51.9009 266.9156 0000701  55.9914 304.1115 14.79934613 24501
KUIPER-00416            
1 68931U 26098N   26282.35281571  .00004733  00000+0  64944-3 0  9990
2 68931  51.9004 259.6827 0000715  63.1293 296.9742 14.79931241 24572
KUIPER-00420            
1 68932U 26098P   26282.34311736 -.00000395  00000+0 -22800-4 0  9995
2 68932  51.8994 260.8343 0000768  53.7467 306.3567 14.79929997 24568
KUIPER-00421            
1 68933U 26098Q   26282.33770641  .00002052  00000+0  29798-3 0  9991
2 68933  51.9006 265.8450 0000764  63.7395 296.3646 14.79940868 24493
KUIPER-00425            
1 68934U 26098R   26282.66727299  .00001875  00000+0  27493-3 0  9991
2 68934  51.8979 271.9274 0000527  54.5877 305.5134 14.79929195 24433
KUIPER-00430            
1 68935U 26098S   26282.39445264  .00000891  00000+0  14589-3 0  9990
2 68935  51.9040 275.5439 0000713  45.1701 314.9319 14.79935306 24368
KUIPER-00431            
1 68936U 26098T   26282.93200906  .00000723  00000+0  12382-3 0  9996
2 68936  51.8987 275.7454 0000885  29.9972 330.1041 14.79931315 24400
KUIPER-00432            
1 68937U 26098U   26282.39984170  .00000235  00000+0  59787-4 0  9998
2 68937  51.8980 270.4958 0000816  53.6741 306.4297 14.79930539 24436
KUIPER-00434            
1 68938U 26098V   26282.36137560  .00001747  00000+0  27945-3 0  9998
2 68938  51.9005 275.2120 0000407 221.0040 139.0890 14.76419737 24369
KUIPER-00436            
1 68939U 26098W   26281.29980215  .00002196  00000+0  31703-3 0  9999
2 68939  51.8995 277.9756 0000468  68.8144 291.2868 14.79928360 24232
KUIPER-00438            
1 68940U 26098X   26282.65308611  .00001705  00000+0  25255-3 0  9996
2 68940  51.8994 269.5202 0000789  49.7831 310.3200 14.79931362 24467
KUIPER-00439            
1 68941U 26098Y   26282.70374533  .00001835  00000+0  26966-3 0  9993
2 68941  51.9019 269.2888 0000680  62.0884 298.0147 14.79933920 24475
KUIPER-00440            
1 68942U 26098Z   26282.32352933  .00002357  00000+0  33796-3 0  9991
2 68942  51.9019 263.4676 0001156  34.6878 325.4160 14.79943244 24520
KUIPER-00442            
1 68943U 26098AA  26282.32082666  .00000734  00000+0  12529-3 0  9993
2 68943  51.8999 265.9950 0000850  25.7689 334.3315 14.79928724 24482
KUIPER-00446            
1 68944U 26098AB  26282.68955210  .00002528  00000+0  36049-3 0  9993
2 68944  51.8980 266.8444 0001238   4.2076 355.8897 14.79936266 24500
KUIPER-00451            
1 68945U 26098AC  26282.40865351  .00000768  00000+0  12974-3 0  9995
2 68945  51.8999 278.0670 0000587  32.1433 327.9566 14.79932940 24328
KUIPER-00452            
1 68946U 26098AD  26282.69224640  .00002090  00000+0  30302-3 0  9992
2 68946  51.9022 264.3340 0000480  70.1440 289.9575 14.79934884 24541
KUIPER-00453            
1 68947U 26098AE  26282.37417309  .00000099  00000+0  42031-4 0  9994
2 68947  51.8987 263.1537 0000322 229.0388 131.0547 14.79932531 24539
KUIPER-00454            
1 68948U 26098AF  26282.69294847  .00002487  00000+0  35514-3 0  9990
2 68948  51.8978 279.3011 0000958  54.4491 305.6561 14.79935623 24334
KUIPER-00455            
1 68949U 26098AG  26282.37487742  .00000577  00000+0  10465-3 0  9990
2 68949  51.9004 278.2229 0000244 238.4189 121.6749 14.79930749 24328
KUIPER-00458            
1 68950U 26098AH  26282.35729395  .00002158  00000+0  31194-3 0  9992
2 68950  51.9007 263.3251 0000854  64.8351 295.2700 14.79939116 24526
KUIPER-00282            
1 69267U 26118A   26282.63548059  .00002743  00000+0  38870-3 0  9992
2 69267  51.8943 254.5424 0000894  34.5277 325.5744 14.79929321 21108
KUIPER-00383            
1 69268U 26118B   26282.31742743  .00002412  00000+0  34519-3 0  9993
2 69268  51.8971 253.4714 0000865  49.0482 311.0555 14.79941496 21092
KUIPER-00527            
1 69269U 26118C   26282.62133295  .00001805  00000+0  26562-3 0  9998
2 69269  51.8964 252.2573 0000831  48.9780 311.1254 14.79938305 21134
KUIPER-00562            
1 69270U 26118D   26282.19046941 -.00000151  00000+0  92257-5 0  9993
2 69270  51.9025 246.4883 0000959  65.2241 294.8821 14.79932328 21180
KUIPER-00570            
1 69271U 26118E   26282.21076360  .00000330  00000+0  72341-4 0  9994
2 69271  51.8989 259.0521 0000796  50.0271 310.0761 14.79929815 20991
KUIPER-00572            
1 69272U 26118F   26282.60442023 -.00001357  00000+0 -14906-3 0  9995
2 69272  51.8994 252.2029 0000554  30.3258 329.7737 14.79936357 21130
KUIPER-00581            
1 69273U 26118G   26282.66657909  .00000533  00000+0  98974-4 0  9994
2 69273  51.9024 256.9399 0000796 356.3393   3.7563 14.79932757 21165
KUIPER-00584            
1 69274U 26118H   26282.64700433  .00001757  00000+0  25937-3 0  9991
2 69274  51.9000 259.6339 0000781  47.5441 312.5587 14.79931596 21034
KUIPER-00587            
1 69275U 26118J   26282.33701039  .00002316  00000+0  33263-3 0  9994
2 69275  51.8996 250.8955 0000836  51.5639 308.5398 14.79941637 21133
KUIPER-00590            
1 69276U 26118K   26282.33162613 -.00000676  00000+0 -59737-4 0  9998
2 69276  51.9010 255.9334 0000868  37.6919 322.4104 14.79929367 21068
KUIPER-00592            
1 69277U 26118L   26282.65238002  .00002764  00000+0  39144-3 0  9997
2 69277  51.9018 254.3959 0000807  52.9000 307.2036 14.79931804 21117
KUIPER-00593            
1 69278U 26118M   26282.60373594  .00000716  00000+0  12295-3 0  9992
2 69278  51.9000 237.2203 0000327 319.5798  40.5140 14.79934447 21405
KUIPER-00594            
1 69279U 26118N   26282.59834592 -.00001400  00000+0 -15466-3 0  9997
2 69279  51.9016 242.2601 0000876  83.7183 276.3879 14.79941830 21275
KUIPER-00595            
1 69280U 26118P   26282.90761500  .00001644  00000+0  24466-3 0  9990
2 69280  51.8997 235.8291 0000450 345.3345  14.7604 14.79930195 21421
KUIPER-00596            
1 69281U 26118Q   26282.42752068  .00002206  00000+0  31826-3 0  9990
2 69281  51.9010 260.5010 0000739  34.0640 326.0370 14.79938995 21002
KUIPER-00597            
1 69282U 26118R   26282.90492213  .00001308  00000+0  20052-3 0  9998
2 69282  51.8975 238.3777 0001607  96.5116 263.6030 14.79933839 21350
KUIPER-00599            
1 69283U 26118S   26282.32010096  .00000427  00000+0  85092-4 0  9997
2 69283  51.8995 250.8853 0000817  38.5648 321.5372 14.79927761 21131
KUIPER-00600            
1 69284U 26118T   26282.60103114  .00000524  00000+0  97751-4 0  9996
2 69284  51.8980 239.6397 0001664  77.6254 282.4895 14.79934005 21316
KUIPER-00601            
1 69285U 26118U   26282.61862621  .00002833  00000+0  40038-3 0  9993
2 69285  51.9015 254.6532 0000847  61.1830 298.9218 14.79937841 21104
KUIPER-00602            
1 69286U 26118V   26282.42410652  .00002461  00000+0  35159-3 0  9991
2 69286  51.9003 247.9274 0000979   9.8237 350.2744 14.79941141 21188
KUIPER-00603            
1 69287U 26118W   26282.30325240  .00002273  00000+0  32702-3 0  9999
2 69287  51.9021 251.0563 0000869  63.3743 296.7308 14.79939144 21125
KUIPER-00605            
1 69288U 26118X   26281.95751019  .00002585  00000+0  36794-3 0  9998
2 69288  51.8977 260.0544 0000755  49.8752 310.2277 14.79938359 20973
KUIPER-00606            
1 69289U 26118Y   26282.89414685  .00001612  00000+0  24035-3 0  9993
2 69289  51.9008 248.4355 0000826  48.8977 311.2057 14.79933856 21219
KUIPER-00607            
1 69290U 26118Z   26282.28028026  .00002349  00000+0  33709-3 0  9994
2 69290  51.8999 241.1551 0002045  56.2799 303.8359 14.79935908 21264
KUIPER-00608            
1 69291U 26118AA  26282.90221278  .00003018  00000+0  42460-3 0  9996
2 69291  51.9006 240.7642 0000878  74.2848 285.8211 14.79938471 21329
KUIPER-00610            
1 69292U 26118AB  26282.59295314  .00000170  00000+0  51281-4 0  9992
2 69292  51.9021 247.2676 0000779  53.6492 306.4543 14.79933339 21205
KUIPER-00613            
1 69293U 26118AC  26282.64969840  .00001922  00000+0  28106-3 0  9996
2 69293  51.8993 257.0138 0000783  48.8605 311.2425 14.79933093 21077
KUIPER-00618            
1 69294U 26118AD  26282.29175272  .00002333  00000+0  33495-3 0  9990
2 69294  51.9021 246.1080 0000956 316.5751  43.5136 14.79939746 21193
KUIPER-00620            
1 69295U 26118AE  26282.64360351  .00000827  00000+0  13750-3 0  9992
2 69295  51.9014 247.0601 0001128  40.3133 319.7913 14.79933873 21212
KUIPER-00423            
1 69592U 26140A   26282.85895584  .00000538  00000+0  99641-4 0  9994
2 69592  51.9014 218.5866 0001043  75.4828 284.6250 14.79925559 18676
KUIPER-00428            
1 69593U 26140B   26282.91668981 -.00016358  00000+0 -58757-3 0  9992
2 69593  51.8829 204.4320 0005086 356.8553 118.5764 15.27504467  3383
KUIPER-00481            
1 69594U 26140C   26282.56656605 -.00001287  00000+0 -13973-3 0  9990
2 69594  51.9010 224.8858 0000882  28.9896 331.1115 14.79946116 18561
KUIPER-00490            
1 69595U 26140D   26282.27417445  .00000414  00000+0  83355-4 0  9997
2 69595  51.9028 231.1355 0001044  64.2651 295.8419 14.79931355 18457
KUIPER-00493            
1 69596U 26140E   26282.57266543  .00001321  00000+0  20234-3 0  9996
2 69596  51.9014 234.8660 0001706  25.3663 334.7383 14.79934657 18426
KUIPER-00496            
1 69597U 26140F   26282.19345753  .00002653  00000+0  37680-3 0  9998
2 69597  51.9019 220.2902 0001028  84.4516 275.6564 14.79944359 18592
KUIPER-00513            
1 69598U 26140G   26282.24041602  .00001014  00000+0  16204-3 0  9990
2 69598  51.8982 231.3224 0000858  68.4224 291.6830 14.79935129 18442
KUIPER-00516            
1 69599U 26140H   26282.52071035  .00001565  00000+0  25289-3 0  9999
2 69599  51.8965 214.6811 0001519 198.5433 161.5473 14.76548628 18700
KUIPER-00517            
1 69600U 26140J   26282.91668981 -.00761696  00000+0 -85551-1 0  9993
2 69600  51.9543 208.5210 0010178 240.6814  91.0058 14.89018464  5913
KUIPER-00520            
1 69601U 26140K   26282.26369785  .00001533  00000+0  24786-3 0  9992
2 69601  51.9003 233.6378 0000967 344.1245  15.9686 14.76628477 18410
KUIPER-00522            
1 69602U 26140L   26282.23431768 -.00000187  00000+0  44988-5 0  9994
2 69602  51.9037 221.3578 0001360  91.9324 268.1794 14.79929752 18580
KUIPER-00528            
1 69603U 26140M   26282.55848122  .00001773  00000+0  26155-3 0  9991
2 69603  51.9023 232.4394 0000851  64.4211 295.6840 14.79930119 18451
KUIPER-00532            
1 69604U 26140N   26282.25389965  .00000545  00000+0  10043-3 0  9999
2 69604  51.9025 218.7780 0000762  72.0821 288.0225 14.79932540 18625
KUIPER-00533            
1 69605U 26140P   26282.54699311  .00002157  00000+0  31187-3 0  9994
2 69605  51.9001 227.4797 0000894  58.2831 301.8219 14.79936187 18525
KUIPER-00534            
1 69606U 26140Q   26282.53436065  .00016579  00000+0  59805-3 0  9999
2 69606  51.8826 208.1101 0011907 201.7104 158.3376 15.28581556 18799
KUIPER-00537            
1 69607U 26140R   26282.26877451 -.00000885  00000+0 -87029-4 0  9993
2 69607  51.9006 236.1220 0001725  36.5233 323.5847 14.79930940 18382
KUIPER-00538            
1 69608U 26140S   26282.57535868  .00000445  00000+0  87439-4 0  9996
2 69608  51.9017 232.2934 0001124  55.6055 304.5014 14.79933676 18464
KUIPER-00540            
1 69609U 26140T   26282.52026974  .00039069  00000+0  10100-2 0  9998
2 69609  51.8846 205.8316 0004521 348.1684  11.9196 15.38714815 18824
KUIPER-00541            
1 69610U 26140U   26282.91668981 -.00024649  00000+0 -34781-2 0  9994
2 69610  51.8989 210.7384 0002785  84.8560  54.3879 14.76627131  5023
KUIPER-00542            
1 69611U 26140V   26282.91668981 -.00050369  00000+0 -57197-2 0  9999
2 69611  51.8988 208.4720 0010672 210.4300 338.1169 14.85976518  4833
KUIPER-00543            
1 69612U 26140W   26282.55778081  .00002344  00000+0  33631-3 0  9999
2 69612  51.9048 217.4303 0000516  88.3994 271.7027 14.79935886 18663
KUIPER-00544            
1 69613U 26140X   26282.91668981 -.00053656  00000+0 -70292-2 0  9994
2 69613  51.9004 210.8484 0002447  66.8390 197.6899 14.80145506  5112
KUIPER-00546            
1 69614U 26140Y   26282.28490311 -.00008842  00000+0 -11320-2 0  9999
2 69614  51.9015 221.1363 0001291   3.2294 356.8677 14.79945455 18598
KUIPER-00547            
1 69615U 26140Z   26282.91668981 -.01200171  00000+0 -11434+0 0  9993
2 69615  51.9162 206.3802 0010706 218.6384 309.4656 14.95863670  5502
KUIPER-00549            
1 69616U 26140AA  26282.52671691  .00001703  00000+0  25231-3 0  9994
2 69616  51.9036 215.0695 0000932  98.3173 261.7896 14.79935054 18697
KUIPER-00550            
1 69617U 26140AB  26282.22721912  .00000978  00000+0  15735-3 0  9995
2 69617  51.8995 220.0893 0001091  67.6923 292.4155 14.79931577 18602
KUIPER-00551            
1 69618U 26140AC  26282.91668981 -.01312271  00000+0 -82047-1 0  9991
2 69618  51.8857 204.3678 0013877 213.7987 243.0153 15.12254674  4154
KUIPER-00554            
1 69619U 26140AD  26282.91668981 -.01291486  00000+0 -88320-1 0  9996
2 69619  51.8928 205.0451 0010085 233.7716 253.6241 15.08532909  5422
KUIPER-00555            
1 69620U 26140AE  26282.91668981 -.01262552  00000+0 -77150-1 0  9999
2 69620  51.8855 204.6131 0010470 221.7327 219.6110 15.12995346  1309
KUIPER-00556            
1 69621U 26140AF  26282.92380361  .00002846  00000+0  40218-3 0  9996
2 69621  51.8973 220.7993 0000631 112.9120 247.1909 14.79936367 18654
KUIPER-00557            
1 69622U 26140AG  26282.91668981 -.00699004  00000+0 -63772-1 0  9991
2 69622  51.9163 206.4214 0009309 240.6514  43.0186 14.97403649  5121
KUIPER-00560            
1 69623U 26140AH  26282.20760900  .00022867  00000+0  62768-3 0  9999
2 69623  51.8791 207.4528 0007636 261.2753  98.7369 15.37128965 18777
KUIPER-00561            
1 69624U 26140AJ  26282.58075515  .00002406  00000+0  34449-3 0  9994
2 69624  51.9004 227.2981 0000831  75.4281 284.6773 14.79933094 18531
KUIPER-00564            
1 69625U 26140AK  26282.54969006  .00000871  00000+0  14329-3 0  9997
2 69625  51.8956 224.9345 0000698  92.1620 267.9422 14.79933997 18569
KUIPER-00567            
1 69626U 26140AL  26282.55238114  .00000530  00000+0  98473-4 0  9993
2 69626  51.8980 222.4427 0000421 157.9829 202.1151 14.79932521 18591
KUIPER-00573            
1 69627U 26140AM  26282.24581342  .00000823  00000+0  13695-3 0  9991
2 69627  51.8976 226.3136 0000977  58.1985 301.9072 14.79932513 18511
KUIPER-00258            
1 69763U 26151A   26282.74798476  .00002007  00000+0  29241-3 0  9997
2 69763  51.8973 134.0699 0000795  80.2491 279.8561 14.79909719 15160
KUIPER-00526            
1 69764U 26151B   26282.37735347  .00001607  00000+0  23983-3 0  9997
2 69764  51.8987 150.7860 0001131 118.6668 241.4408 14.79932298 14890
KUIPER-00558            
1 69765U 26151C   26282.88381224  .00001052  00000+0  16692-3 0  9998
2 69765  51.8967 148.4674 0000535  56.5263 303.5750 14.79933050 14970
KUIPER-00569            
1 69766U 26151D   26282.90340078  .00002101  00000+0  30452-3 0  9990
2 69766  51.9016 145.8806 0000968 103.5098 256.5972 14.79933887 15011
KUIPER-00589            
1 69767U 26151E   26282.92499769  .00001539  00000+0  24918-3 0  9999
2 69767  51.9002 149.3143 0003339 113.4748 246.6564 14.76557612 14962
KUIPER-00598            
1 69768U 26151F   26282.04779073  .00002105  00000+0  30511-3 0  9998
2 69768  51.8994 144.6779 0000767 104.1502 255.9546 14.79932911 14956
KUIPER-00604            
1 69769U 26151G   26281.82562201  .00000192  00000+0  54221-4 0  9996
2 69769  51.9031 148.1625 0000917 101.9905 258.1161 14.79934289 14888
KUIPER-00609            
1 69770U 26151H   26282.33479473  .00000843  00000+0  13956-3 0  9995
2 69770  51.9005 143.4065 0001527  77.6845 282.4288 14.79933991 14998
KUIPER-00611            
1 69771U 26151J   26281.99444939  .00001067  00000+0  16899-3 0  9994
2 69771  51.8983 147.3904 0001311 104.0360 256.0748 14.79932911 14917
KUIPER-00612            
1 69772U 26151K   26282.92028837  .00000822  00000+0  13685-3 0  9992
2 69772  51.9008 145.8248 0001063 128.3881 231.7177 14.79932568 15018
KUIPER-00614            
1 69773U 26151L   26282.92298758  .00000480  00000+0  91931-4 0  9995
2 69773  51.9003 143.3565 0001014  97.4242 262.6836 14.79927393 15040
KUIPER-00615            
1 69774U 26151M   26282.93443108  .00001739  00000+0  25706-3 0  9992
2 69774  51.9011 148.1912 0000788 136.2029 223.8996 14.79927603 14983
KUIPER-00616            
1 69775U 26151N   26282.84935207  .00000348  00000+0  74682-4 0  9992
2 69775  51.9002 133.6382 0001114 102.9721 257.1366 14.79925627 15174
KUIPER-00617            
1 69776U 26151P   26282.91149638  .00000450  00000+0  88098-4 0  9996
2 69776  51.9012 138.3605 0000723 120.7768 239.3265 14.79930826 15111
KUIPER-00619            
1 69777U 26151Q   26282.01400341  .00002135  00000+0  30898-3 0  9995
2 69777  51.9013 144.8820 0000779  94.9785 265.1267 14.79924931 14945
KUIPER-00621            
1 69778U 26151R   26282.88922009  .00002219  00000+0  32005-3 0  9996
2 69778  51.9001 143.4544 0000788 103.9769 256.1281 14.79931904 15040
KUIPER-00622            
1 69779U 26151S   26282.37274736  .00001399  00000+0  22941-3 0  9994
2 69779  51.8994 150.1544 0001818 109.2583 250.8575 14.76524839 14907
KUIPER-00623            
1 69780U 26151T   26282.88651987  .00002235  00000+0  32208-3 0  9996
2 69780  51.8975 145.9734 0001112 118.2499 241.8576 14.79938622 15009
KUIPER-00626            
1 69781U 26151U   26282.90879429  .00000232  00000+0  59430-4 0  9995
2 69781  51.8978 140.8433 0000822 109.7520 250.3532 14.79930982 15086
KUIPER-00627            
1 69782U 26151V   26282.61030883  .00001918  00000+0  28051-3 0  9993
2 69782  51.9004 137.1938 0000917 122.0087 238.0965 14.79935780 15105
KUIPER-00629            
1 69783U 26151W   26282.35775926  .00001782  00000+0  26272-3 0  9991
2 69783  51.9009 153.2480 0000976  99.7268 260.3804 14.79933572 14867
KUIPER-00631            
1 69784U 26151X   26282.37465071  .00001435  00000+0  21722-3 0  9991
2 69784  51.9011 153.2302 0000855 112.5260 247.5793 14.79933392 14860
KUIPER-00634            
1 69785U 26151Y   26282.93714389  .00002370  00000+0  33967-3 0  9996
2 69785  51.8989 145.7469 0000920 106.7800 253.3264 14.79950594 15011
KUIPER-00639            
1 69786U 26151Z   26282.64403183  .00000303  00000+0  68670-4 0  9996
2 69786  51.9011 137.0276 0000500 104.6407 255.4611 14.79955183 15112
KUIPER-00641            
1 69787U 26151AA  26282.01672199  .00002118  00000+0  30683-3 0  9991
2 69787  51.8997 142.3229 0001650 158.2729 201.8303 14.79932357 14986
KUIPER-00644            
1 69788U 26151AB  26282.91958394  .00002287  00000+0  32870-3 0  9992
2 69788  51.8977 130.8274 0001336  99.7982 260.3131 14.79969594 15217
KUIPER-00646            
1 69789U 26151AC  26282.32062231  .00001242  00000+0  19188-3 0  9991
2 69789  51.8980 141.0588 0000855 109.2858 250.8197 14.79931411 15020
KUIPER-00647            
1 69790U 26151AD  26282.91668981 -.00001379  00000+0 -15171-3 0  9993
2 69790  51.8982 138.2835 0000655  18.6831 189.3876 14.79974791  5554
KUIPER-00662            
1 69791U 26151AE  26282.07076783  .00000846  00000+0  13993-3 0  9990
2 69791  51.9024 154.5717 0000976 107.3430 252.7639 14.79930582 14811
