EUTELSAT 174A           
1 28924U 05052A   26257.60082881  .00000002  00000+0  00000+0 0  9992
2 28924   4.4394  75.3717 0005939  96.8256 211.6601  1.00273366 53220
EUTELSAT 33F            
1 29270U 06032A   26257.58168771  .00000148  00000+0  00000+0 0  9997
2 29270   1.8864  81.1196 0003323  91.6164  63.3517  1.00275563 48201
EUTELSAT HOTBIRD 13C    
1 33459U 08065A   26257.42259115 -.00000290  00000+0  00000+0 0  9994
2 33459   3.1738  78.0622 0003572 101.4036 275.7750  1.00270487 48245
EUTELSAT 36B            
1 36101U 09065A   26257.58515439  .00000105  00000+0  00000+0 0  9997
2 36101   0.7107  81.1595 0005725  89.1975  84.3537  1.00270860 61602
EUTELSAT KA-SAT 9A      
1 37258U 10069A   26257.29180439  .00000053  00000+0  00000+0 0  9995
2 37258   0.0739 352.4829 0005405 178.1302 296.7216  1.00271766 44905
EUTELSAT 7 WEST A       
1 37816U 11051A   26257.35983174 -.00000069  00000+0  00000+0 0  9999
2 37816   0.0632 352.7969 0005997 180.8597 301.9039  1.00272177 54772
EUTELSAT 16A            
1 37836U 11057A   26257.57830770  .00000096  00000+0  00000+0 0  9993
2 37836   0.0928  62.8366 0005523 108.9173  45.9908  1.00270751  8234
EUTELSAT 21B            
1 38992U 12062B   26257.57943436  .00000122  00000+0  00000+0 0  9998
2 38992   0.0691 350.6471 0002970 176.3915  56.7144  1.00270621 50725
EUTELSAT 70B            
1 39020U 12069A   26257.58914108 -.00000052  00000+0  00000+0 0  9996
2 39020   0.0663 343.5471 0003839 192.4767 100.1402  1.00272528 50401
EUTELSAT 117 WEST A     
1 39122U 13012A   26257.55200412 -.00000021  00000+0  00000+0 0  9997
2 39122   0.0430 319.0387 0002836 215.6667 260.7589  1.00273183 49329
EUTELSAT 7B             
1 39163U 13022A   26257.57830770  .00000096  00000+0  00000+0 0  9992
2 39163   0.0674 344.4985 0004931 119.1991 114.0513  1.00271678 48847
EXPRESS-AT1             
1 39612U 14010A   26257.59000774 -.00000105  00000+0  00000+0 0  9996
2 39612   0.4825  84.5694 0004862  80.1776 116.3236  1.00315214 45713
EXPRESS-AT2             
1 39613U 14010B   26257.58619440  .00000071  00000+0  00000+0 0  9993
2 39613   0.0272 256.6516 0000406 181.6965 182.2630  1.00271067 45399
EUTELSAT 3B             
1 39773U 14030A   26257.29059104  .00000012  00000+0  00000+0 0  9990
2 39773   0.0664   3.7909 0004106 166.3367 290.8558  1.00273302 44966
EUTELSAT 115 WEST B     
1 40425U 15010B   26257.55243745 -.00000033  00000+0  00000+0 0  9994
2 40425   0.0235 317.1927 0000151 115.4814   4.8480  1.00271112 42272
EUTELSAT 8 WEST B       
1 40875U 15039B   26257.35974507 -.00000074  00000+0  00000+0 0  9994
2 40875   0.0668 350.9657 0003654 181.4722 302.4461  1.00270907 40554
EUTELSAT 9B             
1 41310U 16005A   26257.29180439  .00000053  00000+0  00000+0 0  9995
2 41310   0.0566  70.8209 0002426 137.6741 258.8299  1.00273757 39015
EUTELSAT 65 WEST A      
1 41382U 16014A   26257.56218763 -.00000284  00000+0  00000+0 0  9993
2 41382   0.0718 315.3719 0002197 210.9614 324.4096  1.00272567 38422
EUTELSAT 117 WEST B     
1 41589U 16038B   26257.52058617 -.00000020  00000+0  00000+0 0  9992
2 41589   0.0220 319.1931 0000178 271.6774 193.0450  1.00271976 37555
EUTELSAT 172B           
1 42741U 17029B   26257.65299567 -.00000013  00000+0  00000+0 0  9991
2 42741   0.0222 145.2050 0000333 291.0541 324.4553  1.00272941 34643
EUTELSAT 7C             
1 44334U 19034B   26257.57648769  .00000040  00000+0  00000+0 0  9991
2 44334   0.0694 178.6886 0003189 337.2733  52.1146  1.00271775  7738
EUTELSAT 5 WEST B       
1 44624U 19067A   26257.57406101 -.00000050  00000+0  00000+0 0  9993
2 44624   0.0771 324.6417 0003134 206.0693  24.5004  1.00271937 25328
EUTELSAT KONNECT        
1 45027U 20005B   26257.57648769  .00000042  00000+0  00000+0 0  9993
2 45027   0.0644 100.3376 0001593  92.9736  14.9736  1.00276181 25236
EUTELSAT QUANTUM        
1 49056U 21069B   26257.58454772  .00000118  00000+0  00000+0 0  9994
2 49056   0.0249  70.5462 0002274 101.1595  79.9992  1.00273271 18829
EUTELSAT KONNECT VHTS   
1 53765U 22110A   26257.57570769  .00000009  00000+0  00000+0 0  9997
2 53765   0.0552 104.5640 0002896  38.3509  60.6105  1.00270842  7732
EUTELSAT HOTBIRD 13F    
1 54048U 22134A   26257.57770103  .00000079  00000+0  00000+0 0  9999
2 54048   0.0633 290.5569 0002002  76.3962 207.5719  1.00272141 14271
EUTELSAT HOTBIRD 13G    
1 54225U 22146A   26257.57770103  .00000079  00000+0  00000+0 0  9999
2 54225   0.0508 235.0558 0002069 301.3331  38.1367  1.00273434  8361
EUTELSAT 10B            
1 54259U 22157A   26257.57709435  .00000060  00000+0  00000+0 0  9998
2 54259   0.0563 102.1679 0001655 359.0613 110.0718  1.00269423 13921
EUTELSAT 36D            
1 59346U 24059A   26257.58220771  .00000148  00000+0  00000+0 0  9992
2 59346   0.0014 172.7074 0000192 245.1581 181.1614  1.00270725  9049
