KUIPER-00008            
1 63724U 25088A   26265.38291299  .00000347  00000+0  74465-4 0  9992
2 63724  51.9003 298.2282 0000570  61.4081 298.6939 14.79930973 77177
KUIPER-00009            
1 63725U 25088B   26266.37952960  .00004406  00000+0  30053-3 0  9996
2 63725  51.9022 300.5847 0000390  51.0855 309.0155 15.08093199 77223
KUIPER-00010            
1 63726U 25088C   26266.36750410  .00000702  00000+0  12106-3 0  9996
2 63726  51.9048 288.9909 0000367  38.4249 321.6739 14.79933614 77006
KUIPER-00011            
1 63727U 25088D   26266.79836068 -.00000429  00000+0 -27261-4 0  9995
2 63727  51.9006 294.6257 0000507  62.1505 297.9509 14.79926964 77095
KUIPER-00012            
1 63728U 25088E   26266.78074768  .00000532  00000+0  98798-4 0  9992
2 63728  51.9024 279.6438 0000803  73.5855 286.5195 14.79926506 77258
KUIPER-00013            
1 63729U 25088F   26266.44182536  .00000618  00000+0  10998-3 0  9999
2 63729  51.9041 313.6633 0000328  57.8996 302.1998 14.79936969 76852
KUIPER-00014            
1 63730U 25088G   26266.13790184 -.00000857  00000+0 -83387-4 0  9991
2 63730  51.9050 314.9535 0000580  55.2921 304.8096 14.79925600 76622
KUIPER-00015            
1 63731U 25088H   26265.48561963  .00003221  00000+0  45153-3 0  9994
2 63731  51.9012 327.8799 0000277 123.1745 236.9244 14.79910615 76842
KUIPER-00016            
1 63732U 25088J   26266.13523692  .00001259  00000+0  19413-3 0  9994
2 63732  51.9002 317.4665 0000468  90.2767 269.8249 14.79938491 76582
KUIPER-00018            
1 63733U 25088K   26266.38238009 -.00001771  00000+0 -20340-3 0  9999
2 63733  51.9067 306.4228 0000269  20.9131 339.1843 14.79935696 76766
KUIPER-00019            
1 63734U 25088L   26266.40905781 -.00000082  00000+0  18252-4 0  9994
2 63734  51.9021 305.0510 0000441  11.4091 348.6882 14.79929307 76780
KUIPER-00020            
1 63735U 25088M   26266.85239572 -.00000627  00000+0 -53209-4 0  9999
2 63735  51.9028 306.8399 0000467  33.4456 326.6536 14.79928071 77004
KUIPER-00021            
1 63736U 25088N   26266.41345176 -.00000372  00000+0 -19781-4 0  9994
2 63736  51.9027 308.7290 0000283  54.2216 305.8773 14.79928760 76776
KUIPER-00023            
1 63737U 25088P   26265.43155555  .00000733  00000+0  12511-3 0  9998
2 63737  51.9020 315.5602 0000398  61.7289 298.3714 14.79939024 76892
KUIPER-00024            
1 63738U 25088Q   26266.79566430  .00000588  00000+0  10610-3 0  9993
2 63738  51.9038 297.1437 0000410  52.5536 307.5464 14.79934851 77395
KUIPER-00025            
1 63739U 25088R   26266.41615686  .00001211  00000+0  18784-3 0  9995
2 63739  51.9051 306.3030 0000346  76.1160 283.9841 14.79935316 77096
KUIPER-00027            
1 63740U 25088S   26266.11765314  .00000727  00000+0  12431-3 0  9992
2 63740  51.9034 302.5804 0000400  59.5252 300.5749 14.79938389 76853
KUIPER-00028            
1 63741U 25088T   26266.08658501  .00000402  00000+0  81779-4 0  9990
2 63741  51.9021 300.1582 0000279  36.1184 323.9797 14.79932930 77293
KUIPER-00029            
1 63742U 25088U   26266.80541872 -.00000289  00000+0 -88672-5 0  9998
2 63742  51.9062 295.6795 0000697  63.9642 296.1392 14.79927620 76947
KUIPER-00030            
1 63743U 25088V   26266.43912628 -.00001829  00000+0 -21100-3 0  9991
2 63743  51.9021 316.1212 0000594  15.8042 344.2938 14.79934302 76915
KUIPER-00031            
1 63744U 25088W   26266.35401641 -.00000332  00000+0 -14529-4 0  9997
2 63744  51.9029 301.5176 0000364  42.5688 317.5302 14.79928404 76823
KUIPER-00032            
1 63745U 25088X   26266.83589585  .00010578  00000+0  24756-3 0  9998
2 63745  51.8662 141.9482 0005202 105.1038 255.0527 15.42688853 80083
KUIPER-00033            
1 63746U 25088Y   26266.86189155  .00002140  00000+0  30953-3 0  9993
2 63746  51.9034 329.2700 0000241  36.2499 323.8480 14.79937210 76962
KUIPER-00034            
1 63747U 25088Z   26265.34912827  .00000397  00000+0  81075-4 0  9990
2 63747  51.9037 298.4963 0000577  86.0221 274.0807 14.79916667 76943
KUIPER-00035            
1 63748U 25088AA  26266.40266883  .00000965  00000+0  15556-3 0  9994
2 63748  51.9018 318.8009 0000439  86.7688 273.3325 14.79921740 76802
KUIPER-00037            
1 63749U 25088AB  26266.86829375  .00000648  00000+0  11399-3 0  9995
2 63749  51.9021 315.6034 0000308  75.5647 284.5350 14.79922517 77677
KUIPER-00038            
1 63750U 25088AC  26266.79026639  .00000267  00000+0  64076-4 0  9999
2 63750  51.9033 302.1236 0000464  77.3542 282.7472 14.79931199 76854
KUIPER-00039            
1 64500U 25134A   26266.69529622  .00000602  00000+0  10791-3 0  9991
2 64500  51.9006  77.5378 0000844 120.4829 239.6217 14.79933956 69390
KUIPER-00040            
1 64501U 25134B   26266.78581523  .00000478  00000+0  91658-4 0  9993
2 64501  51.8998  87.1936 0001140 120.0680 240.0396 14.79931140 69261
KUIPER-00041            
1 64502U 25134C   26266.81686441  .00002202  00000+0  31771-3 0  9999
2 64502  51.8996  89.4493 0000731 113.4894 246.6145 14.79932231 69234
KUIPER-00042            
1 64503U 25134D   26266.78849137  .00000011  00000+0  30495-4 0  9998
2 64503  51.9003  84.5531 0000660 124.9323 235.1701 14.79932394 69308
KUIPER-00043            
1 64504U 25134E   26266.86411260  .00002394  00000+0  34290-3 0  9992
2 64504  51.9019  76.7337 0000693 125.8087 234.2940 14.79939733 69428
KUIPER-00044            
1 64505U 25134F   26266.71557609  .00002050  00000+0  29776-3 0  9997
2 64505  51.8997  89.8792 0000727 114.7340 245.3698 14.79939392 69222
KUIPER-00046            
1 64506U 25134G   26266.75200208  .00002004  00000+0  29183-3 0  9993
2 64506  51.8992  87.1875 0000618 102.6392 257.4640 14.79935199 69269
KUIPER-00047            
1 64507U 25134H   26266.68040677  .00002251  00000+0  32423-3 0  9993
2 64507  51.8991  60.0348 0000583 124.3332 235.7686 14.79929958 69636
KUIPER-00048            
1 64508U 25134J   26266.64663531  .00000451  00000+0  88173-4 0  9994
2 64508  51.9002  60.1942 0000560 123.1646 236.9370 14.79932469 69636
KUIPER-00049            
1 64509U 25134K   26266.86948855  .00002462  00000+0  35189-3 0  9996
2 64509  51.8998  71.6839 0000848 105.2404 254.8653 14.79932061 69499
KUIPER-00050            
1 64510U 25134L   26266.68579904  .00002414  00000+0  34544-3 0  9994
2 64510  51.9003  55.0156 0000501 127.6842 232.4166 14.79938793 69711
KUIPER-00051            
1 64511U 25134M   26266.84552351  .00002376  00000+0  34058-3 0  9997
2 64511  51.9009  70.4857 0000829 143.3591 216.7429 14.79932465 69500
KUIPER-00053            
1 64513U 25134P   26266.71325597 -.00005709  00000+0 -69049-3 0  9998
2 64513  51.9001  65.4343 0002497 133.4957 226.6214 14.81683371 69567
KUIPER-00054            
1 64514U 25134Q   26266.84652836  .00002651  00000+0  37654-3 0  9990
2 64514  51.8986  61.7864 0000721 121.7992 238.3041 14.79937464 69620
KUIPER-00055            
1 64515U 25134R   26266.52630922  .00002399  00000+0  34364-3 0  9992
2 64515  51.9027  15.8555 0000515 104.0229 256.0791 14.79918775 70246
KUIPER-00056            
1 64516U 25134S   26266.73985355  .00000553  00000+0  10153-3 0  9999
2 64516  51.9030  67.3782 0000796 132.5905 227.5125 14.79934619 69543
KUIPER-00057            
1 64517U 25134T   26266.73175032  .00000363  00000+0  76644-4 0  9990
2 64517  51.8985  74.8280 0000835 109.4444 250.6609 14.79933744 69433
KUIPER-00058            
1 64518U 25134U   26266.70338019  .00002103  00000+0  30478-3 0  9992
2 64518  51.9008  69.9303 0000669 120.3401 239.7628 14.79931539 69509
KUIPER-00059            
1 64519U 25134V   26266.84383524  .00002677  00000+0  38002-3 0  9996
2 64519  51.8998  64.3449 0000309 104.7437 255.3560 14.79935742 69591
KUIPER-00060            
1 64520U 25134W   26266.74255587  .00002171  00000+0  31373-3 0  9997
2 64520  51.9026  64.8730 0000579 109.1241 250.9785 14.79930968 69567
KUIPER-00061            
1 64521U 25134X   26266.76819023  .00002404  00000+0  34417-3 0  9992
2 64521  51.8996  72.1986 0000814 125.9597 234.1441 14.79949151 69466
KUIPER-00062            
1 64522U 25134Y   26266.76551474  .00000704  00000+0  12138-3 0  9993
2 64522  51.8968  74.6545 0000941 124.7689 235.3362 14.79933604 69443
KUIPER-00063            
1 64523U 25134Z   26266.75744064  .00001012  00000+0  16178-3 0  9993
2 64523  51.9021  82.2917 0000730 106.7077 253.3965 14.79933893 69337
KUIPER-00064            
1 64524U 25134AA  26266.82765992  .00002372  00000+0  34006-3 0  9995
2 64524  51.9022  79.4067 0000930 116.4129 243.6929 14.79934556 69385
KUIPER-00065            
1 64525U 25134AB  26266.75474550 -.00000421  00000+0 -26258-4 0  9991
2 64525  51.9027  84.9036 0000641 110.0428 250.0603 14.79933716 69286
KUIPER-00066            
1 64526U 25134AC  26266.58577578  .00000502  00000+0  94872-4 0  9992
2 64526  51.9043  22.9194 0000642 108.4698 251.6335 14.79935216 70157
KUIPER-00069            
1 64816U 25151A   26266.84666428  .00001954  00000+0  28530-3 0  9994
2 64816  51.9009 124.4035 0000743 104.0981 256.0064 14.79933312 66105
KUIPER-00070            
1 64817U 25151B   26266.85344440  .00001716  00000+0  25404-3 0  9996
2 64817  51.9009 149.2707 0001395 103.0802 257.0316 14.79932674 65764
KUIPER-00071            
1 64818U 25151C   26266.85614217  .00000944  00000+0  15279-3 0  9990
2 64818  51.9005 146.8084 0000774 101.5237 258.5812 14.79937029 64616
KUIPER-00072            
1 64819U 25151D   26266.84393279  .00001200  00000+0  18635-3 0  9997
2 64819  51.8970 126.7816 0000725  74.6428 285.4615 14.79937568 64893
KUIPER-00073            
1 64820U 25151E   26266.88990441  .00001851  00000+0  27175-3 0  9998
2 64820  51.9001 146.6351 0001126  90.1492 269.9600 14.79942755 65803
KUIPER-00075            
1 64822U 25151G   26266.81245836  .00021527  00000+0  56166-3 0  9998
2 64822  51.8669 335.9252 0002791 259.4313 100.6360 15.38757735 66980
KUIPER-00076            
1 64823U 25151H   26266.90069710  .00000885  00000+0  14510-3 0  9995
2 64823  51.9010 136.6123 0000941 102.5805 257.5263 14.79935838 64768
KUIPER-00077            
1 64824U 25151J   26266.82777963  .00002036  00000+0  29602-3 0  9991
2 64824  51.9014 141.9577 0001137  98.9018 261.2073 14.79939821 64685
KUIPER-00078            
1 64825U 25151K   26266.86423105  .00002054  00000+0  29832-3 0  9997
2 64825  51.9004 139.2668 0001061 104.9753 255.1327 14.79933932 64722
KUIPER-00079            
1 64826U 25151L   26266.89260033  .00002229  00000+0  32118-3 0  9995
2 64826  51.8995 144.0955 0001195  85.6666 274.4433 14.79941727 65858
KUIPER-00080            
1 64827U 25151M   26266.85882150  .00000659  00000+0  11543-3 0  9996
2 64827  51.8992 144.2578 0000913  93.2585 266.8481 14.79934912 64654
KUIPER-00082            
1 64828U 25151N   26266.83856448  .00002019  00000+0  29379-3 0  9994
2 64828  51.9008 131.9102 0001005 100.2730 259.8345 14.79935556 64829
KUIPER-00083            
1 64829U 25151P   26266.83047061  .00000357  00000+0  75818-4 0  9991
2 64829  51.9021 139.4281 0001190  92.3312 267.7787 14.79933375 65903
KUIPER-00084            
1 64830U 25151Q   26266.95473488  .00002117  00000+0  30657-3 0  9999
2 64830  51.9023 148.8644 0000772 101.3022 258.8027 14.79932617 64598
KUIPER-00085            
1 64831U 25151R   26266.87234178  .00002049  00000+0  29765-3 0  9994
2 64831  51.9037 131.8195 0000907 107.0675 253.0387 14.79932243 64821
KUIPER-00086            
1 64832U 25151S   26266.86154461  .00002066  00000+0  29989-3 0  9997
2 64832  51.9012 141.8002 0000979 102.5618 257.5454 14.79933907 64685
KUIPER-00087            
1 64833U 25151T   26266.81290594  .00001944  00000+0  28369-3 0  9996
2 64833  51.8992 124.4685 0000900 100.4219 259.6844 14.79970032 64916
KUIPER-00089            
1 64834U 25151U   26266.87501747  .00001994  00000+0  29045-3 0  9995
2 64834  51.8999 129.2202 0000785 107.6830 252.4218 14.79939734 64865
KUIPER-00090            
1 64835U 25151V   26266.81557729  .00001967  00000+0  28701-3 0  9999
2 64835  51.8988 121.9763 0000942 115.5696 244.5364 14.79933093 64954
KUIPER-00091            
1 64836U 25151W   26266.87772035  .00000599  00000+0  10759-3 0  9999
2 64836  51.9012 126.7334 0000795  98.4001 261.7051 14.79932357 64895
KUIPER-00092            
1 64837U 25151X   26266.86963062  .00000906  00000+0  14788-3 0  9999
2 64837  51.8983 134.2537 0000821 103.5830 256.5224 14.79935910 66006
KUIPER-00093            
1 64838U 25151Y   26266.86693429  .00000360  00000+0  76182-4 0  9998
2 64838  51.8993 136.7365 0000871  99.9534 260.1527 14.79933139 64756
KUIPER-00094            
1 64839U 25151Z   26266.78043141  .00001984  00000+0  28913-3 0  9991
2 64839  51.9040  92.2351 0001111 117.8713 242.2362 14.79938667 65377
KUIPER-00081            
1 65132U 25171A   26266.44931633  .00000710  00000+0  12213-3 0  9997
2 65132  51.9018 353.5795 0000268  85.4740 274.6253 14.79934796 62325
KUIPER-00088            
1 65133U 25171B   26266.49798050  .00000883  00000+0  14487-3 0  9993
2 65133  51.9003  10.8629 0000439  81.2425 278.8587 14.79934104 62085
KUIPER-00095            
1 65134U 25171C   26266.92473687  .00001549  00000+0  23215-3 0  9997
2 65134  51.9000 349.0128 0000216 105.7196 254.3790 14.79936075 62426
KUIPER-00096            
1 65135U 25171D   26266.53982576  .00002513  00000+0  35846-3 0  9992
2 65135  51.9025   3.1735 0000211  89.7474 270.3513 14.79939666 62195
KUIPER-00097            
1 65136U 25171E   26266.53716083  .00000858  00000+0  14151-3 0  9997
2 65136  51.9045   5.8567 0000383  78.4558 281.6448 14.79933633 62143
KUIPER-00098            
1 65137U 25171F   26266.53440263 -.00004749  00000+0 -59426-3 0  9991
2 65137  51.9022   8.2249 0000770  48.0485 312.0543 14.79936368 61462
KUIPER-00099            
1 65138U 25171G   26266.51147264  .00000775  00000+0  13063-3 0  9995
2 65138  51.9053 358.3442 0000229 107.7484 252.3503 14.79930787 62251
KUIPER-00100            
1 65139U 25171H   26266.54792674  .00000734  00000+0  12522-3 0  9994
2 65139  51.9024 355.6465 0000385  78.2485 281.8521 14.79932449 62299
KUIPER-00102            
1 65140U 25171J   26266.54522354  .00000579  00000+0  10498-3 0  9999
2 65140  51.9008 358.1252 0000126 137.7970 222.3002 14.79933232 62259
KUIPER-00103            
1 65141U 25171K   26266.56010524  .00000352  00000+0  75138-4 0  9995
2 65141  51.9005  15.5629 0000315  93.2807 266.8191 14.79924717 62018
KUIPER-00104            
1 65142U 25171L   26266.57360402  .00000749  00000+0  12721-3 0  9998
2 65142  51.9045   3.0237 0000268 106.9142 253.1850 14.79931464 62198
KUIPER-00105            
1 65143U 25171M   26266.59928319  .00001692  00000+0  25084-3 0  9992
2 65143  51.9024  10.5012 0000312  94.2835 265.8163 14.79930461 62090
KUIPER-00106            
1 65144U 25171N   26266.44494258  .00000750  00000+0  12741-3 0  9997
2 65144  51.9038 349.9535 0000345  80.8577 279.2425 14.79934228 62371
KUIPER-00107            
1 65145U 25171P   26266.55061299  .00002259  00000+0  32528-3 0  9996
2 65145  51.9027 353.1591 0000535  73.7960 286.3062 14.79924837 62334
KUIPER-00108            
1 65146U 25171Q   26266.57090365  .00002466  00000+0  35234-3 0  9992
2 65146  51.9034   5.6165 0000297  89.3262 270.7735 14.79936459 62160
KUIPER-00109            
1 65147U 25171R   26266.94770686  .00001437  00000+0  21744-3 0  9993
2 65147  51.9031 358.8931 0000326 104.5947 255.5052 14.79933164 62281
KUIPER-00110            
1 65148U 25171S   26266.49528730  .00002577  00000+0  36688-3 0  9994
2 65148  51.9020  13.4372 0000285 115.8072 244.2920 14.79938599 62030
KUIPER-00111            
1 65149U 25171T   26266.59117392  .00000439  00000+0  86506-4 0  9994
2 65149  51.8989  17.8716 0000124 113.4758 246.6218 14.79933493 61988
KUIPER-00112            
1 65150U 25171U   26266.57628830  .00000726  00000+0  12419-3 0  9998
2 65150  51.9047   0.5792 0000557 146.8917 213.2080 14.79934254 62227
KUIPER-00114            
1 65151U 25171V   26266.58848678  .00000614  00000+0  10950-3 0  9998
2 65151  51.9023  20.4821 0000109  72.2894 287.8080 14.79929358 61949
KUIPER-00115            
1 65152U 25171W   26266.59657475  .00002494  00000+0  35588-3 0  9995
2 65152  51.9029  12.9559 0000298 108.0375 252.0620 14.79944244 62059
KUIPER-00116            
1 65153U 25171X   26266.55742246  .00002497  00000+0  35639-3 0  9993
2 65153  51.9015  18.1595 0000388  99.7375 260.3631 14.79938087 61971
KUIPER-00118            
1 65154U 25171Y   26266.62224832  .00002519  00000+0  35930-3 0  9997
2 65154  51.9011  20.3204 0000337  75.9830 284.1170 14.79934023 61952
KUIPER-00119            
1 65155U 25171Z   26266.50068023  .00000270  00000+0  64373-4 0  9999
2 65155  51.9030   8.4616 0000426  85.4566 274.6445 14.79929808 62101
KUIPER-00120            
1 65762U 25217A   26266.66996492  .00001504  00000+0  22628-3 0  9998
2 65762  51.8921 257.5786 0000655  62.7877 297.3152 14.79937173 54051
KUIPER-00132            
1 65763U 25217B   26266.76357034  .00022351  00000+0  56834-3 0  9992
2 65763  51.8510 119.6048 0004607 320.5800  39.4852 15.39518596 55972
KUIPER-00133            
1 65764U 25217C   26266.36610346  .00001945  00000+0  28406-3 0  9997
2 65764  51.9036 259.0631 0000605  69.9383 290.1644 14.79931316 54019
KUIPER-00139            
1 65765U 25217D   26266.26607419 -.00000495  00000+0 -35926-4 0  9991
2 65765  51.8942 226.9268 0000721  72.6559 287.4482 14.79925415 54459
KUIPER-00142            
1 65766U 25217E   26266.89143903  .00002432  00000+0  34794-3 0  9996
2 65766  51.8991 239.1300 0000669  65.8484 294.2548 14.79935991 54335
KUIPER-00145            
1 65767U 25217F   26266.34850418  .00002166  00000+0  31306-3 0  9993
2 65767  51.8993 244.0553 0000709  56.0976 304.0054 14.79935602 54214
KUIPER-00147            
1 65768U 25217G   26265.36649894  .00001823  00000+0  26793-3 0  9992
2 65768  51.8985 250.8698 0000791  32.6258 327.4753 14.79963333 54032
KUIPER-00148            
1 65769U 25217H   26266.26338675  .00000815  00000+0  13590-3 0  9996
2 65769  51.9074 229.4609 0000662  70.4497 289.6537 14.79934414 54418
KUIPER-00150            
1 65770U 25217J   26266.70644243  .00002004  00000+0  29174-3 0  9995
2 65770  51.9013 254.9961 0000597  75.0516 285.0512 14.79933478 54093
KUIPER-00151            
1 65771U 25217K   26266.64699874  .00002170  00000+0  31348-3 0  9999
2 65771  51.9010 247.7578 0000684  59.3262 300.7768 14.79938793 54199
KUIPER-00152            
1 65772U 25217L   26266.89683490  .00000489  00000+0  93086-4 0  9993
2 65772  51.9006 234.1314 0000790  52.2945 307.8089 14.79933388 54404
KUIPER-00153            
1 65773U 25217M   26266.29444150  .00005674  00000+0  77231-3 0  9990
2 65773  51.9034 231.8800 0001059  97.6527 262.4555 14.79956188 54382
KUIPER-00155            
1 65774U 25217N   26265.58130072  .00002294  00000+0  32980-3 0  9994
2 65774  51.9012 207.5001 0000805  87.8852 272.2202 14.79928951 54668
KUIPER-00156            
1 65775U 25217P   26266.32822923  .00002155  00000+0  31164-3 0  9990
2 65775  51.9027 231.7180 0000696  68.6851 291.4186 14.79933701 54388
KUIPER-00165            
1 65778U 25217S   26266.65508816  .00001403  00000+0  21305-3 0  9992
2 65778  51.8983 240.2030 0000866  95.0659 265.0402 14.79937774 54291
KUIPER-00166            
1 65779U 25217T   26266.29713482  .00002197  00000+0  31718-3 0  9990
2 65779  51.9013 229.3478 0000856  93.6164 266.4896 14.79929809 54411
KUIPER-00167            
1 65780U 25217U   26265.56379560  .00000604  00000+0  10824-3 0  9992
2 65780  51.8966 254.9063 0000847  43.0424 317.0604 14.79931618 53994
KUIPER-00168            
1 65781U 25217V   26266.59564226  .00002057  00000+0  29869-3 0  9995
2 65781  51.8995 232.9714 0000806  60.6842 299.4200 14.79937507 54393
KUIPER-00169            
1 65782U 25217W   26266.65778713  .00001948  00000+0  28447-3 0  9990
2 65782  51.8997 237.7102 0000598  87.8996 272.2035 14.79931207 54339
KUIPER-00170            
1 65783U 25217X   26266.65238584  .00000528  00000+0  98238-4 0  9997
2 65783  51.8966 242.6737 0000719  69.2591 290.8449 14.79935102 54260
KUIPER-00172            
1 65785U 25217Z   26266.29984741  .00002277  00000+0  32757-3 0  9998
2 65785  51.8985 226.7660 0001061  53.0881 307.0178 14.79934901 54452
KUIPER-00173            
1 65786U 25217AA  26266.62402197  .00001824  00000+0  26826-3 0  9993
2 65786  51.9009 237.8498 0000863  49.0744 311.0293 14.79932006 54328
KUIPER-00174            
1 65787U 25217AB  26266.29176744  .00001458  00000+0  22027-3 0  9995
2 65787  51.9010 234.3847 0000877  78.6396 281.4664 14.79927560 54340
KUIPER-00176            
1 65788U 25217AC  26266.95087317  .00001707  00000+0  25282-3 0  9999
2 65788  51.8944 246.3795 0001060  54.1925 305.9136 14.79940005 54236
KUIPER-00101            
1 65947U 25228A   26266.21997713  .00003764  00000+0  52262-3 0  9990
2 65947  51.8983 207.0571 0000852  60.8216 299.2832 14.79923798 52480
KUIPER-00113            
1 65948U 25228B   26266.25924015  .00001272  00000+0  19577-3 0  9994
2 65948  51.8982 201.9078 0000940  92.2169 267.8901 14.79937852 52551
KUIPER-00117            
1 65949U 25228C   26266.22279508  .00002321  00000+0  33346-3 0  9998
2 65949  51.8967 204.5677 0000910  75.2628 284.8435 14.79927118 52518
KUIPER-00121            
1 65950U 25228D   26266.53209676  .00001504  00000+0  22628-3 0  9996
2 65950  51.8997 198.2239 0000970  78.2374 281.8697 14.79934660 52633
KUIPER-00122            
1 65951U 25228E   26266.25118468  .00002321  00000+0  33342-3 0  9997
2 65951  51.8987 209.4338 0000737  72.4303 287.6740 14.79928967 52453
KUIPER-00123            
1 65952U 25228F   26266.21740549 -.00004152  00000+0 -51598-3 0  9994
2 65952  51.8972 209.5890 0001605  61.6347 298.4778 14.79928184 52446
KUIPER-00124            
1 65953U 25228G   26266.56316245  .00001031  00000+0  16428-3 0  9999
2 65953  51.8976 200.5536 0001612  66.3803 293.7329 14.79936079 52606
KUIPER-00125            
1 65954U 25228H   26266.17410510 -.00002636  00000+0 -31700-3 0  9991
2 65954  51.9011 187.3263 0000763 122.5635 237.5401 14.79927026 52756
KUIPER-00126            
1 65955U 25228J   26266.25389248  .00000068  00000+0  37898-4 0  9994
2 65955  51.8977 206.9526 0000972 109.0937 251.0130 14.79930468 52488
KUIPER-00127            
1 65956U 25228K   26266.51521625  .00001352  00000+0  20632-3 0  9995
2 65956  51.8994 198.2799 0001076  63.6639 296.4434 14.79933048 52637
KUIPER-00128            
1 65957U 25228L   26266.22822295 -.00000289  00000+0 -89016-5 0  9994
2 65957  51.8985 199.6162 0001013  85.7018 274.4060 14.79929524 52583
KUIPER-00129            
1 65958U 25228M   26266.53747268  .00001036  00000+0  16491-3 0  9999
2 65958  51.9007 193.2245 0000710  60.6056 299.4977 14.79929555 52701
KUIPER-00130            
1 65959U 25228N   26266.50103849  .00001795  00000+0  26440-3 0  9995
2 65959  51.9010 195.9361 0000697  86.7789 273.3253 14.79938281 42950
KUIPER-00134            
1 65960U 25228P   26266.77961444  .00019002  00000+0  51148-3 0  9992
2 65960  51.8695  78.7668 0004235 286.4149  73.6373 15.37876645 54316
KUIPER-00135            
1 65961U 25228Q   26265.25173745  .00002241  00000+0  32285-3 0  9992
2 65961  51.9008 201.5111 0000875  80.4110 279.6951 14.79939199 52475
KUIPER-00136            
1 65962U 25228R   26266.50365315  .00000942  00000+0  15269-3 0  9997
2 65962  51.9013 193.4195 0001015  72.4615 287.6458 14.79910659 52696
KUIPER-00137            
1 65963U 25228S   26266.16878080  .00002334  00000+0  33502-3 0  9995
2 65963  51.9023 192.4136 0001050  66.3981 293.7092 14.79942120 52688
KUIPER-00138            
1 65964U 25228T   26266.47533211 -.00002098  00000+0 -24628-3 0  9992
2 65964  51.8987 188.4544 0001113  80.6403 279.4686 14.79940047 52768
KUIPER-00140            
1 65965U 25228U   26265.52724258  .00000853  00000+0  14095-3 0  9993
2 65965  51.8991 195.2398 0001173  76.6343 283.4751 14.79936931 52586
KUIPER-00141            
1 65966U 25228V   26265.53265302  .00002315  00000+0  33256-3 0  9990
2 65966  51.9020 190.2945 0000696 103.8326 256.2714 14.79931262 52654
KUIPER-00146            
1 65967U 25228W   26266.50913624  .00000958  00000+0  15470-3 0  9995
2 65967  51.9011 188.4897 0001249  77.8780 282.2323 14.79932806 52761
KUIPER-00149            
1 65968U 25228X   26266.48075187  .00001556  00000+0  23311-3 0  9994
2 65968  51.9003 183.4867 0000835  85.9674 274.1384 14.79932645 52833
KUIPER-00154            
1 65969U 25228Y   26266.17955952  .00002288  00000+0  32892-3 0  9995
2 65969  51.8999 182.3011 0000976  79.3302 280.7770 14.79942340 52821
KUIPER-00157            
1 65970U 25228Z   26266.20816933  .00001919  00000+0  30238-3 0  9998
2 65970  51.9029 184.4564 0001712 143.4421 216.6657 14.76667592 52796
KUIPER-00144            
1 67133U 25301A   26266.70103876  .00000232  00000+0  59420-4 0  9995
2 67133  51.9008 260.0204 0000781  61.3599 298.7442 14.79931564 43190
KUIPER-00164            
1 67134U 25301B   26266.75510102  .00001445  00000+0  21852-3 0  9999
2 67134  51.9047 272.3027 0000515  54.6250 305.4761 14.79936104 43204
KUIPER-00175            
1 67135U 25301C   26264.37665222  .00001649  00000+0  24527-3 0  9998
2 67135  51.8998 265.2501 0000606  46.4580 313.6433 14.79939245 42994
KUIPER-00179            
1 67136U 25301D   26266.01495189  .00000426  00000+0  84839-4 0  9990
2 67136  51.8988 273.0031 0000532  56.9765 303.1249 14.79929862 43138
KUIPER-00181            
1 67137U 25301E   26266.74431139  .00001835  00000+0  26966-3 0  9997
2 67137  51.9039 282.3463 0000526  35.4375 324.6622 14.79937197 43044
KUIPER-00183            
1 67138U 25301F   26266.67537086  .00000872  00000+0  14330-3 0  9990
2 67138  51.9015 252.6559 0000646  56.7162 303.3862 14.79937201 43460
KUIPER-00184            
1 67139U 25301G   26266.72941251  .00000419  00000+0  83908-4 0  9995
2 67139  51.8996 264.8554 0000538  64.7856 295.3162 14.79934163 43408
KUIPER-00186            
1 67140U 25301H   26266.77806416  .00000706  00000+0  12154-3 0  9998
2 67140  51.9036 282.2061 0000441  59.1554 300.9451 14.79933831 42896
KUIPER-00187            
1 67141U 25301J   26266.09998542  .00001103  00000+0  17353-3 0  9994
2 67141  51.9037 287.7308 0000545  78.3168 281.7855 14.79955604 42752
KUIPER-00188            
1 67142U 25301K   26266.57408536 -.00000094  00000+0  16728-4 0  9992
2 67142  51.9042 253.2216 0000458  39.2028 320.8967 14.79931349 43276
KUIPER-00191            
1 67143U 25301L   26266.74970716  .00001856  00000+0  27235-3 0  9996
2 67143  51.9013 277.3320 0000442  50.3958 309.7044 14.79932271 42981
KUIPER-00196            
1 67144U 25301M   26266.93059835  .00000324  00000+0  71569-4 0  9997
2 67144  51.8956 233.9803 0001170  94.7627 265.3469 14.79929310 43579
KUIPER-00204            
1 67145U 25301N   26266.34039346 -.00000801  00000+0 -76116-4 0  9993
2 67145  51.9002 251.6304 0000739  44.2225 315.8796 14.79931864 43391
KUIPER-00210            
1 67146U 25301P   26266.31070290  .00001692  00000+0  25074-3 0  9997
2 67146  51.9002 279.2173 0000467  49.9711 310.1293 14.79953401 43067
KUIPER-00221            
1 67147U 25301Q   26266.74160777  .00001547  00000+0  23195-3 0  9996
2 67147  51.9007 284.8499 0001071  79.1989 280.9093 14.79930919 42857
KUIPER-00232            
1 67148U 25301R   26266.38637473  .00001786  00000+0  26320-3 0  9997
2 67148  51.8995 271.4288 0000533  65.7813 294.3205 14.79941026 43003
KUIPER-00241            
1 67149U 25301S   26266.74698971  .00001254  00000+0  19339-3 0  9990
2 67149  51.9039 279.8603 0000620  56.9842 303.1180 14.79937943 43259
KUIPER-00245            
1 67150U 25301T   26266.40127617  .00000951  00000+0  15375-3 0  9998
2 67150  51.9034 288.8984 0000536  81.9669 278.1354 14.79934037 42769
KUIPER-00246            
1 67151U 25301U   26266.04603083  .00000631  00000+0  11175-3 0  9994
2 67151  51.9018 275.4036 0000500  77.9684 282.1335 14.79932609 42942
KUIPER-00247            
1 67152U 25301V   26266.39444815  .00001878  00000+0  27518-3 0  9991
2 67152  51.8961 263.8051 0000566  58.1093 301.9924 14.79940807 43117
KUIPER-00248            
1 67153U 25301W   26266.34581996  .00000316  00000+0  70443-4 0  9991
2 67153  51.8984 246.6664 0000678  63.4474 296.6558 14.79931132 43516
KUIPER-00249            
1 67154U 25301X   26265.38421940  .00000907  00000+0  14789-3 0  9993
2 67154  51.8995 265.8534 0000528  39.7438 320.3563 14.79935636 42993
KUIPER-00250            
1 67155U 25301Y   26266.41474197  .00001802  00000+0  26534-3 0  9997
2 67155  51.8998 276.2484 0000768  57.1129 302.9907 14.79938995 42971
KUIPER-00251            
1 67156U 25301Z   26266.56328592  .00001875  00000+0  27488-3 0  9990
2 67156  51.9003 263.1693 0000601  53.3752 306.7266 14.79941880 43320
KUIPER-00252            
1 67157U 25301AA  26266.96576118  .00000292  00000+0  67283-4 0  9994
2 67157  51.9010 263.8395 0000553  79.9559 280.1466 14.79931462 43164
KUIPER-00261            
1 67158U 25301AB  26266.71863138  .00000405  00000+0  82158-4 0  9993
2 67158  51.9041 274.9984 0000446  44.7791 315.3207 14.79935458 42987
KUIPER-00265            
1 67159U 25301AC  26266.80374850  .00000648  00000+0  11395-3 0  9995
2 67159  51.9052 289.6011 0000298  44.8374 315.2613 14.79932307 42820
KUIPER-00159            
1 67764U 26030A   26266.87882060  .00135744  00000+0  17931-1 0  9997
2 67764  51.9030   8.0002 0000478 107.8878 252.2137 14.78851651 35206
KUIPER-00160            
1 67765U 26030B   26266.94162040  .00010594  00000+0  14164-2 0  9996
2 67765  51.8995 348.9763 0000326 104.4766 255.6232 14.79933071 35477
KUIPER-00177            
1 67766U 26030C   26266.75063919  .00000911  00000+0  14853-3 0  9999
2 67766  51.9028  57.3021 0000981 109.6390 250.4678 14.79936137 34507
KUIPER-00178            
1 67767U 26030D   26266.71687109  .00002631  00000+0  37392-3 0  9993
2 67767  51.9008  57.4299 0000548 116.8899 243.2119 14.79940371 34502
KUIPER-00180            
1 67768U 26030E   26266.85731778  .00002959  00000+0  41688-3 0  9997
2 67768  51.8996  51.8013 0000461 127.8113 232.2892 14.79943904 34595
KUIPER-00197            
1 67769U 26030F   26266.54124176  .00000844  00000+0  13968-3 0  9993
2 67769  51.8998  33.2163 0000442 132.7307 227.3693 14.79934692 34821
KUIPER-00198            
1 67770U 26030G   26266.69658794  .00002201  00000+0  31759-3 0  9996
2 67770  51.8981  45.0022 0000557 134.8826 225.2182 14.79936452 34675
KUIPER-00199            
1 67771U 26030H   26266.91668981 -.01667440  00000+0 -12122+0 0  9995
2 67771  51.8933 344.4153 0012995  47.9483  20.4363 15.06542224  4298
KUIPER-00200            
1 67772U 26030J   26266.64524494  .00000275  00000+0  65029-4 0  9999
2 67772  51.8988  30.2740 0000424 115.1749 244.9257 14.79930337 34875
KUIPER-00203            
1 67773U 26030K   26266.74525581  .00001269  00000+0  19540-3 0  9999
2 67773  51.9067  62.4087 0000745 126.3253 233.7778 14.79933141 34438
KUIPER-00205            
1 67774U 26030L   26266.64792885  .00002490  00000+0  35541-3 0  9998
2 67774  51.9017  27.7290 0000315 102.2610 257.8388 14.79938727 34919
KUIPER-00208            
1 67775U 26030M   26266.85462926  .00000403  00000+0  81830-4 0  9997
2 67775  51.8976  54.3091 0000977 133.8550 226.2493 14.79931987 34553
KUIPER-00209            
1 67776U 26030N   26266.68850397  .00000613  00000+0  10943-3 0  9991
2 67776  51.9004  52.6468 0000723 127.5258 232.5771 14.79934689 34562
KUIPER-00213            
1 67777U 26030P   26266.58987500 -.00001833  00000+0 -21159-3 0  9996
2 67777  51.8968  50.5383 0000439 101.4994 258.6018 14.79929470 34583
KUIPER-00214            
1 67778U 26030Q   26266.69390179  .00002549  00000+0  36315-3 0  9992
2 67778  51.8998  47.6159 0000419 116.2782 243.8224 14.79936577 34639
KUIPER-00215            
1 67779U 26030R   26266.67359673  .00002582  00000+0  36760-3 0  9996
2 67779  51.8997  35.0583 0000293 102.8474 257.2521 14.79934348 34813
KUIPER-00218            
1 67780U 26030S   26266.69119187  .00000279  00000+0  65609-4 0  9990
2 67780  51.8982  50.0199 0000470 127.2697 232.8309 14.79931931 34609
KUIPER-00220            
1 67781U 26030T   26266.51556890  .00002620  00000+0  37242-3 0  9991
2 67781  51.8962  25.8192 0000317  90.6339 269.4659 14.79940342 34922
KUIPER-00222            
1 67782U 26030U   26266.66283522  .00002553  00000+0  36370-3 0  9993
2 67782  51.8988  45.3074 0000730 132.2080 227.8944 14.79942869 34664
KUIPER-00223            
1 67783U 26030V   26266.63713414  .00000611  00000+0  10910-3 0  9994
2 67783  51.9032  37.7326 0000485 129.6353 230.4652 14.79936181 34779
KUIPER-00225            
1 67784U 26030W   26266.56423412  .00002300  00000+0  33057-3 0  9997
2 67784  51.8988  43.1989 0000514 130.7208 229.3799 14.79940228 34686
KUIPER-00226            
1 67785U 26030X   26266.54393590  .00000915  00000+0  14898-3 0  9991
2 67785  51.9011  30.6736 0001308  22.7998 337.3023 14.79942736 34860
KUIPER-00259            
1 67786U 26030Y   26266.66551650  .00002342  00000+0  33601-3 0  9997
2 67786  51.8989  42.6533 0000522 124.2369 235.8643 14.79940106 34701
KUIPER-00260            
1 67787U 26030Z   26266.66822635  .00002574  00000+0  36638-3 0  9992
2 67787  51.9022  40.2548 0000401 136.8064 223.2930 14.79941267 34640
KUIPER-00262            
1 67788U 26030AA  26266.56692315  .00002488  00000+0  35522-3 0  9997
2 67788  51.9007  40.6188 0000748 124.6634 235.4399 14.79932208 34728
KUIPER-00266            
1 67789U 26030AB  26266.67090707  .00002522  00000+0  35968-3 0  9990
2 67789  51.9007  37.6495 0000603 123.6741 236.4279 14.79933696 34779
KUIPER-00268            
1 67790U 26030AC  26266.63985062 -.00000480  00000+0 -34027-4 0  9994
2 67790  51.9054  35.3330 0000573 134.0845 226.0164 14.79931022 34806
KUIPER-00270            
1 67791U 26030AD  26266.61686689  .00000202  00000+0  55536-4 0  9994
2 67791  51.8988  25.3785 0000371  98.0100 262.0904 14.79931699 34941
KUIPER-00274            
1 67792U 26030AE  26266.66012033  .00001256  00000+0  19370-3 0  9991
2 67792  51.9006  47.7045 0000505 114.1915 245.9100 14.79931792 34632
KUIPER-00275            
1 67793U 26030AF  26266.61416267  .00002579  00000+0  36706-3 0  9995
2 67793  51.9005  27.9032 0000468 137.1099 222.9900 14.79940362 34900
KUIPER-00276            
1 67794U 26030AG  26266.57501176  .00002460  00000+0  35153-3 0  9999
2 67794  51.8995  33.0518 0000722 105.3540 254.7502 14.79933518 34834
KUIPER-00279            
1 67795U 26030AH  26266.61956788  .00002543  00000+0  36247-3 0  9995
2 67795  51.9030  22.9069 0000446 113.8447 246.2562 14.79935815 34976
KUIPER-00131            
1 68573U 26072A   26266.88581720  .00001066  00000+0  16880-3 0  9995
2 68573  51.8990 119.2079 0001096 110.6382 249.4698 14.79932917 25730
KUIPER-00189            
1 68574U 26072B   26266.78181944  .00000143  00000+0  47783-4 0  9991
2 68574  51.8980 122.1430 0000923  92.8662 267.2406 14.79930723 25686
KUIPER-00192            
1 68575U 26072C   26266.88851176  .00002188  00000+0  31588-3 0  9990
2 68575  51.8990 116.6884 0000946 101.9540 258.1528 14.79935890 25775
KUIPER-00193            
1 68576U 26072D   26266.83176784  .00000853  00000+0  14094-3 0  9991
2 68576  51.9048 106.9900 0001141 117.2475 242.8604 14.79935831 25902
KUIPER-00194            
1 68577U 26072E   26266.78991353  .00001368  00000+0  20842-3 0  9993
2 68577  51.9022 114.6515 0000945 113.0081 247.0981 14.79936196 25798
KUIPER-00229            
1 68578U 26072F   26266.78452137  .00001759  00000+0  25961-3 0  9997
2 68578  51.9008 119.6579 0000774  98.9955 261.1095 14.79940241 25721
KUIPER-00230            
1 68579U 26072G   26266.91668981  .00038718  00000+0  55006-2 0  9996
2 68579  51.9024  66.3088 0001126  85.4654  90.0177 14.76545550  1930
KUIPER-00231            
1 68580U 26072H   26266.94924717  .00000423  00000+0  84564-4 0  9998
2 68580  51.8980  91.4975 0002020 133.7333 226.3797 14.79933613 26125
KUIPER-00234            
1 68581U 26072J   26266.82368020  .00001315  00000+0  20144-3 0  9999
2 68581  51.8994 114.4665 0001093  89.2201 270.8887 14.79936783 25798
KUIPER-00236            
1 68582U 26072K   26266.93964017  .00204051  00000+0  26577-1 0  9996
2 68582  51.9041  68.9633 0000731 112.9211 247.1828 14.78991405 26440
KUIPER-00244            
1 68583U 26072L   26266.73317034  .00001477  00000+0  22263-3 0  9993
2 68583  51.9000 104.8910 0001117 104.7235 255.3851 14.79939827 25928
KUIPER-00253            
1 68584U 26072M   26266.93306726  .00001356  00000+0  20684-3 0  9993
2 68584  51.9032 106.5334 0001008 120.0041 240.1022 14.79931675 25912
KUIPER-00254            
1 68585U 26072N   26266.76153028  .00002083  00000+0  30215-3 0  9999
2 68585  51.9005 109.7881 0001114  94.7540 265.3550 14.79943634 25850
KUIPER-00263            
1 68586U 26072P   26266.77772387  .00000499  00000+0  94429-4 0  9993
2 68586  51.9025  94.7797 0000705 123.3266 236.7764 14.79934314 26069
KUIPER-00269            
1 68587U 26072Q   26266.84255467  .00002111  00000+0  30583-3 0  9990
2 68587  51.9015  96.9034 0001019 113.2894 246.8176 14.79936226 26042
KUIPER-00272            
1 68588U 26072R   26266.78720581  .00000514  00000+0  96437-4 0  9994
2 68588  51.8968 117.1131 0000987 116.3288 243.7776 14.79935040 25759
KUIPER-00285            
1 68589U 26072S   26266.94386046  .00001987  00000+0  28962-3 0  9999
2 68589  51.9047  96.5403 0001382  99.4397 260.6722 14.79935180 26051
KUIPER-00286            
1 68590U 26072T   26266.94654311  .00002030  00000+0  29511-3 0  9995
2 68590  51.9015  93.9550 0000720 119.0922 241.0112 14.79941947 26098
KUIPER-00289            
1 68591U 26072U   26266.73585837  .00000176  00000+0  52167-4 0  9992
2 68591  51.9000 102.3611 0001100 112.5870 247.5209 14.79932179 25958
KUIPER-00290            
1 68592U 26072V   26266.83713942  .00002031  00000+0  29536-3 0  9999
2 68592  51.9025 101.9247 0000790 127.6440 232.4594 14.79931828 25972
KUIPER-00293            
1 68593U 26072W   26266.79260546  .00001027  00000+0  16375-3 0  9993
2 68593  51.8969 112.0930 0001995  72.5694 287.5486 14.79931140 25820
KUIPER-00294            
1 68594U 26072X   26266.73856248  .00001912  00000+0  27974-3 0  9998
2 68594  51.8995  99.8519 0000819 117.1408 242.9637 14.79940561 25996
KUIPER-00296            
1 68595U 26072Y   26266.92626254  .00002429  00000+0  34748-3 0  9993
2 68595  51.9010  81.5413 0000681 126.5042 233.5983 14.79935746 26262
KUIPER-00297            
1 68596U 26072Z   26266.82636899  .00002012  00000+0  29292-3 0  9995
2 68596  51.8997 111.9425 0001320 117.5117 242.5980 14.79931357 25834
KUIPER-00300            
1 68597U 26072AA  26266.86283841  .00002145  00000+0  31028-3 0  9992
2 68597  51.9024 109.3176 0000756 117.1623 242.9417 14.79935180 25872
KUIPER-00301            
1 68598U 26072AB  26266.68827106  .00001559  00000+0  25231-3 0  9998
2 68598  51.9025  79.7067 0001925 204.3075 155.7795 14.76508809 26267
KUIPER-00304            
1 68599U 26072AC  26266.78548643  .00001466  00000+0  23840-3 0  9997
2 68599  51.9006  81.2273 0000714  41.6800 318.4216 14.76623505 26253
KUIPER-00317            
1 68600U 26072AD  26266.83986164  .00001933  00000+0  28244-3 0  9992
2 68600  51.8986  99.4092 0000658 108.0952 252.0082 14.79936345 26004
KUIPER-00320            
1 68601U 26072AE  26266.83445036  .00002042  00000+0  29684-3 0  9992
2 68601  51.9023 104.4528 0000879  94.0784 266.0279 14.79932297 25937
KUIPER-00299            
1 68864U 26095A   26264.49671343  .00003437  00000+0  47973-3 0  9990
2 68864  51.8999 184.7505 0001209 103.3845 256.7252 14.79929712 21879
KUIPER-00353            
1 68865U 26095B   26266.97772901  .00002613  00000+0  37159-3 0  9998
2 68865  51.8998 158.8082 0000855 101.3340 258.7719 14.79941642 22456
KUIPER-00357            
1 68866U 26095C   26266.12551876  .00001367  00000+0  20826-3 0  9990
2 68866  51.9013 170.0881 0001366  64.8876 295.2228 14.79931936 22225
KUIPER-00364            
1 68867U 26095D   26266.15658600  .00000396  00000+0  80966-4 0  9990
2 68867  51.9017 172.4746 0001313  78.8009 281.3101 14.79933326 22198
KUIPER-00375            
1 68868U 26095E   26266.87374243  .00000156  00000+0  49491-4 0  9990
2 68868  51.9008 161.7740 0000874  87.3615 272.7448 14.79933404 22402
KUIPER-00433            
1 68869U 26095F   26266.45238065  .00000433  00000+0  85795-4 0  9991
2 68869  51.9021 178.6300 0001062  67.7116 292.3959 14.79934871 22139
KUIPER-00437            
1 68870U 26095G   26266.91668981 -.00033341  00000+0 -31891-2 0  9990
2 68870  51.8935 128.7174 0010382 301.9595 262.2551 14.92666314  2892
KUIPER-00448            
1 68871U 26095H   26266.90179350  .00147595  00000+0  19352-1 0  9999
2 68871  51.9031 166.6478 0005812 121.6011 238.5519 14.79082090 22330
KUIPER-00459            
1 68872U 26095J   26266.94937174  .00000396  00000+0  80983-4 0  9998
2 68872  51.9024 154.0029 0000814  97.4553 262.6502 14.79932005 22514
KUIPER-00468            
1 68873U 26095K   26266.89167636  .00001470  00000+0  23888-3 0  9995
2 68873  51.8977 151.8755 0000666 169.5880 190.5095 14.76629309 22547
KUIPER-00476            
1 68874U 26095L   26266.91668981 -.00058004  00000+0 -72612-2 0  9993
2 68874  51.8992 134.0195 0005778 281.0281 140.2558 14.82068461  4785
KUIPER-00478            
1 68875U 26095M   26266.87913136  .00002526  00000+0  36018-3 0  9991
2 68875  51.8982 156.7474 0001068  93.7979 266.3106 14.79940512 22473
KUIPER-00480            
1 68876U 26095N   26266.84806067  .00001440  00000+0  21779-3 0  9995
2 68876  51.9042 154.4022 0000770 107.7335 252.3712 14.79936191 22507
KUIPER-00482            
1 68877U 26095P   26266.97233718  .00000823  00000+0  13703-3 0  9999
2 68877  51.9030 163.8358 0001515  50.3176 309.7920 14.79935410 22382
KUIPER-00483            
1 68878U 26095Q   26266.14854620  .00005218  00000+0  71365-3 0  9991
2 68878  51.8996 179.9393 0001471  36.9618 323.1445 14.79891201 22080
KUIPER-00488            
1 68879U 26095R   26266.87643836  .00002241  00000+0  32294-3 0  9998
2 68879  51.9000 159.2673 0001214  88.8365 271.2736 14.79932376 22434
KUIPER-00489            
1 68880U 26095S   26266.88451743  .00001319  00000+0  20201-3 0  9995
2 68880  51.8968 151.7101 0001317  94.1330 265.9783 14.79939105 22548
KUIPER-00499            
1 68881U 26095T   26266.84536275  .00000843  00000+0  13965-3 0  9996
2 68881  51.9008 156.9379 0000939  78.6622 281.4446 14.79927663 22465
KUIPER-00500            
1 68882U 26095U   26266.89401657 -.00005166  00000+0 -64896-3 0  9991
2 68882  51.9039 174.1788 0000863 130.2589 229.8449 14.79941739 22233
KUIPER-00502            
1 68883U 26095V   26266.84366543 -.00000037  00000+0  24161-4 0  9994
2 68883  51.9005 150.6569 0001401  83.0118 277.1004 14.79933047 22556
KUIPER-00503            
1 68884U 26095W   26266.45776623  .00001408  00000+0  21368-3 0  9993
2 68884  51.8998 173.5757 0000932  85.0714 275.0355 14.79939481 22208
KUIPER-00504            
1 68885U 26095X   26266.14578482  .00002368  00000+0  33955-3 0  9994
2 68885  51.9020 182.4950 0000664  85.4736 274.6302 14.79931569 22059
KUIPER-00505            
1 68886U 26095Y   26266.12282404  .00002329  00000+0  33446-3 0  9991
2 68886  51.9015 172.5983 0000733 103.0139 257.0906 14.79933126 22181
KUIPER-00507            
1 68887U 26095Z   26266.85955266 -.00000236  00000+0 -19376-5 0  9990
2 68887  51.9001 159.3193 0000970  85.1262 274.9811 14.79932326 22435
KUIPER-00511            
1 68888U 26095AA  26266.85077118  .00000272  00000+0  64735-4 0  9998
2 68888  51.8997 151.9747 0001265  85.9628 274.1479 14.79932837 22534
KUIPER-00512            
1 68889U 26095AB  26266.15388834  .00002265  00000+0  32597-3 0  9996
2 68889  51.9013 174.9635 0001011  86.3011 273.8067 14.79940127 22154
KUIPER-00519            
1 68890U 26095AC  26266.97504361  .00000740  00000+0  12613-3 0  9996
2 68890  51.9025 161.3976 0001097  92.2003 267.9085 14.79934251 22412
KUIPER-00521            
1 68891U 26095AD  26266.09543349 -.00000622  00000+0 -52549-4 0  9993
2 68891  51.9039 158.9808 0000756  90.0704 270.0346 14.79927182 22374
KUIPER-00524            
1 68892U 26095AE  26266.12821645  .00002191  00000+0  31634-3 0  9998
2 68892  51.8986 167.5462 0000966  77.3338 282.7732 14.79937301 22251
KUIPER-00370            
1 68919U 26098A   26266.49385845  .00002129  00000+0  30820-3 0  9995
2 68919  51.9009 343.3117 0000356  98.3398 261.7605 14.79929338 22045
KUIPER-00380            
1 68920U 26098B   26266.50197340  .00000168  00000+0  50997-4 0  9999
2 68920  51.9001 335.9124 0000301  49.0412 311.0576 14.79935314 22142
KUIPER-00386            
1 68921U 26098C   26266.51615403  .00001671  00000+0  24815-3 0  9995
2 68921  51.9015 338.3446 0000490  97.6036 262.4982 14.79941171 22117
KUIPER-00388            
1 68922U 26098D   26266.42097487  .00002146  00000+0  31036-3 0  9993
2 68922  51.9035 348.9284 0000230  69.5441 290.5546 14.79932496 21956
KUIPER-00405            
1 68923U 26098E   26266.50807152  .00000658  00000+0  11533-3 0  9997
2 68923  51.9032 345.8969 0000751 243.2642 116.8243 14.79932551 22005
KUIPER-00408            
1 68924U 26098F   26266.49926200  .00002057  00000+0  29877-3 0  9997
2 68924  51.9004 338.3481 0000332  75.1943 284.9056 14.79934614 22115
KUIPER-00409            
1 68925U 26098G   26266.40946508  .00000401  00000+0  81575-4 0  9997
2 68925  51.9039 343.8336 0000399  92.9135 267.1873 14.79932612 22023
KUIPER-00410            
1 68926U 26098H   26266.41214951  .00002307  00000+0  33156-3 0  9997
2 68926  51.9006 341.2948 0000555 173.7954 186.3015 14.79930789 22067
KUIPER-00412            
1 68927U 26098J   26266.47090410  .00002004  00000+0  29172-3 0  9993
2 68927  51.9047 333.5721 0000296  91.7991 268.3006 14.79936814 22176
KUIPER-00413            
1 68928U 26098K   26266.42366011  .00000773  00000+0  13039-3 0  9998
2 68928  51.9008 346.2518 0000267 205.7384 154.3565 14.79929648 21990
KUIPER-00414            
1 68929U 26098L   26266.44664636  .00000750  00000+0  12742-3 0  9990
2 68929  51.8989 356.2317 0001019 152.5541 207.5475 14.79930905 21850
KUIPER-00415            
1 68930U 26098M   26266.19539812  .00002047  00000+0  29738-3 0  9995
2 68930  51.9037 339.7781 0000363  96.9347 263.1657 14.79936618 22065
KUIPER-00416            
1 68931U 26098N   26266.48339137  .00001865  00000+0  27347-3 0  9997
2 68931  51.9040 329.8579 0000363  91.0693 269.0312 14.79946011 22224
KUIPER-00420            
1 68932U 26098P   26266.47358492  .00001954  00000+0  28528-3 0  9993
2 68932  51.9015 331.0089 0000470  92.5604 267.5412 14.79933263 22213
KUIPER-00421            
1 68933U 26098Q   26266.53571490 -.00000234  00000+0 -17058-5 0  9996
2 68933  51.9047 335.7196 0000488  76.5074 283.5943 14.79936685 22152
KUIPER-00425            
1 68934U 26098R   26266.93279766  .00002764  00000+0  39123-3 0  9995
2 68934  51.9005 341.5075 0000678 119.1540 240.9491 14.79948454 22108
KUIPER-00430            
1 68935U 26098S   26266.93011679  .00001404  00000+0  21316-3 0  9998
2 68935  51.9051 343.9217 0000272  98.0824 262.0169 14.79933232 22075
KUIPER-00431            
1 68936U 26098T   26266.92742839  .00001512  00000+0  22731-3 0  9999
2 68936  51.8983 346.5163 0000231  47.8871 312.2111 14.79936192 22036
KUIPER-00432            
1 68937U 26098U   26266.19268274  .00002104  00000+0  30485-3 0  9998
2 68937  51.9013 342.1667 0000353  91.3782 268.7221 14.79938097 22036
KUIPER-00434            
1 68938U 26098V   26266.92776036  .00001237  00000+0  20691-3 0  9994
2 68938  51.9022 343.0815 0001253 148.5596 211.5440 14.76396242 22081
KUIPER-00436            
1 68939U 26098W   26266.91593576 -.00000520  00000+0 -39254-4 0  9992
2 68939  51.9026 341.5822 0000373  96.4593 263.6412 14.79939280 22105
KUIPER-00438            
1 68940U 26098X   26266.51346654  .00002146  00000+0  31039-3 0  9999
2 68940  51.9044 340.8879 0000404  94.6928 265.4080 14.79938046 22074
KUIPER-00439            
1 68941U 26098Y   26266.49656033 -.00001110  00000+0 -11661-3 0  9993
2 68941  51.9039 340.9545 0000601  70.9429 289.1598 14.79940463 22075
KUIPER-00440            
1 68942U 26098Z   26266.45402211  .00001977  00000+0  28825-3 0  9996
2 68942  51.9051 333.6408 0000565   1.0901 359.0062 14.79932509 22172
KUIPER-00442            
1 68943U 26098AA  26266.92393758 -.00000300  00000+0 -10318-4 0  9994
2 68943  51.9028 334.0795 0000098 199.2242 160.8717 14.79918717 22204
KUIPER-00446            
1 68944U 26098AB  26266.41485805  .00002065  00000+0  29968-3 0  9992
2 68944  51.9011 338.8129 0000840 294.6413  65.4462 14.79941606 22092
KUIPER-00451            
1 68945U 26098AC  26266.53914715  .00009839  00000+0  13189-2 0  9996
2 68945  51.9013 348.2434 0000551 124.2167 235.8847 14.79894973 21972
KUIPER-00452            
1 68946U 26098AD  26266.41756829  .00001016  00000+0  16224-3 0  9997
2 68946  51.9017 336.2983 0000685  56.1930 303.9098 14.79931264 22131
KUIPER-00453            
1 68947U 26098AE  26266.43712608  .00001944  00000+0  28399-3 0  9993
2 68947  51.9005 333.6307 0001537 153.9965 206.1074 14.79936794 22176
KUIPER-00454            
1 68948U 26098AF  26266.48577492  .00002187  00000+0  31586-3 0  9991
2 68948  51.9015 350.9689 0000588 119.7709 240.3312 14.79927395 21939
KUIPER-00455            
1 68949U 26098AG  26266.50537393  .00001184  00000+0  18435-3 0  9995
2 68949  51.9020 348.3977 0001340 149.7892 210.3148 14.79933156 21970
KUIPER-00458            
1 68950U 26098AH  26266.48778455  .00000604  00000+0  10827-3 0  9993
2 68950  51.9036 333.4992 0000275  59.3960 300.7029 14.79934559 22172
KUIPER-00282            
1 69267U 26118A   26266.15822818  .00001964  00000+0  28649-3 0  9996
2 69267  51.8988 327.4113 0000117 290.7265  69.3685 14.79935926 18665
KUIPER-00383            
1 69268U 26118B   26266.17780761  .00001069  00000+0  16924-3 0  9998
2 69268  51.8999 324.8465 0000297  76.0912 284.0083 14.79937292 18703
KUIPER-00527            
1 69269U 26118C   26266.41417443  .00001804  00000+0  26554-3 0  9997
2 69269  51.8994 323.9335 0000385  81.4039 278.6967 14.79938550 18734
KUIPER-00562            
1 69270U 26118D   26266.45602411  .00003017  00000+0  42457-3 0  9992
2 69270  51.9048 316.0641 0000698  66.7659 293.3376 14.79928593 18858
KUIPER-00570            
1 69271U 26118E   26266.47630466  .00001760  00000+0  25981-3 0  9992
2 69271  51.9021 328.6307 0000348  29.4120 330.6862 14.79941307 18661
KUIPER-00572            
1 69272U 26118F   26266.46479053  .00002002  00000+0  29150-3 0  9997
2 69272  51.9032 323.5738 0000292  44.0179 316.0806 14.79935280 18749
KUIPER-00581            
1 69273U 26118G   26266.86457805  .00002028  00000+0  29490-3 0  9998
2 69273  51.9024 326.8162 0000436 217.3943 142.6989 14.79935200 18828
KUIPER-00584            
1 69274U 26118H   26265.49443116  .00000257  00000+0  62632-4 0  9995
2 69274  51.9030 335.4848 0000137  27.0214 333.0755 14.79931951 18497
KUIPER-00587            
1 69275U 26118J   26266.46750468  .00001916  00000+0  28029-3 0  9999
2 69275  51.9043 321.0730 0000346  74.7907 285.3093 14.79934153 18786
KUIPER-00590            
1 69276U 26118K   26266.86729204  .00001172  00000+0  18268-3 0  9996
2 69276  51.9037 324.3139 0000161  28.4419 331.6552 14.79936531 18774
KUIPER-00592            
1 69277U 26118L   26265.43226690 -.00003275  00000+0 -40058-3 0  9990
2 69277  51.9043 330.5381 0000405  65.1864 294.9141 14.79960656 18560
KUIPER-00593            
1 69278U 26118M   26266.80174518  .00001662  00000+0  24691-3 0  9995
2 69278  51.8991 307.0996 0001071 203.2377 156.8537 14.79939982 19066
KUIPER-00594            
1 69279U 26118N   26265.44576620  .00000674  00000+0  11745-3 0  9993
2 69279  51.9073 318.1067 0001130  85.2425 274.8666 14.79928692 18732
KUIPER-00595            
1 69280U 26118P   26266.43041488  .00001853  00000+0  27199-3 0  9994
2 69280  51.9006 308.6984 0001024 205.8506 154.2406 14.79935865 18984
KUIPER-00596            
1 69281U 26118Q   26266.49048082  .00001955  00000+0  28535-3 0  9996
2 69281  51.9036 330.9741 0000304  76.6666 283.4331 14.79935928 18643
KUIPER-00597            
1 69282U 26118R   26266.42762441  .00001868  00000+0  27406-3 0  9991
2 69282  51.8992 311.2513 0001721  43.9731 316.1368 14.79929926 18912
KUIPER-00599            
1 69283U 26118S   26266.45061283  .00000512  00000+0  96177-4 0  9998
2 69283  51.9011 321.0613 0000254 347.1428  12.9528 14.79932341 18787
KUIPER-00600            
1 69284U 26118T   26266.39387016  .00000160  00000+0  50042-4 0  9997
2 69284  51.9015 311.3148 0001871  48.2275 311.8847 14.79933848 18915
KUIPER-00601            
1 69285U 26118U   26266.47900063  .00000522  00000+0  97444-4 0  9999
2 69285  51.9035 326.0218 0000356  66.3135 293.7865 14.79931959 18719
KUIPER-00602            
1 69286U 26118V   26266.41953868  .00001986  00000+0  28950-3 0  9995
2 69286  51.9036 318.7008 0000430 276.0322  84.0591 14.79931217 18812
KUIPER-00603            
1 69287U 26118W   26266.83892502  .00001942  00000+0  28367-3 0  9993
2 69287  51.9048 319.4362 0000396  77.1464 282.9542 14.79935814 18839
KUIPER-00605            
1 69288U 26118X   26266.42564733  .00001966  00000+0  28673-3 0  9997
2 69288  51.9005 328.7394 0000328  85.0238 275.0762 14.79939413 18671
KUIPER-00606            
1 69289U 26118Y   26265.47144337  .00001761  00000+0  25993-3 0  9991
2 69289  51.9041 325.4785 0000189  78.8594 281.2389 14.79938747 18639
KUIPER-00607            
1 69290U 26118Z   26266.14064330  .00001740  00000+0  25725-3 0  9992
2 69290  51.9021 312.5254 0001427  20.0413 340.0605 14.79931578 18878
KUIPER-00608            
1 69291U 26118AA  26266.42493451  .00001834  00000+0  26947-3 0  9995
2 69291  51.9026 313.6282 0000708  67.8419 292.2619 14.79936728 18889
KUIPER-00610            
1 69292U 26118AB  26266.85849372  .00001379  00000+0  20978-3 0  9992
2 69292  51.9046 316.8461 0000274  48.1426 311.9560 14.79940264 18877
KUIPER-00613            
1 69293U 26118AC  26266.17242082  .00000917  00000+0  14929-3 0  9999
2 69293  51.9028 329.8775 0000480  43.8362 316.2639 14.79935124 18638
KUIPER-00618            
1 69294U 26118AD  26266.15213044  .00001841  00000+0  27049-3 0  9998
2 69294  51.9040 317.4747 0001335 204.5466 155.5434 14.79931875 18801
KUIPER-00620            
1 69295U 26118AE  26266.16631818  .00001687  00000+0  25023-3 0  9991
2 69295  51.9048 319.9168 0000307  31.1567 328.9413 14.79938515 18775
KUIPER-00423            
1 69592U 26140A   26266.78286377  .00001290  00000+0  21364-3 0  9994
2 69592  51.9020 289.6343 0001203 138.0589 222.0464 14.76570887 16296
KUIPER-00428            
1 69593U 26140B   26266.55446865  .00014138  00000+0  38145-3 0  9990
2 69593  51.8793 283.3015 0005135 285.6614  74.3807 15.38036089 16363
KUIPER-00481            
1 69594U 26140C   26266.55272185  .00001196  00000+0  20069-3 0  9999
2 69594  51.9013 295.6057 0002145 350.2549   9.8370 14.76502252 16196
KUIPER-00490            
1 69595U 26140D   26266.40462772  .00001859  00000+0  27273-3 0  9997
2 69595  51.9064 301.3078 0000373  41.9682 318.1309 14.79948588 16102
KUIPER-00493            
1 69596U 26140E   26266.09538638  .00000650  00000+0  11423-3 0  9996
2 69596  51.9052 307.7256 0000770 319.9494  40.1411 14.79932786 15982
KUIPER-00496            
1 69597U 26140F   26266.91668981 -.00001276  00000+0 -11082-3 0  9991
2 69597  51.8981 288.0410 0006116 271.7935 271.5992 14.88339063  4915
KUIPER-00513            
1 69598U 26140G   26266.37089628  .00001625  00000+0  24216-3 0  9996
2 69598  51.9018 301.5000 0000332  60.2746 299.8250 14.79925908 16090
KUIPER-00516            
1 69599U 26140H   26266.91668981  .00013827  00000+0  12081-2 0  9995
2 69599  51.8930 284.0113 0006720 237.8302 257.6502 14.97002682  5657
KUIPER-00517            
1 69600U 26140J   26266.91668981 -.00885770  00000+0 -44894-1 0  9990
2 69600  51.8876 281.8888 0009779 181.4553 231.9503 15.18976920  5152
KUIPER-00520            
1 69601U 26140K   26266.35852941  .00001264  00000+0  20980-3 0  9998
2 69601  51.9019 303.6035 0000684 215.1680 144.9236 14.76605550 16061
KUIPER-00522            
1 69602U 26140L   26266.91668981  .00036362  00000+0  48213-2 0  9995
2 69602  51.9021 289.0849 0000064 241.6722 183.2242 14.79508835  4306
KUIPER-00528            
1 69603U 26140M   26266.41884148  .00000787  00000+0  13214-3 0  9992
2 69603  51.9027 303.8066 0000292  51.7452 308.3537 14.79938579 16067
KUIPER-00532            
1 69604U 26140N   26266.91668981  .00005961  00000+0  67472-3 0  9997
2 69604  51.8978 286.6967 0003793 266.2873 349.7943 14.87596947  5740
KUIPER-00533            
1 69605U 26140P   26266.40737037  .00001067  00000+0  16892-3 0  9994
2 69605  51.9022 298.8491 0000423  46.4022 313.6975 14.79935198 16136
KUIPER-00534            
1 69606U 26140Q   26266.77969083  .00005791  00000+0  21180-3 0  9997
2 69606  51.8831 283.2858 0011499 150.0720 210.0923 15.29470627 16388
KUIPER-00537            
1 69607U 26140R   26266.12914413  .00000618  00000+0  11004-3 0  9991
2 69607  51.8990 307.4911 0001070   0.7197 359.3766 14.79933190 15998
KUIPER-00538            
1 69608U 26140S   26266.84090214  .00006811  00000+0  91987-3 0  9994
2 69608  51.9058 301.8727 0001418  36.3016 323.8043 14.80008282 16137
KUIPER-00540            
1 69609U 26140T   26266.08628552  .00022576  00000+0  59542-3 0  9990
2 69609  51.8805 285.4271 0004698 278.9221  81.1234 15.38390184 16295
KUIPER-00541            
1 69610U 26140U   26266.91668981 -.01855909  00000+0 -13590+0 0  9990
2 69610  51.8929 282.4908 0007967 182.4200 231.3009 15.06715964  5442
KUIPER-00542            
1 69611U 26140V   26266.91668981 -.02080472  00000+0 -11352+0 0  9991
2 69611  51.8875 281.7582 0007348 174.5930 245.4806 15.17612143  5143
KUIPER-00543            
1 69612U 26140W   26266.91668981 -.00861300  00000+0 -10631+0 0  9996
2 69612  51.9507 286.6809 0003481 267.4310 187.2270 14.85153536  5149
KUIPER-00544            
1 69613U 26140X   26266.91668981 -.01481854  00000+0 -10892+0 0  9999
2 69613  51.8884 282.8749 0003864 173.6737 142.4480 15.06400176  4845
KUIPER-00546            
1 69614U 26140Y   26266.91668981 -.00004320  00000+0 -53980-3 0  9997
2 69614  51.9004 289.0883 0002310 133.1714  20.2822 14.79787445  3264
KUIPER-00547            
1 69615U 26140Z   26266.91668981 -.01172174  00000+0 -42822-1 0  9993
2 69615  51.8840 281.0668 0010316 169.5275 265.3465 15.30598471  5506
KUIPER-00549            
1 69616U 26140AA  26266.91668981  .00010957  00000+0  10726-2 0  9990
2 69616  51.8982 284.5104 0003945 232.5496 232.6728 14.92725762  5706
KUIPER-00550            
1 69617U 26140AB  26266.91668981 -.00036099  00000+0 -31528-2 0  9991
2 69617  51.8906 288.3298 0005103 290.5063 223.1312 14.96301471  2501
KUIPER-00551            
1 69618U 26140AC  26266.08551302  .00029525  00000+0  77035-3 0  9996
2 69618  51.8706 284.6561 0011465 156.5526 203.5987 15.38516213 16307
KUIPER-00554            
1 69619U 26140AD  26266.04176010  .00015224  00000+0  42021-3 0  9990
2 69619  51.8782 285.1069 0009482 166.3049 193.8197 15.37237368 16298
KUIPER-00555            
1 69620U 26140AE  26266.42546521  .00017662  00000+0  48657-3 0  9991
2 69620  51.8792 283.2139 0010778 159.1532 200.9896 15.37166284 16356
KUIPER-00556            
1 69621U 26140AF  26266.78424092  .00001927  00000+0  28147-3 0  9998
2 69621  51.8987 292.1740 0000800  95.2174 264.8879 14.79971967 16264
KUIPER-00557            
1 69622U 26140AG  26266.91668981  .00018451  00000+0  60965-3 0  9995
2 69622  51.8830 281.0757 0008528 177.4727 270.7246 15.31392555  3921
KUIPER-00560            
1 69623U 26140AH  26266.53994817  .00020677  00000+0  56948-3 0  9993
2 69623  51.8768 283.1877 0007890 203.1947 156.8685 15.37087822 16367
KUIPER-00561            
1 69624U 26140AJ  26266.77876084  .00001749  00000+0  25837-3 0  9997
2 69624  51.9021 297.1742 0000581  77.1065 282.9963 14.79931712 16199
KUIPER-00564            
1 69625U 26140AK  26266.91668981  .00028684  00000+0  37782-2 0  9997
2 69625  51.8967 294.0704 0000776 118.1368  63.1314 14.79902980  5608
KUIPER-00567            
1 69626U 26140AL  26266.07508806 -.00000096  00000+0  16458-4 0  9991
2 69626  51.9012 295.3133 0001970 140.4688 219.6418 14.79924608 16157
KUIPER-00573            
1 69627U 26140AM  26266.37629308  .00001374  00000+0  20926-3 0  9999
2 69627  51.9060 296.4895 0000309  15.5565 344.5407 14.79922356 16164
KUIPER-00258            
1 69763U 26151A   26266.91668981 -.00349281  00000+0 -37677-1 0  9995
2 69763  51.9033 204.2868 0009814  64.6369  16.0877 14.89953923  3533
KUIPER-00526            
1 69764U 26151B   26266.57537765  .00002398  00000+0  34339-3 0  9990
2 69764  51.8977 220.6671 0000907  70.4251 289.6809 14.79935660 12555
KUIPER-00558            
1 69765U 26151C   26266.60911597  .00001322  00000+0  20237-3 0  9992
2 69765  51.8963 220.4350 0000621  82.1646 277.9387 14.79930731 12560
KUIPER-00569            
1 69766U 26151D   26266.56117873  .00001767  00000+0  26075-3 0  9992
2 69766  51.9000 218.1422 0000992  49.0323 311.0725 14.79936832 12590
KUIPER-00589            
1 69767U 26151E   26266.88374071  .00001699  00000+0  27199-3 0  9995
2 69767  51.9015 219.8698 0002920  72.8852 287.2429 14.76543165 12599
KUIPER-00598            
1 69768U 26151F   26266.92110953  .00002663  00000+0  37808-3 0  9998
2 69768  51.8992 211.5693 0000605  91.1164 268.9868 14.79939601 12719
KUIPER-00604            
1 69769U 26151G   26265.28088808  .00002293  00000+0  32948-3 0  9999
2 69769  51.9013 221.3205 0000601  60.3990 299.7032 14.79958971 12439
KUIPER-00609            
1 69770U 26151H   26266.59007656  .00001558  00000+0  25140-3 0  9997
2 69770  51.9015 212.9213 0002546  46.0669 314.0501 14.76627086 12666
KUIPER-00611            
1 69771U 26151J   26266.25999598  .00002602  00000+0  37016-3 0  9992
2 69771  51.8971 216.9720 0000894  69.5491 290.5567 14.79937923 12589
KUIPER-00612            
1 69772U 26151K   26266.91668981 -.00005070  00000+0 -63639-3 0  9999
2 69772  51.8994 216.5912 0001418 123.8617 241.3732 14.79937906  5155
KUIPER-00614            
1 69773U 26151L   26266.58076838  .00001027  00000+0  16366-3 0  9998
2 69773  51.8967 215.6229 0001217  73.5005 286.6091 14.79932963 12624
KUIPER-00615            
1 69774U 26151M   26266.59223716  .00002408  00000+0  34478-3 0  9997
2 69774  51.8999 220.4566 0001029 129.0939 231.0115 14.79936473 12566
KUIPER-00616            
1 69775U 26151N   26266.91668981 -.00056928  00000+0 -70634-2 0  9992
2 69775  51.9001 204.1165 0001776 204.0122 166.3264 14.82441716  3293
KUIPER-00617            
1 69776U 26151P   26266.23161647  .00002347  00000+0  33646-3 0  9992
2 69776  51.8989 212.1177 0000433 189.0304 171.0650 14.79969401 12646
KUIPER-00619            
1 69777U 26151Q   26266.52806898  .00001498  00000+0  24316-3 0  9999
2 69777  51.9011 213.1368 0001508 156.9631 203.1398 14.76590797 12659
KUIPER-00621            
1 69778U 26151R   26266.54699744  .00002513  00000+0  35852-3 0  9998
2 69778  51.8996 215.7189 0000788  98.9465 261.1586 14.79938898 12620
KUIPER-00622            
1 69779U 26151S   26266.26356277  .00001590  00000+0  25619-3 0  9993
2 69779  51.9007 221.0074 0001184  80.3115 279.7980 14.76574316 12526
KUIPER-00623            
1 69780U 26151T   26266.27414354  .00002440  00000+0  34896-3 0  9999
2 69780  51.8964 219.4366 0001193 106.0367 254.0727 14.79927690 12546
KUIPER-00626            
1 69781U 26151U   26265.89128054  .00002323  00000+0  33359-3 0  9999
2 69781  51.8980 216.0971 0000896 110.4227 249.6831 14.79932717 12567
KUIPER-00627            
1 69782U 26151V   26266.91668981 -.00053389  00000+0 -69419-2 0  9997
2 69782  51.9003 206.5932 0000771 168.0708  48.5953 14.80460918  4047
KUIPER-00629            
1 69783U 26151W   26266.62330581  .00002456  00000+0  35108-3 0  9994
2 69783  51.9007 222.8229 0000676  86.9251 273.1789 14.79935246 12532
KUIPER-00631            
1 69784U 26151X   26265.96489315  .00002107  00000+0  30524-3 0  9991
2 69784  51.8999 225.7942 0000545  94.6619 265.4406 14.79936140 12438
KUIPER-00634            
1 69785U 26151Y   26266.25730067 -.00000234  00000+0 -16781-5 0  9990
2 69785  51.9009 219.5023 0000883 100.1654 259.9408 14.79929236 12540
KUIPER-00639            
1 69786U 26151Z   26266.91668981 -.00046846  00000+0 -60899-2 0  9994
2 69786  51.9011 206.5733 0001902 152.7197 244.0250 14.80402965  5387
KUIPER-00641            
1 69787U 26151AA  26266.21473675  .00002108  00000+0  30546-3 0  9990
2 69787  51.8989 212.1994 0002273 135.2713 224.8433 14.79928255 12644
KUIPER-00644            
1 69788U 26151AB  26266.91668981 -.00036615  00000+0 -32443-2 0  9993
2 69788  51.8936 202.1127 0008080  66.7999  14.4909 14.95729361  5491
KUIPER-00646            
1 69789U 26151AC  26266.11343698  .00002296  00000+0  33008-3 0  9996
2 69789  51.8981 212.7293 0000697  99.0773 261.0268 14.79929201 12626
KUIPER-00647            
1 69790U 26151AD  26266.91668981 -.00038328  00000+0 -54308-2 0  9993
2 69790  51.8990 208.7143 0003724 350.4987  48.3523 14.76668406  5077
KUIPER-00662            
1 69791U 26151AE  26266.26888221  .00002265  00000+0  32612-3 0  9997
2 69791  51.9012 224.4467 0000238  43.9590 316.1391 14.79924506 12479
