KUIPER-00008            
1 63724U 25088A   26261.19605804 -.00000022  00000+0  26104-4 0  9996
2 63724  51.9015 316.7459 0000451  89.7532 270.3483 14.79927520 76550
KUIPER-00009            
1 63725U 25088B   26261.21057610  .00004298  00000+0  29392-3 0  9995
2 63725  51.9028 324.4667 0000266  85.3135 274.7870 15.08053709 76445
KUIPER-00010            
1 63726U 25088C   26261.16770307  .00000696  00000+0  12022-3 0  9995
2 63726  51.9034 311.9831 0000442  73.5427 286.5584 14.79933289 76233
KUIPER-00011            
1 63727U 25088D   26262.13880217 -.00000673  00000+0 -59259-4 0  9997
2 63727  51.9022 315.2313 0000329  72.3018 287.7980 14.79929084 76400
KUIPER-00012            
1 63728U 25088E   26261.37836978  .00000328  00000+0  72044-4 0  9990
2 63728  51.9001 303.5352 0000557  51.0814 309.0198 14.79933127 76459
KUIPER-00013            
1 63729U 25088F   26262.45757088 -.00000234  00000+0 -17356-5 0  9999
2 63729  51.9038 331.2812 0000331  81.1599 278.9401 14.79927774 76264
KUIPER-00014            
1 63730U 25088G   26262.49125943  .00000905  00000+0  14759-3 0  9999
2 63730  51.9032 331.0753 0000238  53.4675 306.6309 14.79957414 76085
KUIPER-00015            
1 63731U 25088H   26262.51430303  .00000725  00000+0  12402-3 0  9995
2 63731  51.9007 341.0182 0000178  69.8440 290.2541 14.79930290 76404
KUIPER-00016            
1 63732U 25088J   26262.48863130  .00000350  00000+0  74930-4 0  9999
2 63732  51.9019 333.5907 0000500  91.2357 268.8663 14.79931204 76046
KUIPER-00018            
1 63733U 25088K   26262.19553825 -.00000182  00000+0  51144-5 0  9992
2 63733  51.9044 324.9357 0000355  40.4505 319.6484 14.79930215 76145
KUIPER-00019            
1 63734U 25088L   26262.15467954  .00000385  00000+0  79438-4 0  9995
2 63734  51.9017 323.8607 0000168  75.3505 284.7476 14.79930676 76156
KUIPER-00020            
1 63735U 25088M   26262.46295330 -.00001047  00000+0 -10838-3 0  9993
2 63735  51.9034 326.2464 0000227  36.6774 323.4204 14.79931344 76353
KUIPER-00021            
1 63736U 25088N   26261.88895125  .00000448  00000+0  87736-4 0  9991
2 63736  51.9017 328.7349 0000491  68.6670 291.4345 14.79922493 76105
KUIPER-00023            
1 63737U 25088P   26262.19013557  .00000812  00000+0  13557-3 0  9992
2 63737  51.9022 329.8935 0000561  61.3619 298.7399 14.79923811 76414
KUIPER-00024            
1 63738U 25088Q   26261.19068490  .00000720  00000+0  12347-3 0  9992
2 63738  51.9053 321.9274 0000413  89.6930 270.4080 14.79932286 76569
KUIPER-00025            
1 63739U 25088R   26262.16177462  .00000029  00000+0  32812-4 0  9993
2 63739  51.9056 325.1162 0000246  20.6033 339.4940 14.79930817 76466
KUIPER-00027            
1 63740U 25088S   26262.20093137 -.00000725  00000+0 -66066-4 0  9999
2 63740  51.9021 319.8991 0000302  85.4773 274.6224 14.79929231 76275
KUIPER-00028            
1 63741U 25088T   26262.43997528 -.00000698  00000+0 -62629-4 0  9992
2 63741  51.9022 316.2830 0000251  77.7759 282.3231 14.79927403 76757
KUIPER-00029            
1 63742U 25088U   26262.14585978 -.00000312  00000+0 -11949-4 0  9995
2 63742  51.9038 316.2808 0000164 358.6229   1.4733 14.79925025 76256
KUIPER-00030            
1 63743U 25088V   26261.17179773 -.00000416  00000+0 -25534-4 0  9990
2 63743  51.9030 339.4090 0000422  89.1741 270.9270 14.79927151 76139
KUIPER-00031            
1 63744U 25088W   26261.89704795 -.00000384  00000+0 -21345-4 0  9998
2 63744  51.9036 321.2251 0000212  36.2253 323.8724 14.79930142 76161
KUIPER-00032            
1 63745U 25088X   26262.23634788  .00009282  00000+0  21915-3 0  9998
2 63745  51.8656 164.3700 0005310  90.7737 269.3860 15.42587270 79372
KUIPER-00033            
1 63746U 25088Y   26262.26985699  .00002073  00000+0  30081-3 0  9997
2 63746  51.9026 349.5738 0000155  68.2110 291.8869 14.79934256 76285
KUIPER-00034            
1 63747U 25088Z   26262.44531466 -.00005286  00000+0 -66486-3 0  9996
2 63747  51.9033 311.3368 0000852 109.8820 250.2234 14.79937007 76512
KUIPER-00035            
1 63748U 25088AA  26262.48591225 -.00002137  00000+0 -25152-3 0  9997
2 63748  51.9012 336.1163 0000195   9.5285 350.5681 14.79927799 76224
KUIPER-00037            
1 63749U 25088AB  26262.47885501  .00000609  00000+0  10882-3 0  9994
2 63749  51.9020 335.0124 0000357  92.1392 267.9612 14.79930576 77027
KUIPER-00038            
1 63750U 25088AC  26262.46835666 -.00000195  00000+0  34293-5 0  9997
2 63750  51.9034 321.2339 0000455  90.3219 269.7795 14.79930487 76219
KUIPER-00039            
1 64500U 25134A   26262.23833355  .00001918  00000+0  28051-3 0  9997
2 64500  51.9014  97.2468 0000792 110.8776 249.2272 14.79933128 68730
KUIPER-00040            
1 64501U 25134B   26262.05872668  .00001552  00000+0  23256-3 0  9994
2 64501  51.8969 108.1008 0001121 108.4625 251.6460 14.79929921 68567
KUIPER-00041            
1 64502U 25134C   26262.08978176  .00002034  00000+0  29566-3 0  9995
2 64502  51.8991 110.3545 0000877 103.3960 256.7100 14.79936698 68530
KUIPER-00042            
1 64503U 25134D   26262.12893962  .00002071  00000+0  30064-3 0  9996
2 64503  51.8992 105.1580 0000741 110.6733 249.4309 14.79933571 68618
KUIPER-00043            
1 64504U 25134E   26262.06949463  .00000369  00000+0  77453-4 0  9990
2 64504  51.8991  97.9370 0001273 132.5496 227.5574 14.79934915 68718
KUIPER-00044            
1 64505U 25134F   26262.05601992  .00000466  00000+0  90108-4 0  9992
2 64505  51.8989 110.4864 0000859 109.6285 250.4771 14.79929929 68538
KUIPER-00046            
1 64506U 25134G   26262.09247390  .00000354  00000+0  75487-4 0  9994
2 64506  51.8983 107.7939 0001093 113.5070 246.6007 14.79930972 68575
KUIPER-00047            
1 64507U 25134H   26262.22343977  .00001838  00000+0  27004-3 0  9997
2 64507  51.8983  79.7441 0000777 123.4656 236.6381 14.79936405 68975
KUIPER-00048            
1 64508U 25134J   26262.18966547  .00001975  00000+0  28800-3 0  9994
2 64508  51.8986  79.9051 0000743 114.5961 245.5079 14.79926198 68972
KUIPER-00049            
1 64509U 25134K   26262.00733996 -.00004431  00000+0 -55244-3 0  9990
2 64509  51.8986  93.1847 0000667 109.7146 250.3889 14.79940639 68777
KUIPER-00050            
1 64510U 25134L   26262.02623460  .00001143  00000+0  17894-3 0  9992
2 64510  51.9007  75.6168 0000839 150.3217 209.7793 14.79929650 69028
KUIPER-00051            
1 64511U 25134M   26262.25349811  .00001937  00000+0  28299-3 0  9995
2 64511  51.9008  90.7937 0000862 123.1708 236.9337 14.79935182 68821
KUIPER-00053            
1 64513U 25134P   26261.99184378  .00001851  00000+0  26090-3 0  9994
2 64513  51.8996  86.3707 0002535 117.8050 242.3171 14.81716049 68866
KUIPER-00054            
1 64514U 25134Q   26261.98438268  .00002001  00000+0  29142-3 0  9993
2 64514  51.8981  83.2877 0000942 119.9091 240.1965 14.79937344 68905
KUIPER-00055            
1 64515U 25134R   26262.06934581  .00002770  00000+0  39194-3 0  9994
2 64515  51.9019  35.5628 0000314 126.5517 233.5474 14.79957466 69586
KUIPER-00056            
1 64516U 25134S   26262.21535880  .00001502  00000+0  22600-3 0  9997
2 64516  51.9043  87.3843 0000956 113.3756 246.7307 14.79929716 68878
KUIPER-00057            
1 64517U 25134T   26262.07219655  .00002102  00000+0  30473-3 0  9995
2 64517  51.8986  95.4319 0000677 109.6645 250.4391 14.79928916 68749
KUIPER-00058            
1 64518U 25134U   26262.11135570  .00001911  00000+0  27963-3 0  9991
2 64518  51.8994  90.2380 0000744 111.9092 248.1950 14.79935378 68821
KUIPER-00059            
1 64519U 25134V   26262.25179942  .00002174  00000+0  31406-3 0  9997
2 64519  51.8979  84.6515 0000459 125.5952 234.5053 14.79936639 68915
KUIPER-00060            
1 64520U 25134W   26262.01546873  .00002141  00000+0  30976-3 0  9999
2 64520  51.9013  85.7765 0000755 116.1597 243.9443 14.79934975 68868
KUIPER-00061            
1 64521U 25134X   26262.24372155  .00001944  00000+0  28399-3 0  9991
2 64521  51.9009  92.2068 0000909 117.0083 243.0972 14.79932035 68799
KUIPER-00062            
1 64522U 25134Y   26262.03843443  .00002004  00000+0  29184-3 0  9993
2 64522  51.8962  95.5604 0000839 112.7331 247.3720 14.79932107 68742
KUIPER-00063            
1 64523U 25134Z   26262.30047645  .00001909  00000+0  27930-3 0  9994
2 64523  51.9022 101.9990 0000688 119.8651 240.2380 14.79932247 68677
KUIPER-00064            
1 64524U 25134AA  26262.10056777  .00002050  00000+0  29775-3 0  9996
2 64524  51.9023 100.3092 0001116 120.0973 240.0100 14.79938555 68680
KUIPER-00065            
1 64525U 25134AB  26262.09520077  .00001987  00000+0  28953-3 0  9999
2 64525  51.9029 105.5095 0000743 108.7605 251.3438 14.79930912 68595
KUIPER-00066            
1 64526U 25134AC  26262.39893024  .00001509  00000+0  22689-3 0  9998
2 64526  51.9026  41.4305 0000663 129.1039 230.9982 14.79930655 69530
KUIPER-00069            
1 64816U 25151A   26262.18710202  .00002015  00000+0  29327-3 0  9991
2 64816  51.9018 145.0084 0000809 107.3866 252.7185 14.79933744 65418
KUIPER-00070            
1 64817U 25151B   26262.26141806  .00001419  00000+0  21512-3 0  9994
2 64817  51.8966 169.5804 0001320  84.6814 275.4299 14.79925333 65086
KUIPER-00071            
1 64818U 25151C   26262.26412068  .00002122  00000+0  30732-3 0  9992
2 64818  51.9001 167.1140 0000732 109.6501 250.4540 14.79931200 63936
KUIPER-00072            
1 64819U 25151D   26262.38697668  .00001249  00000+0  19286-3 0  9997
2 64819  51.8998 146.4914 0000673  97.5260 262.5779 14.79931766 64230
KUIPER-00073            
1 64820U 25151E   26262.43294052  .00000787  00000+0  13232-3 0  9996
2 64820  51.9005 166.3431 0001267  52.9548 307.1530 14.79932300 65148
KUIPER-00075            
1 64822U 25151G   26262.26644497  .00010903  00000+0  28949-3 0  9993
2 64822  51.8683 357.9600 0002610 242.0377 118.0346 15.38802086 66285
KUIPER-00076            
1 64823U 25151H   26262.24114117 -.00000861  00000+0 -83955-4 0  9996
2 64823  51.8994 157.2153 0001051 108.4554 251.6523 14.79936569 64079
KUIPER-00077            
1 64824U 25151J   26262.23574747  .00002122  00000+0  30724-3 0  9990
2 64824  51.9010 162.2628 0001155  88.1041 272.0053 14.79938887 64006
KUIPER-00078            
1 64825U 25151K   26262.40726535  .00001422  00000+0  21550-3 0  9993
2 64825  51.9021 158.9752 0001138  93.2319 266.8773 14.79931922 64064
KUIPER-00079            
1 64826U 25151L   26262.23304324  .00002180  00000+0  31481-3 0  9999
2 64826  51.8961 164.7012 0001260  81.1577 278.9528 14.79939532 65168
KUIPER-00080            
1 64827U 25151M   26262.26681012  .00001671  00000+0  24815-3 0  9992
2 64827  51.8994 164.5645 0000867 109.4359 250.6697 14.79928951 63973
KUIPER-00082            
1 64828U 25151N   26262.17900241  .00001979  00000+0  28859-3 0  9994
2 64828  51.9007 152.5146 0000953  94.1259 265.9812 14.79929881 64138
KUIPER-00083            
1 64829U 25151P   26262.23844711  .00000626  00000+0  11111-3 0  9992
2 64829  51.9019 159.7307 0000938 104.8129 255.2937 14.79933525 65229
KUIPER-00084            
1 64830U 25151Q   26262.43023112  .00002231  00000+0  32144-3 0  9993
2 64830  51.8999 168.8707 0000800  97.2595 262.8459 14.79947394 63929
KUIPER-00085            
1 64831U 25151R   26262.21278254  .00000731  00000+0  12485-3 0  9998
2 64831  51.9026 152.4234 0000957  96.2714 263.8358 14.79933150 64139
KUIPER-00086            
1 64832U 25151S   26262.13445871  .00000895  00000+0  14643-3 0  9990
2 64832  51.9016 162.7029 0000979  94.3272 265.7803 14.79930805 63989
KUIPER-00087            
1 64833U 25151T   26262.15340280  .00006381  00000+0  86721-3 0  9993
2 64833  51.8993 145.0747 0001211  87.5520 272.5581 14.79834762 64226
KUIPER-00089            
1 64834U 25151U   26262.21546061  .00000462  00000+0  89563-4 0  9998
2 64834  51.9013 149.8250 0000891  91.9842 268.1222 14.79924431 64171
KUIPER-00090            
1 64835U 25151V   26262.35859247  .00000620  00000+0  11028-3 0  9993
2 64835  51.8953 141.6863 0000522 132.6298 227.4708 14.79923534 64296
KUIPER-00091            
1 64836U 25151W   26262.21816485  .00001464  00000+0  22103-3 0  9999
2 64836  51.9018 147.3349 0001044 101.9699 258.1380 14.79929792 64206
KUIPER-00092            
1 64837U 25151X   26262.21007658  .00000347  00000+0  74508-4 0  9990
2 64837  51.8998 154.8586 0000914  99.6592 260.4473 14.79931660 65318
KUIPER-00093            
1 64838U 25151Y   26262.40996934  .00002264  00000+0  32602-3 0  9994
2 64838  51.8995 156.4433 0000954  99.7317 260.3753 14.79921979 64091
KUIPER-00094            
1 64839U 25151Z   26262.12087329  .00000099  00000+0  42026-4 0  9999
2 64839  51.9040 112.8397 0001184  93.4356 266.6742 14.79929233 64682
KUIPER-00081            
1 65132U 25171A   26262.33000113  .00002185  00000+0  31560-3 0  9995
2 65132  51.9014  11.7942 0000393 104.9831 255.1175 14.79927984 61715
KUIPER-00088            
1 65133U 25171B   26262.31113016  .00000624  00000+0  11084-3 0  9996
2 65133  51.8986  29.3755 0000509 117.4562 242.6452 14.79931710 61462
KUIPER-00095            
1 65134U 25171C   26262.33271278  .00001441  00000+0  21804-3 0  9993
2 65134  51.9011   9.3189 0000342 120.8005 239.2991 14.79926677 61744
KUIPER-00096            
1 65135U 25171D   26262.28544914  .00002299  00000+0  33047-3 0  9992
2 65135  51.8991  21.9846 0000378 105.5998 254.5006 14.79937002 61562
KUIPER-00097            
1 65136U 25171E   26262.35030434  .00001100  00000+0  17330-3 0  9995
2 65136  51.9011  24.3682 0000879 107.3774 252.7284 14.79934659 61529
KUIPER-00098            
1 65137U 25171F   26262.34759299  .00002259  00000+0  32528-3 0  9994
2 65137  51.9017  26.7387 0000597 111.4625 248.6401 14.79932984 60840
KUIPER-00099            
1 65138U 25171G   26262.05449480  .00000955  00000+0  15422-3 0  9996
2 65138  51.9029  18.0505 0000422 112.5484 247.5524 14.79933146 61590
KUIPER-00100            
1 65139U 25171H   26262.49613822  .00000493  00000+0  93605-4 0  9995
2 65139  51.9039  13.5634 0000389  91.8032 268.2975 14.79928994 61691
KUIPER-00102            
1 65140U 25171J   26261.61554372  .00002451  00000+0  35028-3 0  9994
2 65140  51.8990  19.9236 0000404 137.9583 222.1410 14.79938198 61529
KUIPER-00103            
1 65141U 25171K   26262.37324258  .00006662  00000+0  90158-3 0  9990
2 65141  51.8985  34.0762 0000279 113.2731 246.8261 14.79952456 61393
KUIPER-00104            
1 65142U 25171L   26262.38675074 -.00000475  00000+0 -33263-4 0  9990
2 65142  51.9058  21.5382 0000514 105.8975 254.2044 14.79928963 61572
KUIPER-00105            
1 65143U 25171M   26262.34490131  .00001751  00000+0  25865-3 0  9990
2 65143  51.9026  29.3136 0000525 112.4581 247.6437 14.79925499 61461
KUIPER-00106            
1 65144U 25171N   26262.32562218  .00000403  00000+0  81901-4 0  9992
2 65144  51.9022   8.1669 0000476  99.3726 260.7290 14.79929503 61769
KUIPER-00107            
1 65145U 25171P   26262.29621066  .00001488  00000+0  22426-3 0  9996
2 65145  51.9024  11.9700 0000775  77.8187 282.2862 14.79922202 61701
KUIPER-00108            
1 65146U 25171Q   26262.04640897  .00002473  00000+0  35324-3 0  9999
2 65146  51.9038  25.6227 0000411 103.6153 256.4855 14.79930252 61496
KUIPER-00109            
1 65147U 25171R   26262.35568112  .00002141  00000+0  30973-3 0  9990
2 65147  51.9037  19.1970 0000436 111.9246 248.1762 14.79929273 61600
KUIPER-00110            
1 65148U 25171S   26262.37596898  .00002204  00000+0  31799-3 0  9992
2 65148  51.9011  31.6517 0000544 126.3629 233.7383 14.79936170 61427
KUIPER-00111            
1 65149U 25171T   26262.40432959  .00000466  00000+0  90155-4 0  9994
2 65149  51.8992  36.3874 0000365 129.4469 230.6526 14.79929900 61361
KUIPER-00112            
1 65150U 25171U   26262.32192063  .00000123  00000+0  45135-4 0  9994
2 65150  51.9029  19.3905 0000469 113.4928 246.6083 14.79929949 61592
KUIPER-00114            
1 65151U 25171V   26262.40162214 -.00002115  00000+0 -24860-3 0  9995
2 65151  51.8999  38.9948 0000328 123.9778 236.1215 14.79930011 61329
KUIPER-00115            
1 65152U 25171W   26262.34220360  .00000984  00000+0  15801-3 0  9991
2 65152  51.9001  31.7685 0000752  99.2792 260.8255 14.79933243 61425
KUIPER-00116            
1 65153U 25171X   26262.37057478  .00002224  00000+0  32057-3 0  9994
2 65153  51.9005  36.6734 0000547 106.9524 253.1498 14.79939408 61355
KUIPER-00118            
1 65154U 25171Y   26262.09775151  .00002305  00000+0  33127-3 0  9998
2 65154  51.8996  40.3268 0000525  93.2506 266.8517 14.79931803 61288
KUIPER-00119            
1 65155U 25171Z   26262.38135984  .00002085  00000+0  30245-3 0  9998
2 65155  51.9020  26.6764 0000566  84.8661 275.2365 14.79927628 61497
KUIPER-00120            
1 65762U 25217A   26262.34806006  .00001427  00000+0  21623-3 0  9998
2 65762  51.9000 276.6896 0000655  64.4407 295.6623 14.79928768 53415
KUIPER-00132            
1 65763U 25217B   26262.47913465  .00020039  00000+0  51203-3 0  9998
2 65763  51.8508 140.3969 0004862 295.9930  64.0556 15.39440768 55312
KUIPER-00133            
1 65764U 25217C   26262.51690049  .00001530  00000+0  22960-3 0  9997
2 65764  51.9047 276.0833 0000544  78.9352 281.1672 14.79936857 53444
KUIPER-00139            
1 65765U 25217D   26262.34933794  .00001907  00000+0  27912-3 0  9996
2 65765  51.8972 244.2476 0000805  57.4207 302.6833 14.79923791 53870
KUIPER-00142            
1 65766U 25217E   26262.50198847  .00001687  00000+0  25020-3 0  9990
2 65766  51.9008 258.5409 0000554  52.9391 307.1622 14.79938427 53688
KUIPER-00145            
1 65767U 25217F   26262.49929762  .00000018  00000+0  31311-4 0  9995
2 65767  51.9020 261.0788 0000617  59.7736 300.3288 14.79927692 53641
KUIPER-00147            
1 65768U 25217G   26262.53029876  .00001649  00000+0  24508-3 0  9998
2 65768  51.8973 263.4134 0000659  33.4264 326.6740 14.79952793 53611
KUIPER-00148            
1 65769U 25217H   26262.48171686  .00001909  00000+0  27937-3 0  9998
2 65769  51.9048 246.1798 0000648  78.2029 281.9006 14.79933560 53859
KUIPER-00150            
1 65770U 25217J   26262.51959089  .00001639  00000+0  24399-3 0  9994
2 65770  51.9011 273.5100 0000573  80.6033 279.4994 14.79935924 53473
KUIPER-00151            
1 65771U 25217K   26262.32509164  .00000302  00000+0  68659-4 0  9993
2 65771  51.9011 266.8679 0000519  49.9349 310.1659 14.79931394 53555
KUIPER-00152            
1 65772U 25217L   26262.50739846  .00001779  00000+0  26236-3 0  9999
2 65772  51.8999 253.5418 0000659  47.7452 312.3566 14.79931969 53751
KUIPER-00153            
1 65773U 25217M   26262.44525659  .00000871  00000+0  14329-3 0  9990
2 65773  51.9029 248.9039 0000868  79.3843 280.7217 14.79925628 53814
KUIPER-00155            
1 65774U 25217N   26262.47491248  .00001036  00000+0  16493-3 0  9998
2 65774  51.9030 221.2348 0000865  97.6310 262.4751 14.79938213 54201
KUIPER-00156            
1 65775U 25217P   26262.47902742  .00002003  00000+0  29163-3 0  9998
2 65775  51.9025 248.7355 0000565  69.6930 290.4093 14.79936559 53819
KUIPER-00165            
1 65778U 25217S   26262.46826296  .00015063  00000+0  20017-2 0  9997
2 65778  51.8951 258.7168 0001089  97.8265 262.2820 14.79905935 53671
KUIPER-00166            
1 65779U 25217T   26262.51545867 -.00002056  00000+0 -24067-3 0  9996
2 65779  51.9026 246.0698 0000631  82.4716 277.6318 14.79939833 53853
KUIPER-00167            
1 65780U 25217U   26262.52495426  .00001737  00000+0  25680-3 0  9999
2 65780  51.8970 268.3475 0000665  48.7583 311.3436 14.79933179 53546
KUIPER-00168            
1 65781U 25217V   26262.54385425  .00000809  00000+0  13513-3 0  9990
2 65781  51.9009 250.8879 0000416 108.9612 251.1395 14.79932170 53793
KUIPER-00169            
1 65782U 25217W   26262.47094163  .00001895  00000+0  27745-3 0  9997
2 65782  51.9005 256.2236 0000627  81.0922 279.0111 14.79934061 53714
KUIPER-00170            
1 65783U 25217X   26262.53307228  .00001759  00000+0  25964-3 0  9994
2 65783  51.8981 260.8911 0000548  61.6637 298.4381 14.79930817 53659
KUIPER-00172            
1 65785U 25217Z   26262.51816869  .00001654  00000+0  24595-3 0  9993
2 65785  51.8984 243.4905 0000924  43.5429 316.5606 14.79935730 53897
KUIPER-00173            
1 65786U 25217AA  26262.03199135  .00001143  00000+0  17894-3 0  9998
2 65786  51.9002 258.1566 0000557  43.3735 316.7271 14.79933573 53642
KUIPER-00174            
1 65787U 25217AB  26262.51008448  .00002567  00000+0  36567-3 0  9997
2 65787  51.9016 251.1065 0000866  75.4973 284.6085 14.79932419 53787
KUIPER-00176            
1 65788U 25217AC  26261.07577687  .00001956  00000+0  28548-3 0  9995
2 65788  51.8993 272.3639 0000722  43.5013 316.6007 14.79938526 53364
KUIPER-00101            
1 65947U 25228A   26262.50581413 -.00003605  00000+0 -44350-3 0  9999
2 65947  51.8961 223.4799 0000462 153.2325 206.8661 14.79995810 51932
KUIPER-00113            
1 65948U 25228B   26262.54510779  .00002133  00000+0  30874-3 0  9990
2 65948  51.8970 218.3334 0000966  81.9185 278.1887 14.79925897 52000
KUIPER-00117            
1 65949U 25228C   26262.44111957 -.00001320  00000+0 -14420-3 0  9993
2 65949  51.8951 221.2897 0000799  36.7311 323.3706 14.79932428 51954
KUIPER-00121            
1 65950U 25228D   26262.48030139  .00001813  00000+0  26674-3 0  9990
2 65950  51.8967 216.1408 0000908  70.7769 289.3292 14.79935308 52032
KUIPER-00122            
1 65951U 25228E   26262.53703150  .00001965  00000+0  28671-3 0  9994
2 65951  51.8983 225.8596 0000767  72.3710 287.7336 14.79930421 51900
KUIPER-00123            
1 65952U 25228F   26262.50327657  .00002027  00000+0  29482-3 0  9997
2 65952  51.8974 226.0164 0000912  55.1587 304.9461 14.79935876 51896
KUIPER-00124            
1 65953U 25228G   26262.44384263  .00000660  00000+0  11561-3 0  9997
2 65953  51.8964 218.7688 0001062  61.6003 298.5067 14.79928063 51998
KUIPER-00125            
1 65954U 25228H   26262.52751510  .00002327  00000+0  33394-3 0  9990
2 65954  51.8994 203.4536 0001085  73.3123 286.7958 14.79955846 52216
KUIPER-00126            
1 65955U 25228J   26262.47223286  .00009402  00000+0  12613-2 0  9990
2 65955  51.8977 223.6731 0001160  97.7974 262.3120 14.79907836 51921
KUIPER-00127            
1 65956U 25228K   26262.46341907  .00001548  00000+0  23196-3 0  9993
2 65956  51.9005 216.1962 0000852  74.7607 285.3450 14.79933971 52036
KUIPER-00128            
1 65957U 25228L   26262.51407984  .00000371  00000+0  77693-4 0  9993
2 65957  51.9010 216.0401 0000763  76.4678 283.6370 14.79931535 52034
KUIPER-00129            
1 65958U 25228M   26262.48570061  .00002049  00000+0  29766-3 0  9998
2 65958  51.8992 211.1439 0000717  75.7889 284.3153 14.79931161 52105
KUIPER-00130            
1 65959U 25228N   26262.24666172  .00002299  00000+0  33039-3 0  9997
2 65959  51.9018 214.7484 0000835  75.5851 284.5204 14.79937039 42325
KUIPER-00134            
1 65960U 25228P   26262.03596411  .00023154  00000+0  61957-3 0  9997
2 65960  51.8695 101.7255 0003795 265.5217  94.5336 15.37930714 53586
KUIPER-00135            
1 65961U 25228Q   26262.48301830  .00000975  00000+0  15684-3 0  9998
2 65961  51.8994 213.7552 0001092  77.8463 282.2622 14.79930926 52064
KUIPER-00136            
1 65962U 25228R   26262.45182961  .00002279  00000+0  32759-3 0  9999
2 65962  51.9000 211.3358 0000966  60.3319 299.7739 14.79966428 52099
KUIPER-00137            
1 65963U 25228S   26262.45465073  .00000157  00000+0  49598-4 0  9991
2 65963  51.9037 208.8385 0001147  61.2980 298.8097 14.79929889 52139
KUIPER-00138            
1 65964U 25228T   26262.49109168  .00001123  00000+0  17630-3 0  9991
2 65964  51.8964 206.0719 0000920  70.5071 289.5991 14.79932430 52171
KUIPER-00140            
1 65965U 25228U   26262.48840797  .00001492  00000+0  22473-3 0  9991
2 65965  51.8979 208.6770 0001233  74.9982 285.1117 14.79930939 52130
KUIPER-00141            
1 65966U 25228V   26262.49379985 -.00001577  00000+0 -17796-3 0  9997
2 65966  51.9009 203.7321 0001036  76.0817 284.0260 14.79926617 52208
KUIPER-00146            
1 65967U 25228W   26262.32227924  .00002199  00000+0  31731-3 0  9999
2 65967  51.9017 207.0028 0001023  68.2087 291.8984 14.79935301 52149
KUIPER-00149            
1 65968U 25228X   26262.49649058  .00001654  00000+0  24587-3 0  9990
2 65968  51.9009 201.1043 0001144  66.9360 293.1723 14.79932712 52246
KUIPER-00154            
1 65969U 25228Y   26262.26283589  .00000176  00000+0  52077-4 0  9993
2 65969  51.9003 199.6215 0000901  77.8623 282.2441 14.79931655 52247
KUIPER-00157            
1 65970U 25228Z   26262.48579769  .00001808  00000+0  28670-3 0  9991
2 65970  51.9029 200.8326 0001645 128.1855 231.9254 14.76649152 52246
KUIPER-00144            
1 67133U 25301A   26262.31159985  .00001703  00000+0  25234-3 0  9999
2 67133  51.9018 279.4296 0000627  69.8273 290.2757 14.79929810 42542
KUIPER-00164            
1 67134U 25301B   26262.36565845  .00000060  00000+0  36902-4 0  9991
2 67134  51.9039 291.7113 0000366  45.6790 314.4202 14.79929796 42555
KUIPER-00175            
1 67135U 25301C   26262.55335440  .00001583  00000+0  23658-3 0  9993
2 67135  51.9007 273.3146 0000578  49.7795 310.3218 14.79933082 42722
KUIPER-00179            
1 67136U 25301D   26262.09821407  .00001717  00000+0  25411-3 0  9994
2 67136  51.8989 290.3228 0000510  56.7091 303.3920 14.79931602 42553
KUIPER-00181            
1 67137U 25301E   26262.42240184  .00000089  00000+0  40672-4 0  9997
2 67137  51.9056 301.4577 0000387  83.5679 276.5327 14.79929310 42402
KUIPER-00183            
1 67138U 25301F   26262.28593647  .00001596  00000+0  23825-3 0  9991
2 67138  51.9010 272.0646 0000486  65.5920 294.5093 14.79936375 42816
KUIPER-00184            
1 67139U 25301G   26262.06985846  .00001601  00000+0  23899-3 0  9992
2 67139  51.8993 285.4610 0000520  70.2791 289.8228 14.79935570 42715
KUIPER-00186            
1 67140U 25301H   26260.36272087 -.00001920  00000+0 -22300-3 0  9993
2 67140  51.8998 310.5715 0000887  88.5640 271.5424 14.79926705 41949
KUIPER-00187            
1 67141U 25301J   26262.38589858  .00001428  00000+0  21621-3 0  9991
2 67141  51.9025 304.1562 0000732  87.0690 273.0356 14.79948661 42205
KUIPER-00188            
1 67142U 25301K   26262.52230241  .00001800  00000+0  26507-3 0  9999
2 67142  51.9031 271.1347 0000504  52.5519 307.5489 14.79932318 42674
KUIPER-00191            
1 67143U 25301L   26261.07720265  .00002147  00000+0  31054-3 0  9997
2 67143  51.9009 302.4156 0000384  74.3481 285.7523 14.79932800 42146
KUIPER-00196            
1 67144U 25301M   26262.47363697  .00001642  00000+0  24432-3 0  9996
2 67144  51.8971 253.6915 0000614  66.0971 294.0055 14.79932237 42914
KUIPER-00204            
1 67145U 25301N   26262.49120248  .00001734  00000+0  25632-3 0  9997
2 67145  51.9011 268.6511 0000501  60.2676 299.8336 14.79941416 42826
KUIPER-00210            
1 67146U 25301P   26262.12389754  .00001755  00000+0  25914-3 0  9993
2 67146  51.9011 297.7327 0000341  65.5360 294.5638 14.79939156 42448
KUIPER-00221            
1 67147U 25301Q   26262.41969858  .00000993  00000+0  15927-3 0  9991
2 67147  51.9025 303.9611 0000615  68.4031 291.6997 14.79935296 42213
KUIPER-00232            
1 67148U 25301R   26261.38917089  .00000493  00000+0  93713-4 0  9991
2 67148  51.8997 293.5272 0000510  88.0828 272.0193 14.79930345 42260
KUIPER-00241            
1 67149U 25301S   26262.08743458 -.00000887  00000+0 -87428-4 0  9992
2 67149  51.9031 300.4637 0000490  35.2029 324.8966 14.79929573 42566
KUIPER-00245            
1 67150U 25301T   26262.14688810  .00001829  00000+0  26886-3 0  9996
2 67150  51.9051 307.7109 0000433  89.0825 271.0187 14.79935348 42130
KUIPER-00246            
1 67151U 25301U   26262.06176154  .00001802  00000+0  26530-3 0  9998
2 67151  51.9013 293.0224 0000339  59.3887 300.7109 14.79938058 42356
KUIPER-00247            
1 67152U 25301V   26262.54525406  .00000441  00000+0  86782-4 0  9994
2 67152  51.8963 280.8281 0000457  70.9248 289.1764 14.79930449 42542
KUIPER-00248            
1 67153U 25301W   26262.49662101  .00001685  00000+0  25003-3 0  9992
2 67153  51.8987 263.6887 0000533  67.6271 292.4748 14.79929862 42944
KUIPER-00249            
1 67154U 25301X   26262.07526065  .00000038  00000+0  34020-4 0  9996
2 67154  51.8985 280.4867 0000585  39.9408 320.1598 14.79929030 42500
KUIPER-00250            
1 67155U 25301Y   26261.82271262 -.00000007  00000+0  28123-4 0  9999
2 67155  51.8973 296.5552 0000841  70.2766 289.8287 14.79927022 42298
KUIPER-00251            
1 67156U 25301Z   26261.76867759  .00000257  00000+0  62655-4 0  9999
2 67156  51.9006 284.3714 0000416  53.0695 307.0306 14.79932296 42610
KUIPER-00252            
1 67157U 25301AA  26262.10361281  .00001728  00000+0  25564-3 0  9999
2 67157  51.9009 285.3402 0000524  84.5135 275.5887 14.79932247 42447
KUIPER-00261            
1 67158U 25301AB  26262.12661158  .00001641  00000+0  24413-3 0  9994
2 67158  51.9023 295.3039 0000379  55.2765 304.8233 14.79935253 42309
KUIPER-00265            
1 67159U 25301AC  26262.41430675  .00001765  00000+0  26051-3 0  9992
2 67159  51.9039 309.0087 0000477  90.6341 269.4676 14.79926543 42179
KUIPER-00159            
1 67764U 26030A   26261.87459649  .00001861  00000+0  29465-3 0  9994
2 67764  51.9019  30.0544 0000095   7.4763 352.6199 14.76581787 34460
KUIPER-00160            
1 67765U 26030B   26262.25002315 -.00022243  00000+0 -28691-2 0  9990
2 67765  51.8984   9.7222 0003751  53.7102 135.6375 14.80349413  4791
KUIPER-00177            
1 67766U 26030C   26262.02355546  .00002214  00000+0  31937-3 0  9995
2 67766  51.8990  78.2041 0000833 100.9515 259.1541 14.79929926 33802
KUIPER-00178            
1 67767U 26030D   26261.98978539  .00000185  00000+0  53236-4 0  9995
2 67767  51.8997  78.3346 0000587 100.2734 259.8294 14.79932117 33809
KUIPER-00180            
1 67768U 26030E   26262.19776716  .00000250  00000+0  61834-4 0  9999
2 67768  51.8987  72.4043 0000817 129.1535 230.9500 14.79928603 33909
KUIPER-00197            
1 67769U 26030F   26261.94921817  .00002281  00000+0  32811-3 0  9994
2 67769  51.8976  53.5221 0000598 102.1877 257.9153 14.79927327 34144
KUIPER-00198            
1 67770U 26030G   26261.96949145  .00001908  00000+0  27916-3 0  9997
2 67770  51.8979  65.9067 0000769 117.1821 242.9220 14.79941470 33973
KUIPER-00199            
1 67771U 26030H   26262.25002315 -.00017455  00000+0 -93098-3 0  9990
2 67771  51.8858   6.1071 0011863  22.2937 212.5491 15.14088689  5755
KUIPER-00200            
1 67772U 26030J   26262.12074103  .00002155  00000+0  31154-3 0  9995
2 67772  51.8991  50.2828 0000509 115.9688 244.1327 14.79939798 34209
KUIPER-00203            
1 67773U 26030K   26262.01816867  .00001869  00000+0  27411-3 0  9997
2 67773  51.9045  83.3100 0000995 112.3354 247.7714 14.79928946 33730
KUIPER-00205            
1 67774U 26030L   26262.12343397  .00002157  00000+0  31182-3 0  9994
2 67774  51.9012  47.7363 0000575 107.2855 252.8170 14.79934950 34245
KUIPER-00208            
1 67775U 26030M   26262.06000905  .00000073  00000+0  38649-4 0  9994
2 67775  51.8975  75.5133 0001343 115.6759 244.4342 14.79928338 33843
KUIPER-00209            
1 67776U 26030N   26262.02895155  .00000807  00000+0  13482-3 0  9992
2 67776  51.8994  73.2511 0000829 120.8617 239.2427 14.79932841 33872
KUIPER-00213            
1 67777U 26030P   26262.13293196  .00002244  00000+0  32319-3 0  9999
2 67777  51.8958  70.2480 0000742 122.7436 237.3598 14.79940306 33928
KUIPER-00214            
1 67778U 26030Q   26262.03434351  .00002141  00000+0  30977-3 0  9993
2 67778  51.8993  68.2211 0000623 112.2744 247.8285 14.79937728 33946
KUIPER-00215            
1 67779U 26030R   26262.14910460  .00001957  00000+0  28559-3 0  9993
2 67779  51.8984  55.0674 0000617 121.9124 238.1898 14.79934805 34145
KUIPER-00218            
1 67780U 26030S   26261.96410240 -.00000123  00000+0  12880-4 0  9991
2 67780  51.8970  70.9248 0000675 111.7666 248.3369 14.79930953 33906
KUIPER-00220            
1 67781U 26030T   26261.78847902  .00002229  00000+0  32126-3 0  9993
2 67781  51.8957  46.7244 0000473 108.6846 251.4168 14.79938821 34220
KUIPER-00222            
1 67782U 26030U   26261.93575516  .00000795  00000+0  13334-3 0  9996
2 67782  51.9004  66.2102 0000981 132.1794 227.9252 14.79930518 33960
KUIPER-00223            
1 67783U 26030V   26261.91005522  .00002098  00000+0  30416-3 0  9998
2 67783  51.9007  58.6338 0000632 122.2329 237.8695 14.79930286 34073
KUIPER-00225            
1 67784U 26030W   26260.95925121  .00002475  00000+0  35351-3 0  9990
2 67784  51.8981  67.9859 0000675 107.4561 252.6475 14.79937526 33855
KUIPER-00226            
1 67785U 26030X   26259.92611342  .00002393  00000+0  33846-3 0  9999
2 67785  51.8996  59.9374 0002437 320.9208  39.1578 14.80496066 33889
KUIPER-00259            
1 67786U 26030Y   26262.00595657  .00002151  00000+0  31103-3 0  9999
2 67786  51.8983  63.2589 0000610 121.4646 238.6376 14.79938528 34013
KUIPER-00260            
1 67787U 26030Z   26262.00866713  .00002246  00000+0  32355-3 0  9999
2 67787  51.9003  60.8587 0000792 126.2184 233.8852 14.79938220 33957
KUIPER-00262            
1 67788U 26030AA  26261.90736551  .00002295  00000+0  33002-3 0  9998
2 67788  51.8996  61.2254 0000952 113.7841 246.3221 14.79930477 34038
KUIPER-00266            
1 67789U 26030AB  26262.14641135  .00002103  00000+0  30475-3 0  9998
2 67789  51.8996  57.6569 0000846 120.6659 239.4387 14.79933213 34108
KUIPER-00268            
1 67790U 26030AC  26261.77770439  .00002273  00000+0  32719-3 0  9999
2 67790  51.9048  56.8298 0000879 133.5700 226.5335 14.79923455 34089
KUIPER-00270            
1 67791U 26030AD  26261.88977560  .00000479  00000+0  91881-4 0  9998
2 67791  51.8951  46.2817 0000345 106.5351 253.5649 14.79927617 34242
KUIPER-00274            
1 67792U 26030AE  26262.20315293  .00002123  00000+0  30741-3 0  9990
2 67792  51.9014  67.4138 0000584 117.5981 242.5041 14.79928560 33972
KUIPER-00275            
1 67793U 26030AF  26260.94165853  .00002693  00000+0  38215-3 0  9991
2 67793  51.9004  52.9869 0000728 120.7676 239.3358 14.79936005 34068
KUIPER-00276            
1 67794U 26030AG  26261.98297743  .00001983  00000+0  28904-3 0  9996
2 67794  51.8988  53.3578 0000967  96.5999 263.5074 14.79937366 34159
KUIPER-00279            
1 67795U 26030AH  26261.89247854  .00002295  00000+0  32991-3 0  9993
2 67795  51.9023  43.8086 0000700 118.3741 241.7292 14.79937175 34273
KUIPER-00131            
1 68573U 26072A   26262.15873140  .00001424  00000+0  21581-3 0  9993
2 68573  51.9006 140.1105 0000793 115.7528 244.3517 14.79926797 25039
KUIPER-00189            
1 68574U 26072B   26262.25731951  .00001530  00000+0  22974-3 0  9993
2 68574  51.9002 142.1499 0000713 118.7571 241.3463 14.79925053 25016
KUIPER-00192            
1 68575U 26072C   26262.36401161  .00002005  00000+0  29192-3 0  9990
2 68575  51.9002 136.6975 0001046 100.1686 259.9394 14.79935068 25101
KUIPER-00193            
1 68576U 26072D   26262.10468756  .00001987  00000+0  28965-3 0  9991
2 68576  51.9041 127.8932 0001061 109.5361 250.5716 14.79930256 25200
KUIPER-00194            
1 68577U 26072E   26262.33294383  .00002010  00000+0  29270-3 0  9998
2 68577  51.9020 134.3613 0000910 101.8833 258.2231 14.79923668 25136
KUIPER-00229            
1 68578U 26072F   26262.39508723 -.00000224  00000+0 -34092-6 0  9999
2 68578  51.8996 139.0691 0000722  98.6548 261.4496 14.79931260 25072
KUIPER-00230            
1 68579U 26072G   26262.50002315 -.00022387  00000+0 -26987-2 0  9993
2 68579  51.9032  85.8349 0003475  23.2796   6.6756 14.83162875  1301
KUIPER-00231            
1 68580U 26072H   26262.08710325  .00001198  00000+0  18614-3 0  9999
2 68580  51.8976 112.9999 0002088 110.6057 249.5130 14.79930138 25403
KUIPER-00234            
1 68581U 26072J   26262.36670647  .00001028  00000+0  16381-3 0  9994
2 68581  51.8962 134.1766 0000940  96.4605 263.6464 14.79931945 25136
KUIPER-00236            
1 68582U 26072K   26262.50002315  .00020052  00000+0  28705-2 0  9992
2 68582  51.9029  88.5232 0001706 194.9143 294.4940 14.76559551  4442
KUIPER-00244            
1 68583U 26072L   26262.14115086  .00000270  00000+0  64421-4 0  9990
2 68583  51.9001 125.1977 0001167  94.0300 266.0796 14.79929789 25245
KUIPER-00253            
1 68584U 26072M   26262.13844989  .00001490  00000+0  22449-3 0  9999
2 68584  51.9035 127.7356 0001037 107.4195 252.6881 14.79930414 25208
KUIPER-00254            
1 68585U 26072N   26262.23704458  .00001806  00000+0  26591-3 0  9990
2 68585  51.9028 129.7969 0001274  77.7433 282.3672 14.79928622 25183
KUIPER-00263            
1 68586U 26072P   26262.32076316  .00002048  00000+0  29754-3 0  9999
2 68586  51.9018 114.4930 0000747 109.4716 250.6327 14.79929787 25406
KUIPER-00269            
1 68587U 26072Q   26262.11546784  .00001958  00000+0  28579-3 0  9991
2 68587  51.8999 117.8075 0001118 106.2447 253.8639 14.79936337 25343
KUIPER-00272            
1 68588U 26072R   26262.12765441  .00001932  00000+0  28245-3 0  9998
2 68588  51.8967 137.7213 0000967  99.8373 260.2698 14.79928435 25066
KUIPER-00285            
1 68589U 26072S   26262.08171014  .00001786  00000+0  26323-3 0  9993
2 68589  51.9018 118.0397 0001412  82.3156 277.7966 14.79937825 25336
KUIPER-00286            
1 68590U 26072T   26262.08440247  .00000210  00000+0  56505-4 0  9999
2 68590  51.9019 115.4555 0000969 121.2760 238.8297 14.79930923 25377
KUIPER-00289            
1 68591U 26072U   26262.34642483  .00002059  00000+0  29909-3 0  9995
2 68591  51.8979 121.7754 0001013  99.8808 260.2269 14.79928944 25308
KUIPER-00290            
1 68592U 26072V   26262.11001900 -.00003333  00000+0 -40840-3 0  9999
2 68592  51.9010 122.8269 0000744  57.5446 302.5588 14.79937780 25276
KUIPER-00293            
1 68593U 26072W   26262.33563713  .00001838  00000+0  27007-3 0  9995
2 68593  51.8980 131.8012 0001760  57.8445 302.2688 14.79929600 25167
KUIPER-00294            
1 68594U 26072X   26262.34912750  .00001068  00000+0  16913-3 0  9995
2 68594  51.9010 119.2610 0000742 111.3801 248.7241 14.79930530 25341
KUIPER-00296            
1 68595U 26072Y   26262.26669279  .00001345  00000+0  20534-3 0  9994
2 68595  51.9012 102.1460 0000359 136.7833 223.3158 14.79937871 25574
KUIPER-00297            
1 68596U 26072Z   26262.16681378  .00001872  00000+0  27453-3 0  9990
2 68596  51.8992 132.5474 0001367 108.5022 251.6089 14.79933351 25149
KUIPER-00300            
1 68597U 26072AA  26262.33833611  .00002031  00000+0  29535-3 0  9990
2 68597  51.9029 129.3252 0000826 106.5777 253.5276 14.79935263 25204
KUIPER-00301            
1 68598U 26072AB  26262.08557580  .00001354  00000+0  22317-3 0  9999
2 68598  51.9018  99.9494 0001933 191.1593 168.9325 14.76501490 25582
KUIPER-00304            
1 68599U 26072AC  26262.04778617  .00001434  00000+0  23380-3 0  9992
2 68599  51.9003 102.0688 0000630  31.6844 328.4154 14.76616983 25552
KUIPER-00317            
1 68600U 26072AD  26262.31535433  .00001422  00000+0  21541-3 0  9996
2 68600  51.8988 119.4148 0000472 122.2466 237.8542 14.79936455 25332
KUIPER-00320            
1 68601U 26072AE  26262.10733911 -.00013463  00000+0 -17389-2 0  9999
2 68601  51.8990 125.3542 0000643 137.6020 222.4993 14.79970841 25232
KUIPER-00299            
1 68864U 26095A   26261.52538800  .00007164  00000+0  96823-3 0  9990
2 68864  51.9000 197.8905 0001203 102.1023 258.0074 14.79912269 21439
KUIPER-00353            
1 68865U 26095B   26262.25062664  .00001984  00000+0  28912-3 0  9990
2 68865  51.9001 179.7103 0000781  95.3754 264.7298 14.79936785 21750
KUIPER-00357            
1 68866U 26095C   26262.47890728  .00001836  00000+0  26972-3 0  9995
2 68866  51.9012 186.2097 0001044  67.2350 292.8723 14.79933234 21684
KUIPER-00364            
1 68867U 26095D   26262.30739715  .00000146  00000+0  48188-4 0  9993
2 68867  51.9036 189.4929 0001422  56.5156 303.5943 14.79928199 21627
KUIPER-00375            
1 68868U 26095E   26262.48429859 -.00000009  00000+0  27804-4 0  9999
2 68868  51.9016 181.1808 0000523 104.5867 255.5153 14.79934886 21758
KUIPER-00433            
1 68869U 26095F   26262.19800401 -.00000585  00000+0 -47672-4 0  9999
2 68869  51.8977 197.4432 0000933  49.7388 310.3656 14.79929453 21505
KUIPER-00437            
1 68870U 26095G   26262.50002315 -.00009504  00000+0 -70439-3 0  9990
2 68870  51.8878 148.7687 0013658 268.2191 225.8837 15.01545979  2228
KUIPER-00448            
1 68871U 26095H   26262.50602205  .00001364  00000+0  22539-3 0  9997
2 68871  51.9024 186.0181 0003441  52.8507 307.2768 14.76334616 21688
KUIPER-00459            
1 68872U 26095J   26262.28980727  .00002066  00000+0  29996-3 0  9995
2 68872  51.9015 174.6062 0000883  92.2622 267.8442 14.79935818 21823
KUIPER-00468            
1 68873U 26095K   26262.22168116  .00001390  00000+0  22759-3 0  9999
2 68873  51.8986 172.4191 0000850 167.6942 192.4040 14.76625847 21850
KUIPER-00476            
1 68874U 26095L   26262.50002315 -.00784545  00000+0 -90282-1 0  9995
2 68874  51.9166 153.6851 0011994 270.9870 286.2831 14.88102182  5526
KUIPER-00478            
1 68875U 26095M   26262.48969078  .00000066  00000+0  37630-4 0  9999
2 68875  51.9012 176.1556 0000584  97.4556 262.6473 14.79930318 21826
KUIPER-00480            
1 68876U 26095N   26262.45861444  .00002559  00000+0  36453-3 0  9995
2 68876  51.9033 173.8104 0000620  94.9509 265.1524 14.79930650 21851
KUIPER-00482            
1 68877U 26095P   26262.51537443  .00000592  00000+0  10672-3 0  9992
2 68877  51.8998 183.5464 0001557  43.5364 316.5721 14.79928544 21722
KUIPER-00483            
1 68878U 26095Q   26262.29919522  .00002275  00000+0  32794-3 0  9999
2 68878  51.8983 196.9627 0001618   5.1231 354.9748 14.79856346 21513
KUIPER-00488            
1 68879U 26095R   26262.28441023  .00001583  00000+0  23668-3 0  9996
2 68879  51.8950 179.5719 0001164  86.4295 273.6800 14.79933793 21759
KUIPER-00489            
1 68880U 26095S   26262.22496442  .00002278  00000+0  32775-3 0  9998
2 68880  51.8953 172.3160 0001345  85.0784 275.0332 14.79934311 21858
KUIPER-00499            
1 68881U 26095T   26262.25334286  .00002334  00000+0  33506-3 0  9995
2 68881  51.8996 177.2514 0001147  69.5353 290.5733 14.79939866 21781
KUIPER-00500            
1 68882U 26095U   26262.30199878 -.00001041  00000+0 -10759-3 0  9999
2 68882  51.9005 194.4870 0000844  88.5919 271.5140 14.79926574 21550
KUIPER-00502            
1 68883U 26095V   26262.45423815  .00002310  00000+0  33188-3 0  9996
2 68883  51.8996 170.0666 0001395  71.5000 288.6114 14.79933280 21908
KUIPER-00503            
1 68884U 26095W   26262.20339544 -.00000037  00000+0  24137-4 0  9995
2 68884  51.8975 192.3953 0001000  70.1508 289.9562 14.79925630 21577
KUIPER-00504            
1 68885U 26095X   26262.22907275  .00002159  00000+0  31209-3 0  9993
2 68885  51.9008 199.8150 0000756  83.1065 276.9983 14.79929502 21470
KUIPER-00505            
1 68886U 26095Y   26262.27362080  .00002329  00000+0  33447-3 0  9993
2 68886  51.8980 189.6177 0000750  91.2885 268.8164 14.79930885 21612
KUIPER-00507            
1 68887U 26095Z   26262.26753057  .00000261  00000+0  63280-4 0  9993
2 68887  51.8992 179.6284 0000954  86.1068 274.0003 14.79928117 21757
KUIPER-00511            
1 68888U 26095AA  26262.46133292  .00000719  00000+0  12333-3 0  9999
2 68888  51.9014 171.3818 0001068  76.4425 283.6656 14.79928091 21887
KUIPER-00512            
1 68889U 26095AB  26262.30468975  .00002178  00000+0  31454-3 0  9998
2 68889  51.9015 191.9835 0000916  76.1634 283.9430 14.79939513 21587
KUIPER-00519            
1 68890U 26095AC  26262.51806753  .00000928  00000+0  15068-3 0  9997
2 68890  51.9006 181.1069 0000582  65.8473 294.2551 14.79929827 21759
KUIPER-00521            
1 68891U 26095AD  26262.24623297 -.00001561  00000+0 -17578-3 0  9992
2 68891  51.9023 176.0012 0000801  95.8432 264.2621 14.79932014 21805
KUIPER-00524            
1 68892U 26095AE  26262.27901169  .00001781  00000+0  26253-3 0  9995
2 68892  51.8963 184.5693 0000601  64.8662 295.2362 14.79934037 21685
KUIPER-00370            
1 68919U 26098A   26262.30701000  .00002234  00000+0  32194-3 0  9999
2 68919  51.9002   1.8255 0000317 107.9317 252.1680 14.79937752 21429
KUIPER-00380            
1 68920U 26098B   26262.51771909  .00000325  00000+0  71667-4 0  9997
2 68920  51.9000 353.5329 0000378  91.8750 268.2256 14.79929364 21558
KUIPER-00386            
1 68921U 26098C   26262.53189938 -.00000576  00000+0 -46545-4 0  9992
2 68921  51.8985 355.9642 0000589  91.1895 268.9135 14.79927144 21525
KUIPER-00388            
1 68922U 26098D   26262.03153869  .00002304  00000+0  33116-3 0  9990
2 68922  51.9017   8.3382 0000408 106.1962 253.9046 14.79931622 21302
KUIPER-00405            
1 68923U 26098E   26262.32121905  .00000158  00000+0  49776-4 0  9994
2 68923  51.9056   4.4111 0001084 182.0661 178.0297 14.79932887 21380
KUIPER-00408            
1 68924U 26098F   26262.24488683  .00002216  00000+0  31957-3 0  9993
2 68924  51.9010 357.1614 0000445  96.4855 263.6158 14.79932190 21485
KUIPER-00409            
1 68925U 26098G   26262.29014475  .00002092  00000+0  30340-3 0  9990
2 68925  51.9033   2.0488 0000543  81.5259 278.5765 14.79926878 21416
KUIPER-00410            
1 68926U 26098H   26262.56296584 -.00000002  00000+0  28717-4 0  9990
2 68926  51.8976 358.3145 0000710 152.1069 207.9931 14.79927899 21492
KUIPER-00412            
1 68927U 26098J   26262.28405135  .00002118  00000+0  30669-3 0  9991
2 68927  51.9036 352.0840 0000498 111.9021 248.1994 14.79935228 21556
KUIPER-00413            
1 68928U 26098K   26262.30433477  .00000854  00000+0  14105-3 0  9997
2 68928  51.9022   4.4676 0000532 182.8714 177.2245 14.79930471 21389
KUIPER-00414            
1 68929U 26098L   26262.32732315  .00001037  00000+0  16500-3 0  9998
2 68929  51.8965  14.4459 0001225 137.1019 223.0039 14.79933559 21242
KUIPER-00415            
1 68930U 26098M   26262.00854016  .00001525  00000+0  22897-3 0  9996
2 68930  51.9021 358.2910 0000237 103.3549 256.7440 14.79934370 21447
KUIPER-00416            
1 68931U 26098N   26262.49915023  .00001117  00000+0  17551-3 0  9994
2 68931  51.9032 347.4742 0000527 114.2902 245.8115 14.79929353 21633
KUIPER-00420            
1 68932U 26098P   26262.28673573  .00003110  00000+0  43659-3 0  9996
2 68932  51.9039 349.5244 0000475 104.0295 256.0720 14.79946873 21592
KUIPER-00421            
1 68933U 26098Q   26262.28135294 -.00000382  00000+0 -21119-4 0  9998
2 68933  51.9029 354.5318 0000340  90.4329 269.6672 14.79929833 21523
KUIPER-00425            
1 68934U 26098R   26262.27327558  .00003069  00000+0  43133-3 0  9996
2 68934  51.8961   2.1096 0000649  94.5572 265.5465 14.79934137 21410
KUIPER-00430            
1 68935U 26098S   26262.27054772  .00002272  00000+0  32696-3 0  9999
2 68935  51.9043   4.5235 0000468  98.7092 261.3923 14.79933022 21387
KUIPER-00431            
1 68936U 26098T   26261.59258033 -.00000011  00000+0  27594-4 0  9992
2 68936  51.9008  10.1100 0000282 156.9115 203.1860 14.79931420 21249
KUIPER-00432            
1 68937U 26098U   26262.27595075 -.00000069  00000+0  20019-4 0  9997
2 68937  51.8988 359.4841 0000776 116.4095 243.6947 14.79932394 21452
KUIPER-00434            
1 68938U 26098V   26262.32471980  .00001294  00000+0  21512-3 0  9990
2 68938  51.9027   3.3225 0001521 133.5811 226.5276 14.76392810 21404
KUIPER-00436            
1 68939U 26098W   26262.32391156  .00002053  00000+0  29830-3 0  9992
2 68939  51.9003   1.8872 0000502  95.5693 264.5327 14.79927705 21424
KUIPER-00438            
1 68940U 26098X   26261.98895904  .00000677  00000+0  11781-3 0  9991
2 68940  51.9044   0.8941 0000389  82.8149 277.2858 14.79931459 21404
KUIPER-00439            
1 68941U 26098Y   26262.30971669  .00002210  00000+0  31899-3 0  9999
2 68941  51.9045 359.4663 0000652  73.2081 286.8953 14.79915910 21453
KUIPER-00440            
1 68942U 26098Z   26262.26717067  .00001855  00000+0  27226-3 0  9998
2 68942  51.9040 352.1528 0000459   4.4790 355.6177 14.79929187 21552
KUIPER-00442            
1 68943U 26098AA  26262.53444794  .00001919  00000+0  28049-3 0  9998
2 68943  51.9016 353.4884 0000221 175.2847 184.8118 14.79952674 21556
KUIPER-00446            
1 68944U 26098AB  26262.29554802  .00000362  00000+0  76530-4 0  9994
2 68944  51.9034 357.0287 0000652 243.7183 116.3712 14.79929249 21480
KUIPER-00451            
1 68945U 26098AC  26262.28475866  .00000858  00000+0  14158-3 0  9993
2 68945  51.9020   7.0573 0000358 135.6466 224.4525 14.79931704 21349
KUIPER-00452            
1 68946U 26098AD  26261.55541748 -.00000473  00000+0 -32992-4 0  9998
2 68946  51.9036 357.7993 0000410  95.7359 264.3651 14.79930326 21414
KUIPER-00453            
1 68947U 26098AE  26260.56203523  .00001581  00000+0  23645-3 0  9998
2 68947  51.8984 359.6095 0002103 130.6567 229.4578 14.79933050 21306
KUIPER-00454            
1 68948U 26098AF  26262.29889220  .00000391  00000+0  80289-4 0  9991
2 68948  51.9022   9.4844 0000811 103.0646 257.0406 14.79911112 21312
KUIPER-00455            
1 68949U 26098AG  26262.31851933  .00001158  00000+0  18087-3 0  9993
2 68949  51.9008   6.9119 0001641 138.7729 221.3358 14.79937249 21356
KUIPER-00458            
1 68950U 26098AH  26261.28798382 -.00003269  00000+0 -40002-3 0  9997
2 68950  51.8996 356.4911 0001012  68.0709 292.0361 14.79936322 21407
KUIPER-00282            
1 69267U 26118A   26262.24149355  .00001182  00000+0  18406-3 0  9992
2 69267  51.8977 344.7333 0000073  79.9512 280.1459 14.79932688 18082
KUIPER-00383            
1 69268U 26118B   26262.53119594  .00001962  00000+0  28624-3 0  9996
2 69268  51.9008 340.9727 0000217  87.9679 272.1308 14.79937568 18162
KUIPER-00527            
1 69269U 26118C   26262.49744537  .00000977  00000+0  15712-3 0  9992
2 69269  51.8983 341.2529 0000473  91.2020 268.8997 14.79931140 18155
KUIPER-00562            
1 69270U 26118D   26262.33668172  .00013363  00000+0  17811-2 0  9991
2 69270  51.9070 334.2787 0000234  35.9770 324.1208 14.79867603 18248
KUIPER-00570            
1 69271U 26118E   26262.49204999  .00000499  00000+0  94396-4 0  9993
2 69271  51.9001 346.2473 0000272  62.0310 298.0680 14.79931622 18078
KUIPER-00572            
1 69272U 26118F   26261.53512515  .00002375  00000+0  34043-3 0  9991
2 69272  51.9009 345.3717 0000253  87.6804 272.4188 14.79938915 18013
KUIPER-00581            
1 69273U 26118G   26262.54268332  .00000494  00000+0  93891-4 0  9996
2 69273  51.9069 345.9280 0001171 177.5956 182.5012 14.79926289 18184
KUIPER-00584            
1 69274U 26118H   26262.38806028  .00000398  00000+0  81249-4 0  9996
2 69274  51.9026 349.2197 0000315  81.8087 278.2911 14.79933115 18034
KUIPER-00587            
1 69275U 26118J   26262.48324810  .00002070  00000+0  30047-3 0  9990
2 69275  51.9025 338.6893 0000619  95.8249 264.2784 14.79932937 18192
KUIPER-00590            
1 69276U 26118K   26261.26231531  .00002028  00000+0  29490-3 0  9996
2 69276  51.9034 349.0972 0000541 129.8640 230.2370 14.79935604 17944
KUIPER-00592            
1 69277U 26118L   26262.25846020  .00005692  00000+0  77427-3 0  9995
2 69277  51.9042 344.5737 0000671 120.2954 239.8075 14.79976395 18096
KUIPER-00593            
1 69278U 26118M   26262.47984138  .00001871  00000+0  27449-3 0  9997
2 69278  51.9002 326.2115 0001385 165.3659 194.7344 14.79921997 18428
KUIPER-00594            
1 69279U 26118N   26262.47444904  .00001634  00000+0  24327-3 0  9999
2 69279  51.9035 331.2419 0001148  78.4708 281.6383 14.79933896 18299
KUIPER-00595            
1 69280U 26118P   26262.17602850  .00001831  00000+0  26922-3 0  9996
2 69280  51.9007 327.5126 0001175 179.5283 180.5681 14.79918559 18358
KUIPER-00596            
1 69281U 26118Q   26262.50622706  .00002038  00000+0  29623-3 0  9997
2 69281  51.9030 348.5911 0000405 100.8791 259.2217 14.79934699 18055
KUIPER-00597            
1 69282U 26118R   26262.44335440  .00001731  00000+0  25618-3 0  9996
2 69282  51.8978 328.8677 0002006  54.9010 305.2140 14.79915601 18327
KUIPER-00599            
1 69283U 26118S   26260.44045035  .00002606  00000+0  37068-3 0  9997
2 69283  51.9018 347.6375 0000258 142.8642 217.2338 14.79937477 17890
KUIPER-00600            
1 69284U 26118T   26261.93690381  .00000638  00000+0  11267-3 0  9999
2 69284  51.9008 331.0191 0001593  29.8952 330.2102 14.79969661 18250
KUIPER-00601            
1 69285U 26118U   26262.22461871  .00000234  00000+0  59710-4 0  9991
2 69285  51.9042 344.8336 0000284  85.2641 274.8354 14.79927998 18089
KUIPER-00602            
1 69286U 26118V   26262.23268797  .00002068  00000+0  30014-3 0  9997
2 69286  51.9028 337.2126 0000423 217.3193 142.7740 14.79931299 18195
KUIPER-00603            
1 69287U 26118W   26262.51700664  .00001966  00000+0  28677-3 0  9991
2 69287  51.9060 338.5468 0000335  87.6546 272.4455 14.79935416 18196
KUIPER-00605            
1 69288U 26118X   26262.50892153  .00000807  00000+0  13489-3 0  9994
2 69288  51.9010 346.0584 0000316  87.1865 272.9133 14.79928902 18092
KUIPER-00606            
1 69289U 26118Y   26262.50013642  .00000643  00000+0  11337-3 0  9991
2 69289  51.9026 338.6175 0000269  91.1910 268.9083 14.79928360 18194
KUIPER-00607            
1 69290U 26118Z   26262.22391613  .00001978  00000+0  28842-3 0  9990
2 69290  51.9026 329.8452 0001321  14.6686 345.4315 14.79932477 18290
KUIPER-00608            
1 69291U 26118AA  26262.23808436  .00000299  00000+0  68280-4 0  9994
2 69291  51.9045 332.1449 0000636  68.7946 291.3084 14.79932290 18264
KUIPER-00610            
1 69292U 26118AB  26262.46905708  .00001985  00000+0  28930-3 0  9990
2 69292  51.9039 336.2536 0000333  88.3876 271.7124 14.79937124 18228
KUIPER-00613            
1 69293U 26118AC  26262.52581073 -.00000209  00000+0  15234-5 0  9997
2 69293  51.9006 346.0009 0000313  71.2719 288.8277 14.79927412 18094
KUIPER-00618            
1 69294U 26118AD  26262.50550972  .00001992  00000+0  29018-3 0  9992
2 69294  51.9040 333.5990 0001688 190.2421 169.8507 14.79939278 18267
KUIPER-00620            
1 69295U 26118AE  26261.50675779  .00002186  00000+0  31565-3 0  9991
2 69295  51.9046 340.5197 0000214  59.0755 301.0229 14.79938146 18081
KUIPER-00423            
1 69592U 26140A   26262.50002315  .00020426  00000+0  29240-2 0  9990
2 69592  51.9011 308.4741 0001400 123.2181 137.1116 14.76550482  5153
KUIPER-00428            
1 69593U 26140B   26261.16118842  .00016927  00000+0  45638-3 0  9996
2 69593  51.8795 309.3995 0005285 266.3210  93.7172 15.37906448 15537
KUIPER-00481            
1 69594U 26140C   26261.20545163  .00001243  00000+0  20734-3 0  9997
2 69594  51.9020 319.1236 0001847 332.9586  27.1278 14.76497616 15401
KUIPER-00490            
1 69595U 26140D   26262.42039513  .00001853  00000+0  27199-3 0  9999
2 69595  51.9054 318.9246 0000405  77.2561 282.8447 14.79931795 15512
KUIPER-00493            
1 69596U 26140E   26262.17865225  .00000704  00000+0  12127-3 0  9998
2 69596  51.9045 325.0432 0000622 294.6787  65.4110 14.79933761 15400
KUIPER-00496            
1 69597U 26140F   26262.50002315 -.00004716  00000+0 -38836-3 0  9993
2 69597  51.8943 307.9980 0007974 270.7544 278.4283 14.96474496  4248
KUIPER-00513            
1 69598U 26140G   26262.45416598  .00001839  00000+0  27013-3 0  9996
2 69598  51.9011 318.8198 0000349  85.1480 274.9522 14.79931942 15518
KUIPER-00516            
1 69599U 26140H   26262.50002315 -.00056038  00000+0 -37028-2 0  9990
2 69599  51.8876 304.2017 0005749 193.9966 158.4940 15.07049218  4978
KUIPER-00517            
1 69600U 26140J   26262.50002315 -.00770688  00000+0 -31161-1 0  9998
2 69600  51.8835 302.7492 0009366 165.8009 138.1435 15.26622760  5617
KUIPER-00520            
1 69601U 26140K   26261.48541308  .00001406  00000+0  23005-3 0  9998
2 69601  51.9029 325.0388 0000867 195.8730 164.2204 14.76601757 15349
KUIPER-00522            
1 69602U 26140L   26262.50002315 -.00035673  00000+0 -44446-2 0  9999
2 69602  51.9019 308.6400 0007608 147.4600 120.2200 14.82017110  3649
KUIPER-00528            
1 69603U 26140M   26262.16447170  .00001701  00000+0  25206-3 0  9991
2 69603  51.9041 322.6177 0000239  44.0563 316.0419 14.79940256 15434
KUIPER-00532            
1 69604U 26140N   26262.50002315 -.00008339  00000+0 -72464-3 0  9992
2 69604  51.8949 306.6138 0003149 172.9268  86.4036 14.95417951  5066
KUIPER-00533            
1 69605U 26140P   26262.15298443 -.00000006  00000+0  28223-4 0  9990
2 69605  51.9025 317.6635 0000393  69.7213 290.3791 14.79931300 15503
KUIPER-00534            
1 69606U 26140Q   26262.46744134 -.00017470  00000+0 -57832-3 0  9999
2 69606  51.8811 303.8895 0015725 141.1292 219.0826 15.30067114 15720
KUIPER-00537            
1 69607U 26140R   26260.45663352  .00002436  00000+0  34837-3 0  9993
2 69607  51.9018 332.5759 0000703 350.2420   9.8528 14.79940824 15156
KUIPER-00538            
1 69608U 26140S   26262.45158382 -.00005916  00000+0 -74726-3 0  9997
2 69608  51.9031 321.2813 0000584  27.7108 332.3885 14.79958821 15486
KUIPER-00540            
1 69609U 26140T   26262.38339095  .00016100  00000+0  42882-3 0  9995
2 69609  51.8807 303.3533 0004508 263.0417  97.0058 15.38327959 15727
KUIPER-00541            
1 69610U 26140U   26262.50002315 -.01202475  00000+0 -63580-1 0  9994
2 69610  51.8912 303.0773 0007237 179.2605 293.8327 15.17946200  4768
KUIPER-00542            
1 69611U 26140V   26262.50002315 -.00784834  00000+0 -33829-1 0  9991
2 69611  51.8860 302.6043 0007815 161.8041 181.5623 15.24576703  4463
KUIPER-00543            
1 69612U 26140W   26262.50002315 -.00012799  00000+0 -12087-2 0  9990
2 69612  51.8985 306.5197 0004029 235.9477 287.7985 14.92614826  4468
KUIPER-00544            
1 69613U 26140X   26262.50002315 -.00029376  00000+0 -15964-2 0  9997
2 69613  51.8847 303.3325 0005794 161.7992 244.6907 15.13796748  4163
KUIPER-00546            
1 69614U 26140Y   26262.50002315 -.00032597  00000+0 -39961-2 0  9990
2 69614  51.9002 308.6513 0017810 125.8114 227.0870 14.82542487  2609
KUIPER-00547            
1 69615U 26140Z   26262.33842506 -.00090817  00000+0 -25606-2 0  9996
2 69615  51.8807 303.0643 0009269 156.8251 203.3155 15.36077934 15720
KUIPER-00549            
1 69616U 26140AA  26262.50002315 -.00055143  00000+0 -41902-2 0  9992
2 69616  51.8955 304.6294 0002997 221.8413 173.0375 15.01842616  5677
KUIPER-00550            
1 69617U 26140AB  26262.50002315  .00001765  00000+0  14587-3 0  9992
2 69617  51.8862 308.4806 0004203 311.3465  84.4745 15.04042357  1837
KUIPER-00551            
1 69618U 26140AC  26262.12308483  .00025594  00000+0  67090-3 0  9999
2 69618  51.8771 303.8438 0011708 144.4001 215.7770 15.38449580 15698
KUIPER-00554            
1 69619U 26140AD  26262.40109176  .00016998  00000+0  46892-3 0  9994
2 69619  51.8779 302.7040 0009502 158.0820 202.0575 15.37165870 15736
KUIPER-00555            
1 69620U 26140AE  26261.74436238  .00008691  00000+0  24538-3 0  9998
2 69620  51.8815 305.8361 0010496 144.6748 215.4936 15.37139509 15631
KUIPER-00556            
1 69621U 26140AF  26262.50002315  .00016521  00000+0  21979-2 0  9995
2 69621  51.8979 311.1215 0000687 111.0529  90.1451 14.79795214  4574
KUIPER-00557            
1 69622U 26140AG  26262.53696197 -.00173754  00000+0 -46803-2 0  9993
2 69622  51.8806 302.1390 0008129 167.1478 192.9718 15.37893141 15754
KUIPER-00560            
1 69623U 26140AH  26262.44383609  .00025569  00000+0  70089-3 0  9997
2 69623  51.8793 302.9814 0008438 184.5208 175.5704 15.37099886 15730
KUIPER-00561            
1 69624U 26140AJ  26262.18670671 -.00002467  00000+0 -29478-3 0  9997
2 69624  51.9025 317.4802 0000646  88.0516 272.0521 14.79929497 15512
KUIPER-00564            
1 69625U 26140AK  26261.20718696  .00003404  00000+0  51350-3 0  9994
2 69625  51.8983 319.2870 0002494 115.6463 244.4756 14.76595908 15405
KUIPER-00567            
1 69626U 26140AL  26261.75316452  .00001807  00000+0  26609-3 0  9993
2 69626  51.8982 314.4252 0002199 129.7852 230.3304 14.79923881 15519
KUIPER-00573            
1 69627U 26140AM  26261.85178408  .00001788  00000+0  26350-3 0  9993
2 69627  51.9024 316.4981 0000505 108.9829 251.1188 14.79926728 15492
KUIPER-00258            
1 69763U 26151A   26262.50002315 -.00046756  00000+0 -39760-2 0  9996
2 69763  51.8888 224.2233 0012911  57.3996  13.2503 14.97395157  2863
KUIPER-00526            
1 69764U 26151B   26262.45604704  .00001966  00000+0  28684-3 0  9997
2 69764  51.8972 238.8834 0000787  64.0248 296.0795 14.79937979 11946
KUIPER-00558            
1 69765U 26151C   26262.48980934  .00002180  00000+0  31479-3 0  9998
2 69765  51.8952 238.6527 0000455  86.1897 273.9118 14.79942207 11953
KUIPER-00569            
1 69766U 26151D   26262.30680257  .00000323  00000+0  71339-4 0  9992
2 69766  51.8992 236.9541 0001092  33.9952 326.1080 14.79929812 11962
KUIPER-00589            
1 69767U 26151E   26262.48420366  .00001483  00000+0  24128-3 0  9996
2 69767  51.8997 239.2215 0002839  61.4663 298.6583 14.76534269 11941
KUIPER-00598            
1 69768U 26151F   26262.46413683  .00001239  00000+0  19129-3 0  9993
2 69768  51.8960 231.2782 0000875 104.3553 255.7506 14.79970979 12053
KUIPER-00604            
1 69769U 26151G   26262.51222678  .00017029  00000+0  22580-2 0  9990
2 69769  51.9013 233.5634 0000721  71.6839 288.4202 14.79915396 12023
KUIPER-00609            
1 69770U 26151H   26262.52920008  .00001475  00000+0  23980-3 0  9999
2 69770  51.9007 230.7851 0002397  35.2193 324.8926 14.76619906 12065
KUIPER-00611            
1 69771U 26151J   26262.47832502  .00000337  00000+0  73166-4 0  9993
2 69771  51.8990 233.6950 0000760  75.2395 284.8651 14.79929094 12029
KUIPER-00612            
1 69772U 26151K   26260.16038643  .00009500  00000+0  13733-2 0  9995
2 69772  51.8996 246.4439 0002278  68.7796 291.3408 14.76711976 11643
KUIPER-00614            
1 69773U 26151L   26262.52897552  .00001197  00000+0  18606-3 0  9999
2 69773  51.8931 233.5418 0001198  41.9133 318.1921 14.79936214 12023
KUIPER-00615            
1 69774U 26151M   26262.47292595  .00002577  00000+0  36693-3 0  9999
2 69774  51.9004 238.6740 0001018 137.6044 222.4997 14.79935623 11959
KUIPER-00616            
1 69775U 26151N   26262.50002315 -.00053364  00000+0 -56959-2 0  9991
2 69775  51.8967 223.8377 0006711 145.7007 351.3703 14.88543676  2638
KUIPER-00617            
1 69776U 26151P   26262.51755356  .00001935  00000+0  28261-3 0  9994
2 69776  51.8989 228.5426 0000510 174.3814 185.7154 14.79952319 12093
KUIPER-00619            
1 69777U 26151Q   26262.53477763  .00001442  00000+0  23515-3 0  9990
2 69777  51.9005 230.7025 0001595 148.4903 211.6153 14.76584305 12067
KUIPER-00621            
1 69778U 26151R   26262.49520580  .00002019  00000+0  29369-3 0  9996
2 69778  51.8991 233.6366 0000702  98.7728 261.3314 14.79938274 12020
KUIPER-00622            
1 69779U 26151S   26262.33791059  .00001456  00000+0  23724-3 0  9994
2 69779  51.8996 238.2740 0001207  73.3317 286.7776 14.76567531 11941
KUIPER-00623            
1 69780U 26151T   26262.49244418  .00000383  00000+0  79283-4 0  9995
2 69780  51.8973 236.1605 0001239 102.2530 257.8571 14.79916118 11987
KUIPER-00626            
1 69781U 26151U   26262.44724971  .00002209  00000+0  31836-3 0  9998
2 69781  51.8961 231.3277 0001154 111.8350 248.2735 14.79975804 12051
KUIPER-00627            
1 69782U 26151V   26262.50002315 -.00067277  00000+0 -78325-2 0  9998
2 69782  51.8975 226.2221 0009490  76.2688 308.2050 14.85115713  3372
KUIPER-00629            
1 69783U 26151W   26262.50397370  .00001724  00000+0  25507-3 0  9995
2 69783  51.9004 241.0382 0000545  97.3357 262.7668 14.79934001 11920
KUIPER-00631            
1 69784U 26151X   26262.45334662  .00000998  00000+0  15986-3 0  9997
2 69784  51.9011 241.3220 0000632  88.2187 271.8847 14.79928229 11914
KUIPER-00634            
1 69785U 26151Y   26262.47562969  .00000919  00000+0  14958-3 0  9994
2 69785  51.8992 236.2280 0000878  95.0301 265.0762 14.79931824 11980
KUIPER-00639            
1 69786U 26151Z   26262.50002315 -.00058520  00000+0 -68706-2 0  9995
2 69786  51.8995 226.1872 0008225  34.6804 171.6087 14.84706242  5558
KUIPER-00641            
1 69787U 26151AA  26262.50002315 -.00029044  00000+0 -37962-2 0  9995
2 69787  51.8983 228.6266 0002296 124.5840 232.5835 14.79942476  5228
KUIPER-00644            
1 69788U 26151AB  26262.50002315 -.00039734  00000+0 -28366-2 0  9991
2 69788  51.8875 222.2621 0009165  47.8306 278.0681 15.03997026  4817
KUIPER-00646            
1 69789U 26151AC  26262.50002315 -.00019271  00000+0 -25063-2 0  9997
2 69789  51.8973 228.7090 0000666  91.2548  85.9314 14.79928695  4272
KUIPER-00647            
1 69790U 26151AD  26262.50002315 -.00056891  00000+0 -68346-2 0  9999
2 69790  51.8991 228.2669 0010535  67.3871 173.4811 14.83729772  4400
KUIPER-00662            
1 69791U 26151AE  26262.48717624  .00001651  00000+0  24562-3 0  9998
2 69791  51.9000 241.1691 0000024 237.3396 122.7564 14.79909405 11919
