KUIPER-00008            
1 63724U 25088A   26250.52631719  .00000515  00000+0  96595-4 0  9992
2 63724  51.9030   3.9263 0000206 122.4036 237.6946 14.79934825 74977
KUIPER-00009            
1 63725U 25088B   26251.07095598  .00006414  00000+0  43088-3 0  9995
2 63725  51.9035  11.3080 0000855 107.9239 252.1829 15.07929470 74914
KUIPER-00010            
1 63726U 25088C   26251.30833158  .00000862  00000+0  14209-3 0  9998
2 63726  51.9041 355.5773 0000431 105.2185 254.8825 14.79920563 74776
KUIPER-00011            
1 63727U 25088D   26251.06389932 -.00000419  00000+0 -25912-4 0  9992
2 63727  51.9020   4.1994 0000645 100.2563 259.8472 14.79923710 74767
KUIPER-00012            
1 63728U 25088E   26250.77617263 -.00000293  00000+0 -94451-5 0  9996
2 63728  51.9023 350.4133 0000277  73.9762 286.1231 14.79923376 74888
KUIPER-00013            
1 63729U 25088F   26250.57228900  .00000819  00000+0  13640-3 0  9992
2 63729  51.9031  23.8340 0000590 110.5309 249.5717 14.79926323 74508
KUIPER-00014            
1 63730U 25088G   26251.07873895 -.00000259  00000+0 -49196-5 0  9996
2 63730  51.9036  21.5379 0000446 112.2012 247.8997 14.79916880 74397
KUIPER-00015            
1 63731U 25088H   26251.10175416  .00000620  00000+0  11037-3 0  9996
2 63731  51.8993  31.4838 0000515 119.6836 240.4178 14.79921656 74714
KUIPER-00016            
1 63732U 25088J   26251.00854120  .00002681  00000+0  38052-3 0  9997
2 63732  51.9007  24.3547 0000546 121.4446 238.6570 14.79930228 74341
KUIPER-00018            
1 63733U 25088K   26250.78296239  .00000885  00000+0  14513-3 0  9993
2 63733  51.9046  15.3973 0000324 114.8023 245.2973 14.79931950 74455
KUIPER-00019            
1 63734U 25088L   26250.60705026  .00000971  00000+0  15631-3 0  9992
2 63734  51.9019  14.9226 0000439 137.9623 222.1373 14.79926695 74448
KUIPER-00020            
1 63735U 25088M   26251.05040092 -.00000274  00000+0 -69217-5 0  9997
2 63735  51.9032  16.7115 0000674 105.6477 254.4560 14.79926236 74662
KUIPER-00021            
1 63736U 25088N   26251.08415210  .00000723  00000+0  12378-3 0  9990
2 63736  51.9016  16.5116 0000532 136.0090 224.0915 14.79928519 74502
KUIPER-00023            
1 63737U 25088P   26250.57498683 -.00000498  00000+0 -36336-4 0  9991
2 63737  51.9019  21.2540 0000547  97.2307 262.8718 14.79925278 74695
KUIPER-00024            
1 63738U 25088Q   26250.52095130 -.00000861  00000+0 -83976-4 0  9993
2 63738  51.9053   9.1049 0000486 102.7278 257.3739 14.79921768 74988
KUIPER-00025            
1 63739U 25088R   26250.74922319 -.00000284  00000+0 -82187-5 0  9999
2 63739  51.9053  15.5762 0000587 114.0030 246.0994 14.79924121 74777
KUIPER-00027            
1 63740U 25088S   26250.51825061  .00000249  00000+0  61688-4 0  9993
2 63740  51.9013  11.5552 0000603 108.1825 251.9204 14.79923870 74547
KUIPER-00028            
1 63741U 25088T   26251.02741906  .00001004  00000+0  16070-3 0  9990
2 63741  51.9005   6.7473 0000369 117.0957 243.0043 14.79931313 75063
KUIPER-00029            
1 63742U 25088U   26251.27347417 -.00004480  00000+0 -55920-3 0  9997
2 63742  51.9039   4.3545 0000251 172.1016 187.9950 14.79924568 74643
KUIPER-00030            
1 63743U 25088V   26250.56959771 -.00000778  00000+0 -73066-4 0  9999
2 63743  51.9025  26.2894 0000477  95.9230 264.1787 14.79929628 74568
KUIPER-00031            
1 63744U 25088W   26251.29484641  .00001317  00000+0  20181-3 0  9997
2 63744  51.9026   8.1050 0000406 110.1452 249.9555 14.79920567 74591
KUIPER-00032            
1 63745U 25088X   26251.28677185  .00015063  00000+0  35289-3 0  9992
2 63745  51.8651 217.7331 0005242  53.5147 306.6324 15.42296267 77681
KUIPER-00033            
1 63746U 25088Y   26250.78975789  .00002600  00000+0  37003-3 0  9997
2 63746  51.9012  40.3370 0000499 108.7905 251.3112 14.79915179 74587
KUIPER-00034            
1 63747U 25088Z   26251.30293761  .00000984  00000+0  15815-3 0  9990
2 63747  51.9036   0.6057 0000568 101.7247 258.3779 14.79924409 74867
KUIPER-00035            
1 63748U 25088AA  26250.66814839 -.00004901  00000+0 -61438-3 0  9991
2 63748  51.9021  28.3772 0000663  79.8501 280.2536 14.79931748 74473
KUIPER-00037            
1 63749U 25088AB  26251.06630184 -.00000195  00000+0  34578-5 0  9993
2 63749  51.9015  25.4769 0000676 104.5716 255.5321 14.79926806 75331
KUIPER-00038            
1 63750U 25088AC  26251.32589125  .00001017  00000+0  16249-3 0  9998
2 63750  51.9040  10.5022 0000676 110.5371 249.5664 14.79921023 74565
KUIPER-00039            
1 64500U 25134A   26250.75824319  .00002206  00000+0  31842-3 0  9994
2 64500  51.9006 148.0107 0000800 104.8869 255.2182 14.79922735 67033
KUIPER-00040            
1 64501U 25134B   26250.17347148  .00001046  00000+0  16621-3 0  9990
2 64501  51.8987 160.6580 0001316  81.6212 278.4899 14.79925593 66804
KUIPER-00041            
1 64502U 25134C   26250.13696893  .00002149  00000+0  31085-3 0  9997
2 64502  51.8989 163.2105 0001087  88.9390 271.1697 14.79931449 66769
KUIPER-00042            
1 64503U 25134D   26250.44625027  .00001666  00000+0  24748-3 0  9994
2 64503  51.8992 156.8197 0000662 100.7888 259.3149 14.79930337 66884
KUIPER-00043            
1 64504U 25134E   26250.11668090  .00001952  00000+0  28506-3 0  9990
2 64504  51.9020 150.7904 0000713  97.8591 262.2452 14.79926184 66943
KUIPER-00044            
1 64505U 25134F   26250.77852134  .00000775  00000+0  13068-3 0  9996
2 64505  51.8985 160.3550 0001101  91.1003 269.0086 14.79929100 66864
KUIPER-00046            
1 64506U 25134G   26251.15262950  .00001182  00000+0  18411-3 0  9991
2 64506  51.8976 156.1717 0001050  89.8323 270.2760 14.79928549 66954
KUIPER-00047            
1 64507U 25134H   26250.94592111  .00002204  00000+0  31809-3 0  9995
2 64507  51.8984 129.6142 0000778  94.8784 265.2268 14.79926801 67300
KUIPER-00048            
1 64508U 25134J   26251.04714721  .00001894  00000+0  27742-3 0  9996
2 64508  51.8989 129.1793 0000587 142.9497 217.1506 14.79923228 67320
KUIPER-00049            
1 64509U 25134K   26250.12208496 -.00000100  00000+0  15891-4 0  9995
2 64509  51.8999 145.7413 0000891 101.6360 258.4702 14.79920840 67013
KUIPER-00050            
1 64510U 25134L   26250.81622500 -.00001070  00000+0 -11140-3 0  9999
2 64510  51.8985 125.1928 0000461 145.4941 214.6051 14.79948716 67368
KUIPER-00051            
1 64511U 25134M   26250.43576893  .00000335  00000+0  72975-4 0  9996
2 64511  51.9006 143.0525 0000955 105.9586 254.1482 14.79927533 67079
KUIPER-00053            
1 64513U 25134P   26249.98595217  .00000502  00000+0  91477-4 0  9991
2 64513  51.9009 139.6108 0002778  91.1543 268.9738 14.81704138 67081
KUIPER-00054            
1 64514U 25134Q   26251.04452909  .00002760  00000+0  39089-3 0  9990
2 64514  51.8972 131.6664 0000995  98.4915 261.6160 14.79928604 67285
KUIPER-00055            
1 64515U 25134R   26250.79190097  .00002550  00000+0  36339-3 0  9991
2 64515  51.9011  85.4321 0000690 105.6068 254.4970 14.79928861 67913
KUIPER-00056            
1 64516U 25134S   26250.39762411  .00000721  00000+0  12357-3 0  9995
2 64516  51.9023 139.6417 0001022  89.1442 270.9638 14.79926992 67127
KUIPER-00057            
1 64517U 25134T   26250.45704888 -.00001653  00000+0 -18798-3 0  9999
2 64517  51.9021 146.7963 0000175 129.3968 230.7010 14.79913775 67021
KUIPER-00058            
1 64518U 25134U   26250.96891292  .00002190  00000+0  31626-3 0  9992
2 64518  51.9005 139.5097 0000791 107.6718 252.4331 14.79929270 67178
KUIPER-00059            
1 64519U 25134V   26250.83924230  .00001958  00000+0  28571-3 0  9994
2 64519  51.8999 135.1187 0001044  92.5734 267.5348 14.79942544 67224
KUIPER-00060            
1 64520U 25134W   26250.94055830  .00002458  00000+0  35132-3 0  9996
2 64520  51.9025 134.7477 0000753 104.4941 255.6105 14.79929932 67228
KUIPER-00061            
1 64521U 25134X   26250.96622948  .00001946  00000+0  28430-3 0  9993
2 64521  51.9006 142.0767 0000926  96.8147 263.2920 14.79925623 67128
KUIPER-00062            
1 64522U 25134Y   26250.42326714  .00000745  00000+0  12674-3 0  9996
2 64522  51.8965 146.9276 0000820 104.2059 255.8994 14.79922072 67021
KUIPER-00063            
1 64523U 25134Z   26250.75284505  .00002622  00000+0  37289-3 0  9999
2 64523  51.8993 153.0607 0001394  95.0823 265.0298 14.79931970 66962
KUIPER-00064            
1 64524U 25134AA  26250.75554764  .00002230  00000+0  32141-3 0  9994
2 64524  51.9035 150.4750 0001173  87.1083 273.0013 14.79928258 67001
KUIPER-00065            
1 64525U 25134AB  26251.15534069  .00002560  00000+0  36470-3 0  9991
2 64525  51.9038 153.8820 0000773 101.5072 258.5977 14.79937397 66970
KUIPER-00066            
1 64526U 25134AC  26250.98634985  .00001359  00000+0  20725-3 0  9991
2 64526  51.9022  91.8975 0000468 124.0137 236.0870 14.79933464 67840
KUIPER-00069            
1 64816U 25151A   26251.24725946  .00002380  00000+0  34119-3 0  9997
2 64816  51.9007 193.3848 0000990  63.4574 296.6490 14.79929143 63792
KUIPER-00070            
1 64817U 25151B   26250.64627307  .00000570  00000+0  10379-3 0  9994
2 64817  51.9002 220.9412 0000839  56.2000 303.9042 14.79928583 63363
KUIPER-00071            
1 64818U 25151C   26251.18921142  .00002494  00000+0  35606-3 0  9996
2 64818  51.8994 216.0858 0000695  90.3016 269.8026 14.79930320 62294
KUIPER-00072            
1 64819U 25151D   26251.24454413  .00000775  00000+0  13074-3 0  9991
2 64819  51.9002 195.7676 0001003  67.5803 292.5266 14.79927012 62586
KUIPER-00073            
1 64820U 25151E   26250.88532161  .00002392  00000+0  34261-3 0  9997
2 64820  51.8988 217.4072 0000856  50.5214 309.5824 14.79937563 63431
KUIPER-00075            
1 64822U 25151G   26250.83554468  .00025499  00000+0  66665-3 0  9994
2 64822  51.8653  53.3549 0003204 190.1316 169.9607 15.38590707 64521
KUIPER-00076            
1 64823U 25151H   26250.62598628  .00001129  00000+0  17715-3 0  9994
2 64823  51.9010 208.5790 0000942  61.9446 298.1611 14.79927926 62357
KUIPER-00077            
1 64824U 25151J   26251.29589928  .00001259  00000+0  19409-3 0  9998
2 64824  51.9010 210.6367 0000817  60.3159 299.7885 14.79937603 62383
KUIPER-00078            
1 64825U 25151K   26251.26483006  .00002803  00000+0  39665-3 0  9998
2 64825  51.8984 208.2463 0000821  67.4255 292.6794 14.79925234 62415
KUIPER-00079            
1 64826U 25151L   26251.29320348  .00000851  00000+0  14058-3 0  9991
2 64826  51.8996 213.0763 0000770  53.6654 306.4380 14.79928416 63544
KUIPER-00080            
1 64827U 25151M   26251.25943374  .00002320  00000+0  33323-3 0  9997
2 64827  51.8992 213.2382 0000667  90.0373 270.0665 14.79934020 62345
KUIPER-00082            
1 64828U 25151N   26251.23916285  .00002722  00000+0  38590-3 0  9994
2 64828  51.8999 200.8892 0000818  67.5174 292.5875 14.79928266 62513
KUIPER-00083            
1 64829U 25151P   26251.23107188  .00000837  00000+0  13875-3 0  9993
2 64829  51.9007 208.4069 0000760  53.9596 306.1437 14.79930000 63592
KUIPER-00084            
1 64830U 25151Q   26251.28780184  .00000358  00000+0  75952-4 0  9996
2 64830  51.8987 218.1424 0000742  94.9927 265.1120 14.79931010 62275
KUIPER-00085            
1 64831U 25151R   26249.31456318  .00001747  00000+0  25807-3 0  9993
2 64831  51.9027 209.4550 0000770  60.7532 299.3507 14.79931096 62226
KUIPER-00086            
1 64832U 25151S   26251.26210671 -.00002685  00000+0 -32344-3 0  9999
2 64832  51.8998 210.7787 0000759  74.2153 285.8893 14.79926542 62370
KUIPER-00087            
1 64833U 25151T   26251.28094173  .00002795  00000+0  39529-3 0  9991
2 64833  51.8986 193.1507 0001063  57.6151 302.4915 14.79961108 62619
KUIPER-00089            
1 64834U 25151U   26251.20808443  .00001829  00000+0  26896-3 0  9997
2 64834  51.8998 198.4992 0000688  89.6926 270.4116 14.79923226 62544
KUIPER-00090            
1 64835U 25151V   26251.21616629  .00002687  00000+0  38143-3 0  9993
2 64835  51.8976 190.9586 0000944  89.9284 270.1787 14.79925777 62647
KUIPER-00091            
1 64836U 25151W   26251.21077835  .00000668  00000+0  11656-3 0  9991
2 64836  51.9013 196.0085 0000774  62.5559 297.5482 14.79934052 62578
KUIPER-00092            
1 64837U 25151X   26251.27022275  .00000360  00000+0  76272-4 0  9991
2 64837  51.9012 203.2320 0000793  87.3264 272.7789 14.79924332 63699
KUIPER-00093            
1 64838U 25151Y   26250.86233915  .00002527  00000+0  36037-3 0  9992
2 64838  51.8983 207.5065 0000801  78.0996 282.0056 14.79938738 62389
KUIPER-00094            
1 64839U 25151Z   26251.18102382  .00003022  00000+0  42523-3 0  9990
2 64839  51.9030 161.2111 0001100  78.8964 281.2122 14.79932405 63064
KUIPER-00081            
1 65132U 25171A   26250.91744414  .00000618  00000+0  11006-3 0  9997
2 65132  51.9006  62.2607 0000640 112.5766 247.5265 14.79929023 60026
KUIPER-00088            
1 65133U 25171B   26250.89856188  .00002761  00000+0  39096-3 0  9997
2 65133  51.8976  79.8448 0000565  92.9730 267.1297 14.79940514 59778
KUIPER-00095            
1 65134U 25171C   26250.85261325  .00002577  00000+0  36700-3 0  9991
2 65134  51.8980  60.0858 0000822 107.5561 252.5491 14.79919363 60046
KUIPER-00096            
1 65135U 25171D   26251.21054700  .00001625  00000+0  24209-3 0  9994
2 65135  51.8995  70.9589 0000648 110.9977 249.1055 14.79929213 59927
KUIPER-00097            
1 65136U 25171E   26250.93774379  .00000739  00000+0  12598-3 0  9997
2 65136  51.9025  74.8328 0000572 120.2254 239.8765 14.79928950 59836
KUIPER-00098            
1 65137U 25171F   26251.20515043  .00002171  00000+0  31365-3 0  9995
2 65137  51.8992  76.0107 0000713 119.4436 240.6597 14.79934921 59194
KUIPER-00099            
1 65138U 25171G   26250.91206735  .00000463  00000+0  89736-4 0  9996
2 65138  51.9027  67.3204 0000987 102.9629 257.1444 14.79925464 59949
KUIPER-00100            
1 65139U 25171H   26250.94850668  .00002299  00000+0  33058-3 0  9994
2 65139  51.9014  64.6247 0000532  88.2803 271.8221 14.79920836 59987
KUIPER-00102            
1 65140U 25171J   26251.01334832  .00001584  00000+0  23671-3 0  9991
2 65140  51.8994  66.8097 0000790 120.0272 240.0769 14.79926451 59954
KUIPER-00103            
1 65141U 25171K   26250.96069612  .00002601  00000+0  36998-3 0  9993
2 65141  51.8983  84.5452 0000788 110.7813 249.3233 14.79941978 59701
KUIPER-00104            
1 65142U 25171L   26250.90665435  .00002407  00000+0  34471-3 0  9991
2 65142  51.9013  72.2994 0000587  97.4039 262.6990 14.79924036 59872
KUIPER-00105            
1 65143U 25171M   26250.72975760  .00000393  00000+0  80603-4 0  9998
2 65143  51.9001  80.6752 0000706 106.5536 253.5504 14.79924675 59747
KUIPER-00106            
1 65144U 25171N   26250.84548714  .00002481  00000+0  35604-3 0  9997
2 65144  51.9009  58.9293 0000297 103.9157 256.1839 14.79730153 60062
KUIPER-00107            
1 65145U 25171P   26250.88367568  .00002570  00000+0  36595-3 0  9997
2 65145  51.9002  62.4357 0000751 118.0101 242.0937 14.79941137 60012
KUIPER-00108            
1 65146U 25171Q   26251.24161876  .00000473  00000+0  91019-4 0  9996
2 65146  51.9029  73.4005 0000654  99.0074 261.0962 14.79930913 59896
KUIPER-00109            
1 65147U 25171R   26250.87556138  .00002320  00000+0  33320-3 0  9997
2 65147  51.9010  69.9594 0000587 102.8537 257.2492 14.79929951 59909
KUIPER-00110            
1 65148U 25171S   26250.89587558  .00000406  00000+0  82218-4 0  9994
2 65148  51.8978  82.4170 0000724 104.7496 255.3546 14.79927511 59729
KUIPER-00111            
1 65149U 25171T   26250.99176369  .00002681  00000+0  38049-3 0  9999
2 65149  51.8962  86.8576 0000830 114.7275 245.3774 14.79936163 59674
KUIPER-00112            
1 65150U 25171U   26250.90934872  .00002211  00000+0  31892-3 0  9991
2 65150  51.9022  69.8555 0000794 111.8861 248.2186 14.79935657 59902
KUIPER-00114            
1 65151U 25171V   26250.85401944  .00002559  00000+0  36457-3 0  9992
2 65151  51.8970  90.0618 0000756 105.3855 254.7191 14.79926914 59611
KUIPER-00115            
1 65152U 25171W   26250.72705126  .00002118  00000+0  30681-3 0  9992
2 65152  51.9008  83.1297 0000764 106.1888 253.9158 14.79927759 59707
KUIPER-00116            
1 65153U 25171X   26251.22814013  .00002612  00000+0  37151-3 0  9993
2 65153  51.8988  85.9463 0000683 107.6568 252.4469 14.79932146 59705
KUIPER-00118            
1 65154U 25171Y   26250.75271923  .00002497  00000+0  35628-3 0  9996
2 65154  51.8997  90.4964 0000890 112.7633 247.3424 14.79943083 59608
KUIPER-00119            
1 65155U 25171Z   26250.96879664  .00002575  00000+0  36660-3 0  9990
2 65155  51.9001  77.1424 0000864 105.9886 254.1171 14.79932516 59800
KUIPER-00120            
1 65762U 25217A   26251.20561534  .00002263  00000+0  32576-3 0  9993
2 65762  51.9005 325.9636 0000351 105.4716 254.6285 14.79933327 51764
KUIPER-00132            
1 65763U 25217B   26251.11778949  .00039136  00000+0  99496-3 0  9997
2 65763  51.8511 195.5215 0004555 250.3672 109.6824 15.39224489 53568
KUIPER-00133            
1 65764U 25217C   26251.23940013  .00002249  00000+0  32398-3 0  9997
2 65764  51.9053 325.9488 0000578  99.6299 260.4728 14.79933020 51773
KUIPER-00139            
1 65765U 25217D   26250.86923620  .00001745  00000+0  25790-3 0  9999
2 65765  51.8989 295.0154 0000425  63.2500 296.8506 14.79929692 52173
KUIPER-00142            
1 65766U 25217E   26250.48164210  .00001718  00000+0  25432-3 0  9993
2 65766  51.9001 311.6954 0000459  80.0152 280.0862 14.79930625 51908
KUIPER-00145            
1 65767U 25217F   26250.88414336  .00001397  00000+0  21223-3 0  9992
2 65767  51.9022 312.4382 0000973  56.6904 303.4151 14.79938341 51927
KUIPER-00147            
1 65768U 25217G   26250.91519855  .00001926  00000+0  28151-3 0  9994
2 65768  51.8997 314.7776 0000189  55.5965 304.5015 14.79929897 51897
KUIPER-00148            
1 65769U 25217H   26250.39386829  .00000067  00000+0  37869-4 0  9992
2 65769  51.9050 299.6275 0000688  76.8613 283.2426 14.79921039 52063
KUIPER-00150            
1 65770U 25217J   26250.49926794  .00000873  00000+0  14355-3 0  9995
2 65770  51.9024 326.6629 0000527 100.2889 259.8133 14.79931145 51690
KUIPER-00151            
1 65771U 25217K   26250.91252198  .00001122  00000+0  17615-3 0  9993
2 65771  51.9027 317.3347 0000447  79.7009 280.4004 14.79931654 51864
KUIPER-00152            
1 65772U 25217L   26250.75717104  .00001771  00000+0  26127-3 0  9997
2 65772  51.9013 305.5015 0000267  59.1217 300.9772 14.79933613 52019
KUIPER-00153            
1 65773U 25217M   26250.42493312 -.00000548  00000+0 -42903-4 0  9998
2 65773  51.9035 302.0567 0000563  90.5445 269.5582 14.79935197 52039
KUIPER-00155            
1 65774U 25217N   26250.04940690 -.00000032  00000+0  24844-4 0  9994
2 65774  51.9033 276.1806 0000613  69.5794 290.5235 14.79928353 52365
KUIPER-00156            
1 65775U 25217P   26250.18856706  .00001638  00000+0  24382-3 0  9992
2 65775  51.9035 303.0845 0000499  90.9459 269.1560 14.79933786 51996
KUIPER-00165            
1 65778U 25217S   26250.44790335  .00001840  00000+0  27024-3 0  9990
2 65778  51.9017 311.8717 0000361  91.8104 268.2900 14.79932178 51890
KUIPER-00166            
1 65779U 25217T   26250.83278015  .00001692  00000+0  25093-3 0  9999
2 65779  51.9031 297.7295 0000417 100.6815 259.4194 14.79932566 52125
KUIPER-00167            
1 65780U 25217U   26251.17992862  .00002250  00000+0  32412-3 0  9996
2 65780  51.8984 318.5205 0000429  76.3802 283.7208 14.79922878 51865
KUIPER-00168            
1 65781U 25217V   26250.86115809  .00001444  00000+0  21832-3 0  9998
2 65781  51.9016 302.5499 0000432  71.8937 288.2073 14.79933859 52068
KUIPER-00169            
1 65782U 25217W   26250.85576112 -.00002659  00000+0 -31984-3 0  9996
2 65782  51.9025 307.5861 0000534 102.4640 257.6383 14.79947693 51998
KUIPER-00170            
1 65783U 25217X   26250.44518586  .00001827  00000+0  26861-3 0  9995
2 65783  51.9001 314.3466 0000500  91.1732 268.9288 14.79927948 51865
KUIPER-00172            
1 65785U 25217Z   26250.76794389 -.00000131  00000+0  11809-4 0  9994
2 65785  51.8999 295.4527 0000551  24.9993 335.0996 14.79922696 52158
KUIPER-00173            
1 65786U 25217AA  26250.21424645  .00001702  00000+0  25225-3 0  9990
2 65786  51.9016 310.4146 0000287  73.0224 287.0770 14.79929379 51894
KUIPER-00174            
1 65787U 25217AB  26250.15207060  .00002649  00000+0  37662-3 0  9993
2 65787  51.9029 305.7518 0000834  64.2129 295.8919 14.79907029 51950
KUIPER-00176            
1 65788U 25217AC  26251.21644518  .00049622  00000+0  65234-2 0  9992
2 65788  51.9011 315.9644 0002301  73.6383 286.4832 14.79717309 51907
KUIPER-00101            
1 65947U 25228A   26250.35056461  .00000107  00000+0  43018-4 0  9992
2 65947  51.8992 277.2411 0000575  70.2023 289.9001 14.79932722 50136
KUIPER-00113            
1 65948U 25228B   26249.44432603  .00000242  00000+0  60709-4 0  9993
2 65948  51.8982 276.2689 0000474  70.9354 289.1660 14.79927538 50068
KUIPER-00117            
1 65949U 25228C   26251.02858586  .00001764  00000+0  26041-3 0  9993
2 65949  51.8988 271.7612 0000485  52.0593 308.0414 14.79925759 50262
KUIPER-00121            
1 65950U 25228D   26251.06774085  .00001715  00000+0  25385-3 0  9996
2 65950  51.9004 266.6096 0000593  42.7080 317.3928 14.79935558 50340
KUIPER-00122            
1 65951U 25228E   26250.11152567 -.00003545  00000+0 -43623-3 0  9997
2 65951  51.8990 280.8080 0000747  76.0871 284.0175 14.79937783 50069
KUIPER-00123            
1 65952U 25228F   26250.75306654  .00001621  00000+0  24163-3 0  9995
2 65952  51.8984 277.9788 0000451  45.8257 314.2743 14.79930603 50150
KUIPER-00124            
1 65953U 25228G   26251.30140097  .00000275  00000+0  65083-4 0  9996
2 65953  51.8984 268.0431 0000438  39.2813 320.8181 14.79929317 50347
KUIPER-00125            
1 65954U 25228H   26250.30463081  .00001380  00000+0  20998-3 0  9990
2 65954  51.8987 257.5033 0000751  61.4480 298.6557 14.79925802 50408
KUIPER-00126            
1 65955U 25228J   26251.32977987  .00001841  00000+0  27044-3 0  9990
2 65955  51.8992 272.9511 0000448  82.5110 277.5903 14.79927544 50275
KUIPER-00127            
1 65956U 25228K   26249.36260683  .00000022  00000+0  31902-4 0  9999
2 65956  51.9010 274.1302 0000427  52.5139 307.5862 14.79930341 50092
KUIPER-00128            
1 65957U 25228L   26251.30411298  .00001675  00000+0  24872-3 0  9999
2 65957  51.9006 265.6106 0000650  87.6604 272.4433 14.79926904 50374
KUIPER-00129            
1 65958U 25228M   26250.73547409 -.00000891  00000+0 -87918-4 0  9992
2 65958  51.9030 263.1049 0000759  84.5469 275.5580 14.79927989 50366
KUIPER-00130            
1 65959U 25228N   26251.30680021  .00001880  00000+0  27555-3 0  9992
2 65959  51.9031 263.1221 0000560  83.3715 276.7311 14.79939155 40701
KUIPER-00134            
1 65960U 25228P   26250.14357329  .00019320  00000+0  52245-3 0  9999
2 65960  51.8726 159.2730 0004407 227.4853 132.5762 15.37720810 51758
KUIPER-00135            
1 65961U 25228Q   26250.05749784  .00001526  00000+0  22912-3 0  9997
2 65961  51.9019 268.6977 0000440  47.3637 312.7362 14.79934748 50226
KUIPER-00136            
1 65962U 25228R   26250.29655035  .00001434  00000+0  21701-3 0  9992
2 65962  51.9013 265.0890 0000428  43.3655 316.7342 14.79934133 50295
KUIPER-00137            
1 65963U 25228S   26251.04207331  .00001711  00000+0  25338-3 0  9997
2 65963  51.9031 259.2999 0000493  22.8135 337.2849 14.79937100 50442
KUIPER-00138            
1 65964U 25228T   26251.01099415  .00001826  00000+0  26844-3 0  9997
2 65964  51.8982 256.8396 0000515  54.0637 306.0373 14.79936633 50479
KUIPER-00140            
1 65965U 25228U   26250.33300374  .00000373  00000+0  77896-4 0  9991
2 65965  51.8994 262.4306 0000735  65.8126 294.2913 14.79926040 50338
KUIPER-00141            
1 65966U 25228V   26250.74358319  .00000807  00000+0  13490-3 0  9990
2 65966  51.9020 255.6884 0000523  61.6403 298.4612 14.79935831 50466
KUIPER-00146            
1 65967U 25228W   26251.31489477  .00002504  00000+0  35738-3 0  9990
2 65967  51.9053 255.6756 0000627 328.6204  31.4721 14.79931466 50513
KUIPER-00149            
1 65968U 25228X   26251.01639250  .00001096  00000+0  17279-3 0  9999
2 65968  51.8992 251.8691 0000507  33.7974 326.3021 14.79936872 50544
KUIPER-00154            
1 65969U 25228Y   26251.25537665 -.00001706  00000+0 -19513-3 0  9996
2 65969  51.8952 248.2942 0001469  77.3488 282.7639 14.79871678 50612
KUIPER-00157            
1 65970U 25228Z   26250.72337327  .00001758  00000+0  25171-3 0  9994
2 65970  51.9021 252.7183 0000256 233.9313 126.1626 14.81280196 50506
KUIPER-00144            
1 67133U 25301A   26251.23669510  .00002271  00000+0  32677-3 0  9998
2 67133  51.9031 328.4022 0000402  93.3769 266.7239 14.79931014 40902
KUIPER-00164            
1 67134U 25301B   26251.29074835  .00002261  00000+0  32556-3 0  9990
2 67134  51.9054 340.6807 0000389  92.7470 267.3537 14.79930989 40910
KUIPER-00175            
1 67135U 25301C   26250.73561358  .00002042  00000+0  29681-3 0  9992
2 67135  51.9019 325.5723 0000325  87.8286 272.2713 14.79928971 40976
KUIPER-00179            
1 67136U 25301D   26250.55059327  .00000481  00000+0  92128-4 0  9993
2 67136  51.9010 341.3904 0000522  93.3369 266.7653 14.79925883 40844
KUIPER-00181            
1 67137U 25301E   26250.53713234  .00000727  00000+0  12435-3 0  9991
2 67137  51.9049 354.0097 0000346  75.0877 285.0124 14.79927953 40641
KUIPER-00183            
1 67138U 25301F   26251.21102517  .00002149  00000+0  31073-3 0  9993
2 67138  51.9034 321.0372 0000422  84.9241 275.1769 14.79933031 41173
KUIPER-00184            
1 67139U 25301G   26250.25211328  .00000237  00000+0  60043-4 0  9994
2 67139  51.9021 337.7208 0000527  88.6466 271.4557 14.79927281 40968
KUIPER-00186            
1 67140U 25301H   26250.57088241  .00002155  00000+0  31153-3 0  9997
2 67140  51.9034 353.8686 0000246 121.4918 238.6069 14.79934229 40490
KUIPER-00187            
1 67141U 25301J   26251.31102486  .00001670  00000+0  24801-3 0  9992
2 67141  51.9047 353.1233 0000675 111.6251 248.4784 14.79930249 40562
KUIPER-00188            
1 67142U 25301K   26250.77206623  .00001838  00000+0  27008-3 0  9998
2 67142  51.9044 323.0933 0000418  94.9200 265.1811 14.79923320 40935
KUIPER-00191            
1 67143U 25301L   26251.28535460  .00001213  00000+0  18811-3 0  9999
2 67143  51.9025 345.7133 0000392 101.3199 258.7808 14.79933783 40690
KUIPER-00196            
1 67144U 25301M   26251.19611497 -.00003688  00000+0 -45480-3 0  9997
2 67144  51.8951 303.5630 0000675  53.3924 306.7100 14.79952773 41249
KUIPER-00204            
1 67145U 25301N   26251.21371462  .00003658  00000+0  50862-3 0  9991
2 67145  51.9039 318.5220 0000092  89.5476 270.5497 14.79926061 41153
KUIPER-00210            
1 67146U 25301P   26250.98146386  .00001673  00000+0  24838-3 0  9999
2 67146  51.9015 347.0042 0000422  98.1859 261.9151 14.79929027 40790
KUIPER-00221            
1 67147U 25301Q   26251.27724048 -.00003920  00000+0 -48556-3 0  9992
2 67147  51.9028 353.2303 0000690  65.9466 294.1569 14.79930606 40568
KUIPER-00232            
1 67148U 25301R   26251.25967674  .00002863  00000+0  40432-3 0  9993
2 67148  51.9010 338.3180 0000435 134.9047 225.1950 14.79937598 40763
KUIPER-00241            
1 67149U 25301S   26251.28264607  .00002120  00000+0  30694-3 0  9998
2 67149  51.9039 348.2377 0000412  95.6205 264.4804 14.79938329 40966
KUIPER-00245            
1 67150U 25301T   26250.59927819  .00002457  00000+0  35116-3 0  9991
2 67150  51.9042 358.7696 0000486 106.8965 253.2050 14.79928655 40422
KUIPER-00246            
1 67151U 25301U   26251.25698074  .00002638  00000+0  37497-3 0  9999
2 67151  51.9016 340.8003 0000477 101.2141 258.8875 14.79931104 40758
KUIPER-00247            
1 67152U 25301V   26251.20021994  .00002214  00000+0  31938-3 0  9990
2 67152  51.8987 331.0012 0000335  43.5551 316.5438 14.79926548 40868
KUIPER-00248            
1 67153U 25301W   26251.21910794  .00002013  00000+0  29303-3 0  9997
2 67153  51.9003 313.5604 0000543  92.7152 267.3873 14.79926409 41273
KUIPER-00249            
1 67154U 25301X   26251.20293811  .00000953  00000+0  15396-3 0  9999
2 67154  51.9010 328.5653 0000257  73.5906 286.5085 14.79929636 40898
KUIPER-00250            
1 67155U 25301Y   26251.28803599  .00002987  00000+0  42064-3 0  9999
2 67155  51.9027 343.1448 0000538 190.9295 169.1656 14.79930548 40736
KUIPER-00251            
1 67156U 25301Z   26250.49117950  .00002034  00000+0  29570-3 0  9991
2 67156  51.9031 334.2403 0000397  92.0204 268.0804 14.79930170 40947
KUIPER-00252            
1 67157U 25301AA  26251.23130507  .00002277  00000+0  32764-3 0  9996
2 67157  51.9016 333.4164 0000444 109.1749 250.9261 14.79928390 40839
KUIPER-00261            
1 67158U 25301AB  26251.25428883  .00001178  00000+0  18358-3 0  9998
2 67158  51.9024 343.3792 0000410  94.7970 265.3039 14.79928055 40699
KUIPER-00265            
1 67159U 25301AC  26251.27187225  .00002535  00000+0  36150-3 0  9991
2 67159  51.9045 358.2772 0000304  62.7877 297.3116 14.79925776 40529
KUIPER-00159            
1 67764U 26030A   26250.90985743  .00001529  00000+0  24758-3 0  9996
2 67764  51.9012  78.2840 0000270 118.0076 242.0912 14.76564643 32844
KUIPER-00160            
1 67765U 26030B   26251.25002315 -.00004637  00000+0 -37154-3 0  9990
2 67765  51.8949  59.0601 0010006 333.2482 281.2760 14.97456978  5104
KUIPER-00177            
1 67766U 26030C   26250.81350086  .00006965  00000+0  94052-3 0  9997
2 67766  51.8975 127.7740 0001267 116.8022 243.3070 14.79986997 32141
KUIPER-00178            
1 67767U 26030D   26250.84734510  .00002181  00000+0  31508-3 0  9992
2 67767  51.9002 127.6076 0000689 100.6252 259.4788 14.79926556 32158
KUIPER-00180            
1 67768U 26030E   26250.85273369  .00000632  00000+0  11198-3 0  9996
2 67768  51.8977 122.5765 0000969 111.9146 248.1920 14.79929047 32225
KUIPER-00197            
1 67769U 26030F   26251.00935836  .00003828  00000+0  53082-3 0  9997
2 67769  51.8975 101.9027 0001113  95.4317 264.6773 14.79940004 32522
KUIPER-00198            
1 67770U 26030G   26250.82705751  .00002061  00000+0  29921-3 0  9992
2 67770  51.8975 115.1826 0000985 103.0037 257.1036 14.79935024 32322
KUIPER-00199            
1 67771U 26030H   26249.70780976  .00013717  00000+0  37643-3 0  9990
2 67771  51.8777  65.8959 0009951 338.8475  21.2099 15.37507695 32915
KUIPER-00200            
1 67772U 26030J   26250.84323272  .00001973  00000+0  28765-3 0  9996
2 67772  51.8976 100.1548 0000737 107.5267 252.5776 14.79939528 32535
KUIPER-00203            
1 67773U 26030K   26250.94323242  .00002143  00000+0  31018-3 0  9990
2 67773  51.9074 132.2779 0001000  86.5850 273.5227 14.79918290 32094
KUIPER-00205            
1 67774U 26030L   26250.98097900  .00002078  00000+0  30151-3 0  9998
2 67774  51.9003  97.0086 0000788  85.9607 274.1445 14.79927871 32590
KUIPER-00208            
1 67775U 26030M   26250.85003471  .00001334  00000+0  20400-3 0  9995
2 67775  51.8968 125.0869 0001405  92.9168 267.1955 14.79926618 32189
KUIPER-00209            
1 67776U 26030N   26251.02157572  .00002630  00000+0  37394-3 0  9998
2 67776  51.8985 121.9267 0000927 117.5367 242.5690 14.79927332 32243
KUIPER-00213            
1 67777U 26030P   26251.26061869  .00002752  00000+0  38991-3 0  9997
2 67777  51.8954 118.3318 0000869 106.7938 253.3120 14.79932587 32310
KUIPER-00214            
1 67778U 26030Q   26251.02696433  .00001750  00000+0  25857-3 0  9997
2 67778  51.9003 116.8964 0000740 108.7884 251.3159 14.79931936 32314
KUIPER-00215            
1 67779U 26030R   26251.27676754  .00002444  00000+0  34946-3 0  9999
2 67779  51.8982 103.1465 0000708 127.5801 232.5226 14.79937328 32538
KUIPER-00218            
1 67780U 26030S   26250.82165899  .00003398  00000+0  47456-3 0  9993
2 67780  51.8951 120.2005 0001250 105.8258 254.2842 14.79930817 32254
KUIPER-00220            
1 67781U 26030T   26250.91616144  .00000469  00000+0  90486-4 0  9996
2 67781  51.8957  94.8082 0000825 107.0169 253.0884 14.79924354 32616
KUIPER-00222            
1 67782U 26030U   26250.99588356  .00002514  00000+0  35871-3 0  9997
2 67782  51.8977 114.5900 0001051  98.6461 261.4620 14.79919985 32345
KUIPER-00223            
1 67783U 26030V   26251.03765923 -.00006305  00000+0 -79868-3 0  9999
2 67783  51.9014 106.7122 0002305 116.1166 244.0034 14.79936310 32469
KUIPER-00225            
1 67784U 26030W   26250.96483446  .00002330  00000+0  33466-3 0  9994
2 67784  51.8976 112.1850 0000946 101.9359 258.1710 14.79921425 32378
KUIPER-00226            
1 67785U 26030X   26250.87353906  .00005407  00000+0  79996-3 0  9998
2 67785  51.9003  99.9329 0003148 358.0738   2.0210 14.76456168 32541
KUIPER-00259            
1 67786U 26030Y   26250.99857227  .00002288  00000+0  32905-3 0  9990
2 67786  51.8977 111.9369 0000877 101.5569 258.5492 14.79936709 32388
KUIPER-00260            
1 67787U 26030Z   26250.86622835  .00002135  00000+0  30902-3 0  9998
2 67787  51.9006 110.1305 0000981 104.9816 255.1255 14.79931957 32304
KUIPER-00262            
1 67788U 26030AA  26250.96751683  .00002494  00000+0  35602-3 0  9994
2 67788  51.8995 109.6000 0001365  91.3757 268.7362 14.79929182 32414
KUIPER-00266            
1 67789U 26030AB  26251.00398049  .00002344  00000+0  33635-3 0  9992
2 67789  51.8983 106.9308 0001091  91.3670 268.7418 14.79930187 32456
KUIPER-00268            
1 67790U 26030AC  26251.04045134  .00012318  00000+0  16431-2 0  9998
2 67790  51.9028 104.3087 0001189 119.1367 240.9714 14.79899835 32494
KUIPER-00270            
1 67791U 26030AD  26251.08497510  .00002365  00000+0  33904-3 0  9998
2 67791  51.8979  94.0645 0000764 111.3979 248.7065 14.79935587 32642
KUIPER-00274            
1 67792U 26030AE  26250.04778300  .00000235  00000+0  59913-4 0  9996
2 67792  51.9020 121.1642 0001148  99.2823 260.8269 14.79923771 32170
KUIPER-00275            
1 67793U 26030AF  26250.94721098  .00000156  00000+0  49505-4 0  9996
2 67793  51.8989  97.1840 0001308 108.1287 251.9818 14.79925575 32588
KUIPER-00276            
1 67794U 26030AG  26250.84053562  .00002055  00000+0  29855-3 0  9995
2 67794  51.8970 102.6338 0001109  66.2141 293.8937 14.79929730 32501
KUIPER-00279            
1 67795U 26030AH  26250.81756559  .00002577  00000+0  36690-3 0  9993
2 67795  51.9022  92.7809 0000912  99.7943 260.3123 14.79927919 32632
KUIPER-00131            
1 68573U 26072A   26251.21889008  .00002699  00000+0  38298-3 0  9996
2 68573  51.9003 188.4857 0000892  70.2615 289.8443 14.79929012 23412
KUIPER-00189            
1 68574U 26072B   26251.18240737  .00002823  00000+0  39920-3 0  9995
2 68574  51.8980 191.1242 0000833  88.4703 271.6355 14.79932632 23377
KUIPER-00192            
1 68575U 26072C   26251.08652366  .00002220  00000+0  32013-3 0  9997
2 68575  51.8985 186.5656 0001018  79.4430 280.6647 14.79931362 23433
KUIPER-00193            
1 68576U 26072D   26251.16484457  .00002861  00000+0  40412-3 0  9994
2 68576  51.9033 176.2631 0001112  91.9464 268.1625 14.79930990 23588
KUIPER-00194            
1 68577U 26072E   26251.19051779  .00002909  00000+0  41046-3 0  9992
2 68577  51.9033 183.6314 0000999  72.5181 287.5891 14.79927893 23489
KUIPER-00229            
1 68578U 26072F   26251.18511866  .00001121  00000+0  17596-3 0  9998
2 68578  51.9001 188.6367 0000667 109.0442 251.0592 14.79933632 23411
KUIPER-00230            
1 68579U 26072G   26251.25002315 -.01850214  00000+0 -13565+0 0  9997
2 68579  51.8890 136.5498 0002815 320.5173  30.0052 15.06713054  1307
KUIPER-00231            
1 68580U 26072H   26250.47196610  .00001589  00000+0  23751-3 0  9996
2 68580  51.8975 164.3644 0002190  85.2694 274.8519 14.79928908 23680
KUIPER-00234            
1 68581U 26072J   26251.08919784  .00000371  00000+0  77714-4 0  9997
2 68581  51.9013 184.0457 0001138  66.0217 294.0864 14.79922937 23464
KUIPER-00236            
1 68582U 26072K   26251.25002315 -.00078275  00000+0 -77911-2 0  9997
2 68582  51.8938 138.4602 0006118 286.7028 232.3107 14.91546098  5413
KUIPER-00244            
1 68583U 26072L   26251.06624157  .00001627  00000+0  24236-3 0  9999
2 68583  51.8989 174.1701 0000984  77.5835 282.5238 14.79926648 23606
KUIPER-00253            
1 68584U 26072M   26251.19860271  .00002842  00000+0  40173-3 0  9991
2 68584  51.9027 176.1073 0000963  80.4311 279.6760 14.79928480 23584
KUIPER-00254            
1 68585U 26072N   26251.22966752  .00002888  00000+0  40763-3 0  9992
2 68585  51.9017 178.4676 0001162  38.4123 321.6922 14.79932485 23559
KUIPER-00263            
1 68586U 26072P   26251.17831932  .00002970  00000+0  41838-3 0  9994
2 68586  51.9013 163.7634 0000778 103.2777 256.8273 14.79937933 23758
KUIPER-00269            
1 68587U 26072Q   26251.17562169  .00002498  00000+0  35664-3 0  9993
2 68587  51.8990 166.1831 0000988  84.0062 276.1013 14.79931073 23727
KUIPER-00272            
1 68588U 26072R   26251.18780249  .00001644  00000+0  24469-3 0  9999
2 68588  51.8957 186.0978 0001071  81.4103 278.6980 14.79931091 23444
KUIPER-00285            
1 68589U 26072S   26251.07432611 -.00000261  00000+0 -52511-5 0  9992
2 68589  51.9036 166.7085 0001555  31.0820 329.0235 14.79928780 23706
KUIPER-00286            
1 68590U 26072T   26250.19911996  .00000027  00000+0  32498-4 0  9993
2 68590  51.9014 168.0111 0000826  95.0044 265.1013 14.79938737 23614
KUIPER-00289            
1 68591U 26072U   26251.20398927  .00002131  00000+0  30844-3 0  9990
2 68591  51.8972 171.0475 0001075  80.2008 279.9075 14.79930019 23657
KUIPER-00290            
1 68592U 26072V   26251.15442369  .00000559  00000+0  11024-3 0  9996
2 68592  51.9031 171.1089 0001417  19.9163 340.1853 14.76419927 23650
KUIPER-00293            
1 68593U 26072W   26251.26073250  .00002359  00000+0  33837-3 0  9994
2 68593  51.8976 180.7753 0001575  15.9428 344.1584 14.79925638 23522
KUIPER-00294            
1 68594U 26072X   26251.20667819  .00004001  00000+0  55336-3 0  9993
2 68594  51.9009 168.5371 0000787 100.1587 259.9464 14.79945325 23691
KUIPER-00296            
1 68595U 26072Y   26250.44895384  .00000335  00000+0  73027-4 0  9993
2 68595  51.9016 154.4038 0000833  88.9994 271.1064 14.79925730 23826
KUIPER-00297            
1 68596U 26072Z   26251.15943624  .00002537  00000+0  36170-3 0  9997
2 68596  51.8996 181.2224 0001371  87.3870 272.7249 14.79931533 23518
KUIPER-00300            
1 68597U 26072AA  26251.19590402  .00002592  00000+0  36889-3 0  9992
2 68597  51.9014 178.5932 0000766 101.3970 258.7079 14.79930981 23556
KUIPER-00301            
1 68598U 26072AB  26250.44338125  .00001277  00000+0  21231-3 0  9996
2 68598  51.9023 151.1510 0002216 157.0639 203.0422 14.76488154 23864
KUIPER-00304            
1 68599U 26072AC  26251.01563995  .00001367  00000+0  22437-3 0  9995
2 68599  51.9007 150.5980 0000363 335.1556  24.9387 14.76605967 23929
KUIPER-00317            
1 68600U 26072AD  26250.49761036  .00001695  00000+0  25136-3 0  9998
2 68600  51.8992 171.6784 0000669  93.8628 266.2411 14.79930481 23583
KUIPER-00320            
1 68601U 26072AE  26250.15458448  .00000347  00000+0  74489-4 0  9991
2 68601  51.9021 178.2084 0000903  92.5349 267.5717 14.79926354 23465
KUIPER-00299            
1 68864U 26095A   26250.37305589  .00001337  00000+0  22076-3 0  9992
2 68864  51.8988 247.1041 0002548  71.2673 288.8564 14.76484621 19786
KUIPER-00353            
1 68865U 26095B   26250.97313864  .00002042  00000+0  29678-3 0  9993
2 68865  51.8997 229.5795 0000632  65.2140 294.8888 14.79930531 20081
KUIPER-00357            
1 68866U 26095C   26251.26892829  .00000942  00000+0  15257-3 0  9995
2 68866  51.9010 235.7795 0000747  23.2369 336.8627 14.79932411 20023
KUIPER-00364            
1 68867U 26095D   26251.23247023  .00002035  00000+0  29580-3 0  9992
2 68867  51.9037 238.4619 0001054  22.7807 337.3202 14.79935070 19983
KUIPER-00375            
1 68868U 26095E   26251.20680494  .00002075  00000+0  30122-3 0  9991
2 68868  51.9011 231.0510 0000670  76.7408 283.3629 14.79924695 20081
KUIPER-00433            
1 68869U 26095F   26250.71791160  .00001781  00000+0  26255-3 0  9995
2 68869  51.9002 248.2081 0000686  27.7396 332.3603 14.79933630 19808
KUIPER-00437            
1 68870U 26095G   26251.25002315 -.01938736  00000+0 -85791-1 0  9994
2 68870  51.8818 201.0140 0006104 252.1528 153.4765 15.24465155  5819
KUIPER-00448            
1 68871U 26095H   26250.32093558  .00001299  00000+0  21619-3 0  9994
2 68871  51.9034 239.5914 0002839  15.3929 344.7118 14.76316298 19889
KUIPER-00459            
1 68872U 26095J   26251.28242444  .00002250  00000+0  32400-3 0  9999
2 68872  51.9021 223.2781 0000662  81.8988 278.2050 14.79936769 20199
KUIPER-00468            
1 68873U 26095K   26250.30974598  .00001383  00000+0  22671-3 0  9999
2 68873  51.8975 224.8223 0001196 152.7678 207.3346 14.76610369 20094
KUIPER-00476            
1 68874U 26095L   26251.25002315 -.02165677  00000+0 -12747+0 0  9994
2 68874  51.8814 204.9901 0009396 229.2030 343.2419 15.15110186  5888
KUIPER-00478            
1 68875U 26095M   26250.94206507  .00001139  00000+0  17834-3 0  9993
2 68875  51.8970 227.2209 0001008  43.5510 316.5532 14.79935823 20117
KUIPER-00480            
1 68876U 26095N   26250.64088010 -.00002333  00000+0 -27698-3 0  9996
2 68876  51.9039 226.0647 0000662  79.9150 280.1887 14.79946437 20107
KUIPER-00482            
1 68877U 26095P   26250.69762592  .00001973  00000+0  28772-3 0  9997
2 68877  51.9007 235.8019 0001063 349.8736  10.2205 14.79927125 19971
KUIPER-00483            
1 68878U 26095Q   26251.22430831  .00001800  00000+0  26498-3 0  9998
2 68878  51.8982 245.9370 0001590 297.4453  62.6348 14.79956351 19875
KUIPER-00488            
1 68879U 26095R   26250.33161257  .00001894  00000+0  27746-3 0  9993
2 68879  51.9003 232.4279 0000838  52.3681 307.7357 14.79927859 19981
KUIPER-00489            
1 68880U 26095S   26251.21759045  .00000425  00000+0  84751-4 0  9990
2 68880  51.8940 220.9938 0001136  62.3574 297.7503 14.79926698 20220
KUIPER-00499            
1 68881U 26095T   26250.97584756  .00001990  00000+0  29008-3 0  9999
2 68881  51.8987 227.1202 0000748  46.8047 313.2978 14.79923499 20119
KUIPER-00500            
1 68882U 26095U   26250.68683160  .00001644  00000+0  24453-3 0  9992
2 68882  51.9014 245.8493 0000672  73.4774 286.6262 14.79934015 19832
KUIPER-00502            
1 68883U 26095V   26250.36634622  .00000593  00000+0  10686-3 0  9992
2 68883  51.9008 223.5180 0000878  34.0033 326.0986 14.79925767 20110
KUIPER-00503            
1 68884U 26095W   26250.04800164  .00001517  00000+0  22801-3 0  9993
2 68884  51.8981 246.1491 0000552  54.1758 305.9255 14.79925080 19775
KUIPER-00504            
1 68885U 26095X   26251.01908568  .00001828  00000+0  26869-3 0  9992
2 68885  51.9015 249.3832 0000601  88.9114 271.1917 14.79935445 19815
KUIPER-00505            
1 68886U 26095Y   26251.26622104  .00001051  00000+0  16683-3 0  9990
2 68886  51.9006 238.2929 0000861  88.8848 271.2213 14.79943250 19982
KUIPER-00507            
1 68887U 26095Z   26250.92248492  .00000677  00000+0  11774-3 0  9996
2 68887  51.9004 229.7973 0000470  71.4489 288.6524 14.79932656 20077
KUIPER-00511            
1 68888U 26095AA  26250.37346912  .00001927  00000+0  28174-3 0  9993
2 68888  51.8990 224.8397 0000890  10.1144 349.9836 14.79935913 20099
KUIPER-00512            
1 68889U 26095AB  26251.22977421  .00001131  00000+0  17740-3 0  9998
2 68889  51.8998 240.9546 0001285  69.4517 290.6584 14.79936951 19940
KUIPER-00519            
1 68890U 26095AC  26250.36268711  .00000165  00000+0  50703-4 0  9992
2 68890  51.9020 234.8520 0000535 101.4188 258.6834 14.79924383 19950
KUIPER-00521            
1 68891U 26095AD  26250.36096856  .00000282  00000+0  65981-4 0  9996
2 68891  51.9028 228.5543 0000844  82.0634 278.0424 14.79919931 20043
KUIPER-00524            
1 68892U 26095AE  26250.93412355  .00032684  00000+0  43019-2 0  9993
2 68892  51.8984 234.7400 0000540 147.6376 212.4619 14.79869225 20003
KUIPER-00370            
1 68919U 26098A   26250.82691497  .00002564  00000+0  36538-3 0  9993
2 68919  51.8991  52.5914 0000676 108.7919 251.3116 14.79920178 19724
KUIPER-00380            
1 68920U 26098B   26250.83502630  .00002531  00000+0  36092-3 0  9995
2 68920  51.8981  45.1934 0000497  83.0529 277.0490 14.79935270 19828
KUIPER-00386            
1 68921U 26098C   26250.84922887  .00001575  00000+0  23551-3 0  9990
2 68921  51.8997  47.6240 0000560 112.4488 247.6534 14.79929876 19798
KUIPER-00388            
1 68922U 26098D   26251.15921540  .00002659  00000+0  37766-3 0  9998
2 68922  51.9009  56.4141 0000619 117.8783 242.2242 14.79935231 19692
KUIPER-00405            
1 68923U 26098E   26250.90866541  .00000393  00000+0  80633-4 0  9995
2 68923  51.9019  54.8745 0001412 158.4102 201.6920 14.79929210 19696
KUIPER-00408            
1 68924U 26098F   26251.16997665  .00001337  00000+0  20438-3 0  9992
2 68924  51.9014  46.1349 0000630 127.1849 232.9171 14.79936103 19849
KUIPER-00409            
1 68925U 26098G   26251.08017283  .00001445  00000+0  21852-3 0  9994
2 68925  51.9045  51.6163 0000664 127.1046 232.9977 14.79929965 19757
KUIPER-00410            
1 68926U 26098H   26250.74522212  .00000219  00000+0  57715-4 0  9996
2 68926  51.8975  50.5759 0001470 116.2948 243.8165 14.79927402 19747
KUIPER-00412            
1 68927U 26098J   26251.14162120 -.00001013  00000+0 -10386-3 0  9997
2 68927  51.9037  41.3526 0000949 106.8757 253.2310 14.79935196 19905
KUIPER-00413            
1 68928U 26098K   26250.82424391  .00002443  00000+0  34935-3 0  9995
2 68928  51.8987  55.2311 0001203 132.7304 227.3760 14.79934019 19684
KUIPER-00414            
1 68929U 26098L   26251.18488577  .00001174  00000+0  18310-3 0  9991
2 68929  51.8982  63.7222 0002032 106.4653 253.6533 14.79927357 19598
KUIPER-00415            
1 68930U 26098M   26250.73104058 -.00000451  00000+0 -30198-4 0  9990
2 68930  51.9005  48.1573 0000701 102.6377 257.4664 14.79929966 19770
KUIPER-00416            
1 68931U 26098N   26251.15387914  .00002557  00000+0  36642-3 0  9998
2 68931  51.9026  37.6379 0001083 106.9640 253.1441 14.79684224 19956
KUIPER-00420            
1 68932U 26098P   26250.67159933  .00002443  00000+0  34940-3 0  9996
2 68932  51.9008  40.8834 0000633 110.1459 249.9571 14.79930960 19873
KUIPER-00421            
1 68933U 26098Q   26250.93632569  .00002412  00000+0  34527-3 0  9994
2 68933  51.9018  44.6971 0000485  89.9521 270.1497 14.79930548 19849
KUIPER-00425            
1 68934U 26098R   26251.13083009  .00001536  00000+0  23045-3 0  9996
2 68934  51.8999  51.3836 0000460 106.0028 254.0985 14.79925394 19765
KUIPER-00430            
1 68935U 26098S   26251.19564674  .00002060  00000+0  29912-3 0  9997
2 68935  51.9037  53.4936 0001517 124.1062 236.0045 14.79930617 19746
KUIPER-00431            
1 68936U 26098T   26250.85531224  .00000668  00000+0  11661-3 0  9999
2 68936  51.8998  57.5884 0000962 138.5675 221.5361 14.79929122 19650
KUIPER-00432            
1 68937U 26098U   26251.13352232  .00002613  00000+0  37171-3 0  9998
2 68937  51.9002  48.7574 0000561 106.7738 253.3286 14.79927792 19805
KUIPER-00434            
1 68938U 26098V   26250.88534854  .00001674  00000+0  26874-3 0  9996
2 68938  51.9009  53.6303 0001910 102.0562 258.0613 14.76490363 19713
KUIPER-00436            
1 68939U 26098W   26251.18147600  .00001792  00000+0  26403-3 0  9999
2 68939  51.9006  51.1603 0000653 118.1001 242.0028 14.79934903 19771
KUIPER-00438            
1 68940U 26098X   26251.18418145  .00001821  00000+0  26775-3 0  9991
2 68940  51.9041  48.6686 0000639 137.0153 223.0859 14.79935718 19806
KUIPER-00439            
1 68941U 26098Y   26251.16766265  .00048044  00000+0  62914-2 0  9991
2 68941  51.9030  48.7368 0000982  48.4075 311.6972 14.79898241 19801
KUIPER-00440            
1 68942U 26098Z   26250.71955955  .00002666  00000+0  37857-3 0  9997
2 68942  51.9025  43.2121 0000103 358.4150   1.6812 14.79928507 19848
KUIPER-00442            
1 68943U 26098AA  26250.90621460  .00001613  00000+0  25986-3 0  9991
2 68943  51.9027  44.7709 0001811 105.9632 254.1529 14.76526954 19832
KUIPER-00446            
1 68944U 26098AB  26251.15309873  .00000883  00000+0  14485-3 0  9991
2 68944  51.8987  46.2995 0001029 203.4152 156.6764 14.79927829 19839
KUIPER-00451            
1 68945U 26098AC  26250.87219303  .00002440  00000+0  34891-3 0  9992
2 68945  51.8990  57.5229 0000813 128.0916 232.0120 14.79934292 19656
KUIPER-00452            
1 68946U 26098AD  26251.02074695  .00001847  00000+0  27127-3 0  9998
2 68946  51.9023  44.3792 0000738  96.1413 263.9633 14.79928034 19858
KUIPER-00453            
1 68947U 26098AE  26250.90526312  .00000438  00000+0  86575-4 0  9991
2 68947  51.8994  42.3135 0002751 109.6092 250.5168 14.79926819 19870
KUIPER-00454            
1 68948U 26098AF  26250.87529142  .00001704  00000+0  27296-3 0  9993
2 68948  51.9010  59.8847 0002134 322.6134  37.4678 14.76503106 19621
KUIPER-00455            
1 68949U 26098AG  26250.83843613  .00000678  00000+0  11807-3 0  9992
2 68949  51.9001  57.6760 0002356 107.2220 252.9000 14.79926064 19652
KUIPER-00458            
1 68950U 26098AH  26250.82081992  .00001275  00000+0  19633-3 0  9996
2 68950  51.9030  42.7755 0000408  96.6933 263.4076 14.79921652 19853
KUIPER-00282            
1 69267U 26118A   26251.09905683  .00002912  00000+0  41086-3 0  9999
2 69267  51.8969  34.0060 0000769 137.7361 222.3661 14.79924920 16436
KUIPER-00383            
1 69268U 26118B   26250.64593585  .00000581  00000+0  10528-3 0  9991
2 69268  51.8994  33.5295 0000760 125.0267 235.0767 14.79929632 16405
KUIPER-00527            
1 69269U 26118C   26251.08488597  .00001099  00000+0  17309-3 0  9996
2 69269  51.8990  31.7199 0000732 117.6535 242.4501 14.79931429 16460
KUIPER-00562            
1 69270U 26118D   26251.05915152  .00002731  00000+0  38677-3 0  9992
2 69270  51.9030  24.1425 0000560 132.2500 227.8510 14.79962980 16575
KUIPER-00570            
1 69271U 26118E   26250.60677582  .00000660  00000+0  11556-3 0  9991
2 69271  51.9017  38.8045 0000471 107.7588 252.3426 14.79924410 16312
KUIPER-00572            
1 69272U 26118F   26250.66279324  .00000828  00000+0  13763-3 0  9998
2 69272  51.9009  33.4471 0000532 117.7305 242.3711 14.79922197 16400
KUIPER-00581            
1 69273U 26118G   26251.13010963  .00001671  00000+0  24814-3 0  9990
2 69273  51.9017  36.3895 0001751 143.8318 216.2764 14.79929342 16496
KUIPER-00584            
1 69274U 26118H   26251.11056194  .00012055  00000+0  16081-2 0  9999
2 69274  51.9007  39.0852 0000723 129.1293 230.9734 14.79914522 16366
KUIPER-00587            
1 69275U 26118J   26250.39537427  .00002002  00000+0  29160-3 0  9996
2 69275  51.9021  32.1387 0000938  75.4953 284.6113 14.79920378 16402
KUIPER-00590            
1 69276U 26118K   26251.13281799  .00001876  00000+0  27492-3 0  9992
2 69276  51.9028  33.8868 0000994 124.2829 235.8228 14.79940912 16444
KUIPER-00592            
1 69277U 26118L   26250.77832481  .00002438  00000+0  34897-3 0  9994
2 69277  51.9029  35.3335 0000702 101.5043 258.5998 14.79894939 16392
KUIPER-00593            
1 69278U 26118M   26251.25002315  .00008908  00000+0  10484-2 0  9997
2 69278  51.8999  15.9777 0002448  23.8522 174.9474 14.85445656  4997
KUIPER-00594            
1 69279U 26118N   26251.06182861  .00001220  00000+0  18913-3 0  9998
2 69279  51.9039  21.7030 0001519  60.4974 299.6140 14.79910574 16602
KUIPER-00595            
1 69280U 26118P   26251.25002315  .00024035  00000+0  25804-2 0  9991
2 69280  51.8974  15.9989 0005114  81.2999 250.5023 14.88444973  5544
KUIPER-00596            
1 69281U 26118Q   26250.89108415  .00002173  00000+0  31405-3 0  9993
2 69281  51.9019  39.9503 0000554 110.7059 249.3963 14.79924508 16337
KUIPER-00597            
1 69282U 26118R   26251.25002315  .00037873  00000+0  53735-2 0  9991
2 69282  51.8985  18.3090 0000305 191.6552 286.3862 14.76613319  3888
KUIPER-00599            
1 69283U 26118S   26251.12132824  .00001072  00000+0  16958-3 0  9996
2 69283  51.9019  28.8450 0000639 140.2311 219.8699 14.79927970 16514
KUIPER-00600            
1 69284U 26118T   26251.25002315  .00004021  00000+0  52789-3 0  9991
2 69284  51.8992  18.3005 0002068 123.7925 133.2467 14.82157440  1303
KUIPER-00601            
1 69285U 26118U   26250.67699391  .00000576  00000+0  10454-3 0  9997
2 69285  51.9029  35.8947 0000652 100.3689 259.7347 14.79924559 16373
KUIPER-00602            
1 69286U 26118V   26250.75261112  .00001152  00000+0  18013-3 0  9993
2 69286  51.9023  27.9742 0001139 154.0872 206.0147 14.79926580 16496
KUIPER-00603            
1 69287U 26118W   26251.10444367  .00000554  00000+0  10170-3 0  9990
2 69287  51.9036  29.0070 0000603  98.4326 261.6705 14.79929772 16503
KUIPER-00605            
1 69288U 26118X   26250.89376135 -.00002597  00000+0 -31181-3 0  9999
2 69288  51.8991  37.4211 0000698 124.8186 235.2842 14.79930322 16372
KUIPER-00606            
1 69289U 26118Y   26251.02003876  .00001708  00000+0  25300-3 0  9992
2 69289  51.9013  29.3797 0000734 129.9505 230.1522 14.79930559 16494
KUIPER-00607            
1 69290U 26118Z   26251.25002315  .00014156  00000+0  18808-2 0  9991
2 69290  51.9013  18.3688 0001316  35.4222 142.9793 14.79959107  5541
KUIPER-00608            
1 69291U 26118AA  26251.25002315  .00018715  00000+0  24763-2 0  9994
2 69291  51.9013  20.7285 0002195  66.5546  36.2631 14.79946319  5493
KUIPER-00610            
1 69292U 26118AB  26251.12402310  .00001930  00000+0  28215-3 0  9998
2 69292  51.9046  26.4187 0000556 106.7132 253.3892 14.79928026 16545
KUIPER-00613            
1 69293U 26118AC  26251.11324335  .00000409  00000+0  82690-4 0  9996
2 69293  51.9002  36.4657 0000654  95.6610 264.4427 14.79924073 16407
KUIPER-00618            
1 69294U 26118AD  26250.75528219 -.00011695  00000+0 -15062-2 0  9991
2 69294  51.9033  25.5545 0002565 144.1071 216.0064 14.79971566 16523
KUIPER-00620            
1 69295U 26118AE  26251.10715401  .00002502  00000+0  35722-3 0  9994
2 69295  51.9032  26.5027 0000669 103.1211 256.9826 14.79922561 16545
KUIPER-00423            
1 69592U 26140A   26251.25002315 -.01876057  00000+0 -15759+0 0  9999
2 69592  51.8956 358.8693 0013087  96.6458   1.3404 15.01587827  5467
KUIPER-00428            
1 69593U 26140B   26250.63314262  .00019722  00000+0  53338-3 0  9992
2 69593  51.8817   0.3266 0006089 217.8130 142.2430 15.37696450 13912
KUIPER-00481            
1 69594U 26140C   26251.25002315  .00000710  00000+0  13035-3 0  9992
2 69594  51.9019   2.9072 0004151 317.3367  13.0257 14.76939988  3118
KUIPER-00490            
1 69595U 26140D   26251.07532004 -.00003054  00000+0 -37178-3 0  9996
2 69595  51.9052   9.0847 0000572 124.4140 235.6877 14.79933583 13831
KUIPER-00493            
1 69596U 26140E   26251.30633511  .00002784  00000+0  39412-3 0  9998
2 69596  51.9047  13.1157 0000634 216.9013 143.1906 14.79930493 13799
KUIPER-00496            
1 69597U 26140F   26251.25002315 -.01665220  00000+0 -85618-1 0  9995
2 69597  51.8820   0.0403 0008705 234.1784  37.8149 15.19414762  4497
KUIPER-00513            
1 69598U 26140G   26251.31167597 -.00002076  00000+0 -24333-3 0  9999
2 69598  51.9012   8.0892 0000908  96.6445 263.4621 14.79936788 13869
KUIPER-00516            
1 69599U 26140H   26251.25002315 -.00871858  00000+0 -33773-1 0  9997
2 69599  51.8818 357.1848 0007628 177.5390  89.1590 15.28361972  5395
KUIPER-00517            
1 69600U 26140J   26250.52853596  .00020592  00000+0  56774-3 0  9991
2 69600  51.8771   0.3597 0010202 125.1393 235.0551 15.37038170 13904
KUIPER-00520            
1 69601U 26140K   26251.06231946  .00001770  00000+0  28172-3 0  9999
2 69601  51.9032  10.8857 0001272 153.5631 206.5395 14.76596339 13804
KUIPER-00522            
1 69602U 26140L   26251.25002315 -.00024448  00000+0 -18724-2 0  9997
2 69602  51.8928 359.2554 0017015  89.2151 230.0349 15.01018792  5281
KUIPER-00528            
1 69603U 26140M   26250.75190480  .00000579  00000+0  10496-3 0  9999
2 69603  51.9042  13.0803 0000517  97.6101 262.4920 14.79923616 13747
KUIPER-00532            
1 69604U 26140N   26251.25002315 -.01640855  00000+0 -89522-1 0  9999
2 69604  51.8900 358.3946 0003075 190.4641 220.3720 15.17387740  5811
KUIPER-00533            
1 69605U 26140P   26251.25002315  .00052024  00000+0  68167-2 0  9995
2 69605  51.9022   5.8715 0000828 108.9515  87.2290 14.79833049  5393
KUIPER-00534            
1 69606U 26140Q   26250.72063484 -.00027616  00000+0 -85704-3 0  9999
2 69606  51.8819   0.1640 0013058  93.2576 266.9903 15.32460412 13929
KUIPER-00537            
1 69607U 26140R   26250.73238232  .00002812  00000+0  39737-3 0  9990
2 69607  51.9021  15.5753 0000596 311.8376  48.2535 14.79970767 13719
KUIPER-00538            
1 69608U 26140S   26251.03861049  .00002822  00000+0  39826-3 0  9993
2 69608  51.9028  11.7399 0000776  79.6878 280.4172 14.80013517 13795
KUIPER-00540            
1 69609U 26140T   26250.55891744  .00018604  00000+0  49787-3 0  9997
2 69609  51.8828   0.5948 0005082 213.2413 146.8255 15.38068508 13909
KUIPER-00541            
1 69610U 26140U   26251.25002315 -.00673986  00000+0 -20109-1 0  9992
2 69610  51.8844 356.7515 0007558 148.4081 323.1832 15.36385684  5856
KUIPER-00542            
1 69611U 26140V   26251.29379873  .00029258  00000+0  78838-3 0  9992
2 69611  51.8797 356.5042 0007919 131.3788 228.7881 15.37560845 14021
KUIPER-00543            
1 69612U 26140W   26251.25002315 -.02151084  00000+0 -12459+0 0  9993
2 69612  51.8894 358.2675 0006151 228.2873 173.9403 15.15688532  5660
KUIPER-00544            
1 69613U 26140X   26251.25002315 -.00771200  00000+0 -23152-1 0  9994
2 69613  51.8802 356.7601 0005536 137.6404 320.2748 15.36553249  5535
KUIPER-00546            
1 69614U 26140Y   26251.25002315 -.00014685  00000+0 -11202-2 0  9996
2 69614  51.8956 359.2424 0019468  90.1253 297.2166 15.00791461  4763
KUIPER-00547            
1 69615U 26140Z   26251.02406539  .00038140  00000+0  98076-3 0  9993
2 69615  51.8834 357.7253 0010233 116.4390 243.7649 15.38848337 13989
KUIPER-00549            
1 69616U 26140AA  26251.25002315 -.00991328  00000+0 -36664-1 0  9994
2 69616  51.8844 357.3654 0005958 212.8207 293.6962 15.29785486  5784
KUIPER-00550            
1 69617U 26140AB  26251.25002315 -.00982734  00000+0 -41547-1 0  9992
2 69617  51.8810   0.9570 0008104 253.2061 302.2086 15.25377102  5871
KUIPER-00551            
1 69618U 26140AC  26251.01427533  .00019930  00000+0  52897-3 0  9999
2 69618  51.8791 357.6332 0011624 109.0012 251.2236 15.38225221 13982
KUIPER-00554            
1 69619U 26140AD  26251.28402486  .00021013  00000+0  57525-3 0  9997
2 69619  51.8787 356.4410 0009655 118.6026 241.5934 15.37251355 14023
KUIPER-00555            
1 69620U 26140AE  26251.27949387  .00036911  00000+0  95059-3 0  9991
2 69620  51.8823 356.4401 0011675 106.8594 253.3674 15.38802349 14028
KUIPER-00556            
1 69621U 26140AF  26251.25002315 -.00038246  00000+0 -38574-2 0  9994
2 69621  51.8983   1.1108 0016438  95.0953 111.3224 14.90562453  5675
KUIPER-00557            
1 69622U 26140AG  26250.77970052  .00019366  00000+0  51175-3 0  9996
2 69622  51.8814 359.0749 0009166 123.8825 236.3035 15.38404914 13940
KUIPER-00560            
1 69623U 26140AH  26251.26069716  .00023645  00000+0  65235-3 0  9995
2 69623  51.8801 357.0249 0008196 145.5654 214.5865 15.36946308 14017
KUIPER-00561            
1 69624U 26140AJ  26251.25002315  .00034071  00000+0  44804-2 0  9990
2 69624  51.9020   5.8386 0001197 108.7940 267.9891 14.79887338  5569
KUIPER-00564            
1 69625U 26140AK  26251.25002315  .00003480  00000+0  48709-3 0  9990
2 69625  51.8982   3.1125 0001021 319.6914 346.5686 14.79765847  5777
KUIPER-00567            
1 69626U 26140AL  26251.25002315  .00010645  00000+0  12055-2 0  9996
2 69626  51.8977   1.0156 0014943  83.7837  11.2650 14.86786615  5291
KUIPER-00573            
1 69627U 26140AM  26251.25002315  .00003028  00000+0  41737-3 0  9994
2 69627  51.9019   3.3799 0002738 107.4429 252.2649 14.80815380  5356
KUIPER-00258            
1 69763U 26151A   26251.25002315 -.01998427  00000+0 -96427-1 0  9990
2 69763  51.8749 276.1811 0011725  11.1901 114.6025 15.21592400  5791
KUIPER-00526            
1 69764U 26151B   26250.77334665  .00001610  00000+0  24018-3 0  9998
2 69764  51.8991 290.5468 0000579  80.7708 279.3320 14.79916608 10213
KUIPER-00558            
1 69765U 26151C   26250.80712637  .00000732  00000+0  12497-3 0  9994
2 69765  51.8972 290.3180 0000609  99.4836 260.6195 14.79928764 10225
KUIPER-00569            
1 69766U 26151D   26251.16436570  .00000363  00000+0  76599-4 0  9998
2 69766  51.9024 286.2276 0000530  50.1193 309.9816 14.79930074 10312
KUIPER-00589            
1 69767U 26151E   26250.16538900  .00001024  00000+0  17613-3 0  9994
2 69767  51.9009 293.4043 0002421  33.4149 326.6964 14.76516351 10128
KUIPER-00598            
1 69768U 26151F   26251.25002315 -.00060746  00000+0 -74777-2 0  9993
2 69768  51.8995 280.9028 0002188  72.5598 248.8494 14.82802246  5886
KUIPER-00604            
1 69769U 26151G   26250.81879140  .00001157  00000+0  19503-3 0  9999
2 69769  51.9018 285.1606 0002820 334.6714  25.4108 14.76537459 10294
KUIPER-00609            
1 69770U 26151H   26251.25002315 -.00029444  00000+0 -41649-2 0  9998
2 69770  51.9008 280.4016 0001693   2.4086 123.6967 14.76616631  5891
KUIPER-00611            
1 69771U 26151J   26250.39055406  .00008992  00000+0  12070-2 0  9991
2 69771  51.8980 287.1517 0001773 295.3738  64.7041 14.79934100 10235
KUIPER-00612            
1 69772U 26151K   26251.09124827  .00001266  00000+0  21004-3 0  9999
2 69772  51.9013 286.3405 0000508  60.4828 299.6184 14.76628791 10305
KUIPER-00614            
1 69773U 26151L   26250.37364121  .00001551  00000+0  23247-3 0  9991
2 69773  51.8984 287.2966 0000833  60.0809 300.0236 14.79925054 10221
KUIPER-00615            
1 69774U 26151M   26249.55879581  .00000879  00000+0  15516-3 0  9993
2 69774  51.9019 295.6154 0000658 203.5242 156.5689 14.76601847 10048
KUIPER-00616            
1 69775U 26151N   26251.25002315 -.01480033  00000+0 -97801-1 0  9999
2 69775  51.8908 275.2147 0002647  70.4222 137.8065 15.10275508  5549
KUIPER-00617            
1 69776U 26151P   26251.25002315 -.00064786  00000+0 -74340-2 0  9996
2 69776  51.8989 278.4822 0008535  14.3796 342.7015 14.85695308  4792
KUIPER-00619            
1 69777U 26151Q   26251.25002315 -.00069051  00000+0 -90281-2 0  9999
2 69777  51.9004 280.3742 0001982 351.0517  89.5667 14.80364411  5339
KUIPER-00621            
1 69778U 26151R   26250.06732701  .00000940  00000+0  16225-3 0  9994
2 69778  51.9007 288.5685 0002195 123.8359 236.2812 14.77084484 10182
KUIPER-00622            
1 69779U 26151S   26250.83159128  .00000923  00000+0  16165-3 0  9990
2 69779  51.9005 288.8866 0000969  77.6152 282.4918 14.76552549 10247
KUIPER-00623            
1 69780U 26151T   26251.07797247  .00070220  00000+0  97668-2 0  9992
2 69780  51.9015 286.6220 0001326  45.6638 314.4432 14.77143269 10290
KUIPER-00626            
1 69781U 26151U   26251.25002315 -.00048240  00000+0 -58026-2 0  9992
2 69781  51.8988 280.9043 0006891  54.2651 342.5129 14.83621943  5579
KUIPER-00627            
1 69782U 26151V   26251.25002315 -.01553353  00000+0 -11193+0 0  9991
2 69782  51.8842 277.3606 0006964  34.8345 179.3678 15.07260565  5581
KUIPER-00629            
1 69783U 26151W   26250.82131405  .00001708  00000+0  25295-3 0  9998
2 69783  51.9025 292.6988 0000488  69.0997 291.0017 14.79931221 10191
KUIPER-00631            
1 69784U 26151X   26250.83819958  .00001720  00000+0  25459-3 0  9992
2 69784  51.9014 292.6845 0000449  91.1893 268.9121 14.79934629 10194
KUIPER-00634            
1 69785U 26151Y   26250.11764351 -.00000535  00000+0 -41124-4 0  9993
2 69785  51.9005 290.8780 0001361  88.1034 272.0084 14.79933991 10151
KUIPER-00639            
1 69786U 26151Z   26251.25002315 -.01894946  00000+0 -13875+0 0  9990
2 69786  51.8861 277.0672 0010105   8.2805  77.8770 15.06767291  4226
KUIPER-00641            
1 69787U 26151AA  26251.25002315 -.00049052  00000+0 -45941-2 0  9992
2 69787  51.8943 278.7719 0013643  17.4900 273.6770 14.93648023  5779
KUIPER-00644            
1 69788U 26151AB  26251.25002315 -.01526541  00000+0 -64118-1 0  9993
2 69788  51.8786 274.7677 0009438  10.3655 109.5605 15.25902042  4289
KUIPER-00646            
1 69789U 26151AC  26251.25002315 -.00049478  00000+0 -48182-2 0  9996
2 69789  51.8965 278.8586 0007210  29.5706 109.3015 14.92170192  5637
KUIPER-00647            
1 69790U 26151AD  26251.25002315 -.00046752  00000+0 -41325-2 0  9992
2 69790  51.8900 278.8435 0012278  23.7148 272.7511 14.95902677  4973
KUIPER-00662            
1 69791U 26151AE  26249.50589784  .00000849  00000+0  15146-3 0  9996
2 69791  51.9019 298.4125 0001499 329.9088  30.1787 14.76436793  9995
