KUIPER-00008            
1 63724U 25088A   26265.38291299  .00000347  00000+0  74465-4 0  9992
2 63724  51.9003 298.2282 0000570  61.4081 298.6939 14.79930973 77177
KUIPER-00009            
1 63725U 25088B   26264.39148611  .00004477  00000+0  30513-3 0  9995
2 63725  51.9021 309.7701 0000312  60.9357 299.1648 15.08077948 76928
KUIPER-00010            
1 63726U 25088C   26265.35455946  .00000675  00000+0  11758-3 0  9991
2 63726  51.9026 293.4688 0000389  55.9016 304.1983 14.79929287 76857
KUIPER-00011            
1 63727U 25088D   26263.82704657  .00000358  00000+0  76003-4 0  9991
2 63727  51.9016 307.7646 0000379  67.9893 292.1110 14.79930655 76652
KUIPER-00012            
1 63728U 25088E   26265.36262298 -.00000580  00000+0 -47120-4 0  9990
2 63728  51.9012 285.9144 0000453  25.7132 334.3853 14.79927954 77045
KUIPER-00013            
1 63729U 25088F   26265.42888304  .00000511  00000+0  96015-4 0  9999
2 63729  51.9022 318.1417 0000364  69.6879 290.4123 14.79932092 76708
KUIPER-00014            
1 63730U 25088G   26265.46260152 -.00001617  00000+0 -18312-3 0  9993
2 63730  51.9048 317.9395 0000821  77.5123 282.5932 14.79924320 76523
KUIPER-00015            
1 63731U 25088H   26265.48561963  .00003221  00000+0  45153-3 0  9994
2 63731  51.9012 327.8799 0000277 123.1745 236.9244 14.79910615 76842
KUIPER-00016            
1 63732U 25088J   26264.37946854  .00001710  00000+0  25326-3 0  9999
2 63732  51.9015 325.2307 0000367  81.8391 278.2613 14.79928736 76325
KUIPER-00018            
1 63733U 25088K   26265.43696184  .00000251  00000+0  61965-4 0  9995
2 63733  51.9064 310.6028 0000262  49.0827 311.0158 14.79932565 76620
KUIPER-00019            
1 63734U 25088L   26265.39611018 -.00000631  00000+0 -53796-4 0  9991
2 63734  51.9019 309.5292 0000363   3.5995 356.4969 14.79930104 76635
KUIPER-00020            
1 63735U 25088M   26265.43426061  .00000650  00000+0  11427-3 0  9992
2 63735  51.9045 313.1103 0000310  56.6023 303.4969 14.79936077 76794
KUIPER-00021            
1 63736U 25088N   26265.46803343 -.00000831  00000+0 -80066-4 0  9997
2 63736  51.9038 312.9096 0000219  54.8716 305.2267 14.79929379 76633
KUIPER-00023            
1 63737U 25088P   26265.43155555  .00000733  00000+0  12511-3 0  9998
2 63737  51.9020 315.5602 0000398  61.7289 298.3714 14.79939024 76892
KUIPER-00024            
1 63738U 25088Q   26265.58013157  .00000466  00000+0  90059-4 0  9993
2 63738  51.9042 302.5184 0000378  52.9435 307.1562 14.79930717 77218
KUIPER-00025            
1 63739U 25088R   26265.40321252  .00001077  00000+0  17027-3 0  9995
2 63739  51.9057 310.7825 0000372  80.3625 279.7379 14.79930143 76940
KUIPER-00027            
1 63740U 25088S   26265.37482911  .00000734  00000+0  12532-3 0  9998
2 63740  51.9032 305.8649 0000367  62.6046 297.4954 14.79935136 76749
KUIPER-00028            
1 63741U 25088T   26265.41128858  .00000130  00000+0  45994-4 0  9990
2 63741  51.9004 303.1436 0000319  56.7741 303.3252 14.79930774 77198
KUIPER-00029            
1 63742U 25088U   26265.38729288  .00000673  00000+0  11731-3 0  9994
2 63742  51.9035 301.9467 0000397   0.4125 359.6837 14.79931589 76738
KUIPER-00030            
1 63743U 25088V   26264.81840365 -.00000304  00000+0 -10902-4 0  9995
2 63743  51.9022 323.2838 0000098 169.4154 190.6810 14.79930682 76670
KUIPER-00031            
1 63744U 25088W   26265.40859110  .00000821  00000+0  13668-3 0  9993
2 63744  51.9029 305.6972 0000240  42.1790 317.9191 14.79937082 76681
KUIPER-00032            
1 63745U 25088X   26263.98550860  .00010844  00000+0  25408-3 0  9996
2 63745  51.8657 155.8439 0005265  96.5611 263.5977 15.42625309 79642
KUIPER-00033            
1 63746U 25088Y   26265.44376903  .00001855  00000+0  27233-3 0  9994
2 63746  51.9026 335.5403 0000340  77.8392 282.2609 14.79928806 76755
KUIPER-00034            
1 63747U 25088Z   26265.34912827  .00000397  00000+0  81075-4 0  9990
2 63747  51.9037 298.4963 0000577  86.0221 274.0807 14.79916667 76943
KUIPER-00035            
1 63748U 25088AA  26265.45724581  .00000955  00000+0  15427-3 0  9998
2 63748  51.9024 322.9820 0000392  86.1747 273.9260 14.79918290 76668
KUIPER-00037            
1 63749U 25088AB  26265.45016528 -.00001199  00000+0 -12830-3 0  9992
2 63749  51.9023 321.8740 0000204 120.9341 239.1642 14.79927759 77463
KUIPER-00038            
1 63750U 25088AC  26264.42672007  .00000801  00000+0  13403-3 0  9994
2 63750  51.9033 312.5744 0000452  83.3202 276.7812 14.79932738 76503
KUIPER-00039            
1 64500U 25134A   26264.93951436  .00001780  00000+0  26234-3 0  9995
2 64500  51.9016  85.3021 0000801 115.5384 244.5661 14.79941948 69137
KUIPER-00040            
1 64501U 25134B   26264.89497266  .00001791  00000+0  26379-3 0  9999
2 64501  51.8980  95.5563 0001089 116.8606 243.2468 14.79938064 68989
KUIPER-00041            
1 64502U 25134C   26264.92603053 -.00000337  00000+0 -15138-4 0  9996
2 64502  51.8999  97.8120 0000830 111.1317 248.9734 14.79930559 68950
KUIPER-00042            
1 64503U 25134D   26265.23529507  .00001892  00000+0  27700-3 0  9995
2 64503  51.8981  91.4219 0000661 110.2283 249.8750 14.79943705 69074
KUIPER-00043            
1 64504U 25134E   26264.90575354  .00001663  00000+0  24709-3 0  9992
2 64504  51.9019  85.3943 0000752 116.5664 243.5375 14.79931465 69138
KUIPER-00044            
1 64505U 25134F   26264.95980594  .00001778  00000+0  26218-3 0  9998
2 64505  51.8996  97.6436 0000769 117.5927 242.5114 14.79931377 68968
KUIPER-00046            
1 64506U 25134G   26264.72611054  .00001344  00000+0  20525-3 0  9990
2 64506  51.8993  96.1471 0000933 120.8653 239.2402 14.79926458 68962
KUIPER-00047            
1 64507U 25134H   26265.19474887  .00000103  00000+0  42547-4 0  9995
2 64507  51.8999  66.6041 0000682 116.0907 244.0125 14.79932963 69419
KUIPER-00048            
1 64508U 25134J   26264.82332862  .00002058  00000+0  29884-3 0  9990
2 64508  51.8987  68.2584 0000649 101.0369 259.0666 14.79935706 69364
KUIPER-00049            
1 64509U 25134K   26264.91111936 -.00000090  00000+0  17146-4 0  9992
2 64509  51.9006  80.3429 0000644 102.9728 257.1306 14.79931137 69202
KUIPER-00050            
1 64510U 25134L   26265.13261734  .00002207  00000+0  31838-3 0  9995
2 64510  51.8999  61.8838 0000514 118.6358 241.4656 14.79931654 69489
KUIPER-00051            
1 64511U 25134M   26265.22480841  .00000311  00000+0  69743-4 0  9999
2 64511  51.9006  77.6550 0000827 116.7162 243.3885 14.79933005 69268
KUIPER-00053            
1 64513U 25134P   26264.89212578  .00001582  00000+0  22712-3 0  9998
2 64513  51.9002  73.5098 0002485 125.1256 234.9940 14.81718311 69293
KUIPER-00054            
1 64514U 25134Q   26265.15828456  .00000499  00000+0  94413-4 0  9991
2 64514  51.8980  69.2517 0000917 119.6768 240.4286 14.79933243 69374
KUIPER-00055            
1 64515U 25134R   26265.51334890 -.00007655  00000+0 -97588-3 0  9994
2 64515  51.9030  20.3351 0000431  97.3637 262.7374 14.79952130 70096
KUIPER-00056            
1 64516U 25134S   26265.18666649  .00001911  00000+0  27953-3 0  9994
2 64516  51.9023  74.2452 0000875 125.2070 234.8975 14.79937783 69310
KUIPER-00057            
1 64517U 25134T   26264.90844313  .00001900  00000+0  27814-3 0  9994
2 64517  51.9007  82.8884 0000659 118.6839 241.4190 14.79938340 69162
KUIPER-00058            
1 64518U 25134U   26265.21772352  .00000387  00000+0  79754-4 0  9992
2 64518  51.9007  76.5005 0000731 118.0405 242.0631 14.79933465 69285
KUIPER-00059            
1 64519U 25134V   26264.88546905  .00001658  00000+0  24650-3 0  9994
2 64519  51.9012  73.0053 0000495 117.6053 242.4960 14.79927867 69309
KUIPER-00060            
1 64520U 25134W   26265.18936828  .00000255  00000+0  62447-4 0  9996
2 64520  51.9036  71.7405 0000618 117.2106 242.8920 14.79932190 69333
KUIPER-00061            
1 64521U 25134X   26264.87737309  .00001672  00000+0  24823-3 0  9994
2 64521  51.8996  80.5602 0000893 122.6553 237.4496 14.79940648 69184
KUIPER-00062            
1 64522U 25134Y   26264.87467428  .00001821  00000+0  26777-3 0  9993
2 64522  51.8966  83.0161 0000829 123.9822 236.1219 14.79941222 69168
KUIPER-00063            
1 64523U 25134Z   26265.20425075  .00001297  00000+0  19914-3 0  9996
2 64523  51.9024  89.1586 0000625 108.4162 251.6868 14.79938698 69101
KUIPER-00064            
1 64524U 25134AA  26264.93682376  .00001348  00000+0  20579-3 0  9991
2 64524  51.9027  87.7681 0001096 114.7022 245.4054 14.79927561 69108
KUIPER-00065            
1 64525U 25134AB  26264.72885592  .00001596  00000+0  23822-3 0  9993
2 64525  51.9035  93.8636 0000697 113.0502 247.0534 14.79939265 68987
KUIPER-00066            
1 64526U 25134AC  26265.50530333  .00000036  00000+0  33717-4 0  9994
2 64526  51.9036  27.6975 0000459 107.8186 252.2827 14.79928586 69994
KUIPER-00069            
1 64816U 25151A   26265.02335788  .00001033  00000+0  16445-3 0  9995
2 64816  51.9023 132.4676 0000860 105.3368 254.7689 14.79929377 65837
KUIPER-00070            
1 64817U 25151B   26265.09766547  .00001895  00000+0  27749-3 0  9999
2 64817  51.9008 157.0366 0001196  90.0601 270.0498 14.79939138 65502
KUIPER-00071            
1 64818U 25151C   26264.89778117  .00000251  00000+0  61910-4 0  9997
2 64818  51.9024 155.4672 0000957 101.4276 258.6794 14.79931984 64323
KUIPER-00072            
1 64819U 25151D   26265.35827798  .00003851  00000+0  53374-3 0  9993
2 64819  51.8994 133.3528 0000603  91.8949 268.2083 14.79947465 64678
KUIPER-00073            
1 64820U 25151E   26264.99908043  .00001960  00000+0  28601-3 0  9991
2 64820  51.8994 154.9965 0001146  87.5696 272.5398 14.79930820 65527
KUIPER-00075            
1 64822U 25151G   26265.44864778  .00018597  00000+0  48517-3 0  9992
2 64822  51.8663 342.5345 0002760 254.0743 105.9940 15.38860078 66779
KUIPER-00076            
1 64823U 25151H   26264.87480113  .00001874  00000+0  27475-3 0  9996
2 64823  51.9019 145.5712 0001000  91.3307 268.7770 14.79937494 64463
KUIPER-00077            
1 64824U 25151J   26264.86942057  .00001878  00000+0  27533-3 0  9995
2 64824  51.9013 150.6174 0001114  94.4132 265.6958 14.79929292 64396
KUIPER-00078            
1 64825U 25151K   26264.97339773  .00000489  00000+0  93122-4 0  9998
2 64825  51.8985 147.6269 0001141 101.1364 258.9727 14.79931275 64447
KUIPER-00079            
1 64826U 25151L   26265.13683329  .00002089  00000+0  30296-3 0  9997
2 64826  51.8995 151.8598 0001173  89.2719 270.8378 14.79931978 65598
KUIPER-00080            
1 64827U 25151M   26265.37317400  .00002156  00000+0  31171-3 0  9996
2 64827  51.8992 150.8276 0000945 102.3588 257.7481 14.79942498 64435
KUIPER-00082            
1 64828U 25151N   26265.35290964  .00001236  00000+0  19107-3 0  9993
2 64828  51.9019 138.4795 0001106 104.0064 256.1021 14.79930269 64608
KUIPER-00083            
1 64829U 25151P   26264.87210257  .00001801  00000+0  26523-3 0  9995
2 64829  51.9013 148.0876 0001185  92.7300 267.3798 14.79938544 65614
KUIPER-00084            
1 64830U 25151Q   26264.99636143 -.00003045  00000+0 -37039-3 0  9994
2 64830  51.8998 157.5200 0001159  91.9153 268.1943 14.79946708 64308
KUIPER-00085            
1 64831U 25151R   26265.38668682  .00000307  00000+0  69309-4 0  9994
2 64831  51.9051 138.3888 0001040  98.0605 262.0476 14.79931325 64604
KUIPER-00086            
1 64832U 25151S   26265.37589096  .00000903  00000+0  14743-3 0  9998
2 64832  51.9008 148.3690 0001049  99.3375 260.7706 14.79929751 64461
KUIPER-00087            
1 64833U 25151T   26265.32728585  .00001870  00000+0  27408-3 0  9998
2 64833  51.8998 131.0392 0000848  94.7753 265.3306 14.79963309 64691
KUIPER-00089            
1 64834U 25151U   26264.91665918  .00001700  00000+0  25199-3 0  9990
2 64834  51.9014 137.8805 0000685 105.1134 254.9904 14.79930101 64573
KUIPER-00090            
1 64835U 25151V   26264.85721010  .00001756  00000+0  25935-3 0  9999
2 64835  51.8987 130.6365 0000913 104.2548 255.8516 14.79923122 64661
KUIPER-00091            
1 64836U 25151W   26264.85182113  .00001588  00000+0  23720-3 0  9998
2 64836  51.9012 135.6903 0001081 103.3593 256.7490 14.79938635 64590
KUIPER-00092            
1 64837U 25151X   26264.84373591  .00000987  00000+0  15843-3 0  9999
2 64837  51.9006 143.2127 0000834  99.2678 260.8378 14.79937337 65702
KUIPER-00093            
1 64838U 25151Y   26265.11115796  .00001985  00000+0  28930-3 0  9992
2 64838  51.9011 144.4995 0000926 107.2072 252.8992 14.79935799 64493
KUIPER-00094            
1 64839U 25151Z   26265.22724935  .00001913  00000+0  27990-3 0  9992
2 64839  51.9040  99.1025 0001124 113.4230 246.6851 14.79932841 65145
KUIPER-00081            
1 65132U 25171A   26265.50390078  .00000367  00000+0  77148-4 0  9992
2 65132  51.9015 357.7598 0000268 103.5438 256.5554 14.79932365 62182
KUIPER-00088            
1 65133U 25171B   26265.55256496  .00000604  00000+0  10829-3 0  9999
2 65133  51.9006  15.0436 0000399 103.8848 256.2159 14.79929673 61940
KUIPER-00095            
1 65134U 25171C   26265.50661460  .00000753  00000+0  12779-3 0  9997
2 65134  51.9006 355.2841 0000229  72.4867 287.6120 14.79931673 62214
KUIPER-00096            
1 65135U 25171D   26265.52688321  .00002369  00000+0  33962-3 0  9997
2 65135  51.9017   7.6518 0000274 100.3907 259.7086 14.79933108 62049
KUIPER-00097            
1 65136U 25171E   26265.52421020  .00002102  00000+0  30456-3 0  9999
2 65136  51.9033  10.3343 0000462  95.3864 264.7152 14.79935599 61998
KUIPER-00098            
1 65137U 25171F   26265.58899144 -.00003112  00000+0 -37940-3 0  9991
2 65137  51.9020  12.4067 0000821  51.8519 308.2517 14.79936716 61322
KUIPER-00099            
1 65138U 25171G   26265.56604952  .00002397  00000+0  34330-3 0  9993
2 65138  51.9037   2.5237 0000294 108.0789 252.0206 14.79937262 62114
KUIPER-00100            
1 65139U 25171H   26265.60250392  .00002293  00000+0  32957-3 0  9992
2 65139  51.9027 359.8273 0000359  81.4917 278.6086 14.79938335 62157
KUIPER-00102            
1 65140U 25171J   26265.46474250  .00002193  00000+0  31646-3 0  9992
2 65140  51.8994   2.9031 0000292 125.2599 234.8390 14.79938304 62099
KUIPER-00103            
1 65141U 25171K   26265.61468080  .00002403  00000+0  34416-3 0  9996
2 65141  51.9003  19.7432 0000352  99.2020 260.8982 14.79931332 61874
KUIPER-00104            
1 65142U 25171L   26265.49312260  .00002399  00000+0  34351-3 0  9993
2 65142  51.9037   7.8008 0000307 106.2781 253.8215 14.79936469 62038
KUIPER-00105            
1 65143U 25171M   26265.51880384 -.00000066  00000+0  20287-4 0  9998
2 65143  51.9022  15.2779 0000352  97.1786 262.9217 14.79930386 61937
KUIPER-00106            
1 65144U 25171N   26265.49952765  .00000463  00000+0  89792-4 0  9995
2 65144  51.9038 354.1338 0000364  91.7544 268.3460 14.79929798 62235
KUIPER-00107            
1 65145U 25171P   26265.47013078  .00000321  00000+0  71079-4 0  9991
2 65145  51.9028 357.9367 0000811  84.6277 275.4778 14.79924715 62177
KUIPER-00108            
1 65146U 25171Q   26265.49042962  .00000836  00000+0  13866-3 0  9998
2 65146  51.9032  10.3947 0000439  54.6391 305.4612 14.79933819 62005
KUIPER-00109            
1 65147U 25171R   26265.46205251  .00001009  00000+0  16127-3 0  9994
2 65147  51.9051   5.4610 0000300  95.1688 264.9309 14.79932734 62068
KUIPER-00110            
1 65148U 25171S   26265.61740310  .00002297  00000+0  33024-3 0  9997
2 65148  51.9015  17.3189 0000339 123.3428 236.7567 14.79933877 61904
KUIPER-00111            
1 65149U 25171T   26265.51069186  .00002206  00000+0  31825-3 0  9999
2 65149  51.8982  22.6496 0000214 141.2423 218.8555 14.79940762 61823
KUIPER-00112            
1 65150U 25171U   26265.56333906 -.00001260  00000+0 -13628-3 0  9992
2 65150  51.9029   5.0575 0000312 109.3519 250.7477 14.79933543 62076
KUIPER-00114            
1 65151U 25171V   26265.64306205  .00001962  00000+0  28623-3 0  9992
2 65151  51.9018  24.6626 0000196  97.7705 262.3279 14.79935263 61806
KUIPER-00115            
1 65152U 25171W   26265.58363529  .00002647  00000+0  37604-3 0  9998
2 65152  51.9032  17.4354 0000343 109.6968 250.4031 14.79938112 61900
KUIPER-00116            
1 65153U 25171X   26265.61200856  .00002342  00000+0  33605-3 0  9995
2 65153  51.9015  22.3402 0000422 103.6353 256.4657 14.79933150 61830
KUIPER-00118            
1 65154U 25171Y   26265.54177146  .00000509  00000+0  95716-4 0  9998
2 65154  51.9004  25.0979 0000560  81.5701 278.5325 14.79933520 61795
KUIPER-00119            
1 65155U 25171Z   26265.48773384  .00000220  00000+0  57916-4 0  9998
2 65155  51.9048  12.9428 0000453  71.0872 289.0139 14.79929039 61950
KUIPER-00120            
1 65762U 25217A   26265.38690089  .00001746  00000+0  25790-3 0  9990
2 65762  51.8994 263.2519 0000552  59.5033 300.5984 14.79936269 53866
KUIPER-00132            
1 65763U 25217B   26265.01086911  .00014286  00000+0  36761-3 0  9997
2 65763  51.8520 128.1095 0004941 305.6264  54.4263 15.39489547 55706
KUIPER-00133            
1 65764U 25217C   26264.54279566  .00000186  00000+0  53441-4 0  9994
2 65764  51.9045 267.1259 0000555  46.2230 313.8778 14.79932866 53749
KUIPER-00139            
1 65765U 25217D   26265.32065021  .00002213  00000+0  31920-3 0  9991
2 65765  51.8971 231.1078 0000896  58.4201 301.6849 14.79936262 54310
KUIPER-00142            
1 65766U 25217E   26265.33825419  .00001890  00000+0  27691-3 0  9998
2 65766  51.9003 245.9985 0000629  64.9148 295.1880 14.79929606 54107
KUIPER-00145            
1 65767U 25217F   26265.33555856  .00001739  00000+0  25704-3 0  9999
2 65767  51.9002 248.5348 0000619  60.0785 300.0239 14.79932004 54067
KUIPER-00147            
1 65768U 25217G   26265.36649894  .00001823  00000+0  26793-3 0  9992
2 65768  51.8985 250.8698 0000791  32.6258 327.4753 14.79963333 54032
KUIPER-00148            
1 65769U 25217H   26265.18290981 -.00001756  00000+0 -20140-3 0  9999
2 65769  51.9035 234.2357 0000422  82.6044 277.4966 14.79923918 54256
KUIPER-00150            
1 65770U 25217J   26265.55843470  .00001169  00000+0  18235-3 0  9997
2 65770  51.9018 260.0713 0000520  82.6966 277.4056 14.79931392 53922
KUIPER-00151            
1 65771U 25217K   26265.22887707  .00001848  00000+0  27137-3 0  9998
2 65771  51.9026 254.0288 0000649  61.1519 298.9508 14.79933103 53988
KUIPER-00152            
1 65772U 25217L   26264.66834693  .00001457  00000+0  22007-3 0  9999
2 65772  51.9001 243.9862 0000774  48.2435 311.8594 14.79937470 54071
KUIPER-00153            
1 65773U 25217M   26265.07892686  .00001884  00000+0  27612-3 0  9993
2 65773  51.9010 237.2588 0000919  80.3841 279.7226 14.79931547 54200
KUIPER-00155            
1 65774U 25217N   26265.58130072  .00002294  00000+0  32980-3 0  9994
2 65774  51.9012 207.5001 0000805  87.8852 272.2202 14.79928951 54668
KUIPER-00156            
1 65775U 25217P   26265.31528097  .00000456  00000+0  88818-4 0  9994
2 65775  51.9036 236.1976 0000734  63.2873 296.8164 14.79934613 54230
KUIPER-00165            
1 65778U 25217S   26265.10190946  .00000020  00000+0  31633-4 0  9992
2 65778  51.9011 247.0735 0000646  99.0084 261.0952 14.79940208 54060
KUIPER-00166            
1 65779U 25217T   26265.08159501  .00002079  00000+0  30163-3 0  9994
2 65779  51.9042 234.7232 0000716  90.6332 269.4712 14.79924267 54233
KUIPER-00167            
1 65780U 25217U   26265.56379560  .00000604  00000+0  10824-3 0  9992
2 65780  51.8966 254.9063 0000847  43.0424 317.0604 14.79931618 53994
KUIPER-00168            
1 65781U 25217V   26265.44763873  .00001884  00000+0  27613-3 0  9999
2 65781  51.8995 238.0481 0000803  58.1674 301.9367 14.79932614 54222
KUIPER-00169            
1 65782U 25217W   26265.30719162  .00000259  00000+0  63044-4 0  9991
2 65782  51.9012 243.6801 0000640  85.1136 274.9899 14.79932213 54138
KUIPER-00170            
1 65783U 25217X   26265.43684367  .00001983  00000+0  28903-3 0  9993
2 65783  51.8991 248.0504 0000697  63.0571 297.0463 14.79942353 54086
KUIPER-00172            
1 65785U 25217Z   26265.28690144  .00001966  00000+0  28689-3 0  9990
2 65785  51.8984 231.2456 0000983  55.5007 304.6048 14.79929456 54306
KUIPER-00173            
1 65786U 25217AA  26265.13836705  .00000283  00000+0  66072-4 0  9990
2 65786  51.8999 244.4196 0000816  50.6007 309.5027 14.79930434 54108
KUIPER-00174            
1 65787U 25217AB  26265.61646703  .00001652  00000+0  24575-3 0  9993
2 65787  51.9006 237.3713 0000771  79.4696 280.6353 14.79925121 54241
KUIPER-00176            
1 65788U 25217AC  26265.12756991  .00003110  00000+0  43679-3 0  9998
2 65788  51.8958 254.4446 0001060  61.9656 298.1413 14.79937887 53965
KUIPER-00101            
1 65947U 25228A   26265.54467442  .00004343  00000+0  59849-3 0  9998
2 65947  51.8975 210.0457 0000726  82.5044 277.6001 14.79920457 52384
KUIPER-00113            
1 65948U 25228B   26265.04370754  .00002201  00000+0  31758-3 0  9993
2 65948  51.8981 207.2847 0000933  81.2301 278.8767 14.79937789 52372
KUIPER-00117            
1 65949U 25228C   26265.54749330 -.00001176  00000+0 -12532-3 0  9990
2 65949  51.8971 207.5572 0000819  73.4013 286.7040 14.79931034 52410
KUIPER-00121            
1 65950U 25228D   26265.51915018  .00002431  00000+0  34782-3 0  9991
2 65950  51.8988 202.7034 0000888  74.3951 285.7109 14.79934147 52487
KUIPER-00122            
1 65951U 25228E   26265.44082522  .00002231  00000+0  32168-3 0  9993
2 65951  51.8988 213.0174 0000795  75.5866 284.5185 14.79924815 52339
KUIPER-00123            
1 65952U 25228F   26265.06938781  .00001452  00000+0  21934-3 0  9992
2 65952  51.8965 214.6669 0000643 267.7303  92.3585 14.79939530 52276
KUIPER-00124            
1 65953U 25228G   26265.21256048  .00002091  00000+0  30318-3 0  9995
2 65953  51.8974 206.5242 0001075  66.4335 293.6740 14.79939288 52407
KUIPER-00125            
1 65954U 25228H   26265.16113799 -.00003882  00000+0 -48043-3 0  9990
2 65954  51.8996 191.8074 0000959 155.2453 204.8555 14.79937443 52600
KUIPER-00126            
1 65955U 25228J   26265.24094260  .00001997  00000+0  29079-3 0  9992
2 65955  51.8990 211.4321 0000804  78.7790 281.3263 14.79937239 52330
KUIPER-00127            
1 65956U 25228K   26265.56979835  .00002396  00000+0  34315-3 0  9991
2 65956  51.9003 202.4608 0000913  69.9544 290.1517 14.79933960 52499
KUIPER-00128            
1 65957U 25228L   26265.55292208  .00000755  00000+0  12798-3 0  9991
2 65957  51.8989 202.6018 0001002  83.1359 276.9717 14.79933787 52481
KUIPER-00129            
1 65958U 25228M   26265.52452258 -.00000585  00000+0 -47677-4 0  9990
2 65958  51.9007 197.7060 0000811  63.8816 296.2230 14.79935945 52556
KUIPER-00130            
1 65959U 25228N   26265.55562522  .00002214  00000+0  31937-3 0  9990
2 65959  51.9025 200.1166 0000832  86.3136 273.7921 14.79935917 42815
KUIPER-00134            
1 65960U 25228P   26264.89509418  .00012828  00000+0  34788-3 0  9992
2 65960  51.8703  87.8853 0004111 277.4097  82.6423 15.37973105 54021
KUIPER-00135            
1 65961U 25228Q   26265.25173745  .00002241  00000+0  32285-3 0  9992
2 65961  51.9008 201.5111 0000875  80.4110 279.6951 14.79939199 52475
KUIPER-00136            
1 65962U 25228R   26265.22056638 -.00000402  00000+0 -23739-4 0  9995
2 65962  51.9011 199.0916 0001247  72.7766 287.3333 14.79907075 52501
KUIPER-00137            
1 65963U 25228S   26265.49348743  .00002283  00000+0  32828-3 0  9991
2 65963  51.9021 195.3999 0001075  63.8941 296.2132 14.79938747 52582
KUIPER-00138            
1 65964U 25228T   26265.52991933 -.00001922  00000+0 -22317-3 0  9994
2 65964  51.8991 192.6351 0001164  80.3784 279.7310 14.79935037 52626
KUIPER-00140            
1 65965U 25228U   26265.52724258  .00000853  00000+0  14095-3 0  9993
2 65965  51.8991 195.2398 0001173  76.6343 283.4751 14.79936931 52586
KUIPER-00141            
1 65966U 25228V   26265.53265302  .00002315  00000+0  33256-3 0  9990
2 65966  51.9020 190.2945 0000696 103.8326 256.2714 14.79931262 52654
KUIPER-00146            
1 65967U 25228W   26264.55077370  .00001528  00000+0  22951-3 0  9993
2 65967  51.9033 197.1521 0001540  60.1780 299.9335 14.79929443 52474
KUIPER-00149            
1 65968U 25228X   26264.99509652  .00000737  00000+0  12566-3 0  9997
2 65968  51.9013 190.0552 0000971  83.4143 276.6929 14.79932687 52618
KUIPER-00154            
1 65969U 25228Y   26265.09908938  .00002125  00000+0  30767-3 0  9996
2 65969  51.8994 187.0791 0000959  86.5234 273.5838 14.79936442 52661
KUIPER-00157            
1 65970U 25228Z   26265.19298099  .00002020  00000+0  31666-3 0  9992
2 65970  51.9021 188.9239 0001671 135.8444 224.2651 14.76663245 52644
KUIPER-00144            
1 67133U 25301A   26264.74266849  .00001601  00000+0  23891-3 0  9990
2 67133  51.9016 268.6791 0000678  63.2017 296.9015 14.79937264 42902
KUIPER-00164            
1 67134U 25301B   26265.33697758  .00001548  00000+0  23199-3 0  9995
2 67134  51.9045 278.5733 0000488  55.0439 305.0570 14.79930113 42990
KUIPER-00175            
1 67135U 25301C   26264.37665222  .00001649  00000+0  24527-3 0  9998
2 67135  51.8998 265.2501 0000606  46.4580 313.6433 14.79939245 42994
KUIPER-00179            
1 67136U 25301D   26265.33965355  .00000107  00000+0  42997-4 0  9996
2 67136  51.8989 275.9895 0000515  56.8453 303.2559 14.79927548 43035
KUIPER-00181            
1 67137U 25301E   26265.05606929  .00001588  00000+0  23731-3 0  9993
2 67137  51.9042 289.8111 0000343  35.9450 324.1535 14.79930159 42796
KUIPER-00183            
1 67138U 25301F   26264.71700939  .00000373  00000+0  77905-4 0  9996
2 67138  51.9014 261.3159 0000588  54.3300 305.7717 14.79932579 43171
KUIPER-00184            
1 67139U 25301G   26265.31128544  .00000274  00000+0  64885-4 0  9993
2 67139  51.9001 271.1265 0000564  65.4101 294.6920 14.79934716 43190
KUIPER-00186            
1 67140U 25301H   26265.35993458  .00001733  00000+0  25619-3 0  9995
2 67140  51.9041 288.4769 0000398  62.3588 297.7415 14.79938012 42685
KUIPER-00187            
1 67141U 25301J   26265.28963885  .00001680  00000+0  24919-3 0  9992
2 67141  51.9035 291.3143 0000946 108.6612 251.4454 14.79956040 42635
KUIPER-00188            
1 67142U 25301K   26265.35854340  .00001905  00000+0  27871-3 0  9996
2 67142  51.9041 258.5960 0000674  37.9791 322.1219 14.79942837 43090
KUIPER-00191            
1 67143U 25301L   26264.79134088  .00000052  00000+0  35868-4 0  9992
2 67143  51.9034 285.9925 0000401  31.9262 328.1725 14.79930293 42699
KUIPER-00196            
1 67144U 25301M   26265.30987641  .00002106  00000+0  30504-3 0  9995
2 67144  51.8965 241.1478 0000580  72.1527 287.9499 14.79942345 43331
KUIPER-00204            
1 67145U 25301N   26264.71966594  .00001613  00000+0  24042-3 0  9996
2 67145  51.9014 258.7962 0000614  67.4413 292.6614 14.79947859 43156
KUIPER-00210            
1 67146U 25301P   26264.75753724  .00001519  00000+0  22812-3 0  9998
2 67146  51.9005 286.0859 0000437  47.4328 312.6671 14.79947594 42838
KUIPER-00221            
1 67147U 25301Q   26264.78323816  .00000786  00000+0  13212-3 0  9996
2 67147  51.9016 293.5099 0000590  53.4394 306.6623 14.79935743 42563
KUIPER-00232            
1 67148U 25301R   26265.03578307  .00001437  00000+0  21751-3 0  9994
2 67148  51.8959 277.3989 0000670  79.5654 280.5384 14.79936325 42802
KUIPER-00241            
1 67149U 25301S   26264.38345180  .00001626  00000+0  24228-3 0  9995
2 67149  51.9034 290.3113 0000770  61.8802 298.2238 14.79932850 42906
KUIPER-00245            
1 67150U 25301T   26265.45585786  .00000681  00000+0  11830-3 0  9999
2 67150  51.9042 293.0793 0000486  81.4507 278.6510 14.79932407 42627
KUIPER-00246            
1 67151U 25301U   26265.30320548  .00001581  00000+0  23639-3 0  9997
2 67151  51.9020 278.6888 0000505  69.3576 290.7440 14.79926786 42834
KUIPER-00247            
1 67152U 25301V   26265.31397644  .00001733  00000+0  25622-3 0  9993
2 67152  51.8962 268.5835 0000542  58.2593 301.8422 14.79936737 42950
KUIPER-00248            
1 67153U 25301W   26265.13027655  .00001897  00000+0  27779-3 0  9992
2 67153  51.8985 252.0416 0000641  62.8681 297.2346 14.79939964 43339
KUIPER-00249            
1 67154U 25301X   26265.38421940  .00000907  00000+0  14789-3 0  9993
2 67154  51.8995 265.8534 0000528  39.7438 320.3563 14.79935636 42993
KUIPER-00250            
1 67155U 25301Y   26264.05120344  .00001522  00000+0  22856-3 0  9999
2 67155  51.9006 286.7008 0000639  62.0882 298.0145 14.79929577 42625
KUIPER-00251            
1 67156U 25301Z   26265.48281463  .00001732  00000+0  25611-3 0  9993
2 67156  51.9006 267.9469 0000538  52.5687 307.5324 14.79937803 43169
KUIPER-00252            
1 67157U 25301AA  26264.06197157  .00001553  00000+0  23258-3 0  9999
2 67157  51.9007 276.6800 0000520  80.5064 279.5957 14.79937659 42739
KUIPER-00261            
1 67158U 25301AB  26265.57062584  .00000078  00000+0  39161-4 0  9994
2 67158  51.9026 280.0733 0000384  46.8533 313.2461 14.79933242 42818
KUIPER-00265            
1 67159U 25301AC  26263.83243302  .00001604  00000+0  23932-3 0  9995
2 67159  51.9066 302.7392 0000247  92.1674 267.9317 14.79931693 42389
KUIPER-00159            
1 67764U 26030A   26262.82193820  .00030410  00000+0  43058-2 0  9991
2 67764  51.9029  25.8853 0000841 130.3121 229.7914 14.76806610 34609
KUIPER-00160            
1 67765U 26030B   26265.58336806  .00008615  00000+0  11576-2 0  9993
2 67765  51.8989 354.9839 0000838 139.0193 180.2291 14.79935375  5291
KUIPER-00177            
1 67766U 26030C   26265.40003950  .00001552  00000+0  23249-3 0  9990
2 67766  51.8999  63.2786 0000780  80.1053 279.9997 14.79937619 34307
KUIPER-00178            
1 67767U 26030D   26264.75851226  .00001973  00000+0  28777-3 0  9993
2 67767  51.9014  66.0903 0000535 120.7743 239.3272 14.79930997 34212
KUIPER-00180            
1 67768U 26030E   26264.62884360  .00001919  00000+0  28062-3 0  9992
2 67768  51.8984  61.6559 0000630 124.2491 235.8531 14.79931334 34261
KUIPER-00197            
1 67769U 26030F   26265.52829507 -.00000534  00000+0 -41019-4 0  9997
2 67769  51.8998  37.6959 0000466 123.4657 236.6350 14.79930025 34675
KUIPER-00198            
1 67770U 26030G   26264.60316633  .00001981  00000+0  28877-3 0  9999
2 67770  51.8979  54.2600 0000591 123.8425 236.2594 14.79927632 34362
KUIPER-00199            
1 67771U 26030H   26265.58336806 -.00004529  00000+0 -27184-3 0  9995
2 67771  51.8905 350.5823 0013680  45.4716 342.3902 15.07986039  4093
KUIPER-00200            
1 67772U 26030J   26265.63229495  .00002206  00000+0  31823-3 0  9990
2 67772  51.8989  34.7530 0000481 126.1726 233.9281 14.79936588 34725
KUIPER-00203            
1 67773U 26030K   26264.78688585  .00001982  00000+0  28890-3 0  9995
2 67773  51.9067  71.0675 0000858 121.8057 238.2989 14.79938258 34140
KUIPER-00205            
1 67774U 26030L   26265.56745616  .00002256  00000+0  32483-3 0  9990
2 67774  51.9017  32.5071 0000352 102.6953 257.4049 14.79931930 34756
KUIPER-00208            
1 67775U 26030M   26264.69367037  .00001167  00000+0  18213-3 0  9996
2 67775  51.8983  63.8657 0001352 120.8647 239.2449 14.79936588 34237
KUIPER-00209            
1 67776U 26030N   26265.40543425  .00000203  00000+0  55582-4 0  9995
2 67776  51.8982  58.3218 0000774 124.2862 235.8173 14.79935749 34372
KUIPER-00213            
1 67777U 26030P   26265.44185801  .00002041  00000+0  29657-3 0  9995
2 67777  51.8960  55.6149 0000596 120.9468 239.1553 14.79952393 34417
KUIPER-00214            
1 67778U 26030Q   26265.41083774  .00001623  00000+0  24194-3 0  9995
2 67778  51.9005  53.2881 0000613 129.5331 230.5686 14.79928331 34440
KUIPER-00215            
1 67779U 26030R   26265.52559078  .00000672  00000+0  11714-3 0  9990
2 67779  51.9008  40.1364 0000516 106.7193 253.3827 14.79934015 34648
KUIPER-00218            
1 67780U 26030S   26264.93541684  .00002232  00000+0  32171-3 0  9994
2 67780  51.8975  57.7847 0000535 120.2400 239.8616 14.79934173 34342
KUIPER-00220            
1 67781U 26030T   26265.50262689  .00002343  00000+0  33619-3 0  9995
2 67781  51.8961  30.2987 0000411 105.6899 254.4109 14.79933837 34774
KUIPER-00222            
1 67782U 26030U   26265.37977653  .00002022  00000+0  29408-3 0  9990
2 67782  51.8987  50.9810 0000757 128.8035 231.2995 14.79935936 34474
KUIPER-00223            
1 67783U 26030V   26265.55665604 -.00000030  00000+0  25110-4 0  9996
2 67783  51.9026  42.5112 0000584 126.9842 233.1174 14.79934375 34617
KUIPER-00225            
1 67784U 26030W   26265.55129234  .00002197  00000+0  31710-3 0  9998
2 67784  51.8984  47.6788 0000563 115.6151 244.4870 14.79935048 34537
KUIPER-00226            
1 67785U 26030X   26265.53099629  .00002540  00000+0  36197-3 0  9997
2 67785  51.9009  35.1527 0001277  17.6538 342.4469 14.79938178 34713
KUIPER-00259            
1 67786U 26030Y   26264.77468762  .00002181  00000+0  31496-3 0  9999
2 67786  51.8991  51.0151 0000607 117.9222 242.1802 14.79930818 34421
KUIPER-00260            
1 67787U 26030Z   26265.38516695  .00002567  00000+0  36562-3 0  9994
2 67787  51.9027  45.9300 0000401  92.2599 267.8409 14.79932969 34454
KUIPER-00262            
1 67788U 26030AA  26265.55397317 -.00000232  00000+0 -14087-5 0  9991
2 67788  51.9046  45.0958 0000868 130.4068 229.6971 14.79936327 34574
KUIPER-00266            
1 67789U 26030AB  26265.38784144  .00000678  00000+0  11799-3 0  9998
2 67789  51.9002  43.3225 0000658 121.5518 238.5509 14.79931935 34580
KUIPER-00268            
1 67790U 26030AC  26265.55937036  .00002255  00000+0  32464-3 0  9994
2 67790  51.9047  40.1098 0000660 138.8804 221.2208 14.79940227 34642
KUIPER-00270            
1 67791U 26030AD  26265.53638771  .00002264  00000+0  32582-3 0  9998
2 67791  51.8989  30.1572 0000482 104.4058 255.6958 14.79937499 34780
KUIPER-00274            
1 67792U 26030AE  26265.37705077  .00000800  00000+0  13386-3 0  9990
2 67792  51.9000  53.3797 0000493 110.6102 249.4913 14.79934548 34440
KUIPER-00275            
1 67793U 26030AF  26265.53369057  .00002386  00000+0  34180-3 0  9999
2 67793  51.9009  32.6811 0000510 137.1503 222.9499 14.79935053 34746
KUIPER-00276            
1 67794U 26030AG  26265.56206481  .00002298  00000+0  33036-3 0  9995
2 67794  51.8987  37.5308 0000694 107.5158 252.5880 14.79927809 34682
KUIPER-00279            
1 67795U 26030AH  26265.53909288  .00002282  00000+0  32826-3 0  9997
2 67795  51.9029  27.6846 0000483 114.5151 245.5862 14.79929016 34814
KUIPER-00131            
1 68573U 26072A   26264.99497770  .00001875  00000+0  27491-3 0  9994
2 68573  51.9006 127.5686 0000918 107.7793 252.3269 14.79938763 25451
KUIPER-00189            
1 68574U 26072B   26265.02604121  .00001846  00000+0  27114-3 0  9990
2 68574  51.8993 129.9054 0000880 103.7569 256.3491 14.79935868 25427
KUIPER-00192            
1 68575U 26072C   26264.86261794  .00000108  00000+0  43157-4 0  9993
2 68575  51.9008 125.6479 0001127 104.6830 255.4257 14.79931572 25479
KUIPER-00193            
1 68576U 26072D   26265.27858089  .00001094  00000+0  17248-3 0  9995
2 68576  51.9045 113.8581 0001029 112.4426 247.6646 14.79937341 25670
KUIPER-00194            
1 68577U 26072E   26265.03413921  .00001767  00000+0  26080-3 0  9993
2 68577  51.9018 122.4166 0000979 106.6109 253.4961 14.79933946 25539
KUIPER-00229            
1 68578U 26072F   26265.02875355  .00001667  00000+0  24766-3 0  9994
2 68578  51.9009 127.4217 0000774 105.9085 254.1963 14.79931210 25464
KUIPER-00230            
1 68579U 26072G   26265.58336806 -.00097061  00000+0 -13547-1 0  9997
2 68579  51.9025  72.1775 0004854 176.6778 104.4282 14.77819268  1736
KUIPER-00231            
1 68580U 26072H   26264.99088190  .00001728  00000+0  25569-3 0  9995
2 68580  51.8986 100.1580 0002061 123.0995 237.0165 14.79936879 25834
KUIPER-00234            
1 68581U 26072J   26264.79778880  .00001703  00000+0  25233-3 0  9997
2 68581  51.8999 123.4249 0001245  99.9461 260.1642 14.79927306 25495
KUIPER-00236            
1 68582U 26072K   26263.89707122  .00001382  00000+0  22677-3 0  9991
2 68582  51.9031  82.3782 0001548 200.0920 159.9980 14.76567290 25994
KUIPER-00244            
1 68583U 26072L   26264.77481410  .00001654  00000+0  24591-3 0  9998
2 68583  51.8996 113.5504 0001039 102.7557 257.3522 14.79932612 25635
KUIPER-00253            
1 68584U 26072M   26264.97469718  .00001711  00000+0  25340-3 0  9995
2 68584  51.9037 115.1948 0000989 107.0595 253.0475 14.79938134 25620
KUIPER-00254            
1 68585U 26072N   26265.00576009  .00001895  00000+0  27744-3 0  9996
2 68585  51.9029 117.5544 0001398  85.0695 275.0427 14.79940070 25590
KUIPER-00263            
1 68586U 26072P   26264.95441949  .00001765  00000+0  26039-3 0  9996
2 68586  51.9015 102.8470 0000739 114.6736 245.4303 14.79938663 25795
KUIPER-00269            
1 68587U 26072Q   26264.95172228  .00000285  00000+0  66410-4 0  9992
2 68587  51.8985 105.2639 0001035 108.5232 251.5843 14.79929704 25768
KUIPER-00272            
1 68588U 26072R   26265.03142693  .00001763  00000+0  26018-3 0  9997
2 68588  51.8981 124.8798 0001046 103.8722 256.2357 14.79939907 25490
KUIPER-00285            
1 68589U 26072S   26264.91796539  .00001281  00000+0  19704-3 0  9997
2 68589  51.9045 105.4988 0001461  88.5029 271.6101 14.79927204 25753
KUIPER-00286            
1 68590U 26072T   26264.98818636  .00001678  00000+0  24908-3 0  9991
2 68590  51.9015 102.6149 0000790 115.4479 244.6565 14.79932945 25801
KUIPER-00289            
1 68591U 26072U   26264.98008145  .00001530  00000+0  22965-3 0  9996
2 68591  51.8983 110.1268 0001073 112.6901 247.4175 14.79938476 25695
KUIPER-00290            
1 68592U 26072V   26265.28395057  .00001815  00000+0  26707-3 0  9996
2 68592  51.9027 108.7927 0000856 123.8469 236.2575 14.79924786 25747
KUIPER-00293            
1 68593U 26072W   26265.30694415  .00001245  00000+0  19227-3 0  9996
2 68593  51.8980 118.6600 0001756  67.0033 293.1115 14.79935785 25607
KUIPER-00294            
1 68594U 26072X   26264.91526405  .00001765  00000+0  26050-3 0  9995
2 68594  51.8993 107.9154 0000803 114.3164 245.7882 14.79932369 25722
KUIPER-00296            
1 68595U 26072Y   26265.23801740  .00001985  00000+0  28934-3 0  9997
2 68595  51.9011  89.0077 0000719 114.3836 245.7202 14.79929473 26012
KUIPER-00297            
1 68596U 26072Z   26264.80047454 -.00000007  00000+0  28063-4 0  9993
2 68596  51.8992 120.9011 0001430 112.8332 247.2782 14.79930008 25530
KUIPER-00300            
1 68597U 26072AA  26265.30965312  .00001367  00000+0  20827-3 0  9990
2 68597  51.9026 116.1863 0000775 114.7171 245.3872 14.79929191 25647
KUIPER-00301            
1 68598U 26072AB  26265.19916601  .00001458  00000+0  23790-3 0  9998
2 68598  51.9026  86.2561 0001794 199.4719 160.6174 14.76506265 26049
KUIPER-00304            
1 68599U 26072AC  26264.95808986  .00001275  00000+0  21135-3 0  9996
2 68599  51.9003  89.2656 0000652  41.8688 318.2323 14.76619833 25985
KUIPER-00317            
1 68600U 26072AD  26265.28667767  .00001871  00000+0  27435-3 0  9997
2 68600  51.8981 106.2783 0000707 104.2863 255.8178 14.79930036 25778
KUIPER-00320            
1 68601U 26072AE  26264.94361377  .00002217  00000+0  31982-3 0  9995
2 68601  51.9025 112.8134 0000696  91.4202 268.6841 14.79925052 25651
KUIPER-00299            
1 68864U 26095A   26264.49671343  .00003437  00000+0  47973-3 0  9990
2 68864  51.8999 184.7505 0001209 103.3845 256.7252 14.79929712 21879
KUIPER-00353            
1 68865U 26095B   26264.88431299  .00001943  00000+0  28389-3 0  9998
2 68865  51.8997 168.0650 0000868  99.2292 260.8769 14.79929015 22149
KUIPER-00357            
1 68866U 26095C   26265.04504034  .00000653  00000+0  11467-3 0  9992
2 68866  51.9023 174.8638 0001180  69.1489 290.9599 14.79934210 22063
KUIPER-00364            
1 68867U 26095D   26264.46834209  .00001915  00000+0  28011-3 0  9993
2 68867  51.9025 179.9388 0001313  73.3561 286.7545 14.79937612 21949
KUIPER-00375            
1 68868U 26095E   26265.11796260  .00001405  00000+0  21320-3 0  9991
2 68868  51.9015 169.5371 0000649  99.1576 260.9460 14.79939339 22140
KUIPER-00433            
1 68869U 26095F   26265.03425157  .00002163  00000+0  31256-3 0  9998
2 68869  51.8997 184.9012 0001234  64.9535 295.1555 14.79939413 21921
KUIPER-00437            
1 68870U 26095G   26265.58336806 -.00004501  00000+0 -37223-3 0  9992
2 68870  51.8901 134.7351 0015495 314.5476 267.7193 14.96112532  2699
KUIPER-00448            
1 68871U 26095H   26264.06275823  .00037685  00000+0  53478-2 0  9992
2 68871  51.9050 179.1708 0003921  46.4431 313.6855 14.76603995 21916
KUIPER-00459            
1 68872U 26095J   26264.45076566 -.00000134  00000+0  11481-4 0  9999
2 68872  51.9010 165.0511 0000896  99.6631 260.4433 14.79937560 22147
KUIPER-00468            
1 68873U 26095K   26265.13196967  .00001255  00000+0  20843-3 0  9999
2 68873  51.8985 159.6169 0000707 165.8087 194.2894 14.76626801 22288
KUIPER-00476            
1 68874U 26095L   26265.58336806 -.00019197  00000+0 -22888-2 0  9993
2 68874  51.8991 139.9441 0008099 284.5703 214.0881 14.83504190  4579
KUIPER-00478            
1 68875U 26095M   26264.44806106 -.00000206  00000+0  19817-5 0  9994
2 68875  51.8979 167.4988 0000902  90.0425 270.0641 14.79935551 22114
KUIPER-00480            
1 68876U 26095N   26264.88969787  .00000556  00000+0  10198-3 0  9996
2 68876  51.9050 163.0613 0000846 104.3362 255.7694 14.79928227 22210
KUIPER-00482            
1 68877U 26095P   26264.94644218  .00001960  00000+0  28603-3 0  9993
2 68877  51.9013 172.7947 0001510  47.8838 312.2252 14.79936795 22088
KUIPER-00483            
1 68878U 26095Q   26265.00050987  .00002158  00000+0  31248-3 0  9995
2 68878  51.8984 185.0190 0001763  15.0991 345.0023 14.79869897 21918
KUIPER-00488            
1 68879U 26095R   26264.98560555 -.00000186  00000+0  45963-5 0  9990
2 68879  51.9002 167.6299 0001291  84.0459 276.0650 14.79929717 22152
KUIPER-00489            
1 68880U 26095S   26265.12874897  .00001412  00000+0  21428-3 0  9996
2 68880  51.8965 159.4744 0001295  90.3150 269.7960 14.79929575 22286
KUIPER-00499            
1 68881U 26095T   26265.29217315  .00000862  00000+0  14207-3 0  9996
2 68881  51.9010 163.8145 0000871  84.9077 275.1985 14.79932021 22232
KUIPER-00500            
1 68882U 26095U   26265.13825077  .00002402  00000+0  34391-3 0  9998
2 68882  51.9018 181.9457 0000891  83.7676 276.3388 14.79937025 21971
KUIPER-00502            
1 68883U 26095V   26265.02035175  .00002341  00000+0  33587-3 0  9997
2 68883  51.9002 158.7194 0001404  76.8850 283.2269 14.79947464 22281
KUIPER-00503            
1 68884U 26095W   26264.97211854  .00002050  00000+0  29782-3 0  9990
2 68884  51.8977 180.1519 0001023  80.5920 279.5158 14.79935025 21980
KUIPER-00504            
1 68885U 26095X   26265.40295347 -.00000891  00000+0 -87901-4 0  9990
2 68885  51.8992 185.7821 0000617  65.5853 294.5174 14.79934668 21944
KUIPER-00505            
1 68886U 26095Y   26265.17740718  .00001437  00000+0  21744-3 0  9999
2 68886  51.9021 176.7792 0000878  91.2847 268.8216 14.79930208 22043
KUIPER-00507            
1 68887U 26095Z   26265.10378007  .00002042  00000+0  29674-3 0  9994
2 68887  51.9003 167.0884 0001003  93.6729 266.4348 14.79936140 22170
KUIPER-00511            
1 68888U 26095AA  26264.89240636  .00001924  00000+0  28137-3 0  9997
2 68888  51.8997 160.6356 0001089  83.4257 276.6829 14.79933967 22241
KUIPER-00512            
1 68889U 26095AB  26265.20847602  .00002189  00000+0  31600-3 0  9993
2 68889  51.9012 179.1439 0001019  85.2557 274.8522 14.79934869 22011
KUIPER-00519            
1 68890U 26095AC  26265.01667789  .00001991  00000+0  29006-3 0  9997
2 68890  51.9015 170.0564 0000774 101.5175 258.5875 14.79930054 22124
KUIPER-00521            
1 68891U 26095AD  26265.01494999  .00002141  00000+0  30976-3 0  9995
2 68891  51.9025 163.7583 0000801  89.9686 270.1368 14.79938404 22217
KUIPER-00524            
1 68892U 26095AE  26265.11527214  .00002352  00000+0  33747-3 0  9997
2 68892  51.8976 172.0259 0000902  83.6996 276.4069 14.79932591 22108
KUIPER-00370            
1 68919U 26098A   26265.48090999  .00000487  00000+0  92858-4 0  9991
2 68919  51.9020 347.7901 0000618 134.5294 225.5719 14.79928057 21899
KUIPER-00380            
1 68920U 26098B   26265.42149223  .00001814  00000+0  26687-3 0  9993
2 68920  51.9004 340.6947 0000395 130.9286 229.1711 14.79941299 21983
KUIPER-00386            
1 68921U 26098C   26265.43568454  .00001825  00000+0  26836-3 0  9994
2 68921  51.9011 343.1226 0000262  86.9642 273.1350 14.79934774 21954
KUIPER-00388            
1 68922U 26098D   26265.54308598  .00000365  00000+0  76842-4 0  9999
2 68922  51.9013 352.8093 0000255  77.1579 282.9412 14.79934740 21825
KUIPER-00405            
1 68923U 26098E   26265.42759025  .00002015  00000+0  29321-3 0  9995
2 68923  51.9032 350.6751 0000762 229.3940 130.6956 14.79936824 21849
KUIPER-00408            
1 68924U 26098F   26265.41878695  .00000560  00000+0  10241-3 0  9994
2 68924  51.9006 343.1267 0000456  54.5170 305.5835 14.79933692 21954
KUIPER-00409            
1 68925U 26098G   26265.53157921  .00000420  00000+0  84146-4 0  9991
2 68925  51.9044 347.7158 0000348  94.2384 265.8619 14.79927544 21894
KUIPER-00410            
1 68926U 26098H   26265.53426105 -.00001048  00000+0 -10851-3 0  9995
2 68926  51.8975 345.1738 0000527 176.8756 183.2209 14.79940279 21935
KUIPER-00412            
1 68927U 26098J   26265.45795969  .00001965  00000+0  28665-3 0  9992
2 68927  51.9049 338.0515 0000368  99.5116 260.5888 14.79931115 22029
KUIPER-00413            
1 68928U 26098K   26265.54576554  .00002272  00000+0  32689-3 0  9993
2 68928  51.9006 350.1333 0000398 183.2596 176.8364 14.79937661 21863
KUIPER-00414            
1 68929U 26098L   26265.56875319  .00002236  00000+0  32213-3 0  9990
2 68929  51.8982   0.1136 0001100 150.5730 209.5294 14.79937973 21725
KUIPER-00415            
1 68930U 26098M   26265.52010203  .00001989  00000+0  28983-3 0  9994
2 68930  51.9030 342.7651 0000354  90.8503 269.2500 14.79933539 21966
KUIPER-00416            
1 68931U 26098N   26265.40292388  .00001822  00000+0  26787-3 0  9994
2 68931  51.9039 334.6350 0000477  97.3512 262.7504 14.79940532 22065
KUIPER-00420            
1 68932U 26098P   26264.58274593 -.00001378  00000+0 -15180-3 0  9994
2 68932  51.9030 339.3705 0000983 124.2924 235.8132 14.79938370 21932
KUIPER-00421            
1 68933U 26098Q   26265.52275550  .00005028  00000+0  68758-3 0  9997
2 68933  51.9048 340.1989 0000297  97.0197 263.0799 14.79964305 22001
KUIPER-00425            
1 68934U 26098R   26265.44717514  .00000180  00000+0  52570-4 0  9990
2 68934  51.9008 348.0757 0000467  92.9306 267.1710 14.79931350 21880
KUIPER-00430            
1 68935U 26098S   26265.44446090  .00002041  00000+0  29668-3 0  9998
2 68935  51.9051 350.4904 0000435  96.2928 263.8084 14.79928038 21855
KUIPER-00431            
1 68936U 26098T   26265.44177731  .00000496  00000+0  94088-4 0  9993
2 68936  51.9004 353.0876 0000242 137.6810 222.4172 14.79932178 21812
KUIPER-00432            
1 68937U 26098U   26265.51738730  .00002008  00000+0  29234-3 0  9995
2 68937  51.9015 345.1530 0000317  93.2971 266.8028 14.79934860 21937
KUIPER-00434            
1 68938U 26098V   26265.43854254  .00001201  00000+0  20189-3 0  9991
2 68938  51.9021 349.6302 0001207 140.1335 219.9715 14.76394101 21865
KUIPER-00436            
1 68939U 26098W   26265.43028509  .00000148  00000+0  48396-4 0  9998
2 68939  51.9009 348.1523 0000465  52.7400 307.3605 14.79928962 21880
KUIPER-00438            
1 68940U 26098X   26265.43299337  .00001889  00000+0  27666-3 0  9998
2 68940  51.9046 345.6654 0000419  97.2180 262.8830 14.79931730 21914
KUIPER-00439            
1 68941U 26098Y   26265.48361604 -.00001340  00000+0 -14680-3 0  9997
2 68941  51.9039 345.4370 0000657  79.0584 281.0453 14.79932835 21922
KUIPER-00440            
1 68942U 26098Z   26265.50860609  .00001213  00000+0  18807-3 0  9992
2 68942  51.9046 337.8263 0000548   1.1163 358.9801 14.79929237 22031
KUIPER-00442            
1 68943U 26098AA  26265.50580000  .00002033  00000+0  29571-3 0  9998
2 68943  51.9035 340.3501 0000161 148.8435 211.2537 14.79909256 21996
KUIPER-00446            
1 68944U 26098AB  26265.46944663  .00001934  00000+0  28255-3 0  9990
2 68944  51.9014 342.9938 0000828 287.1308  72.9564 14.79936072 21956
KUIPER-00451            
1 68945U 26098AC  26265.45865959  .00000328  00000+0  71966-4 0  9994
2 68945  51.9013 353.0208 0000442 155.7890 204.3094 14.79931364 21810
KUIPER-00452            
1 68946U 26098AD  26265.40461960  .00000586  00000+0  10591-3 0  9996
2 68946  51.9038 340.7780 0000586 101.7204 258.3824 14.79932116 21989
KUIPER-00453            
1 68947U 26098AE  26265.42418218  .00001855  00000+0  27235-3 0  9990
2 68947  51.9008 338.1102 0001523 152.5998 207.5045 14.79931460 22020
KUIPER-00454            
1 68948U 26098AF  26265.47282487  .00002046  00000+0  29737-3 0  9995
2 68948  51.9009 355.4495 0000745 110.3918 249.7125 14.79921988 21781
KUIPER-00455            
1 68949U 26098AG  26265.42489343  .00002285  00000+0  32868-3 0  9995
2 68949  51.9013 353.1759 0001383 149.0005 211.1039 14.79936264 21814
KUIPER-00458            
1 68950U 26098AH  26265.40731255 -.00000045  00000+0  23156-4 0  9991
2 68950  51.9032 338.2773 0001035  27.0743 333.0273 14.79928719 22018
KUIPER-00282            
1 69267U 26118A   26265.48293176  .00001655  00000+0  24606-3 0  9996
2 69267  51.8988 330.3980 0000059 266.0670  94.0286 14.79933840 18565
KUIPER-00383            
1 69268U 26118B   26264.48956589  .00000507  00000+0  95485-4 0  9999
2 69268  51.9000 332.3120 0000304  92.0285 268.0713 14.79931953 18451
KUIPER-00527            
1 69269U 26118C   26265.46876004  .00001983  00000+0  28896-3 0  9992
2 69269  51.9004 328.1147 0000313  78.5334 281.5663 14.79935642 18590
KUIPER-00562            
1 69270U 26118D   26265.17294344  .00000956  00000+0  15432-3 0  9994
2 69270  51.9050 321.7373 0000771  61.7693 298.3348 14.79935964 18664
KUIPER-00570            
1 69271U 26118E   26264.72053647  .00001861  00000+0  27303-3 0  9990
2 69271  51.9021 336.3955 0000331  79.9345 280.1655 14.79931098 18404
KUIPER-00572            
1 69272U 26118F   26265.18172353  .00000190  00000+0  53867-4 0  9997
2 69272  51.9029 329.2468 0000775 124.9384 235.1652 14.79935764 18556
KUIPER-00581            
1 69273U 26118G   26265.44644972 -.00001865  00000+0 -21566-3 0  9990
2 69273  51.9045 333.0841 0000978 193.3245 166.7691 14.79942369 18612
KUIPER-00584            
1 69274U 26118H   26265.49443116  .00000257  00000+0  62632-4 0  9995
2 69274  51.9030 335.4848 0000137  27.0214 333.0755 14.79931951 18497
KUIPER-00587            
1 69275U 26118J   26265.18444055  .00000686  00000+0  11894-3 0  9994
2 69275  51.9017 326.7445 0000302  63.4161 296.6832 14.79930849 18594
KUIPER-00590            
1 69276U 26118K   26265.17905055  .00001741  00000+0  25736-3 0  9999
2 69276  51.9041 331.7794 0000181 114.5744 245.5238 14.79934057 18526
KUIPER-00592            
1 69277U 26118L   26265.43226690 -.00003275  00000+0 -40058-3 0  9990
2 69277  51.9043 330.5381 0000405  65.1864 294.9141 14.79960656 18560
KUIPER-00593            
1 69278U 26118M   26265.18103432  .00001226  00000+0  18978-3 0  9999
2 69278  51.9015 314.2681 0001270 172.7097 187.3884 14.79934184 18821
KUIPER-00594            
1 69279U 26118N   26265.44576620  .00000674  00000+0  11745-3 0  9993
2 69279  51.9073 318.1067 0001130  85.2425 274.8666 14.79928692 18732
KUIPER-00595            
1 69280U 26118P   26265.41747017  .00001594  00000+0  23801-3 0  9990
2 69280  51.8998 313.1780 0001040 190.9488 169.1452 14.79931083 18837
KUIPER-00596            
1 69281U 26118Q   26265.41000595  .00000514  00000+0  96357-4 0  9992
2 69281  51.9025 335.7515 0000397  83.5761 276.5246 14.79935338 18483
KUIPER-00597            
1 69282U 26118R   26264.40170988 -.00017201  00000+0 -22293-2 0  9994
2 69282  51.8991 320.2083 0001627  67.5525 292.5610 14.80002084 18614
KUIPER-00599            
1 69283U 26118S   26265.16754424  .00000852  00000+0  14079-3 0  9998
2 69283  51.9014 326.7354 0000118 341.2979  18.7979 14.79931359 18590
KUIPER-00600            
1 69284U 26118T   26265.44843793 -.00000267  00000+0 -60390-5 0  9999
2 69284  51.9017 315.4922 0001561  52.8706 307.2399 14.79947066 18770
KUIPER-00601            
1 69285U 26118U   26264.72322323  .00001758  00000+0  25958-3 0  9994
2 69285  51.9033 333.7858 0000430  69.9361 290.1648 14.79933313 18452
KUIPER-00602            
1 69286U 26118V   26265.47412108  .00000736  00000+0  12553-3 0  9991
2 69286  51.9036 322.8807 0000426 242.0386 118.0533 14.79929311 18673
KUIPER-00603            
1 69287U 26118W   26265.42080057  .00001782  00000+0  26272-3 0  9996
2 69287  51.9050 325.7070 0000415  95.3104 264.7905 14.79928411 18626
KUIPER-00605            
1 69288U 26118X   26265.48023457  .00001849  00000+0  27148-3 0  9991
2 69288  51.9010 332.9208 0000291  80.8682 279.2314 14.79934851 18538
KUIPER-00606            
1 69289U 26118Y   26265.47144337  .00001761  00000+0  25993-3 0  9991
2 69289  51.9041 325.4785 0000189  78.8594 281.2389 14.79938747 18639
KUIPER-00607            
1 69290U 26118Z   26265.39781525  .00000483  00000+0  92360-4 0  9993
2 69290  51.9007 315.8090 0001321  16.1799 343.9205 14.79932620 18767
KUIPER-00608            
1 69291U 26118AA  26265.14187106  .00001842  00000+0  27058-3 0  9993
2 69291  51.9032 319.3020 0000679  72.2568 287.8468 14.79930420 18695
KUIPER-00610            
1 69292U 26118AB  26264.42742697  .00000357  00000+0  75867-4 0  9998
2 69292  51.9038 327.5953 0000241  70.2295 289.8693 14.79932089 18514
KUIPER-00613            
1 69293U 26118AC  26265.49711982  .00001753  00000+0  25888-3 0  9998
2 69293  51.9028 332.8631 0000317  51.8019 308.2972 14.79938096 18531
KUIPER-00618            
1 69294U 26118AD  26265.40930233  .00001725  00000+0  25528-3 0  9992
2 69294  51.9039 320.7595 0001497 200.0221 160.0683 14.79927991 18694
KUIPER-00620            
1 69295U 26118AE  26265.42349346  .00001878  00000+0  27524-3 0  9991
2 69295  51.9058 323.2028 0000280  60.0168 300.0823 14.79934609 18661
KUIPER-00423            
1 69592U 26140A   26265.56455694  .00001041  00000+0  17839-3 0  9995
2 69592  51.9020 294.9934 0001247 135.2098 224.8964 14.76568687 16114
KUIPER-00428            
1 69593U 26140B   26265.57981353  .00011603  00000+0  31526-3 0  9997
2 69593  51.8800 288.0177 0005187 281.8430  78.1975 15.38012389 16213
KUIPER-00481            
1 69594U 26140C   26265.60510550  .00001066  00000+0  18216-3 0  9992
2 69594  51.9028 299.7742 0002090 346.6077  13.4828 14.76501032 16051
KUIPER-00490            
1 69595U 26140D   26265.39169104  .00001749  00000+0  25832-3 0  9994
2 69595  51.9038 305.7852 0000460  71.8859 288.2153 14.79943662 15950
KUIPER-00493            
1 69596U 26140E   26265.42008848  .00000367  00000+0  77210-4 0  9999
2 69596  51.9056 310.7115 0000811 314.4553  45.6343 14.79931437 15881
KUIPER-00496            
1 69597U 26140F   26265.58336806 -.00008712  00000+0 -85236-3 0  9995
2 69597  51.8961 294.0408 0003732 294.1070 292.2070 14.90831380  4714
KUIPER-00513            
1 69598U 26140G   26265.42547738  .00000268  00000+0  64200-4 0  9992
2 69598  51.9008 305.6798 0000284  67.4944 292.6049 14.79930338 15957
KUIPER-00516            
1 69599U 26140H   26265.58336806 -.00002416  00000+0 -17497-3 0  9996
2 69599  51.8925 290.0730 0008810 221.7344 276.3807 14.99106508  5440
KUIPER-00517            
1 69600U 26140J   26265.58336806 -.00543990  00000+0 -25694-1 0  9992
2 69600  51.8858 288.1598 0009717 175.4080 137.2432 15.21008073  4944
KUIPER-00520            
1 69601U 26140K   26265.41097980  .00001085  00000+0  18437-3 0  9993
2 69601  51.9020 307.7717 0000724 210.9370 149.1548 14.76604533 15926
KUIPER-00522            
1 69602U 26140L   26265.58336806  .00030852  00000+0  40983-2 0  9999
2 69602  51.9163 294.9775 0000058 290.0339 228.8828 14.79509754  4106
KUIPER-00528            
1 69603U 26140M   26265.40589914  .00001696  00000+0  25148-3 0  9992
2 69603  51.9043 308.2859 0000330  70.0775 290.0223 14.79931433 15913
KUIPER-00532            
1 69604U 26140N   26265.58336806 -.00019951  00000+0 -19706-2 0  9999
2 69604  51.8972 292.6804 0004229 249.7816  48.2654 14.91157773  5531
KUIPER-00533            
1 69605U 26140P   26265.12430672  .00001776  00000+0  26196-3 0  9992
2 69605  51.9044 304.5225 0000324  89.8342 270.2658 14.79930088 15943
KUIPER-00534            
1 69606U 26140Q   26265.58336806  .00024283  00000+0  84529-3 0  9999
2 69606  51.8815 289.0032 0012256 138.2630 110.6397 15.29488787  5359
KUIPER-00537            
1 69607U 26140R   26265.45384069  .00001697  00000+0  25156-3 0  9995
2 69607  51.9028 310.4790 0000860 355.1343   4.9611 14.79938927 15890
KUIPER-00538            
1 69608U 26140S   26265.42286487  .00001710  00000+0  25312-3 0  9998
2 69608  51.9055 308.1437 0000840  18.4814 341.6178 14.79956582 15923
KUIPER-00540            
1 69609U 26140T   26265.56659003  .00017975  00000+0  47653-3 0  9994
2 69609  51.8803 287.9429 0004300 278.6533  81.3967 15.38387656 16215
KUIPER-00541            
1 69610U 26140U   26265.58336806 -.01208779  00000+0 -79972-1 0  9995
2 69610  51.8951 288.6690 0007370 188.5856 180.4625 15.10057328  5238
KUIPER-00542            
1 69611U 26140V   26265.58336806  .00015601  00000+0  73822-3 0  9993
2 69611  51.8864 288.0348 0007381 171.4948 153.8993 15.19503684  4939
KUIPER-00543            
1 69612U 26140W   26265.58336806 -.00023221  00000+0 -25465-2 0  9992
2 69612  51.8994 292.6436 0002710 332.4157 183.8438 14.87053161  4936
KUIPER-00544            
1 69613U 26140X   26265.58336806  .00007179  00000+0  47950-3 0  9999
2 69613  51.8871 289.0213 0003832 171.1917 104.9878 15.07970560  4635
KUIPER-00546            
1 69614U 26140Y   26265.58336806  .00070586  00000+0  91241-2 0  9993
2 69614  51.9008 294.9880 0006872 141.5693 102.8141 14.80228359  3061
KUIPER-00547            
1 69615U 26140Z   26265.58336806  .00019756  00000+0  65362-3 0  9992
2 69615  51.8833 287.4591 0008664 153.7544 127.3420 15.31301996  5918
KUIPER-00549            
1 69616U 26140AA  26265.58336806 -.00006738  00000+0 -58061-3 0  9999
2 69616  51.8975 290.5553 0004083 207.3386 278.3973 14.95440750  5506
KUIPER-00550            
1 69617U 26140AB  26265.58336806  .00010125  00000+0  85775-3 0  9995
2 69617  51.8893 294.3889 0005368 289.6444 228.8553 14.98496456  2299
KUIPER-00551            
1 69618U 26140AC  26265.56585687  .00016564  00000+0  43746-3 0  9992
2 69618  51.8759 287.1709 0012659 156.6950 203.4613 15.38504177 16227
KUIPER-00554            
1 69619U 26140AD  26264.67652661  .00017159  00000+0  47255-3 0  9991
2 69619  51.8773 291.7051 0009542 165.3829 194.7436 15.37210058 16084
KUIPER-00555            
1 69620U 26140AE  26265.58028344  .00007180  00000+0  20461-3 0  9992
2 69620  51.8816 287.2989 0010574 156.5414 203.6058 15.37138936 16223
KUIPER-00556            
1 69621U 26140AF  26263.40783069  .00032263  00000+0  42658-2 0  9995
2 69621  51.8986 307.1072 0001232 346.5435  13.5495 14.79684580 15769
KUIPER-00557            
1 69622U 26140AG  26265.58336806  .00036707  00000+0  11407-2 0  9995
2 69622  51.8824 287.4732 0008278 172.2451 114.7081 15.32964525  3710
KUIPER-00560            
1 69623U 26140AH  26265.56469318  .00012867  00000+0  35900-3 0  9995
2 69623  51.8790 287.9015 0007372 197.1066 162.9674 15.37070460 16217
KUIPER-00561            
1 69624U 26140AJ  26265.29310225  .00001678  00000+0  24916-3 0  9991
2 69624  51.9032 303.7448 0000597  87.0151 273.0880 14.79925735 15973
KUIPER-00564            
1 69625U 26140AK  26265.58336806  .00024068  00000+0  31753-2 0  9991
2 69625  51.8969 299.9685 0000835 111.8919 161.4994 14.79926178  5409
KUIPER-00567            
1 69626U 26140AL  26265.39978510  .00000373  00000+0  78047-4 0  9997
2 69626  51.8998 298.2988 0002099 138.4559 221.6563 14.79926096 16052
KUIPER-00573            
1 69627U 26140AM  26265.36334211  .00000148  00000+0  48397-4 0  9994
2 69627  51.9038 300.9707 0000242  97.0101 263.0889 14.79926178 16018
KUIPER-00258            
1 69763U 26151A   26265.58336806 -.00037808  00000+0 -36909-2 0  9992
2 69763  51.8931 210.2788 0011558  66.7967  51.3809 14.91909673  3333
KUIPER-00526            
1 69764U 26151B   26265.08972288  .00002005  00000+0  29195-3 0  9997
2 69764  51.8970 227.2361 0000780  76.6148 283.4901 14.79927730 12339
KUIPER-00558            
1 69765U 26151C   26265.59616391 -.00001110  00000+0 -11664-3 0  9994
2 69765  51.8973 224.9161 0000689  88.6149 271.4893 14.79937270 12413
KUIPER-00569            
1 69766U 26151D   26265.27811610  .00001928  00000+0  28184-3 0  9991
2 69766  51.9021 223.8169 0000981  52.8428 307.2624 14.79934624 12402
KUIPER-00589            
1 69767U 26151E   26265.32698470  .00001335  00000+0  22029-3 0  9999
2 69767  51.9005 226.7178 0002963  68.3035 291.8242 14.76538745 12365
KUIPER-00598            
1 69768U 26151F   26265.57051802  .00002218  00000+0  31980-3 0  9996
2 69768  51.8988 217.5419 0000589  90.5761 269.5269 14.79931631 12518
KUIPER-00604            
1 69769U 26151G   26265.28088808  .00002293  00000+0  32948-3 0  9999
2 69769  51.9013 221.3205 0000601  60.3990 299.7032 14.79958971 12439
KUIPER-00609            
1 69770U 26151H   26265.57485864  .00001416  00000+0  23129-3 0  9993
2 69770  51.9015 217.3871 0002456  42.5525 317.5626 14.76625161 12519
KUIPER-00611            
1 69771U 26151J   26265.24705241  .00002045  00000+0  29719-3 0  9992
2 69771  51.8969 221.4525 0000898  69.5171 290.5888 14.79932116 12438
KUIPER-00612            
1 69772U 26151K   26265.58336806 -.00030233  00000+0 -39541-2 0  9992
2 69772  51.8992 222.4875 0001301 118.5912 338.7527 14.79937417  4954
KUIPER-00614            
1 69773U 26151L   26265.56782154  .00002191  00000+0  31635-3 0  9999
2 69773  51.8968 220.1025 0001126  73.4183 286.6903 14.79933933 12478
KUIPER-00615            
1 69774U 26151M   26265.57929127  .00000837  00000+0  13879-3 0  9999
2 69774  51.9020 224.9363 0001063 128.2936 231.8122 14.79935229 12410
KUIPER-00616            
1 69775U 26151N   26265.58336806 -.00060043  00000+0 -71944-2 0  9990
2 69775  51.8979 210.0468 0004161 161.1402 284.6295 14.83904933  3095
KUIPER-00617            
1 69776U 26151P   26265.28622314  .00002215  00000+0  31925-3 0  9991
2 69776  51.8990 216.2989 0000394 173.7114 186.3854 14.79964772 12505
KUIPER-00619            
1 69777U 26151Q   26265.58050955  .00001458  00000+0  23740-3 0  9995
2 69777  51.9011 217.3050 0001515 154.9773 205.1262 14.76589091 12518
KUIPER-00621            
1 69778U 26151R   26265.26393529  .00002153  00000+0  31129-3 0  9991
2 69778  51.8991 221.3931 0000783  99.0198 261.0853 14.79932043 12434
KUIPER-00622            
1 69779U 26151S   26265.58672694  .00001512  00000+0  24525-3 0  9990
2 69779  51.9010 223.9847 0001198  76.3006 283.8089 14.76573511 12429
KUIPER-00623            
1 69780U 26151T   26265.59884341  .00002134  00000+0  30891-3 0  9991
2 69780  51.8963 222.4234 0001189 104.8682 255.2412 14.79924196 12445
KUIPER-00626            
1 69781U 26151U   26265.14845379  .00001987  00000+0  28966-3 0  9996
2 69781  51.8987 219.3826 0000890 109.0757 251.0302 14.79927947 12452
KUIPER-00627            
1 69782U 26151V   26265.58336806 -.00061252  00000+0 -77281-2 0  9991
2 69782  51.8998 212.5028 0002296  90.9087 211.4863 14.81784674  3846
KUIPER-00629            
1 69783U 26151W   26265.27271033  .00002223  00000+0  32058-3 0  9993
2 69783  51.9011 228.7947 0000625  87.9520 272.1514 14.79928749 12336
KUIPER-00631            
1 69784U 26151X   26265.28959695  .00001954  00000+0  28519-3 0  9999
2 69784  51.9000 228.7803 0000575  91.6295 268.4733 14.79933230 12333
KUIPER-00634            
1 69785U 26151Y   26265.31187755  .00002124  00000+0  30745-3 0  9998
2 69785  51.8993 223.6858 0000833 102.4062 257.6994 14.79939514 12406
KUIPER-00639            
1 69786U 26151Z   26265.58336806 -.00062036  00000+0 -78353-2 0  9997
2 69786  51.9007 212.4833 0002443  44.9162  77.6123 14.81747038  5185
KUIPER-00641            
1 69787U 26151AA  26265.26931686  .00002202  00000+0  31783-3 0  9994
2 69787  51.8991 216.3801 0002305 132.2542 227.8617 14.79923991 12507
KUIPER-00644            
1 69788U 26151AB  26265.58336806 -.00027251  00000+0 -22329-2 0  9991
2 69788  51.8906 208.1678 0008109  60.3701  26.4703 14.98604376  5292
KUIPER-00646            
1 69789U 26151AC  26265.16801788  .00001938  00000+0  28317-3 0  9998
2 69789  51.8973 216.9102 0000650  99.0515 261.0521 14.79923308 12483
KUIPER-00647            
1 69790U 26151AD  26265.58336806 -.01012643  00000+0 -14219+0 0  9990
2 69790  51.9243 214.5913 0001264 326.0796 173.4119 14.79838340  4870
KUIPER-00662            
1 69791U 26151AE  26265.32345939  .00002042  00000+0  29680-3 0  9991
2 69791  51.9007 228.6278 0000245  41.1008 318.9973 14.79920665 12334
