ORBCOMM FM06            
1 25118U 97084G   26282.23137937  .00000816  00000+0  25753-3 0  9999
2 25118  45.0132 223.5922 0001538 329.8695 185.1108 14.47788618510912
ORBCOMM FM04            
1 25159U 98007C   26282.09636590  .00000632  00000+0  26115-3 0  9992
2 25159 107.9623  43.8614 0038967 129.2781 231.1826 14.35896291492940
ORBCOMM FM19            
1 25415U 98046C   26282.81237619  .00000718  00000+0  27256-3 0  9991
2 25415  44.9941  58.6218 0004944 171.4856 341.4560 14.39670794473291
ORBCOMM FM20            
1 25416U 98046D   26282.77261866  .00000522  00000+0  21678-3 0  9993
2 25416  44.9939  68.0167 0002060 171.9235 188.1647 14.38197781473280
ORBCOMM FM27            
1 25481U 98053G   26281.05514573  .00000492  00000+0  20270-3 0  9992
2 25481  45.0038 159.1897 0001499  45.0264 315.0706 14.39308191466496
ORBCOMM FM32            
1 25982U 99065C   26280.27490088  .00000432  00000+0  19083-3 0  9993
2 25982  45.0167   2.6256 0007948 249.8502 110.1491 14.37264219403216
ORBCOMM FM109           
1 40086U 14040A   26281.03065165  .00000222  00000+0  83172-4 0  9992
2 40086  47.0028 277.9325 0001682 338.8526  21.2291 14.58935382650824
ORBCOMM FM110           
1 41182U 15081D   26282.12761433  .00000445  00000+0  13014-3 0  9992
2 41182  47.0011 182.6399 0003091 249.0747 110.9808 14.58988359574266
ORBCOMM FM118           
1 41183U 15081E   26282.78059155  .00000444  00000+0  13034-3 0  9997
2 41183  47.0033 179.9313 0003380 207.3028 152.7680 14.58836997574460
ORBCOMM FM112           
1 41184U 15081F   26282.85111774  .00000237  00000+0  86203-4 0  9991
2 41184  46.9981  87.9883 0002407   8.4216 351.6710 14.58978734575695
ORBCOMM FM113           
1 41185U 15081G   26282.07787853  .00000251  00000+0  89120-4 0  9990
2 41185  46.9998  92.0760 0001349 355.9230   4.1644 14.58949308575562
ORBCOMM FM108           
1 41187U 15081J   26282.24292787  .00000349  00000+0  10979-3 0  9991
2 41187  47.0063   2.8837 0002108 334.7966  25.2817 14.58999359576735
ORBCOMM FM117           
1 41188U 15081K   26282.82591375  .00000475  00000+0  13647-3 0  9996
2 41188  47.0028 358.7363 0002368 347.9865  12.0964 14.58983461576864
ORBCOMM FM116           
1 41189U 15081L   26282.80632147  .00000226  00000+0  83848-4 0  9993
2 41189  47.0013  88.6274 0001902 228.1629 131.9094 14.58980932575673
