KUIPER-00008            
1 63724U 25088A   26271.93329978 -.00000858  00000+0 -83612-4 0  9999
2 63724  51.8992 269.2633 0000377  81.7221 278.3784 14.79929178 78143
KUIPER-00009            
1 63725U 25088B   26272.01219792  .00003193  00000+0  22261-3 0  9997
2 63725  51.9017 274.5565 0000706  17.1291 342.9708 15.08136230 78070
KUIPER-00010            
1 63726U 25088C   26271.36470072  .00000714  00000+0  12269-3 0  9998
2 63726  51.9011 266.8927 0000588  46.4732 313.6280 14.79937050 77743
KUIPER-00011            
1 63727U 25088D   26271.99816076  .00000415  00000+0  83395-4 0  9993
2 63727  51.8994 271.6310 0000518  46.2556 313.8449 14.79925379 77861
KUIPER-00012            
1 63728U 25088E   26272.11562367  .00000558  00000+0  10224-3 0  9998
2 63728  51.9012 256.0529 0000802  73.9187 286.1864 14.79924538 78046
KUIPER-00013            
1 63729U 25088F   26272.04679310  .00000217  00000+0  57484-4 0  9990
2 63729  51.9021 288.8779 0000574  93.7367 266.3661 14.79924077 77685
KUIPER-00014            
1 63730U 25088G   26271.33772558 -.00000381  00000+0 -20956-4 0  9999
2 63730  51.9028 291.9601 0000553  54.0533 306.0481 14.79924851 77395
KUIPER-00015            
1 63731U 25088H   26271.29317510  .00000486  00000+0  92760-4 0  9994
2 63731  51.9000 302.1982 0000567  50.7675 309.3338 14.79929569 77701
KUIPER-00016            
1 63732U 25088J   26271.26751143  .00000071  00000+0  38289-4 0  9992
2 63732  51.8973 294.7687 0000563  75.4241 284.6784 14.79929014 77342
KUIPER-00018            
1 63733U 25088K   26272.05489451 -.00000035  00000+0  24382-4 0  9991
2 63733  51.9038 281.3401 0000401  49.1773 310.9224 14.79927623 77606
KUIPER-00019            
1 63734U 25088L   26272.01399269  .00000754  00000+0  12783-3 0  9993
2 63734  51.9010 280.2622 0000576  19.4304 340.6680 14.79949292 77616
KUIPER-00020            
1 63735U 25088M   26271.24183842 -.00000854  00000+0 -83102-4 0  9993
2 63735  51.9019 287.4286 0000594  57.7115 302.3905 14.79923424 77654
KUIPER-00021            
1 63736U 25088N   26271.34311709  .00000521  00000+0  97346-4 0  9994
2 63736  51.9017 286.9270 0000461  82.3572 277.7443 14.79917307 77503
KUIPER-00023            
1 63737U 25088P   26272.04948431 -.00000899  00000+0 -88986-4 0  9991
2 63737  51.9005 286.2966 0000551  55.9025 304.1989 14.79928749 77877
KUIPER-00024            
1 63738U 25088Q   26271.99545220  .00000586  00000+0  10587-3 0  9996
2 63738  51.9034 274.1513 0000583  49.7563 310.3450 14.79937008 78160
KUIPER-00025            
1 63739U 25088R   26271.34583232  .00001066  00000+0  16876-3 0  9992
2 63739  51.9037 284.5048 0000472  64.7534 295.3478 14.79933641 77827
KUIPER-00027            
1 63740U 25088S   26271.45250223  .00000935  00000+0  15163-3 0  9999
2 63740  51.9015 278.9887 0000486  80.9373 279.1645 14.79929817 77645
KUIPER-00028            
1 63741U 25088T   26271.42144384 -.00000510  00000+0 -37939-4 0  9994
2 63741  51.8988 276.5666 0000447  36.0706 324.0287 14.79927266 78089
KUIPER-00029            
1 63742U 25088U   26272.00521998 -.00000533  00000+0 -40943-4 0  9994
2 63742  51.9030 272.6839 0000661  17.0180 343.0805 14.79927868 77715
KUIPER-00030            
1 63743U 25088V   26272.04410300  .00000630  00000+0  11171-3 0  9999
2 63743  51.9023 291.3330 0000433  53.0274 307.0728 14.79924507 77747
KUIPER-00031            
1 63744U 25088W   26272.16158356  .00000621  00000+0  11050-3 0  9999
2 63744  51.9011 275.8350 0000501  42.5287 317.5714 14.79926794 77681
KUIPER-00032            
1 63745U 25088X   26271.30555107  .00008999  00000+0  21122-3 0  9997
2 63745  51.8648 120.1546 0005058 121.3230 238.8255 15.42807269 80777
KUIPER-00033            
1 63746U 25088Y   26271.38639074 -.00000199  00000+0  28745-5 0  9997
2 63746  51.9001 309.2609 0000417  53.0257 307.0743 14.79927904 77636
KUIPER-00034            
1 63747U 25088Z   26271.49436996  .00000533  00000+0  98871-4 0  9995
2 63747  51.9015 271.3218 0000525  71.8754 288.2266 14.79922672 77858
KUIPER-00035            
1 63748U 25088AA  26271.33234655 -.00000221  00000+0 -37857-7 0  9993
2 63748  51.8998 297.0009 0000736  85.5953 274.5094 14.79929828 77530
KUIPER-00037            
1 63749U 25088AB  26272.06809632 -.00000200  00000+0  27510-5 0  9997
2 63749  51.9012 292.6098 0000412  60.1598 299.9405 14.79927509 78445
KUIPER-00038            
1 63750U 25088AC  26272.05758057 -.00000232  00000+0 -14441-5 0  9997
2 63750  51.9020 278.8301 0000558  95.5362 264.5664 14.79930441 77635
KUIPER-00039            
1 64500U 25134A   26271.55745191  .00001940  00000+0  28337-3 0  9994
2 64500  51.9019  56.0376 0000538 116.6924 243.4094 14.79929648 70118
KUIPER-00040            
1 64501U 25134B   26271.58043652  .00000026  00000+0  32384-4 0  9993
2 64501  51.8983  65.9914 0000849 127.0265 233.0775 14.79927520 69974
KUIPER-00041            
1 64502U 25134C   26272.15173172  .00001631  00000+0  24294-3 0  9992
2 64502  51.8974  65.8583 0000558 122.1754 237.9262 14.79926826 70022
KUIPER-00042            
1 64503U 25134D   26272.12335972  .00000322  00000+0  71195-4 0  9997
2 64503  51.8969  60.9592 0000588 110.2529 249.8496 14.79925686 70095
KUIPER-00043            
1 64504U 25134E   26272.13144836 -.00000027  00000+0  25424-4 0  9993
2 64504  51.9021  53.4433 0000563 111.0052 249.0971 14.79927793 70204
KUIPER-00044            
1 64505U 25134F   26271.44266823  .00001739  00000+0  25702-3 0  9996
2 64505  51.8989  68.9752 0000565 115.0232 245.0789 14.79929953 69928
KUIPER-00046            
1 64506U 25134G   26271.61417659  .00001725  00000+0  25519-3 0  9992
2 64506  51.8973  65.6865 0000482 113.0109 247.0904 14.79928592 69985
KUIPER-00047            
1 64507U 25134H   26271.54254882 -.00002584  00000+0 -31003-3 0  9993
2 64507  51.8952  38.5308 0000025  69.8787 290.2178 14.79942768 70354
KUIPER-00048            
1 64508U 25134J   26272.04902498  .00000085  00000+0  40209-4 0  9994
2 64508  51.8998  36.3058 0000582 126.8793 233.2222 14.79928866 70431
KUIPER-00049            
1 64509U 25134K   26271.59658352  .00002071  00000+0  30053-3 0  9993
2 64509  51.8992  50.7784 0000403 138.4305 221.6688 14.79932731 70198
KUIPER-00050            
1 64510U 25134L   26272.02056477  .00002017  00000+0  29320-3 0  9999
2 64510  51.9012  31.4249 0000303 136.3278 223.7708 14.79969510 70507
KUIPER-00051            
1 64511U 25134M   26271.57261272  .00001832  00000+0  26923-3 0  9990
2 64511  51.9004  49.5831 0000419 129.8624 230.2375 14.79934652 70205
KUIPER-00053            
1 64513U 25134P   26271.56972000  .00001589  00000+0  22821-3 0  9991
2 64513  51.9001  43.8999 0002256 150.9654 209.1435 14.81663766 70283
KUIPER-00054            
1 64514U 25134Q   26271.57361429  .00000204  00000+0  55807-4 0  9994
2 64514  51.8986  40.8806 0000237 118.3679 241.7308 14.79929729 70328
KUIPER-00055            
1 64515U 25134R   26271.52353803  .00004900  00000+0  67100-3 0  9992
2 64515  51.9003 353.7585 0000491  51.4274 308.6732 14.79947647 70985
KUIPER-00056            
1 64516U 25134S   26271.60200435  .00000710  00000+0  12219-3 0  9990
2 64516  51.9000  45.8765 0000430 123.2409 236.8594 14.79927554 70267
KUIPER-00057            
1 64517U 25134T   26271.59390169  .00000962  00000+0  15516-3 0  9995
2 64517  51.8998  53.3233 0000484 124.9492 235.1516 14.79927953 70153
KUIPER-00058            
1 64518U 25134U   26271.56552679  .00002139  00000+0  30939-3 0  9993
2 64518  51.9016  48.4301 0000285 116.2068 243.8924 14.79937389 70220
KUIPER-00059            
1 64519U 25134V   26271.57092509 -.00000773  00000+0 -72431-4 0  9994
2 64519  51.8989  43.4413 0000384 115.0100 245.0902 14.79926009 70296
KUIPER-00060            
1 64520U 25134W   26271.60470030  .00003314  00000+0  46344-3 0  9994
2 64520  51.9029  43.3734 0000489 119.2948 240.8063 14.79936917 70280
KUIPER-00061            
1 64521U 25134X   26271.56282274  .00002197  00000+0  31710-3 0  9990
2 64521  51.9006  50.9969 0000548 129.5273 230.5738 14.79923964 70172
KUIPER-00062            
1 64522U 25134Y   26271.56013504  .00002168  00000+0  31325-3 0  9999
2 64522  51.8947  53.4496 0000436 105.6514 254.4497 14.79931580 70156
KUIPER-00063            
1 64523U 25134Z   26270.87676701  .00004366  00000+0  60146-3 0  9992
2 64523  51.9014  64.0755 0000760 126.8600 233.2432 14.79922702 69945
KUIPER-00064            
1 64524U 25134AA  26271.89239514  .00001790  00000+0  26379-3 0  9991
2 64524  51.9024  57.0113 0000793 131.8259 228.2771 14.79936041 70133
KUIPER-00065            
1 64525U 25134AB  26271.14419195 -.00000234  00000+0 -17187-5 0  9998
2 64525  51.9028  65.4959 0000581 117.2447 242.8575 14.79927469 69935
KUIPER-00066            
1 64526U 25134AC  26271.44792832 -.00000537  00000+0 -41484-4 0  9996
2 64526  51.9034   1.4199 0000381  90.7585 269.3421 14.79926889 70879
KUIPER-00069            
1 64816U 25151A   26271.23610026  .00001668  00000+0  24769-3 0  9998
2 64816  51.9000 104.9947 0000813 111.6541 248.4508 14.79933625 66751
KUIPER-00070            
1 64817U 25151B   26271.04029745  .00001954  00000+0  28524-3 0  9991
2 64817  51.8983 130.7583 0001211 101.3822 258.7276 14.79933140 66382
KUIPER-00071            
1 64818U 25151C   26271.98840855  .00001749  00000+0  25833-3 0  9990
2 64818  51.9002 124.1131 0000740 106.1414 253.9630 14.79935331 65371
KUIPER-00072            
1 64819U 25151D   26271.97621712  .00001880  00000+0  27565-3 0  9999
2 64819  51.8974 104.0857 0000833 104.1014 256.0041 14.79922601 65655
KUIPER-00073            
1 64820U 25151E   26271.88712696  .00000614  00000+0  10962-3 0  9990
2 64820  51.8981 124.5386 0001252  98.5933 261.5171 14.79926819 66540
KUIPER-00075            
1 64822U 25151G   26271.42347074  .00014310  00000+0  37596-3 0  9996
2 64822  51.8633 313.5765 0002524 279.2475  80.8227 15.38854352 67698
KUIPER-00076            
1 64823U 25151H   26271.02002589  .00001901  00000+0  27837-3 0  9991
2 64823  51.8988 118.3964 0000846 108.0449 252.0606 14.79929463 65376
KUIPER-00077            
1 64824U 25151J   26271.96005248 -.00000051  00000+0  22317-4 0  9995
2 64824  51.9014 119.2630 0001116 106.2273 253.8812 14.79927583 65441
KUIPER-00078            
1 64825U 25151K   26270.78096678  .00001920  00000+0  28077-3 0  9995
2 64825  51.8971 121.9463 0001050 108.1942 251.9135 14.79935058 65306
KUIPER-00079            
1 64826U 25151L   26271.88981348  .00000313  00000+0  70149-4 0  9998
2 64826  51.8998 121.9927 0001153 122.9241 237.1833 14.79928261 66592
KUIPER-00080            
1 64827U 25151M   26271.99110449  .00001554  00000+0  23279-3 0  9996
2 64827  51.8980 121.5641 0000701 111.6847 248.4190 14.79923407 65416
KUIPER-00082            
1 64828U 25151N   26271.97082990  .00001760  00000+0  25975-3 0  9998
2 64828  51.9002 109.2160 0000845 109.2935 250.8119 14.79934008 65587
KUIPER-00083            
1 64829U 25151P   26271.28744609  .00001746  00000+0  25801-3 0  9997
2 64829  51.8991 119.7191 0001120 107.1917 252.9168 14.79930067 66565
KUIPER-00084            
1 64830U 25151Q   26271.88441439  .00001820  00000+0  26766-3 0  9994
2 64830  51.9004 127.0648 0000743 111.6153 248.4889 14.79938015 65328
KUIPER-00085            
1 64831U 25151R   26271.53189887  .00001498  00000+0  22549-3 0  9999
2 64831  51.9014 111.2171 0000883 105.4120 254.6940 14.79929423 65517
KUIPER-00086            
1 64832U 25151S   26271.31851643  .00001894  00000+0  27738-3 0  9997
2 64832  51.8989 122.0914 0000956 113.4096 246.6967 14.79931279 65348
KUIPER-00087            
1 64833U 25151T   26271.26985166  .00000640  00000+0  11289-3 0  9992
2 64833  51.8978 104.7592 0000714 110.7272 249.3767 14.79937518 65579
KUIPER-00089            
1 64834U 25151U   26271.26444872 -.00002750  00000+0 -33188-3 0  9995
2 64834  51.8991 109.8099 0000520 101.8831 258.2190 14.79930202 65516
KUIPER-00090            
1 64835U 25151V   26270.79985037  .00001761  00000+0  26000-3 0  9990
2 64835  51.8965 104.3562 0000826 118.9262 241.1783 14.79924244 65540
KUIPER-00091            
1 64836U 25151W   26271.53728611  .00001611  00000+0  24024-3 0  9995
2 64836  51.8992 106.1263 0000994 119.4637 240.6425 14.79930668 65585
KUIPER-00092            
1 64837U 25151X   26271.86684755  .00000908  00000+0  14811-3 0  9993
2 64837  51.8996 112.1573 0000774 105.9957 254.1091 14.79925165 66746
KUIPER-00093            
1 64838U 25151Y   26271.99920314  .00000508  00000+0  95718-4 0  9994
2 64838  51.8993 114.0408 0000918 120.0821 240.0232 14.79926613 65514
KUIPER-00094            
1 64839U 25151Z   26270.76468605  .00002411  00000+0  34515-3 0  9991
2 64839  51.9030  74.6153 0000931 124.6644 235.4406 14.79934447 65968
KUIPER-00081            
1 65132U 25171A   26271.37899599 -.00000245  00000+0 -31512-5 0  9999
2 65132  51.9001 331.7782 0000509 127.1033 232.9976 14.79929099 63058
KUIPER-00088            
1 65133U 25171B   26271.90039051  .00012923  00000+0  17229-2 0  9998
2 65133  51.9019 346.9760 0001044 120.4086 239.6980 14.79883929 62881
KUIPER-00095            
1 65134U 25171C   26271.44924160  .00000537  00000+0  99427-4 0  9992
2 65134  51.9002 329.0058 0000287  89.2270 270.8726 14.79928067 63093
KUIPER-00096            
1 65135U 25171D   26271.40197787  .00000146  00000+0  48110-4 0  9995
2 65135  51.9009 341.6732 0000364  77.0783 283.0220 14.79929122 62918
KUIPER-00097            
1 65136U 25171E   26271.93953884  .00000801  00000+0  13408-3 0  9991
2 65136  51.9029 341.9674 0000340  84.9476 275.1525 14.79935436 62947
KUIPER-00098            
1 65137U 25171F   26272.20693625  .00001728  00000+0  25557-3 0  9994
2 65137  51.9017 343.1430 0000585  69.9757 290.1268 14.79933890 62308
KUIPER-00099            
1 65138U 25171G   26271.91385612  .00000368  00000+0  77238-4 0  9999
2 65138  51.9031 334.4566 0000295  25.4074 334.6903 14.79927849 63055
KUIPER-00100            
1 65139U 25171H   26271.88277683  .00001076  00000+0  17010-3 0  9992
2 65139  51.8995 332.0553 0000190  70.0304 290.0678 14.79932093 63084
KUIPER-00102            
1 65140U 25171J   26271.88007529  .00000561  00000+0  10252-3 0  9993
2 65140  51.8989 334.5352 0000155  48.3268 311.7707 14.79931330 63044
KUIPER-00103            
1 65141U 25171K   26271.42226713  .00002265  00000+0  32601-3 0  9997
2 65141  51.9002 354.0625 0000280  79.6232 280.4762 14.79928720 62736
KUIPER-00104            
1 65142U 25171L   26271.90845440  .00000770  00000+0  12996-3 0  9999
2 65142  51.9028 339.4356 0000286  67.6148 292.4844 14.79933111 62983
KUIPER-00105            
1 65143U 25171M   26272.20426580  .00001972  00000+0  28757-3 0  9991
2 65143  51.9013 345.7159 0000285 110.6268 249.4725 14.79928549 62923
KUIPER-00106            
1 65144U 25171N   26271.44215063  .00000832  00000+0  13816-3 0  9993
2 65144  51.9022 327.8552 0000419  77.2004 282.9005 14.79932000 63119
KUIPER-00107            
1 65145U 25171P   26271.88547933  .00000700  00000+0  12087-3 0  9999
2 65145  51.9028 329.5706 0000446  64.9327 295.1681 14.79935247 63120
KUIPER-00108            
1 65146U 25171Q   26271.50059126  .00000571  00000+0  10385-3 0  9996
2 65146  51.9020 343.8192 0000389  85.2822 274.8185 14.79930191 62892
KUIPER-00109            
1 65147U 25171R   26271.87739301  .00000757  00000+0  12836-3 0  9996
2 65147  51.9032 337.0951 0000854  85.8205 274.2855 14.79926401 63014
KUIPER-00110            
1 65148U 25171S   26271.42496842 -.00000096  00000+0  16400-4 0  9997
2 65148  51.9001 351.6384 0000245  85.9086 274.1904 14.79929083 62769
KUIPER-00111            
1 65149U 25171T   26271.45331610  .00002164  00000+0  31270-3 0  9990
2 65149  51.8980 356.3707 0000247 104.3021 255.7969 14.79934601 62705
KUIPER-00112            
1 65150U 25171U   26271.43844729  .00000510  00000+0  95904-4 0  9998
2 65150  51.9042 339.0799 0000408 100.7042 259.3967 14.79925708 62940
KUIPER-00114            
1 65151U 25171V   26271.92334257  .00001065  00000+0  16866-3 0  9998
2 65151  51.8999 356.8921 0000197  39.7538 320.3438 14.79931886 62734
KUIPER-00115            
1 65152U 25171W   26271.52626052  .00000239  00000+0  60395-4 0  9991
2 65152  51.8993 351.1568 0000263  82.4981 277.6011 14.79929387 62784
KUIPER-00116            
1 65153U 25171X   26271.48710541 -.00000596  00000+0 -49123-4 0  9998
2 65153  51.9008 356.3612 0000633 118.3326 241.7700 14.79928863 62700
KUIPER-00118            
1 65154U 25171Y   26271.55192804 -.00003697  00000+0 -45612-3 0  9996
2 65154  51.8987 358.5227 0000234  54.6471 305.4513 14.79936975 62682
KUIPER-00119            
1 65155U 25171Z   26271.49788902  .00002201  00000+0  31759-3 0  9995
2 65155  51.9017 346.3653 0000472  87.8387 272.2630 14.79933905 62843
KUIPER-00120            
1 65762U 25217A   26272.13988712  .00001947  00000+0  28431-3 0  9992
2 65762  51.8983 233.3886 0000816  66.6353 293.4695 14.79931030 54867
KUIPER-00132            
1 65763U 25217B   26272.02140032  .00017971  00000+0  45741-3 0  9993
2 65763  51.8506  94.0808 0005243 329.3722  30.6959 15.39635002 56787
KUIPER-00133            
1 65764U 25217C   26272.10613650  .00001861  00000+0  27301-3 0  9997
2 65764  51.9020 233.6820 0000628  71.8191 288.2840 14.79935290 54868
KUIPER-00139            
1 65765U 25217D   26272.00612186 -.00000667  00000+0 -58481-4 0  9999
2 65765  51.8989 201.5420 0001078  79.0136 281.0948 14.79926616 55303
KUIPER-00142            
1 65766U 25217E   26272.09124183  .00001875  00000+0  27492-3 0  9991
2 65766  51.8986 216.1343 0000910  75.1959 284.9104 14.79924122 55105
KUIPER-00145            
1 65767U 25217F   26272.15607801  .00001745  00000+0  25795-3 0  9992
2 65767  51.9006 218.3748 0000881  71.5326 288.5732 14.79922540 55073
KUIPER-00147            
1 65768U 25217G   26272.05197132  .00001994  00000+0  29082-3 0  9992
2 65768  51.8983 221.3055 0000946  64.9437 295.1624 14.79893987 55024
KUIPER-00148            
1 65769U 25217H   26272.00342911 -.00000086  00000+0  17748-4 0  9994
2 65769  51.9044 204.0794 0000841  86.5506 273.5553 14.79927038 55265
KUIPER-00150            
1 65770U 25217J   26272.17635448  .00001906  00000+0  27896-3 0  9999
2 65770  51.9002 230.8079 0000794  76.3538 283.7512 14.79936345 54902
KUIPER-00151            
1 65771U 25217K   26272.11690321  .00001995  00000+0  29060-3 0  9998
2 65771  51.8999 223.5686 0000788  69.4305 290.6741 14.79933691 55002
KUIPER-00152            
1 65772U 25217L   26272.02909744  .00002056  00000+0  29859-3 0  9996
2 65772  51.9003 211.4363 0001006  66.1767 293.9300 14.79938022 55165
KUIPER-00153            
1 65773U 25217M   26272.03450043  .00002086  00000+0  30259-3 0  9990
2 65773  51.9014 206.5024 0001002  92.1496 267.9581 14.79932106 55238
KUIPER-00155            
1 65774U 25217N   26271.99663172  .00000233  00000+0  59510-4 0  9998
2 65774  51.9006 179.1319 0000776  96.0538 264.0513 14.79932979 55612
KUIPER-00156            
1 65775U 25217P   26272.06827271  .00000679  00000+0  11811-3 0  9995
2 65775  51.9022 206.3365 0000818  73.8770 286.2282 14.79929861 55236
KUIPER-00165            
1 65778U 25217S   26272.05747323  .00002011  00000+0  29272-3 0  9998
2 65778  51.9000 216.3133 0000778  99.0783 261.0267 14.79933432 55095
KUIPER-00166            
1 65779U 25217T   26272.10472668  .00000877  00000+0  14406-3 0  9993
2 65779  51.9024 203.6688 0000930  92.4930 267.6139 14.79928417 55274
KUIPER-00167            
1 65780U 25217U   26272.11419501  .00001995  00000+0  29068-3 0  9995
2 65780  51.8949 225.9382 0000990  63.2284 296.8780 14.79933454 54961
KUIPER-00168            
1 65781U 25217V   26272.13307622  .00002100  00000+0  30436-3 0  9998
2 65781  51.8997 208.4842 0001006  77.4468 282.6607 14.79934675 55218
KUIPER-00169            
1 65782U 25217W   26271.99263859  .00001625  00000+0  24215-3 0  9994
2 65782  51.9001 214.1192 0000755  83.7380 276.3669 14.79936329 55127
KUIPER-00170            
1 65783U 25217X   26271.98724221 -.00000036  00000+0  24261-4 0  9997
2 65783  51.8973 219.0833 0000823  77.4178 282.6876 14.79927908 55057
KUIPER-00172            
1 65785U 25217Z   26272.10742170  .00001592  00000+0  23779-3 0  9996
2 65785  51.8963 201.0862 0001265  57.5335 302.5750 14.79928779 55315
KUIPER-00173            
1 65786U 25217AA  26272.09392308 -.00002094  00000+0 -24585-3 0  9995
2 65786  51.8998 213.6609 0000892  67.9802 292.1255 14.79925608 55133
KUIPER-00174            
1 65787U 25217AB  26272.03179008  .00001082  00000+0  17100-3 0  9999
2 65787  51.9032 209.0005 0000744 105.3510 254.7534 14.79915536 55191
KUIPER-00176            
1 65788U 25217AC  26272.08314670  .00000374  00000+0  78142-4 0  9998
2 65788  51.9003 223.6890 0000943  70.0785 290.0279 14.79929891 54992
KUIPER-00101            
1 65947U 25228A   26272.09517649  .00002382  00000+0  34152-3 0  9992
2 65947  51.8975 181.0797 0000900  68.7646 291.3412 14.79915181 53351
KUIPER-00113            
1 65948U 25228B   26272.13437243  .00002156  00000+0  31179-3 0  9994
2 65948  51.8982 175.9279 0001055  87.0656 273.0427 14.79928600 53425
KUIPER-00117            
1 65949U 25228C   26272.09791235  .00001256  00000+0  19378-3 0  9991
2 65949  51.8971 178.5866 0001084  95.3886 264.7200 14.79924894 53386
KUIPER-00121            
1 65950U 25228D   26271.93448087  .00001997  00000+0  29083-3 0  9995
2 65950  51.8990 174.3343 0000996  93.1070 267.0007 14.79935083 53434
KUIPER-00122            
1 65951U 25228E   26272.12628943  .00001213  00000+0  18815-3 0  9991
2 65951  51.8981 183.4543 0000985  93.5692 266.5383 14.79926941 53322
KUIPER-00123            
1 65952U 25228F   26272.16004926  .00000022  00000+0  31969-4 0  9998
2 65952  51.8983 183.3129 0000973  84.7449 275.3625 14.79923146 53324
KUIPER-00124            
1 65953U 25228G   26272.16814324  .00001417  00000+0  21485-3 0  9990
2 65953  51.8987 175.7663 0001149  78.3901 281.7190 14.79925595 53435
KUIPER-00125            
1 65954U 25228H   26271.91418713  .00002000  00000+0  29135-3 0  9994
2 65954  51.9005 161.9457 0001116  96.2274 263.8816 14.79927618 53605
KUIPER-00126            
1 65955U 25228J   26272.06145588 -.00002422  00000+0 -28877-3 0  9991
2 65955  51.8978 181.2718 0000937 102.3467 257.7600 14.79935413 53348
KUIPER-00127            
1 65956U 25228K   26271.98513032  .00001987  00000+0  28962-3 0  9993
2 65956  51.8984 174.0937 0000998  83.0426 277.0650 14.79933269 53444
KUIPER-00128            
1 65957U 25228L   26272.10332155  .00001710  00000+0  25329-3 0  9992
2 65957  51.9000 173.6368 0000857  95.5351 264.5709 14.79924801 53456
KUIPER-00129            
1 65958U 25228M   26272.00740727  .00002238  00000+0  32247-3 0  9993
2 65958  51.8985 169.0395 0001075  82.7484 277.3600 14.79932325 53514
KUIPER-00130            
1 65959U 25228N   26272.03849263  .00000285  00000+0  66465-4 0  9992
2 65959  51.9037 171.4537 0000902  94.1494 265.9572 14.79927090 43776
KUIPER-00134            
1 65960U 25228P   26271.58819721  .00016090  00000+0  43325-3 0  9999
2 65960  51.8713  55.4919 0004218 309.4602  50.6011 15.37992148 55052
KUIPER-00135            
1 65961U 25228Q   26272.00472862  .00001065  00000+0  16874-3 0  9994
2 65961  51.9017 171.6509 0000993  96.8389 263.2686 14.79929583 53474
KUIPER-00136            
1 65962U 25228R   26271.97363095  .00001443  00000+0  21825-3 0  9999
2 65962  51.8997 169.2316 0001022  82.6821 277.4258 14.79923000 53502
KUIPER-00137            
1 65963U 25228S   26271.90881938  .00001932  00000+0  28236-3 0  9990
2 65963  51.9019 167.0335 0001145  82.1577 277.9516 14.79931029 53530
KUIPER-00138            
1 65964U 25228T   26272.08033309  .00000470  00000+0  90680-4 0  9991
2 65964  51.8984 163.6666 0001118  92.0387 268.0704 14.79925356 53591
KUIPER-00140            
1 65965U 25228U   26272.07764737  .00002044  00000+0  29715-3 0  9996
2 65965  51.9002 166.2731 0001046  96.9560 263.1521 14.79925579 53558
KUIPER-00141            
1 65966U 25228V   26271.94798704  .00002105  00000+0  30510-3 0  9996
2 65966  51.9020 161.9274 0000772 105.8746 254.2302 14.79930593 53600
KUIPER-00146            
1 65967U 25228W   26271.91152110  .00001417  00000+0  21478-3 0  9997
2 65967  51.9016 164.6013 0001337  88.8931 271.2185 14.79936222 53569
KUIPER-00149            
1 65968U 25228X   26271.88313753  .00000901  00000+0  14718-3 0  9992
2 65968  51.8989 159.5974 0001128  96.7351 263.3740 14.79934951 53633
KUIPER-00154            
1 65969U 25228Y   26271.98712627  .00001917  00000+0  28042-3 0  9990
2 65969  51.8970 156.6226 0000982  89.2322 270.8753 14.79932204 53685
KUIPER-00157            
1 65970U 25228Z   26271.96230360 -.00013185  00000+0 -18684-2 0  9991
2 65970  51.9040 159.1597 0000942  76.7836 283.3230 14.76053668 53642
KUIPER-00144            
1 67133U 25301A   26272.10343147  .00000208  00000+0  56283-4 0  9990
2 67133  51.9003 236.1314 0000902  70.1636 289.9423 14.79926975 43995
KUIPER-00164            
1 67134U 25301B   26272.15748513  .00001631  00000+0  24284-3 0  9998
2 67134  51.9024 248.4137 0000763  57.1699 302.9336 14.79934244 44007
KUIPER-00175            
1 67135U 25301C   26272.14258301  .00001829  00000+0  26888-3 0  9990
2 67135  51.8998 230.9087 0000874  53.4927 306.6116 14.79937353 44149
KUIPER-00179            
1 67136U 25301D   26272.09264328  .00001801  00000+0  26514-3 0  9997
2 67136  51.8970 246.1266 0000765  63.1436 296.9604 14.79933830 44037
KUIPER-00181            
1 67137U 25301E   26272.14669584  .00000383  00000+0  79206-4 0  9998
2 67137  51.9027 258.4594 0000676  41.3230 318.7784 14.79932081 43840
KUIPER-00183            
1 67138U 25301F   26272.14528878  .00001809  00000+0  26629-3 0  9993
2 67138  51.9016 228.4682 0000840  62.8746 297.2302 14.79934419 44279
KUIPER-00184            
1 67139U 25301G   26272.13179947  .00001740  00000+0  25724-3 0  9991
2 67139  51.8990 240.9651 0000680  61.2088 298.8943 14.79930914 44206
KUIPER-00186            
1 67140U 25301H   26272.11291181  .00001697  00000+0  25153-3 0  9993
2 67140  51.9016 258.6148 0000710  63.6902 296.4133 14.79935182 43688
KUIPER-00187            
1 67141U 25301J   26271.36737012  .00001805  00000+0  26584-3 0  9998
2 67141  51.9017 264.4398 0000812  92.7355 267.3701 14.79918224 43530
KUIPER-00188            
1 67142U 25301K   26272.11152927 -.00005527  00000+0 -69648-3 0  9994
2 67142  51.8992 228.7342 0001398  65.5427 294.5681 14.79933270 44091
KUIPER-00191            
1 67143U 25301L   26271.47679519  .00001928  00000+0  28187-3 0  9996
2 67143  51.8997 256.4279 0000614  56.9295 303.1727 14.79932995 43686
KUIPER-00196            
1 67144U 25301M   26272.13037301  .00005781  00000+0  78620-3 0  9996
2 67144  51.8965 210.9852 0000937  44.1239 315.9798 14.79959186 44343
KUIPER-00204            
1 67145U 25301N   26272.08043535 -.00007462  00000+0 -95076-3 0  9991
2 67145  51.9005 226.2482 0000898  75.5618 284.5444 14.79935776 44241
KUIPER-00210            
1 67146U 25301P   26272.11812911  .00001581  00000+0  23606-3 0  9992
2 67146  51.8987 253.5349 0000810  42.4465 317.6560 14.79976529 43924
KUIPER-00221            
1 67147U 25301Q   26272.14399419  .00001640  00000+0  24413-3 0  9992
2 67147  51.9006 260.9612 0000651  92.4496 267.6541 14.79925296 43653
KUIPER-00232            
1 67148U 25301R   26272.19394590  .00001178  00000+0  18347-3 0  9998
2 67148  51.8980 245.7471 0000787  64.6775 295.4269 14.79930753 43862
KUIPER-00241            
1 67149U 25301S   26272.14939417  .00000980  00000+0  15755-3 0  9997
2 67149  51.9026 255.9715 0000806  61.4482 298.6562 14.79926013 44058
KUIPER-00245            
1 67150U 25301T   26272.14130919  .00001646  00000+0  24479-3 0  9992
2 67150  51.9019 263.5166 0000593  69.3884 290.7142 14.79934993 43617
KUIPER-00246            
1 67151U 25301U   26272.12371361  .00001813  00000+0  26672-3 0  9992
2 67151  51.8994 248.5271 0000713  56.4510 303.6520 14.79936463 43849
KUIPER-00247            
1 67152U 25301V   26272.13449378  .00001051  00000+0  16690-3 0  9991
2 67152  51.8951 238.4196 0000775  68.1383 291.9661 14.79925613 43966
KUIPER-00248            
1 67153U 25301W   26272.15338404  .00001991  00000+0  29011-3 0  9995
2 67153  51.8980 220.9843 0000900  74.5379 285.5683 14.79936442 44371
KUIPER-00249            
1 67154U 25301X   26272.13719794 -.00000642  00000+0 -55160-4 0  9998
2 67154  51.8974 235.9889 0000853  59.0263 301.0783 14.79929297 43990
KUIPER-00250            
1 67155U 25301Y   26271.47947366  .00002176  00000+0  31433-3 0  9991
2 67155  51.8995 253.8503 0000632  69.7324 290.3706 14.79938573 43720
KUIPER-00251            
1 67156U 25301Z   26272.16826811 -.00000151  00000+0  92226-5 0  9991
2 67156  51.8995 238.3831 0000789  60.7102 299.3939 14.79927468 44157
KUIPER-00252            
1 67157U 25301AA  26272.09803646  .00001804  00000+0  26556-3 0  9991
2 67157  51.8994 241.1439 0000700  79.9599 280.1442 14.79932890 43924
KUIPER-00261            
1 67158U 25301AB  26272.12101847  .00001247  00000+0  19250-3 0  9994
2 67158  51.9019 251.1088 0000658  63.0808 297.0222 14.79934719 43783
KUIPER-00265            
1 67159U 25301AC  26272.13861020 -.00000309  00000+0 -11579-4 0  9999
2 67159  51.9037 266.0089 0000443  28.1206 331.9780 14.79925678 43619
KUIPER-00159            
1 67764U 26030A   26271.47127970  .00010965  00000+0  14652-2 0  9996
2 67764  51.9042 347.6985 0001239 338.3420  21.7490 14.79929266 35885
KUIPER-00160            
1 67765U 26030B   26271.46612204  .00000430  00000+0  85379-4 0  9997
2 67765  51.8994 328.9683 0000447 141.4591 218.6404 14.79928114 36143
KUIPER-00177            
1 67766U 26030C   26271.54525465  .00002106  00000+0  30514-3 0  9991
2 67766  51.9025  36.0996 0000501 118.2502 241.8511 14.79938510 35214
KUIPER-00178            
1 67767U 26030D   26271.57901922 -.00000246  00000+0 -32449-5 0  9997
2 67767  51.9012  35.9303 0000542 102.0164 258.0859 14.79930572 35227
KUIPER-00180            
1 67768U 26030E   26271.51689681  .00002062  00000+0  29942-3 0  9995
2 67768  51.8974  31.1951 0000280 120.0620 240.0371 14.79926249 35289
KUIPER-00197            
1 67769U 26030F   26271.53845365  .00000752  00000+0  12766-3 0  9991
2 67769  51.8997  11.1193 0000285 126.1067 233.9922 14.79928257 35563
KUIPER-00198            
1 67770U 26030G   26271.55873717  .00000158  00000+0  49732-4 0  9991
2 67770  51.8988  23.5009 0000327 115.9138 244.1858 14.79930496 35391
KUIPER-00199            
1 67771U 26030H   26271.58335648  .00018848  00000+0  16354-2 0  9998
2 67771  51.8954 323.0116 0012484  70.4770  47.8564 14.97013601  5014
KUIPER-00200            
1 67772U 26030J   26271.57491388  .00002684  00000+0  38082-3 0  9996
2 67772  51.8971   8.4725 0000248 100.7203 259.3787 14.79939034 35609
KUIPER-00203            
1 67773U 26030K   26271.60739953  .00000921  00000+0  14976-3 0  9992
2 67773  51.9055  40.9121 0000436 127.7760 232.3242 14.79935878 35150
KUIPER-00205            
1 67774U 26030L   26271.57762596  .00013589  00000+0  18091-2 0  9993
2 67774  51.8986   5.9310 0000511 101.0403 259.0617 14.79903207 35644
KUIPER-00208            
1 67775U 26030M   26271.58171477  .00001930  00000+0  28214-3 0  9993
2 67775  51.8976  33.4055 0000764 140.2964 219.8055 14.79933598 35256
KUIPER-00209            
1 67776U 26030N   26271.55065337  .00002240  00000+0  32265-3 0  9994
2 67776  51.9002  31.1472 0000215  60.8808 299.2176 14.79938171 35282
KUIPER-00213            
1 67777U 26030P   26271.51957505  .00002498  00000+0  35663-3 0  9998
2 67777  51.8971  28.7364 0000451 109.7089 250.3923 14.79927873 35314
KUIPER-00214            
1 67778U 26030Q   26271.55602366 -.00018087  00000+0 -23482-2 0  9993
2 67778  51.9002  26.1166 0000407 148.9474 211.1513 14.79963729 35351
KUIPER-00215            
1 67779U 26030R   26271.53574971  .00000866  00000+0  14253-3 0  9993
2 67779  51.8995  13.5581 0000337 120.9290 239.1705 14.79930463 35533
KUIPER-00218            
1 67780U 26030S   26271.48581125  .00002642  00000+0  37537-3 0  9992
2 67780  51.8992  28.8186 0000426  98.9586 261.1425 14.79933976 35315
KUIPER-00220            
1 67781U 26030T   26271.51277503 -.00000647  00000+0 -55886-4 0  9992
2 67781  51.8976   3.7201 0000357  92.9773 267.1230 14.79927608 35666
KUIPER-00222            
1 67782U 26030U   26271.59251451  .00000070  00000+0  38154-4 0  9992
2 67782  51.8985  23.5067 0000405 131.3904 228.7093 14.79929576 35391
KUIPER-00223            
1 67783U 26030V   26271.49928703 -.00000760  00000+0 -70663-4 0  9992
2 67783  51.9011  16.2324 0000339 108.5015 251.5984 14.79926230 35491
KUIPER-00225            
1 67784U 26030W   26271.56144533  .00001501  00000+0  22590-3 0  9999
2 67784  51.8987  21.1010 0000362  94.5910 265.5094 14.79929330 35428
KUIPER-00226            
1 67785U 26030X   26271.54114578  .00002148  00000+0  31066-3 0  9990
2 67785  51.9028   8.5763 0001102  32.1383 327.9647 14.79935121 35607
KUIPER-00259            
1 67786U 26030Y   26271.52766886 -.00000430  00000+0 -27447-4 0  9997
2 67786  51.8988  21.1523 0000671 108.4294 251.6742 14.79929135 35422
KUIPER-00260            
1 67787U 26030Z   26271.59790696  .00000407  00000+0  82381-4 0  9991
2 67787  51.9021  18.4559 0000341 120.4676 239.6321 14.79930755 35375
KUIPER-00262            
1 67788U 26030AA  26271.56411490  .00002415  00000+0  34565-3 0  9992
2 67788  51.9029  18.5225 0000451 140.2689 219.8306 14.79943085 35464
KUIPER-00266            
1 67789U 26030AB  26271.60058775 -.00004386  00000+0 -54661-3 0  9991
2 67789  51.8991  15.8520 0000362 104.9694 255.1308 14.79939884 35506
KUIPER-00268            
1 67790U 26030AC  26271.50199553  .00002395  00000+0  34305-3 0  9991
2 67790  51.9045  13.8334 0000273 140.2913 219.8069 14.79936930 35520
KUIPER-00270            
1 67791U 26030AD  26271.54653544  .00002406  00000+0  34440-3 0  9994
2 67791  51.8984   3.5791 0000415  83.9072 276.1937 14.79938813 35670
KUIPER-00274            
1 67792U 26030AE  26271.58980679  .00000093  00000+0  41245-4 0  9993
2 67792  51.9043  25.9078 0000297  93.8876 266.2120 14.79927915 35365
KUIPER-00275            
1 67793U 26030AF  26271.54384622  .00002413  00000+0  34540-3 0  9993
2 67793  51.9000   6.1035 0000338 122.4362 237.6633 14.79933628 35637
KUIPER-00276            
1 67794U 26030AG  26271.57221729  .00000027  00000+0  32583-4 0  9990
2 67794  51.8974  10.9515 0000370  55.5718 304.5279 14.79929909 35570
KUIPER-00279            
1 67795U 26030AH  26271.54924267 -.00002976  00000+0 -36154-3 0  9999
2 67795  51.9031   1.1097 0000403 123.6902 236.4099 14.79938224 35700
KUIPER-00131            
1 68573U 26072A   26270.73501817  .00000095  00000+0  41420-4 0  9993
2 68573  51.8975 102.1861 0000913 111.6965 248.4094 14.79929831 26302
KUIPER-00189            
1 68574U 26072B   26271.23878613  .00001569  00000+0  23479-3 0  9991
2 68574  51.8967 102.4326 0000858 110.8391 249.2664 14.79937157 26341
KUIPER-00192            
1 68575U 26072C   26271.48054658  .00000840  00000+0  13919-3 0  9993
2 68575  51.8989  96.3827 0000928 114.2287 245.8772 14.79929084 26457
KUIPER-00193            
1 68576U 26072D   26272.16663529  .00001676  00000+0  24877-3 0  9996
2 68576  51.9034  83.4013 0000893 133.5647 226.5390 14.79928495 26692
KUIPER-00194            
1 68577U 26072E   26271.92219242  .00000225  00000+0  58522-4 0  9993
2 68577  51.9012  91.9584 0000937 115.1108 244.9952 14.79926591 26551
KUIPER-00229            
1 68578U 26072F   26271.91678248  .00001474  00000+0  22230-3 0  9991
2 68578  51.8989  96.9627 0000704 107.0753 253.0286 14.79939350 26485
KUIPER-00230            
1 68579U 26072G   26271.55388953  .00001327  00000+0  21894-3 0  9995
2 68579  51.9040  45.9109 0001003  99.9823 260.1252 14.76575007 27164
KUIPER-00231            
1 68580U 26072H   26272.14905036  .00001390  00000+0  21141-3 0  9995
2 68580  51.8992  68.5007 0001796 146.2383 213.8694 14.79926186 26890
KUIPER-00234            
1 68581U 26072J   26271.48323508  .00001624  00000+0  24199-3 0  9996
2 68581  51.8979  93.8612 0001216 113.0623 247.0468 14.79934959 26485
KUIPER-00236            
1 68582U 26072K   26271.59927009  .00001751  00000+0  25870-3 0  9993
2 68582  51.9048  48.3620 0001088 109.5040 250.6040 14.79913237 27133
KUIPER-00244            
1 68583U 26072L   26271.46025796  .00001362  00000+0  20765-3 0  9998
2 68583  51.8985  83.9853 0000926 123.2087 236.8965 14.79935904 26620
KUIPER-00253            
1 68584U 26072M   26271.45756592 -.00000694  00000+0 -62061-4 0  9998
2 68584  51.9032  86.5272 0001034 120.9949 239.1115 14.79927687 26588
KUIPER-00254            
1 68585U 26072N   26271.21850230  .00001782  00000+0  26264-3 0  9998
2 68585  51.9018  90.0822 0001032 107.6382 252.4693 14.79934674 26511
KUIPER-00263            
1 68586U 26072P   26272.18011404 -.00000709  00000+0 -64029-4 0  9990
2 68586  51.9010  70.8960 0000509 107.1614 252.9404 14.79932833 26862
KUIPER-00269            
1 68587U 26072Q   26271.50211576  .00001669  00000+0  24787-3 0  9998
2 68587  51.8990  76.2983 0000902 123.1621 236.9428 14.79931817 26732
KUIPER-00272            
1 68588U 26072R   26271.91948461  .00001530  00000+0  22964-3 0  9996
2 68588  51.8967  94.4184 0000871 114.9433 245.1620 14.79925252 26514
KUIPER-00285            
1 68589U 26072S   26272.14366023  .00001797  00000+0  26470-3 0  9992
2 68589  51.9037  73.5484 0001230 104.8545 255.2554 14.79935696 26822
KUIPER-00286            
1 68590U 26072T   26272.14634205  .00001809  00000+0  26631-3 0  9997
2 68590  51.9001  70.9603 0000474  88.7618 271.3399 14.79923160 26862
KUIPER-00289            
1 68591U 26072U   26271.46294554 -.00000326  00000+0 -13723-4 0  9995
2 68591  51.8956  81.4578 0000959 117.0263 243.0797 14.79929727 26659
KUIPER-00290            
1 68592U 26072V   26270.88892732 -.00001825  00000+0 -21047-3 0  9995
2 68592  51.9024  84.0079 0000604 130.2230 229.8785 14.79924805 26572
KUIPER-00293            
1 68593U 26072W   26271.24957455 -.00001165  00000+0 -12382-3 0  9990
2 68593  51.8963  92.3801 0001899  86.9713 273.1467 14.79925877 26488
KUIPER-00294            
1 68594U 26072X   26271.46564627  .00001754  00000+0  25903-3 0  9995
2 68594  51.8984  78.9475 0000623 116.0129 244.0898 14.79937490 26691
KUIPER-00296            
1 68595U 26072Y   26272.12605731  .00001163  00000+0  18158-3 0  9990
2 68595  51.9019  58.5488 0000494 120.3120 239.7892 14.79933747 27030
KUIPER-00297            
1 68596U 26072Z   26271.48593266  .00001203  00000+0  18678-3 0  9990
2 68596  51.8981  91.3369 0001194 124.7254 235.3821 14.79925365 26529
KUIPER-00300            
1 68597U 26072AA  26270.91463213  .00001795  00000+0  26439-3 0  9996
2 68597  51.9012  91.4015 0000742 121.2818 238.8217 14.79930280 26474
KUIPER-00301            
1 68598U 26072AB  26271.56168451  .00001063  00000+0  18167-3 0  9992
2 68598  51.9020  58.2727 0002053 222.7650 137.3152 14.76516016 26984
KUIPER-00304            
1 68599U 26072AC  26272.13228699  .00001385  00000+0  22689-3 0  9999
2 68599  51.8997  57.7056 0000604  55.4273 304.6745 14.76631328 27047
KUIPER-00317            
1 68600U 26072AD  26270.89163125  .00005435  00000+0  74098-3 0  9996
2 68600  51.8953  81.4879 0000561 111.1158 248.9864 14.79954265 26607
KUIPER-00320            
1 68601U 26072AE  26270.88625321  .00001807  00000+0  26602-3 0  9994
2 68601  51.9021  86.5352 0000736 101.4159 258.6886 14.79926231 26530
KUIPER-00299            
1 68864U 26095A   26271.92499738  .00000461  00000+0  89491-4 0  9998
2 68864  51.9006 151.9021 0001183 101.7057 258.4038 14.79927747 22975
KUIPER-00353            
1 68865U 26095B   26272.04247235  .00000173  00000+0  51664-4 0  9997
2 68865  51.8976 136.4126 0000787 107.3427 252.7621 14.79928195 23207
KUIPER-00357            
1 68866U 26095C   26271.93307910  .00001865  00000+0  27365-3 0  9991
2 68866  51.9018 144.4058 0001268  86.3830 273.7278 14.79934164 23088
KUIPER-00364            
1 68867U 26095D   26272.03168245  .00001977  00000+0  28823-3 0  9994
2 68867  51.9036 146.4957 0001204  88.9922 271.1178 14.79937945 23068
KUIPER-00375            
1 68868U 26095E   26271.93848147  .00001863  00000+0  27333-3 0  9998
2 68868  51.9005 139.3781 0000934 102.6682 257.4385 14.79929880 23153
KUIPER-00433            
1 68869U 26095F   26271.98983515  .00000786  00000+0  13208-3 0  9992
2 68869  51.9011 154.1432 0001354  86.3813 273.7304 14.79925941 22953
KUIPER-00437            
1 68870U 26095G   26272.16670139 -.00093750  00000+0 -11967-1 0  9993
2 68870  51.8993 105.2766 0003250 345.7769 263.8967 14.81550522  3696
KUIPER-00448            
1 68871U 26095H   26272.03439148  .00001799  00000+0  26500-3 0  9994
2 68871  51.9033 143.9561 0000982 116.8854 243.2208 14.79928072 23098
KUIPER-00459            
1 68872U 26095J   26272.01411149  .00001524  00000+0  22889-3 0  9996
2 68872  51.8995 131.6100 0000840 107.2221 252.8834 14.79925056 23262
KUIPER-00468            
1 68873U 26095K   26271.96773983  .00001308  00000+0  21596-3 0  9991
2 68873  51.8976 129.5439 0000598 178.6588 181.4375 14.76633746 23290
KUIPER-00476            
1 68874U 26095L   26272.00002315  .00043955  00000+0  57622-2 0  9994
2 68874  51.8990 111.5215 0000875 103.2936  66.9254 14.79895473  5562
KUIPER-00478            
1 68875U 26095M   26272.01140760  .00001471  00000+0  22203-3 0  9998
2 68875  51.8990 134.0515 0000959  99.9019 260.2051 14.79925730 23230
KUIPER-00480            
1 68876U 26095N   26271.98033794  .00000182  00000+0  52915-4 0  9994
2 68876  51.9029 131.7046 0000778 117.5570 242.5472 14.79929641 23264
KUIPER-00482            
1 68877U 26095P   26271.90200975  .00001674  00000+0  24851-3 0  9998
2 68877  51.8996 142.0377 0001661  70.8768 289.2374 14.79937214 23119
KUIPER-00483            
1 68878U 26095Q   26271.88852372  .00001719  00000+0  25440-3 0  9995
2 68878  51.8975 154.5598 0001436  50.1080 310.0009 14.79940146 22933
KUIPER-00488            
1 68879U 26095R   26272.07623269  .00001935  00000+0  28281-3 0  9995
2 68879  51.8984 136.2735 0001133  95.1579 264.9512 14.79935903 23202
KUIPER-00489            
1 68880U 26095S   26271.34149723  .00000205  00000+0  55863-4 0  9990
2 68880  51.8958 132.0007 0001166 103.1900 256.9193 14.79925753 23203
KUIPER-00499            
1 68881U 26095T   26272.04516731  .00001800  00000+0  26511-3 0  9995
2 68881  51.8995 133.9515 0000754 107.3314 252.7731 14.79928740 23230
KUIPER-00500            
1 68882U 26095U   26271.95874779  .00001709  00000+0  25305-3 0  9992
2 68882  51.8999 151.7865 0000963 100.0988 260.0083 14.79937682 22988
KUIPER-00502            
1 68883U 26095V   26271.97594027  .00001816  00000+0  26720-3 0  9991
2 68883  51.9000 127.9614 0001413  98.3427 261.7696 14.79927792 23315
KUIPER-00503            
1 68884U 26095W   26271.86015852  .00001810  00000+0  26646-3 0  9995
2 68884  51.8963 149.6911 0001090  97.3626 262.7460 14.79930237 23009
KUIPER-00504            
1 68885U 26095X   26271.88583720  .00001835  00000+0  26968-3 0  9996
2 68885  51.9009 157.1146 0000792  97.2386 262.8666 14.79930464 22905
KUIPER-00505            
1 68886U 26095Y   26272.06545419  .00001284  00000+0  19740-3 0  9999
2 68886  51.9010 146.3222 0000766  96.7316 263.3734 14.79926789 23066
KUIPER-00507            
1 68887U 26095Z   26271.99182046  .00001997  00000+0  29090-3 0  9994
2 68887  51.9004 136.6295 0000917 103.4648 256.6416 14.79931515 23193
KUIPER-00511            
1 68888U 26095AA  26271.98304352  .00001846  00000+0  27119-3 0  9993
2 68888  51.8978 129.2804 0001063 100.7352 259.3730 14.79928272 23298
KUIPER-00512            
1 68889U 26095AB  26272.02898601  .00001993  00000+0  29036-3 0  9998
2 68889  51.9012 148.9844 0001006 100.1053 260.0023 14.79932213 23025
KUIPER-00519            
1 68890U 26095AC  26271.36448428  .00001238  00000+0  19136-3 0  9996
2 68890  51.9010 141.9876 0000758 105.9435 254.1611 14.79930713 23067
KUIPER-00521            
1 68891U 26095AD  26271.97054697  .00001851  00000+0  27181-3 0  9995
2 68891  51.9022 133.0021 0000801 100.6725 259.4328 14.79930866 23240
KUIPER-00524            
1 68892U 26095AE  26272.07084795  .00000701  00000+0  12104-3 0  9992
2 68892  51.8973 141.2684 0001311  97.0519 263.0593 14.79925099 23133
KUIPER-00370            
1 68919U 26098A   26271.35601220 -.00000125  00000+0  12578-4 0  9990
2 68919  51.8988 321.8105 0000462  85.9812 274.1203 14.79927656 22761
KUIPER-00380            
1 68920U 26098B   26271.43165239  .00001644  00000+0  24455-3 0  9998
2 68920  51.8977 314.1129 0000356  68.1202 291.9799 14.79930891 22874
KUIPER-00386            
1 68921U 26098C   26271.51337049  .00001000  00000+0  16014-3 0  9996
2 68921  51.9015 316.2464 0000488 111.0473 249.0542 14.79928517 22858
KUIPER-00388            
1 68922U 26098D   26271.35065379 -.00000730  00000+0 -66732-4 0  9997
2 68922  51.9036 327.1327 0000347  49.3594 310.7399 14.79925741 22685
KUIPER-00405            
1 68923U 26098E   26271.37021371  .00001983  00000+0  28904-3 0  9991
2 68923  51.9012 324.3974 0000676 276.7774  83.3111 14.79935070 22724
KUIPER-00408            
1 68924U 26098F   26271.42895259  .00001272  00000+0  19581-3 0  9994
2 68924  51.8975 316.5479 0000498  61.5824 298.5188 14.79928363 22847
KUIPER-00409            
1 68925U 26098G   26271.40668073 -.00000221  00000+0  75791-7 0  9998
2 68925  51.9006 321.7366 0000555  85.7691 274.3334 14.79927387 22762
KUIPER-00410            
1 68926U 26098H   26271.34183830 -.00000292  00000+0 -92756-5 0  9992
2 68926  51.8971 319.4941 0000353 152.2659 207.8323 14.79923823 22799
KUIPER-00412            
1 68927U 26098J   26271.33306497  .00000682  00000+0  11846-3 0  9998
2 68927  51.9033 312.0734 0000474  49.2376 310.8627 14.79927503 22896
KUIPER-00413            
1 68928U 26098K   26272.09615662  .00001206  00000+0  18708-3 0  9997
2 68928  51.8989 321.1667 0000191 321.4171  38.6777 14.79936321 22839
KUIPER-00414            
1 68929U 26098L   26271.37631669  .00002113  00000+0  30615-3 0  9992
2 68929  51.8979 334.4318 0000623 160.0005 200.0982 14.79933270 22587
KUIPER-00415            
1 68930U 26098M   26271.39519342  .00000412  00000+0  83088-4 0  9992
2 68930  51.9026 316.7868 0000280  17.0855 343.0117 14.79931257 22838
KUIPER-00416            
1 68931U 26098N   26272.08824605  .00001714  00000+0  25349-3 0  9992
2 68931  51.9020 305.0739 0000304  53.5158 306.5832 14.79974288 23053
KUIPER-00420            
1 68932U 26098P   26271.40328043  .00000472  00000+0  90897-4 0  9994
2 68932  51.9012 309.2113 0000478  87.6252 272.4765 14.79926755 22941
KUIPER-00421            
1 68933U 26098Q   26272.07316356  .00001854  00000+0  27218-3 0  9994
2 68933  51.9039 311.2345 0000627  85.5078 274.5956 14.79920835 22971
KUIPER-00425            
1 68934U 26098R   26271.45729480 -.00001293  00000+0 -14071-3 0  9994
2 68934  51.8974 321.5033 0000484 102.5122 257.5895 14.79924157 22770
KUIPER-00430            
1 68935U 26098S   26271.45462135  .00000610  00000+0  10899-3 0  9990
2 68935  51.9046 323.9149 0000363  77.6805 282.4198 14.79931916 22743
KUIPER-00431            
1 68936U 26098T   26272.19476209  .00001274  00000+0  19606-3 0  9992
2 68936  51.8990 323.2251 0000242  40.3452 319.7528 14.79925362 22816
KUIPER-00432            
1 68937U 26098U   26271.39248035  .00001311  00000+0  20097-3 0  9996
2 68937  51.9001 319.1727 0000369  76.1619 283.9385 14.79929514 22800
KUIPER-00434            
1 68938U 26098V   26271.86924705  .00001036  00000+0  17826-3 0  9994
2 68938  51.9022 321.3525 0001098 160.4058 199.6945 14.76399195 22818
KUIPER-00436            
1 68939U 26098W   26271.50797025  .00001856  00000+0  27241-3 0  9991
2 68939  51.8993 321.2756 0000382  88.8427 271.2579 14.79931379 22783
KUIPER-00438            
1 68940U 26098X   26271.51067903  .00000704  00000+0  12140-3 0  9992
2 68940  51.9020 318.7917 0000468  63.6331 296.4680 14.79931303 22810
KUIPER-00439            
1 68941U 26098Y   26272.10155561  .00000894  00000+0  14623-3 0  9995
2 68941  51.9040 316.1710 0000668  74.6838 285.4198 14.79928368 22901
KUIPER-00440            
1 68942U 26098Z   26271.31617415 -.00000266  00000+0 -58607-5 0  9996
2 68942  51.9007 312.1396 0000675  28.5103 331.5896 14.79926449 22896
KUIPER-00442            
1 68943U 26098AA  26271.51602517  .00001912  00000+0  27983-3 0  9994
2 68943  51.9017 313.7753 0000251   4.4661 355.6303 14.79922515 22883
KUIPER-00446            
1 68944U 26098AB  26272.08737162  .00001866  00000+0  27380-3 0  9992
2 68944  51.9003 313.7289 0000925 320.2156  39.8738 14.79927427 22935
KUIPER-00451            
1 68945U 26098AC  26271.87399676  .00000158  00000+0  49671-4 0  9994
2 68945  51.9006 324.6542 0000207  43.9444 316.1535 14.79930299 22762
KUIPER-00452            
1 68946U 26098AD  26271.48229897  .00001815  00000+0  26705-3 0  9992
2 68946  51.9016 313.9043 0000415  82.4933 277.6077 14.79933664 22887
KUIPER-00453            
1 68947U 26098AE  26271.29928046 -.00000312  00000+0 -11910-4 0  9990
2 68947  51.8979 312.1300 0001031 174.3457 185.7517 14.79927498 22896
KUIPER-00454            
1 68948U 26098AF  26271.41541515 -.00003535  00000+0 -43457-3 0  9997
2 68948  51.8955 329.1683 0000563  22.8581 337.2406 14.79962434 22662
KUIPER-00455            
1 68949U 26098AG  26271.43504618  .00001990  00000+0  28993-3 0  9992
2 68949  51.8992 326.5986 0000903 161.4049 198.6946 14.79934458 22706
KUIPER-00458            
1 68950U 26098AH  26272.09276088  .00000677  00000+0  11776-3 0  9996
2 68950  51.9023 308.7163 0000750  68.7451 291.3592 14.79928053 23005
KUIPER-00282            
1 69267U 26118A   26272.10085348  .00001765  00000+0  26050-3 0  9990
2 69267  51.8970 301.1306 0000257  12.5261 347.5707 14.79928603 19548
KUIPER-00383            
1 69268U 26118B   26272.05290419  .00000348  00000+0  74647-4 0  9994
2 69268  51.8968 298.8641 0000549  47.6069 312.4940 14.79930577 19575
KUIPER-00527            
1 69269U 26118C   26271.27632236 -.00001311  00000+0 -14305-3 0  9992
2 69269  51.9008 302.4338 0000552  79.1954 280.9070 14.79928472 19455
KUIPER-00562            
1 69270U 26118D   26272.06099227  .00001429  00000+0  21643-3 0  9990
2 69270  51.9020 291.2792 0000791  61.8184 298.2858 14.79931269 19687
KUIPER-00570            
1 69271U 26118E   26271.40599049  .00000065  00000+0  37588-4 0  9996
2 69271  51.9015 306.8339 0000402  61.8552 298.2451 14.79928879 19390
KUIPER-00572            
1 69272U 26118F   26272.13731485  .00000734  00000+0  12524-3 0  9995
2 69272  51.9012 298.4896 0000497  53.4278 306.6730 14.79929917 19587
KUIPER-00581            
1 69273U 26118G   26271.38909514  .00000482  00000+0  92286-4 0  9996
2 69273  51.9031 306.8096 0000368 259.6553 100.4368 14.79926236 19496
KUIPER-00584            
1 69274U 26118H   26271.30195408  .00001789  00000+0  26348-3 0  9994
2 69274  51.8990 309.8021 0000499   1.7339 358.3625 14.79954093 19351
KUIPER-00587            
1 69275U 26118J   26271.32964175  .00000923  00000+0  15005-3 0  9999
2 69275  51.9000 299.5713 0000486  41.5790 318.5210 14.79937935 19508
KUIPER-00590            
1 69276U 26118K   26272.06709816  .00001680  00000+0  24933-3 0  9992
2 69276  51.9024 301.3212 0000307  44.8558 315.2429 14.79927231 19549
KUIPER-00592            
1 69277U 26118L   26271.37489055  .00001755  00000+0  25915-3 0  9990
2 69277  51.9031 304.2631 0000420  54.8760 305.2241 14.79934160 19446
KUIPER-00593            
1 69278U 26118M   26272.06908366  .00000448  00000+0  87792-4 0  9999
2 69278  51.9000 283.8067 0000726 191.4417 168.6529 14.79929700 19842
KUIPER-00594            
1 69279U 26118N   26271.45593072  .00001612  00000+0  24042-3 0  9998
2 69279  51.9029 291.5295 0000862  86.5699 273.5362 14.79926874 19626
KUIPER-00595            
1 69280U 26118P   26272.03532838  .00001595  00000+0  23802-3 0  9991
2 69280  51.8978 283.9107 0000748 234.1306 125.9587 14.79955945 19817
KUIPER-00596            
1 69281U 26118Q   26272.09546182  .00001831  00000+0  26922-3 0  9994
2 69281  51.9026 306.1897 0000365  58.7994 301.3004 14.79920461 19476
KUIPER-00597            
1 69282U 26118R   26272.03261897  .00001631  00000+0  24302-3 0  9994
2 69282  51.8971 286.4631 0001563  68.1570 291.9558 14.79921551 19746
KUIPER-00599            
1 69283U 26118S   26272.05558928  .00001467  00000+0  22142-3 0  9998
2 69283  51.9002 296.2768 0000601   5.5827 354.5142 14.79934402 19615
KUIPER-00600            
1 69284U 26118T   26272.06637956 -.00000037  00000+0  24179-4 0  9995
2 69284  51.8973 286.2270 0001525  50.1452 309.9644 14.79928269 19755
KUIPER-00601            
1 69285U 26118U   26272.08398012  .00001667  00000+0  24765-3 0  9994
2 69285  51.9024 301.2379 0000359  63.4517 296.6482 14.79927593 19543
KUIPER-00602            
1 69286U 26118V   26272.09204037  .00001552  00000+0  23244-3 0  9993
2 69286  51.9008 293.6163 0000549 325.1150  34.9777 14.79938623 19651
KUIPER-00603            
1 69287U 26118W   26271.29587568 -.00003372  00000+0 -41352-3 0  9992
2 69287  51.9041 299.7292 0000567  82.8767 277.2260 14.79932548 19491
KUIPER-00605            
1 69288U 26118X   26272.09815882 -.00000035  00000+0  24346-4 0  9992
2 69288  51.8994 303.6561 0000516  63.8618 296.2398 14.79929129 19517
KUIPER-00606            
1 69289U 26118Y   26272.08937292  .00001780  00000+0  26243-3 0  9996
2 69289  51.9018 296.2147 0000393  52.7445 307.3553 14.79928408 19618
KUIPER-00607            
1 69290U 26118Z   26271.27291134  .00001719  00000+0  25442-3 0  9998
2 69290  51.8991 289.8297 0001645  31.2768 328.8292 14.79934823 19632
KUIPER-00608            
1 69291U 26118AA  26271.48966692  .00001724  00000+0  25512-3 0  9994
2 69291  51.9002 291.2310 0000701  67.4425 292.6612 14.79936360 19635
KUIPER-00610            
1 69292U 26118AB  26272.05830532  .00000607  00000+0  10866-3 0  9997
2 69292  51.9027 293.8521 0000662  68.9499 291.1534 14.79928954 19646
KUIPER-00613            
1 69293U 26118AC  26271.50725794  .00001692  00000+0  25084-3 0  9993
2 69293  51.9004 306.2861 0000436  54.6914 305.4090 14.79934348 19427
KUIPER-00618            
1 69294U 26118AD  26272.09475792  .00000293  00000+0  67484-4 0  9996
2 69294  51.9024 291.1983 0001121 244.3965 115.6881 14.79927732 19689
KUIPER-00620            
1 69295U 26118AE  26271.50118115  .00000136  00000+0  46906-4 0  9997
2 69295  51.9034 296.3281 0000463  45.9248 314.1753 14.79928250 19563
KUIPER-00423            
1 69592U 26140A   26272.16670139 -.00029632  00000+0 -38751-2 0  9995
2 69592  51.8996 265.8678 0000783  87.1059 153.2228 14.79931943  3568
KUIPER-00428            
1 69593U 26140B   26272.14217608  .00009841  00000+0  26759-3 0  9996
2 69593  51.8798 256.2537 0005086 307.5196  52.5328 15.38180341 17223
KUIPER-00481            
1 69594U 26140C   26272.09913419  .00160774  00000+0  21086-1 0  9993
2 69594  51.9007 271.1721 0001057  43.3903 316.7142 14.78986410 17014
KUIPER-00490            
1 69595U 26140D   26272.00962809  .00000141  00000+0  47463-4 0  9993
2 69595  51.9035 276.5248 0000713  50.8344 309.2682 14.79928179 16934
KUIPER-00493            
1 69596U 26140E   26272.03801693  .00001778  00000+0  26219-3 0  9992
2 69596  51.9051 281.4488 0001076 346.3660  13.7273 14.79931850 16866
KUIPER-00496            
1 69597U 26140F   26272.16670139 -.00079017  00000+0 -10073-1 0  9998
2 69597  51.9017 264.6396 0002171 359.3755 182.6627 14.81498040  5720
KUIPER-00513            
1 69598U 26140G   26272.04340846  .00001858  00000+0  27272-3 0  9992
2 69598  51.9003 276.4157 0000478  59.3608 300.7402 14.79927053 16931
KUIPER-00516            
1 69599U 26140H   26272.16670139 -.00067830  00000+0 -78337-2 0  9998
2 69599  51.8995 260.3726 0009973 250.4291  34.5831 14.85445379  5384
KUIPER-00517            
1 69600U 26140J   26272.16670139 -.00077836  00000+0 -49864-2 0  9991
2 69600  51.8929 257.4390 0008956 208.9087  36.2642 15.08325116  4840
KUIPER-00520            
1 69601U 26140K   26272.04380670  .00001345  00000+0  22133-3 0  9998
2 69601  51.9027 278.5953 0000621 263.9941  96.0949 14.76613335 16902
KUIPER-00522            
1 69602U 26140L   26272.17235050 -.00001114  00000+0 -11713-3 0  9992
2 69602  51.9029 265.8518 0001435  67.2630 292.8483 14.79931131 17095
KUIPER-00528            
1 69603U 26140M   26271.28100038  .00001756  00000+0  25922-3 0  9998
2 69603  51.9016 282.3063 0000493  41.1386 318.9613 14.79936499 16785
KUIPER-00532            
1 69604U 26140N   26272.16670139 -.00031809  00000+0 -41767-2 0  9999
2 69604  51.9012 263.3796 0000456  35.7792 190.6481 14.79798196  5431
KUIPER-00533            
1 69605U 26140P   26271.94481304  .00001644  00000+0  24464-3 0  9997
2 69605  51.9000 274.3622 0000564  45.5505 314.5503 14.79932239 16959
KUIPER-00534            
1 69606U 26140Q   26272.13877007 -.00007831  00000+0 -26241-3 0  9990
2 69606  51.8818 257.6990 0012654 161.4374 198.7074 15.28832010 17208
KUIPER-00537            
1 69607U 26140R   26272.00424684  .00001916  00000+0  28032-3 0  9992
2 69607  51.9002 281.5123 0001119  17.5006 342.5995 14.79926656 16863
KUIPER-00538            
1 69608U 26140S   26272.04070769  .00001550  00000+0  23228-3 0  9994
2 69608  51.9026 278.8772 0000785  44.2813 315.8212 14.79923982 16909
KUIPER-00540            
1 69609U 26140T   26272.12756529  .00014712  00000+0  39109-3 0  9998
2 69609  51.8815 256.1697 0004575 307.8759  52.1814 15.38463288 17227
KUIPER-00541            
1 69610U 26140U   26272.16670139 -.00066359  00000+0 -64473-2 0  9993
2 69610  51.8979 258.4841 0006209 207.3461 133.1339 14.92414290  4963
KUIPER-00542            
1 69611U 26140V   26272.16670139 -.00040990  00000+0 -28075-2 0  9995
2 69611  51.8923 257.3308 0008258 194.5657   8.9442 15.05560153  5891
KUIPER-00543            
1 69612U 26140W   26272.16670139 -.00030898  00000+0 -40435-2 0  9996
2 69612  51.9034 263.3766 0000552 137.6120 267.8604 14.79924053  5904
KUIPER-00544            
1 69613U 26140X   26272.16670139 -.00050128  00000+0 -44444-2 0  9999
2 69613  51.8940 258.8970 0005706 215.0468  54.8945 14.95868756  5657
KUIPER-00546            
1 69614U 26140Y   26271.20997115  .00001509  00000+0  22672-3 0  9997
2 69614  51.9006 270.1043 0000214 131.6043 228.4937 14.79971790 16951
KUIPER-00547            
1 69615U 26140Z   26272.16670139 -.00025892  00000+0 -11905-2 0  9997
2 69615  51.8890 256.1420 0010209 179.6488 283.4895 15.19513586  4866
KUIPER-00549            
1 69616U 26140AA  26272.16670139 -.00072080  00000+0 -86304-2 0  9994
2 69616  51.9011 260.9456 0001949 249.2504 289.2069 14.84040001  5483
KUIPER-00550            
1 69617U 26140AB  26272.16670139 -.00070497  00000+0 -78346-2 0  9992
2 69617  51.8971 264.7065 0002394 263.7458  28.8505 14.87073396  3295
KUIPER-00551            
1 69618U 26140AC  26272.16670139 -.00755791  00000+0 -24959-1 0  9990
2 69618  51.8789 255.2619 0011688 174.9833   5.6014 15.33447980  5543
KUIPER-00554            
1 69619U 26140AD  26272.16670139 -.01259199  00000+0 -47646-1 0  9991
2 69619  51.8807 255.6097 0009365 188.9617 179.3715 15.29216450  3774
KUIPER-00555            
1 69620U 26140AE  26272.16670139 -.01177597  00000+0 -39911-1 0  9990
2 69620  51.8841 255.5374 0009360 179.6244 260.8969 15.33006631  4860
KUIPER-00556            
1 69621U 26140AF  26271.98395772  .00001849  00000+0  27153-3 0  9997
2 69621  51.8970 269.1780 0000522  89.6872 270.4150 14.79927933 17032
KUIPER-00557            
1 69622U 26140AG  26272.16670139 -.02228423  00000+0 -10555+0 0  9999
2 69622  51.8844 256.0986 0008257 197.6475 338.6006 15.22676357  4738
KUIPER-00560            
1 69623U 26140AH  26272.13115181  .00013705  00000+0  37991-3 0  9996
2 69623  51.8775 256.1613 0008062 216.3733 143.6706 15.37207427 17223
KUIPER-00561            
1 69624U 26140AJ  26272.04610313  .00001505  00000+0  22635-3 0  9998
2 69624  51.9005 273.8818 0000631  70.9211 289.1819 14.79932129 16974
KUIPER-00564            
1 69625U 26140AK  26272.15009252  .00001938  00000+0  28324-3 0  9996
2 69625  51.8966 270.9261 0000738 105.3241 254.7802 14.79917784 17021
KUIPER-00567            
1 69626U 26140AL  26272.15276951 -.00001524  00000+0 -17092-3 0  9992
2 69626  51.8962 268.4325 0001128 166.7768 193.3224 14.79925248 17053
KUIPER-00573            
1 69627U 26140AM  26271.37351100  .00000705  00000+0  12150-3 0  9994
2 69627  51.9002 274.3926 0000496  70.7540 289.3476 14.79928706 16902
KUIPER-00258            
1 69763U 26151A   26272.16670139 -.00008486  00000+0 -10261-2 0  9997
2 69763  51.8949 180.8870 0004076  95.3197   4.1720 14.82251597  4330
KUIPER-00526            
1 69764U 26151B   26272.04527333 -.00002450  00000+0 -29246-3 0  9991
2 69764  51.8996 196.4778 0000891  83.5932 276.5132 14.79940779 13368
KUIPER-00558            
1 69765U 26151C   26272.01151845 -.00000146  00000+0  98371-5 0  9996
2 69765  51.8953 196.5457 0000889 101.0659 259.0403 14.79926621 13363
KUIPER-00569            
1 69766U 26151D   26272.09862878  .00000749  00000+0  12730-3 0  9991
2 69766  51.9025 193.6576 0000970  84.9586 275.1487 14.79926327 13414
KUIPER-00589            
1 69767U 26151E   26272.09547110  .00001456  00000+0  23746-3 0  9996
2 69767  51.8998 196.9471 0003167  85.9943 274.1380 14.76548917 13369
KUIPER-00598            
1 69768U 26151F   26271.98584742  .00001175  00000+0  18314-3 0  9999
2 69768  51.8962 189.1708 0000604  93.8565 266.2466 14.79932890 13467
KUIPER-00604            
1 69769U 26151G   26272.03379858 -.00000319  00000+0 -12905-4 0  9999
2 69769  51.9019 191.4585 0000633  86.4123 273.6912 14.79928833 13438
KUIPER-00609            
1 69770U 26151H   26272.16670139  .00110865  00000+0  14533-1 0  9993
2 69770  51.9005 188.3679 0001983  56.7395  98.6887 14.79348586  1304
KUIPER-00611            
1 69771U 26151J   26272.06756049  .00000961  00000+0  15510-3 0  9991
2 69771  51.8977 191.2896 0001107  84.6673 275.4416 14.79928155 13440
KUIPER-00612            
1 69772U 26151K   26272.18304148  .00001972  00000+0  28763-3 0  9991
2 69772  51.9003 193.3037 0001058 123.4358 236.6705 14.79934088 13429
KUIPER-00614            
1 69773U 26151L   26271.98315157  .00002040  00000+0  29650-3 0  9994
2 69773  51.8976 191.7322 0001154  88.5074 271.6020 14.79934401 13428
KUIPER-00615            
1 69774U 26151M   26272.06216013  .00000470  00000+0  90607-4 0  9992
2 69774  51.9021 196.2696 0000821 122.4122 237.6920 14.79929951 13376
KUIPER-00616            
1 69775U 26151N   26272.04474888  .00005668  00000+0  77339-3 0  9997
2 69775  51.8949 181.4169 0000928  91.3979 268.7090 14.79848553 13571
KUIPER-00617            
1 69776U 26151P   26272.03919306  .00001976  00000+0  28818-3 0  9992
2 69776  51.8995 186.4378 0000422  91.9720 268.1291 14.79931805 13502
KUIPER-00619            
1 69777U 26151Q   26272.07804134  .00001419  00000+0  23191-3 0  9990
2 69777  51.9018 188.7239 0001235 162.6219 197.4784 14.76597394 13478
KUIPER-00621            
1 69778U 26151R   26272.08444765  .00002224  00000+0  32067-3 0  9999
2 69778  51.9009 191.2329 0000673  79.7955 280.3083 14.79924626 13444
KUIPER-00622            
1 69779U 26151S   26272.08447964  .00001414  00000+0  23157-3 0  9994
2 69779  51.9002 195.4047 0001683  87.8662 272.2491 14.76517138 13387
KUIPER-00623            
1 69780U 26151T   26272.08174457  .00002378  00000+0  34085-3 0  9992
2 69780  51.8972 193.7547 0001005 110.5288 249.5782 14.79926814 13407
KUIPER-00626            
1 69781U 26151U   26271.96896421  .00001954  00000+0  28521-3 0  9998
2 69781  51.8986 189.2205 0000812 108.7581 251.3469 14.79931261 13465
KUIPER-00627            
1 69782U 26151V   26272.00812988  .00000398  00000+0  81235-4 0  9994
2 69782  51.9021 184.0770 0001074 115.5251 244.5823 14.79934223 13535
KUIPER-00629            
1 69783U 26151W   26272.09322414  .00002013  00000+0  29297-3 0  9999
2 69783  51.8994 198.6366 0000930  85.5081 274.5988 14.79926579 13342
KUIPER-00631            
1 69784U 26151X   26272.17763955 -.00000621  00000+0 -52434-4 0  9993
2 69784  51.8993 198.3217 0000608 122.5708 237.5313 14.79929968 13351
KUIPER-00634            
1 69785U 26151Y   26272.06486707  .00000676  00000+0  11771-3 0  9995
2 69785  51.8997 193.8249 0000928  97.0213 263.0855 14.79931833 13408
KUIPER-00639            
1 69786U 26151Z   26271.97462424  .00012283  00000+0  16376-2 0  9997
2 69786  51.8997 184.2119 0001160  62.3484 297.7596 14.79922284 13533
KUIPER-00641            
1 69787U 26151AA  26271.95476442  .00002011  00000+0  29274-3 0  9991
2 69787  51.8997 186.8169 0001860 141.1920 218.9176 14.79927113 13495
KUIPER-00644            
1 69788U 26151AB  26272.16670139 -.00288753  00000+0 -33727-1 0  9992
2 69788  51.9669 178.4983 0007868  81.5503 129.6303 14.86411142  5615
KUIPER-00646            
1 69789U 26151AC  26272.05608005  .00001318  00000+0  20184-3 0  9997
2 69789  51.8989 186.4512 0000745  94.3225 265.7822 14.79926221 13503
KUIPER-00647            
1 69790U 26151AD  26272.05342491  .00001463  00000+0  23845-3 0  9991
2 69790  51.9004 186.1188 0002347 348.9055  11.1854 14.76544608 13510
KUIPER-00662            
1 69791U 26151AE  26272.14388308  .00017878  00000+0  23694-2 0  9997
2 69791  51.9022 198.4682 0001053 201.3304 158.7614 14.79905835 13347
