ORBCOMM FM06            
1 25118U 97084G   26269.09898302  .00000861  00000+0  26972-3 0  9992
2 25118  45.0136 286.8354 0002118 281.0368 120.9610 14.47766385509019
ORBCOMM FM04            
1 25159U 98007C   26269.27761434  .00000675  00000+0  27585-3 0  9992
2 25159 107.9611  17.4778 0039780 152.2571 208.0702 14.35878935491100
ORBCOMM FM19            
1 25415U 98046C   26269.07464769  .00000658  00000+0  25365-3 0  9994
2 25415  44.9925 123.9420 0004155  89.1153  75.0064 14.39651816471317
ORBCOMM FM20            
1 25416U 98046D   26267.07365494  .00000428  00000+0  18617-3 0  9995
2 25416  44.9929 142.4841 0001518  48.7205 311.3774 14.38180516471029
ORBCOMM FM27            
1 25481U 98053G   26268.56120075  .00000777  00000+0  29366-3 0  9994
2 25481  45.0046 218.5478 0002430 330.4203  29.6508 14.39292177464694
ORBCOMM FM32            
1 25982U 99065C   26268.73632028  .00000544  00000+0  22802-3 0  9999
2 25982  45.0154  57.2525 0007048 195.3866 164.6769 14.37251231401553
ORBCOMM FM109           
1 40086U 14040A   26269.18300380  .00000284  00000+0  96256-4 0  9990
2 40086  47.0045 333.9556 0002101 297.2027  62.8645 14.58926973649090
ORBCOMM FM110           
1 41182U 15081D   26268.91075807  .00000366  00000+0  11339-3 0  9996
2 41182  47.0011 245.1438 0002681 200.2981 159.7799 14.58974758572332
ORBCOMM FM118           
1 41183U 15081E   26269.01444769  .00000357  00000+0  11146-3 0  9992
2 41183  47.0034 245.0142 0001946 151.5275 208.5717 14.58980883572458
ORBCOMM FM112           
1 41184U 15081F   26269.08633839  .00000471  00000+0  13569-3 0  9996
2 41184  46.9979 153.0877 0003225 310.9505  49.1101 14.58969457573683
ORBCOMM FM113           
1 41185U 15081G   26268.92916843  .00000277  00000+0  94613-4 0  9992
2 41185  46.9996 154.2569 0002080 307.2965  52.7730 14.58940356573642
ORBCOMM FM108           
1 41187U 15081J   26268.88920644  .00000307  00000+0  10104-3 0  9999
2 41187  47.0046  66.0314 0002525 289.3646  70.6967 14.58987300574787
ORBCOMM FM117           
1 41188U 15081K   26269.12963108  .00000295  00000+0  98404-4 0  9996
2 41188  47.0011  63.5062 0002911 298.5817  61.4775 14.58969786574865
ORBCOMM FM116           
1 41189U 15081L   26269.11005106  .00000459  00000+0  13300-3 0  9994
2 41189  47.0013 153.3991 0001098 181.2535 178.8348 14.58971547573672
