KUIPER-00008            
1 63724U 25088A   26281.04982568  .00000393  00000+0  80614-4 0  9993
2 63724  51.9003 228.9495 0000694  75.0837 285.0202 14.79934992 79495
KUIPER-00009            
1 63725U 25088B   26281.22295718  .00004714  00000+0  31922-3 0  9996
2 63725  51.9016 231.9933 0001373  41.4136 318.6942 15.08209828 79462
KUIPER-00010            
1 63726U 25088C   26281.29159750 -.00000375  00000+0 -20160-4 0  9993
2 63726  51.9023 222.9962 0000948  65.7393 294.3668 14.79927078 79213
KUIPER-00011            
1 63727U 25088D   26281.11468637 -.00000870  00000+0 -85162-4 0  9995
2 63727  51.9008 231.3179 0000966  60.4953 299.6105 14.79929973 79215
KUIPER-00012            
1 63728U 25088E   26281.02956610 -.00000602  00000+0 -49983-4 0  9993
2 63728  51.9013 216.6364 0001029  80.3311 279.7767 14.79929750 79366
KUIPER-00013            
1 63729U 25088F   26281.16332974  .00000710  00000+0  12208-3 0  9997
2 63729  51.9017 248.5645 0000685  81.8593 278.2447 14.79936047 79032
KUIPER-00014            
1 63730U 25088G   26281.87237389  .00001169  00000+0  18224-3 0  9994
2 63730  51.9017 245.3732 0000916  53.1462 306.9585 14.79941759 78958
KUIPER-00015            
1 63731U 25088H   26281.96290840  .00000643  00000+0  11335-3 0  9998
2 63731  51.8983 255.0125 0000912  52.7133 307.3912 14.79929414 79280
KUIPER-00016            
1 63732U 25088J   26281.93722081  .00002777  00000+0  39309-3 0  9994
2 63732  51.8993 247.5890 0000823  47.6319 312.4713 14.79939806 78929
KUIPER-00018            
1 63733U 25088K   26281.91425267 -.00000426  00000+0 -26860-4 0  9999
2 63733  51.9019 237.7430 0000812  66.8584 293.2464 14.79932938 79060
KUIPER-00019            
1 63734U 25088L   26281.33311995  .00000797  00000+0  13365-3 0  9992
2 63734  51.9007 239.0521 0000890  45.5279 314.5756 14.79918540 78990
KUIPER-00020            
1 63735U 25088M   26281.91155422  .00000224  00000+0  58368-4 0  9996
2 63735  51.9016 240.2472 0000812  56.8994 303.2046 14.79930926 79230
KUIPER-00021            
1 63736U 25088N   26281.87778303 -.00000470  00000+0 -32598-4 0  9993
2 63736  51.9004 240.3437 0000797  55.0255 305.0783 14.79929576 79061
KUIPER-00023            
1 63737U 25088P   26281.09848434  .00000756  00000+0  12811-3 0  9991
2 63737  51.9011 246.2802 0000815  59.0135 301.0907 14.79933721 79211
KUIPER-00024            
1 63738U 25088Q   26281.85482035 -.00000212  00000+0  12617-5 0  9991
2 63738  51.9027 230.5555 0001017  58.4013 301.7048 14.79929172 79626
KUIPER-00025            
1 63739U 25088R   26281.88048016  .00000499  00000+0  94452-4 0  9994
2 63739  51.9039 237.9219 0000522  91.3578 268.7445 14.79935219 79385
KUIPER-00027            
1 63740U 25088S   26281.85211737  .00001253  00000+0  19332-3 0  9997
2 63740  51.9015 233.0018 0000759  79.9002 280.2046 14.79931916 79185
KUIPER-00028            
1 63741U 25088T   26281.88857058 -.00000350  00000+0 -16874-4 0  9991
2 63741  51.8992 230.2781 0000895  52.0251 308.0792 14.79930653 79638
KUIPER-00029            
1 63742U 25088U   26281.86458723 -.00000119  00000+0  13455-4 0  9990
2 63742  51.9021 229.0869 0001118  44.8042 315.3011 14.79931097 79179
KUIPER-00030            
1 63743U 25088V   26281.90346232 -.00000259  00000+0 -50061-5 0  9998
2 63743  51.9022 247.7345 0000816  59.5654 300.5389 14.79930151 79201
KUIPER-00031            
1 63744U 25088W   26281.88586123 -.00001609  00000+0 -18206-3 0  9994
2 63744  51.9013 232.8299 0000667  33.6944 326.4061 14.79933325 79125
KUIPER-00032            
1 63745U 25088X   26281.79845065  .00013625  00000+0  31242-3 0  9992
2 63745  51.8662  68.9783 0004631 157.4098 202.7095 15.43037257 82398
KUIPER-00033            
1 63746U 25088Y   26281.92101890 -.00005768  00000+0 -72749-3 0  9997
2 63746  51.8973 262.6680 0000392  86.7053 273.3954 14.79980074 79192
KUIPER-00034            
1 63747U 25088Z   26281.15114276 -.00000532  00000+0 -40805-4 0  9998
2 63747  51.9008 228.6194 0000818  70.9583 289.1468 14.79930763 79286
KUIPER-00035            
1 63748U 25088AA  26281.93452776  .00000149  00000+0  48543-4 0  9994
2 63748  51.9000 250.1183 0000778  50.5312 309.5719 14.79934072 79100
KUIPER-00037            
1 63749U 25088AB  26281.11709062  .00000807  00000+0  13479-3 0  9998
2 63749  51.9007 252.5942 0000762  53.8992 306.2041 14.79935693 79786
KUIPER-00038            
1 63750U 25088AC  26281.10659692 -.00000257  00000+0 -46648-5 0  9999
2 63750  51.9010 238.8161 0000817  80.5040 279.6015 14.79930341 78973
KUIPER-00039            
1 64500U 25134A   26281.55186180  .00000354  00000+0  75380-4 0  9991
2 64500  51.9030  11.8442 0000240  98.1110 261.9880 14.79930643 71593
KUIPER-00040            
1 64501U 25134B   26281.57484794  .00000555  00000+0  10182-3 0  9997
2 64501  51.8997  21.7946 0000356 149.8344 210.2639 14.79934080 71458
KUIPER-00041            
1 64502U 25134C   26281.67343428  .00001117  00000+0  17557-3 0  9995
2 64502  51.8984  23.7500 0000758 129.3668 230.7362 14.79931593 71435
KUIPER-00042            
1 64503U 25134D   26281.71258677  .00000551  00000+0  10130-3 0  9993
2 64503  51.9008  18.5575 0000165  79.2887 280.8094 14.79936182 71512
KUIPER-00043            
1 64504U 25134E   26281.45056656  .00001287  00000+0  19773-3 0  9997
2 64504  51.9021  12.2345 0000237 105.7051 254.3937 14.79931258 71580
KUIPER-00044            
1 64505U 25134F   26281.70718720  .00002540  00000+0  36202-3 0  9992
2 64505  51.9005  23.5849 0000275 110.4401 249.6591 14.79941248 71449
KUIPER-00046            
1 64506U 25134G   26281.47353636  .00002580  00000+0  36724-3 0  9991
2 64506  51.9000  22.0872 0000272  86.0671 274.0323 14.79935688 71445
KUIPER-00047            
1 64507U 25134H   26281.40190106 -.00000196  00000+0  33243-5 0  9993
2 64507  51.9008 354.9360 0000221  67.7299 292.3687 14.79930560 71810
KUIPER-00048            
1 64508U 25134J   26281.50320273  .00002676  00000+0  37984-3 0  9993
2 64508  51.9002 354.4995 0000316  48.6282 311.4707 14.79936761 71836
KUIPER-00049            
1 64509U 25134K   26281.65854093  .00000233  00000+0  59589-4 0  9995
2 64509  51.9024   6.2870 0000282  82.2348 277.8646 14.79929342 71681
KUIPER-00050            
1 64510U 25134L   26281.40728393  .00000235  00000+0  59887-4 0  9996
2 64510  51.8995 349.9175 0000399  71.5253 288.5753 14.79927713 71890
KUIPER-00051            
1 64511U 25134M   26281.43196313  .00000989  00000+0  15863-3 0  9992
2 64511  51.9012   5.9867 0000130  89.6876 270.4102 14.79933664 71668
KUIPER-00053            
1 64513U 25134P   26281.41750239  .00001811  00000+0  25613-3 0  9994
2 64513  51.9026   0.2362 0001846 188.8269 171.2662 14.81676211 71749
KUIPER-00054            
1 64514U 25134Q   26281.43295589  .00003621  00000+0  50358-3 0  9994
2 64514  51.8988 357.2826 0001453  13.3077 346.7923 14.79952221 71787
KUIPER-00055            
1 64515U 25134R   26281.38289962  .00004038  00000+0  55819-3 0  9997
2 64515  51.9044 310.1667 0000982  95.9042 264.2032 14.79948369 72444
KUIPER-00056            
1 64516U 25134S   26281.52889016  .00000658  00000+0  11524-3 0  9999
2 64516  51.9057   1.9809 0000172  94.3163 265.7819 14.79934351 71736
KUIPER-00057            
1 64517U 25134T   26281.45325025 -.00000089  00000+0  17381-4 0  9994
2 64517  51.9003   9.7272 0000282  85.6931 274.4064 14.79928814 71619
KUIPER-00058            
1 64518U 25134U   26281.42488475  .00000702  00000+0  12109-3 0  9994
2 64518  51.9020   4.8321 0000214 104.2107 255.8879 14.79932800 71682
KUIPER-00059            
1 64519U 25134V   26281.43025772 -.00004681  00000+0 -58537-3 0  9990
2 64519  51.9014 359.8442 0000341  22.1890 337.9087 14.79939692 71758
KUIPER-00060            
1 64520U 25134W   26281.66664547  .00000098  00000+0  41887-4 0  9993
2 64520  51.9045 358.8867 0000619  15.9763 344.1219 14.79934787 71770
KUIPER-00061            
1 64521U 25134X   26281.42218718  .00002670  00000+0  37906-3 0  9997
2 64521  51.9018   7.3998 0000227 116.1480 243.9506 14.79939061 71637
KUIPER-00062            
1 64522U 25134Y   26281.55454085  .00002668  00000+0  37875-3 0  9993
2 64522  51.8975   9.2517 0000177 104.5343 255.5639 14.79937532 71637
KUIPER-00063            
1 64523U 25134Z   26281.68152687  .00002623  00000+0  37284-3 0  9996
2 64523  51.9039  16.3002 0000282  82.0121 278.0874 14.79938555 71546
KUIPER-00064            
1 64524U 25134AA  26281.68422025  .00000229  00000+0  59072-4 0  9993
2 64524  51.9049  13.7158 0000299 148.9187 211.1793 14.79932666 71582
KUIPER-00065            
1 64525U 25134AB  26281.67885103  .00001097  00000+0  17281-3 0  9992
2 64525  51.9049  18.9159 0000366  95.2729 264.8275 14.79935122 71492
KUIPER-00066            
1 64526U 25134AC  26281.30729133  .00000650  00000+0  11420-3 0  9996
2 64526  51.9021 317.8236 0000368  60.0510 300.0489 14.79935174 72331
KUIPER-00069            
1 64816U 25151A   26281.56816020  .00000570  00000+0  10382-3 0  9994
2 64816  51.9006  59.3026 0000478 123.5468 236.5540 14.79932269 68282
KUIPER-00070            
1 64817U 25151B   26281.84506881  .00000914  00000+0  14884-3 0  9990
2 64817  51.8985  82.9757 0000973 130.9151 229.1895 14.79933181 67983
KUIPER-00071            
1 64818U 25151C   26281.84777034  .00001099  00000+0  17309-3 0  9991
2 64818  51.8993  80.5111 0000633 124.0187 236.0835 14.79931432 66838
KUIPER-00072            
1 64819U 25151D   26281.76803974  .00002591  00000+0  36873-3 0  9991
2 64819  51.8978  60.7821 0000612 114.8846 245.2180 14.79931659 67103
KUIPER-00073            
1 64820U 25151E   26280.66599605  .00000226  00000+0  58660-4 0  9996
2 64820  51.8992  85.7158 0001092 115.5968 244.5108 14.79931722 67841
KUIPER-00075            
1 64822U 25151G   26281.22949653  .00021588  00000+0  56064-3 0  9992
2 64822  51.8644 266.0414 0002958 323.7465  36.3322 15.38898025 69204
KUIPER-00076            
1 64823U 25151H   26280.74430986  .00002254  00000+0  32456-3 0  9991
2 64823  51.9001  75.3946 0000617 119.6002 240.5021 14.79940111 66810
KUIPER-00077            
1 64824U 25151J   26280.73890449  .00001805  00000+0  26570-3 0  9996
2 64824  51.9008  80.4419 0001007 127.8049 232.3004 14.79947535 66745
KUIPER-00078            
1 64825U 25151K   26281.78832771  .00002332  00000+0  33484-3 0  9995
2 64825  51.8989  73.2697 0000853 134.3664 225.7369 14.79933167 66932
KUIPER-00079            
1 64826U 25151L   26281.81670179  .00002569  00000+0  36587-3 0  9991
2 64826  51.8988  78.0977 0000935 127.5325 232.5722 14.79933499 68068
KUIPER-00080            
1 64827U 25151M   26281.85046347  .00002230  00000+0  32139-3 0  9994
2 64827  51.9003  77.9617 0000629 126.1293 233.9728 14.79931163 66870
KUIPER-00082            
1 64828U 25151N   26281.83019405  .00001236  00000+0  19106-3 0  9992
2 64828  51.9017  65.6181 0000754  96.3706 263.7343 14.79931525 67048
KUIPER-00083            
1 64829U 25151P   26281.82209827  .00000232  00000+0  59396-4 0  9992
2 64829  51.9004  73.1338 0000877 129.7668 230.3372 14.79933779 68122
KUIPER-00084            
1 64830U 25151Q   26280.66329991 -.00001333  00000+0 -14593-3 0  9994
2 64830  51.8996  88.2439 0000784 119.9433 240.1608 14.79928138 66627
KUIPER-00085            
1 64831U 25151R   26281.79643075  .00002385  00000+0  34173-3 0  9994
2 64831  51.9026  65.8267 0000652 134.0955 226.0061 14.79941226 67039
KUIPER-00086            
1 64832U 25151S   26281.85317338  .00001103  00000+0  17362-3 0  9990
2 64832  51.9015  75.5069 0000610  95.9192 264.1839 14.79931024 66904
KUIPER-00087            
1 64833U 25151T   26281.80448384 -.00000131  00000+0  11856-4 0  9996
2 64833  51.8997  58.1743 0000395 112.2798 247.8206 14.79941716 67135
KUIPER-00089            
1 64834U 25151U   26281.79911593  .00002253  00000+0  32443-3 0  9992
2 64834  51.9006  63.2245 0000572 127.8829 232.2186 14.79936403 67071
KUIPER-00090            
1 64835U 25151V   26281.53708737  .00000724  00000+0  12392-3 0  9991
2 64835  51.8987  56.8739 0000571 130.6101 229.4911 14.79934811 67131
KUIPER-00091            
1 64836U 25151W   26281.80181625  .00000046  00000+0  35067-4 0  9995
2 64836  51.9002  60.7373 0000613 143.5365 216.5640 14.79933752 67107
KUIPER-00092            
1 64837U 25151X   26281.38850990 -.00000093  00000+0  16728-4 0  9993
2 64837  51.9039  70.0515 0000183 107.8344 252.2639 14.79924690 68154
KUIPER-00093            
1 64838U 25151Y   26281.85855106  .00002775  00000+0  39280-3 0  9995
2 64838  51.8991  70.4399 0000688 135.6658 224.4359 14.79935934 66973
KUIPER-00094            
1 64839U 25151Z   26281.50193091  .00000732  00000+0  12504-3 0  9997
2 64839  51.9052  27.1416 0000428 140.2353 219.8641 14.79931639 67553
KUIPER-00081            
1 65132U 25171A   26281.23835801  .00002227  00000+0  32094-3 0  9995
2 65132  51.8999 288.1827 0000573  32.6384 327.4613 14.79936320 64513
KUIPER-00088            
1 65133U 25171B   26281.35453930 -.00000519  00000+0 -39145-4 0  9997
2 65133  51.9002 305.1685 0000457  60.4947 299.6061 14.79927833 64287
KUIPER-00095            
1 65134U 25171C   26281.98388473  .00002314  00000+0  33249-3 0  9997
2 65134  51.8983 282.4171 0000566  76.9916 283.1109 14.79929521 64659
KUIPER-00096            
1 65135U 25171D   26281.32886925  .00000052  00000+0  35759-4 0  9997
2 65135  51.8999 297.7743 0000503  37.8204 322.2794 14.79931203 64383
KUIPER-00097            
1 65136U 25171E   26281.32618801  .00001711  00000+0  25330-3 0  9990
2 65136  51.9012 300.4605 0000479  56.6795 303.4213 14.79939355 64334
KUIPER-00098            
1 65137U 25171F   26281.25594946  .00002002  00000+0  29150-3 0  9994
2 65137  51.9003 303.1283 0000537  57.7840 302.3174 14.79931126 63640
KUIPER-00099            
1 65138U 25171G   26281.23297025  .00002135  00000+0  30885-3 0  9995
2 65138  51.9012 293.2475 0000500  35.2792 324.8203 14.79939985 64431
KUIPER-00100            
1 65139U 25171H   26281.33695416  .00001700  00000+0  25198-3 0  9991
2 65139  51.9008 290.2517 0000543  50.7653 309.3358 14.79934327 64485
KUIPER-00102            
1 65140U 25171J   26281.33425450  .00001769  00000+0  26094-3 0  9993
2 65140  51.8984 292.7262 0000553  25.0290 335.0699 14.79936046 64446
KUIPER-00103            
1 65141U 25171K   26281.34914974  .00001127  00000+0  17680-3 0  9998
2 65141  51.8988 310.1644 0000383  27.0744 333.0238 14.79931253 64203
KUIPER-00104            
1 65142U 25171L   26281.29510005  .00002031  00000+0  29536-3 0  9998
2 65142  51.9011 297.9275 0000516  36.8666 323.2332 14.79938635 64378
KUIPER-00105            
1 65143U 25171M   26281.25325844  .00000482  00000+0  92171-4 0  9994
2 65143  51.9021 305.7034 0000530  50.2994 309.8016 14.79938327 64266
KUIPER-00106            
1 65144U 25171N   26281.23396867  .00002182  00000+0  31509-3 0  9992
2 65144  51.9006 284.5572 0000447  59.0490 301.0516 14.79937394 64561
KUIPER-00107            
1 65145U 25171P   26281.27212767  .00002062  00000+0  29940-3 0  9996
2 65145  51.8998 288.0606 0000579  66.4124 293.6900 14.79934075 64511
KUIPER-00108            
1 65146U 25171Q   26281.35994830  .00000439  00000+0  86609-4 0  9996
2 65146  51.9036 300.2238 0000441  43.8463 316.2534 14.79933864 64359
KUIPER-00109            
1 65147U 25171R   26281.33157116  .00000242  00000+0  60727-4 0  9998
2 65147  51.9016 295.2899 0000540  39.0201 321.0800 14.79931938 64418
KUIPER-00110            
1 65148U 25171S   26281.35185705  .00001041  00000+0  16553-3 0  9991
2 65148  51.9004 307.7432 0000386  36.1613 323.9376 14.79929421 64234
KUIPER-00111            
1 65149U 25171T   26281.38020835  .00000312  00000+0  69978-4 0  9997
2 65149  51.8977 312.4717 0000546  28.5928 331.5064 14.79930075 64173
KUIPER-00112            
1 65150U 25171U   26281.23027620  .00002090  00000+0  30307-3 0  9990
2 65150  51.9008 295.7807 0000452  38.5113 321.5882 14.79940760 64390
KUIPER-00114            
1 65151U 25171V   26281.37752749  .00000612  00000+0  10923-3 0  9993
2 65151  51.9010 315.0842 0000463  27.3366 332.7620 14.79931191 64131
KUIPER-00115            
1 65152U 25171W   26281.38562022  .00000147  00000+0  48231-4 0  9995
2 65152  51.9007 307.5598 0000482  32.5311 327.5681 14.79932293 64246
KUIPER-00116            
1 65153U 25171X   26281.34646564  .00001118  00000+0  17558-3 0  9992
2 65153  51.9006 312.7623 0000329  71.0690 289.0308 14.79930055 64164
KUIPER-00118            
1 65154U 25171Y   26281.41128122  .00001963  00000+0  28639-3 0  9996
2 65154  51.9012 314.9240 0000371  55.3232 304.7766 14.79936777 64143
KUIPER-00119            
1 65155U 25171Z   26281.35725740  .00000549  00000+0  10096-3 0  9996
2 65155  51.9024 302.7689 0000481  49.4758 310.6246 14.79934124 64309
KUIPER-00120            
1 65762U 25217A   26281.05382772  .00000313  00000+0  70094-4 0  9996
2 65762  51.8996 193.9708 0001083  82.3366 277.7720 14.79933817 56187
KUIPER-00132            
1 65763U 25217B   26281.75725769  .00036308  00000+0  90587-3 0  9992
2 65763  51.8537  46.8135 0005643   3.1412 356.9610 15.39829280 58284
KUIPER-00133            
1 65764U 25217C   26281.15513717 -.00000407  00000+0 -24396-4 0  9994
2 65764  51.9025 193.6701 0000994  84.3471 275.7605 14.79929287 56201
KUIPER-00139            
1 65765U 25217D   26281.05511624  .00001985  00000+0  28923-3 0  9998
2 65765  51.8974 161.5275 0001303  93.0804 267.0308 14.79941763 56641
KUIPER-00142            
1 65766U 25217E   26281.95058804  .00002566  00000+0  36550-3 0  9995
2 65766  51.8988 172.5365 0001067  91.4024 268.7061 14.79937950 56560
KUIPER-00145            
1 65767U 25217F   26280.93494978 -.00000674  00000+0 -59438-4 0  9990
2 65767  51.9006 179.5521 0001244  82.4439 277.6665 14.79931870 56374
KUIPER-00147            
1 65768U 25217G   26281.97894983  .00000677  00000+0  11781-3 0  9995
2 65768  51.8984 177.4080 0001384  84.4200 275.6920 14.79932525 56492
KUIPER-00148            
1 65769U 25217H   26281.39007690  .00000613  00000+0  10946-3 0  9995
2 65769  51.9043 162.5753 0000963 100.3129 259.7942 14.79933650 56657
KUIPER-00150            
1 65770U 25217J   26281.15782559  .00000214  00000+0  57118-4 0  9995
2 65770  51.9007 191.0931 0001012  75.8809 284.2266 14.79930605 56234
KUIPER-00151            
1 65771U 25217K   26281.09838091  .00000680  00000+0  11823-3 0  9991
2 65771  51.9019 183.8548 0000900  95.7288 264.3777 14.79929978 56336
KUIPER-00152            
1 65772U 25217L   26281.07809999 -.00000376  00000+0 -20297-4 0  9995
2 65772  51.9008 171.4233 0001204  81.2587 278.8512 14.79929877 56503
KUIPER-00153            
1 65773U 25217M   26281.08349813  .00000056  00000+0  36331-4 0  9990
2 65773  51.9010 166.4897 0001119  98.8628 261.2461 14.79934769 56574
KUIPER-00155            
1 65774U 25217N   26280.91056972  .00000318  00000+0  70705-4 0  9997
2 65774  51.9020 139.7152 0000923 116.8636 243.2421 14.79933685 56937
KUIPER-00156            
1 65775U 25217P   26280.98220803  .00000075  00000+0  38835-4 0  9999
2 65775  51.9022 166.9219 0001134  95.9075 264.2016 14.79935139 56552
KUIPER-00165            
1 65778U 25217S   26281.44411658  .00001931  00000+0  28227-3 0  9999
2 65778  51.9007 174.8064 0000725 102.0184 258.0859 14.79926091 56485
KUIPER-00166            
1 65779U 25217T   26281.08620075  .00000528  00000+0  98306-4 0  9992
2 65779  51.9022 163.9553 0000964 100.3964 259.7107 14.79933278 56600
KUIPER-00167            
1 65780U 25217U   26281.70342641  .00000834  00000+0  13842-3 0  9994
2 65780  51.8966 183.5346 0001246  87.6684 272.4421 14.79935462 56389
KUIPER-00168            
1 65781U 25217V   26280.91196627 -.00000155  00000+0  87431-5 0  9992
2 65781  51.9003 169.6659 0000856  98.0901 262.0158 14.79932587 56511
KUIPER-00169            
1 65782U 25217W   26281.10917242 -.00000188  00000+0  44156-5 0  9992
2 65782  51.9001 173.8079 0000958  90.7161 269.3911 14.79927909 56477
KUIPER-00170            
1 65783U 25217X   26281.10374823  .00005009  00000+0  68515-3 0  9994
2 65783  51.8983 178.7692 0000990  92.0950 268.0126 14.79960054 56403
KUIPER-00172            
1 65785U 25217Z   26281.69663454  .00002653  00000+0  37683-3 0  9995
2 65785  51.9002 158.6793 0002116  80.6449 279.4752 14.79937664 56733
KUIPER-00173            
1 65786U 25217AA  26281.00787332 -.00000364  00000+0 -18773-4 0  9992
2 65786  51.8995 174.2439 0001144  84.6653 275.4440 14.79931928 56452
KUIPER-00174            
1 65787U 25217AB  26281.08079224  .00002399  00000+0  34355-3 0  9996
2 65787  51.9021 168.9917 0000883 104.4762 255.6298 14.79935548 56538
KUIPER-00176            
1 65788U 25217AC  26281.73991338  .00002409  00000+0  34494-3 0  9994
2 65788  51.8997 180.9863 0001024  84.7514 275.3565 14.79936088 56421
KUIPER-00101            
1 65947U 25228A   26281.00915703  .00001297  00000+0  19909-3 0  9993
2 65947  51.8972 141.6597 0001184  90.5311 269.5787 14.79928713 54678
KUIPER-00113            
1 65948U 25228B   26281.31843621  .00000232  00000+0  59423-4 0  9991
2 65948  51.8981 135.3126 0001144 111.7434 248.3651 14.79932499 54788
KUIPER-00117            
1 65949U 25228C   26281.01185962  .00000180  00000+0  52687-4 0  9993
2 65949  51.8970 139.1692 0001222 101.0979 259.0121 14.79930487 54708
KUIPER-00121            
1 65950U 25228D   26281.32112834  .00001711  00000+0  25342-3 0  9995
2 65950  51.8978 132.8264 0001012 112.4155 247.6915 14.79933163 54823
KUIPER-00122            
1 65951U 25228E   26281.31034248  .00000383  00000+0  79285-4 0  9997
2 65951  51.8997 142.8405 0000808 104.8592 255.2460 14.79927951 54687
KUIPER-00123            
1 65952U 25228F   26281.34410400  .00001761  00000+0  25991-3 0  9994
2 65952  51.8973 142.6989 0001084 102.7765 257.3319 14.79936739 54683
KUIPER-00124            
1 65953U 25228G   26281.95996232  .00000163  00000+0  50340-4 0  9996
2 65953  51.8968 132.4658 0001120 109.5426 250.5658 14.79935493 54887
KUIPER-00125            
1 65954U 25228H   26281.84108817  .00002246  00000+0  32348-3 0  9990
2 65954  51.8996 118.0487 0001238 113.1265 246.9828 14.79943719 55071
KUIPER-00126            
1 65955U 25228J   26281.31303945  .00000726  00000+0  12417-3 0  9998
2 65955  51.8986 140.3615 0000987 104.4190 255.6882 14.79939022 54711
KUIPER-00127            
1 65956U 25228K   26281.30424702  .00000584  00000+0  10565-3 0  9997
2 65956  51.8993 132.8848 0001176 104.7034 255.4059 14.79931287 54826
KUIPER-00128            
1 65957U 25228L   26281.96267200 -.00000390  00000+0 -22199-4 0  9992
2 65957  51.9003 130.0396 0000957 103.5467 256.5602 14.79933478 54911
KUIPER-00129            
1 65958U 25228M   26281.93430518  .00002138  00000+0  30938-3 0  9993
2 65958  51.9000 125.1428 0001055 104.9197 255.1882 14.79932604 54987
KUIPER-00130            
1 65959U 25228N   26281.96537494  .00000302  00000+0  68628-4 0  9997
2 65959  51.9010 127.5601 0000998  75.3158 284.7915 14.79932728 45242
KUIPER-00134            
1 65960U 25228P   26281.65950122  .00024695  00000+0  65616-3 0  9996
2 65960  51.8712   6.7433 0004891 346.5944  13.4912 15.38105858 56603
KUIPER-00135            
1 65961U 25228Q   26281.32384499  .00001239  00000+0  19151-3 0  9991
2 65961  51.9008 130.4435 0000874 102.4387 257.6674 14.79938647 54853
KUIPER-00136            
1 65962U 25228R   26281.29275777  .00001665  00000+0  24728-3 0  9995
2 65962  51.8994 128.0236 0001229 103.9443 256.1657 14.79941548 54885
KUIPER-00137            
1 65963U 25228S   26281.29547386  .00000999  00000+0  16005-3 0  9992
2 65963  51.9022 125.5281 0001294 105.6604 254.4501 14.79929179 54921
KUIPER-00138            
1 65964U 25228T   26281.93968218  .00002225  00000+0  32075-3 0  9994
2 65964  51.8969 120.0663 0001119 112.4021 247.7060 14.79939652 55057
KUIPER-00140            
1 65965U 25228U   26281.93699431  .00000427  00000+0  84990-4 0  9999
2 65965  51.8989 122.6711 0001246 120.2851 239.8235 14.79936437 55011
KUIPER-00141            
1 65966U 25228V   26280.99698513  .00000580  00000+0  10508-3 0  9998
2 65966  51.9032 121.9131 0000881 115.6500 244.4554 14.79931462 54943
KUIPER-00146            
1 65967U 25228W   26281.29809498  .00001752  00000+0  25888-3 0  9998
2 65967  51.9023 123.0956 0001076 111.5630 248.5448 14.79918546 54954
KUIPER-00149            
1 65968U 25228X   26280.93214102  .00000192  00000+0  54261-4 0  9996
2 65968  51.9003 119.5825 0001120 113.9590 246.1489 14.79927852 54970
KUIPER-00154            
1 65969U 25228Y   26281.91401839  .00002192  00000+0  31641-3 0  9999
2 65969  51.8992 112.7227 0000845 107.1363 252.9692 14.79932124 55154
KUIPER-00157            
1 65970U 25228Z   26281.91691693  .00017986  00000+0  26147-2 0  9991
2 65970  51.9003 115.4229 0001061 132.8543 227.2507 14.75962993 55117
KUIPER-00144            
1 67133U 25301A   26281.15243348  .00000059  00000+0  36755-4 0  9993
2 67133  51.9007 196.1172 0001065  80.8767 279.2316 14.79933436 45333
KUIPER-00164            
1 67134U 25301B   26281.81424360  .00002628  00000+0  37366-3 0  9994
2 67134  51.9030 205.7147 0000918  71.2195 288.8867 14.79931351 45436
KUIPER-00175            
1 67135U 25301C   26281.73182249  .00000234  00000+0  59777-4 0  9995
2 67135  51.8987 188.5045 0001129  81.4379 278.6711 14.79932117 45564
KUIPER-00179            
1 67136U 25301D   26281.74940462  .00000754  00000+0  12794-3 0  9990
2 67136  51.8984 203.4230 0000961  70.8223 289.2844 14.79933490 45467
KUIPER-00181            
1 67137U 25301E   26281.12816012  .00002312  00000+0  33207-3 0  9990
2 67137  51.9019 218.7424 0001058  63.1470 296.9601 14.79940187 45174
KUIPER-00183            
1 67138U 25301F   26281.12675123  .00002143  00000+0  30993-3 0  9998
2 67138  51.9016 188.7538 0001073  83.0688 277.0396 14.79938650 45604
KUIPER-00184            
1 67139U 25301G   26281.18079187  .00002255  00000+0  32467-3 0  9995
2 67139  51.8990 200.9502 0000985  78.4852 281.6221 14.79939307 45546
KUIPER-00186            
1 67140U 25301H   26281.02684802  .00002109  00000+0  30554-3 0  9999
2 67140  51.9021 219.1993 0000713  76.6173 283.4869 14.79929981 45001
KUIPER-00187            
1 67141U 25301J   26281.02417212  .00000249  00000+0  61665-4 0  9990
2 67141  51.9013 221.7386 0001023  92.2131 267.8948 14.79930902 44964
KUIPER-00188            
1 67142U 25301K   26281.76830593  .00000559  00000+0  10237-3 0  9995
2 67142  51.9024 186.0337 0001125  83.0896 277.0194 14.79931914 45528
KUIPER-00191            
1 67143U 25301L   26281.80885801  .00000737  00000+0  12568-3 0  9990
2 67143  51.9002 210.7408 0001034  66.8540 293.2531 14.79932006 45217
KUIPER-00196            
1 67144U 25301M   26281.71962772  .00002157  00000+0  31185-3 0  9998
2 67144  51.8964 168.5806 0001065  89.5819 270.5265 14.79939817 45760
KUIPER-00204            
1 67145U 25301N   26281.73721791  .00002305  00000+0  33130-3 0  9992
2 67145  51.9015 183.5474 0000884  90.1646 269.9418 14.79930904 45671
KUIPER-00210            
1 67146U 25301P   26281.77487688  .00004836  00000+0  66305-3 0  9992
2 67146  51.9016 210.8356 0000953  44.3262 315.7777 14.79925254 45353
KUIPER-00221            
1 67147U 25301Q   26281.86829416  .00000263  00000+0  63525-4 0  9994
2 67147  51.9010 217.9605 0001008  93.0114 267.0964 14.79934549 45097
KUIPER-00232            
1 67148U 25301R   26281.17541485  .00000617  00000+0  10990-3 0  9996
2 67148  51.8984 206.0296 0000966  84.8916 275.2156 14.79932655 45193
KUIPER-00241            
1 67149U 25301S   26281.80616403  .00000633  00000+0  11201-3 0  9994
2 67149  51.9026 213.2709 0001039  78.4123 281.6956 14.79934627 45484
KUIPER-00245            
1 67150U 25301T   26281.86560254  .00001531  00000+0  22976-3 0  9993
2 67150  51.9031 220.5190 0001008  87.9149 272.1929 14.79936865 45050
KUIPER-00246            
1 67151U 25301U   26281.17270481  .00002256  00000+0  32478-3 0  9991
2 67151  51.8999 208.5120 0000972  76.8995 283.2076 14.79936737 45185
KUIPER-00247            
1 67152U 25301V   26281.79126049  .00002528  00000+0  36046-3 0  9997
2 67152  51.8954 195.7137 0001015  79.9471 280.1605 14.79935796 45395
KUIPER-00248            
1 67153U 25301W   26281.74262167  .00000509  00000+0  95775-4 0  9997
2 67153  51.8979 178.5798 0001019  87.5437 272.5642 14.79933822 45794
KUIPER-00249            
1 67154U 25301X   26281.79396869  .00002544  00000+0  36253-3 0  9996
2 67154  51.8990 193.2876 0001107  76.2892 283.8194 14.79936421 45422
KUIPER-00250            
1 67155U 25301Y   26281.81154798  .00000588  00000+0  10611-3 0  9999
2 67155  51.8994 208.1615 0001181  80.2905 279.8191 14.79931622 45257
KUIPER-00251            
1 67156U 25301Z   26281.14974244 -.00000916  00000+0 -91141-4 0  9997
2 67156  51.8997 198.6662 0001090  79.8691 280.2394 14.79930469 45485
KUIPER-00252            
1 67157U 25301AA  26281.14703139  .00002208  00000+0  31855-3 0  9990
2 67157  51.9000 201.1298 0000920  85.9656 274.1411 14.79935936 45269
KUIPER-00261            
1 67158U 25301AB  26281.77779347  .00001259  00000+0  19411-3 0  9993
2 67158  51.9013 208.4107 0000976  56.3669 303.7386 14.79933188 45212
KUIPER-00265            
1 67159U 25301AC  26281.25513445 -.00000728  00000+0 -66562-4 0  9994
2 67159  51.9016 225.6969 0000864  84.5337 275.5724 14.79926392 44966
KUIPER-00159            
1 67764U 26030A   26281.33057573 -.00000980  00000+0 -99555-4 0  9998
2 67764  51.8997 304.0996 0001712  13.3663 346.7344 14.79930628 37342
KUIPER-00160            
1 67765U 26030B   26281.32548176  .00001710  00000+0  25317-3 0  9996
2 67765  51.8972 285.3674 0000298  46.2964 313.8023 14.79935409 37607
KUIPER-00177            
1 67766U 26030C   26281.40461226  .00000959  00000+0  15476-3 0  9995
2 67766  51.9017 352.5025 0000439  94.3057 265.7956 14.79935198 36671
KUIPER-00178            
1 67767U 26030D   26281.50590665  .00002547  00000+0  36294-3 0  9993
2 67767  51.9004 352.0353 0000383  27.1782 332.9200 14.79937046 36699
KUIPER-00180            
1 67768U 26030E   26281.91646691  .00001739  00000+0  25703-3 0  9995
2 67768  51.8994 345.2084 0000231  36.2992 323.7986 14.79933825 36823
KUIPER-00197            
1 67769U 26030F   26281.33027853  .00002144  00000+0  31009-3 0  9992
2 67769  51.9000 327.8203 0000295  40.2612 319.8372 14.79935324 37019
KUIPER-00198            
1 67770U 26030G   26281.41808551  .00002183  00000+0  31521-3 0  9997
2 67770  51.8987 339.9016 0000209  34.8141 325.2835 14.79936763 36855
KUIPER-00199            
1 67771U 26030H   26281.91668981 -.00008080  00000+0 -99876-3 0  9995
2 67771  51.8960 276.6072 0004839  85.9546  10.6641 14.81282922  5798
KUIPER-00200            
1 67772U 26030J   26281.36675013  .00000537  00000+0  99495-4 0  9994
2 67772  51.9004 325.1755 0000367  50.2200 309.8795 14.79931620 37051
KUIPER-00203            
1 67773U 26030K   26281.46676004  .00000244  00000+0  60940-4 0  9995
2 67773  51.9077 357.3204 0000231  97.9633 262.1356 14.79931277 36619
KUIPER-00205            
1 67774U 26030L   26281.30189371  .00000030  00000+0  32898-4 0  9999
2 67774  51.9013 322.9304 0000597  21.8879 338.2108 14.79938003 37088
KUIPER-00208            
1 67775U 26030M   26281.44106887  .00000309  00000+0  69506-4 0  9991
2 67775  51.9004 349.8074 0000096 147.3591 212.7377 14.79932381 36716
KUIPER-00209            
1 67776U 26030N   26281.47753747 -.00000127  00000+0  12287-4 0  9991
2 67776  51.9004 347.2490 0000290  13.1365 346.9604 14.79933666 36750
KUIPER-00213            
1 67777U 26030P   26281.64905965  .00000604  00000+0  10817-3 0  9997
2 67777  51.8977 343.9412 0000348  73.2775 286.8226 14.79930809 36817
KUIPER-00214            
1 67778U 26030Q   26281.48292949  .00000268  00000+0  64173-4 0  9992
2 67778  51.9010 342.2199 0000227  65.1683 294.9303 14.79936206 36829
KUIPER-00215            
1 67779U 26030R   26281.39510193  .00001986  00000+0  28940-3 0  9996
2 67779  51.8995 329.9599 0000303  36.3971 323.7012 14.79936727 36996
KUIPER-00218            
1 67780U 26030S   26281.48021651  .00000249  00000+0  61696-4 0  9991
2 67780  51.8988 344.6213 0000308  46.0774 314.0213 14.79932552 36797
KUIPER-00220            
1 67781U 26030T   26281.37213985  .00000096  00000+0  41545-4 0  9994
2 67781  51.8972 320.1189 0000417  43.3997 316.6998 14.79929918 37128
KUIPER-00222            
1 67782U 26030U   26281.38434006  .00001942  00000+0  28361-3 0  9996
2 67782  51.9000 340.2081 0000370  12.0815 348.0156 14.79931122 36849
KUIPER-00223            
1 67783U 26030V   26281.42617013  .00001864  00000+0  27341-3 0  9993
2 67783  51.9022 332.3389 0000416  47.7819 312.3178 14.79937248 36963
KUIPER-00225            
1 67784U 26030W   26281.35326771  .00002200  00000+0  31742-3 0  9999
2 67784  51.8988 337.8017 0000363  40.7207 319.3782 14.79936059 36874
KUIPER-00226            
1 67785U 26030X   26281.33297007  .00002172  00000+0  31386-3 0  9999
2 67785  51.9008 325.2772 0000934  53.7036 306.4012 14.79935440 37053
KUIPER-00259            
1 67786U 26030Y   26281.45455065  .00000472  00000+0  90936-4 0  9991
2 67786  51.8987 337.2545 0000273  48.4840 311.6146 14.79934425 36899
KUIPER-00260            
1 67787U 26030Z   26281.45725358  .00002284  00000+0  32844-3 0  9993
2 67787  51.9018 334.8604 0000456  11.3418 348.7555 14.79939436 36834
KUIPER-00262            
1 67788U 26030AA  26281.35595446  .00001238  00000+0  19142-3 0  9990
2 67788  51.9019 335.2251 0000203  63.1243 296.9740 14.79929946 36914
KUIPER-00266            
1 67789U 26030AB  26281.39242060  .00001205  00000+0  18705-3 0  9994
2 67789  51.9013 332.5519 0000255  71.3684 288.7306 14.79932284 36953
KUIPER-00268            
1 67790U 26030AC  26281.42888841  .00000489  00000+0  93184-4 0  9991
2 67790  51.9062 329.9430 0000135  19.3887 340.7081 14.79931993 36994
KUIPER-00270            
1 67791U 26030AD  26281.40589711  .00002126  00000+0  30768-3 0  9992
2 67791  51.9004 319.9821 0000334  48.4725 311.6267 14.79939120 37139
KUIPER-00274            
1 67792U 26030AE  26281.38163628  .00000943  00000+0  15261-3 0  9991
2 67792  51.9019 342.6102 0000351  58.8880 301.2117 14.79936238 36817
KUIPER-00275            
1 67793U 26030AF  26281.33567174  .00002211  00000+0  31885-3 0  9991
2 67793  51.9003 322.8057 0000342  21.4104 338.6873 14.79939071 37086
KUIPER-00276            
1 67794U 26030AG  26281.43158069  .00001119  00000+0  17578-3 0  9991
2 67794  51.9007 327.3557 0000647  37.6408 322.4599 14.79932223 37033
KUIPER-00279            
1 67795U 26030AH  26281.40860572  .00000662  00000+0  11584-3 0  9991
2 67795  51.9047 317.5163 0000381  46.5298 313.5696 14.79933297 37168
KUIPER-00131            
1 68573U 26072A   26281.74237797  .00000323  00000+0  71337-4 0  9993
2 68573  51.9008  53.5112 0000447 129.4880 230.6122 14.79934383 27936
KUIPER-00189            
1 68574U 26072B   26281.77344073  .00001428  00000+0  21631-3 0  9991
2 68574  51.8979  55.8447 0000417  82.2843 277.8167 14.79928731 27900
KUIPER-00192            
1 68575U 26072C   26281.74507441  .00000251  00000+0  61893-4 0  9997
2 68575  51.9005  50.9928 0000495 130.5992 229.5014 14.79935088 27975
KUIPER-00193            
1 68576U 26072D   26281.55328037  .00000723  00000+0  12388-3 0  9997
2 68576  51.9059  41.8988 0000462 134.8509 225.2491 14.79931686 28080
KUIPER-00194            
1 68577U 26072E   26281.78153468  .00002568  00000+0  36572-3 0  9997
2 68577  51.9029  48.3613 0000480 116.5705 243.5307 14.79937555 28013
KUIPER-00229            
1 68578U 26072F   26281.77614317  .00002429  00000+0  34742-3 0  9995
2 68578  51.8994  53.3664 0000391 117.8647 242.2355 14.79936313 27947
KUIPER-00230            
1 68579U 26072G   26281.91668981 -.00034286  00000+0 -44917-2 0  9990
2 68579  51.9046   0.2386 0000713 124.3895 323.4742 14.79929996  4165
KUIPER-00231            
1 68580U 26072H   26281.67075001  .00000283  00000+0  66109-4 0  9997
2 68580  51.8992  26.3963 0001218 174.2466 185.8510 14.79933357 28306
KUIPER-00234            
1 68581U 26072J   26281.54517707  .00002824  00000+0  39924-3 0  9995
2 68581  51.9000  49.3657 0000710 136.3673 223.7345 14.79935925 27971
KUIPER-00236            
1 68582U 26072K   26281.52620829  .00001967  00000+0  28685-3 0  9993
2 68582  51.9054   4.4699 0000627 132.0583 228.0433 14.79939193 28607
KUIPER-00244            
1 68583U 26072L   26281.72479675  .00000586  00000+0  10591-3 0  9990
2 68583  51.9009  38.5958 0000469 128.7453 231.3551 14.79931352 28142
KUIPER-00253            
1 68584U 26072M   26281.72210258  .00000231  00000+0  59302-4 0  9992
2 68584  51.9042  41.1417 0000436 131.6952 228.4048 14.79933230 28102
KUIPER-00254            
1 68585U 26072N   26281.75316107  .00002471  00000+0  35304-3 0  9999
2 68585  51.9042  43.4996 0000441 116.4764 243.6244 14.79934416 28078
KUIPER-00263            
1 68586U 26072P   26281.49923791  .00001250  00000+0  19297-3 0  9991
2 68586  51.9028  29.6871 0000475 109.5151 250.5863 14.79934350 28241
KUIPER-00269            
1 68587U 26072Q   26281.49652818  .00002755  00000+0  39017-3 0  9994
2 68587  51.9013  32.1026 0000381 142.8214 217.2775 14.79936994 28218
KUIPER-00272            
1 68588U 26072R   26281.57624641  .00000598  00000+0  10740-3 0  9992
2 68588  51.8985  51.7142 0000411 118.8948 241.2055 14.79933415 27945
KUIPER-00285            
1 68589U 26072S   26281.53029907  .00002762  00000+0  39112-3 0  9992
2 68589  51.9050  32.0447 0000752 120.4172 239.6865 14.79935826 28215
KUIPER-00286            
1 68590U 26072T   26281.66805307  .00000267  00000+0  64073-4 0  9997
2 68590  51.9026  28.8579 0000355  94.5799 265.5204 14.79933060 28273
KUIPER-00289            
1 68591U 26072U   26281.72749058  .00000428  00000+0  85154-4 0  9997
2 68591  51.8989  36.0668 0000336 135.1697 224.9293 14.79931039 28179
KUIPER-00290            
1 68592U 26072V   26281.69372583  .00002594  00000+0  36907-3 0  9996
2 68592  51.9034  36.2314 0000341 160.5059 199.5916 14.79938472 28179
KUIPER-00293            
1 68593U 26072W   26281.71669923  .00002582  00000+0  36760-3 0  9991
2 68593  51.8986  46.0909 0001335 115.6116 244.4984 14.79934793 28035
KUIPER-00294            
1 68594U 26072X   26281.73018433  .00000467  00000+0  90276-4 0  9991
2 68594  51.9010  33.5577 0000230 110.4262 249.6725 14.79933425 28216
KUIPER-00296            
1 68595U 26072Y   26281.51270733  .00000054  00000+0  36048-4 0  9990
2 68595  51.9033  17.0451 0000365  24.2316 335.8664 14.79934561 28426
KUIPER-00297            
1 68596U 26072Z   26281.54786439  .00002830  00000+0  39991-3 0  9992
2 68596  51.9008  46.8422 0000870 155.2945 204.8059 14.79946850 28013
KUIPER-00300            
1 68597U 26072AA  26281.71940212  .00002554  00000+0  36384-3 0  9999
2 68597  51.9035  43.6250 0000449 115.5608 244.5401 14.79936079 28075
KUIPER-00301            
1 68598U 26072AB  26281.51151695  .00001587  00000+0  25610-3 0  9992
2 68598  51.9047  14.5140 0001825 268.3977  91.6775 14.76527581 28457
KUIPER-00304            
1 68599U 26072AC  26281.67525943  .00001352  00000+0  22220-3 0  9995
2 68599  51.9016  15.7263 0000834  48.2938 311.8094 14.76640705 28459
KUIPER-00317            
1 68600U 26072AD  26281.56135798  .00002772  00000+0  39243-3 0  9991
2 68600  51.8991  34.3065 0000362 113.9572 246.1428 14.79942151 28184
KUIPER-00320            
1 68601U 26072AE  26281.69101759  .00002901  00000+0  40935-3 0  9990
2 68601  51.9038  38.7598 0000744  78.8204 281.2842 14.79937295 28130
KUIPER-00299            
1 68864U 26095A   26280.83893422  .00001678  00000+0  24911-3 0  9992
2 68864  51.8979 112.4837 0000935 121.6245 238.4808 14.79930466 24296
KUIPER-00353            
1 68865U 26095B   26281.90182799  .00002197  00000+0  31711-3 0  9993
2 68865  51.8993  92.8124 0000716 128.3308 231.7719 14.79933470 24660
KUIPER-00357            
1 68866U 26095C   26281.92750793  .00000894  00000+0  14628-3 0  9991
2 68866  51.9008 100.2102 0001612 105.8818 254.2322 14.79931607 24560
KUIPER-00364            
1 68867U 26095D   26280.74304617  .00000584  00000+0  10561-3 0  9999
2 68867  51.9015 107.9768 0001534 102.2239 257.8895 14.79928773 24353
KUIPER-00375            
1 68868U 26095E   26281.86536256  .00002349  00000+0  33692-3 0  9991
2 68868  51.8998  95.4805 0000949 122.9473 237.1581 14.79942920 24627
KUIPER-00433            
1 68869U 26095F   26280.97130480  .00001731  00000+0  25595-3 0  9999
2 68869  51.8993 114.4278 0001312 107.0879 253.0227 14.79935843 24280
KUIPER-00437            
1 68870U 26095G   26281.58958064  .00001820  00000+0  28846-3 0  9996
2 68870  51.9023  63.7678 0000574 106.8931 253.2093 14.76636279 25048
KUIPER-00448            
1 68871U 26095H   26281.89373898  .00002243  00000+0  32311-3 0  9999
2 68871  51.9020 100.3602 0000947 132.4086 227.6957 14.79939463 24554
KUIPER-00459            
1 68872U 26095J   26281.87346564  .00002419  00000+0  34620-3 0  9998
2 68872  51.9002  88.0105 0000665 115.2546 244.8486 14.79935500 24727
KUIPER-00468            
1 68873U 26095K   26281.84909133  .00001784  00000+0  28331-3 0  9999
2 68873  51.8978  86.0714 0000371 205.4873 154.6070 14.76647037 24754
KUIPER-00476            
1 68874U 26095L   26281.82748970  .00000937  00000+0  15190-3 0  9996
2 68874  51.9016  68.0633 0000830 131.6366 228.4668 14.79932460 25008
KUIPER-00478            
1 68875U 26095M   26281.87075910  .00002287  00000+0  32883-3 0  9997
2 68875  51.8986  90.4509 0000970 124.7968 235.3086 14.79934092 24699
KUIPER-00480            
1 68876U 26095N   26281.83969588  .00002246  00000+0  32349-3 0  9999
2 68876  51.9022  88.1112 0000735 126.5339 233.5691 14.79930728 24725
KUIPER-00482            
1 68877U 26095P   26281.89641863  .00001286  00000+0  19765-3 0  9999
2 68877  51.9012  97.8417 0001397 114.4427 245.6682 14.79927595 24596
KUIPER-00483            
1 68878U 26095Q   26280.73492953  .00001714  00000+0  25383-3 0  9995
2 68878  51.8976 115.4390 0001327  81.2804 278.8308 14.79928885 24243
KUIPER-00488            
1 68879U 26095R   26280.92264567  .00000247  00000+0  61365-4 0  9996
2 68879  51.8998  97.1543 0001137 122.8340 237.2732 14.79933803 24516
KUIPER-00489            
1 68880U 26095S   26281.87614957  .00002132  00000+0  30861-3 0  9996
2 68880  51.8971  85.4097 0001139 132.3256 227.7803 14.79932721 24765
KUIPER-00499            
1 68881U 26095T   26281.83699895  .00002521  00000+0  35949-3 0  9991
2 68881  51.8984  90.6489 0000680 123.5079 236.5949 14.79935423 24680
KUIPER-00500            
1 68882U 26095U   26281.95315848  .00000506  00000+0  95437-4 0  9998
2 68882  51.9025 107.5885 0001079 133.0555 227.0498 14.79935267 24460
KUIPER-00502            
1 68883U 26095V   26281.83528858  .00001312  00000+0  20107-3 0  9990
2 68883  51.9001  84.3593 0001294 138.2605 221.8457 14.79927227 24773
KUIPER-00503            
1 68884U 26095W   26281.92210034  .00002206  00000+0  31816-3 0  9997
2 68884  51.8965 105.1941 0001093 116.1639 243.9435 14.79942652 24499
KUIPER-00504            
1 68885U 26095X   26281.94780174  .00011429  00000+0  15273-2 0  9992
2 68885  51.8994 112.6233 0000931 122.5113 237.5939 14.79888787 24392
KUIPER-00505            
1 68886U 26095Y   26281.92481069  .00002217  00000+0  31967-3 0  9996
2 68886  51.8999 102.7234 0000764 124.4341 235.6694 14.79939005 24529
KUIPER-00507            
1 68887U 26095Z   26281.91870502  .00000673  00000+0  11732-3 0  9992
2 68887  51.9002  92.7325 0000821 119.2821 240.8224 14.79934613 24666
KUIPER-00511            
1 68888U 26095AA  26281.84239720  .00002330  00000+0  33453-3 0  9992
2 68888  51.8981  85.6789 0001065 123.0713 237.0352 14.79940795 24759
KUIPER-00512            
1 68889U 26095AB  26281.88834266  .00001160  00000+0  18123-3 0  9990
2 68889  51.9023 105.3844 0000941 112.6011 247.5051 14.79926507 24484
KUIPER-00519            
1 68890U 26095AC  26281.89913261  .00002322  00000+0  33341-3 0  9996
2 68890  51.9014  95.4047 0000695 117.1553 242.9480 14.79943710 24623
KUIPER-00521            
1 68891U 26095AD  26281.89743339  .00000214  00000+0  57045-4 0  9990
2 68891  51.9014  89.1067 0000741 125.4519 234.6513 14.79932717 24712
KUIPER-00524            
1 68892U 26095AE  26281.86266981  .00002344  00000+0  33639-3 0  9999
2 68892  51.8972  97.9639 0001053 122.4059 237.7006 14.79937111 24589
KUIPER-00370            
1 68919U 26098A   26281.21537189  .00002227  00000+0  32105-3 0  9999
2 68919  51.8980 278.2113 0000638  39.7301 320.3709 14.79935581 24226
KUIPER-00380            
1 68920U 26098B   26281.96630842  .00000655  00000+0  11493-3 0  9993
2 68920  51.8980 267.5234 0000530  47.5416 312.5591 14.79936331 24437
KUIPER-00386            
1 68921U 26098C   26281.98049170  .00000675  00000+0  11753-3 0  9995
2 68921  51.9009 269.9630 0000863  35.2712 324.8307 14.79932659 24406
KUIPER-00388            
1 68922U 26098D   26281.21000868  .00002139  00000+0  30951-3 0  9991
2 68922  51.8999 283.5327 0000609  38.1605 321.9401 14.79936710 24146
KUIPER-00405            
1 68923U 26098E   26281.29709913  .00002164  00000+0  31281-3 0  9992
2 68923  51.9007 280.5013 0000956 338.5665  21.5258 14.79935548 24191
KUIPER-00408            
1 68924U 26098F   26281.22076803  .00002220  00000+0  32002-3 0  9996
2 68924  51.8983 273.2477 0000682  52.1946 307.9078 14.79942409 24290
KUIPER-00409            
1 68925U 26098G   26281.94131530 -.00002653  00000+0 -31910-3 0  9994
2 68925  51.9005 275.1558 0000518  21.8065 338.2919 14.79938830 24329
KUIPER-00410            
1 68926U 26098H   26281.20119606  .00002199  00000+0  31739-3 0  9996
2 68926  51.8960 275.8925 0000359   4.0654 356.0311 14.79934101 24257
KUIPER-00412            
1 68927U 26098J   26281.93524145  .00000499  00000+0  94480-4 0  9999
2 68927  51.9035 265.1964 0000741  52.8114 307.2916 14.79937772 24463
KUIPER-00413            
1 68928U 26098K   26281.21268818  .00000258  00000+0  62801-4 0  9998
2 68928  51.9001 280.8532 0000703   1.5492 358.5472 14.79933423 24184
KUIPER-00414            
1 68929U 26098L   26281.23567473  .00002186  00000+0  31568-3 0  9997
2 68929  51.8962 290.8296 0000071   6.1314 353.9649 14.79931831 24041
KUIPER-00415            
1 68930U 26098M   26281.18700475  .00002268  00000+0  32640-3 0  9997
2 68930  51.9002 273.4864 0000668  54.5389 305.5636 14.79932578 24282
KUIPER-00416            
1 68931U 26098N   26281.20480956  .00002061  00000+0  29944-3 0  9994
2 68931  51.9009 264.7608 0000680  68.3255 291.7779 14.79910601 24409
KUIPER-00420            
1 68932U 26098P   26281.93793563  .00000364  00000+0  76741-4 0  9998
2 68932  51.9004 262.6269 0000783  46.5519 313.5508 14.79937007 24503
KUIPER-00421            
1 68933U 26098Q   26281.93253015  .00002343  00000+0  33620-3 0  9999
2 68933  51.9003 267.6353 0000577  63.9891 296.1131 14.79939920 24435
KUIPER-00425            
1 68934U 26098R   26281.99197443  .00000830  00000+0  13784-3 0  9996
2 68934  51.8993 274.9153 0000700  34.8976 325.2032 14.79929168 24337
KUIPER-00430            
1 68935U 26098S   26281.31397772  .00000623  00000+0  11072-3 0  9998
2 68935  51.9041 280.3202 0000583  50.9955 309.1059 14.79933272 24201
KUIPER-00431            
1 68936U 26098T   26281.31128896  .00002207  00000+0  31843-3 0  9996
2 68936  51.8986 282.9112 0000619  27.1022 332.9973 14.79938237 24168
KUIPER-00432            
1 68937U 26098U   26281.18430066 -.00001228  00000+0 -13211-3 0  9990
2 68937  51.8980 275.8715 0000660  53.7198 306.3825 14.79928129 24258
KUIPER-00434            
1 68938U 26098V   26281.21063495  .00001639  00000+0  26419-3 0  9991
2 68938  51.8997 280.2730 0000464 210.2195 149.8739 14.76415745 24192
KUIPER-00436            
1 68939U 26098W   26281.29980215  .00002196  00000+0  31703-3 0  9999
2 68939  51.8995 277.9756 0000468  68.8144 291.2868 14.79928360 24232
KUIPER-00438            
1 68940U 26098X   26281.97778576  .00002461  00000+0  35168-3 0  9995
2 68940  51.9021 272.5076 0000564  54.9468 305.1548 14.79935058 24369
KUIPER-00439            
1 68941U 26098Y   26280.47525917 -.00001142  00000+0 -12081-3 0  9995
2 68941  51.9001 279.1422 0000634  61.1142 298.9883 14.79928791 24146
KUIPER-00440            
1 68942U 26098Z   26281.98588346  .00002527  00000+0  36035-3 0  9999
2 68942  51.9018 264.9607 0001120  33.7623 326.3411 14.79941833 24473
KUIPER-00442            
1 68943U 26098AA  26281.98317640  .00000567  00000+0  10337-3 0  9996
2 68943  51.9002 267.4878 0000797  24.1110 335.9890 14.79929328 24437
KUIPER-00446            
1 68944U 26098AB  26281.27142847  .00000573  00000+0  10414-3 0  9997
2 68944  51.8979 273.1146 0001172 357.2891   2.8065 14.79936725 24293
KUIPER-00451            
1 68945U 26098AC  26281.26064280  .00001969  00000+0  28719-3 0  9998
2 68945  51.8985 283.1437 0000543  35.2794 324.8205 14.79937758 24156
KUIPER-00452            
1 68946U 26098AD  26281.94941888  .00002486  00000+0  35496-3 0  9997
2 68946  51.9013 267.6194 0000551  60.8766 299.2252 14.79934142 24431
KUIPER-00453            
1 68947U 26098AE  26281.96899332  .00001207  00000+0  18725-3 0  9992
2 68947  51.8974 264.9449 0000280 228.0969 131.9969 14.79936395 24475
KUIPER-00454            
1 68948U 26098AF  26281.20729385  .00002099  00000+0  30426-3 0  9992
2 68948  51.8987 285.8718 0000833  58.8888 301.2156 14.79927664 24114
KUIPER-00455            
1 68949U 26098AG  26281.96969621 -.00001880  00000+0 -21769-3 0  9994
2 68949  51.9008 280.0142 0000304 195.4656 164.6297 14.79940855 24262
KUIPER-00458            
1 68950U 26098AH  26281.27682166  .00002327  00000+0  33416-3 0  9993
2 68950  51.9002 268.1035 0000806  63.7782 296.3263 14.79934431 24360
KUIPER-00282            
1 69267U 26118A   26281.14981586 -.00001135  00000+0 -11999-3 0  9992
2 69267  51.8955 261.1125 0000713  33.0767 327.0240 14.79926039 20886
KUIPER-00383            
1 69268U 26118B   26281.23695687  .00002428  00000+0  34737-3 0  9996
2 69268  51.8972 258.2497 0000801  44.4199 315.6828 14.79936498 20939
KUIPER-00527            
1 69269U 26118C   26281.94603699  .00002605  00000+0  37048-3 0  9992
2 69269  51.8960 255.2464 0000875  44.6594 315.4439 14.79939254 21031
KUIPER-00562            
1 69270U 26118D   26281.92034929  .00000804  00000+0  13446-3 0  9991
2 69270  51.9025 247.6827 0000940  66.7221 293.3840 14.79935760 21149
KUIPER-00570            
1 69271U 26118E   26281.26534261  .00002317  00000+0  33281-3 0  9993
2 69271  51.8995 263.2327 0000767  42.6323 317.4699 14.79936971 20859
KUIPER-00572            
1 69272U 26118F   26281.11876574  .00005966  00000+0  81046-3 0  9999
2 69272  51.9002 258.7746 0000609  43.0317 317.0693 14.79957030 20913
KUIPER-00581            
1 69273U 26118G   26281.92374896  .00001821  00000+0  26782-3 0  9991
2 69273  51.9000 260.2261 0000850 358.1670   1.9289 14.79937016 21050
KUIPER-00584            
1 69274U 26118H   26281.97170463  .00002506  00000+0  35758-3 0  9995
2 69274  51.8999 262.6192 0000671  48.7778 311.3242 14.79932211 20933
KUIPER-00587            
1 69275U 26118J   26281.93183447  .00002522  00000+0  35961-3 0  9992
2 69275  51.8993 252.6861 0000762  54.3967 305.7066 14.79940315 21075
KUIPER-00590            
1 69276U 26118K   26281.92644457  .00000878  00000+0  14413-3 0  9996
2 69276  51.9004 257.7255 0000893  36.4371 323.6652 14.79935647 21003
KUIPER-00592            
1 69277U 26118L   26281.97707952 -.00001908  00000+0 -22124-3 0  9997
2 69277  51.9026 257.3811 0000682  53.2575 306.8450 14.79945275 21019
KUIPER-00593            
1 69278U 26118M   26281.92843841  .00000746  00000+0  12685-3 0  9999
2 69278  51.8989 240.2070 0000332 299.3539  60.7390 14.79933752 21308
KUIPER-00594            
1 69279U 26118N   26281.11269615 -.00000386  00000+0 -21561-4 0  9998
2 69279  51.9013 248.8279 0000979  81.2261 278.8813 14.79930585 21055
KUIPER-00595            
1 69280U 26118P   26281.89466433  .00000528  00000+0  98272-4 0  9991
2 69280  51.8963 240.3092 0000550 320.5247  39.5675 14.79934615 21278
KUIPER-00596            
1 69281U 26118Q   26281.21198936  .00001954  00000+0  28523-3 0  9993
2 69281  51.9009 265.8760 0000638  48.2316 311.8701 14.79931840 20826
KUIPER-00597            
1 69282U 26118R   26281.89197330  .00002466  00000+0  35235-3 0  9992
2 69282  51.8969 242.8595 0001631  89.5444 270.5705 14.79938080 21207
KUIPER-00599            
1 69283U 26118S   26281.91492164  .00000019  00000+0  31557-4 0  9995
2 69283  51.9004 252.6770 0000752  38.5818 321.5198 14.79926497 21072
KUIPER-00600            
1 69284U 26118T   26281.85820370  .00001059  00000+0  16794-3 0  9993
2 69284  51.8977 242.9249 0001790  75.3289 284.7872 14.79934889 21206
KUIPER-00601            
1 69285U 26118U   26281.20050270  .00002211  00000+0  31895-3 0  9997
2 69285  51.9011 260.9245 0000746  65.0595 295.0444 14.79928588 20892
KUIPER-00602            
1 69286U 26118V   26281.88387244  .00002594  00000+0  36906-3 0  9998
2 69286  51.9009 250.3158 0000941   9.0267 351.0712 14.79938086 21107
KUIPER-00603            
1 69287U 26118W   26281.96560538  .00002690  00000+0  38164-3 0  9992
2 69287  51.9023 252.5496 0000846  58.3986 301.7059 14.79938763 21076
KUIPER-00605            
1 69288U 26118X   26281.95751019  .00002585  00000+0  36794-3 0  9998
2 69288  51.8977 260.0544 0000755  49.8752 310.2277 14.79938359 20973
KUIPER-00606            
1 69289U 26118Y   26281.88119877  .00000684  00000+0  11869-3 0  9995
2 69289  51.9015 252.9158 0000671  58.1994 301.9033 14.79930804 21062
KUIPER-00607            
1 69290U 26118Z   26281.19980424  .00000747  00000+0  12705-3 0  9995
2 69290  51.8996 245.9332 0001973  54.8192 305.2955 14.79934058 21106
KUIPER-00608            
1 69291U 26118AA  26281.88926855  .00002676  00000+0  37994-3 0  9990
2 69291  51.9000 245.2431 0000852  72.4351 287.6705 14.79932613 21173
KUIPER-00610            
1 69292U 26118AB  26281.91765374  .00000426  00000+0  84860-4 0  9998
2 69292  51.9015 250.2541 0000660  60.1122 299.9906 14.79936385 21107
KUIPER-00613            
1 69293U 26118AC  26281.90687819  .00009564  00000+0  12827-2 0  9999
2 69293  51.9036 260.3025 0001408  44.5278 315.5797 14.79901988 20966
KUIPER-00618            
1 69294U 26118AD  26281.88657638  .00002686  00000+0  38121-3 0  9997
2 69294  51.9021 247.8997 0000951 314.2422  45.8462 14.79938722 21137
KUIPER-00620            
1 69295U 26118AE  26281.22547454  .00002486  00000+0  35499-3 0  9993
2 69295  51.9026 253.3285 0000841  48.1961 311.9073 14.79939218 21006
KUIPER-00423            
1 69592U 26140A   26281.23823328  .00002204  00000+0  31813-3 0  9990
2 69592  51.9002 225.7535 0000894  79.1960 280.9103 14.79925922 18431
KUIPER-00428            
1 69593U 26140B   26281.91668981 -.00585449  00000+0 -21777-1 0  9993
2 69593  51.8830 209.2052 0006262 344.9684  25.0727 15.29119277  3238
KUIPER-00481            
1 69594U 26140C   26281.82373253  .00002935  00000+0  41371-3 0  9995
2 69594  51.9015 228.1750 0001783  47.1491 312.9621 14.79950177 18458
KUIPER-00490            
1 69595U 26140D   26281.12616410  .00002124  00000+0  30748-3 0  9990
2 69595  51.9024 236.2108 0000974  66.2046 293.9018 14.79936399 18284
KUIPER-00493            
1 69596U 26140E   26281.89736769  .00000137  00000+0  46971-4 0  9993
2 69596  51.9011 237.8518 0001807  22.0357 338.0683 14.79933305 18322
KUIPER-00496            
1 69597U 26140F   26281.85581237  .00002965  00000+0  41768-3 0  9997
2 69597  51.9018 221.7834 0001030  84.4746 275.6334 14.79942257 18544
KUIPER-00513            
1 69598U 26140G   26281.83523897  .00000588  00000+0  10615-3 0  9990
2 69598  51.8984 233.1144 0000847  62.7617 297.3432 14.79933540 18385
KUIPER-00516            
1 69599U 26140H   26281.84386378  .00001703  00000+0  27244-3 0  9999
2 69599  51.8970 217.6593 0001502 196.1006 163.9908 14.76547868 18601
KUIPER-00517            
1 69600U 26140J   26281.91668981 -.00042082  00000+0 -42951-2 0  9991
2 69600  51.8973 213.0076 0009181 235.2746 129.3933 14.90209738  5753
KUIPER-00520            
1 69601U 26140K   26281.18080034  .00001738  00000+0  27686-3 0  9998
2 69601  51.9002 238.4011 0000792 335.4302  24.6621 14.76627467 18255
KUIPER-00522            
1 69602U 26140L   26281.82913715  .00000594  00000+0  10693-3 0  9990
2 69602  51.9036 223.1500 0001367  91.0346 269.0773 14.79932474 18522
KUIPER-00528            
1 69603U 26140M   26281.88318127  .00000893  00000+0  14612-3 0  9990
2 69603  51.9018 235.4257 0000823  62.6385 297.4661 14.79928468 18351
KUIPER-00532            
1 69604U 26140N   26281.03836152  .00002203  00000+0  31786-3 0  9999
2 69604  51.9036 224.1531 0000769  82.4508 277.6542 14.79935710 18444
KUIPER-00533            
1 69605U 26140P   26281.26392850 -.00000827  00000+0 -79517-4 0  9994
2 69605  51.9006 233.1529 0000995  56.7621 303.3436 14.79930962 18331
KUIPER-00534            
1 69606U 26140Q   26281.09601064  .00011232  00000+0  41001-3 0  9992
2 69606  51.8813 214.9732 0011946 196.8208 163.2381 15.28545957 18574
KUIPER-00537            
1 69607U 26140R   26281.18829299  .00002539  00000+0  36188-3 0  9995
2 69607  51.8998 240.8991 0001510  42.1009 318.0069 14.79943302 18228
KUIPER-00538            
1 69608U 26140S   26281.90006101  .00000731  00000+0  12492-3 0  9999
2 69608  51.9013 235.2795 0001164  55.2701 304.8371 14.79933566 18362
KUIPER-00540            
1 69609U 26140T   26281.09136893  .00012046  00000+0  32033-3 0  9997
2 69609  51.8813 212.7572 0004767 341.7109  18.3706 15.38642118 18602
KUIPER-00541            
1 69610U 26140U   26281.91668981 -.00020534  00000+0 -28910-2 0  9999
2 69610  51.8984 215.1373 0002774  82.8743 137.3644 14.76622172  4867
KUIPER-00542            
1 69611U 26140V   26281.91668981 -.00049193  00000+0 -53544-2 0  9993
2 69611  51.8973 212.9541 0009321 212.4394  18.1409 14.87697031  4689
KUIPER-00543            
1 69612U 26140W   26281.13965608  .00000076  00000+0  38947-4 0  9991
2 69612  51.9022 223.6998 0000586  91.6707 268.4323 14.79933717 18450
KUIPER-00544            
1 69613U 26140X   26281.91668981 -.00063751  00000+0 -82035-2 0  9998
2 69613  51.9007 215.2755 0002804 190.3082 140.4250 14.80983223  4968
KUIPER-00546            
1 69614U 26140Y   26281.81220543 -.00000327  00000+0 -13884-4 0  9994
2 69614  51.8996 223.2231 0000537  77.6063 282.4960 14.79918532 18521
KUIPER-00547            
1 69615U 26140Z   26281.91668981 -.00093577  00000+0 -82655-2 0  9997
2 69615  51.8953 210.9232 0012278 219.3783 319.6878 14.96296842  5358
KUIPER-00549            
1 69616U 26140AA  26281.78388974  .00002613  00000+0  37163-3 0  9998
2 69616  51.9010 218.3573 0000897  99.7218 260.3845 14.79934878 18585
KUIPER-00550            
1 69617U 26140AB  26281.82203994  .00000209  00000+0  56495-4 0  9991
2 69617  51.8999 221.8817 0001143  51.3628 308.7436 14.79932866 18549
KUIPER-00551            
1 69618U 26140AC  26281.91668981 -.02236751  00000+0 -13018+0 0  9999
2 69618  51.8836 209.0375 0013205 210.0352 195.2884 15.14950153  3995
KUIPER-00554            
1 69619U 26140AD  26281.91668981 -.01590857  00000+0 -10505+0 0  9997
2 69619  51.8915 209.6805 0009137 226.9093 223.8978 15.10482545  5271
KUIPER-00555            
1 69620U 26140AE  26281.91668981 -.02368672  00000+0 -13431+0 0  9999
2 69620  51.8852 209.2733 0010685 216.5594 169.8290 15.16108896  1306
KUIPER-00556            
1 69621U 26140AF  26281.16803037 -.00000374  00000+0 -20072-4 0  9994
2 69621  51.8958 228.5622 0000691 104.5811 255.5228 14.79930297 18396
KUIPER-00557            
1 69622U 26140AG  26281.91668981 -.00294264  00000+0 -25068-1 0  9995
2 69622  51.9111 210.9686 0009282 235.9549  50.3265 14.98885310  4973
KUIPER-00560            
1 69623U 26140AH  26281.81751806  .00024882  00000+0  68212-3 0  9999
2 69623  51.8781 209.3351 0007476 256.1799 103.8356 15.37119795 18715
KUIPER-00561            
1 69624U 26140AJ  26281.83792692 -.00000379  00000+0 -20698-4 0  9994
2 69624  51.8984 230.5808 0001053  78.1530 281.9550 14.79932344 18424
KUIPER-00564            
1 69625U 26140AK  26281.80686131  .00001590  00000+0  23748-3 0  9994
2 69625  51.8963 228.2216 0000704  91.0119 269.0924 14.79936599 18459
KUIPER-00567            
1 69626U 26140AL  26281.87708273  .00000780  00000+0  13129-3 0  9996
2 69626  51.8973 225.4287 0000368 176.8376 183.2589 14.79932480 18494
KUIPER-00573            
1 69627U 26140AM  26281.84063471  .00001019  00000+0  16261-3 0  9994
2 69627  51.8972 228.1054 0001003  54.3515 305.7540 14.79933012 18454
KUIPER-00258            
1 69763U 26151A   26281.73501443  .00003396  00000+0  47447-3 0  9991
2 69763  51.8972 138.5484 0000641  89.2679 270.8357 14.79914545 15018
KUIPER-00526            
1 69764U 26151B   26281.02676170  .00000006  00000+0  29786-4 0  9996
2 69764  51.8985 156.7592 0001149  92.5758 267.5336 14.79929428 14693
KUIPER-00558            
1 69765U 26151C   26281.66827222  .00002104  00000+0  30494-3 0  9991
2 69765  51.8970 153.8426 0000821 104.6772 255.4281 14.79934040 14791
KUIPER-00569            
1 69766U 26151D   26281.35021653  .00000064  00000+0  37425-4 0  9997
2 69766  51.9020 152.7477 0000977 104.0390 256.0682 14.79932067 14783
KUIPER-00589            
1 69767U 26151E   26281.02983512  .00001137  00000+0  19210-3 0  9996
2 69767  51.9002 157.6500 0003294 108.9984 251.1334 14.76554068 14689
KUIPER-00598            
1 69768U 26151F   26281.03484419  .00000360  00000+0  76175-4 0  9991
2 69768  51.9016 149.1508 0000846 121.8526 238.2519 14.79929008 14803
KUIPER-00604            
1 69769U 26151G   26281.35291119 -.00000611  00000+0 -51077-4 0  9995
2 69769  51.9014 150.2535 0000851 100.0922 260.0137 14.79931675 14813
KUIPER-00609            
1 69770U 26151H   26281.32184605  .00001823  00000+0  26808-3 0  9992
2 69770  51.8999 147.8854 0001381  74.4392 285.6722 14.79937015 14846
KUIPER-00611            
1 69771U 26151J   26280.98150160 -.00000746  00000+0 -68810-4 0  9998
2 69771  51.8977 151.8714 0001236  99.1691 260.9411 14.79928244 14764
KUIPER-00612            
1 69772U 26151K   26281.02944676  .00002070  00000+0  30050-3 0  9992
2 69772  51.9003 154.1860 0001108 129.6298 230.4762 14.79935482 14734
KUIPER-00614            
1 69773U 26151L   26280.89708608  .00001768  00000+0  26085-3 0  9996
2 69773  51.8972 152.3138 0000988 100.1707 259.9367 14.79930394 14746
KUIPER-00615            
1 69774U 26151M   26280.09817727  .00006407  00000+0  86783-3 0  9998
2 69774  51.9006 160.7349 0000939  76.9092 283.1975 14.79971058 14562
KUIPER-00616            
1 69775U 26151N   26281.02603731  .00001786  00000+0  26331-3 0  9999
2 69775  51.8993 141.7010 0001049 109.2485 250.8591 14.79930269 14902
KUIPER-00617            
1 69776U 26151P   26281.35830601  .00001840  00000+0  27024-3 0  9995
2 69776  51.8992 145.2283 0000738 100.3010 259.8036 14.79936176 14886
KUIPER-00619            
1 69777U 26151Q   26281.91668981 -.00008129  00000+0 -10389-2 0  9992
2 69777  51.9002 145.3146 0000914  86.2058 115.1246 14.79923576  5066
KUIPER-00621            
1 69778U 26151R   26281.33603442  .00000018  00000+0  31325-4 0  9992
2 69778  51.8997 150.3218 0000785 103.8087 256.2963 14.79930610 14812
KUIPER-00622            
1 69779U 26151S   26281.35746072  .00001138  00000+0  19230-3 0  9996
2 69779  51.9002 154.6194 0001804 106.5487 253.5672 14.76522687 14756
KUIPER-00623            
1 69780U 26151T   26281.33333659  .00000900  00000+0  14707-3 0  9999
2 69780  51.8973 152.8411 0001151 122.5538 237.5536 14.79934119 14779
KUIPER-00626            
1 69781U 26151U   26281.35560383  .00001787  00000+0  26336-3 0  9993
2 69781  51.8971 147.7117 0000891 110.2357 249.8702 14.79935924 14852
KUIPER-00627            
1 69782U 26151V   26280.92206412 -.00000034  00000+0  24520-4 0  9995
2 69782  51.9004 144.6609 0001101 119.1503 240.9570 14.79931982 14854
KUIPER-00629            
1 69783U 26151W   26280.93963221 -.00000091  00000+0  17110-4 0  9995
2 69783  51.9004 159.5176 0001069 108.8491 251.2587 14.79931761 14659
KUIPER-00631            
1 69784U 26151X   26281.36170736  .00000240  00000+0  60458-4 0  9993
2 69784  51.9013 157.7099 0001013 101.4571 258.6505 14.79931478 14714
KUIPER-00634            
1 69785U 26151Y   26281.04632878  .00001931  00000+0  28218-3 0  9994
2 69785  51.8991 154.1084 0000928 105.7860 254.3205 14.79940614 14730
KUIPER-00639            
1 69786U 26151Z   26281.36097529  .00003170  00000+0  44457-3 0  9998
2 69786  51.9030 142.6981 0001710  86.7329 273.3829 14.79936093 14922
KUIPER-00641            
1 69787U 26151AA  26281.34142322  .00000438  00000+0  86444-4 0  9996
2 69787  51.8998 145.3089 0001713 154.3619 205.7429 14.79932506 14886
KUIPER-00644            
1 69788U 26151AB  26281.50149401  .00009083  00000+0  12184-2 0  9993
2 69788  51.8976 137.0990 0001451  93.4579 266.6550 14.79947084 15002
KUIPER-00646            
1 69789U 26151AC  26281.57779498  .00000364  00000+0  76771-4 0  9993
2 69789  51.8984 144.3419 0000854  87.2227 272.8834 14.79931650 14911
KUIPER-00647            
1 69790U 26151AD  26281.91668981  .00057502  00000+0  75623-2 0  9996
2 69790  51.8983 142.7049 0001202 177.1117 100.3750 14.79625982  5402
KUIPER-00662            
1 69791U 26151AE  26280.85522684 -.00000436  00000+0 -28134-4 0  9991
2 69791  51.9011 159.9481 0000977 104.2672 255.8399 14.79927506 14638
