KUIPER-00008            
1 63724U 25088A   26280.23947152  .00000345  00000+0  74267-4 0  9997
2 63724  51.9022 232.5347 0000786  65.8275 294.2770 14.79933916 79372
KUIPER-00009            
1 63725U 25088B   26280.29527875  .00004886  00000+0  33028-3 0  9993
2 63725  51.9017 236.2805 0001311  38.1691 321.9376 15.08199255 79325
KUIPER-00010            
1 63726U 25088C   26280.21111283  .00001062  00000+0  16835-3 0  9998
2 63726  51.9019 227.7735 0000906  65.1700 294.9357 14.79932785 79053
KUIPER-00011            
1 63727U 25088D   26280.16926068  .00001028  00000+0  16381-3 0  9996
2 63727  51.9009 235.4985 0000907  59.8002 300.3050 14.79940050 79070
KUIPER-00012            
1 63728U 25088E   26280.21920047  .00000999  00000+0  15999-3 0  9994
2 63728  51.9017 220.2197 0001007  78.5392 281.5683 14.79939144 79242
KUIPER-00013            
1 63729U 25088F   26280.28544658  .00000778  00000+0  13103-3 0  9992
2 63729  51.9018 252.4467 0000677  81.0444 279.0595 14.79932644 78904
KUIPER-00014            
1 63730U 25088G   26280.92696382  .00000879  00000+0  14433-3 0  9996
2 63730  51.9019 249.5541 0000859  51.8472 308.2568 14.79936416 78811
KUIPER-00015            
1 63731U 25088H   26280.20713579 -.00000480  00000+0 -33916-4 0  9994
2 63731  51.8996 262.7785 0000854  47.6307 312.4728 14.79927892 79024
KUIPER-00016            
1 63732U 25088J   26280.31650962  .00000529  00000+0  98349-4 0  9996
2 63732  51.8988 254.7563 0000824  50.9291 309.1745 14.79931846 78684
KUIPER-00018            
1 63733U 25088K   26280.29353386  .00000904  00000+0  14752-3 0  9996
2 63733  51.9029 244.9102 0000802  56.3531 303.7508 14.79936344 78826
KUIPER-00019            
1 63734U 25088L   26280.25263687 -.00000351  00000+0 -17021-4 0  9998
2 63734  51.9014 243.8306 0000947  48.1805 311.9238 14.79918894 78830
KUIPER-00020            
1 63735U 25088M   26280.29083901 -.00000195  00000+0  33715-5 0  9996
2 63735  51.9018 247.4137 0000904  62.4539 297.6516 14.79934610 78993
KUIPER-00021            
1 63736U 25088N   26280.32459460  .00000761  00000+0  12876-3 0  9999
2 63736  51.9004 247.2116 0000676  63.0093 297.0938 14.79931244 78837
KUIPER-00023            
1 63737U 25088P   26280.35565877  .00000886  00000+0  14526-3 0  9995
2 63737  51.9012 249.5650 0000806  58.6021 301.5020 14.79931151 79102
KUIPER-00024            
1 63738U 25088Q   26280.30163037  .00000036  00000+0  33725-4 0  9993
2 63738  51.9037 237.4228 0000920  66.1855 293.9204 14.79933478 79396
KUIPER-00025            
1 63739U 25088R   26280.25977300 -.00000131  00000+0  11849-4 0  9994
2 63739  51.9033 245.0892 0000827  59.6355 300.4689 14.79933569 79148
KUIPER-00027            
1 63740U 25088S   26280.29893581  .00000017  00000+0  31280-4 0  9991
2 63740  51.9015 239.8704 0000790  74.7914 285.3136 14.79930495 78952
KUIPER-00028            
1 63741U 25088T   26280.80809119  .00000068  00000+0  37936-4 0  9993
2 63741  51.8996 235.0563 0000893  47.5522 312.5516 14.79930846 79471
KUIPER-00029            
1 63742U 25088U   26280.24386590  .00001247  00000+0  19259-3 0  9992
2 63742  51.9027 236.2530 0000995  41.8803 318.2236 14.79934479 78935
KUIPER-00030            
1 63743U 25088V   26280.95804117  .00000616  00000+0  10976-3 0  9997
2 63743  51.9018 251.9149 0000831  49.2012 310.9022 14.79933548 79062
KUIPER-00031            
1 63744U 25088W   26280.33265619  .00004196  00000+0  57863-3 0  9991
2 63744  51.9014 239.7019 0000986  47.1777 312.9268 14.79964631 78896
KUIPER-00032            
1 63745U 25088X   26280.76219273  .00011248  00000+0  25988-3 0  9993
2 63745  51.8657  74.0339 0004576 153.6809 206.4413 15.43006186 82238
KUIPER-00033            
1 63746U 25088Y   26280.16527515  .00002144  00000+0  31018-3 0  9995
2 63746  51.9008 270.4422 0000730  35.2991 324.8020 14.79931446 78935
KUIPER-00034            
1 63747U 25088Z   26280.27324920  .00000902  00000+0  14733-3 0  9998
2 63747  51.9016 232.5019 0000830  69.7804 290.3248 14.79937045 79157
KUIPER-00035            
1 63748U 25088AA  26280.31381391  .00001107  00000+0  17414-3 0  9996
2 63748  51.9002 257.2842 0000749  52.9251 307.1780 14.79935749 78864
KUIPER-00037            
1 63749U 25088AB  26280.30673644  .00000959  00000+0  15472-3 0  9997
2 63749  51.9012 256.1777 0000739  53.4497 306.6533 14.79932577 79663
KUIPER-00038            
1 63750U 25088AC  26280.29623355  .00001022  00000+0  16299-3 0  9991
2 63750  51.9017 242.3998 0000802  80.0152 280.0901 14.79936583 78852
KUIPER-00039            
1 64500U 25134A   26280.47137985  .00000484  00000+0  92456-4 0  9997
2 64500  51.9022  16.6215 0000290 100.5325 259.5670 14.79938190 71434
KUIPER-00040            
1 64501U 25134B   26280.49437015  .00002372  00000+0  33997-3 0  9999
2 64501  51.8995  26.5727 0000432 140.9666 219.1328 14.79937694 71299
KUIPER-00041            
1 64502U 25134C   26280.52542702  .00000001  00000+0  29122-4 0  9997
2 64502  51.8996  28.8281 0000298 122.8569 237.2422 14.79931597 71261
KUIPER-00042            
1 64503U 25134D   26280.49705018  .00002496  00000+0  35617-3 0  9990
2 64503  51.9004  23.9316 0000275 104.3337 255.7656 14.79939952 71336
KUIPER-00043            
1 64504U 25134E   26280.57267792 -.00000011  00000+0  27538-4 0  9998
2 64504  51.9023  16.1165 0000251 110.3826 249.7164 14.79930017 71451
KUIPER-00044            
1 64505U 25134F   26280.49165578  .00000406  00000+0  82211-4 0  9995
2 64505  51.8997  28.9597 0000320 129.4299 230.6692 14.79935666 71262
KUIPER-00046            
1 64506U 25134G   26280.59565104  .00002503  00000+0  35722-3 0  9990
2 64506  51.9002  25.9689 0000455 121.1694 238.9313 14.79929553 71312
KUIPER-00047            
1 64507U 25134H   26280.52400936  .00002166  00000+0  31302-3 0  9990
2 64507  51.9007 358.8177 0000173  68.8449 291.2532 14.79938127 71682
KUIPER-00048            
1 64508U 25134J   26280.55778710  .00000371  00000+0  77608-4 0  9998
2 64508  51.8994 358.6796 0000220  73.6739 286.4248 14.79931357 71690
KUIPER-00049            
1 64509U 25134K   26280.78064477  .00002257  00000+0  32487-3 0  9992
2 64509  51.9019  10.1692 0000318  89.6569 270.4429 14.79938593 71559
KUIPER-00050            
1 64510U 25134L   26280.59692069  .00002205  00000+0  31814-3 0  9993
2 64510  51.9022 353.5019 0000232  32.0402 328.0575 14.79933346 71772
KUIPER-00051            
1 64511U 25134M   26280.62160652  .00000129  00000+0  45921-4 0  9994
2 64511  51.9019   9.5708 0000225 105.0428 255.0559 14.79930902 71544
KUIPER-00053            
1 64513U 25134P   26280.54064829  .00001456  00000+0  21146-3 0  9992
2 64513  51.9021   4.1239 0001877 185.8492 174.2450 14.81673640 71616
KUIPER-00054            
1 64514U 25134Q   26280.42002486 -.00000810  00000+0 -77314-4 0  9995
2 64514  51.8989   1.7626 0000281 104.6596 255.4398 14.79930835 71638
KUIPER-00055            
1 64515U 25134R   26280.30243612  .00005335  00000+0  72800-3 0  9990
2 64515  51.9024 314.9419 0001769 109.1677 250.9477 14.79946290 72283
KUIPER-00056            
1 64516U 25134S   26280.71853245 -.00001424  00000+0 -15781-3 0  9997
2 64516  51.9036   5.5650 0000196  84.7474 275.3511 14.79927981 71615
KUIPER-00057            
1 64517U 25134T   26280.50782808  .00002403  00000+0  34402-3 0  9998
2 64517  51.9011  13.9072 0000293  88.0953 272.0043 14.79935566 71473
KUIPER-00058            
1 64518U 25134U   26280.61452785 -.00000262  00000+0 -54211-5 0  9994
2 64518  51.9014   8.4168 0000257  93.2485 266.8507 14.79929754 71568
KUIPER-00059            
1 64519U 25134V   26280.41731575 -.00001676  00000+0 -19085-3 0  9998
2 64519  51.9011   4.3224 0000358  39.4799 320.6190 14.79937403 71608
KUIPER-00060            
1 64520U 25134W   26280.45110710  .00002200  00000+0  31738-3 0  9997
2 64520  51.9038   4.2576 0000275  82.3888 277.7106 14.79940278 71593
KUIPER-00061            
1 64521U 25134X   26280.61183258  .00000557  00000+0  10206-3 0  9993
2 64521  51.9013  10.9833 0000221 117.0310 243.0675 14.79935818 71517
KUIPER-00062            
1 64522U 25134Y   26280.47406561  .00000295  00000+0  67628-4 0  9993
2 64522  51.8971  14.0297 0000291  93.5327 266.5668 14.79934144 71470
KUIPER-00063            
1 64523U 25134Z   26280.53352245  .00000037  00000+0  33841-4 0  9994
2 64523  51.9031  21.3754 0000421  86.2497 273.8513 14.79935060 71377
KUIPER-00064            
1 64524U 25134AA  26280.46868189  .00002292  00000+0  32956-3 0  9996
2 64524  51.9040  19.0899 0000423 137.5287 222.5708 14.79936907 71403
KUIPER-00065            
1 64525U 25134AB  26280.59837561 -.00000067  00000+0  20240-4 0  9994
2 64525  51.9049  23.6933 0000372 101.2812 258.8193 14.79930892 71337
KUIPER-00066            
1 64526U 25134AC  26280.49693373 -.00000159  00000+0  81222-5 0  9995
2 64526  51.9023 321.4072 0000376  57.7598 302.3401 14.79931578 72210
KUIPER-00069            
1 64816U 25151A   26280.82533208 -.00000485  00000+0 -34633-4 0  9999
2 64816  51.9005  62.5902 0000553 124.9949 235.1065 14.79929950 68171
KUIPER-00070            
1 64817U 25151B   26280.76459080 -.00000040  00000+0  23723-4 0  9992
2 64817  51.8989  87.7540 0001091 130.7284 229.3773 14.79934598 67820
KUIPER-00071            
1 64818U 25151C   26280.76729064  .00000037  00000+0  33899-4 0  9995
2 64818  51.9000  85.2898 0000768 133.7516 226.3510 14.79933103 66675
KUIPER-00072            
1 64819U 25151D   26280.41744103 -.00000475  00000+0 -33353-4 0  9992
2 64819  51.8976  66.7552 0000763 111.1521 248.9524 14.79928888 66904
KUIPER-00073            
1 64820U 25151E   26280.66599605  .00000226  00000+0  58660-4 0  9996
2 64820  51.8992  85.7158 0001092 115.5968 244.5108 14.79931722 67841
KUIPER-00075            
1 64822U 25151G   26280.38526719  .00018470  00000+0  48155-3 0  9990
2 64822  51.8641 270.1342 0002837 318.1670  41.9100 15.38884294 69073
KUIPER-00076            
1 64823U 25151H   26280.74430987  .00002254  00000+0  32456-3 0  9992
2 64823  51.9001  75.3946 0000617 119.6002 240.5021 14.79940111 66810
KUIPER-00077            
1 64824U 25151J   26280.73890450  .00001805  00000+0  26570-3 0  9998
2 64824  51.9008  80.4419 0001007 127.8049 232.3004 14.79947535 66745
KUIPER-00078            
1 64825U 25151K   26280.64031991  .00000088  00000+0  40512-4 0  9991
2 64825  51.8989  78.3467 0000936 127.4947 232.6101 14.79930952 66763
KUIPER-00079            
1 64826U 25151L   26280.66869413  .00000105  00000+0  42767-4 0  9996
2 64826  51.8987  83.1752 0001131 120.6431 239.4643 14.79930574 67895
KUIPER-00080            
1 64827U 25151M   26280.70245449  .00000015  00000+0  31041-4 0  9992
2 64827  51.8999  83.0378 0000723 117.8862 242.2173 14.79930873 66705
KUIPER-00082            
1 64828U 25151N   26280.61465412 -.00000168  00000+0  69497-5 0  9994
2 64828  51.9011  70.9921 0000794 126.6525 233.4511 14.79931196 66867
KUIPER-00083            
1 64829U 25151P   26280.74161867  .00002087  00000+0  30258-3 0  9998
2 64829  51.9004  77.9113 0000978 133.0666 227.0378 14.79941168 67964
KUIPER-00084            
1 64830U 25151Q   26280.66329991 -.00001333  00000+0 -14593-3 0  9994
2 64830  51.8996  88.2439 0000784 119.9433 240.1608 14.79928138 66627
KUIPER-00085            
1 64831U 25151R   26280.64842972  .00002052  00000+0  29802-3 0  9998
2 64831  51.9025  70.9032 0000675 132.4932 227.6087 14.79935739 66864
KUIPER-00086            
1 64832U 25151S   26280.63763275  .00000146  00000+0  48121-4 0  9994
2 64832  51.9007  80.8810 0000832 127.8390 232.2648 14.79931390 66729
KUIPER-00087            
1 64833U 25151T   26280.65648148  .00002044  00000+0  29697-3 0  9993
2 64833  51.8996  63.2489 0000500 122.8469 237.2542 14.79949337 66961
KUIPER-00089            
1 64834U 25151U   26280.78617083  .00001972  00000+0  28761-3 0  9992
2 64834  51.9002  67.7038 0000612 127.5300 232.5719 14.79931010 66929
KUIPER-00090            
1 64835U 25151V   26280.59166906  .00001914  00000+0  27997-3 0  9991
2 64835  51.8983  61.0543 0000630 132.9022 227.1993 14.79938365 66997
KUIPER-00091            
1 64836U 25151W   26280.65380822  .00002010  00000+0  29256-3 0  9992
2 64836  51.9012  65.8126 0000804 134.6749 225.4279 14.79939495 66936
KUIPER-00092            
1 64837U 25151X   26280.64567408  .00002342  00000+0  33614-3 0  9990
2 64837  51.8997  73.3345 0000592 152.2284 207.8710 14.79933649 68042
KUIPER-00093            
1 64838U 25151Y   26280.64301460  .00000006  00000+0  29838-4 0  9994
2 64838  51.8992  75.8156 0000770 126.5584 233.5449 14.79932496 66794
KUIPER-00094            
1 64839U 25151Z   26280.55651047  .00002325  00000+0  33385-3 0  9991
2 64839  51.9049  31.3215 0000510 137.6160 222.4842 14.79935049 67418
KUIPER-00081            
1 65132U 25171A   26280.22541289  .00001990  00000+0  28992-3 0  9995
2 65132  51.9011 292.6629 0000508  44.0031 316.0972 14.79931391 64361
KUIPER-00088            
1 65133U 25171B   26280.61170835 -.00000945  00000+0 -94945-4 0  9997
2 65133  51.9018 308.4536 0000557  70.0767 290.0256 14.79930374 64176
KUIPER-00095            
1 65134U 25171C   26280.22810546 -.00001030  00000+0 -10614-3 0  9991
2 65134  51.8980 290.1828 0000529  64.6189 295.4829 14.79927434 64393
KUIPER-00096            
1 65135U 25171D   26280.31591619  .00001833  00000+0  26940-3 0  9997
2 65135  51.8993 302.2547 0000476  37.4717 322.6278 14.79939443 64234
KUIPER-00097            
1 65136U 25171E   26280.31324633  .00001882  00000+0  27583-3 0  9996
2 65136  51.9018 304.9403 0000454  57.7799 302.3208 14.79934975 64182
KUIPER-00098            
1 65137U 25171F   26280.31053090  .00000219  00000+0  57683-4 0  9991
2 65137  51.9013 307.3089 0000552  65.6954 294.4066 14.79932145 63500
KUIPER-00099            
1 65138U 25171G   26280.42261669  .00001864  00000+0  27345-3 0  9995
2 65138  51.9015 296.8312 0000483  35.0877 325.0117 14.79935844 64319
KUIPER-00100            
1 65139U 25171H   26280.25647861  .00000452  00000+0  88265-4 0  9990
2 65139  51.9026 295.0310 0000550  50.1829 309.9182 14.79933402 64323
KUIPER-00102            
1 65140U 25171J   26280.25378098  .00001906  00000+0  27890-3 0  9996
2 65140  51.8982 297.5042 0000472  28.8405 331.2584 14.79930673 64285
KUIPER-00103            
1 65141U 25171K   26280.47126000 -.00000482  00000+0 -34250-4 0  9994
2 65141  51.8989 314.0458 0000360  28.7875 331.3107 14.79933695 64071
KUIPER-00104            
1 65142U 25171L   26280.28215720  .00001960  00000+0  28606-3 0  9999
2 65142  51.9020 302.4074 0000455  43.1718 316.9280 14.79933378 64222
KUIPER-00105            
1 65143U 25171M   26280.37537574  .00000228  00000+0  58890-4 0  9999
2 65143  51.9023 309.5855 0000462  44.0335 316.0664 14.79931874 64130
KUIPER-00106            
1 65144U 25171N   26280.22102487  .00000974  00000+0  15674-3 0  9995
2 65144  51.8993 289.0352 0000439  69.4733 290.6277 14.79934471 64411
KUIPER-00107            
1 65145U 25171P   26280.32671089  .00000358  00000+0  75935-4 0  9999
2 65145  51.9009 292.2427 0000551  52.5586 307.5426 14.79932229 64372
KUIPER-00108            
1 65146U 25171Q   26280.27946717  .00002064  00000+0  29959-3 0  9997
2 65146  51.9032 305.0018 0000467  35.4974 324.6020 14.79941659 64192
KUIPER-00109            
1 65147U 25171R   26280.45367732  .00001896  00000+0  27756-3 0  9997
2 65147  51.9021 299.1727 0000471  42.1505 317.9494 14.79941064 64281
KUIPER-00110            
1 65148U 25171S   26280.47396637 -.00000519  00000+0 -39090-4 0  9994
2 65148  51.9007 311.6248 0000419  37.3678 322.7313 14.79931368 64104
KUIPER-00111            
1 65149U 25171T   26280.29972878 -.00000562  00000+0 -44732-4 0  9999
2 65149  51.8979 317.2508 0000504  30.8769 329.2223 14.79926820 64016
KUIPER-00112            
1 65150U 25171U   26280.35239357  .00001964  00000+0  28657-3 0  9998
2 65150  51.9009 299.6629 0000430  39.5144 320.5850 14.79936480 64261
KUIPER-00114            
1 65151U 25171V   26280.29704673  .00002002  00000+0  29148-3 0  9990
2 65151  51.9008 319.8634 0000402  35.5270 324.5719 14.79935998 63975
KUIPER-00115            
1 65152U 25171W   26280.30513829  .00002014  00000+0  29306-3 0  9993
2 65152  51.9010 312.3384 0000430  41.6003 318.4992 14.79941483 64086
KUIPER-00116            
1 65153U 25171X   26280.40104648 -.00000487  00000+0 -34869-4 0  9995
2 65153  51.9003 316.9445 0000359  55.5417 304.5579 14.79930963 64022
KUIPER-00118            
1 65154U 25171Y   26280.53339674  .00001848  00000+0  27128-3 0  9998
2 65154  51.9004 318.8066 0000401  57.6105 302.4897 14.79931987 64015
KUIPER-00119            
1 65155U 25171Z   26280.27677984 -.00000616  00000+0 -51821-4 0  9991
2 65155  51.9020 307.5471 0000442  54.7768 305.3236 14.79930277 64141
KUIPER-00120            
1 65762U 25217A   26280.98629677 -.00000085  00000+0  17895-4 0  9992
2 65762  51.8989 194.2692 0001087  81.7798 278.3287 14.79932109 56178
KUIPER-00132            
1 65763U 25217B   26280.84863152  .00026139  00000+0  65631-3 0  9993
2 65763  51.8532  51.2270 0006062 358.9481   1.1493 15.39804397 58147
KUIPER-00133            
1 65764U 25217C   26281.15513716 -.00000407  00000+0 -24396-4 0  9993
2 65764  51.9025 193.6701 0000995  84.3471 275.7605 14.79929287 56202
KUIPER-00139            
1 65765U 25217D   26281.05511624  .00001985  00000+0  28923-3 0  9998
2 65765  51.8974 161.5275 0001303  93.0804 267.0308 14.79941763 56641
KUIPER-00142            
1 65766U 25217E   26280.93764367  .00000506  00000+0  95411-4 0  9994
2 65766  51.8976 177.0168 0001186  86.4720 273.6378 14.79934124 56417
KUIPER-00145            
1 65767U 25217F   26280.93494977 -.00000674  00000+0 -59438-4 0  9999
2 65767  51.9006 179.5521 0001244  82.4439 277.6665 14.79931870 56374
KUIPER-00147            
1 65768U 25217G   26281.10106090 -.00000815  00000+0 -77935-4 0  9995
2 65768  51.8979 181.2902 0001378  82.6125 277.4993 14.79925812 56368
KUIPER-00148            
1 65769U 25217H   26281.05242926  .00000430  00000+0  85455-4 0  9996
2 65769  51.9046 164.0677 0000995 103.8893 256.2180 14.79931530 56609
KUIPER-00150            
1 65770U 25217J   26281.15782558  .00000214  00000+0  57118-4 0  9994
2 65770  51.9007 191.0931 0001013  75.8809 284.2266 14.79930605 56235
KUIPER-00151            
1 65771U 25217K   26281.09838090  .00000680  00000+0  11823-3 0  9990
2 65771  51.9019 183.8548 0000900  95.7288 264.3777 14.79929978 56336
KUIPER-00152            
1 65772U 25217L   26281.07809999 -.00000376  00000+0 -20297-4 0  9995
2 65772  51.9008 171.4233 0001204  81.2587 278.8511 14.79929876 56501
KUIPER-00153            
1 65773U 25217M   26281.08349813  .00000056  00000+0  36331-4 0  9990
2 65773  51.9010 166.4897 0001120  98.8628 261.2461 14.79934769 56576
KUIPER-00155            
1 65774U 25217N   26280.91056971  .00000318  00000+0  70705-4 0  9996
2 65774  51.9020 139.7152 0000923 116.8636 243.2421 14.79933685 56937
KUIPER-00156            
1 65775U 25217P   26280.98220802  .00000075  00000+0  38835-4 0  9998
2 65775  51.9022 166.9219 0001135  95.9075 264.2016 14.79935138 56552
KUIPER-00165            
1 65778U 25217S   26281.10646714  .00000509  00000+0  95774-4 0  9997
2 65778  51.9003 176.2983 0000702 106.3995 253.7045 14.79928813 56437
KUIPER-00166            
1 65779U 25217T   26281.08620074  .00000528  00000+0  98306-4 0  9991
2 65779  51.9022 163.9553 0000965 100.3964 259.7107 14.79933278 56601
KUIPER-00167            
1 65780U 25217U   26280.96059725  .00002248  00000+0  32375-3 0  9992
2 65780  51.8958 186.8157 0001139  86.2453 273.8640 14.79938991 56272
KUIPER-00168            
1 65781U 25217V   26280.91196626 -.00000155  00000+0  87431-5 0  9991
2 65781  51.9003 169.6659 0000856  98.0901 262.0158 14.79932587 56511
KUIPER-00169            
1 65782U 25217W   26281.10917242 -.00000188  00000+0  44156-5 0  9992
2 65782  51.9001 173.8079 0000958  90.7161 269.3911 14.79927909 56477
KUIPER-00170            
1 65783U 25217X   26281.10374823  .00005009  00000+0  68515-3 0  9994
2 65783  51.8983 178.7692 0000990  92.0950 268.0126 14.79960054 56403
KUIPER-00172            
1 65785U 25217Z   26280.88627315  .00002394  00000+0  34279-3 0  9991
2 65785  51.8991 162.2648 0000624 116.7169 243.3857 14.79948551 56611
KUIPER-00173            
1 65786U 25217AA  26280.94034404 -.00000166  00000+0  72445-5 0  9995
2 65786  51.8990 174.5430 0001196  83.7198 276.3900 14.79931286 56449
KUIPER-00174            
1 65787U 25217AB  26281.08079223  .00002399  00000+0  34355-3 0  9995
2 65787  51.9021 168.9917 0000884 104.4762 255.6298 14.79935548 56539
KUIPER-00176            
1 65788U 25217AC  26280.92955681  .00000565  00000+0  10316-3 0  9993
2 65788  51.8985 184.5692 0001044  82.4057 277.7023 14.79933414 56309
KUIPER-00101            
1 65947U 25228A   26281.00915703  .00001297  00000+0  19909-3 0  9993
2 65947  51.8972 141.6597 0001185  90.5311 269.5787 14.79928713 54679
KUIPER-00113            
1 65948U 25228B   26280.98078791  .00000280  00000+0  65718-4 0  9998
2 65948  51.8979 136.8058 0001168 112.8629 247.2456 14.79930994 54733
KUIPER-00117            
1 65949U 25228C   26281.01185962  .00000180  00000+0  52687-4 0  9993
2 65949  51.8970 139.1692 0001223 101.0979 259.0121 14.79930486 54708
KUIPER-00121            
1 65950U 25228D   26280.84842094  .00001739  00000+0  25710-3 0  9998
2 65950  51.8980 134.9167 0000973 105.5250 254.5820 14.79931080 54755
KUIPER-00122            
1 65951U 25228E   26281.04022326  .00000261  00000+0  63236-4 0  9995
2 65951  51.8988 144.0351 0000776 107.2336 252.8711 14.79926414 54649
KUIPER-00123            
1 65952U 25228F   26281.00645640  .00001836  00000+0  26977-3 0  9991
2 65952  51.8980 144.1915 0001092 103.9677 256.1407 14.79935278 54638
KUIPER-00124            
1 65953U 25228G   26280.81195608  .00001771  00000+0  26127-3 0  9999
2 65953  51.8973 137.5427 0001225 102.3687 257.7413 14.79940345 54711
KUIPER-00125            
1 65954U 25228H   26280.76061845  .00001643  00000+0  24451-3 0  9995
2 65954  51.8988 122.8272 0001269 112.4787 247.6310 14.79938058 54918
KUIPER-00126            
1 65955U 25228J   26280.84033194  .00001835  00000+0  26961-3 0  9992
2 65955  51.8979 142.4521 0001000 105.5301 254.5772 14.79941655 54648
KUIPER-00127            
1 65956U 25228K   26280.76400747  .00000007  00000+0  29932-4 0  9998
2 65956  51.8996 135.2737 0001247 101.5334 258.5768 14.79933424 54747
KUIPER-00128            
1 65957U 25228L   26280.81466266  .00001678  00000+0  24907-3 0  9994
2 65957  51.8994 135.1159 0000975 109.4737 250.6330 14.79941843 54746
KUIPER-00129            
1 65958U 25228M   26280.78629666  .00000069  00000+0  38095-4 0  9993
2 65958  51.8990 130.2192 0001093 103.0790 257.0294 14.79930498 54819
KUIPER-00130            
1 65959U 25228N   26280.88489323  .00001828  00000+0  26867-3 0  9996
2 65959  51.9016 132.3343 0000922 110.0634 250.0428 14.79939114 45081
KUIPER-00134            
1 65960U 25228P   26280.61990861  .00016867  00000+0  45225-3 0  9991
2 65960  51.8713  11.7751 0004208 341.8591  18.2246 15.38085954 56440
KUIPER-00135            
1 65961U 25228Q   26280.78360862  .00001746  00000+0  25791-3 0  9998
2 65961  51.9014 132.8322 0000913 107.6365 252.4697 14.79938341 54778
KUIPER-00136            
1 65962U 25228R   26280.82005270  .00001750  00000+0  25847-3 0  9990
2 65962  51.8992 130.1142 0001248 102.1229 257.9873 14.79939805 54812
KUIPER-00137            
1 65963U 25228S   26281.02535380  .00000795  00000+0  13334-3 0  9990
2 65963  51.9023 126.7223 0001306 106.7040 253.4066 14.79929214 54881
KUIPER-00138            
1 65964U 25228T   26280.79168041  .00001644  00000+0  24456-3 0  9991
2 65964  51.8975 125.1435 0001102 107.7946 252.3136 14.79933830 54880
KUIPER-00140            
1 65965U 25228U   26280.99157770  .00001674  00000+0  24850-3 0  9992
2 65965  51.8980 126.8546 0001277 108.3535 251.7566 14.79941274 54872
KUIPER-00141            
1 65966U 25228V   26280.72686299  .00000444  00000+0  87251-4 0  9996
2 65966  51.9028 123.1073 0000939 114.1776 245.9285 14.79930562 54903
KUIPER-00146            
1 65967U 25228W   26280.96044380 -.00001028  00000+0 -10585-3 0  9998
2 65967  51.9007 124.5880 0001187 131.2107 228.8957 14.79928129 54908
KUIPER-00149            
1 65968U 25228X   26280.93214102  .00000192  00000+0  54261-4 0  9996
2 65968  51.9003 119.5825 0001120 113.9590 246.1489 14.79927852 54970
KUIPER-00154            
1 65969U 25228Y   26280.76601134  .00000515  00000+0  96519-4 0  9994
2 65969  51.8982 117.7992 0001120 104.1221 255.9866 14.79929558 54987
KUIPER-00157            
1 65970U 25228Z   26280.76584714  .00012939  00000+0  18963-2 0  9998
2 65970  51.9012 120.4865 0000900  91.3611 268.7452 14.75842986 54943
KUIPER-00144            
1 67133U 25301A   26281.15243347  .00000059  00000+0  36755-4 0  9992
2 67133  51.9007 196.1172 0001065  80.8767 279.2316 14.79933436 45333
KUIPER-00164            
1 67134U 25301B   26280.66623408 -.00000442  00000+0 -28969-4 0  9994
2 67134  51.9027 210.7911 0001009  66.1817 293.9251 14.79929902 45267
KUIPER-00175            
1 67135U 25301C   26280.98899440  .00000180  00000+0  52611-4 0  9999
2 67135  51.8986 191.7900 0001074  76.7830 283.3252 14.79931011 45450
KUIPER-00179            
1 67136U 25301D   26280.60139822  .00002326  00000+0  33401-3 0  9999
2 67136  51.8979 208.4992 0000959  73.5082 286.5986 14.79934472 45290
KUIPER-00181            
1 67137U 25301E   26280.99310176  .00002169  00000+0  31346-3 0  9996
2 67137  51.9018 219.3395 0001051  63.4069 296.7001 14.79938736 45154
KUIPER-00183            
1 67138U 25301F   26281.12675123  .00002143  00000+0  30993-3 0  9998
2 67138  51.9016 188.7538 0001073  83.0688 277.0396 14.79938650 45604
KUIPER-00184            
1 67139U 25301G   26281.18079186  .00002255  00000+0  32467-3 0  9994
2 67139  51.8990 200.9502 0000986  78.4852 281.6221 14.79939307 45547
KUIPER-00186            
1 67140U 25301H   26280.21648673  .00000028  00000+0  32709-4 0  9998
2 67140  51.9018 222.7824 0000819  77.8089 282.2966 14.79931099 44889
KUIPER-00187            
1 67141U 25301J   26280.28134141  .00002415  00000+0  34563-3 0  9997
2 67141  51.9023 225.0245 0000925  89.1453 270.9616 14.79936837 44856
KUIPER-00188            
1 67142U 25301K   26280.95794753  .00000242  00000+0  60752-4 0  9999
2 67142  51.9023 189.6173 0001105  84.8555 275.2533 14.79930374 45406
KUIPER-00191            
1 67143U 25301L   26280.93096841  .00002247  00000+0  32365-3 0  9996
2 67143  51.9003 214.6217 0000982  72.9492 287.1578 14.79935504 45088
KUIPER-00196            
1 67144U 25301M   26281.11186230  .00002082  00000+0  30200-3 0  9993
2 67144  51.8971 171.2685 0001093  92.9553 267.1534 14.79937045 45670
KUIPER-00204            
1 67145U 25301N   26280.92685903 -.00000065  00000+0  20553-4 0  9994
2 67145  51.9007 187.1304 0000877  87.7980 272.3082 14.79929504 45555
KUIPER-00210            
1 67146U 25301P   26280.96451296 -.00000594  00000+0 -48966-4 0  9991
2 67146  51.8988 214.4160 0000774  85.2804 274.8247 14.79918796 45237
KUIPER-00221            
1 67147U 25301Q   26280.99040766 -.00000875  00000+0 -85823-4 0  9996
2 67147  51.9004 221.8426 0000849  86.6237 273.4822 14.79930706 44961
KUIPER-00232            
1 67148U 25301R   26281.17541485  .00000617  00000+0  10990-3 0  9996
2 67148  51.8984 206.0296 0000966  84.8916 275.2156 14.79932655 45193
KUIPER-00241            
1 67149U 25301S   26280.99580759 -.00000100  00000+0  15876-4 0  9990
2 67149  51.9024 216.8549 0001191  75.3778 284.7317 14.79931050 45363
KUIPER-00245            
1 67150U 25301T   26280.92018597  .00002300  00000+0  33065-3 0  9993
2 67150  51.9021 224.6977 0000805  77.8075 282.2977 14.79935121 44910
KUIPER-00246            
1 67151U 25301U   26281.17270480  .00002256  00000+0  32478-3 0  9990
2 67151  51.8999 208.5120 0000972  76.8995 283.2076 14.79936737 45185
KUIPER-00247            
1 67152U 25301V   26281.18349303  .00000651  00000+0  11438-3 0  9993
2 67152  51.8953 198.4020 0001071  78.1040 282.0043 14.79933969 45308
KUIPER-00248            
1 67153U 25301W   26280.93226281  .00002131  00000+0  30839-3 0  9996
2 67153  51.8980 182.1628 0001041  87.9289 272.1793 14.79938133 45673
KUIPER-00249            
1 67154U 25301X   26281.18620137  .00000581  00000+0  10520-3 0  9995
2 67154  51.8990 195.9753 0001125  78.4995 281.6093 14.79934335 45339
KUIPER-00250            
1 67155U 25301Y   26280.25835775  .00002214  00000+0  31927-3 0  9998
2 67155  51.8990 215.0296 0001041  71.2684 288.8392 14.79939575 45027
KUIPER-00251            
1 67156U 25301Z   26281.14974243 -.00000916  00000+0 -91141-4 0  9996
2 67156  51.8997 198.6662 0001090  79.8691 280.2394 14.79930468 45484
KUIPER-00252            
1 67157U 25301AA  26281.14703139  .00002208  00000+0  31855-3 0  9990
2 67157  51.9000 201.1298 0000921  85.9656 274.1411 14.79935935 45269
KUIPER-00261            
1 67158U 25301AB  26280.96743501  .00000407  00000+0  82452-4 0  9996
2 67158  51.9015 211.9922 0000858  70.0615 290.0440 14.79932481 45091
KUIPER-00265            
1 67159U 25301AC  26280.24218102  .00002329  00000+0  33431-3 0  9999
2 67159  51.9019 230.1763 0000809  81.6603 278.4451 14.79937412 44813
KUIPER-00159            
1 67764U 26030A   26280.45268439  .00001915  00000+0  28016-3 0  9995
2 67764  51.9010 307.9820 0001691   6.5483 353.5501 14.79941791 37217
KUIPER-00160            
1 67765U 26030B   26280.24500783  .00001980  00000+0  28870-3 0  9994
2 67765  51.8976 290.1460 0000265  52.7302 307.3685 14.79931010 37448
KUIPER-00177            
1 67766U 26030C   26280.59425527 -.00000749  00000+0 -69286-4 0  9996
2 67766  51.9014 356.0859 0000455  93.5383 266.5632 14.79930560 36558
KUIPER-00178            
1 67767U 26030D   26280.42543148  .00000343  00000+0  73928-4 0  9995
2 67767  51.9014 356.8133 0000402  80.8466 279.2542 14.79932925 36531
KUIPER-00180            
1 67768U 26030E   26280.56587071  .00000599  00000+0  10751-3 0  9991
2 67768  51.8985 351.1808 0000207  60.8060 299.2923 14.79931336 36626
KUIPER-00197            
1 67769U 26030F   26280.65498156  .00001145  00000+0  17921-3 0  9991
2 67769  51.9001 330.8066 0000291  42.7135 317.3850 14.79932865 36913
KUIPER-00198            
1 67770U 26030G   26280.54020074  .00000829  00000+0  13771-3 0  9998
2 67770  51.8988 343.7853 0000263  46.3627 313.7357 14.79934355 36727
KUIPER-00199            
1 67771U 26030H   26280.91668981 -.00001258  00000+0 -12714-3 0  9990
2 67771  51.8978 281.0455 0007561 105.4274  51.9492 14.82459868  5634
KUIPER-00200            
1 67772U 26030J   26280.35379759  .00001945  00000+0  28399-3 0  9998
2 67772  51.8994 329.6544 0000342  56.6757 303.4238 14.79938312 36903
KUIPER-00203            
1 67773U 26030K   26280.58886446  .00002177  00000+0  31437-3 0  9995
2 67773  51.9075   1.2017 0000265 105.3358 254.7634 14.79941463 36488
KUIPER-00205            
1 67774U 26030L   26280.42399928  .00001955  00000+0  28532-3 0  9998
2 67774  51.9013 326.8131 0000323  44.1059 315.9930 14.79949768 36954
KUIPER-00208            
1 67775U 26030M   26280.42811597  .00002093  00000+0  30342-3 0  9996
2 67775  51.8997 354.2863 0000199 164.2743 195.8226 14.79940835 36563
KUIPER-00209            
1 67776U 26030N   26280.53211182  .00002033  00000+0  29554-3 0  9990
2 67776  51.9006 351.4304 0000121  25.5639 334.5329 14.79945281 36615
KUIPER-00213            
1 67777U 26030P   26280.83869666  .00000987  00000+0  15850-3 0  9990
2 67777  51.8967 347.5249 0000319  70.6890 289.4107 14.79933432 36699
KUIPER-00214            
1 67778U 26030Q   26280.53750664  .00002065  00000+0  29971-3 0  9993
2 67778  51.9017 346.4012 0000271  54.6136 305.4852 14.79945027 36683
KUIPER-00215            
1 67779U 26030R   26280.58474712  .00000856  00000+0  14125-3 0  9997
2 67779  51.8994 333.5462 0000407  43.0883 317.0112 14.79933657 36870
KUIPER-00218            
1 67780U 26030S   26280.39973310  .00002070  00000+0  30034-3 0  9993
2 67780  51.8987 349.3992 0000325  68.7974 291.3023 14.79939794 36638
KUIPER-00220            
1 67781U 26030T   26280.42671546  .00001799  00000+0  26492-3 0  9994
2 67781  51.8962 324.2995 0000366  41.1502 318.9488 14.79937602 36989
KUIPER-00222            
1 67782U 26030U   26280.37139099  .00000042  00000+0  34471-4 0  9998
2 67782  51.9002 344.6880 0000120  55.2850 304.8124 14.79934777 36694
KUIPER-00223            
1 67783U 26030V   26280.54828634  .00001877  00000+0  27514-3 0  9994
2 67783  51.9023 336.2211 0000384  52.9421 307.1577 14.79932013 36838
KUIPER-00225            
1 67784U 26030W   26280.47538211  .00000902  00000+0  14728-3 0  9997
2 67784  51.8997 341.6842 0000351  62.7754 297.3244 14.79932960 36742
KUIPER-00226            
1 67785U 26030X   26280.38755484  .00001825  00000+0  26838-3 0  9991
2 67785  51.9008 329.4581 0000902  54.5079 305.5968 14.79929003 36910
KUIPER-00259            
1 67786U 26030Y   26280.57666327 -.00001275  00000+0 -13833-3 0  9992
2 67786  51.9013 341.1347 0000292  35.4722 324.6260 14.79929747 36768
KUIPER-00260            
1 67787U 26030Z   26280.37677978  .00000124  00000+0  45319-4 0  9990
2 67787  51.9000 339.6365 0000283  67.8112 292.2881 14.79936160 36675
KUIPER-00262            
1 67788U 26030AA  26280.54559646 -.00000269  00000+0 -62603-5 0  9999
2 67788  51.9025 338.8087 0000172  63.1512 296.9468 14.79932271 36799
KUIPER-00266            
1 67789U 26030AB  26280.37947237 -.00000983  00000+0 -10002-3 0  9995
2 67789  51.9013 337.0320 0000224  52.2209 307.8773 14.79931643 36803
KUIPER-00268            
1 67790U 26030AC  26280.34840654  .00002150  00000+0  31090-3 0  9995
2 67790  51.9057 334.7206 0000154  31.0743 329.0229 14.79938790 36835
KUIPER-00270            
1 67791U 26030AD  26280.32542594  .00002073  00000+0  30086-3 0  9994
2 67791  51.9000 324.7605 0000339  52.3444 307.7549 14.79932314 36974
KUIPER-00274            
1 67792U 26030AE  26280.43622018 -.00000512  00000+0 -38112-4 0  9994
2 67792  51.9013 346.7911 0000332  60.9170 299.1825 14.79931978 36670
KUIPER-00275            
1 67793U 26030AF  26280.52531745  .00001937  00000+0  28301-3 0  9999
2 67793  51.9006 326.3894 0000267  20.4785 339.6188 14.79934588 36961
KUIPER-00276            
1 67794U 26030AG  26280.48616128 -.00000376  00000+0 -20274-4 0  9994
2 67794  51.9001 331.5369 0000486  40.6564 319.4435 14.79932150 36890
KUIPER-00279            
1 67795U 26030AH  26280.32812743 -.00000466  00000+0 -32093-4 0  9991
2 67795  51.9038 322.2935 0000395  57.2233 302.8767 14.79931084 37006
KUIPER-00131            
1 68573U 26072A   26280.59437085  .00002007  00000+0  29212-3 0  9992
2 68573  51.9006  58.5872 0000552 125.6861 234.4153 14.79938853 27769
KUIPER-00189            
1 68574U 26072B   26280.69296033 -.00000105  00000+0  15175-4 0  9992
2 68574  51.8995  60.6240 0000359  86.4691 273.6313 14.79928654 27748
KUIPER-00192            
1 68575U 26072C   26280.59706733  .00002034  00000+0  29573-3 0  9993
2 68575  51.9004  56.0686 0000595 137.0025 223.0984 14.79940398 27809
KUIPER-00193            
1 68576U 26072D   26280.54033081  .00000343  00000+0  74051-4 0  9991
2 68576  51.9055  46.3772 0000474 137.5837 222.5162 14.79931552 27934
KUIPER-00194            
1 68577U 26072E   26280.56599991  .00000675  00000+0  11749-3 0  9993
2 68577  51.9007  53.7347 0000620 138.2073 221.8937 14.79932612 27834
KUIPER-00229            
1 68578U 26072F   26280.69567043  .00003967  00000+0  54911-3 0  9996
2 68578  51.9000  58.1426 0000604 142.0749 218.0256 14.79925643 27782
KUIPER-00230            
1 68579U 26072G   26281.16668980  .00037031  00000+0  48632-2 0  9993
2 68579  51.9042   3.5538 0000882 136.1020 273.5704 14.79903691  4059
KUIPER-00231            
1 68580U 26072H   26280.52274223  .00002185  00000+0  31549-3 0  9999
2 68580  51.8990  31.4726 0001326 170.0080 190.0909 14.79938003 28138
KUIPER-00234            
1 68581U 26072J   26280.80235005  .00000486  00000+0  92792-4 0  9996
2 68581  51.8988  52.6504 0000811 133.7317 226.3712 14.79931802 27866
KUIPER-00236            
1 68582U 26072K   26280.71585357  .00001385  00000+0  21059-3 0  9991
2 68582  51.9054   8.0529 0000663 124.1047 235.9978 14.79934764 28482
KUIPER-00244            
1 68583U 26072L   26280.64431662  .00002221  00000+0  32022-3 0  9995
2 68583  51.9006  43.3734 0000463 133.7847 226.3154 14.79935437 27984
KUIPER-00253            
1 68584U 26072M   26280.64162352  .00002284  00000+0  32842-3 0  9992
2 68584  51.9040  45.9188 0000518 135.4570 224.6434 14.79938902 27945
KUIPER-00254            
1 68585U 26072N   26280.67268388  .00001018  00000+0  16255-3 0  9996
2 68585  51.9034  48.2776 0000499 121.5134 238.5877 14.79930976 27913
KUIPER-00263            
1 68586U 26072P   26280.62135125  .00000041  00000+0  34408-4 0  9990
2 68586  51.9026  33.5690 0000407 108.4961 251.6045 14.79930321 28118
KUIPER-00269            
1 68587U 26072Q   26280.61864142  .00000587  00000+0  10602-3 0  9992
2 68587  51.9007  35.9846 0000552 138.2639 221.8365 14.79933717 28083
KUIPER-00272            
1 68588U 26072R   26280.56329679  .00001944  00000+0  28386-3 0  9994
2 68588  51.8986  56.1931 0000580 129.4580 230.6434 14.79936981 27795
KUIPER-00285            
1 68589U 26072S   26280.51735154 -.00000093  00000+0  16828-4 0  9993
2 68589  51.9044  36.5235 0000882 128.5325 231.5717 14.79932413 28064
KUIPER-00286            
1 68590U 26072T   26280.52004477  .00002208  00000+0  31855-3 0  9998
2 68590  51.9027  33.9344 0000391  90.0446 270.0561 14.79938331 28106
KUIPER-00289            
1 68591U 26072U   26280.64701005  .00002295  00000+0  32993-3 0  9993
2 68591  51.8994  40.8434 0000378 140.7424 219.3566 14.79935580 28014
KUIPER-00290            
1 68592U 26072V   26280.54572229  .00000493  00000+0  93621-4 0  9991
2 68592  51.9035  41.3079 0000331 146.7089 213.3894 14.79934035 28006
KUIPER-00293            
1 68593U 26072W   26280.36611123  .00008049  00000+0  10842-2 0  9996
2 68593  51.8984  52.0628 0001751 117.5698 242.5442 14.79910050 27831
KUIPER-00294            
1 68594U 26072X   26280.58217603  .00002131  00000+0  30842-3 0  9995
2 68594  51.9000  38.6339 0000391 112.3269 247.7735 14.79937520 28044
KUIPER-00296            
1 68595U 26072Y   26280.49975763  .00002248  00000+0  32374-3 0  9995
2 68595  51.9027  21.5212 0000238 114.8275 245.2713 14.79941047 28272
KUIPER-00297            
1 68596U 26072Z   26280.66998486  .00002052  00000+0  29811-3 0  9997
2 68596  51.9003  50.7243 0000901 153.4537 206.6472 14.79940086 27883
KUIPER-00300            
1 68597U 26072AA  26280.57139639  .00000522  00000+0  97407-4 0  9992
2 68597  51.9034  48.7014 0000470 117.0831 243.0180 14.79931958 27907
KUIPER-00301            
1 68598U 26072AB  26280.49623034  .00000995  00000+0  17194-3 0  9999
2 68598  51.9035  18.9789 0001806 264.2392  95.8363 14.76524316 28302
KUIPER-00304            
1 68599U 26072AC  26280.79541239  .00001250  00000+0  20771-3 0  9999
2 68599  51.9019  19.5968 0000804  48.8010 311.3020 14.76640167 28322
KUIPER-00317            
1 68600U 26072AD  26280.54841696  .00002142  00000+0  30991-3 0  9991
2 68600  51.8990  38.7866 0000377 105.3387 254.7617 14.79934256 28031
KUIPER-00320            
1 68601U 26072AE  26280.67807250  .00002146  00000+0  31039-3 0  9992
2 68601  51.9026  43.2381 0000509  87.7669 272.3352 14.79931418 27981
KUIPER-00299            
1 68864U 26095A   26280.83893421  .00001678  00000+0  24911-3 0  9991
2 68864  51.8979 112.4837 0000935 121.6245 238.4808 14.79930466 24296
KUIPER-00353            
1 68865U 26095B   26280.68629065  .00001862  00000+0  27324-3 0  9992
2 68865  51.8994  98.1878 0000763 127.1801 232.9231 14.79927908 24484
KUIPER-00357            
1 68866U 26095C   26280.71197010  .00000231  00000+0  59399-4 0  9994
2 68866  51.9007 105.5855 0001474 108.7115 251.4008 14.79930653 24380
KUIPER-00364            
1 68867U 26095D   26280.74304617  .00000584  00000+0  10561-3 0  9999
2 68867  51.9015 107.9768 0001534 102.2239 257.8895 14.79928773 24353
KUIPER-00375            
1 68868U 26095E   26280.71736258  .00001771  00000+0  26123-3 0  9997
2 68868  51.8998 100.5574 0000932 121.2212 238.8841 14.79937861 24459
KUIPER-00433            
1 68869U 26095F   26280.97130479  .00001731  00000+0  25595-3 0  9997
2 68869  51.8993 114.4278 0001312 107.0879 253.0227 14.79935843 24280
KUIPER-00437            
1 68870U 26095G   26280.70973071  .00001344  00000+0  22105-3 0  9997
2 68870  51.9022  67.6383 0000579 106.1212 253.9813 14.76633937 24913
KUIPER-00448            
1 68871U 26095H   26280.81326574  .00001680  00000+0  24934-3 0  9995
2 68871  51.9028 105.1383 0000939 131.3895 228.7148 14.79934851 24390
KUIPER-00459            
1 68872U 26095J   26280.72545957  .00001700  00000+0  25191-3 0  9993
2 68872  51.9008  93.0867 0000734 119.7879 240.3156 14.79929902 24554
KUIPER-00468            
1 68873U 26095K   26280.76620723  .00001333  00000+0  21934-3 0  9996
2 68873  51.8978  90.8358 0000377 206.0390 154.0552 14.76644358 24592
KUIPER-00476            
1 68874U 26095L   26280.61195109 -.00000229  00000+0 -97784-6 0  9990
2 68874  51.9006  73.4387 0000852 127.9029 232.2011 14.79931766 24823
KUIPER-00478            
1 68875U 26095M   26280.92534130  .00001961  00000+0  28623-3 0  9991
2 68875  51.8983  94.6317 0000929 125.6513 234.4536 14.79930425 24550
KUIPER-00480            
1 68876U 26095N   26280.69168637  .00000700  00000+0  12088-3 0  9999
2 68876  51.9028  93.1882 0000873 105.7560 254.3499 14.79932439 24558
KUIPER-00482            
1 68877U 26095P   26280.68087718  .00000417  00000+0  83748-4 0  9996
2 68877  51.9007 103.2169 0001301 110.0653 250.0449 14.79929199 24418
KUIPER-00483            
1 68878U 26095Q   26280.73492953  .00001714  00000+0  25383-3 0  9995
2 68878  51.8976 115.4390 0001327  81.2804 278.8308 14.79928885 24243
KUIPER-00488            
1 68879U 26095R   26280.92264567  .00000247  00000+0  61365-4 0  9996
2 68879  51.8998  97.1543 0001137 122.8340 237.2732 14.79933803 24516
KUIPER-00489            
1 68880U 26095S   26280.66061076 -.00000367  00000+0 -19107-4 0  9991
2 68880  51.8958  90.7842 0001201 130.7724 229.3343 14.79929714 24584
KUIPER-00499            
1 68881U 26095T   26280.48640430  .00001577  00000+0  23580-3 0  9990
2 68881  51.8989  96.6223 0000701 114.4291 245.6745 14.79927766 24480
KUIPER-00500            
1 68882U 26095U   26280.73762126 -.00000710  00000+0 -64159-4 0  9994
2 68882  51.9000 112.9654 0001065 119.7939 240.3129 14.79932246 24282
KUIPER-00502            
1 68883U 26095V   26280.68727772  .00000361  00000+0  76337-4 0  9998
2 68883  51.9005  89.4377 0001025 127.6200 232.4855 14.79929419 24605
KUIPER-00503            
1 68884U 26095W   26280.84162954  .00001914  00000+0  28005-3 0  9995
2 68884  51.8972 109.9726 0001093 117.8192 242.2881 14.79938084 24336
KUIPER-00504            
1 68885U 26095X   26280.93483948 -.00000028  00000+0  25297-4 0  9992
2 68885  51.9015 117.1025 0000646 105.0462 255.0572 14.79932115 24249
KUIPER-00505            
1 68886U 26095Y   26280.77680765  .00001682  00000+0  24965-3 0  9997
2 68886  51.9000 107.8000 0000788 123.8456 236.2581 14.79933582 24353
KUIPER-00507            
1 68887U 26095Z   26280.70316456  .00001759  00000+0  25961-3 0  9996
2 68887  51.8990  98.1071 0000903 116.7014 243.4041 14.79939228 24489
KUIPER-00511            
1 68888U 26095AA  26280.69439586  .00001703  00000+0  25234-3 0  9997
2 68888  51.8980  90.7562 0001044 118.6758 241.4310 14.79935507 24589
KUIPER-00512            
1 68889U 26095AB  26280.74032813 -.00000322  00000+0 -13258-4 0  9998
2 68889  51.9003 110.4616 0000849 114.4148 245.6903 14.79928117 24310
KUIPER-00519            
1 68890U 26095AC  26280.75113302  .00001704  00000+0  25244-3 0  9994
2 68890  51.9015 100.4813 0000734 117.9689 242.1347 14.79938074 24456
KUIPER-00521            
1 68891U 26095AD  26280.68189462  .00001825  00000+0  26827-3 0  9999
2 68891  51.9013  94.4817 0000801 114.5426 245.5620 14.79938701 24535
KUIPER-00524            
1 68892U 26095AE  26280.71466598  .00001552  00000+0  23256-3 0  9992
2 68892  51.8978 103.0412 0001064 115.7519 244.3553 14.79931269 24412
KUIPER-00370            
1 68919U 26098A   26280.94525318  .00002007  00000+0  29217-3 0  9995
2 68919  51.8980 279.4058 0000638  38.2980 321.8027 14.79933783 24180
KUIPER-00380            
1 68920U 26098B   26280.34558969  .00001986  00000+0  28937-3 0  9992
2 68920  51.8971 274.6928 0000658  44.4325 315.6690 14.79941075 24190
KUIPER-00386            
1 68921U 26098C   26280.96753932 -.00000260  00000+0 -51109-5 0  9993
2 68921  51.8983 274.4395 0000683  44.0059 316.0958 14.79932857 24255
KUIPER-00388            
1 68922U 26098D   26280.39965322  .00001981  00000+0  28874-3 0  9999
2 68922  51.9004 287.1163 0000589  38.1237 321.9767 14.79932994 24022
KUIPER-00405            
1 68923U 26098E   26280.21662267  .00000144  00000+0  47943-4 0  9992
2 68923  51.9010 285.2795 0000885 336.1776  23.9145 14.79933924 24032
KUIPER-00408            
1 68924U 26098F   26280.20782750  .00001958  00000+0  28576-3 0  9996
2 68924  51.8983 277.7274 0000642  51.5397 308.5623 14.79936847 24149
KUIPER-00409            
1 68925U 26098G   26280.38812599  .00005643  00000+0  76822-3 0  9993
2 68925  51.9001 282.0207 0000499  62.2475 297.8538 14.79956307 24095
KUIPER-00410            
1 68926U 26098H   26280.99860676  .00001936  00000+0  28286-3 0  9992
2 68926  51.8960 276.7884 0000356   3.2219 356.8746 14.79932585 24227
KUIPER-00412            
1 68927U 26098J   26280.98982456  .00002007  00000+0  29214-3 0  9995
2 68927  51.9021 269.3730 0000600  62.1863 297.9160 14.79940309 24325
KUIPER-00413            
1 68928U 26098K   26280.26726952 -.00001444  00000+0 -16053-3 0  9997
2 68928  51.9000 285.0350 0000599   3.3476 356.7490 14.79928488 24043
KUIPER-00414            
1 68929U 26098L   26281.03308545  .00001802  00000+0  26530-3 0  9995
2 68929  51.8970 291.7250 0000061 345.2689  14.8271 14.79929177 24012
KUIPER-00415            
1 68930U 26098M   26280.37664702  .00001970  00000+0  28741-3 0  9995
2 68930  51.9005 277.0700 0000663  54.0596 306.0428 14.79928389 24161
KUIPER-00416            
1 68931U 26098N   26281.00221664  .00002012  00000+0  29303-3 0  9996
2 68931  51.9010 265.6569 0000719  70.7434 289.3606 14.79910181 24377
KUIPER-00420            
1 68932U 26098P   26280.99251848  .00001965  00000+0  28663-3 0  9995
2 68932  51.8995 266.8061 0000640  59.8662 300.2364 14.79937084 24367
KUIPER-00421            
1 68933U 26098Q   26280.98711703  .00001981  00000+0  28874-3 0  9998
2 68933  51.9005 271.8173 0000709  63.7972 296.3063 14.79934682 24299
KUIPER-00425            
1 68934U 26098R   26280.97901959 -.00000029  00000+0  25185-4 0  9998
2 68934  51.8979 279.3930 0000439  76.3311 283.7700 14.79928687 24184
KUIPER-00430            
1 68935U 26098S   26281.04385536 -.00000249  00000+0 -35948-5 0  9999
2 68935  51.9028 281.5145 0000585  49.2998 310.8015 14.79932984 24160
KUIPER-00431            
1 68936U 26098T   26281.04117075  .00001887  00000+0  27647-3 0  9993
2 68936  51.8979 284.1053 0000626  23.9963 336.1028 14.79936171 24122
KUIPER-00432            
1 68937U 26098U   26280.50899559  .00001765  00000+0  26039-3 0  9997
2 68937  51.8989 278.8586 0000616  45.8493 314.2520 14.79941044 24157
KUIPER-00434            
1 68938U 26098V   26280.19527271  .00001492  00000+0  24323-3 0  9993
2 68938  51.8992 284.7379 0000491 200.1847 159.9095 14.76412357 24044
KUIPER-00436            
1 68939U 26098W   26281.02968206  .00001862  00000+0  27323-3 0  9998
2 68939  51.8993 279.1700 0000476  67.1369 292.9643 14.79926572 24190
KUIPER-00438            
1 68940U 26098X   26280.96483910  .00001992  00000+0  29031-3 0  9998
2 68940  51.9019 276.9873 0000599  47.3124 312.7889 14.79929384 24213
KUIPER-00439            
1 68941U 26098Y   26280.47525917 -.00001142  00000+0 -12081-3 0  9995
2 68941  51.9001 279.1422 0000634  61.1142 298.9883 14.79928791 24146
KUIPER-00440            
1 68942U 26098Z   26280.36517512  .00001940  00000+0  28346-3 0  9991
2 68942  51.9023 272.1278 0001144  30.3160 329.7869 14.79933180 24233
KUIPER-00442            
1 68943U 26098AA  26280.49750879  .00001825  00000+0  26832-3 0  9991
2 68943  51.9003 274.0591 0000676  20.8653 339.2336 14.79933865 24214
KUIPER-00446            
1 68944U 26098AB  26280.93377692  .00000168  00000+0  50985-4 0  9995
2 68944  51.8974 274.6078 0000608 255.4669 104.6226 14.79935518 24247
KUIPER-00451            
1 68945U 26098AC  26280.31522881  .00001983  00000+0  28903-3 0  9990
2 68945  51.8986 287.3245 0000522  34.2496 325.8500 14.79933693 24013
KUIPER-00452            
1 68946U 26098AD  26280.39623202  .00002006  00000+0  29208-3 0  9994
2 68946  51.9009 274.4881 0000498  68.6220 291.4795 14.79925885 24201
KUIPER-00453            
1 68947U 26098AE  26280.28075166  .00002077  00000+0  30137-3 0  9994
2 68947  51.8985 272.4116 0000363 205.6581 154.4364 14.79933783 24225
KUIPER-00454            
1 68948U 26098AF  26280.26187227  .00000159  00000+0  49887-4 0  9997
2 68948  51.8993 290.0527 0000847  61.1527 298.9520 14.79926610 23979
KUIPER-00455            
1 68949U 26098AG  26280.21391592  .00001860  00000+0  27282-3 0  9999
2 68949  51.8998 287.7786 0000316 208.0572 152.0374 14.79943844 24008
KUIPER-00458            
1 68950U 26098AH  26280.39893399  .00000310  00000+0  69731-4 0  9997
2 68950  51.9002 271.9850 0000857  74.3516 285.7540 14.79931736 24237
KUIPER-00282            
1 69267U 26118A   26280.40698375 -.00002305  00000+0 -27347-3 0  9995
2 69267  51.8942 264.3984 0000741  22.1275 337.9719 14.79927920 20773
KUIPER-00383            
1 69268U 26118B   26280.96683852  .00002053  00000+0  29823-3 0  9990
2 69268  51.8972 259.4443 0000786  43.6067 316.4958 14.79933998 20890
KUIPER-00527            
1 69269U 26118C   26280.32532519  .00000355  00000+0  75583-4 0  9992
2 69269  51.8984 262.4149 0000790  59.1294 300.9746 14.79931895 20796
KUIPER-00562            
1 69270U 26118D   26280.97493169  .00002077  00000+0  30140-3 0  9994
2 69270  51.9020 251.8634 0000986  68.1025 292.0042 14.79937972 21007
KUIPER-00570            
1 69271U 26118E   26280.99522416  .00001963  00000+0  28643-3 0  9993
2 69271  51.8994 264.4271 0000736  41.2714 318.8304 14.79934632 20810
KUIPER-00572            
1 69272U 26118F   26280.37595849  .00000494  00000+0  93754-4 0  9990
2 69272  51.8994 262.0584 0000788  50.5781 309.5251 14.79932920 20801
KUIPER-00581            
1 69273U 26118G   26280.37056624  .00002132  00000+0  30861-3 0  9994
2 69273  51.9008 267.0936 0000674 346.1025  13.9919 14.79932828 20820
KUIPER-00584            
1 69274U 26118H   26280.35098507  .00000474  00000+0  91144-4 0  9998
2 69274  51.9001 269.7877 0000697  49.7505 310.3519 14.79925571 20693
KUIPER-00587            
1 69275U 26118J   26280.24359498  .00002152  00000+0  31127-3 0  9995
2 69275  51.9004 260.1535 0000760  58.7619 301.3418 14.79930866 20826
KUIPER-00590            
1 69276U 26118K   26281.04855622  .00002027  00000+0  29476-3 0  9990
2 69276  51.9017 261.6061 0000714  42.0753 318.0264 14.79938650 20873
KUIPER-00592            
1 69277U 26118L   26280.15377354  .00001885  00000+0  27614-3 0  9996
2 69277  51.9023 265.4441 0000699  44.1545 315.9473 14.79941621 20745
KUIPER-00593            
1 69278U 26118M   26280.30772446  .00002249  00000+0  32388-3 0  9994
2 69278  51.8982 247.3740 0000334 279.7636  80.3289 14.79934394 21066
KUIPER-00594            
1 69279U 26118N   26280.30233520  .00002138  00000+0  30935-3 0  9993
2 69279  51.9022 252.4119 0000907  78.1442 281.9622 14.79939252 20935
KUIPER-00595            
1 69280U 26118P   26280.27395135  .00002351  00000+0  33724-3 0  9998
2 69280  51.8977 247.4774 0000468 311.5648  48.5274 14.79935363 21031
KUIPER-00596            
1 69281U 26118Q   26281.00939937  .00001967  00000+0  28699-3 0  9992
2 69281  51.9002 266.7724 0000728  54.6370 305.4660 14.79931840 20799
KUIPER-00597            
1 69282U 26118R   26280.13620093  .00000049  00000+0  35486-4 0  9999
2 69282  51.8978 250.6267 0001670  77.1102 283.0047 14.79931375 20945
KUIPER-00599            
1 69283U 26118S   26280.96949701  .00001412  00000+0  21418-3 0  9995
2 69283  51.9009 256.8597 0000768  38.7704 321.3313 14.79932616 20934
KUIPER-00600            
1 69284U 26118T   26280.30502046  .00002183  00000+0  31534-3 0  9997
2 69284  51.8972 249.7934 0001758  74.8846 285.2311 14.79933552 20977
KUIPER-00601            
1 69285U 26118U   26280.32261265  .00002088  00000+0  30289-3 0  9995
2 69285  51.9012 264.8068 0000737  63.6011 296.5027 14.79924203 20765
KUIPER-00602            
1 69286U 26118V   26280.46574831  .00000701  00000+0  12096-3 0  9993
2 69286  51.9002 256.5877 0000901   6.7524 353.3450 14.79932324 20890
KUIPER-00603            
1 69287U 26118W   26280.14230360  .00002103  00000+0  30481-3 0  9991
2 69287  51.9033 260.6125 0000725  65.1750 294.9288 14.79928025 20804
KUIPER-00605            
1 69288U 26118X   26280.80950591  .00001175  00000+0  18311-3 0  9996
2 69288  51.8992 265.1320 0000702  54.4315 305.6712 14.79931846 20805
KUIPER-00606            
1 69289U 26118Y   26280.26047786  .00001935  00000+0  28269-3 0  9997
2 69289  51.9005 260.0821 0000749  41.0426 319.0593 14.79938522 20824
KUIPER-00607            
1 69290U 26118Z   26280.32191729 -.00000185  00000+0  47640-5 0  9996
2 69290  51.8997 249.8153 0001950  52.1706 307.9432 14.79932068 20970
KUIPER-00608            
1 69291U 26118AA  26280.33608082 -.00000434  00000+0 -27921-4 0  9990
2 69291  51.9002 252.1119 0000846  62.7246 297.3803 14.79931303 20949
KUIPER-00610            
1 69292U 26118AB  26280.97223669  .00002036  00000+0  29592-3 0  9998
2 69292  51.9009 254.4350 0000841  52.9803 307.1236 14.79939951 20963
KUIPER-00613            
1 69293U 26118AC  26280.21862112  .00001850  00000+0  27163-3 0  9993
2 69293  51.8998 267.7638 0000718  48.7120 311.3904 14.79939982 20710
KUIPER-00618            
1 69294U 26118AD  26280.33339309  .00000670  00000+0  11683-3 0  9993
2 69294  51.9011 254.7671 0000716 289.2535  70.8350 14.79930262 20906
KUIPER-00620            
1 69295U 26118AE  26280.95535669  .00002089  00000+0  30291-3 0  9991
2 69295  51.9026 254.5229 0000842  48.0394 312.0640 14.79936573 20964
KUIPER-00423            
1 69592U 26140A   26280.76552326  .00002039  00000+0  29649-3 0  9994
2 69592  51.9003 227.8439 0000912  80.3784 279.7281 14.79923058 18360
KUIPER-00428            
1 69593U 26140B   26281.16668980 -.01111141  00000+0 -42432-1 0  9995
2 69593  51.8828 212.7851 0006005 344.4965 215.0852 15.29072380  3113
KUIPER-00481            
1 69594U 26140C   26280.94585858  .00001366  00000+0  20816-3 0  9991
2 69594  51.9005 232.0544 0001621  26.8445 333.2601 14.79937090 18325
KUIPER-00490            
1 69595U 26140D   26280.11321899  .00000595  00000+0  10702-3 0  9990
2 69595  51.9027 240.6903 0000989  62.8113 297.2950 14.79934782 18132
KUIPER-00493            
1 69596U 26140E   26280.95194895 -.00000626  00000+0 -53107-4 0  9991
2 69596  51.9011 242.0325 0001587  22.1087 337.9943 14.79932999 18181
KUIPER-00496            
1 69597U 26140F   26280.23510421  .00002445  00000+0  34962-3 0  9996
2 69597  51.9021 228.9509 0001033  83.3755 276.7325 14.79931626 18301
KUIPER-00513            
1 69598U 26140G   26280.28205194  .00002350  00000+0  33709-3 0  9993
2 69598  51.8990 239.9834 0000844  58.1799 301.9245 14.79938310 18158
KUIPER-00516            
1 69599U 26140H   26280.21942868  .00001357  00000+0  22333-3 0  9990
2 69599  51.8973 224.8047 0001593 189.4847 170.6084 14.76544573 18369
KUIPER-00517            
1 69600U 26140J   26281.16668980 -.00014379  00000+0 -13955-2 0  9997
2 69600  51.8964 216.3817 0010515 244.3199  50.6117 14.91589957  5641
KUIPER-00520            
1 69601U 26140K   26280.30094594  .00001316  00000+0  21715-3 0  9996
2 69601  51.9002 242.2717 0000762 332.5560  27.5361 14.76624214 18128
KUIPER-00522            
1 69602U 26140L   26280.07336298  .00002333  00000+0  33501-3 0  9997
2 69602  51.9028 230.9133 0001251  91.0409 269.0697 14.79931164 18264
KUIPER-00528            
1 69603U 26140M   26280.93776038 -.00000336  00000+0 -15027-4 0  9990
2 69603  51.9020 239.6059 0000798  63.7066 296.3978 14.79924765 18219
KUIPER-00532            
1 69604U 26140N   26280.16047646  .00002396  00000+0  34324-3 0  9998
2 69604  51.9031 228.0346 0000800  83.5996 276.5058 14.79931344 18310
KUIPER-00533            
1 69605U 26140P   26280.92627838 -.00000540  00000+0 -41844-4 0  9997
2 69605  51.9005 234.6458 0000989  58.7219 301.3840 14.79933218 18283
KUIPER-00534            
1 69606U 26140Q   26280.31144373  .00010739  00000+0  39275-3 0  9992
2 69606  51.8805 218.7143 0012331 194.0469 166.0173 15.28530408 18453
KUIPER-00537            
1 69607U 26140R   26280.31041175  .00002202  00000+0  31773-3 0  9990
2 69607  51.8993 244.7814 0001509  40.1806 319.9267 14.79937261 18093
KUIPER-00538            
1 69608U 26140S   26280.27934687  .00002305  00000+0  33122-3 0  9999
2 69608  51.9013 242.4462 0001142  53.0917 307.0150 14.79934255 18124
KUIPER-00540            
1 69609U 26140T   26280.96146690  .00024990  00000+0  65213-3 0  9995
2 69609  51.8808 213.3855 0004620 347.1405  12.9463 15.38655934 18581
KUIPER-00541            
1 69610U 26140U   26281.16668980  .00003903  00000+0  58406-3 0  9998
2 69610  51.8982 218.4378 0002772  77.2356 113.7621 14.76602895  4753
KUIPER-00542            
1 69611U 26140V   26281.16668980 -.00023156  00000+0 -24076-2 0  9998
2 69611  51.8967 216.3242 0007873 201.9325 325.6161 14.89177819  4562
KUIPER-00543            
1 69612U 26140W   26280.26176682  .00002453  00000+0  35056-3 0  9998
2 69612  51.9036 227.5825 0000546  90.7652 269.3373 14.79940910 18326
KUIPER-00544            
1 69613U 26140X   26281.16668980 -.00026456  00000+0 -33025-2 0  9990
2 69613  51.8996 218.6023 0001411 203.3993  84.3924 14.81815106  4855
KUIPER-00546            
1 69614U 26140Y   26280.05641663  .00002517  00000+0  35915-3 0  9998
2 69614  51.9009 230.9863 0000632  79.4277 280.6757 14.79923155 18268
KUIPER-00547            
1 69615U 26140Z   26281.16668980 -.00013775  00000+0 -11437-2 0  9995
2 69615  51.8950 214.3434 0011465 205.6964 246.9862 14.97628844  5237
KUIPER-00549            
1 69616U 26140AA  26280.23070652 -.00001274  00000+0 -13806-3 0  9990
2 69616  51.9009 225.2251 0001075  95.4003 264.7082 14.79932443 18359
KUIPER-00550            
1 69617U 26140AB  26281.00002315 -.00029357  00000+0 -38377-2 0  9999
2 69617  51.9009 225.5181 0001091  52.0164 245.9353 14.79943684  4637
KUIPER-00551            
1 69618U 26140AC  26281.16668980 -.01163895  00000+0 -64031-1 0  9995
2 69618  51.8846 212.5529 0012598 206.6946  64.4457 15.16400605  3885
KUIPER-00554            
1 69619U 26140AD  26281.16668980 -.01615969  00000+0 -10319+0 0  9998
2 69619  51.8904 213.1662 0008340 221.2015 108.0100 15.11747222  5152
KUIPER-00555            
1 69620U 26140AE  26281.16668980 -.01240526  00000+0 -66369-1 0  9991
2 69620  51.8846 212.7824 0010230 214.1589  34.8813 15.17594131  1307
KUIPER-00556            
1 69621U 26140AF  26280.96544038  .00000192  00000+0  54160-4 0  9995
2 69621  51.8953 229.4585 0000706  97.2706 262.8337 14.79931810 18368
KUIPER-00557            
1 69622U 26140AG  26281.16668980 -.00630184  00000+0 -52446-1 0  9996
2 69622  51.9078 214.3892 0009159 233.3528 320.2925 15.00645183  4859
KUIPER-00560            
1 69623U 26140AH  26280.12714640 -.00061854  00000+0 -16689-2 0  9999
2 69623  51.8766 217.5068 0008220 246.7084 113.3038 15.37270396 18453
KUIPER-00561            
1 69624U 26140AJ  26280.28473669  .00002398  00000+0  34336-3 0  9996
2 69624  51.9005 237.4508 0000870  72.9797 287.1261 14.79943138 18199
KUIPER-00564            
1 69625U 26140AK  26280.92897534  .00002288  00000+0  32895-3 0  9995
2 69625  51.8965 232.1029 0000724  94.5796 265.5249 14.79935457 18327
KUIPER-00567            
1 69626U 26140AL  26280.25636781  .00002307  00000+0  33157-3 0  9991
2 69626  51.8968 232.5964 0000568 169.2628 190.8347 14.79932899 18251
KUIPER-00573            
1 69627U 26140AM  26280.28744457  .00002379  00000+0  34088-3 0  9998
2 69627  51.9000 234.9745 0000775  68.3841 291.7204 14.79938542 18220
KUIPER-00258            
1 69763U 26151A   26280.99218363 -.00002349  00000+0 -27937-3 0  9995
2 69763  51.8964 141.8340 0000745  89.8540 270.2508 14.79906696 14902
KUIPER-00526            
1 69764U 26151B   26281.02676169  .00000006  00000+0  29786-4 0  9994
2 69764  51.8985 156.7592 0001149  92.5758 267.5336 14.79929428 14693
KUIPER-00558            
1 69765U 26151C   26280.92544512  .00001884  00000+0  27611-3 0  9998
2 69765  51.8971 157.1275 0000819 108.0634 252.0417 14.79930017 14685
KUIPER-00569            
1 69766U 26151D   26280.94503693  .00000193  00000+0  54324-4 0  9990
2 69766  51.9012 154.5401 0000987 102.8917 257.2156 14.79933483 14729
KUIPER-00589            
1 69767U 26151E   26281.02983512  .00001137  00000+0  19210-3 0  9996
2 69767  51.9002 157.6500 0003295 108.9984 251.1334 14.76554068 14680
KUIPER-00598            
1 69768U 26151F   26281.03484419  .00000360  00000+0  76175-4 0  9991
2 69768  51.9016 149.1508 0000846 121.8525 238.2519 14.79929008 14802
KUIPER-00604            
1 69769U 26151G   26280.94773462  .00000347  00000+0  74532-4 0  9990
2 69769  51.9020 152.0447 0000838 100.1047 260.0010 14.79933709 14759
KUIPER-00609            
1 69770U 26151H   26281.05172816  .00001838  00000+0  27007-3 0  9991
2 69770  51.8999 149.0798 0001385  73.9999 286.1116 14.79935750 14801
KUIPER-00611            
1 69771U 26151J   26280.98150160 -.00000746  00000+0 -68810-4 0  9998
2 69771  51.8977 151.8714 0001236  99.1691 260.9411 14.79928244 14764
KUIPER-00612            
1 69772U 26151K   26281.02944676  .00002070  00000+0  30050-3 0  9992
2 69772  51.9003 154.1860 0001108 129.6298 230.4762 14.79935482 14734
KUIPER-00614            
1 69773U 26151L   26280.89708608  .00001768  00000+0  26085-3 0  9996
2 69773  51.8972 152.3137 0000989 100.1707 259.9367 14.79930394 14746
KUIPER-00615            
1 69774U 26151M   26280.09817727  .00006407  00000+0  86783-3 0  9998
2 69774  51.9006 160.7349 0000939  76.9092 283.1975 14.79971058 14562
KUIPER-00616            
1 69775U 26151N   26281.02603730  .00001786  00000+0  26331-3 0  9998
2 69775  51.8993 141.7010 0001050 109.2485 250.8591 14.79930269 14904
KUIPER-00617            
1 69776U 26151P   26281.02065830  .00001923  00000+0  28111-3 0  9993
2 69776  51.8993 146.7211 0000743  98.3443 261.7604 14.79934902 14839
KUIPER-00619            
1 69777U 26151Q   26281.16668980  .00012760  00000+0  17002-2 0  9991
2 69777  51.9003 148.6308 0000830  79.8012  83.3149 14.79917337  4951
KUIPER-00621            
1 69778U 26151R   26280.86332429  .00000198  00000+0  54918-4 0  9995
2 69778  51.8995 152.4119 0000789 105.9427 254.1623 14.79931953 14741
KUIPER-00622            
1 69779U 26151S   26281.01903069  .00001176  00000+0  19769-3 0  9999
2 69779  51.9000 156.1081 0001795 106.5878 253.5280 14.76523034 14706
KUIPER-00623            
1 69780U 26151T   26281.06321941  .00000091  00000+0  40985-4 0  9999
2 69780  51.8975 154.0359 0001160 117.0385 243.0696 14.79932741 14739
KUIPER-00626            
1 69781U 26151U   26281.01795638  .00001824  00000+0  26819-3 0  9997
2 69781  51.8972 149.2050 0000924 108.0353 252.0710 14.79934335 14809
KUIPER-00627            
1 69782U 26151V   26280.92206411 -.00000034  00000+0  24520-4 0  9994
2 69782  51.9004 144.6609 0001101 119.1503 240.9570 14.79931982 14854
KUIPER-00629            
1 69783U 26151W   26280.93963220 -.00000091  00000+0  17110-4 0  9994
2 69783  51.9004 159.5176 0001069 108.8491 251.2587 14.79931761 14659
KUIPER-00631            
1 69784U 26151X   26280.95652515 -.00000684  00000+0 -60707-4 0  9998
2 69784  51.9006 159.5014 0000972 102.5089 257.5982 14.79931291 14655
KUIPER-00634            
1 69785U 26151Y   26281.04632877  .00001931  00000+0  28218-3 0  9993
2 69785  51.8991 154.1084 0000928 105.7860 254.3205 14.79940614 14730
KUIPER-00639            
1 69786U 26151Z   26281.02332491  .00004195  00000+0  57887-3 0  9990
2 69786  51.9025 144.1919 0001615 102.9699 257.1444 14.79937568 14874
KUIPER-00641            
1 69787U 26151AA  26281.00377454  .00000105  00000+0  42835-4 0  9992
2 69787  51.8996 146.8016 0001810 155.8834 204.2213 14.79931609 14836
KUIPER-00644            
1 69788U 26151AB  26281.02879384  .00008007  00000+0  10781-2 0  9996
2 69788  51.8978 139.1874 0001660  98.1138 262.0013 14.79931922 14932
KUIPER-00646            
1 69789U 26151AC  26280.83496404 -.00000253  00000+0 -42113-5 0  9997
2 69789  51.8977 147.6297 0000824 101.0147 259.0908 14.79930472 14804
KUIPER-00647            
1 69790U 26151AD  26281.12151256  .00214857  00000+0  28559-1 0  9994
2 69790  51.8993 146.2223 0001443  71.0206 289.0911 14.78058582 14852
KUIPER-00662            
1 69791U 26151AE  26280.85522683 -.00000436  00000+0 -28134-4 0  9990
2 69791  51.9011 159.9481 0000978 104.2672 255.8399 14.79927506 14639
