EUTELSAT 174A           
1 28924U 05052A   26275.67442912  .00000003  00000+0  00000+0 0  9995
2 28924   4.4849  75.1291 0006192 118.4513 234.6136  1.00270932 53403
EUTELSAT 33F            
1 29270U 06032A   26275.93644284  .00000147  00000+0  00000+0 0  9993
2 29270   1.9332  80.8549 0003443 112.6186 188.4098  1.00269990 48380
EUTELSAT HOTBIRD 13C    
1 33459U 08065A   26275.88355302 -.00000290  00000+0  00000+0 0  9999
2 33459   3.2208  77.8136 0003902 123.9772  77.6246  1.00271379 48428
EUTELSAT 36B            
1 36101U 09065A   26275.92360235  .00000104  00000+0  00000+0 0  9996
2 36101   0.7567  80.9921 0005875 113.8799 199.7690  1.00272211 61789
EUTELSAT KA-SAT 9A      
1 37258U 10069A   26275.82399233  .00000053  00000+0  00000+0 0  9998
2 37258   0.0769 354.8040 0005163 169.4770 152.9312  1.00271619 45089
EUTELSAT 7 WEST A       
1 37816U 11051A   26275.39310227 -.00000067  00000+0  00000+0 0  9994
2 37816   0.0697 342.0478 0006562 206.5358 316.7611  1.00270777 54954
EUTELSAT 16A            
1 37836U 11057A   26275.94836456 -.00000001  00000+0  00000+0 0  9998
2 37836   0.1371  69.5876 0005616 117.5320 173.4594  1.00022596  8410
EUTELSAT 21B            
1 38992U 12062B   26275.75517868  .00000122  00000+0  00000+0 0  9994
2 38992   0.0697   4.0348 0002895 181.1264 119.7811  1.00272688 50907
EUTELSAT 70B            
1 39020U 12069A   26275.84086538 -.00000052  00000+0  00000+0 0  9992
2 39020   0.0653 356.0161 0003727 195.3750 193.3969  1.00271159 50585
EUTELSAT 117 WEST A     
1 39122U 13012A   26275.59669292 -.00000020  00000+0  00000+0 0  9995
2 39122   0.0417  39.5476 0002789 154.4678 275.3296  1.00268202 49510
EUTELSAT 7B             
1 39163U 13022A   26275.75413868  .00000096  00000+0  00000+0 0  9997
2 39163   0.0681   6.7973 0003069 107.7622 184.4141  1.00272201 49027
EXPRESS-AT1             
1 39612U 14010A   26275.98078969 -.00000135  00000+0  00000+0 0  9993
2 39612   0.5278  84.1059 0004850  94.3709 264.2855  1.00314204 45894
EXPRESS-AT2             
1 39613U 14010B   26275.54821778  .00000000  00000+0  00000+0 0  9990
2 39613   0.0181 189.4323 0000171 310.2374 124.9511  1.00270076 45570
EUTELSAT 3B             
1 39773U 14030A   26275.82286565  .00000011  00000+0  00000+0 0  9991
2 39773   0.0646 357.4586 0004334 194.6557 118.7776  1.00270203 45142
EUTELSAT 115 WEST B     
1 40425U 15010B   26275.61357505 -.00000033  00000+0  00000+0 0  9991
2 40425   0.0062  19.8392 0000394  80.1594  17.3413  1.00272160 42464
EUTELSAT 8 WEST B       
1 40875U 15039B   26275.39292894 -.00000072  00000+0  00000+0 0  9998
2 40875   0.0674   3.2913 0003601 187.3903 313.8963  1.00271769 40732
EUTELSAT 9B             
1 41310U 16005A   26275.82399233  .00000053  00000+0  00000+0 0  9998
2 41310   0.0546  59.1384 0003354 166.4908  91.5641  1.00270065 39194
EUTELSAT 65 WEST A      
1 41382U 16014A   26275.88060634 -.00000285  00000+0  00000+0 0  9991
2 41382   0.0819 305.5989 0002315 251.0186  66.8293  1.00270903 38604
EUTELSAT 117 WEST B     
1 41589U 16038B   26275.50564050 -.00000019  00000+0  00000+0 0  9991
2 41589   0.0171  43.1146 0000395  42.1318 351.0149  1.00271405 37736
EUTELSAT 172B           
1 42741U 17029B   26275.71375183 -.00000013  00000+0  00000+0 0  9997
2 42741   0.0266 136.9056 0000210 150.7422 152.7654  1.00272698 34820
EUTELSAT 7C             
1 44334U 19034B   26275.53842441  .00000042  00000+0  00000+0 0  9992
2 44334   0.0668 183.1083 0003343   1.8680  27.1354  1.00274431  7911
EUTELSAT 5 WEST B       
1 44624U 19067A   26275.89247972 -.00000051  00000+0  00000+0 0  9998
2 44624   0.0646   2.5643 0003239 193.7259 131.6295  1.00271613 25501
EUTELSAT KONNECT        
1 45027U 20005B   26275.24211427  .00000044  00000+0  00000+0 0  9996
2 45027   0.0679  96.2942 0001811 140.8159 228.2574  1.00268965 25412
EUTELSAT QUANTUM        
1 49056U 21069B   26275.76037870  .00000118  00000+0  00000+0 0  9990
2 49056   0.0042 166.6114 0002457  31.9717 134.3469  1.00270076 19006
EUTELSAT KONNECT VHTS   
1 53765U 22110A   26275.32376954  .00000011  00000+0  00000+0 0  9993
2 53765   0.0547 102.4149 0002427  73.1080 314.7999  1.00268408  7917
EUTELSAT HOTBIRD 13F    
1 54048U 22134A   26275.75353200  .00000079  00000+0  00000+0 0  9994
2 54048   0.0572 286.5368 0001987  64.5181 304.6992  1.00271778 14455
EUTELSAT HOTBIRD 13G    
1 54225U 22146A   26275.24211427  .00000081  00000+0  00000+0 0  9995
2 54225   0.0464 234.4841 0002009 313.8619 282.7958  1.00271426  8532
EUTELSAT 10B            
1 54259U 22157A   26275.82416566  .00000060  00000+0  00000+0 0  9996
2 54259   0.0566  97.7104 0001192  28.2984 192.2806  1.00270439 14108
EUTELSAT 36D            
1 59346U 24059A   26275.06850512  .00000151  00000+0  00000+0 0  9991
2 59346   0.0155 204.9173 0000461  80.7891 145.6385  1.00270886  9216
