KUIPER-00008            
1 63724U 25088A   26271.25799652  .00000082  00000+0  39801-4 0  9992
2 63724  51.8993 272.2496 0000432  34.4339 325.6651 14.79935476 78048
KUIPER-00009            
1 63725U 25088B   26271.48207059  .00003402  00000+0  23601-3 0  9992
2 63725  51.9016 277.0063 0000680  15.7326 344.3669 15.08133336 77990
KUIPER-00010            
1 63726U 25088C   26271.36470072  .00000714  00000+0  12269-3 0  9998
2 63726  51.9011 266.8927 0000588  46.4732 313.6280 14.79937050 77743
KUIPER-00011            
1 63727U 25088D   26271.32286155 -.00000023  00000+0  26033-4 0  9991
2 63727  51.9001 274.6180 0000486  52.8247 307.2760 14.79925984 77767
KUIPER-00012            
1 63728U 25088E   26271.44032345  .00000664  00000+0  11615-3 0  9994
2 63728  51.9016 259.0386 0000784  75.7097 284.3952 14.79922230 77946
KUIPER-00013            
1 63729U 25088F   26271.50655489 -.00000692  00000+0 -61743-4 0  9993
2 63729  51.9014 291.2666 0000554  98.7189 261.3836 14.79927757 77604
KUIPER-00014            
1 63730U 25088G   26271.33772558 -.00000381  00000+0 -20956-4 0  9999
2 63730  51.9028 291.9601 0000553  54.0533 306.0481 14.79924851 77395
KUIPER-00015            
1 63731U 25088H   26271.29317510  .00000486  00000+0  92760-4 0  9994
2 63731  51.9000 302.1982 0000567  50.7675 309.3338 14.79929569 77701
KUIPER-00016            
1 63732U 25088J   26271.26751143  .00000071  00000+0  38289-4 0  9992
2 63732  51.8973 294.7687 0000563  75.4241 284.6784 14.79929014 77342
KUIPER-00018            
1 63733U 25088K   26271.31206617  .00000566  00000+0  10323-3 0  9997
2 63733  51.9032 284.6247 0000453  64.0095 296.0914 14.79923437 77490
KUIPER-00019            
1 63734U 25088L   26271.33870382  .00000811  00000+0  13537-3 0  9999
2 63734  51.9010 283.2483 0000538  20.0425 340.0558 14.79947009 77515
KUIPER-00020            
1 63735U 25088M   26271.24183842 -.00000854  00000+0 -83102-4 0  9993
2 63735  51.9019 287.4286 0000594  57.7115 302.3905 14.79923424 77654
KUIPER-00021            
1 63736U 25088N   26271.34311709  .00000521  00000+0  97346-4 0  9994
2 63736  51.9017 286.9270 0000461  82.3572 277.7443 14.79917307 77503
KUIPER-00023            
1 63737U 25088P   26271.50924774 -.00001348  00000+0 -14788-3 0  9993
2 63737  51.9015 288.6861 0000571  57.4560 302.6458 14.79926475 77790
KUIPER-00024            
1 63738U 25088Q   26271.52274657  .00000571  00000+0  10391-3 0  9995
2 63738  51.9030 276.2416 0000572  49.5351 310.5661 14.79935122 78095
KUIPER-00025            
1 63739U 25088R   26271.34583232  .00001066  00000+0  16876-3 0  9992
2 63739  51.9037 284.5048 0000472  64.7534 295.3478 14.79933641 77827
KUIPER-00027            
1 63740U 25088S   26271.45250223  .00000935  00000+0  15163-3 0  9999
2 63740  51.9015 278.9887 0000486  80.9373 279.1645 14.79929817 77645
KUIPER-00028            
1 63741U 25088T   26271.42144384 -.00000510  00000+0 -37939-4 0  9994
2 63741  51.8988 276.5666 0000447  36.0706 324.0287 14.79927266 78089
KUIPER-00029            
1 63742U 25088U   26271.32992105 -.00000428  00000+0 -27105-4 0  9998
2 63742  51.9027 275.6699 0000630  14.8788 345.2193 14.79926073 77613
KUIPER-00030            
1 63743U 25088V   26271.36880317 -.00000693  00000+0 -61896-4 0  9993
2 63743  51.9022 294.3193 0000439  62.7811 297.3196 14.79929996 77642
KUIPER-00031            
1 63744U 25088W   26271.41875464 -.00000226  00000+0 -58425-6 0  9995
2 63744  51.9001 279.1192 0000451  33.8630 326.2361 14.79929088 77572
KUIPER-00032            
1 63745U 25088X   26271.30555107  .00008999  00000+0  21122-3 0  9997
2 63745  51.8648 120.1546 0005058 121.3230 238.8255 15.42807269 80777
KUIPER-00033            
1 63746U 25088Y   26271.38639074 -.00000199  00000+0  28745-5 0  9997
2 63746  51.9001 309.2609 0000417  53.0257 307.0743 14.79927904 77636
KUIPER-00034            
1 63747U 25088Z   26271.49436996  .00000533  00000+0  98871-4 0  9995
2 63747  51.9015 271.3218 0000525  71.8754 288.2266 14.79922672 77858
KUIPER-00035            
1 63748U 25088AA  26271.33234655 -.00000221  00000+0 -37857-7 0  9993
2 63748  51.8998 297.0009 0000736  85.5953 274.5094 14.79929828 77530
KUIPER-00037            
1 63749U 25088AB  26271.25773789 -.00000244  00000+0 -30611-5 0  9995
2 63749  51.9012 296.1932 0000401  60.6753 299.4249 14.79926570 78322
KUIPER-00038            
1 63750U 25088AC  26271.04463276  .00000686  00000+0  11897-3 0  9992
2 63750  51.9016 283.3093 0000636  96.3310 263.7725 14.79922813 77484
KUIPER-00039            
1 64500U 25134A   26271.55745191  .00001940  00000+0  28337-3 0  9994
2 64500  51.9019  56.0376 0000538 116.6924 243.4094 14.79929648 70118
KUIPER-00040            
1 64501U 25134B   26271.58043652  .00000026  00000+0  32384-4 0  9993
2 64501  51.8983  65.9914 0000849 127.0265 233.0775 14.79927520 69974
KUIPER-00041            
1 64502U 25134C   26271.61149312  .00002806  00000+0  39704-3 0  9998
2 64502  51.8972  68.2474 0000537 117.9996 242.1021 14.79922612 69942
KUIPER-00042            
1 64503U 25134D   26271.58311917  .00000137  00000+0  46983-4 0  9990
2 64503  51.8956  63.3480 0000647 112.6529 247.4502 14.79925328 70013
KUIPER-00043            
1 64504U 25134E   26271.59120877 -.00000558  00000+0 -44210-4 0  9995
2 64504  51.9019  55.8317 0000582 122.7960 237.3059 14.79927170 70123
KUIPER-00044            
1 64505U 25134F   26271.44266823  .00001739  00000+0  25702-3 0  9996
2 64505  51.8989  68.9752 0000565 115.0232 245.0789 14.79929953 69928
KUIPER-00046            
1 64506U 25134G   26271.61417659  .00001725  00000+0  25519-3 0  9992
2 64506  51.8973  65.6865 0000482 113.0109 247.0904 14.79928592 69985
KUIPER-00047            
1 64507U 25134H   26271.54254882 -.00002584  00000+0 -31003-3 0  9993
2 64507  51.8952  38.5308 0000025  69.8787 290.2178 14.79942768 70354
KUIPER-00048            
1 64508U 25134J   26271.57631440 -.00000188  00000+0  43486-5 0  9993
2 64508  51.8995  38.3956 0000405 117.9881 242.1122 14.79930157 70366
KUIPER-00049            
1 64509U 25134K   26271.59658352  .00002071  00000+0  30053-3 0  9993
2 64509  51.8992  50.7784 0000403 138.4305 221.6688 14.79932731 70198
KUIPER-00050            
1 64510U 25134L   26271.61539702  .00002218  00000+0  31953-3 0  9998
2 64510  51.9012  33.2166 0000320 138.0796 222.0191 14.79967137 70442
KUIPER-00051            
1 64511U 25134M   26271.57261272  .00001832  00000+0  26923-3 0  9990
2 64511  51.9004  49.5831 0000419 129.8624 230.2375 14.79934652 70205
KUIPER-00053            
1 64513U 25134P   26271.56972000  .00001589  00000+0  22821-3 0  9991
2 64513  51.9001  43.8999 0002256 150.9654 209.1435 14.81663766 70283
KUIPER-00054            
1 64514U 25134Q   26271.57361429  .00000204  00000+0  55807-4 0  9994
2 64514  51.8986  40.8806 0000237 118.3679 241.7308 14.79929729 70328
KUIPER-00055            
1 64515U 25134R   26271.52353803  .00004900  00000+0  67100-3 0  9992
2 64515  51.9003 353.7585 0000491  51.4274 308.6732 14.79947647 70985
KUIPER-00056            
1 64516U 25134S   26271.60200435  .00000710  00000+0  12219-3 0  9990
2 64516  51.9000  45.8765 0000430 123.2409 236.8594 14.79927554 70267
KUIPER-00057            
1 64517U 25134T   26271.59390169  .00000962  00000+0  15516-3 0  9995
2 64517  51.8998  53.3233 0000484 124.9492 235.1516 14.79927953 70153
KUIPER-00058            
1 64518U 25134U   26271.56552679  .00002139  00000+0  30939-3 0  9993
2 64518  51.9016  48.4301 0000285 116.2068 243.8924 14.79937389 70220
KUIPER-00059            
1 64519U 25134V   26271.57092509 -.00000773  00000+0 -72431-4 0  9994
2 64519  51.8989  43.4413 0000384 115.0100 245.0902 14.79926009 70296
KUIPER-00060            
1 64520U 25134W   26271.60470030  .00003314  00000+0  46344-3 0  9994
2 64520  51.9029  43.3734 0000489 119.2948 240.8063 14.79936917 70280
KUIPER-00061            
1 64521U 25134X   26271.56282274  .00002197  00000+0  31710-3 0  9990
2 64521  51.9006  50.9969 0000548 129.5273 230.5738 14.79923964 70172
KUIPER-00062            
1 64522U 25134Y   26271.56013504  .00002168  00000+0  31325-3 0  9999
2 64522  51.8947  53.4496 0000436 105.6514 254.4497 14.79931580 70156
KUIPER-00063            
1 64523U 25134Z   26270.87676701  .00004366  00000+0  60146-3 0  9992
2 64523  51.9014  64.0755 0000760 126.8600 233.2432 14.79922702 69945
KUIPER-00064            
1 64524U 25134AA  26270.94698074  .00002116  00000+0  30653-3 0  9999
2 64524  51.9022  61.1918 0000832 128.4455 231.6582 14.79932422 69993
KUIPER-00065            
1 64525U 25134AB  26271.14419195 -.00000234  00000+0 -17187-5 0  9998
2 64525  51.9028  65.4959 0000581 117.2447 242.8575 14.79927469 69935
KUIPER-00066            
1 64526U 25134AC  26271.44792832 -.00000537  00000+0 -41484-4 0  9996
2 64526  51.9034   1.4199 0000381  90.7585 269.3421 14.79926889 70879
KUIPER-00069            
1 64816U 25151A   26271.23610026  .00001668  00000+0  24769-3 0  9998
2 64816  51.9000 104.9947 0000813 111.6541 248.4508 14.79933625 66751
KUIPER-00070            
1 64817U 25151B   26271.04029745  .00001954  00000+0  28524-3 0  9991
2 64817  51.8983 130.7583 0001211 101.3822 258.7276 14.79933140 66382
KUIPER-00071            
1 64818U 25151C   26271.31311185  .00001822  00000+0  26793-3 0  9994
2 64818  51.8989 127.0994 0000737 104.6273 255.4771 14.79933930 65270
KUIPER-00072            
1 64819U 25151D   26270.82820355  .00000492  00000+0  93571-4 0  9995
2 64819  51.8964 109.1636 0000758  99.5388 260.5660 14.79920305 65489
KUIPER-00073            
1 64820U 25151E   26271.00923565 -.00000223  00000+0 -28704-6 0  9997
2 64820  51.8967 128.4213 0001309  96.0671 264.0441 14.79923852 66419
KUIPER-00075            
1 64822U 25151G   26271.42347074  .00014310  00000+0  37596-3 0  9996
2 64822  51.8633 313.5765 0002524 279.2475  80.8227 15.38854352 67698
KUIPER-00076            
1 64823U 25151H   26271.02002589  .00001901  00000+0  27837-3 0  9991
2 64823  51.8988 118.3964 0000846 108.0449 252.0606 14.79929463 65376
KUIPER-00077            
1 64824U 25151J   26271.28474619  .00000772  00000+0  13033-3 0  9995
2 64824  51.9008 122.2490 0001117 104.4195 255.6891 14.79934779 65347
KUIPER-00078            
1 64825U 25151K   26270.78096678  .00001920  00000+0  28077-3 0  9995
2 64825  51.8971 121.9463 0001050 108.1942 251.9135 14.79935058 65306
KUIPER-00079            
1 64826U 25151L   26271.01191877  .00001869  00000+0  27406-3 0  9997
2 64826  51.8971 125.8795 0001188 103.7664 256.3430 14.79937433 66466
KUIPER-00080            
1 64827U 25151M   26270.97815219  .00001687  00000+0  25026-3 0  9999
2 64827  51.8983 126.0438 0000713 112.7475 247.3563 14.79919151 65261
KUIPER-00082            
1 64828U 25151N   26270.82282278  .00000491  00000+0  93383-4 0  9991
2 64828  51.9007 114.2928 0000950 105.7874 254.3194 14.79933706 65418
KUIPER-00083            
1 64829U 25151P   26271.28744609  .00001746  00000+0  25801-3 0  9997
2 64829  51.8991 119.7191 0001120 107.1917 252.9168 14.79930067 66565
KUIPER-00084            
1 64830U 25151Q   26271.00653038  .00001943  00000+0  28376-3 0  9993
2 64830  51.8991 130.9472 0000751 111.6591 248.4452 14.79935973 65196
KUIPER-00085            
1 64831U 25151R   26271.53189887  .00001498  00000+0  22549-3 0  9999
2 64831  51.9014 111.2171 0000883 105.4120 254.6940 14.79929423 65517
KUIPER-00086            
1 64832U 25151S   26271.31851643  .00001894  00000+0  27738-3 0  9997
2 64832  51.8989 122.0914 0000956 113.4096 246.6967 14.79931279 65348
KUIPER-00087            
1 64833U 25151T   26271.26985166  .00000640  00000+0  11289-3 0  9992
2 64833  51.8978 104.7592 0000714 110.7272 249.3767 14.79937518 65579
KUIPER-00089            
1 64834U 25151U   26271.26444872 -.00002750  00000+0 -33188-3 0  9995
2 64834  51.8991 109.8099 0000520 101.8831 258.2190 14.79930202 65516
KUIPER-00090            
1 64835U 25151V   26270.79985037  .00001761  00000+0  26000-3 0  9990
2 64835  51.8965 104.3562 0000826 118.9262 241.1783 14.79924244 65540
KUIPER-00091            
1 64836U 25151W   26271.53728611  .00001611  00000+0  24024-3 0  9995
2 64836  51.8992 106.1263 0000994 119.4637 240.6425 14.79930668 65585
KUIPER-00092            
1 64837U 25151X   26270.98895360 -.00000438  00000+0 -28401-4 0  9992
2 64837  51.8993 116.0387 0000796 106.2370 253.8680 14.79928250 66610
KUIPER-00093            
1 64838U 25151Y   26270.98625440 -.00000265  00000+0 -57746-5 0  9996
2 64838  51.8992 118.5203 0000957 111.2918 248.8146 14.79928105 65368
KUIPER-00094            
1 64839U 25151Z   26270.76468605  .00002411  00000+0  34515-3 0  9991
2 64839  51.9030  74.6153 0000931 124.6644 235.4406 14.79934447 65968
KUIPER-00081            
1 65132U 25171A   26271.37899599 -.00000245  00000+0 -31512-5 0  9999
2 65132  51.9001 331.7782 0000509 127.1033 232.9976 14.79929099 63058
KUIPER-00088            
1 65133U 25171B   26271.49518721  .00000656  00000+0  11503-3 0  9998
2 65133  51.9009 348.7662 0000537  97.9484 262.1539 14.79933415 62828
KUIPER-00095            
1 65134U 25171C   26271.44924160  .00000537  00000+0  99427-4 0  9992
2 65134  51.9002 329.0058 0000287  89.2270 270.8726 14.79928067 63093
KUIPER-00096            
1 65135U 25171D   26271.40197787  .00000146  00000+0  48110-4 0  9995
2 65135  51.9009 341.6732 0000364  77.0783 283.0220 14.79929122 62918
KUIPER-00097            
1 65136U 25171E   26271.39930105  .00002085  00000+0  30241-3 0  9992
2 65136  51.9029 344.3562 0000383  88.6814 271.4192 14.79936945 62860
KUIPER-00098            
1 65137U 25171F   26271.39658057  .00002133  00000+0  30876-3 0  9994
2 65137  51.9017 346.7262 0000581  69.4596 290.6428 14.79929552 62181
KUIPER-00099            
1 65138U 25171G   26271.44114524  .00000824  00000+0  13705-3 0  9994
2 65138  51.9027 336.5462 0000297  16.6306 343.4666 14.79930887 62981
KUIPER-00100            
1 65139U 25171H   26271.47759701  .00002189  00000+0  31608-3 0  9998
2 65139  51.9005 333.8481 0000325  50.8668 309.2324 14.79935672 63026
KUIPER-00102            
1 65140U 25171J   26271.47489461  .00002039  00000+0  29641-3 0  9991
2 65140  51.8985 336.3259 0000186  87.2650 272.8333 14.79935618 62984
KUIPER-00103            
1 65141U 25171K   26271.42226713  .00002265  00000+0  32601-3 0  9997
2 65141  51.9002 354.0625 0000280  79.6232 280.4762 14.79928720 62736
KUIPER-00104            
1 65142U 25171L   26271.50327415  .00001994  00000+0  29040-3 0  9999
2 65142  51.9017 341.2257 0000304  62.8549 297.2445 14.79936816 62924
KUIPER-00105            
1 65143U 25171M   26271.52896591  .00001744  00000+0  25772-3 0  9999
2 65143  51.9000 348.7004 0000205  61.3449 298.7534 14.79930493 62821
KUIPER-00106            
1 65144U 25171N   26271.44215063  .00000832  00000+0  13816-3 0  9993
2 65144  51.9022 327.8552 0000419  77.2004 282.9005 14.79932000 63119
KUIPER-00107            
1 65145U 25171P   26271.41277020  .00002050  00000+0  29784-3 0  9997
2 65145  51.9015 331.6592 0000542  79.1616 280.9407 14.79939138 63052
KUIPER-00108            
1 65146U 25171Q   26271.50059126  .00000571  00000+0  10385-3 0  9996
2 65146  51.9020 343.8192 0000389  85.2822 274.8185 14.79930191 62892
KUIPER-00109            
1 65147U 25171R   26271.40468072  .00000257  00000+0  62780-4 0  9998
2 65147  51.9021 339.1852 0000837  86.9973 273.1085 14.79925863 62945
KUIPER-00110            
1 65148U 25171S   26271.42496842 -.00000096  00000+0  16400-4 0  9997
2 65148  51.9001 351.6384 0000245  85.9086 274.1904 14.79929083 62769
KUIPER-00111            
1 65149U 25171T   26271.45331610  .00002164  00000+0  31270-3 0  9990
2 65149  51.8980 356.3707 0000247 104.3021 255.7969 14.79934601 62705
KUIPER-00112            
1 65150U 25171U   26271.43844729  .00000510  00000+0  95904-4 0  9998
2 65150  51.9042 339.0799 0000408 100.7042 259.3967 14.79925708 62940
KUIPER-00114            
1 65151U 25171V   26271.51816305  .00001881  00000+0  27565-3 0  9996
2 65151  51.9005 358.6836 0000197  53.6345 306.4635 14.79933820 62676
KUIPER-00115            
1 65152U 25171W   26271.52626052  .00000239  00000+0  60395-4 0  9991
2 65152  51.8993 351.1568 0000263  82.4981 277.6011 14.79929387 62784
KUIPER-00116            
1 65153U 25171X   26271.48710541 -.00000596  00000+0 -49123-4 0  9998
2 65153  51.9008 356.3612 0000633 118.3326 241.7700 14.79928863 62700
KUIPER-00118            
1 65154U 25171Y   26271.55192804 -.00003697  00000+0 -45612-3 0  9996
2 65154  51.8987 358.5227 0000234  54.6471 305.4513 14.79936975 62682
KUIPER-00119            
1 65155U 25171Z   26271.49788902  .00002201  00000+0  31759-3 0  9995
2 65155  51.9017 346.3653 0000472  87.8387 272.2630 14.79933905 62843
KUIPER-00120            
1 65762U 25217A   26271.59964774  .00000836  00000+0  13863-3 0  9992
2 65762  51.8977 235.7775 0000891  68.7127 291.3931 14.79930483 54780
KUIPER-00132            
1 65763U 25217B   26271.24248902  .00016153  00000+0  41252-3 0  9995
2 65763  51.8503  97.8627 0005078 332.1787  27.8929 15.39615718 56667
KUIPER-00133            
1 65764U 25217C   26271.29578086  .00002110  00000+0  30570-3 0  9999
2 65764  51.9032 237.2648 0000726  71.1127 288.9914 14.79933405 54742
KUIPER-00139            
1 65765U 25217D   26271.53340972  .00001434  00000+0  21709-3 0  9990
2 65765  51.8986 203.6332 0001096  73.8682 286.2401 14.79931958 55231
KUIPER-00142            
1 65766U 25217E   26271.55100103 -.00000052  00000+0  22237-4 0  9997
2 65766  51.8987 218.5221 0000884  72.3393 287.7666 14.79928109 55022
KUIPER-00145            
1 65767U 25217F   26271.27818456 -.00000651  00000+0 -56405-4 0  9994
2 65767  51.8993 222.2559 0000879  69.9059 290.1998 14.79925227 54945
KUIPER-00147            
1 65768U 25217G   26271.57925105  .00002251  00000+0  32450-3 0  9997
2 65768  51.8980 223.3958 0000944  63.9609 296.1450 14.79892415 54957
KUIPER-00148            
1 65769U 25217H   26271.53071677  .00001561  00000+0  23378-3 0  9992
2 65769  51.9037 206.1692 0000799  86.5438 273.5615 14.79932398 55199
KUIPER-00150            
1 65770U 25217J   26271.16341046  .00002096  00000+0  30392-3 0  9991
2 65770  51.9009 235.2865 0000799  81.7048 278.4005 14.79932194 54751
KUIPER-00151            
1 65771U 25217K   26271.30654710  .00002189  00000+0  31610-3 0  9990
2 65771  51.9003 227.1526 0000865  66.0556 294.0497 14.79930657 54889
KUIPER-00152            
1 65772U 25217L   26271.28627301  .00002353  00000+0  33755-3 0  9999
2 65772  51.9003 214.7211 0001002  64.9123 295.1943 14.79934936 55056
KUIPER-00153            
1 65773U 25217M   26271.29167341  .00002278  00000+0  32777-3 0  9993
2 65773  51.9014 209.7871 0000998  90.6721 269.4356 14.79927873 55120
KUIPER-00155            
1 65774U 25217N   26271.05121691  .00005631  00000+0  76718-3 0  9995
2 65774  51.9025 183.3087 0001788  92.3039 267.8128 14.79925860 55479
KUIPER-00156            
1 65775U 25217P   26271.52803057  .00000220  00000+0  57824-4 0  9998
2 65775  51.9022 208.7237 0000773  78.8096 281.2954 14.79929864 55151
KUIPER-00165            
1 65778U 25217S   26271.24711624  .00000428  00000+0  85167-4 0  9999
2 65778  51.8996 219.8968 0000889  98.8522 261.2541 14.79932373 54979
KUIPER-00166            
1 65779U 25217T   26271.22683625 -.00000882  00000+0 -86683-4 0  9997
2 65779  51.9013 207.5504 0000952  93.5141 266.5930 14.79924271 55149
KUIPER-00167            
1 65780U 25217U   26271.16877940  .00002306  00000+0  33138-3 0  9994
2 65780  51.8952 230.1191 0000989  63.8176 296.2888 14.79928960 54829
KUIPER-00168            
1 65781U 25217V   26271.25519127  .00002292  00000+0  32962-3 0  9993
2 65781  51.8997 212.3662 0001015  76.2827 283.8248 14.79929503 55081
KUIPER-00169            
1 65782U 25217W   26271.24981261  .00001481  00000+0  22326-3 0  9997
2 65782  51.9003 217.4040 0000749  82.5215 277.5832 14.79934651 55013
KUIPER-00170            
1 65783U 25217X   26271.58206119  .00000947  00000+0  15323-3 0  9992
2 65783  51.8977 220.8747 0000817  77.1192 282.9862 14.79931044 54997
KUIPER-00172            
1 65785U 25217Z   26271.49965251 -.00000586  00000+0 -47889-4 0  9997
2 65785  51.8984 203.7727 0001399  75.2802 284.8315 14.79930487 55229
KUIPER-00173            
1 65786U 25217AA  26271.21603133 -.00002207  00000+0 -26065-3 0  9990
2 65786  51.9008 217.5399 0000945  64.2664 295.8396 14.79929511 55009
KUIPER-00174            
1 65787U 25217AB  26271.22142559  .00000847  00000+0  14011-3 0  9996
2 65787  51.9034 212.5854 0001002  76.1834 283.9239 14.79914035 55072
KUIPER-00176            
1 65788U 25217AC  26271.27278870 -.00000368  00000+0 -19210-4 0  9995
2 65788  51.9016 227.2728 0000977  73.1894 286.9176 14.79927622 54875
KUIPER-00101            
1 65947U 25228A   26271.48740059  .00002665  00000+0  37868-3 0  9998
2 65947  51.9004 183.7675 0000722  50.7866 309.3161 14.79913271 53265
KUIPER-00113            
1 65948U 25228B   26271.18895342  .00001727  00000+0  25552-3 0  9997
2 65948  51.8982 180.1087 0001092  87.7723 272.3365 14.79924153 53289
KUIPER-00117            
1 65949U 25228C   26271.49014120 -.00000012  00000+0  27416-4 0  9998
2 65949  51.8966 181.2744 0001061  92.4579 267.6505 14.79925044 53296
KUIPER-00121            
1 65950U 25228D   26271.46177372  .00002298  00000+0  33030-3 0  9991
2 65950  51.8994 176.4247 0000991  92.2009 267.9067 14.79933411 53361
KUIPER-00122            
1 65951U 25228E   26271.18086926 -.00000255  00000+0 -44201-5 0  9992
2 65951  51.8988 187.6358 0001043  88.1533 271.9549 14.79925168 53187
KUIPER-00123            
1 65952U 25228F   26271.48474062  .00001272  00000+0  19592-3 0  9999
2 65952  51.8993 186.2980 0000939  81.5775 278.5294 14.79929598 53224
KUIPER-00124            
1 65953U 25228G   26270.20976627  .00001196  00000+0  18592-3 0  9997
2 65953  51.8978 184.4272 0001131  77.9245 282.1844 14.79935392 53140
KUIPER-00125            
1 65954U 25228H   26271.10382746  .00002198  00000+0  31734-3 0  9997
2 65954  51.8995 165.5295 0001116  94.5962 265.5128 14.79924205 53487
KUIPER-00126            
1 65955U 25228J   26271.18357185 -.00000533  00000+0 -40859-4 0  9997
2 65955  51.8989 185.1543 0000972  78.8290 281.2782 14.79925273 53211
KUIPER-00127            
1 65956U 25228K   26271.44489227  .00001448  00000+0  21896-3 0  9993
2 65956  51.9020 176.4818 0001033  81.7207 278.3873 14.79932777 53368
KUIPER-00128            
1 65957U 25228L   26271.15789972  .00000133  00000+0  46524-4 0  9998
2 65957  51.8990 177.8186 0000841  95.0940 265.0119 14.79929233 53319
KUIPER-00129            
1 65958U 25228M   26271.12952065  .00001603  00000+0  23924-3 0  9992
2 65958  51.8984 172.9213 0001217  82.3058 277.8043 14.79928887 53385
KUIPER-00130            
1 65959U 25228N   26271.43071561  .00001406  00000+0  21334-3 0  9994
2 65959  51.9011 174.1385 0000824  86.7366 273.3691 14.79935066 43684
KUIPER-00134            
1 65960U 25228P   26271.58819721  .00016090  00000+0  43325-3 0  9999
2 65960  51.8713  55.4919 0004218 309.4602  50.6011 15.37992148 55052
KUIPER-00135            
1 65961U 25228Q   26271.12683983 -.00000507  00000+0 -37503-4 0  9999
2 65961  51.9011 175.5327 0001019  92.8008 267.3071 14.79924753 53346
KUIPER-00136            
1 65962U 25228R   26271.43338978  .00002388  00000+0  34219-3 0  9992
2 65962  51.8994 171.6209 0001027  78.8170 281.2907 14.79920408 53420
KUIPER-00137            
1 65963U 25228S   26271.09846185  .00002188  00000+0  31598-3 0  9994
2 65963  51.9025 170.6165 0001157  81.5152 278.5942 14.79927266 53418
KUIPER-00138            
1 65964U 25228T   26271.40503021 -.00000436  00000+0 -28143-4 0  9998
2 65964  51.8935 166.6512 0001125  90.0414 270.0677 14.79923437 53496
KUIPER-00140            
1 65965U 25228U   26270.99716469  .00000122  00000+0  45064-4 0  9995
2 65965  51.8995 171.0522 0001305  87.7039 272.4073 14.79929310 53391
KUIPER-00141            
1 65966U 25228V   26271.40774733  .00000820  00000+0  13659-3 0  9990
2 65966  51.9031 164.3166 0000773 100.7909 259.3140 14.79931143 53524
KUIPER-00146            
1 65967U 25228W   26271.10116732 -.00000560  00000+0 -44477-4 0  9993
2 65967  51.9013 168.1832 0001378  94.7244 265.3876 14.79928150 53441
KUIPER-00149            
1 65968U 25228X   26271.00525238  .00000573  00000+0  10415-3 0  9994
2 65968  51.9000 163.4801 0001129  89.8814 270.2277 14.79933157 53504
KUIPER-00154            
1 65969U 25228Y   26271.04170725  .00000245  00000+0  61189-4 0  9997
2 65969  51.9015 160.7986 0000932  98.1330 261.9738 14.79931257 53544
KUIPER-00157            
1 65970U 25228Z   26271.55601296 -.00007970  00000+0 -11141-2 0  9992
2 65970  51.9012 160.9392 0000768  30.3105 329.7900 14.76136508 53582
KUIPER-00144            
1 67133U 25301A   26271.42812851 -.00001404  00000+0 -15520-3 0  9996
2 67133  51.8997 239.1173 0000861  69.2137 290.8917 14.79925211 43891
KUIPER-00164            
1 67134U 25301B   26271.14453738  .00000452  00000+0  88251-4 0  9993
2 67134  51.9037 252.8929 0000636  51.5220 308.5799 14.79934302 43858
KUIPER-00175            
1 67135U 25301C   26271.33222877  .00002206  00000+0  31829-3 0  9990
2 67135  51.8993 234.4925 0000869  53.6037 306.5006 14.79934822 44024
KUIPER-00179            
1 67136U 25301D   26271.41734651  .00002084  00000+0  30233-3 0  9990
2 67136  51.8973 249.1129 0000700  59.7130 300.3902 14.79931394 43934
KUIPER-00181            
1 67137U 25301E   26271.26880714  .00001975  00000+0  28800-3 0  9991
2 67137  51.9010 262.3388 0000733  38.7788 321.3227 14.79936831 43714
KUIPER-00183            
1 67138U 25301F   26271.26740296  .00002254  00000+0  32462-3 0  9992
2 67138  51.9016 232.3498 0000792  64.6731 295.4313 14.79931399 44140
KUIPER-00184            
1 67139U 25301G   26271.32144055  .00001360  00000+0  20736-3 0  9999
2 67139  51.8991 244.5486 0000648  58.8029 301.2997 14.79930926 44081
KUIPER-00186            
1 67140U 25301H   26271.37008596  .00001788  00000+0  26344-3 0  9990
2 67140  51.9010 261.8990 0000679  58.6604 301.4425 14.79932422 43573
KUIPER-00187            
1 67141U 25301J   26271.36737012  .00001805  00000+0  26584-3 0  9998
2 67141  51.9017 264.4398 0000812  92.7355 267.3701 14.79918224 43530
KUIPER-00188            
1 67142U 25301K   26271.09858293 -.00001602  00000+0 -18127-3 0  9995
2 67142  51.8992 233.2130 0000897  57.0515 303.0534 14.79925837 43940
KUIPER-00191            
1 67143U 25301L   26271.47679519  .00001928  00000+0  28187-3 0  9996
2 67143  51.8997 256.4279 0000614  56.9295 303.1727 14.79932995 43686
KUIPER-00196            
1 67144U 25301M   26270.23955968  .00000028  00000+0  32760-4 0  9998
2 67144  51.8936 219.3478 0001002  80.9701 279.1375 14.79927820 44065
KUIPER-00204            
1 67145U 25301N   26271.33761051 -.00001162  00000+0 -12345-3 0  9997
2 67145  51.8988 229.5335 0000969  67.0211 293.0854 14.79923045 44131
KUIPER-00210            
1 67146U 25301P   26271.37532424  .00001873  00000+0  27432-3 0  9992
2 67146  51.8985 256.8200 0000788  41.7848 318.3175 14.79974265 43818
KUIPER-00221            
1 67147U 25301Q   26271.19857127 -.00002358  00000+0 -28035-3 0  9994
2 67147  51.8998 265.1427 0001014  90.3030 269.8049 14.79929644 43511
KUIPER-00232            
1 67148U 25301R   26271.38358685 -.00000362  00000+0 -18523-4 0  9996
2 67148  51.8982 249.3301 0000734  62.9467 297.1570 14.79927682 43745
KUIPER-00241            
1 67149U 25301S   26271.27150071 -.00000067  00000+0  20213-4 0  9994
2 67149  51.9020 259.8532 0000789  61.6754 298.4288 14.79927393 43926
KUIPER-00245            
1 67150U 25301T   26271.26342367  .00001756  00000+0  25932-3 0  9993
2 67150  51.9003 267.3968 0000663  80.9095 279.1942 14.79931424 43483
KUIPER-00246            
1 67151U 25301U   26271.38088857  .00001977  00000+0  28820-3 0  9992
2 67151  51.8991 251.8121 0000713  56.0441 304.0589 14.79933776 43738
KUIPER-00247            
1 67152U 25301V   26271.32413335 -.00000453  00000+0 -30465-4 0  9999
2 67152  51.8956 242.0030 0000728  66.5500 293.5539 14.79927182 43842
KUIPER-00248            
1 67153U 25301W   26271.14044058  .00002195  00000+0  31689-3 0  9993
2 67153  51.8983 225.4637 0000844  73.6917 286.4138 14.79931286 44220
KUIPER-00249            
1 67154U 25301X   26271.39436527  .00002121  00000+0  30711-3 0  9991
2 67154  51.8984 239.2752 0000832  54.0964 306.0075 14.79940238 43882
KUIPER-00250            
1 67155U 25301Y   26271.47947366  .00002176  00000+0  31433-3 0  9991
2 67155  51.8995 253.8503 0000632  69.7324 290.3706 14.79938573 43720
KUIPER-00251            
1 67156U 25301Z   26271.35790598  .00002098  00000+0  30415-3 0  9994
2 67156  51.8996 241.9667 0000750  59.4865 300.6172 14.79934729 44034
KUIPER-00252            
1 67157U 25301AA  26271.22014965  .00002105  00000+0  30506-3 0  9998
2 67157  51.8998 245.0259 0000652  85.4818 274.6219 14.79929938 43797
KUIPER-00261            
1 67158U 25301AB  26271.44571827  .00002936  00000+0  41393-3 0  9996
2 67158  51.8993 254.0927 0002252 142.6317 217.4803 14.79939521 43684
KUIPER-00265            
1 67159U 25301AC  26271.26071854 -.00000399  00000+0 -23403-4 0  9998
2 67159  51.9024 269.8911 0000520  64.8260 295.2756 14.79929087 43481
KUIPER-00159            
1 67764U 26030A   26271.47127970  .00010965  00000+0  14652-2 0  9996
2 67764  51.9042 347.6985 0001239 338.3420  21.7490 14.79929266 35885
KUIPER-00160            
1 67765U 26030B   26271.46612204  .00000430  00000+0  85379-4 0  9997
2 67765  51.8994 328.9683 0000447 141.4591 218.6404 14.79928114 36143
KUIPER-00177            
1 67766U 26030C   26271.54525465  .00002106  00000+0  30514-3 0  9991
2 67766  51.9025  36.0996 0000501 118.2502 241.8511 14.79938510 35214
KUIPER-00178            
1 67767U 26030D   26271.57901922 -.00000246  00000+0 -32449-5 0  9997
2 67767  51.9012  35.9303 0000542 102.0164 258.0859 14.79930572 35227
KUIPER-00180            
1 67768U 26030E   26271.51689681  .00002062  00000+0  29942-3 0  9995
2 67768  51.8974  31.1951 0000280 120.0620 240.0371 14.79926249 35289
KUIPER-00197            
1 67769U 26030F   26271.53845365  .00000752  00000+0  12766-3 0  9991
2 67769  51.8997  11.1193 0000285 126.1067 233.9922 14.79928257 35563
KUIPER-00198            
1 67770U 26030G   26271.55873717  .00000158  00000+0  49732-4 0  9991
2 67770  51.8988  23.5009 0000327 115.9138 244.1858 14.79930496 35391
KUIPER-00199            
1 67771U 26030H   26271.58335648  .00018848  00000+0  16354-2 0  9998
2 67771  51.8954 323.0116 0012484  70.4770  47.8564 14.97013601  5014
KUIPER-00200            
1 67772U 26030J   26271.57491388  .00002684  00000+0  38082-3 0  9996
2 67772  51.8971   8.4725 0000248 100.7203 259.3787 14.79939034 35609
KUIPER-00203            
1 67773U 26030K   26271.60739953  .00000921  00000+0  14976-3 0  9992
2 67773  51.9055  40.9121 0000436 127.7760 232.3242 14.79935878 35150
KUIPER-00205            
1 67774U 26030L   26271.57762596  .00013589  00000+0  18091-2 0  9993
2 67774  51.8986   5.9310 0000511 101.0403 259.0617 14.79903207 35644
KUIPER-00208            
1 67775U 26030M   26271.58171477  .00001930  00000+0  28214-3 0  9993
2 67775  51.8976  33.4055 0000764 140.2964 219.8055 14.79933598 35256
KUIPER-00209            
1 67776U 26030N   26271.55065337  .00002240  00000+0  32265-3 0  9994
2 67776  51.9002  31.1472 0000215  60.8808 299.2176 14.79938171 35282
KUIPER-00213            
1 67777U 26030P   26271.51957505  .00002498  00000+0  35663-3 0  9998
2 67777  51.8971  28.7364 0000451 109.7089 250.3923 14.79927873 35314
KUIPER-00214            
1 67778U 26030Q   26271.55602366 -.00018087  00000+0 -23482-2 0  9993
2 67778  51.9002  26.1166 0000407 148.9474 211.1513 14.79963729 35351
KUIPER-00215            
1 67779U 26030R   26271.53574971  .00000866  00000+0  14253-3 0  9993
2 67779  51.8995  13.5581 0000337 120.9290 239.1705 14.79930463 35533
KUIPER-00218            
1 67780U 26030S   26271.48581125  .00002642  00000+0  37537-3 0  9992
2 67780  51.8992  28.8186 0000426  98.9586 261.1425 14.79933976 35315
KUIPER-00220            
1 67781U 26030T   26271.51277503 -.00000647  00000+0 -55886-4 0  9992
2 67781  51.8976   3.7201 0000357  92.9773 267.1230 14.79927608 35666
KUIPER-00222            
1 67782U 26030U   26271.59251451  .00000070  00000+0  38154-4 0  9992
2 67782  51.8985  23.5067 0000405 131.3904 228.7093 14.79929576 35391
KUIPER-00223            
1 67783U 26030V   26271.49928703 -.00000760  00000+0 -70663-4 0  9992
2 67783  51.9011  16.2324 0000339 108.5015 251.5984 14.79926230 35491
KUIPER-00225            
1 67784U 26030W   26271.56144533  .00001501  00000+0  22590-3 0  9999
2 67784  51.8987  21.1010 0000362  94.5910 265.5094 14.79929330 35428
KUIPER-00226            
1 67785U 26030X   26271.54114578  .00002148  00000+0  31066-3 0  9990
2 67785  51.9028   8.5763 0001102  32.1383 327.9647 14.79935121 35607
KUIPER-00259            
1 67786U 26030Y   26271.52766886 -.00000430  00000+0 -27447-4 0  9997
2 67786  51.8988  21.1523 0000671 108.4294 251.6742 14.79929135 35422
KUIPER-00260            
1 67787U 26030Z   26271.59790696  .00000407  00000+0  82381-4 0  9991
2 67787  51.9021  18.4559 0000341 120.4676 239.6321 14.79930755 35375
KUIPER-00262            
1 67788U 26030AA  26271.56411490  .00002415  00000+0  34565-3 0  9992
2 67788  51.9029  18.5225 0000451 140.2689 219.8306 14.79943085 35464
KUIPER-00266            
1 67789U 26030AB  26271.60058775 -.00004386  00000+0 -54661-3 0  9991
2 67789  51.8991  15.8520 0000362 104.9694 255.1308 14.79939884 35506
KUIPER-00268            
1 67790U 26030AC  26271.50199553  .00002395  00000+0  34305-3 0  9991
2 67790  51.9045  13.8334 0000273 140.2913 219.8069 14.79936930 35520
KUIPER-00270            
1 67791U 26030AD  26271.54653544  .00002406  00000+0  34440-3 0  9994
2 67791  51.8984   3.5791 0000415  83.9072 276.1937 14.79938813 35670
KUIPER-00274            
1 67792U 26030AE  26271.58980679  .00000093  00000+0  41245-4 0  9993
2 67792  51.9043  25.9078 0000297  93.8876 266.2120 14.79927915 35365
KUIPER-00275            
1 67793U 26030AF  26271.54384622  .00002413  00000+0  34540-3 0  9993
2 67793  51.9000   6.1035 0000338 122.4362 237.6633 14.79933628 35637
KUIPER-00276            
1 67794U 26030AG  26271.57221729  .00000027  00000+0  32583-4 0  9990
2 67794  51.8974  10.9515 0000370  55.5718 304.5279 14.79929909 35570
KUIPER-00279            
1 67795U 26030AH  26271.54924267 -.00002976  00000+0 -36154-3 0  9999
2 67795  51.9031   1.1097 0000403 123.6902 236.4099 14.79938224 35700
KUIPER-00131            
1 68573U 26072A   26270.73501817  .00000095  00000+0  41420-4 0  9993
2 68573  51.8975 102.1861 0000913 111.6965 248.4094 14.79929831 26302
KUIPER-00189            
1 68574U 26072B   26271.23878613  .00001569  00000+0  23479-3 0  9991
2 68574  51.8967 102.4326 0000858 110.8391 249.2664 14.79937157 26341
KUIPER-00192            
1 68575U 26072C   26271.48054658  .00000840  00000+0  13919-3 0  9993
2 68575  51.8989  96.3827 0000928 114.2287 245.8772 14.79929084 26457
KUIPER-00193            
1 68576U 26072D   26270.88356473 -.00000048  00000+0  22752-4 0  9994
2 68576  51.9044  89.0738 0001114 133.9554 226.1501 14.79926305 26505
KUIPER-00194            
1 68577U 26072E   26271.24688497  .00000837  00000+0  13885-3 0  9991
2 68577  51.8996  94.9427 0000801 111.7349 248.3698 14.79934349 26453
KUIPER-00229            
1 68578U 26072F   26270.83631145  .00001817  00000+0  26733-3 0  9999
2 68578  51.9002 101.7406 0000726 110.6067 249.4973 14.79935658 26326
KUIPER-00230            
1 68579U 26072G   26271.55388953  .00001327  00000+0  21894-3 0  9995
2 68579  51.9040  45.9109 0001003  99.9823 260.1252 14.76575007 27164
KUIPER-00231            
1 68580U 26072H   26271.60881053  .00003153  00000+0  44256-3 0  9998
2 68580  51.8985  70.8890 0002031 145.5517 214.5578 14.79922034 26811
KUIPER-00234            
1 68581U 26072J   26271.48323508  .00001624  00000+0  24199-3 0  9996
2 68581  51.8979  93.8612 0001216 113.0623 247.0468 14.79934959 26485
KUIPER-00236            
1 68582U 26072K   26271.59927009  .00001751  00000+0  25870-3 0  9993
2 68582  51.9048  48.3620 0001088 109.5040 250.6040 14.79913237 27133
KUIPER-00244            
1 68583U 26072L   26271.46025796  .00001362  00000+0  20765-3 0  9998
2 68583  51.8985  83.9853 0000926 123.2087 236.8965 14.79935904 26620
KUIPER-00253            
1 68584U 26072M   26271.45756592 -.00000694  00000+0 -62061-4 0  9998
2 68584  51.9032  86.5272 0001034 120.9949 239.1115 14.79927687 26588
KUIPER-00254            
1 68585U 26072N   26271.21850230  .00001782  00000+0  26264-3 0  9998
2 68585  51.9018  90.0822 0001032 107.6382 252.4693 14.79934674 26511
KUIPER-00263            
1 68586U 26072P   26270.89704713 -.00000329  00000+0 -14118-4 0  9990
2 68586  51.8986  76.5679 0000598 109.7617 250.3410 14.79926921 26671
KUIPER-00269            
1 68587U 26072Q   26271.50211576  .00001669  00000+0  24787-3 0  9998
2 68587  51.8990  76.2983 0000902 123.1621 236.9428 14.79931817 26732
KUIPER-00272            
1 68588U 26072R   26270.90653270  .00000110  00000+0  43399-4 0  9994
2 68588  51.8965  98.8932 0000958 117.8477 242.2583 14.79923344 26366
KUIPER-00285            
1 68589U 26072S   26271.46836511  .00001474  00000+0  22228-3 0  9999
2 68589  51.9039  76.5339 0001205 100.1986 259.9112 14.79931458 26728
KUIPER-00286            
1 68590U 26072T   26271.60610108  .00002089  00000+0  30307-3 0  9999
2 68590  51.9000  73.3493 0000483  92.0155 268.0863 14.79920943 26785
KUIPER-00289            
1 68591U 26072U   26271.46294554 -.00000326  00000+0 -13723-4 0  9995
2 68591  51.8956  81.4578 0000959 117.0263 243.0797 14.79929727 26659
KUIPER-00290            
1 68592U 26072V   26270.88892732 -.00001825  00000+0 -21047-3 0  9995
2 68592  51.9024  84.0079 0000604 130.2230 229.8785 14.79924805 26572
KUIPER-00293            
1 68593U 26072W   26271.24957455 -.00001165  00000+0 -12382-3 0  9990
2 68593  51.8963  92.3801 0001899  86.9713 273.1467 14.79925877 26488
KUIPER-00294            
1 68594U 26072X   26271.46564627  .00001754  00000+0  25903-3 0  9995
2 68594  51.8984  78.9475 0000623 116.0129 244.0898 14.79937490 26691
KUIPER-00296            
1 68595U 26072Y   26271.58581828  .00002300  00000+0  33060-3 0  9992
2 68595  51.9008  60.9368 0000625 125.0719 235.0302 14.79936875 26954
KUIPER-00297            
1 68596U 26072Z   26271.48593266  .00001203  00000+0  18678-3 0  9990
2 68596  51.8981  91.3369 0001194 124.7254 235.3821 14.79925365 26529
KUIPER-00300            
1 68597U 26072AA  26270.91463213  .00001795  00000+0  26439-3 0  9996
2 68597  51.9012  91.4015 0000742 121.2818 238.8217 14.79930280 26474
KUIPER-00301            
1 68598U 26072AB  26271.56168451  .00001063  00000+0  18167-3 0  9992
2 68598  51.9020  58.2727 0002053 222.7650 137.3152 14.76516016 26984
KUIPER-00304            
1 68599U 26072AC  26271.59083957  .00001444  00000+0  23517-3 0  9991
2 68599  51.8988  60.0875 0000899  29.3388 330.7623 14.76631688 26960
KUIPER-00317            
1 68600U 26072AD  26270.89163125  .00005435  00000+0  74098-3 0  9996
2 68600  51.8953  81.4879 0000561 111.1158 248.9864 14.79954265 26607
KUIPER-00320            
1 68601U 26072AE  26270.88625321  .00001807  00000+0  26602-3 0  9994
2 68601  51.9021  86.5352 0000736 101.4159 258.6886 14.79926231 26530
KUIPER-00299            
1 68864U 26095A   26271.51980861  .00002024  00000+0  29435-3 0  9993
2 68864  51.8990 153.6941 0001030 104.7858 255.3218 14.79936823 22914
KUIPER-00353            
1 68865U 26095B   26271.36717332 -.00000361  00000+0 -18349-4 0  9995
2 68865  51.8982 139.3991 0000785 106.8792 253.2257 14.79926649 23105
KUIPER-00357            
1 68866U 26095C   26271.05519295  .00002155  00000+0  31166-3 0  9992
2 68866  51.9009 148.2878 0001275  83.4616 276.6492 14.79931738 22957
KUIPER-00364            
1 68867U 26095D   26271.08626935  .00002083  00000+0  30216-3 0  9991
2 68867  51.9025 150.6766 0001227  85.6848 274.4254 14.79934455 22925
KUIPER-00375            
1 68868U 26095E   26271.06059326  .00001882  00000+0  27588-3 0  9998
2 68868  51.8995 143.2603 0000995 101.7468 258.3606 14.79926771 23024
KUIPER-00433            
1 68869U 26095F   26271.38206366 -.00000205  00000+0  21167-5 0  9990
2 68869  51.8998 156.8316 0001398  85.6192 274.4930 14.79924635 22868
KUIPER-00437            
1 68870U 26095G   26271.58335648 -.00051241  00000+0 -63566-2 0  9993
2 68870  51.8997 107.8654 0005230 305.6664  69.2947 14.82385481  3601
KUIPER-00448            
1 68871U 26095H   26271.35909164 -.00000364  00000+0 -18672-4 0  9999
2 68871  51.9026 146.9422 0000934 116.8444 243.2614 14.79932296 22993
KUIPER-00459            
1 68872U 26095J   26271.00116077 -.00001665  00000+0 -18942-3 0  9999
2 68872  51.8989 136.0864 0000970 100.4943 259.6129 14.79926663 23112
KUIPER-00468            
1 68873U 26095K   26271.35861221  .00001096  00000+0  18591-3 0  9992
2 68873  51.8962 132.2240 0000546 178.1061 181.9902 14.76634385 23202
KUIPER-00476            
1 68874U 26095L   26271.58335648  .00009167  00000+0  12303-2 0  9998
2 68874  51.8989 113.3622 0001013 118.0679 350.9196 14.79917074  5490
KUIPER-00478            
1 68875U 26095M   26271.33610560 -.00000289  00000+0 -88809-5 0  9996
2 68875  51.8977 137.0380 0001019 100.9782 259.1295 14.79927557 23131
KUIPER-00480            
1 68876U 26095N   26271.03491345  .00001894  00000+0  27732-3 0  9999
2 68876  51.9027 135.8885 0000842 107.5081 252.5973 14.79937869 23129
KUIPER-00482            
1 68877U 26095P   26270.88906623  .00001047  00000+0  16634-3 0  9991
2 68877  51.9000 146.5176 0001686  63.6066 296.5070 14.79933483 22960
KUIPER-00483            
1 68878U 26095Q   26271.41581824  .00002236  00000+0  32216-3 0  9999
2 68878  51.8980 156.6500 0001457  48.3349 311.7738 14.79938661 22863
KUIPER-00488            
1 68879U 26095R   26271.06328895  .00001912  00000+0  27979-3 0  9998
2 68879  51.8982 140.7527 0001179  95.5301 264.5796 14.79931961 23059
KUIPER-00489            
1 68880U 26095S   26271.34149723  .00000205  00000+0  55863-4 0  9990
2 68880  51.8958 132.0007 0001166 103.1900 256.9193 14.79925753 23203
KUIPER-00499            
1 68881U 26095T   26271.03221043  .00006304  00000+0  85484-3 0  9990
2 68881  51.8981 138.4309 0000856 108.1934 251.9122 14.79948537 23080
KUIPER-00500            
1 68882U 26095U   26271.41851142  .00001213  00000+0  18811-3 0  9996
2 68882  51.9001 154.1747 0001110 104.5723 255.5362 14.79936975 22905
KUIPER-00502            
1 68883U 26095V   26271.03051943  .00000131  00000+0  46224-4 0  9994
2 68883  51.8994 132.1419 0001432  93.1148 266.9978 14.79927932 23171
KUIPER-00503            
1 68884U 26095W   26271.38745024  .00001895  00000+0  27751-3 0  9994
2 68884  51.8966 151.7816 0001102  96.3479 263.7609 14.79928081 22930
KUIPER-00504            
1 68885U 26095X   26271.07547917  .00001459  00000+0  22043-3 0  9997
2 68885  51.9002 160.6979 0000836 101.2457 258.8599 14.79927630 22782
KUIPER-00505            
1 68886U 26095Y   26271.39015393  .00001542  00000+0  23131-3 0  9993
2 68886  51.9022 149.3086 0000615  92.5009 267.6024 14.79925415 22968
KUIPER-00507            
1 68887U 26095Z   26271.04640332  .00001954  00000+0  28527-3 0  9994
2 68887  51.8986 140.8112 0000911 102.2652 257.8412 14.79928521 23059
KUIPER-00511            
1 68888U 26095AA  26271.30774488  .00001237  00000+0  19125-3 0  9992
2 68888  51.8975 132.2669 0001239  93.9099 266.2005 14.79926992 23192
KUIPER-00512            
1 68889U 26095AB  26271.08356951  .00002006  00000+0  29213-3 0  9993
2 68889  51.9001 153.1653 0001010  98.6188 261.4889 14.79928141 22887
KUIPER-00519            
1 68890U 26095AC  26271.36448428  .00001238  00000+0  19136-3 0  9996
2 68890  51.9010 141.9876 0000758 105.9435 254.1611 14.79930713 23067
KUIPER-00521            
1 68891U 26095AD  26270.95759939  .00001971  00000+0  28745-3 0  9993
2 68891  51.9003 137.4818 0000731  92.6750 267.4296 14.79927574 23099
KUIPER-00524            
1 68892U 26095AE  26270.92283470 -.00000306  00000+0 -11093-4 0  9995
2 68892  51.8970 146.3443 0001162  94.6781 265.4314 14.79926656 22964
KUIPER-00370            
1 68919U 26098A   26271.35601220 -.00000125  00000+0  12578-4 0  9990
2 68919  51.8988 321.8105 0000462  85.9812 274.1203 14.79927656 22761
KUIPER-00380            
1 68920U 26098B   26271.43165239  .00001644  00000+0  24455-3 0  9998
2 68920  51.8977 314.1129 0000356  68.1202 291.9799 14.79930891 22874
KUIPER-00386            
1 68921U 26098C   26271.51337049  .00001000  00000+0  16014-3 0  9996
2 68921  51.9015 316.2464 0000488 111.0473 249.0542 14.79928517 22858
KUIPER-00388            
1 68922U 26098D   26271.35065379 -.00000730  00000+0 -66732-4 0  9997
2 68922  51.9036 327.1327 0000347  49.3594 310.7399 14.79925741 22685
KUIPER-00405            
1 68923U 26098E   26271.37021371  .00001983  00000+0  28904-3 0  9991
2 68923  51.9012 324.3974 0000676 276.7774  83.3111 14.79935070 22724
KUIPER-00408            
1 68924U 26098F   26271.42895259  .00001272  00000+0  19581-3 0  9994
2 68924  51.8975 316.5479 0000498  61.5824 298.5188 14.79928363 22847
KUIPER-00409            
1 68925U 26098G   26271.40668073 -.00000221  00000+0  75791-7 0  9998
2 68925  51.9006 321.7366 0000555  85.7691 274.3334 14.79927387 22762
KUIPER-00410            
1 68926U 26098H   26271.34183830 -.00000292  00000+0 -92756-5 0  9992
2 68926  51.8971 319.4941 0000353 152.2659 207.8323 14.79923823 22799
KUIPER-00412            
1 68927U 26098J   26271.33306497  .00000682  00000+0  11846-3 0  9998
2 68927  51.9033 312.0734 0000474  49.2376 310.8627 14.79927503 22896
KUIPER-00413            
1 68928U 26098K   26271.35333115  .00000966  00000+0  15570-3 0  9991
2 68928  51.8994 324.4525 0000108 272.5848  87.5102 14.79934418 22727
KUIPER-00414            
1 68929U 26098L   26271.37631669  .00002113  00000+0  30615-3 0  9992
2 68929  51.8979 334.4318 0000623 160.0005 200.0982 14.79933270 22587
KUIPER-00415            
1 68930U 26098M   26271.39519342  .00000412  00000+0  83088-4 0  9992
2 68930  51.9026 316.7868 0000280  17.0855 343.0117 14.79931257 22838
KUIPER-00416            
1 68931U 26098N   26271.48049553  .00001825  00000+0  26801-3 0  9993
2 68931  51.9015 307.7617 0000294  57.3636 302.7355 14.79972708 22964
KUIPER-00420            
1 68932U 26098P   26271.40328043  .00000472  00000+0  90897-4 0  9994
2 68932  51.9012 309.2113 0000478  87.6252 272.4765 14.79926755 22941
KUIPER-00421            
1 68933U 26098Q   26271.33032373 -.00004800  00000+0 -60109-3 0  9998
2 68933  51.9038 314.5192 0000826  84.9258 275.1798 14.79934286 22864
KUIPER-00425            
1 68934U 26098R   26271.45729480 -.00001293  00000+0 -14071-3 0  9994
2 68934  51.8974 321.5033 0000484 102.5122 257.5895 14.79924157 22770
KUIPER-00430            
1 68935U 26098S   26271.45462135  .00000610  00000+0  10899-3 0  9990
2 68935  51.9046 323.9149 0000363  77.6805 282.4198 14.79931916 22743
KUIPER-00431            
1 68936U 26098T   26271.45193290  .00000512  00000+0  96210-4 0  9997
2 68936  51.8990 326.5103 0000135  30.8455 329.2515 14.79928269 22705
KUIPER-00432            
1 68937U 26098U   26271.39248035  .00001311  00000+0  20097-3 0  9996
2 68937  51.9001 319.1727 0000369  76.1619 283.9385 14.79929514 22800
KUIPER-00434            
1 68938U 26098V   26271.32771462  .00001379  00000+0  22722-3 0  9996
2 68938  51.9019 323.7335 0001139 158.5855 201.5154 14.76399274 22732
KUIPER-00436            
1 68939U 26098W   26271.50797025  .00001856  00000+0  27241-3 0  9991
2 68939  51.8993 321.2756 0000382  88.8427 271.2579 14.79931379 22783
KUIPER-00438            
1 68940U 26098X   26271.51067903  .00000704  00000+0  12140-3 0  9992
2 68940  51.9020 318.7917 0000468  63.6331 296.4680 14.79931303 22810
KUIPER-00439            
1 68941U 26098Y   26271.42625145  .00002190  00000+0  31619-3 0  9994
2 68941  51.9026 319.1566 0000595  72.1939 287.9088 14.79933153 22803
KUIPER-00440            
1 68942U 26098Z   26271.31617415 -.00000266  00000+0 -58607-5 0  9996
2 68942  51.9007 312.1396 0000675  28.5103 331.5896 14.79926449 22896
KUIPER-00442            
1 68943U 26098AA  26271.51602517  .00001912  00000+0  27983-3 0  9994
2 68943  51.9017 313.7753 0000251   4.4661 355.6303 14.79922515 22883
KUIPER-00446            
1 68944U 26098AB  26271.34454231  .00000836  00000+0  13868-3 0  9995
2 68944  51.8991 317.0140 0000869 330.0835  30.0077 14.79929869 22822
KUIPER-00451            
1 68945U 26098AC  26271.46881746  .00000359  00000+0  76123-4 0  9998
2 68945  51.9003 326.4441 0000226  41.1289 318.9690 14.79930361 22701
KUIPER-00452            
1 68946U 26098AD  26271.48229897  .00001815  00000+0  26705-3 0  9992
2 68946  51.9016 313.9043 0000415  82.4933 277.6077 14.79933664 22887
KUIPER-00453            
1 68947U 26098AE  26271.29928046 -.00000312  00000+0 -11910-4 0  9990
2 68947  51.8979 312.1300 0001031 174.3457 185.7517 14.79927498 22896
KUIPER-00454            
1 68948U 26098AF  26271.41541515 -.00003535  00000+0 -43457-3 0  9997
2 68948  51.8955 329.1683 0000563  22.8581 337.2406 14.79962434 22662
KUIPER-00455            
1 68949U 26098AG  26271.43504618  .00001990  00000+0  28993-3 0  9992
2 68949  51.8992 326.5986 0000903 161.4049 198.6946 14.79934458 22706
KUIPER-00458            
1 68950U 26098AH  26271.41745580  .00001708  00000+0  25302-3 0  9995
2 68950  51.8999 311.7023 0000752  65.4754 294.6287 14.79935318 22904
KUIPER-00282            
1 69267U 26118A   26271.29049372  .00000541  00000+0  99931-4 0  9996
2 69267  51.8964 304.7147 0000231 356.5537   3.5424 14.79929140 19421
KUIPER-00383            
1 69268U 26118B   26271.51265923  .00001741  00000+0  25724-3 0  9995
2 69268  51.8976 301.2542 0000406  45.1060 314.9936 14.79936959 19492
KUIPER-00527            
1 69269U 26118C   26271.27632236 -.00001311  00000+0 -14305-3 0  9992
2 69269  51.9008 302.4338 0000552  79.1954 280.9070 14.79928472 19455
KUIPER-00562            
1 69270U 26118D   26271.45322372  .00001762  00000+0  26012-3 0  9997
2 69270  51.9017 293.9667 0000729  58.0943 302.0090 14.79929988 19592
KUIPER-00570            
1 69271U 26118E   26271.40599049  .00000065  00000+0  37588-4 0  9996
2 69271  51.9015 306.8339 0000402  61.8552 298.2451 14.79928879 19390
KUIPER-00572            
1 69272U 26118F   26271.46200897  .00002137  00000+0  30916-3 0  9992
2 69272  51.9003 301.4754 0000449  27.6031 332.4955 14.79937517 19482
KUIPER-00581            
1 69273U 26118G   26271.38909514  .00000482  00000+0  92286-4 0  9996
2 69273  51.9031 306.8096 0000368 259.6553 100.4368 14.79926236 19496
KUIPER-00584            
1 69274U 26118H   26271.30195408  .00001789  00000+0  26348-3 0  9994
2 69274  51.8990 309.8021 0000499   1.7339 358.3625 14.79954093 19351
KUIPER-00587            
1 69275U 26118J   26271.32964175  .00000923  00000+0  15005-3 0  9999
2 69275  51.9000 299.5713 0000486  41.5790 318.5210 14.79937935 19508
KUIPER-00590            
1 69276U 26118K   26271.45932710  .00000665  00000+0  11622-3 0  9998
2 69276  51.9018 304.0089 0000200  68.9577 291.1407 14.79930105 19456
KUIPER-00592            
1 69277U 26118L   26271.37489055  .00001755  00000+0  25915-3 0  9990
2 69277  51.9031 304.2631 0000420  54.8760 305.2241 14.79934160 19446
KUIPER-00593            
1 69278U 26118M   26271.46131664  .00000281  00000+0  65842-4 0  9998
2 69278  51.8996 286.4947 0000726 190.0491 170.0457 14.79926669 19756
KUIPER-00594            
1 69279U 26118N   26271.45593072  .00001612  00000+0  24042-3 0  9998
2 69279  51.9029 291.5295 0000862  86.5699 273.5362 14.79926874 19626
KUIPER-00595            
1 69280U 26118P   26271.42757048  .00001529  00000+0  22945-3 0  9999
2 69280  51.8977 286.5987 0000754 230.1669 129.9227 14.79954433 19722
KUIPER-00596            
1 69281U 26118Q   26271.42016507 -.00000547  00000+0 -42740-4 0  9995
2 69281  51.9025 309.1800 0000320  76.2620 283.8378 14.79929399 19370
KUIPER-00597            
1 69282U 26118R   26271.55990757  .00001673  00000+0  24848-3 0  9995
2 69282  51.8969 288.5537 0001568  67.2746 292.8382 14.79920067 19679
KUIPER-00599            
1 69283U 26118S   26271.38029307  .00001765  00000+0  26053-3 0  9993
2 69283  51.9001 299.2625 0000634   4.8249 355.2720 14.79931980 19512
KUIPER-00600            
1 69284U 26118T   26271.45860978  .00000059  00000+0  36731-4 0  9999
2 69284  51.8977 288.9150 0001501  49.3960 310.7133 14.79929395 19667
KUIPER-00601            
1 69285U 26118U   26271.40868072  .00000986  00000+0  15834-3 0  9997
2 69285  51.9016 304.2249 0000315  69.0643 291.0353 14.79928810 19445
KUIPER-00602            
1 69286U 26118V   26271.48427576  .00001625  00000+0  24209-3 0  9993
2 69286  51.9010 296.3039 0000512 322.3838  37.7089 14.79935995 19564
KUIPER-00603            
1 69287U 26118W   26271.29587568 -.00003372  00000+0 -41352-3 0  9992
2 69287  51.9041 299.7292 0000567  82.8767 277.2260 14.79932548 19491
KUIPER-00605            
1 69288U 26118X   26271.35532786 -.00001250  00000+0 -13502-3 0  9991
2 69288  51.8993 306.9412 0000537  59.0685 301.0330 14.79926538 19401
KUIPER-00606            
1 69289U 26118Y   26271.27901280  .00000724  00000+0  12402-3 0  9993
2 69289  51.9008 299.7972 0000335  50.1489 309.9503 14.79928111 19497
KUIPER-00607            
1 69290U 26118Z   26271.27291134  .00001719  00000+0  25442-3 0  9998
2 69290  51.8991 289.8297 0001645  31.2768 328.8292 14.79934823 19632
KUIPER-00608            
1 69291U 26118AA  26271.48966692  .00001724  00000+0  25512-3 0  9994
2 69291  51.9002 291.2310 0000701  67.4425 292.6612 14.79936360 19635
KUIPER-00610            
1 69292U 26118AB  26271.45052823 -.00002594  00000+0 -31134-3 0  9999
2 69292  51.9026 296.5396 0000550 154.0859 206.0131 14.79942495 19552
KUIPER-00613            
1 69293U 26118AC  26271.50725794  .00001692  00000+0  25084-3 0  9993
2 69293  51.9004 306.2861 0000436  54.6914 305.4090 14.79934348 19427
KUIPER-00618            
1 69294U 26118AD  26271.55451130  .00001676  00000+0  24883-3 0  9997
2 69294  51.9018 293.5870 0001110 236.4792 123.6064 14.79937458 19601
KUIPER-00620            
1 69295U 26118AE  26271.50118115  .00000136  00000+0  46906-4 0  9997
2 69295  51.9034 296.3281 0000463  45.9248 314.1753 14.79928250 19563
KUIPER-00423            
1 69592U 26140A   26271.58335648 -.00033254  00000+0 -43506-2 0  9992
2 69592  51.8993 268.4473 0000536  68.6509 301.8552 14.79971344  3488
KUIPER-00428            
1 69593U 26140B   26271.36252731  .00017412  00000+0  46514-3 0  9999
2 69593  51.8797 260.0286 0005222 304.3262  55.7231 15.38172625 17108
KUIPER-00481            
1 69594U 26140C   26270.07187307  .00132470  00000+0  18198-1 0  9990
2 69594  51.8990 280.1222 0001370  22.7839 337.3183 14.77210497 16711
KUIPER-00490            
1 69595U 26140D   26271.33432579  .00001804  00000+0  26559-3 0  9993
2 69595  51.9020 279.5082 0000632  49.0874 311.0143 14.79933907 16832
KUIPER-00493            
1 69596U 26140E   26271.22765835  .00001699  00000+0  25185-3 0  9992
2 69596  51.9038 285.0318 0001075 342.8932  17.1994 14.79930065 16747
KUIPER-00496            
1 69597U 26140F   26271.58335648 -.00068004  00000+0 -85235-2 0  9993
2 69597  51.9019 267.2284 0000735 343.9639 323.9750 14.82118746  5631
KUIPER-00513            
1 69598U 26140G   26271.43563813  .00000479  00000+0  91812-4 0  9995
2 69598  51.9001 279.1043 0000759  84.5728 275.5321 14.79926671 16842
KUIPER-00516            
1 69599U 26140H   26271.58335648 -.00066337  00000+0 -73832-2 0  9992
2 69599  51.8982 262.9740 0006141 247.1577 153.1404 14.86965777  5292
KUIPER-00517            
1 69600U 26140J   26271.58335648 -.00082916  00000+0 -51567-2 0  9997
2 69600  51.8912 260.1354 0008357 193.7720 119.1793 15.09443617  5862
KUIPER-00520            
1 69601U 26140K   26271.23162666  .00001342  00000+0  22079-3 0  9997
2 69601  51.9025 282.1678 0000621 258.0327 102.0564 14.76611988 16787
KUIPER-00522            
1 69602U 26140L   26271.56457682 -.00002896  00000+0 -35108-3 0  9993
2 69602  51.9025 268.5371 0001317  81.4384 278.6728 14.79927834 17001
KUIPER-00528            
1 69603U 26140M   26271.28100038  .00001756  00000+0  25922-3 0  9998
2 69603  51.9016 282.3063 0000493  41.1386 318.9613 14.79936499 16785
KUIPER-00532            
1 69604U 26140N   26271.58335648 -.00065907  00000+0 -86802-2 0  9992
2 69604  51.9007 265.9594 0002106 343.7434  12.8723 14.80031575  5345
KUIPER-00533            
1 69605U 26140P   26271.26951592  .00001679  00000+0  24920-3 0  9998
2 69605  51.9003 277.3482 0000546  41.2665 318.8338 14.79928950 16856
KUIPER-00534            
1 69606U 26140Q   26271.55045646 -.00003261  00000+0 -10163-3 0  9990
2 69606  51.8811 260.5054 0012779 160.4608 199.6868 15.28879378 17111
KUIPER-00537            
1 69607U 26140R   26271.39647705  .00000602  00000+0  10805-3 0  9994
2 69607  51.9006 284.2003 0001118  19.4662 340.6343 14.79928859 16775
KUIPER-00538            
1 69608U 26140S   26271.29787610  .00001669  00000+0  24801-3 0  9999
2 69608  51.9024 282.1619 0000769  43.6484 316.4539 14.79921531 16798
KUIPER-00540            
1 69609U 26140T   26271.54293620  .00016813  00000+0  44547-3 0  9997
2 69609  51.8805 259.0020 0004638 305.2159  54.8394 15.38454291 17130
KUIPER-00541            
1 69610U 26140U   26271.58335648 -.00051404  00000+0 -48025-2 0  9991
2 69610  51.8963 261.1260 0008570 190.9004 250.3546 14.93815910  4872
KUIPER-00542            
1 69611U 26140V   26271.58335648 -.01018568  00000+0 -71209-1 0  9996
2 69611  51.8984 260.0254 0008099 184.2701  92.5633 15.07544034  5868
KUIPER-00543            
1 69612U 26140W   26271.58335648 -.00060898  00000+0 -79950-2 0  9991
2 69612  51.9030 265.9564 0002771 141.0011  34.4081 14.80120854  5868
KUIPER-00544            
1 69613U 26140X   26271.58335648 -.00053299  00000+0 -46091-2 0  9999
2 69613  51.8931 261.5430 0004912 181.2222 183.0978 14.96871472  5560
KUIPER-00546            
1 69614U 26140Y   26271.20997115  .00001509  00000+0  22672-3 0  9997
2 69614  51.9006 270.1043 0000214 131.6043 228.4937 14.79971790 16951
KUIPER-00547            
1 69615U 26140Z   26271.58335648 -.01245697  00000+0 -62459-1 0  9992
2 69615  51.8882 258.8862 0009896 178.5389 331.5112 15.19838924  4777
KUIPER-00549            
1 69616U 26140AA  26271.58335648 -.00072151  00000+0 -85362-2 0  9994
2 69616  51.9002 263.5440 0003216 212.6358  86.5710 14.84528771  5391
KUIPER-00550            
1 69617U 26140AB  26271.58335648 -.00056063  00000+0 -60724-2 0  9994
2 69617  51.8966 267.3127 0004697 359.5101  46.3844 14.87986721  3201
KUIPER-00551            
1 69618U 26140AC  26271.58335648 -.00027172  00000+0 -82283-3 0  9999
2 69618  51.8786 258.0666 0011606 173.6026  25.0906 15.33246786  5911
KUIPER-00554            
1 69619U 26140AD  26271.58335648 -.01270046  00000+0 -45892-1 0  9994
2 69619  51.8798 258.4028 0009092 187.9527 205.3700 15.30724107  3683
KUIPER-00555            
1 69620U 26140AE  26271.58335648 -.00784368  00000+0 -26019-1 0  9992
2 69620  51.8832 258.3371 0010325 177.0987 282.9345 15.33016631  4771
KUIPER-00556            
1 69621U 26140AF  26271.37618530 -.00002057  00000+0 -24082-3 0  9992
2 69621  51.8961 271.8648 0000603 102.6219 257.4811 14.79944911 16949
KUIPER-00557            
1 69622U 26140AG  26271.58335648 -.01271352  00000+0 -56764-1 0  9999
2 69622  51.8845 258.8533 0008758 193.1922  22.6536 15.23827133  4640
KUIPER-00560            
1 69623U 26140AH  26271.48103300  .00017870  00000+0  49199-3 0  9993
2 69623  51.8779 259.3055 0008411 213.4714 146.5742 15.37197552 17125
KUIPER-00561            
1 69624U 26140AJ  26271.30327565  .00001808  00000+0  26617-3 0  9990
2 69624  51.8995 277.1660 0000659  72.5926 287.5109 14.79930217 16862
KUIPER-00564            
1 69625U 26140AK  26271.27219652  .00001701  00000+0  25217-3 0  9991
2 69625  51.8962 274.8084 0000720 106.4995 253.6047 14.79915527 16898
KUIPER-00567            
1 69626U 26140AL  26271.20734213 -.00007016  00000+0 -89215-3 0  9995
2 69626  51.8970 272.6141 0001242 159.7511 200.3501 14.79936070 16916
KUIPER-00573            
1 69627U 26140AM  26271.37351100  .00000705  00000+0  12150-3 0  9994
2 69627  51.9002 274.3926 0000496  70.7540 289.3476 14.79928706 16902
KUIPER-00258            
1 69763U 26151A   26271.58335648 -.00024379  00000+0 -29625-2 0  9998
2 69763  51.8962 183.4752 0007358  64.7526 158.9920 14.82860622  4240
KUIPER-00526            
1 69764U 26151B   26271.50503216 -.00001858  00000+0 -21479-3 0  9996
2 69764  51.8992 198.8662 0000702  82.5606 277.5436 14.79935477 13288
KUIPER-00558            
1 69765U 26151C   26271.20115564  .00000930  00000+0  15102-3 0  9993
2 69765  51.8941 200.1284 0000525 111.6688 248.4330 14.79930930 13242
KUIPER-00569            
1 69766U 26151D   26271.49085619  .00000153  00000+0  49058-4 0  9997
2 69766  51.9012 196.3454 0000991  83.6417 276.4658 14.79926670 13322
KUIPER-00589            
1 69767U 26151E   26271.21556989  .00001237  00000+0  20635-3 0  9994
2 69767  51.8992 200.8172 0003180  83.6211 276.5112 14.76548265 13235
KUIPER-00598            
1 69768U 26151F   26271.17549116  .00000431  00000+0  85592-4 0  9993
2 69768  51.8954 192.7546 0000580  92.0955 268.0074 14.79929172 13346
KUIPER-00604            
1 69769U 26151G   26271.49355577  .00002255  00000+0  32462-3 0  9998
2 69769  51.9022 193.8486 0000728  82.9079 277.1966 14.79938057 13352
KUIPER-00609            
1 69770U 26151H   26271.58335648  .00107550  00000+0  14289-1 0  9996
2 69770  51.9010 190.9420 0001999  36.7227 250.7512 14.78805742  1309
KUIPER-00611            
1 69771U 26151J   26271.52732113 -.00000771  00000+0 -72158-4 0  9990
2 69771  51.8962 193.6792 0001160  84.5653 275.5442 14.79928251 13369
KUIPER-00612            
1 69772U 26151K   26271.50774051  .00000070  00000+0  38161-4 0  9992
2 69772  51.9018 196.2896 0001000 140.4505 219.6531 14.79936838 13322
KUIPER-00614            
1 69773U 26151L   26271.51044405  .00001504  00000+0  22632-3 0  9995
2 69773  51.8975 193.8227 0001151  89.3115 270.7980 14.79932833 13350
KUIPER-00615            
1 69774U 26151M   26271.52191878  .00000141  00000+0  47513-4 0  9996
2 69774  51.9006 198.6582 0000834 125.6106 234.4934 14.79928805 13298
KUIPER-00616            
1 69775U 26151N   26271.58335648  .00029044  00000+0  38327-2 0  9992
2 69775  51.8997 183.4573 0001464 102.6751 317.8984 14.79818545  3996
KUIPER-00617            
1 69776U 26151P   26271.09377528  .00001209  00000+0  18760-3 0  9995
2 69776  51.8997 190.6177 0000441 129.0361 231.0641 14.79929122 13364
KUIPER-00619            
1 69777U 26151Q   26271.19816900  .00001612  00000+0  25920-3 0  9993
2 69777  51.9018 192.5945 0001381 162.5157 197.5852 14.76596326 13344
KUIPER-00621            
1 69778U 26151R   26271.20655551  .00000733  00000+0  12522-3 0  9996
2 69778  51.8992 195.1154 0000802  96.5011 263.6043 14.79931395 13314
KUIPER-00622            
1 69779U 26151S   26271.47530339  .00001191  00000+0  19990-3 0  9997
2 69779  51.9001 198.0833 0001682  84.0450 276.0703 14.76518113 13293
KUIPER-00623            
1 69780U 26151T   26271.06879449  .00000356  00000+0  75773-4 0  9996
2 69780  51.8972 198.2335 0001141 114.2709 245.8373 14.79922175 13256
KUIPER-00626            
1 69781U 26151U   26271.49625451  .00001084  00000+0  17113-3 0  9998
2 69781  51.8976 191.3112 0000869 108.2572 251.8485 14.79932225 13398
KUIPER-00627            
1 69782U 26151V   26271.46790664  .00027692  00000+0  36528-2 0  9998
2 69782  51.9013 186.4658 0001508 102.3078 257.8053 14.79860273 13456
KUIPER-00629            
1 69783U 26151W   26271.21533255 -.00002808  00000+0 -33947-3 0  9990
2 69783  51.9040 202.5191 0000469  93.9425 266.1592 14.79929032 13219
KUIPER-00631            
1 69784U 26151X   26271.50233779  .00004104  00000+0  56692-3 0  9992
2 69784  51.8963 201.3124 0001100 106.6342 253.4741 14.79944239 13254
KUIPER-00634            
1 69785U 26151Y   26270.51168054  .00002641  00000+0  37524-3 0  9993
2 69785  51.8993 200.6926 0000852  98.8707 261.2352 14.79933128 13171
KUIPER-00639            
1 69786U 26151Z   26270.08372797 -.00017750  00000+0 -23105-2 0  9995
2 69786  51.9047 192.5674 0003015  75.1784 284.9512 14.79837959 13253
KUIPER-00641            
1 69787U 26151AA  26271.48204906 -.00002117  00000+0 -24875-3 0  9994
2 69787  51.8998 188.9072 0001941 144.4161 215.6931 14.79934761 13428
KUIPER-00644            
1 69788U 26151AB  26271.58335648 -.00005095  00000+0 -53275-3 0  9998
2 69788  51.8974 181.1056 0007873  55.3135 270.3465 14.87328750  5527
KUIPER-00646            
1 69789U 26151AC  26271.51584009  .00000605  00000+0  10837-3 0  9996
2 69789  51.8963 188.8394 0000971  92.2523 267.8550 14.79926534 13427
KUIPER-00647            
1 69790U 26151AD  26271.03815110  .00001068  00000+0  18225-3 0  9998
2 69790  51.8995 190.5844 0002293 345.0297  15.0596 14.76544548 13364
KUIPER-00662            
1 69791U 26151AE  26271.53610234 -.00005978  00000+0 -75544-3 0  9997
2 69791  51.8990 201.1556 0000608  63.2249 296.8776 14.79958613 13255
