KUIPER-00008            
1 63724U 25088A   26270.04246499 -.00000079  00000+0  18637-4 0  9995
2 63724  51.8996 277.6255 0000390  26.6438 333.4544 14.79932610 77863
KUIPER-00009            
1 63725U 25088B   26270.02421468  .00003498  00000+0  24219-3 0  9994
2 63725  51.9016 283.7430 0000556   8.8434 351.2550 15.08123323 77774
KUIPER-00010            
1 63726U 25088C   26269.27128438  .00000056  00000+0  36369-4 0  9998
2 63726  51.9018 276.1486 0000496  54.2254 305.8755 14.79932167 77438
KUIPER-00011            
1 63727U 25088D   26270.03979239  .00000231  00000+0  59305-4 0  9998
2 63727  51.9009 280.2921 0000495  53.7818 306.3190 14.79927742 77575
KUIPER-00012            
1 63728U 25088E   26270.02219015  .00000344  00000+0  74114-4 0  9997
2 63728  51.9018 265.3091 0000770  91.3884 268.7167 14.79917663 77739
KUIPER-00013            
1 63729U 25088F   26269.34558408  .00003618  00000+0  50303-3 0  9993
2 63729  51.9030 300.8225 0000461  66.7807 293.3204 14.79955148 77282
KUIPER-00014            
1 63730U 25088G   26269.31181715  .00001244  00000+0  19213-3 0  9993
2 63730  51.9030 300.9159 0000392  51.1415 308.9582 14.79932656 77097
KUIPER-00015            
1 63731U 25088H   26269.80751990  .00000190  00000+0  53883-4 0  9997
2 63731  51.8993 308.7685 0000741  61.0032 299.1005 14.79924219 77488
KUIPER-00016            
1 63732U 25088J   26270.11949753  .00001879  00000+0  27533-3 0  9997
2 63732  51.8990 299.8468 0000360  43.7808 316.3183 14.79937795 77178
KUIPER-00018            
1 63733U 25088K   26269.28616506 -.00000749  00000+0 -69261-4 0  9993
2 63733  51.9049 293.5825 0000207  47.4918 312.6062 14.79927173 77192
KUIPER-00019            
1 63734U 25088L   26270.05565178  .00000724  00000+0  12388-3 0  9997
2 63734  51.9006 288.9218 0000468  19.4605 340.6375 14.79942918 77328
KUIPER-00020            
1 63735U 25088M   26270.09381904  .00000805  00000+0  13457-3 0  9993
2 63735  51.9030 292.5064 0000519  42.7539 317.3464 14.79937049 77484
KUIPER-00021            
1 63736U 25088N   26270.06004597 -.00002498  00000+0 -29857-3 0  9994
2 63736  51.9009 292.6022 0000363  47.4500 312.6493 14.79962932 77314
KUIPER-00023            
1 63737U 25088P   26270.09111014  .00000746  00000+0  12679-3 0  9997
2 63737  51.9015 294.9560 0000504  51.4181 308.6826 14.79938060 77580
KUIPER-00024            
1 63738U 25088Q   26270.03709522  .00000733  00000+0  12510-3 0  9999
2 63738  51.9035 282.8103 0000497  54.6504 305.4505 14.79929186 77877
KUIPER-00025            
1 63739U 25088R   26269.79265014  .00000311  00000+0  69843-4 0  9998
2 63739  51.9043 291.3724 0000667  80.3625 279.7413 14.79929832 77598
KUIPER-00027            
1 63740U 25088S   26270.03437516  .00000923  00000+0  15009-3 0  9990
2 63740  51.9013 285.2594 0000474  82.9529 277.1487 14.79925522 77439
KUIPER-00028            
1 63741U 25088T   26270.07084494 -.00000706  00000+0 -63654-4 0  9999
2 63741  51.8983 282.5387 0000401  20.0282 340.0696 14.79927616 77881
KUIPER-00029            
1 63742U 25088U   26270.31696452  .00000989  00000+0  15874-3 0  9991
2 63742  51.9023 280.1488 0000570  13.0734 347.0243 14.79935395 77467
KUIPER-00030            
1 63743U 25088V   26270.08573453 -.00000688  00000+0 -61310-4 0  9996
2 63743  51.8999 299.9929 0000374  70.1970 289.9033 14.79932883 77454
KUIPER-00031            
1 63744U 25088W   26270.06815404  .00000026  00000+0  32452-4 0  9999
2 63744  51.9015 285.0927 0000480  35.6231 324.4763 14.79931344 77370
KUIPER-00032            
1 63745U 25088X   26268.97360378  .00015213  00000+0  35098-3 0  9994
2 63745  51.8651 131.5260 0005141 113.5682 246.5848 15.42749373 80413
KUIPER-00033            
1 63746U 25088Y   26269.83319975 -.00000298  00000+0 -10036-4 0  9993
2 63746  51.9003 316.1311 0000432  46.1353 313.9645 14.79937960 77407
KUIPER-00034            
1 63747U 25088Z   26270.00870794 -.00000036  00000+0  24339-4 0  9996
2 63747  51.9005 277.8904 0000503  66.5509 293.5506 14.79920356 77634
KUIPER-00035            
1 63748U 25088AA  26270.11680891 -.00000242  00000+0 -26744-5 0  9999
2 63748  51.8978 302.3750 0000967  84.4202 275.6871 14.79931669 77353
KUIPER-00037            
1 63749U 25088AB  26269.29936297  .00001012  00000+0  16176-3 0  9991
2 63749  51.9019 304.8528 0000322  67.7923 292.3073 14.79934910 78038
KUIPER-00038            
1 63750U 25088AC  26270.03168176  .00000456  00000+0  88848-4 0  9997
2 63750  51.9012 287.7880 0000648  92.9968 267.1069 14.79919421 77330
KUIPER-00039            
1 64500U 25134A   26270.13932234  .00000153  00000+0  49128-4 0  9990
2 64500  51.8993  62.3068 0000573 117.4806 242.6214 14.79928926 69901
KUIPER-00040            
1 64501U 25134B   26270.16230365  .00001348  00000+0  20578-3 0  9994
2 64501  51.8975  72.2631 0000861 122.9636 237.1409 14.79935672 69765
KUIPER-00041            
1 64502U 25134C   26269.72064745 -.00000596  00000+0 -49176-4 0  9994
2 64502  51.8989  76.6086 0000550 102.6616 257.4408 14.79928675 69669
KUIPER-00042            
1 64503U 25134D   26270.16498479  .00001663  00000+0  24712-3 0  9992
2 64503  51.8979  69.6209 0000598 114.3591 245.7434 14.79934640 69806
KUIPER-00043            
1 64504U 25134E   26269.63284293  .00002588  00000+0  36829-3 0  9999
2 64504  51.9010  64.4909 0000470 108.0482 252.0532 14.79932309 69835
KUIPER-00044            
1 64505U 25134F   26269.75441769 -.00000029  00000+0  25204-4 0  9991
2 64505  51.8973  76.4404 0000757 112.8757 247.2286 14.79929527 69674
KUIPER-00046            
1 64506U 25134G   26269.65580689  .00002464  00000+0  35222-3 0  9990
2 64506  51.8977  74.3467 0000647 108.2401 251.8632 14.79922743 69699
KUIPER-00047            
1 64507U 25134H   26268.70629241  .00003168  00000+0  44428-3 0  9994
2 64507  51.8990  51.0753 0000418 121.8457 238.2546 14.79942907 69937
KUIPER-00048            
1 64508U 25134J   26270.09065183  .00001517  00000+0  22788-3 0  9990
2 64508  51.9008  44.9619 0000405 120.3597 239.7405 14.79937080 70147
KUIPER-00049            
1 64509U 25134K   26269.63822083  .00000951  00000+0  15371-3 0  9990
2 64509  51.9005  59.4443 0001128  65.1941 294.9138 14.79926936 69909
KUIPER-00050            
1 64510U 25134L   26270.06224673  .00003148  00000+0  44147-3 0  9996
2 64510  51.9000  40.0831 0000310 132.7479 227.3510 14.79960227 70213
KUIPER-00051            
1 64511U 25134M   26269.68177947  .00000944  00000+0  15281-3 0  9992
2 64511  51.9005  57.9456 0000596 124.7322 235.3697 14.79931117 69920
KUIPER-00053            
1 64513U 25134P   26270.08580082  .00001815  00000+0  25667-3 0  9995
2 64513  51.9013  50.4796 0002304 147.7383 212.3722 14.81662678 70064
KUIPER-00054            
1 64514U 25134Q   26269.68277715  .00000753  00000+0  12782-3 0  9990
2 64514  51.8996  49.2436 0000591 126.3234 233.7783 14.79934139 70048
KUIPER-00055            
1 64515U 25134R   26270.24048355  .00002979  00000+0  41960-3 0  9993
2 64515  51.9005 359.4317 0000343  84.3368 275.7634 14.79927678 70794
KUIPER-00056            
1 64516U 25134S   26269.71116208  .00003022  00000+0  42510-3 0  9999
2 64516  51.9023  54.2394 0000682 126.5203 233.5822 14.79940006 69983
KUIPER-00057            
1 64517U 25134T   26269.70306082  .00002611  00000+0  37138-3 0  9993
2 64517  51.8991  61.6851 0000563 121.0196 239.0822 14.79937273 69877
KUIPER-00058            
1 64518U 25134U   26269.67469535  .00001449  00000+0  21910-3 0  9992
2 64518  51.8985  56.7907 0000407 116.3375 243.7629 14.79929993 69946
KUIPER-00059            
1 64519U 25134V   26269.61255730  .00001109  00000+0  17437-3 0  9999
2 64519  51.9001  52.1019 0000275 101.1885 258.9108 14.79932939 70005
KUIPER-00060            
1 64520U 25134W   26270.11904865  .00002847  00000+0  40235-3 0  9990
2 64520  51.9028  49.9430 0000562 106.9675 253.1349 14.79931891 70062
KUIPER-00061            
1 64521U 25134X   26270.14468783  .00002677  00000+0  38012-3 0  9999
2 64521  51.8997  57.2679 0000540 124.5940 235.5074 14.79918309 69966
KUIPER-00062            
1 64522U 25134Y   26269.73682776  .00000168  00000+0  51102-4 0  9992
2 64522  51.8944  61.5125 0000519 123.2069 236.8943 14.79930506 69880
KUIPER-00063            
1 64523U 25134Z   26270.13393296  .00000286  00000+0  66532-4 0  9999
2 64523  51.9030  67.3599 0000716 135.1263 224.9757 14.79930568 69838
KUIPER-00064            
1 64524U 25134AA  26270.13662347  .00000858  00000+0  14156-3 0  9995
2 64524  51.9018  64.7750 0001039 116.5388 243.5681 14.79930738 69871
KUIPER-00065            
1 64525U 25134AB  26269.65853081  .00002383  00000+0  34150-3 0  9999
2 64525  51.9030  72.0647 0000655 119.7305 240.3723 14.79935820 69712
KUIPER-00066            
1 64526U 25134AC  26270.29991724  .00003178  00000+0  44567-3 0  9995
2 64526  51.9029   6.4951 0000445 101.7024 258.3989 14.79936774 70709
KUIPER-00069            
1 64816U 25151A   26269.81797527  .00000146  00000+0  48175-4 0  9999
2 64816  51.8997 111.2659 0000700 115.5966 244.5069 14.79930583 66541
KUIPER-00070            
1 64817U 25151B   26270.02734891  .00000550  00000+0  10115-3 0  9991
2 64817  51.8999 135.2377 0001199  99.3625 260.7473 14.79932911 66233
KUIPER-00071            
1 64818U 25151C   26270.03004679  .00001158  00000+0  18089-3 0  9990
2 64818  51.9007 132.7737 0000744  98.0259 262.0788 14.79931564 65080
KUIPER-00072            
1 64819U 25151D   26269.95030851  .00000167  00000+0  50962-4 0  9997
2 64819  51.8954 113.0475 0000702  99.7612 260.3430 14.79924586 65358
KUIPER-00073            
1 64820U 25151E   26269.99628098  .00002535  00000+0  36142-3 0  9993
2 64820  51.8985 132.8970 0001149 105.7387 254.3702 14.79934596 66264
KUIPER-00075            
1 64822U 25151G   26269.86485125  .00015704  00000+0  41173-3 0  9995
2 64822  51.8661 321.1312 0002420 273.9259  86.1451 15.38838927 67450
KUIPER-00076            
1 64823U 25151H   26270.00707522  .00000364  00000+0  76792-4 0  9994
2 64823  51.8995 122.8774 0000887  94.4854 265.6210 14.79931061 65228
KUIPER-00077            
1 64824U 25151J   26270.00168326  .00002342  00000+0  33604-3 0  9990
2 64824  51.9002 127.9229 0001068  97.7043 262.4040 14.79934832 65155
KUIPER-00078            
1 64825U 25151K   26269.97061118  .00002550  00000+0  36338-3 0  9994
2 64825  51.8992 125.5300 0000967 103.1158 256.9912 14.79932489 65188
KUIPER-00079            
1 64826U 25151L   26269.99897478  .00001491  00000+0  22450-3 0  9996
2 64826  51.8979 130.3585 0001200  97.6603 262.4496 14.79934507 66314
KUIPER-00080            
1 64827U 25151M   26270.03272750  .00001349  00000+0  20594-3 0  9993
2 64827  51.8982 130.2208 0000661 119.6505 240.4523 14.79930801 65124
KUIPER-00082            
1 64828U 25151N   26269.74234517 -.00000157  00000+0  84236-5 0  9991
2 64828  51.9009 119.0684 0001092 119.2618 240.8454 14.79932031 65257
KUIPER-00083            
1 64829U 25151P   26270.00437861  .00001278  00000+0  19665-3 0  9996
2 64829  51.8999 125.3932 0001132 105.9550 254.1537 14.79927863 66374
KUIPER-00084            
1 64830U 25151Q   26270.06111618  .00002432  00000+0  34786-3 0  9997
2 64830  51.9001 135.1271 0000643 100.6557 259.4478 14.79931835 65051
KUIPER-00085            
1 64831U 25151R   26269.97871053 -.00001545  00000+0 -17370-3 0  9998
2 64831  51.8993 118.0837 0000964 107.0118 253.0950 14.79927152 65286
KUIPER-00086            
1 64832U 25151S   26270.03545060  .00000943  00000+0  15278-3 0  9998
2 64832  51.9004 127.7665 0001164  86.8950 273.2146 14.79928370 65158
KUIPER-00087            
1 64833U 25151T   26269.98679088  .00002193  00000+0  31651-3 0  9991
2 64833  51.8984 110.4329 0000752 114.4855 245.6186 14.79938442 65388
KUIPER-00089            
1 64834U 25151U   26269.98137920 -.00002405  00000+0 -28658-3 0  9997
2 64834  51.8981 115.4818 0000372  85.9492 274.1513 14.79932866 65320
KUIPER-00090            
1 64835U 25151V   26270.25960813  .00000804  00000+0  13447-3 0  9994
2 64835  51.8971 106.7446 0000903 115.4001 244.7055 14.79925998 65462
KUIPER-00091            
1 64836U 25151W   26270.25421800  .00000717  00000+0  12313-3 0  9997
2 64836  51.8975 111.8020 0001024 106.1696 253.9379 14.79928835 65390
KUIPER-00092            
1 64837U 25151X   26269.77341269  .00002196  00000+0  31689-3 0  9993
2 64837  51.8989 121.4135 0000877 107.6017 252.5041 14.79936228 66430
KUIPER-00093            
1 64838U 25151Y   26269.77070936  .00002033  00000+0  29555-3 0  9993
2 64838  51.8988 123.8951 0000852 110.2692 249.8361 14.79938278 65186
KUIPER-00094            
1 64839U 25151Z   26269.68420923  .00000381  00000+0  78957-4 0  9994
2 64839  51.9038  79.3954 0001103 124.5808 235.5259 14.79933983 65804
KUIPER-00081            
1 65132U 25171A   26270.16345741  .00002831  00000+0  40013-3 0  9995
2 65132  51.9007 337.1562 0000394  78.0085 282.0922 14.79935148 62871
KUIPER-00088            
1 65133U 25171B   26270.27964997  .00000988  00000+0  15855-3 0  9995
2 65133  51.8999 354.1441 0000606 100.1445 259.9586 14.79930895 62647
KUIPER-00095            
1 65134U 25171C   26269.89604980  .00001718  00000+0  25429-3 0  9995
2 65134  51.8979 335.8723 0000224  66.6759 293.4227 14.79934286 62862
KUIPER-00096            
1 65135U 25171D   26270.18643794  .00000204  00000+0  55798-4 0  9998
2 65135  51.9016 347.0494 0000373  87.1279 272.9726 14.79933132 62737
KUIPER-00097            
1 65136U 25171E   26270.25129846  .00001740  00000+0  25720-3 0  9991
2 65136  51.9037 349.4324 0000634 107.0018 253.1014 14.79933138 62694
KUIPER-00098            
1 65137U 25171F   26270.24857215  .00002900  00000+0  40930-3 0  9998
2 65137  51.9011 351.8020 0000609  75.7249 284.3781 14.79923799 62011
KUIPER-00099            
1 65138U 25171G   26270.22560654  .00001757  00000+0  25944-3 0  9992
2 65138  51.9025 341.9201 0000313  91.8558 268.2441 14.79934473 62804
KUIPER-00100            
1 65139U 25171H   26270.19453416  .00001396  00000+0  21212-3 0  9999
2 65139  51.9002 339.5205 0000340  53.2785 306.8209 14.79929405 62834
KUIPER-00102            
1 65140U 25171J   26269.92171245  .00000148  00000+0  48396-4 0  9994
2 65140  51.8982 343.1971 0000296 100.3207 259.7789 14.79931428 62754
KUIPER-00103            
1 65141U 25171K   26270.27425759  .00000495  00000+0  93979-4 0  9999
2 65141  51.8984 359.1379 0000244  67.3915 292.7073 14.79926822 62561
KUIPER-00104            
1 65142U 25171L   26269.47738339  .00000733  00000+0  12513-3 0  9990
2 65142  51.9009 350.1815 0000262  41.4578 318.6405 14.79932909 62622
KUIPER-00105            
1 65143U 25171M   26270.24589705  .00001163  00000+0  18149-3 0  9998
2 65143  51.9013 354.3758 0000274  75.5329 284.5664 14.79930171 62633
KUIPER-00106            
1 65144U 25171N   26269.48378319  .00001519  00000+0  22817-3 0  9992
2 65144  51.9022 336.5161 0000368  72.6749 287.4253 14.79935949 62827
KUIPER-00107            
1 65145U 25171P   26270.19723951  .00002756  00000+0  39036-3 0  9994
2 65145  51.9013 337.0338 0000534  84.3874 275.7149 14.79933477 62877
KUIPER-00108            
1 65146U 25171Q   26269.54221802  .00003600  00000+0  50088-3 0  9999
2 65146  51.9026 352.4782 0000287  78.0379 282.0616 14.79939109 62600
KUIPER-00109            
1 65147U 25171R   26270.18913759  .00000090  00000+0  40862-4 0  9991
2 65147  51.9027 344.5620 0000583  90.8929 269.2100 14.79934313 62761
KUIPER-00110            
1 65148U 25171S   26270.27695643 -.00001804  00000+0 -20776-3 0  9998
2 65148  51.8995 356.7170 0000142  57.1080 302.9896 14.79932260 62592
KUIPER-00111            
1 65149U 25171T   26270.23778239  .00001432  00000+0  21685-3 0  9993
2 65149  51.8963   1.7445 0000231  97.5140 262.5849 14.79929767 62524
KUIPER-00112            
1 65150U 25171U   26269.48007504  .00002398  00000+0  34345-3 0  9999
2 65150  51.9013 347.7381 0000289 102.4205 257.6790 14.79929976 62652
KUIPER-00114            
1 65151U 25171V   26269.55979917  .00000781  00000+0  13146-3 0  9994
2 65151  51.8999   7.3406 0000216  66.9423 293.1562 14.79931361 62381
KUIPER-00115            
1 65152U 25171W   26270.24319063  .00001164  00000+0  18166-3 0  9996
2 65152  51.9013 356.8318 0000615  88.0694 272.0339 14.79932871 62590
KUIPER-00116            
1 65153U 25171X   26270.27156765  .00001106  00000+0  17401-3 0  9995
2 65153  51.9043   1.7380 0000519 102.4289 257.6731 14.79928125 62528
KUIPER-00118            
1 65154U 25171Y   26270.26886200  .00000298  00000+0  68031-4 0  9996
2 65154  51.8988   4.1953 0000686 100.5215 259.5824 14.79931743 62492
KUIPER-00119            
1 65155U 25171Z   26269.53952432  .00000196  00000+0  54708-4 0  9999
2 65155  51.9019 355.0239 0000355  92.9567 267.1436 14.79931028 62558
KUIPER-00120            
1 65762U 25217A   26269.37115785  .00002688  00000+0  38146-3 0  9993
2 65762  51.8976 245.6328 0000760  58.9046 301.1991 14.79936892 54459
KUIPER-00132            
1 65763U 25217B   26269.94428406  .00030624  00000+0  77226-3 0  9997
2 65763  51.8509 104.1652 0005143 325.6611  34.4043 15.39590293 56468
KUIPER-00133            
1 65764U 25217C   26270.21530441  .00002769  00000+0  39209-3 0  9991
2 65764  51.9036 242.0430 0000783  75.2989 284.8060 14.79929644 54582
KUIPER-00139            
1 65765U 25217D   26270.25034379  .00002222  00000+0  32047-3 0  9992
2 65765  51.8983 209.3075 0001097  69.1469 290.9610 14.79931105 55044
KUIPER-00142            
1 65766U 25217E   26269.25498444  .00001084  00000+0  17116-3 0  9993
2 65766  51.8968 228.6775 0001015  65.3273 294.7795 14.79932474 54685
KUIPER-00145            
1 65767U 25217F   26270.26522965  .00002546  00000+0  36286-3 0  9996
2 65767  51.9002 226.7356 0000883  60.4400 299.6650 14.79936955 54794
KUIPER-00147            
1 65768U 25217G   26269.41823290 -.00010752  00000+0 -13844-2 0  9991
2 65768  51.8974 232.9511 0000909  58.7203 301.3849 14.79909590 54633
KUIPER-00148            
1 65769U 25217H   26270.24765069  .00002978  00000+0  41946-3 0  9998
2 65769  51.9033 211.8415 0000781  89.6151 270.4901 14.79929267 55003
KUIPER-00150            
1 65770U 25217J   26270.28552350  .00002545  00000+0  36275-3 0  9990
2 65770  51.9004 239.1684 0000819  76.2183 283.8870 14.79928807 54622
KUIPER-00151            
1 65771U 25217K   26269.34817365 -.00003291  00000+0 -40292-3 0  9991
2 65771  51.9002 235.8126 0000724  68.8893 291.2147 14.79933488 54592
KUIPER-00152            
1 65772U 25217L   26270.27332733  .00002718  00000+0  38541-3 0  9992
2 65772  51.9012 219.1999 0000941  65.9034 294.2027 14.79929678 54904
KUIPER-00153            
1 65773U 25217M   26270.21119332  .00003003  00000+0  42278-3 0  9995
2 65773  51.9012 214.5646 0000995  90.4227 269.6849 14.79923684 54964
KUIPER-00155            
1 65774U 25217N   26270.17332190  .00003095  00000+0  43472-3 0  9998
2 65774  51.9024 187.1944 0000815  94.3727 265.7328 14.79940767 55346
KUIPER-00156            
1 65775U 25217P   26269.97484134  .00002574  00000+0  36652-3 0  9994
2 65775  51.9010 215.5923 0000790  79.4020 280.7031 14.79934719 54928
KUIPER-00165            
1 65778U 25217S   26270.16663822  .00000676  00000+0  11772-3 0  9990
2 65778  51.8987 224.6744 0001256 101.2752 258.8351 14.79933588 54811
KUIPER-00166            
1 65779U 25217T   26270.21388143  .00002785  00000+0  39414-3 0  9993
2 65779  51.9014 212.0292 0000853  91.7187 268.3873 14.79935772 54991
KUIPER-00167            
1 65780U 25217U   26269.61558942 -.00000063  00000+0  20741-4 0  9995
2 65780  51.8939 236.9888 0000954  68.2511 291.8553 14.79927733 54596
KUIPER-00168            
1 65781U 25217V   26270.24224250  .00003047  00000+0  42863-3 0  9991
2 65781  51.8994 216.8455 0001001  75.7448 284.3626 14.79925608 54936
KUIPER-00169            
1 65782U 25217W   26269.08885974 -.00000155  00000+0  86903-5 0  9991
2 65782  51.9004 226.9602 0000714  81.1395 278.9648 14.79929672 54699
KUIPER-00170            
1 65783U 25217X   26269.96134625  .00002498  00000+0  35662-3 0  9994
2 65783  51.8970 228.0413 0000658  83.5543 276.5494 14.79928260 54754
KUIPER-00172            
1 65785U 25217Z   26270.21658233  .00002667  00000+0  37867-3 0  9999
2 65785  51.8974 209.4461 0001278  69.0220 291.0879 14.79940715 55036
KUIPER-00173            
1 65786U 25217AA  26270.27060511  .00003006  00000+0  42293-3 0  9999
2 65786  51.8989 221.7233 0000978  56.9902 303.1154 14.79953084 54869
KUIPER-00174            
1 65787U 25217AB  26270.20847021  .00002950  00000+0  41559-3 0  9993
2 65787  51.9021 217.0644 0000994  83.6536 276.4539 14.79954479 54925
KUIPER-00176            
1 65788U 25217AC  26270.25983610  .00001842  00000+0  27059-3 0  9992
2 65788  51.8989 231.7505 0000913  58.5825 301.5226 14.79936098 54728
KUIPER-00101            
1 65947U 25228A   26270.06925565  .00001215  00000+0  18843-3 0  9990
2 65947  51.9008 190.0384 0000706  51.0174 309.0851 14.79902925 53059
KUIPER-00113            
1 65948U 25228B   26270.17600238  .00000665  00000+0  11624-3 0  9998
2 65948  51.8982 184.5871 0001095  88.2259 271.8829 14.79921796 53134
KUIPER-00117            
1 65949U 25228C   26270.20706601  .00002886  00000+0  40745-3 0  9997
2 65949  51.8971 186.9490 0001053  85.4648 274.6434 14.79933101 53104
KUIPER-00121            
1 65950U 25228D   26270.17871013  .00000311  00000+0  69787-4 0  9994
2 65950  51.8993 182.0991 0001054  85.6544 274.4538 14.79930540 53175
KUIPER-00122            
1 65951U 25228E   26270.16791446  .00001016  00000+0  16227-3 0  9998
2 65951  51.9000 192.1133 0000683  95.6198 264.4842 14.79932464 53038
KUIPER-00123            
1 65952U 25228F   26270.20167251  .00001511  00000+0  22713-3 0  9992
2 65952  51.8966 191.9735 0001049  80.2156 279.8925 14.79930184 53034
KUIPER-00124            
1 65953U 25228G   26270.20976627  .00001196  00000+0  18592-3 0  9997
2 65953  51.8978 184.4272 0001131  77.9245 282.1844 14.79935392 53140
KUIPER-00125            
1 65954U 25228H   26270.15840613  .00003038  00000+0  42745-3 0  9991
2 65954  51.8996 169.7094 0001153  98.0137 262.0956 14.79918960 53342
KUIPER-00126            
1 65955U 25228J   26270.17061770  .00002953  00000+0  41615-3 0  9993
2 65955  51.8983 189.6335 0000894  83.2876 276.8188 14.79935849 53069
KUIPER-00127            
1 65956U 25228K   26270.16182655 -.00000781  00000+0 -73395-4 0  9999
2 65956  51.8996 182.1559 0001133  78.4017 281.7073 14.79928978 53175
KUIPER-00128            
1 65957U 25228L   26269.06447324  .00000626  00000+0  11109-3 0  9994
2 65957  51.8989 187.0743 0001021  90.5612 269.5467 14.79932067 53006
KUIPER-00129            
1 65958U 25228M   26270.04904181  .00000432  00000+0  85738-4 0  9999
2 65958  51.9004 177.6986 0001017  78.1201 281.9875 14.79925159 53220
KUIPER-00130            
1 65959U 25228N   26270.14765202  .00001308  00000+0  20050-3 0  9998
2 65959  51.9034 179.8124 0000886  86.8297 273.2767 14.79933809 43499
KUIPER-00134            
1 65960U 25228P   26270.15865424  .00027110  00000+0  72231-3 0  9995
2 65960  51.8699  62.4102 0004736 292.5673  67.4813 15.37967966 54833
KUIPER-00135            
1 65961U 25228Q   26270.11388615  .00001157  00000+0  18080-3 0  9999
2 65961  51.9015 180.0109 0000897  88.0010 272.1056 14.79934851 53192
KUIPER-00136            
1 65962U 25228R   26269.06982352  .00000339  00000+0  73516-4 0  9997
2 65962  51.9017 182.0730 0001025  79.0055 281.1023 14.79910130 53075
KUIPER-00137            
1 65963U 25228S   26270.15304387 -.00000601  00000+0 -49838-4 0  9990
2 65963  51.9039 174.7965 0001099  74.1690 285.9394 14.79927532 53279
KUIPER-00138            
1 65964U 25228T   26270.12195489  .00002880  00000+0  40668-3 0  9999
2 65964  51.8979 172.3264 0001039  84.7750 275.3331 14.79933268 53307
KUIPER-00140            
1 65965U 25228U   26270.11927052  .00000703  00000+0  12122-3 0  9994
2 65965  51.8999 174.9341 0001174  86.3215 273.7882 14.79935615 53264
KUIPER-00141            
1 65966U 25228V   26270.12468016 -.00000245  00000+0 -30803-5 0  9997
2 65966  51.9030 169.9899 0000682 102.0686 258.0353 14.79927385 53337
KUIPER-00146            
1 65967U 25228W   26269.14279889  .00002067  00000+0  30010-3 0  9996
2 65967  51.9028 176.8439 0001280  87.0408 273.0701 14.79937059 53154
KUIPER-00149            
1 65968U 25228X   26269.99230725  .00000172  00000+0  51637-4 0  9990
2 65968  51.9013 167.9595 0000886  89.2137 270.8927 14.79929386 53358
KUIPER-00154            
1 65969U 25228Y   26270.09628924 -.00000862  00000+0 -84096-4 0  9999
2 65969  51.9020 164.9789 0000844 108.0340 252.0714 14.79929744 53409
KUIPER-00157            
1 65970U 25228Z   26270.20190738  .00002191  00000+0  34455-3 0  9999
2 65970  51.9068 166.8934 0000791  62.2917 297.8124 14.76187306 53384
KUIPER-00144            
1 67133U 25301A   26270.00999583  .00002427  00000+0  34727-3 0  9991
2 67133  51.8998 245.3875 0000815  59.6350 300.4693 14.79939509 43680
KUIPER-00164            
1 67134U 25301B   26270.26665038  .00000435  00000+0  86037-4 0  9994
2 67134  51.9038 256.7748 0000616  50.4916 309.6101 14.79933893 43728
KUIPER-00175            
1 67135U 25301C   26269.37386527  .00000434  00000+0  85934-4 0  9992
2 67135  51.8990 243.1526 0000798  49.4592 310.6440 14.79930588 43735
KUIPER-00179            
1 67136U 25301D   26270.26933815  .00001294  00000+0  19875-3 0  9996
2 67136  51.8982 254.1887 0000701  23.9019 336.1975 14.79930759 43763
KUIPER-00181            
1 67137U 25301E   26269.37797528  .00000771  00000+0  13019-3 0  9999
2 67137  51.9004 270.7002 0000654  42.2043 317.8970 14.79931737 43433
KUIPER-00183            
1 67138U 25301F   26270.18692462  .00001592  00000+0  23781-3 0  9991
2 67138  51.9028 237.1290 0000874  59.9471 300.1578 14.79930136 43981
KUIPER-00184            
1 67139U 25301G   26270.24096197 -.00000036  00000+0  24335-4 0  9992
2 67139  51.8990 249.3268 0000602  63.5227 296.5797 14.79931434 43925
KUIPER-00186            
1 67140U 25301H   26270.01948976  .00002323  00000+0  33364-3 0  9991
2 67140  51.9018 267.8717 0000606  68.4479 291.6548 14.79927372 43375
KUIPER-00187            
1 67141U 25301J   26270.01676115  .00002205  00000+0  31828-3 0  9997
2 67141  51.9020 270.4124 0000823  91.5441 268.5616 14.79913740 43337
KUIPER-00188            
1 67142U 25301K   26270.28821705  .00002841  00000+0  40146-3 0  9993
2 67142  51.9014 236.7963 0000871  56.7294 303.3752 14.79944244 43825
KUIPER-00191            
1 67143U 25301L   26270.26125889  .00001131  00000+0  17735-3 0  9991
2 67143  51.8996 261.8037 0000599  51.1048 308.9968 14.79930537 43503
KUIPER-00196            
1 67144U 25301M   26270.23955968  .00000028  00000+0  32760-4 0  9998
2 67144  51.8936 219.3478 0001002  80.9701 279.1375 14.79927820 44065
KUIPER-00204            
1 67145U 25301N   26269.98700581  .00002630  00000+0  37384-3 0  9995
2 67145  51.9006 235.5049 0000842  68.7794 291.3259 14.79938790 43936
KUIPER-00210            
1 67146U 25301P   26269.95723794  .00002176  00000+0  31403-3 0  9995
2 67146  51.8978 263.0905 0000680  49.6329 310.4693 14.79968896 43602
KUIPER-00221            
1 67147U 25301Q   26270.25314967 -.00001328  00000+0 -14519-3 0  9998
2 67147  51.8987 269.3235 0001264  82.6739 277.4367 14.79941414 43370
KUIPER-00232            
1 67148U 25301R   26270.23557523  .00002645  00000+0  37577-3 0  9994
2 67148  51.8983 254.4069 0000587  52.8432 307.2584 14.79938220 43579
KUIPER-00241            
1 67149U 25301S   26269.98842996  .00002411  00000+0  34520-3 0  9992
2 67149  51.9019 265.5264 0000746  62.9593 297.1446 14.79932777 43731
KUIPER-00245            
1 67150U 25301T   26270.04788640  .00002325  00000+0  33393-3 0  9999
2 67150  51.8996 272.7714 0000649  85.4791 274.6245 14.79927272 43302
KUIPER-00246            
1 67151U 25301U   26269.49005436 -.00000017  00000+0  26775-4 0  9996
2 67151  51.8974 260.1747 0000673  53.0448 307.0575 14.79931287 43457
KUIPER-00247            
1 67152U 25301V   26269.36576697  .00002701  00000+0  38314-3 0  9997
2 67152  51.8951 250.6643 0000690  61.5085 298.5947 14.79933444 43557
KUIPER-00248            
1 67153U 25301W   26270.26255281  .00002894  00000+0  40846-3 0  9998
2 67153  51.8980 229.3460 0000828  73.0352 287.0702 14.79928380 44093
KUIPER-00249            
1 67154U 25301X   26269.90871656  .00002281  00000+0  32809-3 0  9998
2 67154  51.8982 245.8455 0000775  46.4639 313.6388 14.79934104 43665
KUIPER-00250            
1 67155U 25301Y   26269.18346397 -.00000294  00000+0 -95167-5 0  9990
2 67155  51.8988 264.0060 0001024  21.5740 338.5265 14.79930075 43384
KUIPER-00251            
1 67156U 25301Z   26269.93978188  .00002433  00000+0  34813-3 0  9997
2 67156  51.8995 248.2379 0000709  57.7320 302.3711 14.79928181 43823
KUIPER-00252            
1 67157U 25301AA  26269.93708081  .00000623  00000+0  11068-3 0  9997
2 67157  51.8987 250.6982 0000564 107.2188 252.8836 14.79925932 43608
KUIPER-00261            
1 67158U 25301AB  26270.23018951  .00002420  00000+0  34643-3 0  9994
2 67158  51.9007 259.4703 0000641  48.3571 311.7447 14.79926259 43503
KUIPER-00265            
1 67159U 25301AC  26270.04517854  .00002284  00000+0  32850-3 0  9996
2 67159  51.9025 275.2662 0000518  69.7129 290.3889 14.79937886 43301
KUIPER-00159            
1 67764U 26030A   26270.25002315  .00012347  00000+0  16453-2 0  9993
2 67764  51.9022 353.0978 0001126 338.4618 351.1087 14.79940941  4668
KUIPER-00160            
1 67765U 26030B   26269.91292680  .00001755  00000+0  25909-3 0  9999
2 67765  51.8988 335.8370 0000374 146.9499 213.1487 14.79933328 35910
KUIPER-00177            
1 67766U 26030C   26269.38430605  .00001129  00000+0  17713-3 0  9991
2 67766  51.9011  45.6563 0000674 111.9555 248.1479 14.79931273 34899
KUIPER-00178            
1 67767U 26030D   26270.09335741  .00001697  00000+0  25152-3 0  9993
2 67767  51.9018  42.5010 0000426 100.4740 259.6270 14.79938176 35003
KUIPER-00180            
1 67768U 26030E   26268.68062697  .00003000  00000+0  42233-3 0  9992
2 67768  51.8982  43.7373 0000496 140.3226 219.7773 14.79933430 34863
KUIPER-00197            
1 67769U 26030F   26269.58008225  .00001819  00000+0  26758-3 0  9990
2 67769  51.8998  19.7789 0000289 110.7760 249.3233 14.79935070 35277
KUIPER-00198            
1 67770U 26030G   26268.65495374  .00001757  00000+0  25934-3 0  9990
2 67770  51.8990  36.3423 0000366 124.8269 235.2728 14.79935965 34968
KUIPER-00199            
1 67771U 26030H   26270.25002315 -.00076819  00000+0 -62289-2 0  9995
2 67771  51.8949 329.0962 0012260  63.4101  55.6381 14.99478776  4816
KUIPER-00200            
1 67772U 26030J   26269.48149532  .00001033  00000+0  16450-3 0  9996
2 67772  51.8977  17.7304 0000232 102.0929 258.0059 14.79933905 35298
KUIPER-00203            
1 67773U 26030K   26270.12174659 -.00000379  00000+0 -20675-4 0  9997
2 67773  51.9057  47.4802 0000633 108.1539 251.9492 14.79930039 34939
KUIPER-00205            
1 67774U 26030L   26269.48418318  .00002951  00000+0  41593-3 0  9995
2 67774  51.9012  15.1866 0000265  98.0589 262.0404 14.79936407 35332
KUIPER-00208            
1 67775U 26030M   26270.09606088  .00000719  00000+0  12326-3 0  9990
2 67775  51.8985  39.9758 0000895 131.8999 228.2040 14.79929694 35032
KUIPER-00209            
1 67776U 26030N   26269.65982056  .00001396  00000+0  21212-3 0  9999
2 67776  51.8990  39.5059 0000417 130.4009 229.6990 14.79932754 35003
KUIPER-00213            
1 67777U 26030P   26270.30403471  .00000395  00000+0  80892-4 0  9991
2 67777  51.8963  34.1118 0000790  80.5119 279.5933 14.79925687 35134
KUIPER-00214            
1 67778U 26030Q   26269.39509181  .00001049  00000+0  16656-3 0  9997
2 67778  51.9007  35.6731 0000394 116.2133 243.8870 14.79932350 35033
KUIPER-00215            
1 67779U 26030R   26269.30726335  .00003253  00000+0  45554-3 0  9999
2 67779  51.8986  23.4120 0000321 104.3159 255.7839 14.79934376 35208
KUIPER-00218            
1 67780U 26030S   26269.66250930  .00001641  00000+0  24420-3 0  9991
2 67780  51.9007  36.8852 0000319  66.4943 293.6053 14.79927248 35042
KUIPER-00220            
1 67781U 26030T   26269.48687870  .00003491  00000+0  48656-3 0  9991
2 67781  51.8964  12.6787 0000292 109.9220 250.1774 14.79939301 35360
KUIPER-00222            
1 67782U 26030U   26270.03932255  .00001669  00000+0  24787-3 0  9999
2 67782  51.8997  30.3757 0000402 136.2543 223.8451 14.79937048 35168
KUIPER-00223            
1 67783U 26030V   26270.28374542  .00002603  00000+0  37027-3 0  9996
2 67783  51.9029  21.6082 0000373 112.5790 247.5212 14.79936374 35314
KUIPER-00225            
1 67784U 26030W   26269.60307532  .00003291  00000+0  46042-3 0  9997
2 67784  51.8978  29.7608 0000421  96.0882 264.0128 14.79938438 35135
KUIPER-00226            
1 67785U 26030X   26268.56983119  .00001971  00000+0  28745-3 0  9996
2 67785  51.9035  21.7133 0001017  34.6338 325.4691 14.79935093 35166
KUIPER-00259            
1 67786U 26030Y   26270.31212863  .00000484  00000+0  92485-4 0  9995
2 67786  51.8997  26.5287 0000484 105.9749 254.1267 14.79932190 35242
KUIPER-00260            
1 67787U 26030Z   26270.04471610  .00000778  00000+0  13104-3 0  9999
2 67787  51.9011  25.3241 0000302 127.0095 233.0895 14.79935271 35141
KUIPER-00262            
1 67788U 26030AA  26270.01093919  .00001234  00000+0  19086-3 0  9992
2 67788  51.9006  25.3886 0000624 122.4033 237.6990 14.79935662 35239
KUIPER-00266            
1 67789U 26030AB  26269.50716448  .00003385  00000+0  47282-3 0  9992
2 67789  51.8999  25.1072 0000356  93.5450 266.5553 14.79935834 35190
KUIPER-00268            
1 67790U 26030AC  26269.61116405  .00000879  00000+0  14425-3 0  9991
2 67790  51.9058  22.1945 0000363 153.6686 206.4295 14.79931864 35243
KUIPER-00270            
1 67791U 26030AD  26270.26347451  .00000796  00000+0  13335-3 0  9999
2 67791  51.8997   9.2533 0000370  83.9662 276.1343 14.79933783 35487
KUIPER-00274            
1 67792U 26030AE  26269.63143827  .00001756  00000+0  25932-3 0  9993
2 67792  51.9039  34.5686 0000509 103.4232 256.6787 14.79931911 35072
KUIPER-00275            
1 67793U 26030AF  26270.26078168  .00000993  00000+0  15929-3 0  9997
2 67793  51.9006  11.7764 0000370 117.4507 242.6493 14.79928204 35448
KUIPER-00276            
1 67794U 26030AG  26270.28914855  .00003021  00000+0  42513-3 0  9996
2 67794  51.8991  16.6278 0000547  89.7610 270.3415 14.79935127 35384
KUIPER-00279            
1 67795U 26030AH  26270.26617681  .00002743  00000+0  38871-3 0  9994
2 67795  51.9016   6.7831 0000817  90.1473 269.9583 14.79933660 35517
KUIPER-00131            
1 68573U 26072A   26270.26230934 -.00000289  00000+0 -89193-5 0  9997
2 68573  51.8975 104.2765 0000935 111.4230 248.6832 14.79929071 26235
KUIPER-00189            
1 68574U 26072B   26269.82066538  .00002057  00000+0  29879-3 0  9991
2 68574  51.8974 108.7037 0000818 113.8028 246.3020 14.79931895 26137
KUIPER-00192            
1 68575U 26072C   26269.72476754 -.00000169  00000+0  68933-5 0  9995
2 68575  51.8985 104.1469 0000906 114.4579 245.6478 14.79927653 26197
KUIPER-00193            
1 68576U 26072D   26269.93814518 -.00000636  00000+0 -54357-4 0  9997
2 68576  51.9033  93.2554 0001089 121.5593 238.5476 14.79926200 26369
KUIPER-00194            
1 68577U 26072E   26269.89629190  .00002106  00000+0  30513-3 0  9992
2 68577  51.9006 100.9161 0000851 109.2918 250.8137 14.79934234 26255
KUIPER-00229            
1 68578U 26072F   26270.22854455  .00002358  00000+0  33814-3 0  9992
2 68578  51.9002 104.4285 0000702 109.9040 250.1998 14.79935752 26238
KUIPER-00230            
1 68579U 26072G   26270.00002315 -.00026799  00000+0 -37894-2 0  9997
2 68579  51.9032  52.7460 0001046  92.4621 282.8191 14.76586475  2394
KUIPER-00231            
1 68580U 26072H   26269.92055454  .00002462  00000+0  35177-3 0  9992
2 68580  51.8970  78.3571 0001787 134.9244 225.1864 14.79939029 26560
KUIPER-00234            
1 68581U 26072J   26270.26770035  .00001892  00000+0  27714-3 0  9995
2 68581  51.8968  99.2375 0001171 114.3546 245.7539 14.79932891 26305
KUIPER-00236            
1 68582U 26072K   26270.25002315  .00037869  00000+0  49737-2 0  9995
2 68582  51.9032  54.3264 0001177 111.8808 255.5251 14.79888889  5615
KUIPER-00244            
1 68583U 26072L   26269.70448739  .00002250  00000+0  32403-3 0  9997
2 68583  51.8980  91.7498 0000931 119.5003 240.6052 14.79931560 26364
KUIPER-00253            
1 68584U 26072M   26269.90437329  .00002079  00000+0  30165-3 0  9995
2 68584  51.9019  93.3956 0000925 116.1754 243.9303 14.79939988 26351
KUIPER-00254            
1 68585U 26072N   26269.93543776  .00002063  00000+0  29957-3 0  9993
2 68585  51.9021  95.7551 0000947 105.4791 254.6276 14.79930428 26323
KUIPER-00263            
1 68586U 26072P   26269.95162370  .00002137  00000+0  30919-3 0  9995
2 68586  51.9005  80.7489 0000670 116.7496 243.3535 14.79936867 26539
KUIPER-00269            
1 68587U 26072Q   26269.74633971  .00000978  00000+0  15731-3 0  9999
2 68587  51.8986  84.0611 0000766 107.1224 252.9822 14.79928489 26479
KUIPER-00272            
1 68588U 26072R   26269.75851918 -.00000507  00000+0 -37500-4 0  9993
2 68588  51.8962 103.9684 0000995 120.8533 239.2528 14.79928305 26191
KUIPER-00285            
1 68589U 26072S   26269.91517699  .00000442  00000+0  86979-4 0  9997
2 68589  51.9039  83.4027 0001429 100.0853 260.0271 14.79930405 26493
KUIPER-00286            
1 68590U 26072T   26269.91784755 -.00001469  00000+0 -16370-3 0  9997
2 68590  51.8997  80.8154 0000531  73.0209 287.0812 14.79928277 26535
KUIPER-00289            
1 68591U 26072U   26269.90976009  .00002169  00000+0  31345-3 0  9997
2 68591  51.8978  88.3262 0000974 122.6752 237.4304 14.79934801 26426
KUIPER-00290            
1 68592U 26072V   26269.74091204  .00002033  00000+0  29558-3 0  9998
2 68592  51.9016  89.0848 0000688 130.6098 229.4924 14.79940910 26408
KUIPER-00293            
1 68593U 26072W   26269.89897064  .00002157  00000+0  31179-3 0  9992
2 68593  51.8966  98.3527 0001832  80.2170 279.8999 14.79939782 26284
KUIPER-00294            
1 68594U 26072X   26270.18258475  .00002306  00000+0  33143-3 0  9993
2 68594  51.8986  84.6219 0000717 115.3888 244.7149 14.79935339 26507
KUIPER-00296            
1 68595U 26072Y   26270.16769445  .00001046  00000+0  16614-3 0  9990
2 68595  51.9009  67.2076 0000673 127.7173 232.3851 14.79933008 26748
KUIPER-00297            
1 68596U 26072Z   26269.73014921 -.00000608  00000+0 -50661-4 0  9990
2 68596  51.8963  99.1006 0001544 124.3310 235.7798 14.79929602 26267
KUIPER-00300            
1 68597U 26072AA  26270.23933346  .00002275  00000+0  32730-3 0  9995
2 68597  51.9012  94.3875 0000760 121.8743 238.2293 14.79928704 26378
KUIPER-00301            
1 68598U 26072AB  26269.73415807  .00001679  00000+0  26926-3 0  9993
2 68598  51.9016  66.3099 0001827 217.4633 142.6200 14.76514756 26714
KUIPER-00304            
1 68599U 26072AC  26269.69577440  .00001749  00000+0  27851-3 0  9997
2 68599  51.8999  68.4246 0000768  45.2277 314.8746 14.76628960 26682
KUIPER-00317            
1 68600U 26072AD  26269.74364352  .00000620  00000+0  11031-3 0  9992
2 68600  51.8966  86.5687 0000508 106.8656 253.2362 14.79929843 26436
KUIPER-00320            
1 68601U 26072AE  26270.21095251  .00001277  00000+0  19652-3 0  9992
2 68601  51.9018  89.5222 0000886 100.2093 259.8969 14.79926422 26431
KUIPER-00299            
1 68864U 26095A   26269.96662858  .00001122  00000+0  17614-3 0  9996
2 68864  51.8977 160.5638 0001149 100.3325 259.7767 14.79929950 22685
KUIPER-00353            
1 68865U 26095B   26269.07115649  .00002134  00000+0  30880-3 0  9994
2 68865  51.8994 149.5506 0001269  98.9252 261.1854 14.79933453 22766
KUIPER-00357            
1 68866U 26095C   26270.10977641  .00000422  00000+0  84453-4 0  9993
2 68866  51.8996 152.4689 0001480  84.2601 275.8530 14.79927665 22812
KUIPER-00364            
1 68867U 26095D   26270.07332468  .00001864  00000+0  27346-3 0  9990
2 68867  51.9035 155.1552 0001201  81.0891 279.0207 14.79930573 22778
KUIPER-00375            
1 68868U 26095E   26267.88668918  .00001888  00000+0  27656-3 0  9998
2 68868  51.8998 157.2953 0000877 105.0771 255.0289 14.79933061 22551
KUIPER-00433            
1 68869U 26095F   26270.09898890  .00002105  00000+0  30505-3 0  9990
2 68869  51.8998 162.5056 0001325  82.7037 277.4076 14.79934622 22679
KUIPER-00437            
1 68870U 26095G   26270.25002315 -.00070441  00000+0 -83375-2 0  9991
2 68870  51.8971 113.7921 0008563 336.4252 112.0157 14.84470783  3403
KUIPER-00448            
1 68871U 26095H   26270.25002315 -.00011105  00000+0 -14297-2 0  9991
2 68871  51.9027 151.8473 0001034 108.4268  99.2615 14.79942240  2839
KUIPER-00459            
1 68872U 26095J   26270.05573635  .00002420  00000+0  34628-3 0  9997
2 68872  51.9014 140.2667 0000888 109.0844 251.0215 14.79941130 22974
KUIPER-00468            
1 68873U 26095K   26269.93731675  .00001556  00000+0  25102-3 0  9999
2 68873  51.8968 138.4762 0000671 176.4543 183.6423 14.76632695 22994
KUIPER-00476            
1 68874U 26095L   26270.25002315 -.00046708  00000+0 -61327-2 0  9997
2 68874  51.8989 119.2593 0001160 117.0920  83.9249 14.79985984  5298
KUIPER-00478            
1 68875U 26095M   26270.05303405  .00002471  00000+0  35297-3 0  9995
2 68875  51.8973 142.7119 0001074 100.5091 259.5992 14.79934578 22947
KUIPER-00480            
1 68876U 26095N   26270.02197007  .00002559  00000+0  36456-3 0  9997
2 68876  51.9028 140.3675 0000737 116.0882 244.0157 14.79933346 22973
KUIPER-00482            
1 68877U 26095P   26269.94364883  .00000296  00000+0  67822-4 0  9993
2 68877  51.9019 150.6978 0001602  57.8295 302.2822 14.79933262 22823
KUIPER-00483            
1 68878U 26095Q   26270.06522922  .00000188  00000+0  53721-4 0  9992
2 68878  51.8982 162.6223 0001820  48.2683 311.8435 14.79935740 22666
KUIPER-00488            
1 68879U 26095R   26270.05034122  .00000523  00000+0  97680-4 0  9997
2 68879  51.8993 145.2323 0001219  93.4859 266.6242 14.79930844 22906
KUIPER-00489            
1 68880U 26095S   26269.92336551  .00002306  00000+0  33144-3 0  9999
2 68880  51.8957 138.2705 0001111  97.6688 262.4400 14.79933727 22993
KUIPER-00499            
1 68881U 26095T   26270.01927516  .00000299  00000+0  68304-4 0  9995
2 68881  51.8977 142.9096 0000865 101.2327 258.8732 14.79925605 22935
KUIPER-00500            
1 68882U 26095U   26270.06792012  .00000133  00000+0  46526-4 0  9991
2 68882  51.9009 160.1463 0001045  98.4431 261.6650 14.79932621 22709
KUIPER-00502            
1 68883U 26095V   26270.01757049 -.00000506  00000+0 -37335-4 0  9992
2 68883  51.9002 136.6212 0001419  90.9567 269.1558 14.79926127 23025
KUIPER-00503            
1 68884U 26095W   26270.10438274  .00000101  00000+0  42321-4 0  9999
2 68884  51.8976 157.4563 0001259  95.0237 265.0869 14.79928434 22748
KUIPER-00504            
1 68885U 26095X   26270.06253027  .00000118  00000+0  44484-4 0  9996
2 68885  51.9011 165.1761 0000737  99.5040 260.6005 14.79926378 22633
KUIPER-00505            
1 68886U 26095Y   26269.97201987  .00001876  00000+0  27499-3 0  9991
2 68886  51.9011 155.5781 0000747  96.6374 263.4674 14.79937333 22757
KUIPER-00507            
1 68887U 26095Z   26270.03345514 -.00000381  00000+0 -20941-4 0  9994
2 68887  51.8984 145.2914 0000923 103.1829 256.9237 14.79929098 22903
KUIPER-00511            
1 68888U 26095AA  26268.94419112  .00001979  00000+0  28847-3 0  9992
2 68888  51.8984 142.7183 0001158  90.1487 269.9608 14.79936720 22849
KUIPER-00512            
1 68889U 26095AB  26270.07062214 -.00000306  00000+0 -11069-4 0  9991
2 68889  51.9007 157.6446 0001029  93.4894 266.6186 14.79928267 22739
KUIPER-00519            
1 68890U 26095AC  26270.08141484  .00000543  00000+0  10027-3 0  9994
2 68890  51.9025 147.6622 0000592 112.6844 247.4181 14.79932643 22879
KUIPER-00521            
1 68891U 26095AD  26269.80958744  .00000165  00000+0  50646-4 0  9990
2 68891  51.9036 142.5577 0000725  95.8613 264.2433 14.79927352 22923
KUIPER-00524            
1 68892U 26095AE  26270.04494197  .00002684  00000+0  38093-3 0  9995
2 68892  51.8975 150.2267 0001105  91.3466 268.7623 14.79935100 22837
KUIPER-00370            
1 68919U 26098A   26270.14047358  .00002439  00000+0  34885-3 0  9995
2 68919  51.8976 327.1858 0000435  56.0714 304.0290 14.79930868 22580
KUIPER-00380            
1 68920U 26098B   26270.14858533 -.00000069  00000+0  19953-4 0  9990
2 68920  51.8997 319.7870 0000372  56.8751 303.2247 14.79930282 22689
KUIPER-00386            
1 68921U 26098C   26270.16277055  .00000912  00000+0  14862-3 0  9996
2 68921  51.8990 322.2215 0000423  75.0343 285.0666 14.79931581 22654
KUIPER-00388            
1 68922U 26098D   26270.20264180  .00002756  00000+0  39030-3 0  9999
2 68922  51.9015 332.2067 0000310  81.2697 278.8301 14.79935398 22517
KUIPER-00405            
1 68923U 26098E   26270.15467990  .00001572  00000+0  23520-3 0  9990
2 68923  51.9010 329.7720 0000695 268.7045  91.3837 14.79930336 22547
KUIPER-00408            
1 68924U 26098F   26270.14588176  .00000319  00000+0  70788-4 0  9997
2 68924  51.8964 322.2223 0000380  68.1896 291.9106 14.79928770 22656
KUIPER-00409            
1 68925U 26098G   26270.19114097  .00002512  00000+0  35841-3 0  9997
2 68925  51.9029 327.1123 0000474  88.4319 271.6698 14.79933279 22585
KUIPER-00410            
1 68926U 26098H   26270.19382614  .00002533  00000+0  36111-3 0  9994
2 68926  51.8978 324.5711 0000311 170.4085 189.6884 14.79930180 22622
KUIPER-00412            
1 68927U 26098J   26270.11752071  .00000970  00000+0  15624-3 0  9994
2 68927  51.9016 317.4503 0000592  38.6444 321.4561 14.79931968 22715
KUIPER-00413            
1 68928U 26098K   26269.39496787  .00000897  00000+0  14668-3 0  9997
2 68928  51.9009 333.1099 0000267 248.6460 111.4474 14.79933827 22438
KUIPER-00414            
1 68929U 26098L   26270.22831136  .00000937  00000+0  15186-3 0  9994
2 68929  51.8967 339.5057 0000636 160.0317 200.0670 14.79930091 22414
KUIPER-00415            
1 68930U 26098M   26270.11212530  .00000778  00000+0  13099-3 0  9999
2 68930  51.9009 322.4603 0000286  53.3518 306.7471 14.79934768 22643
KUIPER-00416            
1 68931U 26098N   26270.12993635  .00002413  00000+0  34519-3 0  9991
2 68931  51.9022 313.7329 0000364  81.4586 278.6417 14.79966374 22769
KUIPER-00420            
1 68932U 26098P   26270.12020579  .00000663  00000+0  11602-3 0  9993
2 68932  51.8975 314.8842 0000289  85.5358 274.5638 14.79927818 22755
KUIPER-00421            
1 68933U 26098Q   26270.18231500 -.00002119  00000+0 -24903-3 0  9996
2 68933  51.9052 319.5984 0000728  82.0795 278.0250 14.79936016 22699
KUIPER-00425            
1 68934U 26098R   26269.36386913 -.00001418  00000+0 -15701-3 0  9991
2 68934  51.9018 330.7609 0000771  77.5721 282.5328 14.79922250 22463
KUIPER-00430            
1 68935U 26098S   26269.42872136  .00003208  00000+0  44956-3 0  9997
2 68935  51.9032 332.8742 0000359  85.3405 274.7599 14.79937279 22447
KUIPER-00431            
1 68936U 26098T   26269.49356364  .00001760  00000+0  25975-3 0  9996
2 68936  51.8994 335.1712 0000190  23.2314 336.8657 14.79933360 22419
KUIPER-00432            
1 68937U 26098U   26270.17694079  .00000464  00000+0  89891-4 0  9990
2 68937  51.8988 324.5485 0000364  54.7703 305.3294 14.79932011 22629
KUIPER-00434            
1 68938U 26098V   26270.17695844  .00001582  00000+0  25613-3 0  9995
2 68938  51.9008 328.7944 0001147 154.5291 205.5727 14.76399137 22569
KUIPER-00436            
1 68939U 26098W   26270.15737353  .00001413  00000+0  21434-3 0  9996
2 68939  51.8990 327.2480 0000358  95.0722 265.0281 14.79927331 22583
KUIPER-00438            
1 68940U 26098X   26269.41724967  .00002869  00000+0  40511-3 0  9995
2 68940  51.9033 328.0487 0000414  75.2384 284.8624 14.79937943 22509
KUIPER-00439            
1 68941U 26098Y   26270.14318639  .00002460  00000+0  35165-3 0  9999
2 68941  51.9004 324.8282 0000585  69.9980 290.1046 14.79927250 22616
KUIPER-00440            
1 68942U 26098Z   26270.16816341  .00002443  00000+0  34937-3 0  9992
2 68942  51.9034 317.2174 0000642  15.4495 344.6487 14.79933497 22723
KUIPER-00442            
1 68943U 26098AA  26270.16541969  .00002461  00000+0  35183-3 0  9998
2 68943  51.9010 319.7461 0000139  31.7334 328.3637 14.79916682 22686
KUIPER-00446            
1 68944U 26098AB  26269.85888157  .00002284  00000+0  32857-3 0  9994
2 68944  51.8981 323.5814 0000969 279.2823  80.8029 14.79931988 22604
KUIPER-00451            
1 68945U 26098AC  26269.44291948  .00001384  00000+0  21046-3 0  9994
2 68945  51.8987 335.4030 0000201  86.9961 273.1024 14.79933356 22409
KUIPER-00452            
1 68946U 26098AD  26270.13170420  .00002101  00000+0  30458-3 0  9999
2 68946  51.9017 319.8763 0000403  86.7888 273.3121 14.79927578 22683
KUIPER-00453            
1 68947U 26098AE  26269.61102857  .00002701  00000+0  38319-3 0  9990
2 68947  51.8990 319.5955 0001176 165.8690 194.2306 14.79936594 22641
KUIPER-00454            
1 68948U 26098AF  26270.19991154  .00014053  00000+0  18690-2 0  9994
2 68948  51.8993 334.5528 0000961  80.1110 279.9961 14.79921167 22485
KUIPER-00455            
1 68949U 26098AG  26270.21951209  .00001291  00000+0  19840-3 0  9994
2 68949  51.8989 331.9719 0000813 159.4173 200.6823 14.79930755 22525
KUIPER-00458            
1 68950U 26098AH  26270.13439257  .00002345  00000+0  33654-3 0  9991
2 68950  51.9008 317.3755 0000766  69.9425 290.1619 14.79929278 22716
KUIPER-00282            
1 69267U 26118A   26270.14248358  .00000534  00000+0  99060-4 0  9999
2 69267  51.8976 309.7914 0000203 334.2787  25.8165 14.79933217 19250
KUIPER-00383            
1 69268U 26118B   26270.09453788  .00002320  00000+0  33316-3 0  9995
2 69268  51.8976 307.5256 0000372  43.4509 316.6482 14.79931533 19289
KUIPER-00527            
1 69269U 26118C   26270.12831205  .00002007  00000+0  29215-3 0  9999
2 69269  51.8982 307.5092 0000403  59.6659 300.4343 14.79938573 19283
KUIPER-00562            
1 69270U 26118D   26270.10262403 -.00000302  00000+0 -10667-4 0  9997
2 69270  51.9022 299.9391 0000755  68.3678 291.7365 14.79929111 19391
KUIPER-00570            
1 69271U 26118E   26270.12291709  .00002024  00000+0  29444-3 0  9994
2 69271  51.8995 312.5058 0000398  41.9671 318.1322 14.79937408 19200
KUIPER-00572            
1 69272U 26118F   26269.36858776  .00002486  00000+0  35506-3 0  9990
2 69272  51.9003 310.7326 0000231  73.1556 286.9432 14.79927118 19172
KUIPER-00581            
1 69273U 26118G   26270.10602072  .00002253  00000+0  32442-3 0  9999
2 69273  51.9007 312.4820 0000461 252.7939 107.2973 14.79932975 19307
KUIPER-00584            
1 69274U 26118H   26270.15396459  .00002414  00000+0  34541-3 0  9995
2 69274  51.8989 314.8788 0000344  42.2887 317.8101 14.79949898 19189
KUIPER-00587            
1 69275U 26118J   26270.11411497  .00000927  00000+0  15054-3 0  9997
2 69275  51.9018 304.9463 0000455  75.6291 284.4722 14.79935532 19320
KUIPER-00590            
1 69276U 26118K   26269.43342510  .00002755  00000+0  39017-3 0  9996
2 69276  51.9014 312.9669 0000190  38.7946 321.3030 14.79936357 19157
KUIPER-00592            
1 69277U 26118L   26270.09182636  .00002098  00000+0  30409-3 0  9998
2 69277  51.9011 309.9353 0000529  40.4604 319.6398 14.79929152 19251
KUIPER-00593            
1 69278U 26118M   26269.77306412  .00002166  00000+0  31300-3 0  9999
2 69278  51.8990 293.9609 0000872 191.7202 168.3741 14.79933799 19509
KUIPER-00594            
1 69279U 26118N   26270.10532963  .00001060  00000+0  16806-3 0  9997
2 69279  51.9043 297.5019 0000916  89.3713 270.7355 14.79924717 19423
KUIPER-00595            
1 69280U 26118P   26270.07699510  .00002051  00000+0  29784-3 0  9997
2 69280  51.8980 292.5718 0000810 221.0052 139.0850 14.79950017 19529
KUIPER-00596            
1 69281U 26118Q   26269.39426836  .00002686  00000+0  38115-3 0  9992
2 69281  51.9012 318.1338 0000335  52.5323 307.5670 14.79934662 19070
KUIPER-00597            
1 69282U 26118R   26270.07423924  .00002262  00000+0  32582-3 0  9997
2 69282  51.8973 295.1232 0001537  67.5468 292.5657 14.79914308 19459
KUIPER-00599            
1 69283U 26118S   26270.09722562  .00000396  00000+0  80891-4 0  9993
2 69283  51.9007 304.9370 0000286  39.9185 320.1798 14.79930592 19323
KUIPER-00600            
1 69284U 26118T   26270.10800707  .00002125  00000+0  30759-3 0  9993
2 69284  51.8988 294.8879 0001654  61.0204 299.0924 14.79938916 19468
KUIPER-00601            
1 69285U 26118U   26269.31524889  .00002691  00000+0  38183-3 0  9996
2 69285  51.9020 313.4807 0000337  76.7958 283.3042 14.79939065 19139
KUIPER-00602            
1 69286U 26118V   26269.79603455  .00001858  00000+0  27266-3 0  9990
2 69286  51.9010 303.7691 0000451 321.4218  38.6712 14.79930224 19311
KUIPER-00603            
1 69287U 26118W   26269.81021465  .00001538  00000+0  23059-3 0  9990
2 69287  51.9034 306.2989 0000591  62.9517 297.1506 14.79947501 19274
KUIPER-00605            
1 69288U 26118X   26269.32943274  .00002622  00000+0  37284-3 0  9998
2 69288  51.8992 315.8976 0000285  77.1245 282.9749 14.79934465 19103
KUIPER-00606            
1 69289U 26118Y   26270.13100307  .00000119  00000+0  44603-4 0  9995
2 69289  51.9018 304.8744 0000323  53.7891 306.3101 14.79931314 19322
KUIPER-00607            
1 69290U 26118Z   26270.05737724  .00001916  00000+0  28033-3 0  9991
2 69290  51.8992 295.2051 0001607  27.6857 332.4191 14.79930378 19458
KUIPER-00608            
1 69291U 26118AA  26270.07154505  .00002151  00000+0  31103-3 0  9998
2 69291  51.9004 297.5024 0000738  61.5762 298.5275 14.79930674 19426
KUIPER-00610            
1 69292U 26118AB  26269.82981420  .00001800  00000+0  26508-3 0  9997
2 69292  51.9017 303.7063 0000360  66.2709 293.8291 14.79934705 19311
KUIPER-00613            
1 69293U 26118AC  26270.08913362  .00001902  00000+0  27843-3 0  9994
2 69293  51.9017 312.5574 0000401  59.4046 300.6956 14.79929599 19210
KUIPER-00618            
1 69294U 26118AD  26269.79874159  .00001731  00000+0  25602-3 0  9992
2 69294  51.9024 301.3510 0001174 226.1499 133.9366 14.79931144 19343
KUIPER-00620            
1 69295U 26118AE  26270.08304803  .00002057  00000+0  29872-3 0  9996
2 69295  51.9034 302.5987 0000391  39.3446 320.7545 14.79937244 19355
KUIPER-00423            
1 69592U 26140A   26270.25002315  .00017328  00000+0  22996-2 0  9999
2 69592  51.8996 274.3433 0000890   6.6454  95.7922 14.79868800  3287
KUIPER-00428            
1 69593U 26140B   26270.25801203  .00029251  00000+0  77371-3 0  9999
2 69593  51.8783 265.3750 0004538 302.5504  57.5045 15.38152461 16934
KUIPER-00481            
1 69594U 26140C   26270.07187307  .00132470  00000+0  18198-1 0  9990
2 69594  51.8990 280.1222 0001370  22.7839 337.3183 14.77210497 16711
KUIPER-00490            
1 69595U 26140D   26270.05126070  .00002191  00000+0  31631-3 0  9994
2 69595  51.9022 285.1825 0000570  53.9759 306.1256 14.79929473 16641
KUIPER-00493            
1 69596U 26140E   26270.07964951 -.00000088  00000+0  17497-4 0  9994
2 69596  51.9027 290.1068 0001020 339.2947  20.7974 14.79929331 16573
KUIPER-00496            
1 69597U 26140F   26270.25002315 -.00059509  00000+0 -72064-2 0  9994
2 69597  51.9021 273.1473 0005022 284.5942 100.9749 14.83459700  5428
KUIPER-00513            
1 69598U 26140G   26270.08503767 -.00000497  00000+0 -36228-4 0  9999
2 69598  51.9003 285.0767 0000459  68.5776 291.5235 14.79928592 16649
KUIPER-00516            
1 69599U 26140H   26270.25002315 -.00047239  00000+0 -48267-2 0  9991
2 69599  51.8951 268.9431 0008020 233.1838 213.5264 14.90230026  5083
KUIPER-00517            
1 69600U 26140J   26270.25002315 -.00616710  00000+0 -37788-1 0  9995
2 69600  51.8892 266.3199 0009334 192.1623  61.9879 15.12251578  5669
KUIPER-00520            
1 69601U 26140K   26270.08103490  .00001114  00000+0  18848-3 0  9995
2 69601  51.9017 287.2285 0000565 238.3177 121.7729 14.76612218 16619
KUIPER-00522            
1 69602U 26140L   26268.99852110  .00001925  00000+0  28402-3 0  9990
2 69602  51.9028 279.8840 0000211 356.4161   3.6800 14.79536596 16625
KUIPER-00528            
1 69603U 26140M   26269.99793771  .00001716  00000+0  25398-3 0  9998
2 69603  51.9029 287.9807 0000445  58.0776 302.0230 14.79931607 16597
KUIPER-00532            
1 69604U 26140N   26270.25002315 -.00063411  00000+0 -80581-2 0  9993
2 69604  51.9010 271.8646 0002317   3.9700  80.0338 14.81504234  5143
KUIPER-00533            
1 69605U 26140P   26270.05397617  .00002309  00000+0  33185-3 0  9990
2 69605  51.9006 282.7226 0000466  48.6881 311.4122 14.79925112 16674
KUIPER-00534            
1 69606U 26140Q   26269.72029634 -.00030563  00000+0 -10517-2 0  9992
2 69606  51.8827 269.2429 0012277 155.3546 204.8026 15.29223957 16837
KUIPER-00537            
1 69607U 26140R   26270.31599521 -.00000176  00000+0  59858-5 0  9997
2 69607  51.8992 288.9783 0001167  12.2546 347.8444 14.79929252 16612
KUIPER-00538            
1 69608U 26140S   26270.01479382 -.00003835  00000+0 -47430-3 0  9994
2 69608  51.9027 287.8353 0001050  21.9092 338.1915 14.79928881 16600
KUIPER-00540            
1 69609U 26140T   26269.59414196  .00002030  00000+0  63020-4 0  9996
2 69609  51.8794 268.4396 0004709 295.9239  64.1262 15.38426827 16838
KUIPER-00541            
1 69610U 26140U   26270.25002315 -.00095710  00000+0 -82796-2 0  9997
2 69610  51.8966 267.1891 0009302 195.3358 258.6951 14.97146450  4664
KUIPER-00542            
1 69611U 26140V   26270.25002315 -.01131664  00000+0 -74913-1 0  9999
2 69611  51.8910 266.2030 0007988 183.3762  47.4380 15.09826324  5652
KUIPER-00543            
1 69612U 26140W   26270.25002315 -.00056840  00000+0 -72534-2 0  9999
2 69612  51.9028 271.8609 0002561 114.5646 148.6784 14.81271296  5650
KUIPER-00544            
1 69613U 26140X   26270.25002315 -.00036039  00000+0 -29034-2 0  9995
2 69613  51.8910 267.6098 0004756 183.7844 181.2937 14.99412836  5357
KUIPER-00546            
1 69614U 26140Y   26270.00002315  .00024138  00000+0  31818-2 0  9997
2 69614  51.8997 275.4548 0000379 151.0802 238.6385 14.79960784  3720
KUIPER-00547            
1 69615U 26140Z   26270.25002315 -.01369154  00000+0 -64487-1 0  9995
2 69615  51.8857 265.1857 0010993 175.1281 229.2520 15.22237610  4571
KUIPER-00549            
1 69616U 26140AA  26270.25002315 -.00050230  00000+0 -55895-2 0  9991
2 69616  51.8996 269.5035 0003173 286.4341  74.8979 14.86843823  5185
KUIPER-00550            
1 69617U 26140AB  26270.25002315 -.00049232  00000+0 -50437-2 0  9999
2 69617  51.8953 273.2898 0002980 312.5387 138.5843 14.90168073  3003
KUIPER-00551            
1 69618U 26140AC  26270.25002315 -.01201047  00000+0 -37495-1 0  9993
2 69618  51.8781 264.4906 0011281 171.1213 219.2082 15.35598031  5719
KUIPER-00554            
1 69619U 26140AD  26270.25002315 -.01503360  00000+0 -52579-1 0  9997
2 69619  51.8783 264.8017 0009588 181.7580  54.9791 15.32272060  3470
KUIPER-00555            
1 69620U 26140AE  26270.26240340 -.00435964  00000+0 -13446-1 0  9995
2 69620  51.8784 264.6849 0009827 173.5311 186.5804 15.34771309 16946
KUIPER-00556            
1 69621U 26140AF  26270.02558822 -.00001923  00000+0 -22314-3 0  9997
2 69621  51.8950 277.8394 0000999 101.9954 258.1121 14.79961535 16748
KUIPER-00557            
1 69622U 26140AG  26270.25002315 -.01269178  00000+0 -51056-1 0  9996
2 69622  51.8837 265.1776 0008178 187.9268 260.6182 15.27269101  4438
KUIPER-00560            
1 69623U 26140AH  26269.98574414  .00016910  00000+0  46667-3 0  9994
2 69623  51.8763 266.5328 0007625 213.2624 146.7884 15.37171657 16895
KUIPER-00561            
1 69624U 26140AJ  26270.02020700  .00002007  00000+0  29229-3 0  9993
2 69624  51.8999 282.8407 0000618  80.3751 279.7281 14.79926193 16677
KUIPER-00564            
1 69625U 26140AK  26270.05664666  .00002289  00000+0  32938-3 0  9995
2 69625  51.8955 280.1836 0000865 108.6754 251.4302 14.79911278 16712
KUIPER-00567            
1 69626U 26140AL  26269.51908273 -.00001429  00000+0 -15833-3 0  9992
2 69626  51.8961 280.0795 0001730 162.1757 197.9266 14.79946281 16662
KUIPER-00573            
1 69627U 26140AM  26270.29303006  .00000006  00000+0  29764-4 0  9990
2 69627  51.8992 279.1706 0000495  70.9217 289.1799 14.79925858 16743
KUIPER-00258            
1 69763U 26151A   26270.25002315  .00033791  00000+0  40413-2 0  9997
2 69763  51.9141 189.4040 0009464  71.6189 226.3918 14.83828123  4044
KUIPER-00526            
1 69764U 26151B   26270.22196227  .00009496  00000+0  12717-2 0  9992
2 69764  51.8975 204.5383 0000551  66.9114 293.1906 14.79969272 13091
KUIPER-00558            
1 69765U 26151C   26268.56748970  .00002080  00000+0  30172-3 0  9993
2 69765  51.8979 211.7764 0000696  95.6257 264.4785 14.79931532 12853
KUIPER-00569            
1 69766U 26151D   26270.20778227  .00003022  00000+0  42526-3 0  9999
2 69766  51.9007 202.0184 0000893  79.1881 280.9182 14.79934599 13137
KUIPER-00589            
1 69767U 26151E   26270.13261488  .00001705  00000+0  27277-3 0  9990
2 69767  51.8986 205.5802 0003133  79.5867 280.5447 14.76547433 13073
KUIPER-00598            
1 69768U 26151F   26269.21712142  .00001262  00000+0  19456-3 0  9994
2 69768  51.8975 201.4148 0000632  93.7270 266.3764 14.79936113 13059
KUIPER-00604            
1 69769U 26151G   26270.07542361 -.00010698  00000+0 -13760-2 0  9991
2 69769  51.9024 200.1194 0000782  66.6891 293.4154 14.79949258 13145
KUIPER-00609            
1 69770U 26151H   26270.24459323  .00089598  00000+0  12448-1 0  9991
2 69770  51.9030 196.8424 0000866  80.3240 279.7819 14.77037122 13203
KUIPER-00611            
1 69771U 26151J   26270.24424765  .00002012  00000+0  29286-3 0  9990
2 69771  51.8959 199.3529 0000943  76.4156 283.6911 14.79938245 13176
KUIPER-00612            
1 69772U 26151K   26270.22468031 -.00000686  00000+0 -60918-4 0  9998
2 69772  51.8991 201.9659 0001530 106.6343 253.4788 14.79932667 13139
KUIPER-00614            
1 69773U 26151L   26269.95725494  .00001038  00000+0  16510-3 0  9994
2 69773  51.8910 200.6907 0000929  80.8632 279.2435 14.79935610 13123
KUIPER-00615            
1 69774U 26151M   26270.23884696  .00002976  00000+0  41923-3 0  9996
2 69774  51.9008 204.3320 0000897 124.7963 235.3084 14.79936804 13109
KUIPER-00616            
1 69775U 26151N   26270.25002315  .00040124  00000+0  52766-2 0  9992
2 69775  51.8997 189.3540 0001416  91.3970  61.6837 14.79807463  3795
KUIPER-00617            
1 69776U 26151P   26270.21588494  .00001356  00000+0  20687-3 0  9998
2 69776  51.8995 194.4998 0000205 152.8310 207.2663 14.79931269 13231
KUIPER-00619            
1 69777U 26151Q   26269.50610410  .00001273  00000+0  21109-3 0  9991
2 69777  51.9011 200.0374 0001413 166.2726 193.8273 14.76596775 13093
KUIPER-00621            
1 69778U 26151R   26269.51830738  .00000848  00000+0  14017-3 0  9997
2 69778  51.8999 202.5800 0000757 100.9653 259.1394 14.79934137 13061
KUIPER-00622            
1 69779U 26151S   26269.24166040 -.00003034  00000+0 -40080-3 0  9997
2 69779  51.9007 207.9083 0001209  82.0208 278.0890 14.76550468 12961
KUIPER-00623            
1 69780U 26151T   26270.12336978  .00002391  00000+0  34252-3 0  9994
2 69780  51.8969 202.4145 0001177 112.3337 247.7750 14.79928681 13117
KUIPER-00626            
1 69781U 26151U   26270.21318841  .00000582  00000+0  10533-3 0  9990
2 69781  51.8975 196.9835 0001116 117.5353 242.5723 14.79928364 13207
KUIPER-00627            
1 69782U 26151V   26270.04971306 -.00028684  00000+0 -37445-2 0  9998
2 69782  51.8986 192.7324 0000809  87.4452 272.6603 14.79989675 13247
KUIPER-00629            
1 69783U 26151W   26270.26990812  .00003938  00000+0  54517-3 0  9999
2 69783  51.9064 206.7013 0000616 348.7025  11.3923 14.79944933 13074
KUIPER-00631            
1 69784U 26151X   26270.08422052  .00000168  00000+0  51114-4 0  9999
2 69784  51.8975 207.5775 0000798  86.6864 273.4190 14.79930224 13041
KUIPER-00634            
1 69785U 26151Y   26270.24156105  .00001129  00000+0  17712-3 0  9994
2 69785  51.9000 201.8850 0000854 108.5764 251.5292 14.79933841 13137
KUIPER-00639            
1 69786U 26151Z   26270.08372797 -.00017750  00000+0 -23105-2 0  9995
2 69786  51.9047 192.5674 0003015  75.1784 284.9512 14.79837959 13253
KUIPER-00641            
1 69787U 26151AA  26269.99639307 -.00003483  00000+0 -42803-3 0  9992
2 69787  51.9004 195.4769 0002129 138.5077 221.6047 14.79932049 13200
KUIPER-00644            
1 69788U 26151AB  26270.25002315  .00019126  00000+0  19969-2 0  9992
2 69788  51.8955 187.0794 0008973  73.5967 299.7113 14.89689572  5313
KUIPER-00646            
1 69789U 26151AC  26270.16523491  .00002077  00000+0  30137-3 0  9994
2 69789  51.8965 194.8102 0000841 101.5783 258.5274 14.79932649 13223
KUIPER-00647            
1 69790U 26151AD  26270.22593217  .00001697  00000+0  27166-3 0  9991
2 69790  51.8997 194.1568 0002278 341.4763  18.6115 14.76545182 13248
KUIPER-00662            
1 69791U 26151AE  26270.18554393  .00005985  00000+0  81243-3 0  9999
2 69791  51.9007 207.1279 0000411  48.2036 311.8962 14.79982942 13057
