QIANFAN-1               
1 60379U 24140A   26277.27758149  .00000039  00000+0  41223-4 0  9990
2 60379  88.9667 268.5876 0019674  81.9808 278.3575 13.51026402107250
QIANFAN-2               
1 60380U 24140B   26277.30645414  .00000049  00000+0  57029-4 0  9998
2 60380  88.9655 268.3840 0014595  58.4924 301.7651 13.51020769107316
QIANFAN-3               
1 60381U 24140C   26277.31482088  .00000037  00000+0  38043-4 0  9998
2 60381  88.9647 268.4933 0015952  68.9956 291.2900 13.51023510107228
QIANFAN-4               
1 60382U 24140D   26277.29002515  .00000020  00000+0  11887-4 0  9998
2 60382  88.9671 268.4680 0014890  60.6168 299.6467 13.51021155107345
QIANFAN-5               
1 60383U 24140E   26277.26513356  .00000045  00000+0  51309-4 0  9996
2 60383  88.9646 268.5227 0017311  78.8394 281.4702 13.51031838107204
QIANFAN-6               
1 60384U 24140F   26277.28586825  .00000027  00000+0  23091-4 0  9997
2 60384  88.9673 268.3472 0015107  65.7231 294.5497 13.51024425107403
QIANFAN-7               
1 60385U 24140G   26277.28219838  .00000166  00000+0  61082-4 0  9991
2 60385  88.9734 258.9267 0016357 140.0147 220.2256 14.27897353112564
QIANFAN-8               
1 60386U 24140H   26277.29420595  .00000028  00000+0  24699-4 0  9997
2 60386  88.9674 268.5872 0018585  66.9605 293.3504 13.51026339107258
QIANFAN-9               
1 60387U 24140J   26277.26948431  .00000043  00000+0  47998-4 0  9993
2 60387  88.9672 268.6592 0018282  66.8617 293.4458 13.51022184107234
QIANFAN-10              
1 60388U 24140K   26277.27357823  .00000036  00000+0  37634-4 0  9992
2 60388  88.9684 268.0376 0016282  46.9795 313.2717 13.51022322107363
QIANFAN-11              
1 60389U 24140L   26277.31072260  .00000037  00000+0  37685-4 0  9994
2 60389  88.9608 268.3979 0016304  66.8821 293.4047 13.51026444107025
QIANFAN-12              
1 60390U 24140M   26277.25718191  .00000026  00000+0  22042-4 0  9998
2 60390  88.9651 268.5754 0015240  74.3915 285.8917 13.51024006107140
QIANFAN-13              
1 60391U 24140N   26277.30240108  .00000046  00000+0  52939-4 0  9993
2 60391  88.9911 268.8514 0015084  76.2876 283.9953 13.51024209107177
QIANFAN-14              
1 60392U 24140P   26277.25311821  .00000022  00000+0  14495-4 0  9998
2 60392  88.9642 268.5467 0018768  76.2774 284.0465 13.51026072107172
QIANFAN-15              
1 60393U 24140Q   26277.26117993  .00000052  00000+0  61044-4 0  9999
2 60393  88.9666 268.5726 0014388  64.9152 295.3491 13.51028858107162
QIANFAN-16              
1 60394U 24140R   26277.32291195  .00000021  00000+0  14078-4 0  9995
2 60394  88.9668 268.6945 0016730  79.6290 280.6747 13.51025450107085
QIANFAN-17              
1 60395U 24140S   26277.31896237  .00000038  00000+0  39497-4 0  9993
2 60395  88.9679 268.7731 0017065  74.0573 286.2457 13.51026153108045
QIANFAN-18              
1 60396U 24140T   26277.29837787  .00000033  00000+0  32409-4 0  9997
2 60396  88.9674 268.2899 0016142  59.0502 301.2233 13.51026278107431
QIANFAN-19              
1 61552U 24185A   26277.29576750  .00000283  00000+0  14033-3 0  9990
2 61552  88.9880  44.0893 0008876  80.8372 279.3819 14.14539282111446
QIANFAN-20              
1 61553U 24185B   26277.26438245  .00000324  00000+0  17891-3 0  9995
2 61553  88.9875  44.7079 0007590 115.0550 245.1423 14.09083958111108
QIANFAN-21              
1 61554U 24185C   26277.27208947  .00000356  00000+0  15159-3 0  9991
2 61554  88.9800  42.3834 0012635 116.8186 243.4300 14.22944352111991
QIANFAN-22              
1 61555U 24185D   26277.27464950  .00000077  00000+0  54884-4 0  9999
2 61555  88.9854  46.8782 0007332 156.2143 203.9368 13.86433783109881
QIANFAN-23              
1 61556U 24185E   26277.27507156  .00000251  00000+0  11857-3 0  9992
2 61556  88.9872  43.7638 0009555  87.1546 273.0735 14.16559704111588
QIANFAN-24              
1 61557U 24185F   26277.30455684  .00000405  00000+0  16941-3 0  9995
2 61557  88.9859  42.6847 0011312  62.3420 297.8919 14.24168735112087
QIANFAN-25              
1 61558U 24185G   26277.27677556  .00000373  00000+0  21817-3 0  9998
2 61558  88.9870  44.7593 0014185 131.2967 228.9439 14.06141956111037
QIANFAN-26              
1 61559U 24185H   26277.30798220  .00000191  00000+0  17763-3 0  9998
2 61559  88.9859  47.8583 0005784 178.6567 181.4616 13.77949648109379
QIANFAN-27              
1 61560U 24185J   26277.28014432  .00000282  00000+0  10862-3 0  9997
2 61560  88.9869  42.3176 0008654  51.9394 308.2580 14.27613654112329
QIANFAN-28              
1 61561U 24185K   26277.30449032  .00000445  00000+0  17175-3 0  9994
2 61561  88.9888  42.3303 0008477  49.9557 310.2380 14.28502443112363
QIANFAN-29              
1 61562U 24185L   26277.31222339  .00000142  00000+0  20133-3 0  9997
2 61562  88.9827  50.7652 0008025 275.8488  84.1748 13.51099033107707
QIANFAN-30              
1 61563U 24185M   26277.28839515  .00000071  00000+0  92425-4 0  9999
2 61563  88.9848  50.4066 0005880 257.4298 102.6195 13.50079045107946
QIANFAN-31              
1 61564U 24185N   26277.28869172  .00000103  00000+0  12531-3 0  9997
2 61564  88.9833  49.7397 0005599 235.7740 124.2885 13.58069105108274
QIANFAN-32              
1 61565U 24185P   26277.31749388  .00000139  00000+0  19716-3 0  9999
2 61565  88.9887  50.6235 0007842 297.6666  62.3688 13.50809441107946
QIANFAN-33              
1 61566U 24185Q   26277.29031643  .00000304  00000+0  20952-3 0  9993
2 61566  88.9858  45.8709 0009578 117.9875 242.2272 13.96761404110411
QIANFAN-34              
1 61567U 24185R   26277.32667262  .00000388  00000+0  24340-3 0  9997
2 61567  88.9835  45.0404 0007748 117.0732 243.1239 14.02532040110784
QIANFAN-35              
1 61568U 24185S   26277.29299123  .00000425  00000+0  16415-3 0  9997
2 61568  88.9868  42.2062 0007584  49.5114 310.6740 14.28371091112369
QIANFAN-36              
1 61569U 24185T   26277.28003540  .00000122  00000+0  15760-3 0  9999
2 61569  88.9824  50.2530 0004608 257.9540 102.1097 13.55650010107962
QIANFAN-37              
1 62238U 24232B   26277.28109684  .00000105  00000+0  14451-3 0  9999
2 62238  89.0166  11.6692 0001548  93.3635 266.7693 13.51033435139072
QIANFAN-38              
1 62239U 24232C   26277.30588738  .00000104  00000+0  14200-3 0  9995
2 62239  89.0173  11.6025 0016023  66.5692 293.7142 13.51031597139133
QIANFAN-39              
1 62240U 24232D   26277.30083193  .00000303  00000+0  12184-3 0  9992
2 62240  89.0144   3.6863 0016301 182.2494 177.8628 14.25570684143491
QIANFAN-40              
1 62241U 24232E   26277.26474615  .00000117  00000+0  16201-3 0  9998
2 62241  89.0200  11.2735 0015285  74.2275 286.0560 13.51031965139490
QIANFAN-41              
1 62242U 24232F   26277.27293154  .00000109  00000+0  15069-3 0  9999
2 62242  89.0171  11.5518 0015334  63.2969 296.9750 13.51033082139159
QIANFAN-42              
1 62243U 24232G   26277.27667376  .00000283  00000+0  11529-3 0  9991
2 62243  89.0142   3.7799 0014843 188.8233 171.2701 14.24657263143446
QIANFAN-43              
1 62244U 24232H   26277.26883096  .00000108  00000+0  14812-3 0  9994
2 62244  89.0175  11.6305 0016997  67.5593 292.7356 13.51032475107769
QIANFAN-44              
1 62245U 24232J   26277.25650840  .00000107  00000+0  14728-3 0  9998
2 62245  89.0173  11.4377 0015160  65.4717 294.8013 13.51032616139238
QIANFAN-45              
1 62246U 24232K   26277.29768440  .00000111  00000+0  15304-3 0  9995
2 62246  89.0177  11.5907 0015811  64.7884 295.4904 13.51031333139166
QIANFAN-46              
1 62247U 24232L   26277.32229767  .00000100  00000+0  13583-3 0  9999
2 62247  89.0173  11.6451 0015989  69.6912 290.5956 13.51032443139122
QIANFAN-47              
1 62248U 24232M   26277.25240239  .00000116  00000+0  16131-3 0  9998
2 62248  89.0169  11.5731 0016395  68.9745 291.3158 13.51031782139146
QIANFAN-48              
1 62249U 24232N   26277.28958836  .00000110  00000+0  15203-3 0  9994
2 62249  89.0173  11.5828 0018690  70.7078 289.6092 13.51026135139153
QIANFAN-49              
1 62250U 24232P   26277.27707320  .00000108  00000+0  14864-3 0  9994
2 62250  89.0172  11.5942 0015662  66.6349 293.6448 13.51033277107747
QIANFAN-50              
1 62251U 24232Q   26277.30172923  .00000107  00000+0  14756-3 0  9993
2 62251  89.0177  11.6160 0017339  67.2748 293.0234 13.51032767107772
QIANFAN-51              
1 62252U 24232R   26277.28532261  .00000105  00000+0  14370-3 0  9996
2 62252  89.0171  11.5934 0014908  71.5336 288.7434 13.51031660107768
QIANFAN-52              
1 62253U 24232S   26277.31407454  .00000100  00000+0  13540-3 0  9999
2 62253  89.0168  11.4526 0016754  63.6342 296.6527 13.51033725107856
QIANFAN-53              
1 62254U 24232T   26277.29361150  .00000107  00000+0  14641-3 0  9999
2 62254  89.0175  11.5815 0015663  65.0871 295.1906 13.51030349107818
QIANFAN-54              
1 62255U 24232U   26277.26061681  .00000108  00000+0  14821-3 0  9994
2 62255  89.0166  11.2371 0004153 104.5699 255.5913 13.51032263139317
QIANFAN-55              
1 62785U 25016A   26277.28679216  .00000048  00000+0  56070-4 0  9990
2 62785  88.9687  72.5201 0016549 209.0487 150.9745 13.51025588 87091
QIANFAN-56              
1 62786U 25016B   26277.22898862  .00000035  00000+0  35328-4 0  9994
2 62786  88.9662  72.2839 0015075 211.5082 148.5168 13.51020784 87131
QIANFAN-57              
1 62787U 25016C   26277.26205343  .00000038  00000+0  40028-4 0  9991
2 62787  88.9692  72.5259 0002023  75.7993 284.3383 13.51028557 87105
QIANFAN-58              
1 62788U 25016D   26277.23328554  .00000052  00000+0  61332-4 0  9996
2 62788  88.9662  72.2707 0013209 202.6103 157.4468 13.51028024 87147
QIANFAN-59              
1 62789U 25016E   26277.25782922  .00000047  00000+0  53627-4 0  9994
2 62789  88.9686  72.4114 0013459 206.7010 153.3450 13.51025430 87141
QIANFAN-60              
1 62790U 25016F   26277.29071421  .00000054  00000+0  65210-4 0  9994
2 62790  88.9667  72.3233 0015107 203.5593 156.4868 13.51029045 87138
QIANFAN-61              
1 62791U 25016G   26277.24961871  .00000054  00000+0  65687-4 0  9995
2 62791  88.9733  72.6901 0014080 202.7368 157.3161 13.51028441 87144
QIANFAN-62              
1 62792U 25016H   26277.25385890  .00000056  00000+0  68287-4 0  9999
2 62792  88.9681  72.3997 0015405 203.5128 156.5320 13.51027851 87135
QIANFAN-63              
1 62793U 25016J   26277.27851850  .00000052  00000+0  62097-4 0  9995
2 62793  88.9687  72.3686 0015329 209.0722 150.9577 13.51023720 87170
QIANFAN-64              
1 62794U 25016K   26277.24552919  .00000060  00000+0  73553-4 0  9995
2 62794  88.9675  72.3066 0013462 200.8750 159.1853 13.51028411 87165
QIANFAN-65              
1 62795U 25016L   26277.24135339  .00000061  00000+0  76422-4 0  9998
2 62795  88.9671  72.3224 0013271 202.6113 157.4455 13.51024504 87145
QIANFAN-66              
1 62796U 25016M   26277.27021612  .00000049  00000+0  57750-4 0  9999
2 62796  88.9690  72.3476 0014493 198.5198 161.5427 13.51020581 87190
QIANFAN-67              
1 62797U 25016N   26277.27429066  .00000054  00000+0  64949-4 0  9999
2 62797  88.9680  72.3437 0014270 205.6731 154.3713 13.51020815 87168
QIANFAN-68              
1 62798U 25016P   26277.26615190  .00000045  00000+0  51498-4 0  9999
2 62798  88.9684  72.4002 0014398 203.5078 156.5416 13.51022776 87144
QIANFAN-69              
1 62799U 25016Q   26277.28249949  .00000047  00000+0  53873-4 0  9998
2 62799  88.9663  72.2052 0015089 205.1795 154.8622 13.51021559 87189
QIANFAN-70              
1 62800U 25016R   26277.29908127  .00000052  00000+0  61460-4 0  9999
2 62800  88.9683  72.4033 0014965 195.0540 165.0168 13.51025008 87140
QIANFAN-71              
1 62801U 25016S   26277.29488127  .00000037  00000+0  38160-4 0  9997
2 62801  88.9677  72.3655 0014903 208.8650 151.1678 13.51027671 87140
QIANFAN-72              
1 62802U 25016T   26277.23736854  .00000061  00000+0  76261-4 0  9996
2 62802  88.9668  72.3560 0017965 217.6130 142.3766 13.51029500 87129
QIANFAN-73              
1 63159U 25046A   26277.26431578  .00000019  00000+0  10748-4 0  9994
2 63159  88.9626 289.3243 0014644 357.5402   2.5675 13.51025936 87310
QIANFAN-74              
1 63160U 25046B   26277.32205747  .00000006  00000+0 -10019-4 0  9998
2 63160  88.9626 289.2082 0001891  99.0622 261.0744 13.51018574 87380
QIANFAN-75              
1 63161U 25046C   26277.30957320  .00000086  00000+0  11413-3 0  9993
2 63161  88.9629 289.4473 0015887   0.4381 359.6782 13.51033222 87257
QIANFAN-76              
1 63162U 25046D   26277.30566839 -.00000033  00000+0 -69832-4 0  9998
2 63162  88.9627 289.4276 0013428   2.0559 358.0645 13.51017650 87260
QIANFAN-77              
1 63163U 25046E   26277.31631666  .00000110  00000+0  69885-4 0  9993
2 63163  88.9637 284.9959 0012989 232.5862 127.4134 13.96249479 89693
QIANFAN-78              
1 63164U 25046F   26277.27328636  .00000055  00000+0  66978-4 0  9997
2 63164  88.9627 289.2925 0014853   3.4530 356.6721 13.51013841 87333
QIANFAN-79              
1 63165U 25046G   26277.30140591  .00000026  00000+0  21849-4 0  9990
2 63165  88.9631 289.4072 0014538   2.1581 357.9630 13.51021391 87282
QIANFAN-80              
1 63166U 25046H   26277.31780199  .00000069  00000+0  88079-4 0  9991
2 63166  88.9628 289.1043 0013580   7.4970 352.6382 13.51019392 87442
QIANFAN-81              
1 63167U 25046J   26277.29725070  .00000100  00000+0  13567-3 0  9991
2 63167  88.9628 289.1736 0014427 356.0669   4.0366 13.51023310 87390
QIANFAN-82              
1 63168U 25046K   26277.33025670  .00000080  00000+0  10456-3 0  9997
2 63168  88.9628 289.2146 0012564   4.0911 356.0341 13.51022501 87380
QIANFAN-83              
1 63169U 25046L   26277.31747747  .00000045  00000+0  42651-4 0  9996
2 63169  88.9631 288.4094 0012781 330.6072  29.4365 13.62065890 87832
QIANFAN-84              
1 63170U 25046M   26277.28505288 -.00000066  00000+0 -12074-3 0  9996
2 63170  88.9626 289.3520 0015434 358.8367   1.2746 13.51014968 87300
QIANFAN-85              
1 63171U 25046N   26277.28082700  .00000078  00000+0  10180-3 0  9993
2 63171  88.9627 289.2218 0013069   2.6400 357.4818 13.51022850 87371
QIANFAN-86              
1 63172U 25046P   26277.28900944  .00000092  00000+0  12444-3 0  9994
2 63172  88.9630 289.0900 0011110   8.6476 351.4865 13.51020924 87451
QIANFAN-87              
1 63173U 25046Q   26277.33427835  .00000010  00000+0 -29747-5 0  9991
2 63173  88.9624 289.1859 0011465   2.2513 357.8687 13.51020487 87393
QIANFAN-88              
1 63174U 25046R   26277.27669322  .00000080  00000+0  10568-3 0  9999
2 63174  88.9628 289.1539 0012194  11.5015 348.6412 13.51021465 87417
QIANFAN-89              
1 63175U 25046S   26277.31371407  .00000074  00000+0  95952-4 0  9993
2 63175  88.9628 289.3388 0016320 358.7701   1.3407 13.51022113 87312
QIANFAN-90              
1 63176U 25046T   26277.26853737  .00000010  00000+0 -24243-5 0  9996
2 63176  88.9629 289.3169 0013222 359.0734   1.0390 13.51020148 87324
QIANFAN-91              
1 66033U 25233A   26277.30085149  .00000085  00000+0  11243-3 0  9993
2 66033  89.0077  32.1688 0001627 102.1507 257.9827 13.51031619 47912
QIANFAN-92              
1 66034U 25233B   26277.30951698  .00000093  00000+0  12504-3 0  9995
2 66034  89.0060  32.1219 0002183  99.3439 260.7959 13.51028978 47916
QIANFAN-93              
1 66035U 25233C   26277.31752796  .00000100  00000+0  13561-3 0  9998
2 66035  89.0086  32.2023 0001640 100.4327 259.7009 13.51040840 47912
QIANFAN-94              
1 66036U 25233D   26277.30504289  .00000092  00000+0  12395-3 0  9994
2 66036  89.0083  32.1032 0001775 106.1288 254.0059 13.51030039 47964
QIANFAN-95              
1 66037U 25233E   26277.31329099  .00000098  00000+0  13316-3 0  9990
2 66037  89.0082  31.6435 0001581 107.1474 252.9851 13.51029909 48218
QIANFAN-96              
1 66038U 25233F   26277.26383993  .00000085  00000+0  11342-3 0  9991
2 66038  89.0078  32.1888 0001557 101.4087 258.7239 13.51031064 47906
QIANFAN-97              
1 66039U 25233G   26277.32134101  .00000094  00000+0  12676-3 0  9995
2 66039  89.0082  32.1707 0001677 100.7620 259.3721 13.51041042 47911
QIANFAN-98              
1 66040U 25233H   26277.32970557  .00000084  00000+0  11225-3 0  9998
2 66040  89.0071  31.8891 0001950 117.5489 242.5861 13.51031304 48060
QIANFAN-99              
1 66041U 25233J   26277.25964954  .00000035  00000+0  35825-4 0  9994
2 66041  89.0082  32.1816 0001759 117.2962 242.8368 13.51020549 47911
QIANFAN-100             
1 66042U 25233K   26277.32542217  .00000094  00000+0  12621-3 0  9990
2 66042  89.0093  32.1142 0001515 100.2803 259.8519 13.51056928 47974
QIANFAN-101             
1 66043U 25233L   26277.27600919  .00000179  00000+0  67610-4 0  9992
2 66043  89.0081  28.0632 0016698 140.4691 219.7724 14.26867095 50187
QIANFAN-102             
1 66044U 25233M   26277.27209487  .00000096  00000+0  12931-3 0  9991
2 66044  89.0080  32.0875 0001755 107.9019 252.2323 13.51030627 47960
QIANFAN-103             
1 66045U 25233N   26277.27624557  .00000102  00000+0  13886-3 0  9999
2 66045  89.0082  32.1852 0001666 101.0600 259.0739 13.51030723 47919
QIANFAN-104             
1 66046U 25233P   26277.28029325  .00000099  00000+0  13518-3 0  9990
2 66046  89.0087  32.0920 0001854 106.9807 253.1547 13.51028638 47961
QIANFAN-105             
1 66047U 25233Q   26277.28861307  .00000096  00000+0  13025-3 0  9995
2 66047  89.0101  31.9488 0001776 103.8796 256.2553 13.51031976 48075
QIANFAN-106             
1 66048U 25233R   26277.28437794  .00000095  00000+0  12863-3 0  9993
2 66048  89.0069  32.1278 0001897 115.6212 244.5135 13.51032239 47918
QIANFAN-107             
1 66049U 25233S   26277.29262977  .00000090  00000+0  12023-3 0  9997
2 66049  89.0085  32.1768 0001700 101.6919 258.4423 13.51031574 47929
QIANFAN-108             
1 66050U 25233T   26277.29680529  .00000083  00000+0  11036-3 0  9991
2 66050  89.0078  32.1563 0001917 113.9343 246.2009 13.51031272 47923
QIANFAN-109             
1 68636U 26075A   26277.23670278  .00000037  00000+0  39251-4 0  9991
2 68636  88.9839 309.8778 0001652  85.7990 274.3350 13.51021898 24514
QIANFAN-110             
1 68637U 26075B   26277.24486412  .00000029  00000+0  25639-4 0  9994
2 68637  88.9839 309.8985 0002122  93.7092 266.4302 13.51022779 24518
QIANFAN-111             
1 68638U 26075C   26277.30682236  .00000036  00000+0  36356-4 0  9990
2 68638  88.9838 309.8509 0002092  93.7897 266.3493 13.51025301 24546
QIANFAN-112             
1 68639U 26075D   26277.26969651  .00000030  00000+0  28422-4 0  9994
2 68639  88.9836 309.8624 0001841  81.6097 278.5263 13.51024552 24538
QIANFAN-113             
1 68640U 26075E   26277.31484414  .00000044  00000+0  49292-4 0  9994
2 68640  88.9842 309.8575 0002087  90.4173 269.7217 13.51021443 24546
QIANFAN-114             
1 68641U 26075F   26277.32305340  .00000024  00000+0  19124-4 0  9995
2 68641  88.9837 309.8706 0002087  93.5143 266.6247 13.51019869 24535
QIANFAN-115             
1 68642U 26075G   26277.27784888  .00000035  00000+0  35881-4 0  9998
2 68642  88.9837 309.8825 0001923  93.9399 266.1972 13.51025566 24523
QIANFAN-116             
1 68643U 26075H   26277.26547208  .00000027  00000+0  22421-4 0  9998
2 68643  88.9830 309.8362 0001971  83.8081 276.3295 13.51026010 24539
QIANFAN-117             
1 68644U 26075J   26277.32730762  .00000020  00000+0  11977-4 0  9992
2 68644  88.9835 309.8506 0001874  89.2510 270.8856 13.51023912 24545
QIANFAN-118             
1 68645U 26075K   26277.28606581  .00000024  00000+0  17765-4 0  9994
2 68645  88.9840 309.8681 0002218  93.8488 266.2917 13.51025600 24536
QIANFAN-119             
1 68646U 26075L   26277.33540433  .00000029  00000+0  26017-4 0  9999
2 68646  88.9840 309.8587 0001682  90.5199 269.6145 13.51021506 24541
QIANFAN-120             
1 68647U 26075M   26277.27372976  .00000041  00000+0  45132-4 0  9991
2 68647  88.9841 309.8518 0001624  91.8999 268.2338 13.51021315 24542
QIANFAN-121             
1 68648U 26075N   26277.29850289  .00000025  00000+0  19545-4 0  9993
2 68648  88.9839 309.8518 0002140  94.7050 265.4345 13.51024694 24544
QIANFAN-122             
1 68649U 26075P   26277.29018108  .00000023  00000+0  17110-4 0  9994
2 68649  88.9838 309.8494 0001810  87.4887 272.6471 13.51028358 24537
QIANFAN-123             
1 68650U 26075Q   26277.33130079  .00000020  00000+0  12311-4 0  9998
2 68650  88.9834 309.8317 0001628  82.9015 277.2321 13.51021190 24520
QIANFAN-124             
1 68651U 26075R   26277.28198227  .00000026  00000+0  21746-4 0  9990
2 68651  88.9838 309.8487 0001779  85.8850 274.2505 13.51027782 24545
QIANFAN-125             
1 68652U 26075S   26277.29438715  .00000028  00000+0  24309-4 0  9991
2 68652  88.9837 309.8493 0002149  93.9011 266.2386 13.51024900 24540
QIANFAN-126             
1 68653U 26075T   26277.30248057  .00000046  00000+0  53088-4 0  9998
2 68653  88.9841 309.8185 0001630  83.9901 276.1436 13.51020620 24568
QIANFAN-127             
1 69073U 26104A   26277.30784564  .00000044  00000+0  50105-4 0  9991
2 69073  88.9899 330.3462 0002444  94.6669 265.4761 13.51029817 19898
QIANFAN-128             
1 69074U 26104B   26277.24193917  .00000047  00000+0  54571-4 0  9995
2 69074  88.9877 330.3736 0002453 106.6028 253.5392 13.51025237 19869
QIANFAN-129             
1 69075U 26104C   26277.26655757  .00000054  00000+0  64789-4 0  9993
2 69075  88.9880 330.3057 0002401 101.8513 258.2907 13.51025374 19900
QIANFAN-130             
1 69076U 26104D   26277.30359133  .00000046  00000+0  51823-4 0  9994
2 69076  88.9882 330.3681 0002284  90.2051 269.9362 13.51023423 19876
QIANFAN-131             
1 69077U 26104E   26277.25023675  .00000062  00000+0  77715-4 0  9994
2 69077  88.9875 330.3331 0002181 105.1246 255.0147 13.51027491 19886
QIANFAN-132             
1 69078U 26104F   26277.31183752  .00000043  00000+0  47460-4 0  9998
2 69078  88.9878 330.3838 0002252  94.2221 265.9187 13.51023710 19864
QIANFAN-133             
1 69079U 26104G   26277.24604256  .00000059  00000+0  72303-4 0  9999
2 69079  88.9881 330.3412 0002317 109.9354 250.2047 13.51022292 19877
QIANFAN-134             
1 69080U 26104H   26277.27481373  .00000044  00000+0  50034-4 0  9998
2 69080  88.9885 330.3652 0002397 106.7069 253.4346 13.51030853 19874
QIANFAN-135             
1 69081U 26104J   26277.25423061  .00000061  00000+0  76045-4 0  9996
2 69081  88.9879 330.3571 0002604 103.4898 256.6543 13.51023991 19872
QIANFAN-136             
1 69082U 26104K   26277.26243489  .00000055  00000+0  66848-4 0  9995
2 69082  88.9881 330.3596 0002311 108.1953 251.9450 13.51020757 19874
QIANFAN-137             
1 69083U 26104L   26277.25842049  .00000057  00000+0  69083-4 0  9998
2 69083  88.9890 330.2380 0002167  96.6318 263.5080 13.51023629 19947
QIANFAN-138             
1 69084U 26104M   26277.28303278  .00000049  00000+0  56694-4 0  9993
2 69084  88.9875 330.3564 0002523  97.9226 262.2211 13.51023424 19871
QIANFAN-139             
1 69085U 26104N   26277.12265106  .00000045  00000+0  51096-4 0  9991
2 69085  88.9877 330.3549 0002358  93.7130 266.4291 13.51032145 19864
QIANFAN-140             
1 69086U 26104P   26277.27892076  .00000048  00000+0  55919-4 0  9991
2 69086  88.9878 330.3426 0002634 101.5998 258.5449 13.51024602 19885
QIANFAN-141             
1 69087U 26104Q   26277.28724170  .00000052  00000+0  61959-4 0  9998
2 69087  88.9874 330.3055 0002507 105.0733 255.0696 13.51022332 19902
QIANFAN-142             
1 69088U 26104R   26277.29538769  .00000049  00000+0  57657-4 0  9993
2 69088  88.9873 330.3038 0002516  98.9358 261.2078 13.51021515 19901
QIANFAN-143             
1 69089U 26104S   26277.29130720  .00000056  00000+0  68026-4 0  9999
2 69089  88.9884 330.3124 0002117 105.6843 254.4542 13.51028992 19908
QIANFAN-144             
1 69090U 26104T   26277.29949411  .00000050  00000+0  58721-4 0  9991
2 69090  88.9882 330.3294 0002470  95.3919 264.7514 13.51022379 19891
QIANFAN-145             
1 69104U 26108A   26277.30376547  .00000111  00000+0  15296-3 0  9994
2 69104  89.0203  11.1667 0001746 113.4226 246.7109 13.51024639 19174
QIANFAN-146             
1 69105U 26108B   26277.26262911  .00000122  00000+0  17049-3 0  9999
2 69105  89.0204  11.0082 0001885 102.8183 257.3179 13.51022650 19260
QIANFAN-147             
1 69106U 26108C   26277.31215885  .00000112  00000+0  15463-3 0  9991
2 69106  89.0204  11.1706 0002066 102.5905 257.5477 13.51028130 19167
QIANFAN-148             
1 69107U 26108D   26277.29975335  .00000123  00000+0  17246-3 0  9995
2 69107  89.0198  11.1609 0002162 108.5822 251.5565 13.51027750 19162
QIANFAN-149             
1 69108U 26108E   26277.30792218  .00000113  00000+0  15615-3 0  9992
2 69108  89.0198  11.1813 0002359 102.9791 257.1623 13.51027168 19161
QIANFAN-150             
1 69109U 26108F   26276.64764738 -.01751315  00000+0 -30772+1 0  9993
2 69109  89.0198  11.2005 0003731 206.0371 154.0591 13.47119214 19091
QIANFAN-151             
1 69110U 26108G   26277.27099502  .00000113  00000+0  15711-3 0  9994
2 69110  89.0202  11.1625 0001877 108.1728 251.9628 13.51030831 19161
QIANFAN-152             
1 69111U 26108H   26277.25029638  .00000024  00000+0  18214-4 0  9999
2 69111  89.0199  11.1559 0002023  95.2705 264.8677 13.51023152 19174
QIANFAN-153             
1 69112U 26108J   26277.32024111  .00000111  00000+0  15333-3 0  9994
2 69112  89.0195  11.1248 0002186 100.2767 259.8631 13.51024714 19181
QIANFAN-154             
1 69113U 26108K   26277.25449675  .00000120  00000+0  16665-3 0  9992
2 69113  89.0205  11.1816 0002179 103.3449 256.7945 13.51029937 19162
QIANFAN-155             
1 69114U 26108L   26277.25853086  .00000118  00000+0  16373-3 0  9991
2 69114  89.0203  11.1454 0002267 100.8160 259.3246 13.51026710 19179
QIANFAN-156             
1 69115U 26108M   26277.27910382  .00000112  00000+0  15483-3 0  9992
2 69115  89.0217  11.1468 0002051 109.3207 250.8166 13.51022464 19198
QIANFAN-157             
1 69116U 26108N   26277.26685171  .00000118  00000+0  16481-3 0  9992
2 69116  89.0199  11.0686 0002259 108.1215 252.0182 13.51031556 19223
QIANFAN-158             
1 69117U 26108P   26277.28317934  .00000117  00000+0  16240-3 0  9996
2 69117  89.0200  11.1085 0001978 108.9109 251.2257 13.51024775 19205
QIANFAN-159             
1 69118U 26108Q   26277.27498882  .00000111  00000+0  15401-3 0  9990
2 69118  89.0192  11.1144 0001944 106.9312 253.2052 13.51026851 19199
QIANFAN-160             
1 69119U 26108R   26277.29158103  .00000124  00000+0  17315-3 0  9992
2 69119  89.0207  11.1524 0002369  99.2219 260.9200 13.51026906 19181
QIANFAN-161             
1 69120U 26108S   26277.29555400  .00000100  00000+0  13557-3 0  9993
2 69120  89.0214  11.0698 0001942 108.2598 251.8765 13.51025215 19232
QIANFAN-162             
1 69121U 26108T   26277.28734182  .00000114  00000+0  15838-3 0  9998
2 69121  89.0203  11.0943 0002009  98.5364 261.6015 13.51026035 19206
QIANFAN-163             
1 69325U 26121A   26277.32606948  .00000006  00000+0 -90330-5 0  9995
2 69325  89.0081 289.6416 0002841 106.8169 253.3294 13.51022018 16902
QIANFAN-164             
1 69326U 26121B   26277.29316069  .00000053  00000+0  63085-4 0  9991
2 69326  89.0081 289.6352 0002405 105.0001 255.1416 13.51022476 16908
QIANFAN-165             
1 69382U 26124A   26277.30283227  .00000107  00000+0  14714-3 0  9991
2 69382  89.0061 350.6371 0002350 117.3296 242.8094 13.51025015 16771
QIANFAN-166             
1 69383U 26124B   26277.23291085  .00000104  00000+0  14244-3 0  9990
2 69383  89.0079 350.6576 0001909 108.4153 251.7206 13.51025666 16765
QIANFAN-167             
1 69384U 26124C   26277.23681064  .00000110  00000+0  15117-3 0  9998
2 69384  89.0053 350.6590 0002260 103.1251 257.0152 13.51034580 16759
QIANFAN-168             
1 69385U 26124D   26277.24099147  .00000106  00000+0  14586-3 0  9999
2 69385  89.0050 350.6381 0001873 114.8909 245.2437 13.51023189 16762
QIANFAN-169             
1 69386U 26124E   26277.24521471  .00000102  00000+0  13991-3 0  9995
2 69386  89.0048 350.6372 0001831 105.1082 255.0272 13.51026393 16765
QIANFAN-170             
1 69387U 26124F   26277.24925491  .00000106  00000+0  14526-3 0  9995
2 69387  89.0066 350.6116 0001754 105.2383 254.8962 13.51028886 16785
QIANFAN-171             
1 69388U 26124G   26277.25752492  .00000085  00000+0  11360-3 0  9995
2 69388  89.0080 350.6254 0002112 102.0739 258.0649 13.51031793 16783
QIANFAN-172             
1 69389U 26124H   26277.25332284  .00000098  00000+0  13316-3 0  9996
2 69389  89.0063 350.6132 0002212 116.4619 243.6760 13.51032394 16789
QIANFAN-173             
1 69390U 26124J   26277.26151649  .00000101  00000+0  13783-3 0  9996
2 69390  89.0052 350.6073 0001762 112.4945 247.6393 13.51025436 16785
QIANFAN-174             
1 69391U 26124K   26276.60561156 -.01775361  00000+0 -31353+1 0  9992
2 69391  89.0029 350.6278 0009586 141.8586 218.3243 13.46835874 16706
QIANFAN-175             
1 69392U 26124L   26277.27813992  .00000102  00000+0  13895-3 0  9990
2 69392  89.0085 350.6128 0001865 107.6374 252.4981 13.51030296 16798
QIANFAN-176             
1 69393U 26124M   26277.28226198  .00000093  00000+0  12544-3 0  9997
2 69393  89.0046 350.5867 0001877 107.3164 252.8193 13.51023999 16782
QIANFAN-177             
1 69394U 26124N   26277.29037752  .00000095  00000+0  12787-3 0  9996
2 69394  89.0056 350.5759 0002253 106.1781 253.9618 13.51033133 16803
QIANFAN-178             
1 69395U 26124P   26277.28624659  .00000091  00000+0  12261-3 0  9997
2 69395  89.0002 350.5242 0001875 106.4073 253.7285 13.51029000 16815
QIANFAN-179             
1 69396U 26124Q   26277.29450314  .00000087  00000+0  11600-3 0  9995
2 69396  89.0034 350.5461 0001847 106.5504 253.5850 13.51032618 16818
QIANFAN-180             
1 69397U 26124R   26277.29871021  .00000084  00000+0  11155-3 0  9990
2 69397  89.0040 350.5676 0001735 104.1022 256.0322 13.51024769 16808
QIANFAN-181             
1 69398U 26124S   26277.26576037  .00000100  00000+0  13673-3 0  9993
2 69398  89.0063 350.6676 0002190 103.1489 256.9907 13.51026766 16758
QIANFAN-182             
1 69399U 26124T   26277.26975897  .00000100  00000+0  13655-3 0  9991
2 69399  89.0037 350.6340 0001916 108.4755 251.6604 13.51031349 16756
QIANFAN-183             
1 69401U 26125A   26277.30440561  .00000045  00000+0  51040-4 0  9995
2 69401  88.9835 268.8863 0002309  97.1829 262.9584 13.51027861 16674
QIANFAN-184             
1 69402U 26125B   26277.31263642  .00000051  00000+0  60542-4 0  9994
2 69402  88.9886 268.9200 0002186  95.2636 264.8765 13.51029366 16679
QIANFAN-185             
1 69403U 26125C   26277.26333273  .00000043  00000+0  47593-4 0  9999
2 69403  88.9901 268.8671 0002185  97.8819 262.2580 13.51028878 16707
QIANFAN-186             
1 69404U 26125D   26277.30862836  .00000046  00000+0  53245-4 0  9991
2 69404  88.9888 268.9207 0002178  93.5519 266.5882 13.51028350 16673
QIANFAN-187             
1 69405U 26125E   26277.31685930  .00000046  00000+0  52819-4 0  9997
2 69405  88.9888 268.9026 0002385  93.4114 266.7310 13.51029056 16686
QIANFAN-188             
1 69406U 26125F   26277.25082913  .00000043  00000+0  47792-4 0  9994
2 69406  88.9886 268.9089 0002362  97.5222 262.6197 13.51029914 16674
QIANFAN-189             
1 69407U 26125G   26277.25911555  .00000037  00000+0  38110-4 0  9995
2 69407  88.9869 268.9001 0002510 100.3992 259.7442 13.51019307 16666
QIANFAN-190             
1 69408U 26125H   26277.32082735  .00000039  00000+0  41849-4 0  9998
2 69408  88.9871 268.8919 0002113  95.6849 264.4543 13.51019354 16682
QIANFAN-191             
1 69409U 26125J   26277.27141578  .00000053  00000+0  63878-4 0  9996
2 69409  88.9884 268.9110 0002332  97.8248 262.3168 13.51019906 16673
QIANFAN-192             
1 69410U 26125K   26277.25500166  .00000034  00000+0  34157-4 0  9995
2 69410  88.9891 268.9141 0002493  98.1994 261.9440 13.51019892 16679
QIANFAN-193             
1 69411U 26125L   26277.27974315  .00000041  00000+0  45039-4 0  9998
2 69411  88.9869 268.8847 0002280  99.8000 260.3408 13.51027862 16681
QIANFAN-194             
1 69412U 26125M   26277.27563006  .00000042  00000+0  46928-4 0  9999
2 69412  88.9901 268.9045 0002348  97.2071 262.9347 13.51026412 16674
QIANFAN-195             
1 69413U 26125N   26277.28394366  .00000036  00000+0  37355-4 0  9999
2 69413  88.9903 268.8888 0001957  90.1873 269.9502 13.51028216 16694
QIANFAN-196             
1 69414U 26125P   26277.29199009  .00000036  00000+0  37427-4 0  9998
2 69414  88.9908 268.8926 0002004  94.5917 265.5463 13.51020416 16696
QIANFAN-197             
1 69415U 26125Q   26277.30038605  .00000045  00000+0  50797-4 0  9990
2 69415  88.9882 268.8595 0002273  96.4464 263.6946 13.51024044 16692
QIANFAN-198             
1 69416U 26125R   26277.21388660  .00000029  00000+0  26437-4 0  9996
2 69416  88.9876 268.8801 0002355  97.6251 262.5168 13.51028558 16681
QIANFAN-199             
1 69417U 26125S   26277.29625268  .00000100  00000+0  13622-3 0  9994
2 69417  88.9881 268.8225 0002461  93.3870 266.7562 13.51026257 16729
QIANFAN-200             
1 69418U 26125T   26277.26739062  .00000050  00000+0  59006-4 0  9991
2 69418  88.9887 268.9119 0002429  99.4225 260.7200 13.51026647 16674
QIANFAN-201             
1 69800U 26153A   26276.69971012 -.01811473  00000+0 -16206+1 0  9999
2 69800  88.9962 350.0164 0006865 266.3070  93.7318 13.88693084 12896
QIANFAN-202             
1 69801U 26153B   26276.65288017 -.01890681  00000+0 -15536+1 0  9995
2 69801  88.9965 349.9726 0004591 290.3153  69.7528 13.93132769 12906
QIANFAN-203             
1 69802U 26153C   26276.71020835 -.02067909  00000+0 -16547+1 0  9998
2 69802  88.9965 350.0001 0003685  47.4381 312.7106 13.95022805 12907
QIANFAN-204             
1 69803U 26153D   26276.69812894 -.01851700  00000+0 -15934+1 0  9998
2 69803  88.9961 349.9989 0007593 300.5349  59.5075 13.91049511 12905
QIANFAN-205             
1 69804U 26153E   26276.67270174 -.01842241  00000+0 -16030+1 0  9994
2 69804  88.9961 350.0308 0009152 302.2371  57.7915 13.90372332 12880
QIANFAN-206             
1 69805U 26153F   26276.65027152 -.01882291  00000+0 -15652+1 0  9997
2 69805  88.9965 349.9724 0006023 314.5141  45.5541 13.92428564 12914
QIANFAN-207             
1 69806U 26153G   26276.67446093 -.01861723  00000+0 -16503+1 0  9992
2 69806  88.9964 350.0130 0007773 274.2189  85.8096 13.89346568 12893
QIANFAN-208             
1 69807U 26153H   26277.24109202  .00000027  00000+0  10631-4 0  9994
2 69807  88.9957 349.9496 0004304  19.0301 341.1034 13.92747615 12988
QIANFAN-209             
1 69808U 26153J   26276.70976015 -.01914460  00000+0 -16973+1 0  9998
2 69808  88.9965 350.0196 0009006 273.6817  86.3326 13.88768338 12894
QIANFAN-210             
1 69809U 26153K   26276.67940906 -.01886138  00000+0 -16765+1 0  9994
2 69809  88.9965 350.0145 0009544 287.1306  72.8821 13.88559122 12898
QIANFAN-211             
1 69810U 26153L   26277.29800134  .00000257  00000+0  12676-3 0  9990
2 69810  88.9969 349.8658 0005586 288.3430  71.7149 14.14548271 13022
QIANFAN-212             
1 69811U 26153M   26276.68268406 -.01879156  00000+0 -15242+1 0  9997
2 69811  88.9959 349.9767 0004351 263.1656  96.9024 13.93857661 12914
QIANFAN-213             
1 69812U 26153N   26276.66130239 -.01883456  00000+0 -15644+1 0  9992
2 69812  88.9965 349.9920 0007271 304.4740  55.5747 13.92491283 12905
QIANFAN-214             
1 69813U 26153P   26276.71600431 -.01815439  00000+0 -14024+1 0  9992
2 69813  88.9967 349.9269 0015207 149.8883 210.3172 13.97124858 12944
QIANFAN-215             
1 69814U 26153Q   26277.28071318  .00000320  00000+0  15760-3 0  9995
2 69814  88.9967 349.7865 0005461 301.0681  58.9970 14.15206064 13061
QIANFAN-216             
1 69815U 26153R   26276.72025739 -.01833600  00000+0 -14254+1 0  9992
2 69815  88.9965 349.9088 0004983 194.1676 165.9362 13.96857461 12954
QIANFAN-217             
1 69816U 26153S   26276.54656695 -.01842415  00000+0 -10428+1 0  9997
2 69816  88.9962 349.8063 0005702 231.1972 128.8706 14.13879224 12990
QIANFAN-218             
1 69817U 26153T   26276.69486266 -.01844248  00000+0 -10679+1 0  9993
2 69817  88.9964 349.7943 0003751 120.8512 239.3043 14.12649912 13019
QIANFAN-219             
1 69848U 26155A   26276.71396992 -.01759843  00000+0 -30967+1 0  9996
2 69848  89.0107  52.3765 0009048 252.8761 107.1398 13.47033087 12527
QIANFAN-220             
1 69849U 26155B   26277.32823257  .00000096  00000+0  13053-3 0  9990
2 69849  89.0117  52.3453 0033488 331.7024  28.2307 13.50935900 12596
QIANFAN-221             
1 69850U 26155C   26276.97482630  .00000117  00000+0  11600-3 0  9998
2 69850  89.0117  52.0936 0029680 336.6435  23.3377 13.71188652 12703
QIANFAN-222             
1 69851U 26155D   26277.27127636  .00000084  00000+0  11216-3 0  9991
2 69851  89.0118  52.3696 0001733  99.6120 260.5227 13.51025535 12579
QIANFAN-223             
1 69852U 26155E   26277.30002600  .00000046  00000+0  52072-4 0  9993
2 69852  89.0117  52.3748 0001811 100.3648 259.7707 13.51032019 12577
QIANFAN-224             
1 69853U 26155F   26277.27536332  .00000032  00000+0  31149-4 0  9991
2 69853  89.0100  52.3177 0001731 101.7202 258.4144 13.51028420 12592
QIANFAN-225             
1 69854U 26155G   26277.27946263  .00000082  00000+0  10765-3 0  9995
2 69854  89.0108  52.3659 0001740 102.9811 257.1534 13.51032261 12570
QIANFAN-226             
1 69855U 26155H   26277.28364886  .00000033  00000+0  33108-4 0  9995
2 69855  89.0111  52.3482 0001690 104.5648 255.5690 13.51033288 12585
QIANFAN-227             
1 69856U 26155J   26277.28762099  .00000093  00000+0  12606-3 0  9999
2 69856  89.0109  52.3511 0034185 333.5858  26.3549 13.51040254 12586
QIANFAN-228             
1 69857U 26155K   26276.69932061  .00000043  00000+0  48975-4 0  9996
2 69857  89.0119  52.3945 0014569 333.6621  26.3788 13.50978016 12515
QIANFAN-229             
1 69858U 26155L   26277.30417620  .00000085  00000+0  11293-3 0  9993
2 69858  89.0118  52.3194 0001787 100.3167 259.8186 13.51036545 12601
QIANFAN-230             
1 69859U 26155M   26277.26708646  .00000092  00000+0  12363-3 0  9997
2 69859  89.0114  52.3652 0001726 102.9834 257.1511 13.51034752 12576
QIANFAN-231             
1 69860U 26155N   26276.64576494  .00000041  00000+0  45726-4 0  9998
2 69860  89.0124  52.3702 0026188 331.7074  28.2653 13.50974085 12522
QIANFAN-232             
1 69861U 26155P   26277.29166519  .00000089  00000+0  12085-3 0  9997
2 69861  89.0107  52.3129 0024910 329.4828  30.4872 13.50453529 12601
QIANFAN-233             
1 69862U 26155Q   26277.31656997  .00000035  00000+0  34874-4 0  9997
2 69862  89.0112  52.3025 0001697 107.5654 252.5683 13.51035719 12618
QIANFAN-234             
1 69863U 26155R   26277.26013500  .00000060  00000+0  68445-4 0  9998
2 69863  89.0102  52.2394 0032812 328.8700  31.0509 13.55605663 12644
QIANFAN-235             
1 69864U 26155S   26276.78067115  .00000125  00000+0  99570-4 0  9991
2 69864  89.0115  52.0315 0029266 333.3014  26.6648 13.84596009 12726
QIANFAN-236             
1 69865U 26155T   26276.73226542  .00000040  00000+0  43257-4 0  9995
2 69865  89.0116  52.3836 0007377 335.3298  24.7499 13.51019011 12522
QIANFAN-237             
1 69866U 26155U   26276.66042165 -.01753143  00000+0 -30820+1 0  9995
2 69866  89.0115  52.3543 0009780 330.6125  29.4473 13.47075654 12528
QIANFAN-238             
1 69867U 26155V   26276.66457433 -.01760648  00000+0 -30964+1 0  9991
2 69867  89.0114  52.3730 0002709 285.4612  74.6238 13.47084589 12526
