QIANFAN-1               
1 60379U 24140A   26271.57482092  .00000017  00000+0  75428-5 0  9999
2 60379  88.9663 269.1827 0019670  96.8092 263.5298 13.51026243106480
QIANFAN-2               
1 60380U 24140B   26271.52961149  .00000007  00000+0 -85358-5 0  9994
2 60380  88.9650 268.9876 0014811  73.1323 287.1451 13.51020632106531
QIANFAN-3               
1 60381U 24140C   26271.53798857  .00000017  00000+0  66354-5 0  9995
2 60381  88.9642 269.0973 0016068  83.7201 276.5780 13.51023379106449
QIANFAN-4               
1 60382U 24140D   26271.51318452  .00000012  00000+0 -10671-5 0  9990
2 60382  88.9668 269.0705 0015096  75.2453 285.0370 13.51021206106566
QIANFAN-5               
1 60383U 24140E   26271.56239647  .00000017  00000+0  70746-5 0  9997
2 60383  88.9642 269.1190 0017325  93.4539 266.8594 13.51031712106436
QIANFAN-6               
1 60384U 24140F   26271.50904055  .00000017  00000+0  78898-5 0  9990
2 60384  88.9669 268.9496 0015263  80.3495 279.9380 13.51024355106621
QIANFAN-7               
1 60385U 24140G   26271.53579801  .00000153  00000+0  55722-4 0  9992
2 60385  88.9726 259.6044 0015666 157.6973 202.4906 14.27895870111744
QIANFAN-8               
1 60386U 24140H   26271.51738685  .00000008  00000+0 -61093-5 0  9997
2 60386  88.9670 269.1896 0018727  81.9435 278.3840 13.51026317106478
QIANFAN-9               
1 60387U 24140J   26271.56670910  .00000012  00000+0 -26242-6 0  9992
2 60387  88.9668 269.2540 0018425  81.6290 278.6949 13.51022073106461
QIANFAN-10              
1 60388U 24140K   26271.57080680  .00000005  00000+0 -10695-4 0  9998
2 60388  88.9680 268.6317 0016607  61.8274 298.4553 13.51022159106593
QIANFAN-11              
1 60389U 24140L   26271.53390346  .00000017  00000+0  72179-5 0  9996
2 60389  88.9604 269.0042 0016456  81.6582 278.6434 13.51026315106242
QIANFAN-12              
1 60390U 24140M   26271.55441294  .00000017  00000+0  67490-5 0  9999
2 60390  88.9647 269.1715 0015304  88.7414 271.5491 13.51023989106375
QIANFAN-13              
1 60391U 24140N   26271.52556998  .00000009  00000+0 -45344-5 0  9991
2 60391  88.9907 269.4400 0015131  90.8295 269.4590 13.51024111106394
QIANFAN-14              
1 60392U 24140P   26271.55035800  .00000014  00000+0  23053-5 0  9997
2 60392  88.9638 269.1432 0018820  91.0223 269.3084 13.51026093106400
QIANFAN-15              
1 60393U 24140Q   26271.55843236  .00000022  00000+0  15404-4 0  9997
2 60393  88.9662 269.1679 0014543  79.2329 281.0459 13.51028645106394
QIANFAN-16              
1 60394U 24140R   26271.54608635  .00000015  00000+0  46455-5 0  9992
2 60394  88.9664 269.2972 0016748  94.3766 265.9300 13.51025452106306
QIANFAN-17              
1 60395U 24140S   26271.54213414  .00000019  00000+0  10905-4 0  9994
2 60395  88.9675 269.3753 0017136  88.8777 271.4337 13.51021869107265
QIANFAN-18              
1 60396U 24140T   26271.52155944  .00000026  00000+0  21510-4 0  9998
2 60396  88.9670 268.8924 0016369  73.8909 286.4043 13.51026298106656
QIANFAN-19              
1 61552U 24185A   26271.56589490  .00000284  00000+0  14046-3 0  9994
2 61552  88.9872  44.7416 0009003  94.7215 265.5000 14.14536522110631
QIANFAN-20              
1 61553U 24185B   26271.58335338  .00000413  00000+0  23022-3 0  9995
2 61553  88.9866  45.3492 0007203 128.6330 231.5500 14.09079999110307
QIANFAN-21              
1 61554U 24185C   26271.57602624  .00000422  00000+0  18112-3 0  9994
2 61554  88.9792  43.0460 0012297 132.3487 227.8748 14.22940349111180
QIANFAN-22              
1 61555U 24185D   26271.57306252  .00000080  00000+0  58018-4 0  9993
2 61555  88.9845  47.4993 0006726 171.5922 188.5363 13.86432051109096
QIANFAN-23              
1 61556U 24185E   26271.62400274  .00000241  00000+0  11363-3 0  9999
2 61556  88.9864  44.4098 0009545 101.0199 259.2063 14.16557248110788
QIANFAN-24              
1 61557U 24185F   26271.54313232  .00000417  00000+0  17488-3 0  9997
2 61557  88.9851  43.3524 0011627  77.6861 282.5632 14.24164612111268
QIANFAN-25              
1 61558U 24185G   26271.58386466  .00000399  00000+0  23436-3 0  9990
2 61558  88.9860  45.3992 0013779 147.4744 212.7290 14.06138055110239
QIANFAN-26              
1 61559U 24185H   26271.57131759  .00000147  00000+0  13428-3 0  9994
2 61559  88.9851  48.4739 0005139 195.8593 164.2413 13.77947736108587
QIANFAN-27              
1 61560U 24185J   26271.60270623  .00000381  00000+0  14893-3 0  9991
2 61560  88.9862  42.9786 0009140  66.7889 293.4267 14.27611028111519
QIANFAN-28              
1 61561U 24185K   26271.56052926  .00000549  00000+0  21319-3 0  9998
2 61561  88.9880  42.9988 0008994  64.9676 295.2452 14.28497596111546
QIANFAN-29              
1 61562U 24185L   26271.53570963  .00000139  00000+0  19573-3 0  9996
2 61562  88.9818  51.3592 0008121 296.5964  63.4355 13.51097118106922
QIANFAN-30              
1 61563U 24185M   26271.50752098  .00000122  00000+0  17269-3 0  9997
2 61563  88.9839  50.9988 0005792 279.7540  80.2956 13.50078249107168
QIANFAN-31              
1 61564U 24185N   26271.54179968  .00000142  00000+0  17957-3 0  9997
2 61564  88.9824  50.3375 0005309 258.0750 101.9810 13.58067969107495
QIANFAN-32              
1 61565U 24185P   26271.53974479  .00000108  00000+0  14987-3 0  9999
2 61565  88.9878  51.2139 0008156 317.8791  42.1733 13.50808007107167
QIANFAN-33              
1 61566U 24185Q   26271.55920957  .00000260  00000+0  17787-3 0  9994
2 61566  88.9849  46.5058 0009243 132.2705 227.9258 13.96758319109612
QIANFAN-34              
1 61567U 24185R   26271.61912538  .00000333  00000+0  20740-3 0  9992
2 61567  88.9828  45.6801 0007231 130.2794 229.9020 14.02528153109985
QIANFAN-35              
1 61568U 24185S   26271.54850262  .00000462  00000+0  17928-3 0  9997
2 61568  88.9860  42.8758 0008079  64.0943 296.1084 14.28366601111540
QIANFAN-36              
1 61569U 24185T   26271.59670688  .00000090  00000+0  11203-3 0  9992
2 61569  88.9815  50.8423 0004513 281.6644  78.4004 13.55648690107192
QIANFAN-37              
1 62238U 24232B   26271.57836384  .00000125  00000+0  17437-3 0  9998
2 62238  89.0165  12.2361 0001683  89.4988 270.6356 13.51032271138300
QIANFAN-38              
1 62239U 24232C   26271.60314962  .00000120  00000+0  16699-3 0  9990
2 62239  89.0171  12.1690 0016315  81.2786 279.0212 13.51030417138366
QIANFAN-39              
1 62240U 24232D   26271.54505623  .00000348  00000+0  14086-3 0  9991
2 62240  89.0145   4.3360 0015523 201.1663 158.8889 14.25567329142675
QIANFAN-40              
1 62241U 24232E   26271.56200809  .00000127  00000+0  17800-3 0  9994
2 62241  89.0199  11.8384 0015519  88.6812 271.6117 13.51030802138721
QIANFAN-41              
1 62242U 24232F   26271.57020039  .00000125  00000+0  17540-3 0  9990
2 62242  89.0169  12.1184 0015658  78.0077 282.2828 13.51031850138384
QIANFAN-42              
1 62243U 24232G   26271.58745008  .00000330  00000+0  13568-3 0  9996
2 62243  89.0143   4.4212 0014090 207.8625 152.1815 14.24654144142635
QIANFAN-43              
1 62244U 24232H   26271.56609681  .00000115  00000+0  15909-3 0  9993
2 62244  89.0174  12.1969 0017286  82.3511 277.9603 13.51031263106995
QIANFAN-44              
1 62245U 24232J   26271.55377497  .00000110  00000+0  15202-3 0  9991
2 62245  89.0172  12.0041 0015462  80.1151 280.1745 13.51031522138462
QIANFAN-45              
1 62246U 24232K   26271.59494575  .00000104  00000+0  14174-3 0  9993
2 62246  89.0175  12.1569 0016114  79.5194 280.7772 13.51030217138394
QIANFAN-46              
1 62247U 24232L   26271.54550154  .00000119  00000+0  16486-3 0  9999
2 62247  89.0172  12.2189 0016260  84.5317 275.7688 13.51031366138347
QIANFAN-47              
1 62248U 24232M   26271.54966490  .00000108  00000+0  14888-3 0  9996
2 62248  89.0168  12.1399 0016665  83.6792 276.6256 13.51030601138376
QIANFAN-48              
1 62249U 24232N   26271.58682709  .00000111  00000+0  15245-3 0  9991
2 62249  89.0171  12.1493 0018948  85.5940 274.7376 13.51024993138388
QIANFAN-49              
1 62250U 24232P   26271.57434242  .00000127  00000+0  17808-3 0  9993
2 62250  89.0170  12.1607 0015955  81.3166 278.9792 13.51032104106976
QIANFAN-50              
1 62251U 24232Q   26271.59899641  .00000117  00000+0  16272-3 0  9997
2 62251  89.0176  12.1822 0017628  82.1237 278.1915 13.51031587107007
QIANFAN-51              
1 62252U 24232R   26271.58258416  .00000116  00000+0  16015-3 0  9990
2 62252  89.0170  12.1599 0015159  86.0335 274.2548 13.51030555106992
QIANFAN-52              
1 62253U 24232S   26271.53728511  .00000128  00000+0  17893-3 0  9992
2 62253  89.0166  12.0267 0017077  78.6569 281.6500 13.51032591107078
QIANFAN-53              
1 62254U 24232T   26271.59086869  .00000103  00000+0  14128-3 0  9993
2 62254  89.0173  12.1478 0015969  79.7812 280.5139 13.51029249107042
QIANFAN-54              
1 62255U 24232U   26271.55787787  .00000115  00000+0  15892-3 0  9999
2 62255  89.0164  11.8039 0004108 112.9888 247.1697 13.51031122138548
QIANFAN-55              
1 62785U 25016A   26271.58401910  .00000020  00000+0  12243-4 0  9995
2 62785  88.9681  73.1141 0016062 226.5872 133.3943 13.51025333 86325
QIANFAN-56              
1 62786U 25016B   26271.52622415  .00000025  00000+0  19909-4 0  9996
2 62786  88.9655  72.8794 0014609 229.2415 130.7469 13.51028644 86361
QIANFAN-57              
1 62787U 25016C   26271.55930222  .00000030  00000+0  27830-4 0  9996
2 62787  88.9686  73.1196 0002213  77.6592 282.4807 13.51028334 86339
QIANFAN-58              
1 62788U 25016D   26271.60458594  .00000021  00000+0  14441-4 0  9994
2 62788  88.9657  72.8585 0012694 219.9658 140.0560 13.51027824 86387
QIANFAN-59              
1 62789U 25016E   26271.55505703  .00000028  00000+0  24598-4 0  9995
2 62789  88.9679  73.0056 0012968 224.3967 135.6145 13.51025116 86375
QIANFAN-60              
1 62790U 25016F   26271.51389406  .00000028  00000+0  24637-4 0  9997
2 62790  88.9661  72.9262 0014589 221.2453 138.7597 13.51028669 86351
QIANFAN-61              
1 62791U 25016G   26271.54685827  .00000026  00000+0  21549-4 0  9994
2 62791  88.9726  73.2816 0013570 220.2530 139.7617 13.51028141 86378
QIANFAN-62              
1 62792U 25016H   26271.55109534  .00000024  00000+0  18071-4 0  9996
2 62792  88.9674  72.9941 0014902 220.9437 139.0596 13.51027523 86360
QIANFAN-63              
1 62793U 25016J   26271.57573819  .00000012  00000+0  11716-6 0  9998
2 62793  88.9681  72.9627 0014840 226.6891 133.3024 13.51023484 86408
QIANFAN-64              
1 62794U 25016K   26271.54276884  .00000017  00000+0  81755-5 0  9992
2 62794  88.9668  72.9014 0012945 218.3739 141.6492 13.51028105 86391
QIANFAN-65              
1 62795U 25016L   26271.53857682  .00000018  00000+0  95162-5 0  9991
2 62795  88.9665  72.9175 0012755 220.2083 139.8125 13.51024249 86375
QIANFAN-66              
1 62796U 25016M   26271.56742221  .00000024  00000+0  19243-4 0  9999
2 62796  88.9684  72.9415 0013958 215.8282 144.1934 13.51020362 86426
QIANFAN-67              
1 62797U 25016N   26271.57149834  .00000020  00000+0  12480-4 0  9994
2 62797  88.9674  72.9382 0013766 223.2609 136.7462 13.51020562 86393
QIANFAN-68              
1 62798U 25016P   26271.56336777  .00000030  00000+0  27702-4 0  9992
2 62798  88.9677  72.9945 0013886 221.0103 139.0005 13.51022528 86371
QIANFAN-69              
1 62799U 25016Q   26271.50564638  .00000094  00000+0  12746-3 0  9997
2 62799  88.9656  72.8086 0014647 223.2458 136.7544 13.51024829 86409
QIANFAN-70              
1 62800U 25016R   26271.59630530  .00000040  00000+0  43623-4 0  9994
2 62800  88.9677  72.9976 0014423 212.1996 147.8276 13.51024655 86378
QIANFAN-71              
1 62801U 25016S   26271.51805624  .00000028  00000+0  24979-4 0  9994
2 62801  88.9671  72.9678 0014414 226.7505 133.2444 13.51027422 86369
QIANFAN-72              
1 62802U 25016T   26271.53461230  .00000018  00000+0  89698-5 0  9997
2 62802  88.9661  72.9513 0017539 235.2830 124.6670 13.51029226 86352
QIANFAN-73              
1 63159U 25046A   26271.56156371  .00000032  00000+0  30717-4 0  9999
2 63159  88.9631 289.9218 0015208  13.9524 346.2045 13.51025922 86547
QIANFAN-74              
1 63160U 25046B   26271.54520217  .00000007  00000+0 -77763-5 0  9999
2 63160  88.9632 289.8136 0001911  98.8272 261.3095 13.51018709 86600
QIANFAN-75              
1 63161U 25046C   26271.60685109  .00000095  00000+0  12826-3 0  9992
2 63161  88.9633 290.0447 0016451  16.7763 343.3929 13.51032454 86486
QIANFAN-76              
1 63162U 25046D   26271.60288242 -.00000101  00000+0 -17494-3 0  9996
2 63162  88.9634 290.0249 0013962  18.2949 341.8701 13.51018956 86498
QIANFAN-77              
1 63163U 25046E   26271.58311475  .00000084  00000+0  51460-4 0  9999
2 63163  88.9640 285.6437 0012635 253.0632 106.9160 13.96248620 88896
QIANFAN-78              
1 63164U 25046F   26271.57048247  .00000064  00000+0  80642-4 0  9995
2 63164  88.9632 289.8899 0015418  19.6997 340.4746 13.51013399 86569
QIANFAN-79              
1 63165U 25046G   26271.59863444  .00000026  00000+0  21017-4 0  9991
2 63165  88.9636 290.0044 0015093  18.4225 341.7470 13.51021393 86516
QIANFAN-80              
1 63166U 25046H   26271.54097830  .00000072  00000+0  93437-4 0  9991
2 63166  88.9633 289.7094 0014177  23.5131 336.6665 13.51031055 86660
QIANFAN-81              
1 63167U 25046J   26271.52042361  .00000097  00000+0  13200-3 0  9995
2 63167  88.9633 289.7788 0014989  12.7640 347.3887 13.51022410 86612
QIANFAN-82              
1 63168U 25046K   26271.55342525  .00000068  00000+0  87194-4 0  9996
2 63168  88.9633 289.8197 0013121  20.4359 339.7315 13.51021876 86603
QIANFAN-83              
1 63169U 25046L   26271.58744709  .00000049  00000+0  47644-4 0  9995
2 63169  88.9635 289.0210 0013325 348.5350  11.5501 13.62065619 87052
QIANFAN-84              
1 63170U 25046M   26271.58225704 -.00000045  00000+0 -88967-4 0  9997
2 63170  88.9634 289.9493 0015977  15.2320 344.9309 13.51015835 86539
QIANFAN-85              
1 63171U 25046N   26271.57805939  .00000077  00000+0  99764-4 0  9991
2 63171  88.9632 289.8192 0013637  18.8442 341.3211 13.51022227 86602
QIANFAN-86              
1 63172U 25046P   26271.58623276  .00000075  00000+0  97415-4 0  9994
2 63172  88.9634 289.6873 0011679  24.4224 335.7478 13.51027315 86687
QIANFAN-87              
1 63173U 25046Q   26271.55743928  .00000015  00000+0  50453-5 0  9995
2 63173  88.9631 289.7913 0012016  18.9722 341.1875 13.51020552 86619
QIANFAN-88              
1 63174U 25046R   26271.57391881  .00000082  00000+0  10877-3 0  9993
2 63174  88.9633 289.7512 0012745  27.3205 332.8614 13.51020771 86640
QIANFAN-89              
1 63175U 25046S   26271.53688377  .00000087  00000+0  11566-3 0  9990
2 63175  88.9633 289.9439 0016890  15.3791 344.7870 13.51021479 86533
QIANFAN-90              
1 63176U 25046T   26271.56576009  .00000031  00000+0  29717-4 0  9999
2 63176  88.9634 289.9142 0013785  15.4698 344.6872 13.51020188 86552
QIANFAN-91              
1 66033U 25233A   26271.37592649  .00000086  00000+0  11385-3 0  9990
2 66033  89.0068  32.7632 0001658  97.9778 262.1561 13.51030711 47119
QIANFAN-92              
1 66034U 25233B   26271.38458016  .00000085  00000+0  11308-3 0  9995
2 66034  89.0053  32.7172 0002236 100.8962 259.2441 13.51028127 47117
QIANFAN-93              
1 66035U 25233C   26271.61482630  .00000075  00000+0  97191-4 0  9995
2 66035  89.0079  32.7739 0001702  96.7353 263.3992 13.51039890 47148
QIANFAN-94              
1 66036U 25233D   26271.60229566  .00000082  00000+0  10772-3 0  9999
2 66036  89.0075  32.6749 0001761 103.9295 256.2052 13.51029138 47193
QIANFAN-95              
1 66037U 25233E   26271.61054313  .00000079  00000+0  10309-3 0  9999
2 66037  89.0074  32.2154 0001579 102.3898 257.7430 13.51029021 47443
QIANFAN-96              
1 66038U 25233F   26271.41297414  .00000081  00000+0  10646-3 0  9996
2 66038  89.0071  32.7756 0001608  96.8736 263.2599 13.51030198 47114
QIANFAN-97              
1 66039U 25233G   26271.39645701  .00000072  00000+0  93648-4 0  9994
2 66039  89.0073  32.7647 0001720  97.7036 262.4311 13.51040092 47111
QIANFAN-98              
1 66040U 25233H   26271.62696359  .00000082  00000+0  10879-3 0  9992
2 66040  89.0064  32.4615 0001824 116.6372 243.4966 13.51030407 47297
QIANFAN-99              
1 66041U 25233J   26271.63095579  .00000088  00000+0  11788-3 0  9997
2 66041  89.0075  32.7459 0001628 114.3120 245.8201 13.51037040 47150
QIANFAN-100             
1 66042U 25233K   26271.62278841  .00000078  00000+0  10265-3 0  9990
2 66042  89.0086  32.6854 0001568  95.0349 265.0981 13.51055963 47201
QIANFAN-101             
1 66043U 25233L   26271.38520508  .00000233  00000+0  89863-4 0  9998
2 66043  89.0074  28.7339 0016055 158.2307 201.9573 14.26865281 49344
QIANFAN-102             
1 66044U 25233M   26271.34716520  .00000076  00000+0  99395-4 0  9992
2 66044  89.0072  32.6817 0001733 105.0381 255.0962 13.51029780 47160
QIANFAN-103             
1 66045U 25233N   26271.57350115  .00000072  00000+0  93366-4 0  9990
2 66045  89.0075  32.7570 0001703  98.0889 262.0456 13.51029826 47147
QIANFAN-104             
1 66046U 25233P   26271.57753994  .00000072  00000+0  92691-4 0  9993
2 66046  89.0080  32.6635 0001830 105.3275 254.8079 13.51027739 47193
QIANFAN-105             
1 66047U 25233Q   26271.36368920  .00000082  00000+0  10835-3 0  9992
2 66047  89.0093  32.5418 0001790 101.7274 258.4078 13.51031000 47274
QIANFAN-106             
1 66048U 25233R   26271.35945502  .00000074  00000+0  95858-4 0  9999
2 66048  89.0061  32.7226 0001778 114.5773 245.5564 13.51031325 47111
QIANFAN-107             
1 66049U 25233S   26271.36770436  .00000085  00000+0  11232-3 0  9998
2 66049  89.0077  32.7706 0001734  99.0065 261.1282 13.51030598 47128
QIANFAN-108             
1 66050U 25233T   26271.37187838  .00000087  00000+0  11586-3 0  9993
2 66050  89.0070  32.7506 0001799 112.9068 247.2274 13.51030361 47124
QIANFAN-109             
1 68636U 26075A   26271.60798527  .00000053  00000+0  62994-4 0  9992
2 68636  88.9849 310.4555 0001793  83.8840 276.2515 13.51021631 23759
QIANFAN-110             
1 68637U 26075B   26271.54208818  .00000052  00000+0  62005-4 0  9997
2 68637  88.9849 310.4838 0002172  95.1395 265.0004 13.51022483 23741
QIANFAN-111             
1 68638U 26075C   26271.60405701  .00000050  00000+0  59308-4 0  9995
2 68638  88.9848 310.4363 0002144  94.7950 265.3446 13.51025052 23776
QIANFAN-112             
1 68639U 26075D   26271.56692839  .00000043  00000+0  48459-4 0  9998
2 68639  88.9847 310.4478 0002017  81.9158 278.2222 13.51024370 23766
QIANFAN-113             
1 68640U 26075E   26271.53800023  .00000064  00000+0  80770-4 0  9998
2 68640  88.9852 310.4502 0002170  91.8799 268.2600 13.51021086 23763
QIANFAN-114             
1 68641U 26075F   26271.54620316  .00000051  00000+0  60053-4 0  9993
2 68641  88.9847 310.4635 0002140  94.5849 265.5547 13.51019599 23753
QIANFAN-115             
1 68642U 26075G   26271.57508459  .00000049  00000+0  57890-4 0  9992
2 68642  88.9847 310.4679 0001979  93.9814 266.1564 13.51025293 23750
QIANFAN-116             
1 68643U 26075H   26271.56271014  .00000044  00000+0  49297-4 0  9993
2 68643  88.9840 310.4219 0002117  84.8767 275.2626 13.51025846 23760
QIANFAN-117             
1 68644U 26075J   26271.55047484  .00000058  00000+0  70614-4 0  9997
2 68644  88.9845 310.4437 0001977  89.0479 271.0898 13.51023684 23761
QIANFAN-118             
1 68645U 26075K   26271.58330191  .00000059  00000+0  71960-4 0  9997
2 68645  88.9850 310.4533 0002261  95.9499 264.1910 13.51025395 23769
QIANFAN-119             
1 68646U 26075L   26271.55856109  .00000059  00000+0  72864-4 0  9991
2 68646  88.9850 310.4515 0001782  88.3627 271.7728 13.51021271 23766
QIANFAN-120             
1 68647U 26075M   26271.57094755  .00000050  00000+0  58855-4 0  9990
2 68647  88.9852 310.4369 0001710  89.0754 271.0593 13.51021059 23774
QIANFAN-121             
1 68648U 26075N   26271.59573522  .00000056  00000+0  67798-4 0  9999
2 68648  88.9849 310.4370 0002176  96.0719 264.0680 13.51024535 23770
QIANFAN-122             
1 68649U 26075P   26271.58742901  .00000059  00000+0  72031-4 0  9997
2 68649  88.9848 310.4348 0001928  87.0440 273.0932 13.51028112 23764
QIANFAN-123             
1 68650U 26075Q   26271.55445656  .00000061  00000+0  76526-4 0  9999
2 68650  88.9845 310.4248 0001802  81.0483 279.0873 13.51021022 23745
QIANFAN-124             
1 68651U 26075R   26271.57922774  .00000057  00000+0  69747-4 0  9995
2 68651  88.9848 310.4340 0001918  85.2199 274.9171 13.51027582 23775
QIANFAN-125             
1 68652U 26075S   26271.59162029  .00000063  00000+0  78838-4 0  9995
2 68652  88.9847 310.4347 0002198  95.3287 264.8115 13.51024690 23776
QIANFAN-126             
1 68653U 26075T   26271.59969551  .00000059  00000+0  72905-4 0  9995
2 68653  88.9851 310.4037 0001789  82.0888 278.0467 13.51020289 23792
QIANFAN-127             
1 69073U 26104A   26271.60509890  .00000089  00000+0  11867-3 0  9995
2 69073  88.9909 330.9281 0002502  97.9058 262.2378 13.51029227 19128
QIANFAN-128             
1 69074U 26104B   26271.53917286  .00000082  00000+0  10813-3 0  9993
2 69074  88.9887 330.9567 0002396 109.4951 250.6459 13.51024723 19096
QIANFAN-129             
1 69075U 26104C   26271.56379172  .00000086  00000+0  11386-3 0  9993
2 69075  88.9890 330.8888 0002389 104.7059 255.4357 13.51024726 19133
QIANFAN-130             
1 69076U 26104D   26271.60081769  .00000096  00000+0  12953-3 0  9993
2 69076  88.9892 330.9510 0002391  92.8833 267.2592 13.51022865 19100
QIANFAN-131             
1 69077U 26104E   26271.54747973  .00000081  00000+0  10683-3 0  9995
2 69077  88.9885 330.9164 0002142 106.3444 253.7943 13.51026927 19115
QIANFAN-132             
1 69078U 26104F   26271.60906513  .00000092  00000+0  12436-3 0  9990
2 69078  88.9888 330.9669 0002323  96.4236 263.7180 13.51023161 19096
QIANFAN-133             
1 69079U 26104G   26271.54328383  .00000079  00000+0  10398-3 0  9997
2 69079  88.9891 330.9241 0002172 112.0604 248.0778 13.51031969 19109
QIANFAN-134             
1 69080U 26104H   26271.57207109  .00000089  00000+0  11876-3 0  9997
2 69080  88.9895 330.9479 0002341 109.4783 250.6621 13.51030271 19105
QIANFAN-135             
1 69081U 26104J   26271.55145872  .00000074  00000+0  95992-4 0  9990
2 69081  88.9889 330.9401 0002564 107.1793 252.9639 13.51023407 19104
QIANFAN-136             
1 69082U 26104K   26271.55964937  .00000070  00000+0  89701-4 0  9999
2 69082  88.9891 330.9426 0002237 110.4028 249.7364 13.51020140 19100
QIANFAN-137             
1 69083U 26104L   26271.55564739  .00000073  00000+0  95005-4 0  9993
2 69083  88.9900 330.8204 0002210  98.1659 261.9743 13.51023035 19178
QIANFAN-138             
1 69084U 26104M   26271.58025896  .00000077  00000+0  10102-3 0  9991
2 69084  88.9885 330.9397 0002546 101.3701 258.7737 13.51022877 19105
QIANFAN-139             
1 69085U 26104N   26271.56803724  .00000086  00000+0  11407-3 0  9993
2 69085  88.9887 330.9229 0002426  96.5483 263.5944 13.51031577 19113
QIANFAN-140             
1 69086U 26104P   26271.57615177  .00000087  00000+0  11566-3 0  9995
2 69086  88.9887 330.9258 0002616 105.6328 254.5112 13.51024019 19117
QIANFAN-141             
1 69087U 26104Q   26271.58446298  .00000076  00000+0  99727-4 0  9997
2 69087  88.9884 330.8889 0002456 108.3608 251.7811 13.51021785 19131
QIANFAN-142             
1 69088U 26104R   26271.59260566  .00000085  00000+0  11344-3 0  9999
2 69088  88.9883 330.8872 0002524 102.4236 257.7198 13.51020970 19130
QIANFAN-143             
1 69089U 26104S   26271.58855657  .00000076  00000+0  99048-4 0  9998
2 69089  88.9894 330.8952 0002071 106.3614 253.7765 13.51028434 19131
QIANFAN-144             
1 69090U 26104T   26271.59671583  .00000088  00000+0  11808-3 0  9995
2 69090  88.9892 330.9124 0002516  98.7911 261.3525 13.51021832 19124
QIANFAN-145             
1 69104U 26108A   26270.71054259 -.01765773  00000+0 -31177+1 0  9993
2 69104  89.0195  11.8195 0002826 223.0784 137.0144 13.46842126 18289
QIANFAN-146             
1 69105U 26108B   26270.89174031 -.01808732  00000+0 -31944+1 0  9999
2 69105  89.0198  11.6390 0004915 173.2249 186.8968 13.46924412 18400
QIANFAN-147             
1 69106U 26108C   26270.71885312 -.01763383  00000+0 -31052+1 0  9994
2 69106  89.0199  11.8232 0002805 353.5577   6.5535 13.47007687 18272
QIANFAN-148             
1 69107U 26108D   26270.85468786 -.01777759  00000+0 -31377+1 0  9994
2 69107  89.0193  11.7994 0012932 187.6257 172.4697 13.46864747 18295
QIANFAN-149             
1 69108U 26108E   26270.71461691 -.01766604  00000+0 -31114+1 0  9994
2 69108  89.0193  11.8345 0005358 177.7987 182.3187 13.47000783 18276
QIANFAN-150             
1 69109U 26108F   26270.72281644 -.01763971  00000+0 -31068+1 0  9996
2 69109  89.0198  11.7874 0004392 187.6253 172.4830 13.46996194 18297
QIANFAN-151             
1 69110U 26108G   26270.75170987 -.01753249  00000+0 -30846+1 0  9998
2 69110  89.0196  11.8080 0002304 330.5979  29.5040 13.47042810 18284
QIANFAN-152             
1 69111U 26108H   26270.73107243 -.01765711  00000+0 -31127+1 0  9992
2 69111  89.0193  11.8015 0000811  47.0696 313.0520 13.46944858 18294
QIANFAN-153             
1 69112U 26108J   26270.72693433 -.01763626  00000+0 -31071+1 0  9994
2 69112  89.0190  11.7778 0001875 337.8396  22.2671 13.46979000 18298
QIANFAN-154             
1 69113U 26108K   26270.73530218 -.01764185  00000+0 -31096+1 0  9995
2 69113  89.0200  11.8269 0006488 163.9209 196.2147 13.46942713 18283
QIANFAN-155             
1 69114U 26108L   26270.73927496 -.01751900  00000+0 -30888+1 0  9993
2 69114  89.0198  11.7906 0002548 295.1212  64.9672 13.46901270 18290
QIANFAN-156             
1 69115U 26108M   26270.75982705 -.01774465  00000+0 -31211+1 0  9992
2 69115  89.0212  11.7909 0015415 239.7700 120.1924 13.47065431 18313
QIANFAN-157             
1 69116U 26108N   26271.26620098 -.01775761  00000+0 -31352+1 0  9990
2 69116  89.0195  11.6632 0002261 245.5777 114.5136 13.46868912 18417
QIANFAN-158             
1 69117U 26108P   26270.76394160 -.01764163  00000+0 -31068+1 0  9991
2 69117  89.0196  11.7542 0008064 135.0258 225.1545 13.46994935 18322
QIANFAN-159             
1 69118U 26108Q   26270.97793469 -.01762301  00000+0 -31039+1 0  9990
2 69118  89.0187  11.7382 0002005 276.4398  83.6522 13.46994274 18349
QIANFAN-160             
1 69119U 26108R   26270.77241182 -.01765846  00000+0 -31166+1 0  9997
2 69119  89.0201  11.7975 0000977  77.3914 282.7344 13.46870343 18303
QIANFAN-161             
1 69120U 26108S   26270.77631884 -.01761863  00000+0 -31055+1 0  9993
2 69120  89.0209  11.7145 0002693 347.4140  12.6941 13.46943048 18352
QIANFAN-162             
1 69121U 26108T   26270.76816774 -.01770245  00000+0 -31235+1 0  9990
2 69121  89.0198  11.7395 0002411 326.0544  34.0450 13.46896995 18324
QIANFAN-163             
1 69325U 26121A   26271.54922796  .00000003  00000+0 -13944-4 0  9997
2 69325  89.0088 290.2204 0002770 112.3161 247.8284 13.51022112 16123
QIANFAN-164             
1 69326U 26121B   26271.59038231  .00000033  00000+0  32996-4 0  9995
2 69326  89.0086 290.2064 0002271 107.9999 252.1400 13.51022175 16130
QIANFAN-165             
1 69382U 26124A   26271.60006326  .00000123  00000+0  17114-3 0  9996
2 69382  89.0066 351.2099 0002198 119.5698 240.5672 13.51023943 16001
QIANFAN-166             
1 69383U 26124B   26271.60420680  .00000116  00000+0  16122-3 0  9990
2 69383  89.0085 351.2219 0001865 107.3111 252.8244 13.51024588 16009
QIANFAN-167             
1 69384U 26124C   26271.60814367  .00000109  00000+0  14941-3 0  9999
2 69384  89.0058 351.2248 0002263 104.9333 255.2069 13.51033490 15995
QIANFAN-168             
1 69385U 26124D   26271.53821485  .00000114  00000+0  15839-3 0  9994
2 69385  89.0055 351.2115 0001768 113.3312 246.8025 13.51022051 15995
QIANFAN-169             
1 69386U 26124E   26271.54245192  .00000123  00000+0  17217-3 0  9993
2 69386  89.0054 351.2107 0001819 103.5999 256.5355 13.51025295 15992
QIANFAN-170             
1 69387U 26124F   26271.54650260  .00000119  00000+0  16591-3 0  9999
2 69387  89.0071 351.1841 0001742 102.8160 257.3186 13.51027721 16014
QIANFAN-171             
1 69388U 26124G   26271.55478525  .00000117  00000+0  16231-3 0  9992
2 69388  89.0086 351.1970 0002125 102.7491 257.3898 13.51030736 16016
QIANFAN-172             
1 69389U 26124H   26271.55058517  .00000126  00000+0  17595-3 0  9992
2 69389  89.0069 351.1858 0002064 117.7480 242.3881 13.51031304 16017
QIANFAN-173             
1 69390U 26124J   26271.55874962  .00000117  00000+0  16225-3 0  9993
2 69390  89.0058 351.1806 0001677 109.5787 250.5545 13.51024291 16013
QIANFAN-174             
1 69391U 26124K   26271.57109371  .00000106  00000+0  14552-3 0  9990
2 69391  89.0038 351.1351 0002311 106.5660 253.5745 13.51032225 16022
QIANFAN-175             
1 69392U 26124L   26270.90884053  .00000113  00000+0  15630-3 0  9990
2 69392  89.0091 351.2509 0001832 105.7420 254.3933 13.51022101 15939
QIANFAN-176             
1 69393U 26124M   26271.57948921  .00000123  00000+0  17239-3 0  9998
2 69393  89.0052 351.1603 0001846 105.8556 254.2799 13.51022964 16013
QIANFAN-177             
1 69394U 26124N   26271.58764318  .00000128  00000+0  18005-3 0  9993
2 69394  89.0062 351.1489 0002223 107.9441 252.1953 13.51032053 16034
QIANFAN-178             
1 69395U 26124P   26271.58349503  .00000124  00000+0  17377-3 0  9996
2 69395  89.0008 351.1004 0001851 105.0026 255.1330 13.51027949 16043
QIANFAN-179             
1 69396U 26124Q   26271.59176698  .00000123  00000+0  17256-3 0  9996
2 69396  89.0040 351.1205 0001829 104.8331 255.3023 13.51031616 16041
QIANFAN-180             
1 69397U 26124R   26271.59594109  .00000119  00000+0  16525-3 0  9991
2 69397  89.0046 351.1416 0001739 101.2455 258.8891 13.51023822 16030
QIANFAN-181             
1 69398U 26124S   26271.56299927  .00000117  00000+0  16268-3 0  9991
2 69398  89.0069 351.2403 0002188 104.2817 255.8578 13.51025705 15981
QIANFAN-182             
1 69399U 26124T   26271.56701703  .00000110  00000+0  15122-3 0  9993
2 69399  89.0043 351.2081 0001869 107.4412 252.6944 13.51030217 15983
QIANFAN-183             
1 69401U 26125A   26271.52758884  .00000010  00000+0 -38620-5 0  9996
2 69401  88.9831 269.4793 0002208  99.5004 260.6397 13.51027805 15896
QIANFAN-184             
1 69402U 26125B   26270.71945950 -.01775098  00000+0 -31326+1 0  9997
2 69402  88.9877 269.5934 0002054 248.2316 111.8614 13.46898528 15782
QIANFAN-185             
1 69403U 26125C   26271.56058199  .00000005  00000+0 -10304-4 0  9996
2 69403  88.9897 269.4488 0002070  99.4249 260.7136 13.51028809 15930
QIANFAN-186             
1 69404U 26125D   26271.53181372 -.00000002  00000+0 -22230-4 0  9993
2 69404  88.9884 269.5107 0002113  95.1349 265.0044 13.51028265 15895
QIANFAN-187             
1 69405U 26125E   26270.72386558 -.01790366  00000+0 -31719+1 0  9995
2 69405  88.9880 269.5756 0003348 197.0493 163.0544 13.46680583 15797
QIANFAN-188             
1 69406U 26125F   26270.73206992 -.01904467  00000+0 -33291+1 0  9996
2 69406  88.9879 269.5747 0005063 147.4985 212.6477 13.47816734 15793
QIANFAN-189             
1 69407U 26125G   26271.55632453  .00000015  00000+0  42713-5 0  9990
2 69407  88.9865 269.4837 0002369 103.8163 256.3252 13.51019296 15898
QIANFAN-190             
1 69408U 26125H   26271.61803655  .00000016  00000+0  64087-5 0  9991
2 69408  88.9866 269.4753 0002039  96.5993 263.5390 13.51019183 15911
QIANFAN-191             
1 69409U 26125J   26271.56863725  .00000008  00000+0 -54832-5 0  9999
2 69409  88.9880 269.4936 0002212 100.1755 259.9646 13.51033200 15900
QIANFAN-192             
1 69410U 26125K   26271.55221314  .00000012  00000+0 -61257-6 0  9997
2 69410  88.9887 269.4964 0002374 101.6624 258.4794 13.51019825 15905
QIANFAN-193             
1 69411U 26125L   26271.57698803  .00000007  00000+0 -75976-5 0  9997
2 69411  88.9865 269.4682 0002150 101.8626 258.2766 13.51027709 15913
QIANFAN-194             
1 69412U 26125M   26271.57286886  .00000004  00000+0 -12378-4 0  9995
2 69412  88.9898 269.4861 0002242  99.8958 260.2447 13.51026298 15905
QIANFAN-195             
1 69413U 26125N   26271.50712868  .00000026  00000+0  20894-4 0  9998
2 69413  88.9899 269.4779 0001933  89.9765 270.1607 13.51028107 15917
QIANFAN-196             
1 69414U 26125P   26270.84858000 -.00000002  00000+0 -21004-4 0  9994
2 69414  88.9904 269.5493 0001941  94.4854 265.6519 13.51035356 15823
QIANFAN-197             
1 69415U 26125Q   26271.52355301  .00000004  00000+0 -11801-4 0  9992
2 69415  88.9878 269.4498 0002174  98.6314 261.5084 13.51024006 15916
QIANFAN-198             
1 69416U 26125R   26271.51113472  .00000013  00000+0  18840-5 0  9993
2 69416  88.9872 269.4631 0002257 100.3056 259.8350 13.51028447 15915
QIANFAN-199             
1 69417U 26125S   26271.51942879  .00000005  00000+0 -10927-4 0  9994
2 69417  88.9876 269.4128 0002391  96.6539 263.4884 13.51026051 15948
QIANFAN-200             
1 69418U 26125T   26271.56463024  .00000010  00000+0 -26727-5 0  9992
2 69418  88.9883 269.4944 0002293 102.4853 257.6555 13.51026540 15908
QIANFAN-201             
1 69800U 26153A   26270.96245128  .00000248  00000+0  16687-3 0  9998
2 69800  88.9973 350.6434 0003704 345.1362  14.9706 13.97590867 12096
QIANFAN-202             
1 69801U 26153B   26270.71751801 -.01888801  00000+0 -14421+1 0  9995
2 69801  88.9970 350.6252 0004928  73.1503 287.0215 13.97334651 12079
QIANFAN-203             
1 69802U 26153C   26270.70594212 -.01909617  00000+0 -14266+1 0  9992
2 69802  88.9969 350.6610 0017773 209.3818 150.6362 13.98544715 12062
QIANFAN-204             
1 69803U 26153D   26270.75504119 -.01895924  00000+0 -14922+1 0  9999
2 69803  88.9969 350.6506 0002363 229.0088 131.0884 13.95623143 12077
QIANFAN-205             
1 69804U 26153E   26270.79573703 -.01890595  00000+0 -15403+1 0  9993
2 69804  88.9967 350.6742 0006117   2.6396 357.4810 13.93623171 12067
QIANFAN-206             
1 69805U 26153F   26270.71119928 -.01930152  00000+0 -15102+1 0  9991
2 69805  88.9971 350.6243 0005986  70.0729 290.1092 13.96022601 12082
QIANFAN-207             
1 69806U 26153G   26270.79493153 -.01897718  00000+0 -15421+1 0  9999
2 69806  88.9974 350.6560 0006038 357.6696   2.4450 13.93787041 12078
QIANFAN-208             
1 69807U 26153H   26270.71294785 -.01909266  00000+0 -15640+1 0  9997
2 69807  88.9964 350.6617 0007201  43.2082 316.9657 13.93345389 12078
QIANFAN-209             
1 69808U 26153J   26270.82777621 -.01888385  00000+0 -15552+1 0  9995
2 69808  88.9973 350.6620 0004668 328.7443  31.3453 13.93001284 12074
QIANFAN-210             
1 69809U 26153K   26270.72508484 -.01887507  00000+0 -15588+1 0  9998
2 69809  88.9972 350.6646 0004646 336.2184  23.8775 13.92840426 12064
QIANFAN-211             
1 69810U 26153L   26271.49742864  .00000297  00000+0  14748-3 0  9997
2 69810  88.9975 350.5201 0005839 314.0936  45.9770 14.14545435 12202
QIANFAN-212             
1 69811U 26153M   26270.75177931 -.01907949  00000+0 -14267+1 0  9999
2 69811  88.9966 350.6307 0004810 346.6303  13.4747 13.98557590 12084
QIANFAN-213             
1 69812U 26153N   26270.79180525 -.01915606  00000+0 -15038+1 0  9993
2 69812  88.9972 350.6366 0007669  36.1615 324.0079 13.95794671 12088
QIANFAN-214             
1 69813U 26153P   26270.94185142  .00000131  00000+0  71800-4 0  9999
2 69813  88.9976 350.5661 0005159 312.2565  47.8179 14.05836823 12139
QIANFAN-215             
1 69814U 26153Q   26271.55353962  .00000313  00000+0  15387-3 0  9994
2 69814  88.9973 350.4334 0005849 325.8488  34.2322 14.15202781 12257
QIANFAN-216             
1 69815U 26153R   26270.72950066 -.01895370  00000+0 -13639+1 0  9994
2 69815  88.9969 350.5714 0006195 286.6295  73.4204 14.00701300 12115
QIANFAN-217             
1 69816U 26153S   26270.76886181 -.01846164  00000+0 -98111+0 0  9999
2 69816  88.9967 350.4637 0011454 313.1335  46.8895 14.17261353 12175
QIANFAN-218             
1 69817U 26153T   26270.77020031 -.01864119  00000+0 -10028+1 0  9997
2 69817  88.9970 350.4670 0009755 306.0200  54.0083 14.16651537 12176
QIANFAN-219             
1 69848U 26155A   26271.52973955 -.01771868  00000+0 -31227+1 0  9991
2 69848  89.0096  52.8948 0012002 327.3078  32.7326 13.46950075 11825
QIANFAN-220             
1 69849U 26155B   26271.62340649 -.01775900  00000+0 -31255+1 0  9993
2 69849  89.0105  52.9146 0031221 342.8929  17.1165 13.46884196 11827
QIANFAN-221             
1 69850U 26155C   26271.57479142  .00000029  00000+0  18685-4 0  9996
2 69850  89.0111  52.6520 0030099 353.3573   6.7186 13.71187458 11960
QIANFAN-222             
1 69851U 26155D   26271.56669379 -.01780844  00000+0 -31297+1 0  9992
2 69851  89.0102  52.9389 0012378 325.9724  34.0630 13.47150277 11803
QIANFAN-223             
1 69852U 26155E   26271.59679134 -.02076923  00000+0 -35370+1 0  9999
2 69852  89.0097  52.9440 0025999 342.9287  17.0985 13.49033123 11807
QIANFAN-224             
1 69853U 26155F   26271.57142721 -.01955247  00000+0 -34043+1 0  9995
2 69853  89.0103  52.8893 0023565 346.8462  13.2070 13.48089473 11825
QIANFAN-225             
1 69854U 26155G   26271.57554107 -.01985507  00000+0 -34001+1 0  9997
2 69854  89.0099  52.9353 0022879 339.5096  20.5134 13.48522088 11805
QIANFAN-226             
1 69855U 26155H   26271.57923411 -.01795217  00000+0 -31691+1 0  9995
2 69855  89.0098  52.9185 0021482 337.5525  22.4681 13.46836773 11818
QIANFAN-227             
1 69856U 26155J   26271.58493916  .00000111  00000+0  15353-3 0  9998
2 69856  89.0101  52.9212 0034690 350.5642   9.4853 13.51039635 11819
QIANFAN-228             
1 69857U 26155K   26271.58748511 -.01828891  00000+0 -32027+1 0  9993
2 69857  89.0103  52.9055 0033146 340.8029  19.1869 13.47309034 11827
QIANFAN-229             
1 69858U 26155L   26271.59973872 -.01778760  00000+0 -31380+1 0  9995
2 69858  89.0107  52.8895 0005074 289.6569  70.4032 13.46924923 11833
QIANFAN-230             
1 69859U 26155M   26271.56313367 -.01938879  00000+0 -33770+1 0  9994
2 69859  89.0100  52.9350 0002538 313.6561  46.4378 13.48134930 11802
QIANFAN-231             
1 69860U 26155N   26271.60996121 -.01823311  00000+0 -30480+1 0  9995
2 69860  89.0100  52.8720 0037570 342.8935  17.0947 13.50213517 11849
QIANFAN-232             
1 69861U 26155P   26271.58650145  .00000051  00000+0  61256-4 0  9990
2 69861  89.0098  52.8828 0025399 346.6678  13.3799 13.50452790 11838
QIANFAN-233             
1 69862U 26155Q   26271.53785289 -.01772858  00000+0 -31129+1 0  9990
2 69862  89.0102  52.8792 0028645 344.5414  15.4857 13.47057710 11834
QIANFAN-234             
1 69863U 26155R   26271.57793634 -.02032844  00000+0 -32053+1 0  9990
2 69863  89.0094  52.8133 0037494 348.6191  11.4110 13.53708512 11875
QIANFAN-235             
1 69864U 26155S   26271.57741821  .00000082  00000+0  61552-4 0  9997
2 69864  89.0107  52.5820 0029800 349.7804  10.2757 13.84595046 12006
QIANFAN-236             
1 69865U 26155T   26271.62046805 -.01840401  00000+0 -32196+1 0  9992
2 69865  89.0103  52.8941 0032898 340.2926  19.6949 13.47405422 11835
QIANFAN-237             
1 69866U 26155U   26271.62519415 -.02007361  00000+0 -34557+1 0  9999
2 69866  89.0100  52.8580 0019752 342.7354  17.3122 13.48254242 11840
QIANFAN-238             
1 69867U 26155V   26271.62971384 -.02057773  00000+0 -35530+1 0  9991
2 69867  89.0099  52.8729 0015419 348.3465  11.7325 13.48196179 11841
