IRIDIUM 106             
1 41917U 17003A   26262.77137030  .00000096  00000+0  27164-4 0  9997
2 41917  86.3948  48.9794 0001846  86.3567 273.7839 14.34216836506768
IRIDIUM 103             
1 41918U 17003B   26262.68891597  .00000180  00000+0  57196-4 0  9995
2 41918  86.3947  48.9134 0002263  89.1264 271.0191 14.34217669506773
IRIDIUM 109             
1 41919U 17003C   26262.76503810  .00000167  00000+0  52552-4 0  9999
2 41919  86.3949  48.9425 0002152  91.9092 268.2351 14.34215183506759
IRIDIUM 102             
1 41920U 17003D   26262.80308078  .00000174  00000+0  55208-4 0  9994
2 41920  86.3949  48.8481 0002060  92.9686 267.1745 14.34216579506845
IRIDIUM 105             
1 41921U 17003E   26262.69191245  .00000028  00000+0  31066-5 0  9993
2 41921  86.4015  17.3510 0002354  97.4895 262.6569 14.34217771508686
IRIDIUM 104             
1 41922U 17003F   26262.74600528  .00000146  00000+0  45221-4 0  9997
2 41922  86.3948  48.9161 0002460  92.7861 267.3616 14.34220545506824
IRIDIUM 114             
1 41923U 17003G   26262.68257810  .00000171  00000+0  54120-4 0  9999
2 41923  86.3950  48.9256 0002210  90.9175 269.2274 14.34217322506790
IRIDIUM 108             
1 41924U 17003H   26262.64109377  .00000058  00000+0  13793-4 0  9995
2 41924  86.4011  17.2566 0002166  96.3127 263.8316 14.34217726508641
IRIDIUM 112             
1 41925U 17003J   26262.73965632  .00000092  00000+0  25710-4 0  9990
2 41925  86.3946  48.7393 0002169  92.7614 267.3830 14.34217737506829
IRIDIUM 111             
1 41926U 17003K   26262.79674389  .00000170  00000+0  53608-4 0  9997
2 41926  86.3949  48.7884 0002136  90.8790 269.2651 14.34217315506819
IRIDIUM 113             
1 42803U 17039A   26262.35809191  .00000023  00000+0  11933-5 0  9997
2 42803  86.3917 282.8134 0002222  92.4896 267.6554 14.34217630484683
IRIDIUM 123             
1 42804U 17039B   26262.53910808  .00000055  00000+0  12753-4 0  9991
2 42804  86.3974 314.2191 0002241  90.6487 269.4966 14.34217776483471
IRIDIUM 120             
1 42805U 17039C   26262.77036027  .00000043  00000+0  82213-5 0  9996
2 42805  86.3907 282.4108 0002140  90.8932 269.2509 14.34217672484733
IRIDIUM 115             
1 42806U 17039D   26262.82449698  .00000071  00000+0  15119-4 0  9996
2 42806  86.4445 282.5300 0002293  86.2826 273.8637 14.43279602487914
IRIDIUM 118             
1 42807U 17039E   26262.08244138  .00000107  00000+0  31297-4 0  9992
2 42807  86.3975 314.4077 0002248  94.9692 265.1760 14.34218072483400
IRIDIUM 117             
1 42808U 17039F   26262.52008022  .00000055  00000+0  12558-4 0  9993
2 42808  86.3975 314.1814 0002236  92.7518 267.3934 14.34217700483490
IRIDIUM 126             
1 42809U 17039G   26262.12683995  .00000048  00000+0  10219-4 0  9992
2 42809  86.3974 314.3985 0002342  92.9007 267.2457 14.34217623483419
IRIDIUM 124             
1 42810U 17039H   26262.20366951  .00000122  00000+0  30186-4 0  9991
2 42810  86.4439 251.0277 0002346  86.6306 273.5163 14.43280405488670
IRIDIUM 128             
1 42811U 17039J   26262.46642058 -.00000138  00000+0 -56344-4 0  9998
2 42811  86.4018 345.7558 0001996  91.4595 268.6830 14.34217164483494
IRIDIUM 121             
1 42812U 17039K   26262.42494233  .00000157  00000+0  49084-4 0  9997
2 42812  86.3973 314.3019 0002049  94.3833 265.7596 14.34217768483335
IRIDIUM 133             
1 42955U 17061A   26262.21905948  .00000031  00000+0  40022-5 0  9992
2 42955  86.4023 345.9787 0002158  94.4319 265.7124 14.34217736468259
IRIDIUM 100             
1 42956U 17061B   26262.63132769  .00000074  00000+0  19522-4 0  9999
2 42956  86.4021 345.7229 0002200  95.0127 265.1319 14.34218009468310
IRIDIUM 122             
1 42957U 17061C   26262.52984657  .00000133  00000+0  40337-4 0  9993
2 42957  86.4023 345.7659 0002234  92.9185 267.2267 14.34217762468306
IRIDIUM 129             
1 42958U 17061D   26262.76452269  .00000051  00000+0  11147-4 0  9995
2 42958  86.4024 345.7358 0002391  97.7438 262.4030 14.34217843468352
IRIDIUM 119             
1 42959U 17061E   26262.24442980  .00000047  00000+0  98219-5 0  9999
2 42959  86.4022 345.9491 0002140  94.1343 266.0097 14.34217716468294
IRIDIUM 107             
1 42960U 17061F   26262.54253193  .00000151  00000+0  46895-4 0  9998
2 42960  86.4025 345.8464 0002180  89.5016 270.6430 14.34217403468348
IRIDIUM 132             
1 42961U 17061G   26262.54887412  .00000017  00000+0 -95792-6 0  9990
2 42961  86.4023 345.8226 0002205  95.3223 264.8225 14.34217705468348
IRIDIUM 136             
1 42962U 17061H   26262.30151259  .00000063  00000+0  15290-4 0  9991
2 42962  86.4024 345.9331 0002180  95.2403 264.9042 14.34218043468321
IRIDIUM 139             
1 42963U 17061J   26262.58692985  .00000036  00000+0  58240-5 0  9991
2 42963  86.4026 345.8774 0002176  94.0337 266.1107 14.34217706468378
IRIDIUM 125             
1 42964U 17061K   26262.64401367  .00000015  00000+0 -16844-5 0  9993
2 42964  86.4029 345.9165 0002601  86.4396 273.7097 14.34217792468399
IRIDIUM 135             
1 43070U 17083A   26262.05999025  .00000017  00000+0 -10671-5 0  9998
2 43070  86.3912 282.7688 0002274  91.8928 268.2529 14.34217591457601
IRIDIUM 138             
1 43071U 17083B   26262.78304617  .00000023  00000+0  10825-5 0  9993
2 43071  86.3925 282.1760 0002290  91.1109 269.0349 14.34217474457691
IRIDIUM 116             
1 43072U 17083C   26262.82110068  .00000000  00000+0 -69026-5 0  9997
2 43072  86.3910 282.4349 0001898  90.1589 269.9824 14.34217479457733
IRIDIUM 130             
1 43073U 17083D   26262.78938863 -.00000005  00000+0 -88532-5 0  9993
2 43073  86.3920 282.7331 0002024  87.1354 273.0074 14.34217336457675
IRIDIUM 151             
1 43074U 17083E   26262.76401787 -.00000050  00000+0 -24785-4 0  9991
2 43074  86.3912 282.5186 0002087  90.5464 269.5971 14.34217609457693
IRIDIUM 134             
1 43075U 17083F   26262.80207404 -.00000025  00000+0 -16078-4 0  9995
2 43075  86.3913 282.5123 0002124  90.1380 270.0059 14.34217142457664
IRIDIUM 137             
1 43076U 17083G   26262.81475860  .00000104  00000+0  30094-4 0  9990
2 43076  86.3916 282.6019 0002006  98.0753 262.0670 14.34217675457732
IRIDIUM 141             
1 43077U 17083H   26262.38980484 -.00000012  00000+0 -11473-4 0  9996
2 43077  86.3911 282.6048 0002200  92.2494 267.8954 14.34217348457672
IRIDIUM 153             
1 43078U 17083J   26262.55128755  .00000029  00000+0  32874-5 0  9996
2 43078  86.3918 250.9983 0002418  87.1254 273.0219 14.34217383458802
IRIDIUM 131             
1 43079U 17083K   26262.79573109 -.00000035  00000+0 -19420-4 0  9990
2 43079  86.3918 282.6274 0002144  92.3749 267.7692 14.34217007457662
IRIDIUM 144             
1 43249U 18030A   26262.69716824  .00000003  00000+0 -60373-5 0  9992
2 43249  86.3913 250.8641 0002056  88.0801 272.0630 14.34217598443687
IRIDIUM 149             
1 43250U 18030B   26262.49420566  .00000056  00000+0  12864-4 0  9995
2 43250  86.3913 250.9150 0002339  88.4051 271.7413 14.34217793443671
IRIDIUM 157             
1 43251U 18030C   26262.37369600  .00000101  00000+0  29062-4 0  9993
2 43251  86.3914 251.0206 0002261  88.0484 272.0971 14.34217865443636
IRIDIUM 140             
1 43252U 18030D   26262.74156519  .00000084  00000+0  22837-4 0  9991
2 43252  86.3915 250.8791 0002280  87.2485 272.8972 14.34217779443742
IRIDIUM 145             
1 43253U 18030E   26262.79864977 -.00000018  00000+0 -13316-4 0  9992
2 43253  86.3914 250.8274 0001901  86.0224 274.1189 14.34217251443688
IRIDIUM 146             
1 43254U 18030F   26262.70985110  .00000114  00000+0  33764-4 0  9991
2 43254  86.3915 250.8763 0002175  88.0115 272.1330 14.34217781443682
IRIDIUM 148             
1 43255U 18030G   26262.53860367  .00000084  00000+0  22803-4 0  9997
2 43255  86.3915 250.9925 0002261  90.9711 269.1743 14.34217408443695
IRIDIUM 142             
1 43256U 18030H   26262.71619410  .00000029  00000+0  32157-5 0  9992
2 43256  86.3911 250.8036 0002113  88.6653 271.4784 14.34217491443681
IRIDIUM 150             
1 43257U 18030J   26262.75424988  .00000020  00000+0  72680-7 0  9999
2 43257  86.3916 250.9075 0002115  86.9131 273.2307 14.34217546443711
IRIDIUM 143             
1 43258U 18030K   26262.73522176  .00000019  00000+0 -32596-6 0  9996
2 43258  86.3921 251.0118 0002105  85.3974 274.7462 14.34217266443644
IRIDIUM 161             
1 43478U 18047C   26262.73625855  .00000186  00000+0  49227-4 0  9997
2 43478  86.4468  48.9025 0002297  95.6058 264.5405 14.43279331438777
IRIDIUM 152             
1 43479U 18047D   26262.77771115  .00000143  00000+0  43851-4 0  9993
2 43479  86.3945  48.7477 0002180  92.3894 267.7551 14.34218428436044
IRIDIUM 147             
1 43480U 18047E   26262.78407285  .00000170  00000+0  53822-4 0  9999
2 43480  86.3947  48.7519 0002022  91.6817 268.4611 14.34214227436045
IRIDIUM 110             
1 43481U 18047F   26262.72062818  .00000086  00000+0  23537-4 0  9999
2 43481  86.3950  48.8727 0002349  95.6990 264.4473 14.34218044436021
IRIDIUM 162             
1 43482U 18047G   26262.72994523  .00000216  00000+0  58357-4 0  9990
2 43482  86.4471  48.7950 0002353  93.2418 266.9052 14.43275392438764
IRIDIUM 160             
1 43569U 18061A   26262.38738791  .00000114  00000+0  33813-4 0  9994
2 43569  86.4011  17.4029 0002150  95.5776 264.5665 14.34218290426874
IRIDIUM 166             
1 43570U 18061B   26262.69183334  .00000100  00000+0  28589-4 0  9996
2 43570  86.4009  17.2249 0002092  94.5070 265.6365 14.34217835426947
IRIDIUM 158             
1 43571U 18061C   26262.59035332  .00000082  00000+0  22149-4 0  9995
2 43571  86.4012  17.2770 0002187  92.1266 268.0180 14.34217425426898
IRIDIUM 165             
1 43572U 18061D   26262.68549149  .00000048  00000+0  99580-5 0  9998
2 43572  86.4014  17.2860 0002106  94.0074 266.1363 14.34217854426933
IRIDIUM 155             
1 43573U 18061E   26262.71720414  .00000056  00000+0  13013-4 0  9994
2 43573  86.4008  17.1371 0002134  92.1589 267.9851 14.34217905426909
IRIDIUM 154             
1 43574U 18061F   26262.27956538  .00000010  00000+0 -34343-5 0  9995
2 43574  86.4009  17.4581 0001957  94.7713 265.3706 14.34217612426890
IRIDIUM 163             
1 43575U 18061G   26262.33030679  .00000149  00000+0  46067-4 0  9999
2 43575  86.4009  17.3492 0002188  94.7003 265.4442 14.34217770426871
IRIDIUM 156             
1 43576U 18061H   26262.65377722  .00000115  00000+0  33959-4 0  9997
2 43576  86.4007  17.2210 0002113  91.1277 269.0161 14.34216407426918
IRIDIUM 164             
1 43577U 18061J   26262.28590626  .00000114  00000+0  33504-4 0  9992
2 43577  86.4010  17.4169 0002019  95.2138 264.9289 14.34218586426908
IRIDIUM 159             
1 43578U 18061K   26262.67280669  .00000043  00000+0  81508-5 0  9998
2 43578  86.4009  17.1902 0002240  95.2363 264.9089 14.34217628426921
IRIDIUM 180             
1 43922U 19002A   26262.67230273  .00000042  00000+0  80346-5 0  9991
2 43922  86.3972 314.1231 0002249  95.6469 264.4983 14.34217817402536
IRIDIUM 176             
1 43923U 19002B   26262.43021279  .00000412  00000+0  61513-4 0  9995
2 43923  86.6093 314.1545 0002408  92.6824 267.4669 14.72249662413116
IRIDIUM 168             
1 43924U 19002C   26262.10781143  .00000090  00000+0  25057-4 0  9998
2 43924  86.3975 314.4388 0002232  95.6136 264.5314 14.34217144402431
IRIDIUM 173             
1 43925U 19002D   26262.72304397  .00000019  00000+0 -21905-6 0  9991
2 43925  86.3968 314.0663 0002165  93.6868 266.4575 14.34217259402506
IRIDIUM 169             
1 43926U 19002E   26262.56986913  .00000172  00000+0  49596-4 0  9997
2 43926  86.4280 345.7562 0002239  84.8880 275.2573 14.38606808403796
IRIDIUM 172             
1 43927U 19002F   26262.08878380  .00000132  00000+0  39956-4 0  9998
2 43927  86.3972 314.3402 0002270  94.7701 265.3754 14.34218670402428
IRIDIUM 175             
1 43928U 19002G   26262.75066832  .00000119  00000+0  29227-4 0  9999
2 43928  86.4469 250.9716 0000921 273.7358  86.3738 14.43646393412625
IRIDIUM 171             
1 43929U 19002H   26262.41859868  .00000106  00000+0  30824-4 0  9993
2 43929  86.3982 314.5189 0002176  93.4242 266.7202 14.34218101402462
IRIDIUM 170             
1 43930U 19002J   26262.50434403  .00000047  00000+0  34998-5 0  9990
2 43930  86.6096 314.1263 0002540 101.0926 259.0577 14.72251145413135
IRIDIUM 167             
1 43931U 19002K   26262.41225628  .00000050  00000+0  10769-4 0  9991
2 43931  86.3972 314.2280 0002063  89.9008 270.2424 14.34217365402465
IRIDIUM 181             
1 56726U 23068S   26262.67174641  .00000061  00000+0  12162-4 0  9991
2 56726  86.4547  17.2867 0002192 100.4259 259.7189 14.43309145176063
IRIDIUM 177             
1 56727U 23068T   26262.80603067  .00000268  00000+0  34283-4 0  9993
2 56727  86.1918 283.9051 0002568  90.3509 269.8005 14.77165876180356
IRIDIUM 174             
1 56728U 23068U   26262.42401938  .00000339  00000+0  49894-4 0  9998
2 56728  86.6104 314.3165 0002580  89.9797 270.1716 14.72249692179885
IRIDIUM 178             
1 56729U 23068V   26262.22145503  .00000657  00000+0  83406-4 0  9990
2 56729  86.6593 346.0946 0002539  93.0696 267.0816 14.80044268180277
IRIDIUM 179             
1 56730U 23068W   26262.55413382  .00000640  00000+0  81177-4 0  9996
2 56730  86.6838 355.2095 0002382  90.5285 269.6209 14.80036749180325
