EUTELSAT 174A           
1 28924U 05052A   26262.56317978  .00000006  00000+0  00000+0 0  9995
2 28924   4.4511  75.3055 0005991 101.7153 198.2154  1.00274725 53274
EUTELSAT 33F            
1 29270U 06032A   26262.01830644  .00000152  00000+0  00000+0 0  9991
2 29270   1.8970  81.0559 0003357  88.7560 227.8126  1.00270856 48242
EUTELSAT HOTBIRD 13C    
1 33459U 08065A   26262.48333690 -.00000286  00000+0  00000+0 0  9992
2 33459   3.1859  77.9931 0003619 103.0987 301.0173  1.00272633 48297
EUTELSAT 36B            
1 36101U 09065A   26262.50335698  .00000108  00000+0  00000+0 0  9995
2 36101   0.7222  81.1192 0005772  94.3567  54.6410  1.00273155 61655
EUTELSAT KA-SAT 9A      
1 37258U 10069A   26261.99616236  .00000058  00000+0  00000+0 0  9991
2 37258   0.0742 352.5208 0005377 171.5397 201.4825  1.00272546 44940
EUTELSAT 7 WEST A       
1 37816U 11051A   26262.13543633 -.00000064  00000+0  00000+0 0  9998
2 37816   0.0644   3.7581 0006058 172.0989 223.6404  1.00272746 54818
EUTELSAT 16A            
1 37836U 11057A   26262.21135668  .00000100  00000+0  00000+0 0  9990
2 37836   0.1039  65.0731 0005499 112.7961 272.3375  1.00272574  8283
EUTELSAT 21B            
1 38992U 12062B   26262.28372367  .00000126  00000+0  00000+0 0  9995
2 38992   0.0693   0.1780 0002926 174.7869 306.9668  1.00272711 50776
EUTELSAT 70B            
1 39020U 12069A   26262.50725699 -.00000048  00000+0  00000+0 0  9994
2 39020   0.0646 354.2417 0003711 185.4773  71.8182  1.00271134 50455
EUTELSAT 117 WEST A     
1 39122U 13012A   26262.57525993 -.00000017  00000+0  00000+0 0  9994
2 39122   0.0173 276.5366 0002887 256.8419 275.4076  1.00271717 49375
EUTELSAT 7B             
1 39163U 13022A   26262.28268366  .00000100  00000+0  00000+0 0  9998
2 39163   0.0660 352.6514 0004766 112.4585  10.8684  1.00273783 48898
EXPRESS-AT1             
1 39612U 14010A   26262.50838368 -.00000110  00000+0  00000+0 0  9997
2 39612   0.4941  84.4301 0004973  80.0668  92.8185  1.00315769 45769
EXPRESS-AT2             
1 39613U 14010B   26262.21933005  .00000074  00000+0  00000+0 0  9998
2 39613   0.0150 239.7992 0000379 243.0287  10.2742  1.00272977 45444
EUTELSAT 3B             
1 39773U 14030A   26262.35134299  .00000016  00000+0  00000+0 0  9996
2 39773   0.0623 351.8939 0004173 182.9912 312.9725  1.00271225 45016
EUTELSAT 115 WEST B     
1 40425U 15010B   26262.47059683 -.00000029  00000+0  00000+0 0  9992
2 40425   0.0418 348.5697 0000049 287.0085 137.3204  1.00271547 42323
EUTELSAT 8 WEST B       
1 40875U 15039B   26262.34917631 -.00000070  00000+0  00000+0 0  9990
2 40875   0.0672   1.3697 0003643 176.9784 297.6351  1.00271168 40604
EUTELSAT 9B             
1 41310U 16005A   26261.99616237  .00000057  00000+0  00000+0 0  9991
2 41310   0.0440  63.2428 0002390 147.7936 154.4996  1.00270980 39057
EUTELSAT 65 WEST A      
1 41382U 16014A   26262.40914990 -.00000281  00000+0  00000+0 0  9994
2 41382   0.0640 323.7199 0002234 208.1326 268.5759  1.00271010 38473
EUTELSAT 117 WEST B     
1 41589U 16038B   26262.04244258 -.00000016  00000+0  00000+0 0  9998
2 41589   0.0423 353.4828 0000248 267.4234 355.3447  1.00272072 37601
EUTELSAT 172B           
1 42741U 17029B   26262.45612344 -.00000009  00000+0  00000+0 0  9992
2 42741   0.0239 142.4239 0000426 297.6426 254.5135  1.00274527 34692
EUTELSAT 7C             
1 44334U 19034B   26262.35212299  .00000044  00000+0  00000+0 0  9992
2 44334   0.0683 182.6138 0003237 336.2619 333.1546  1.00271181  7789
EUTELSAT 5 WEST B       
1 44624U 19067A   26262.34978296 -.00000046  00000+0  00000+0 0  9998
2 44624   0.0712 331.8519 0003187 202.0091 305.3283  1.00272708 25373
EUTELSAT KONNECT        
1 45027U 20005B   26262.28086365  .00000046  00000+0  00000+0 0  9999
2 45027   0.0631  98.8541 0002015 104.8364 262.8225  1.00275166 25281
EUTELSAT QUANTUM        
1 49056U 21069B   26262.50275031  .00000122  00000+0  00000+0 0  9996
2 49056   0.0175  72.9133 0002308  98.1165  56.0775  1.00272112 18877
EUTELSAT KONNECT VHTS   
1 53765U 22110A   26262.13742968  .00000013  00000+0  00000+0 0  9992
2 53765   0.0554 103.7799 0002855  42.6398 263.8461  1.00271180  7771
EUTELSAT HOTBIRD 13F    
1 54048U 22134A   26262.28207698  .00000083  00000+0  00000+0 0  9992
2 54048   0.0615 288.9470 0001957  80.0422 103.7569  1.00272413 14322
EUTELSAT HOTBIRD 13G    
1 54225U 22146A   26262.28207698  .00000083  00000+0  00000+0 0  9992
2 54225   0.0492 235.5920 0002052 297.8672 299.2938  1.00274027  8419
EUTELSAT 10B            
1 54259U 22157A   26262.21014333  .00000064  00000+0  00000+0 0  9995
2 54259   0.0561 101.0603 0001664   0.4784 342.2199  1.00270963 13967
EUTELSAT 36D            
1 59346U 24059A   26262.21534336  .00000151  00000+0  00000+0 0  9997
2 59346   0.0115 159.8428 0000130 315.2085 356.4780  1.00273241  9092
