KUIPER-00008            
1 63724U 25088A   26273.95920007 -.00000383  00000+0 -21190-4 0  9999
2 63724  51.9006 260.3064 0000568  63.1800 296.9220 14.79927502 78442
KUIPER-00009            
1 63725U 25088B   26274.00016455  .00002648  00000+0  18772-3 0  9995
2 63725  51.9022 265.3708 0000859  21.4659 338.6351 15.08147650 78375
KUIPER-00010            
1 63726U 25088C   26273.66072460 -.00000338  00000+0 -15328-4 0  9996
2 63726  51.8992 256.7394 0000724  55.4870 304.6161 14.79927476 78088
KUIPER-00011            
1 63727U 25088D   26273.68640589  .00000491  00000+0  93471-4 0  9995
2 63727  51.8999 264.1661 0000620  46.3728 313.7286 14.79930688 78114
KUIPER-00012            
1 63728U 25088E   26273.93892926  .00000484  00000+0  92530-4 0  9995
2 63728  51.9014 247.9898 0000751  82.9738 277.1310 14.79929772 78312
KUIPER-00013            
1 63729U 25088F   26274.00515961  .00000449  00000+0  87937-4 0  9992
2 63729  51.9021 280.2184 0000569  88.0598 272.0429 14.79928990 77974
KUIPER-00014            
1 63730U 25088G   26274.03892312  .00000659  00000+0  11550-3 0  9995
2 63730  51.9010 280.0128 0000582  42.1447 317.9560 14.79928625 77799
KUIPER-00015            
1 63731U 25088H   26274.06190790 -.00000949  00000+0 -95505-4 0  9997
2 63731  51.8983 289.9542 0000625  67.8469 292.2560 14.79924131 78112
KUIPER-00016            
1 63732U 25088J   26273.76612375  .00001632  00000+0  24304-3 0  9998
2 63732  51.9004 283.7228 0000468  55.6078 304.4929 14.79925664 77719
KUIPER-00018            
1 63733U 25088K   26274.01325937  .00000320  00000+0  71007-4 0  9999
2 63733  51.9037 272.6812 0000490  48.0238 312.0766 14.79932108 77895
KUIPER-00019            
1 63734U 25088L   26273.97232621  .00000563  00000+0  10279-3 0  9993
2 63734  51.9009 271.6019 0000748  18.2649 341.8340 14.79955205 77907
KUIPER-00020            
1 63735U 25088M   26274.01057057  .00000313  00000+0  70050-4 0  9995
2 63735  51.9010 275.1835 0000436  39.0299 321.0695 14.79922250 78066
KUIPER-00021            
1 63736U 25088N   26273.70666291  .00000391  00000+0  80228-4 0  9991
2 63736  51.9003 276.4774 0000408  59.5430 300.5572 14.79926013 77851
KUIPER-00023            
1 63737U 25088P   26274.00785604  .00000503  00000+0  95030-4 0  9998
2 63737  51.9008 277.6357 0000572  55.9835 304.1182 14.79925291 78167
KUIPER-00024            
1 63738U 25088Q   26273.21103029 -.00006196  00000+0 -78529-3 0  9995
2 63738  51.9019 268.7753 0000776  61.7440 298.3601 14.79888577 78349
KUIPER-00025            
1 63739U 25088R   26273.97949843 -.00000618  00000+0 -52107-4 0  9999
2 63739  51.9029 272.8592 0000515  56.7553 303.3459 14.79928764 78215
KUIPER-00027            
1 63740U 25088S   26274.01864711 -.00000392  00000+0 -22473-4 0  9999
2 63740  51.9008 267.6417 0000589  99.9444 260.1585 14.79922581 78021
KUIPER-00028            
1 63741U 25088T   26273.98757937  .00000319  00000+0  70833-4 0  9996
2 63741  51.8993 265.2181 0000508  28.4273 331.6717 14.79930459 78466
KUIPER-00029            
1 63742U 25088U   26273.96358995  .00000584  00000+0  10562-3 0  9992
2 63742  51.9012 264.0233 0000718  22.0432 338.0562 14.79926678 78002
KUIPER-00030            
1 63743U 25088V   26274.06999798  .00000368  00000+0  77279-4 0  9996
2 63743  51.9012 282.3740 0000540  45.5254 314.5752 14.79930948 78043
KUIPER-00031            
1 63744U 25088W   26273.98488734  .00000668  00000+0  11656-3 0  9999
2 63744  51.9009 267.7722 0000598  40.1585 319.9422 14.79931896 77953
KUIPER-00032            
1 63745U 25088X   26273.96129980  .00008882  00000+0  20831-3 0  9994
2 63745  51.8652 107.2034 0005042 129.5473 230.5963 15.42850855 81182
KUIPER-00033            
1 63746U 25088Y   26273.34476362  .00001468  00000+0  22155-3 0  9990
2 63746  51.9016 300.6021 0000411  35.3485 324.7504 14.79926276 77929
KUIPER-00034            
1 63747U 25088Z   26273.99297464  .00000379  00000+0  78750-4 0  9999
2 63747  51.9016 260.2732 0000594  65.0268 295.0756 14.79930515 78225
KUIPER-00035            
1 63748U 25088AA  26274.03353712  .00000739  00000+0  12586-3 0  9999
2 63748  51.9001 285.0566 0000470  50.3612 309.7391 14.79933016 77937
KUIPER-00037            
1 63749U 25088AB  26274.02646257  .00000512  00000+0  96200-4 0  9993
2 63749  51.9009 283.9497 0000490  49.9607 310.1398 14.79930031 78732
KUIPER-00038            
1 63750U 25088AC  26273.94841785  .00000400  00000+0  81477-4 0  9994
2 63750  51.9024 270.4690 0000612  85.8802 274.2231 14.79930763 77916
KUIPER-00039            
1 64500U 25134A   26273.58334112  .00001786  00000+0  26319-3 0  9992
2 64500  51.9025  47.0784 0000637 149.4060 210.6940 14.79937165 70415
KUIPER-00040            
1 64501U 25134B   26273.60633864  .00001959  00000+0  28590-3 0  9997
2 64501  51.8992  57.0331 0000685 137.5722 222.5293 14.79928425 70279
KUIPER-00041            
1 64502U 25134C   26273.70491961  .00001837  00000+0  26985-3 0  9990
2 64502  51.9007  58.9904 0000348 113.7955 246.3044 14.79932026 70252
KUIPER-00042            
1 64503U 25134D   26273.67655062  .00001787  00000+0  26336-3 0  9995
2 64503  51.8996  54.0916 0000482 121.7755 238.3255 14.79929517 70329
KUIPER-00043            
1 64504U 25134E   26273.68464016  .00001824  00000+0  26829-3 0  9993
2 64504  51.9039  46.5757 0000422 113.6649 246.4358 14.79928004 70430
KUIPER-00044            
1 64505U 25134F   26273.67114630  .00001594  00000+0  23802-3 0  9999
2 64505  51.9001  59.1200 0000642 141.9946 218.1062 14.79937355 70258
KUIPER-00046            
1 64506U 25134G   26273.70759475  .00001589  00000+0  23736-3 0  9996
2 64506  51.8956  56.4273 0000245  82.0332 278.0658 14.79937142 70294
KUIPER-00047            
1 64507U 25134H   26274.04115686  .00000377  00000+0  78464-4 0  9998
2 64507  51.9016  27.4852 0000371 119.9613 240.1387 14.79929524 70728
KUIPER-00048            
1 64508U 25134J   26274.00739037  .00001847  00000+0  27121-3 0  9993
2 64508  51.8998  27.6456 0000356 117.2225 242.8773 14.79934132 70721
KUIPER-00049            
1 64509U 25134K   26273.62248234  .00000583  00000+0  10552-3 0  9991
2 64509  51.8998  41.8202 0000476 111.9347 248.1667 14.79928884 70490
KUIPER-00050            
1 64510U 25134L   26273.57375460 -.00004436  00000+0 -55326-3 0  9990
2 64510  51.9016  24.5565 0000259 104.3935 255.7056 14.79930699 70732
KUIPER-00051            
1 64511U 25134M   26273.66602212  .00001895  00000+0  27737-3 0  9998
2 64511  51.9006  40.3266 0000185 137.1363 222.9614 14.79944389 70516
KUIPER-00053            
1 64513U 25134P   26273.59324252  .00001308  00000+0  19289-3 0  9999
2 64513  51.9015  34.9283 0002100 157.9813 202.1241 14.81666136 70582
KUIPER-00054            
1 64514U 25134Q   26273.59951638  .00002022  00000+0  29415-3 0  9990
2 64514  51.9001  31.9237 0000288 125.0354 235.0636 14.79928172 70621
KUIPER-00055            
1 64515U 25134R   26273.88707729 -.00000559  00000+0 -44341-4 0  9994
2 64515  51.9014 343.3059 0000620  64.2770 295.8257 14.79940837 71338
KUIPER-00056            
1 64516U 25134S   26274.03308171  .00001941  00000+0  28355-3 0  9991
2 64516  51.9033  35.1279 0000421 136.8040 223.2955 14.79933332 70628
KUIPER-00057            
1 64517U 25134T   26273.61979814  .00001767  00000+0  26068-3 0  9998
2 64517  51.9004  44.3668 0000412 118.0828 242.0177 14.79931990 70451
KUIPER-00058            
1 64518U 25134U   26273.65895783  .00000701  00000+0  12091-3 0  9993
2 64518  51.9004  39.1738 0000143  57.1206 302.9770 14.79927406 70537
KUIPER-00059            
1 64519U 25134V   26273.59682405  .00000552  00000+0  10136-3 0  9994
2 64519  51.9015  34.4834 0000233  71.6271 288.4716 14.79932912 70590
KUIPER-00060            
1 64520U 25134W   26274.03578015  .00001302  00000+0  19979-3 0  9995
2 64520  51.9039  32.6239 0000365 100.5034 259.5969 14.79930172 70643
KUIPER-00061            
1 64521U 25134X   26273.65625060  .00001971  00000+0  28750-3 0  9995
2 64521  51.9000  41.7390 0000427 126.5616 233.5386 14.79931720 70481
KUIPER-00062            
1 64522U 25134Y   26273.65355148  .00001719  00000+0  25432-3 0  9997
2 64522  51.8977  44.1921 0000292 140.2182 219.8802 14.79939215 70467
KUIPER-00063            
1 64523U 25134Z   26273.64548202  .00001773  00000+0  26143-3 0  9992
2 64523  51.9031  51.8329 0000456 128.6313 231.4691 14.79937047 70350
KUIPER-00064            
1 64524U 25134AA  26273.58064414  .00000076  00000+0  38989-4 0  9991
2 64524  51.9041  49.5470 0000707 134.0111 226.0910 14.79930126 70387
KUIPER-00065            
1 64525U 25134AB  26273.64280159  .00001908  00000+0  27920-3 0  9992
2 64525  51.9042  54.4480 0000525 116.8966 243.2050 14.79931045 70308
KUIPER-00066            
1 64526U 25134AC  26274.01406489  .00001582  00000+0  23649-3 0  9993
2 64526  51.9028 350.0722 0000328  78.5224 281.5775 14.79931011 71256
KUIPER-00069            
1 64816U 25151A   26273.80222118  .00001550  00000+0  23221-3 0  9996
2 64816  51.9012  93.6466 0000751 120.2213 239.8824 14.79940982 67139
KUIPER-00070            
1 64817U 25151B   26274.01161545  .00000917  00000+0  14931-3 0  9991
2 64817  51.9000 117.6186 0001155 109.0903 251.0185 14.79927436 66823
KUIPER-00071            
1 64818U 25151C   26273.87925274  .00000473  00000+0  91001-4 0  9993
2 64818  51.9002 115.7497 0000688 105.5742 254.5297 14.79925932 65653
KUIPER-00072            
1 64819U 25151D   26273.79952803  .00001540  00000+0  23101-3 0  9994
2 64819  51.8973  96.0224 0000863 108.5274 251.5782 14.79927592 65927
KUIPER-00073            
1 64820U 25151E   26273.84549706  .00001358  00000+0  20719-3 0  9995
2 64820  51.8990 115.8774 0001129 107.0084 253.1002 14.79927827 66832
KUIPER-00075            
1 64822U 25151G   26273.37171552  .00012019  00000+0  31723-3 0  9998
2 64822  51.8643 304.1327 0002627 286.5761  73.4938 15.38880262 67991
KUIPER-00076            
1 64823U 25151H   26273.92380247  .00001785  00000+0  26308-3 0  9994
2 64823  51.9008 105.5556 0000895 113.9907 246.1149 14.79935702 65800
KUIPER-00077            
1 64824U 25151J   26273.91842028  .00001145  00000+0  17924-3 0  9998
2 64824  51.8997 110.6034 0001062 111.5116 248.5960 14.79926895 65730
KUIPER-00078            
1 64825U 25151K   26273.95486996  .00000301  00000+0  68544-4 0  9999
2 64825  51.8993 107.9117 0001047 114.3361 245.7711 14.79929858 65773
KUIPER-00079            
1 64826U 25151L   26273.98324558  .00001415  00000+0  21466-3 0  9996
2 64826  51.8989 112.7395 0001143 107.2105 252.8983 14.79925753 66901
KUIPER-00080            
1 64827U 25151M   26273.94947671  .00001450  00000+0  21918-3 0  9991
2 64827  51.8991 112.9010 0000625 105.5363 254.5669 14.79926770 65709
KUIPER-00082            
1 64828U 25151N   26273.92919939 -.00000036  00000+0  24315-4 0  9991
2 64828  51.9007 100.5559 0000987 112.3583 247.7484 14.79927386 65872
KUIPER-00083            
1 64829U 25151P   26273.98863260  .00001421  00000+0  21533-3 0  9999
2 64829  51.8997 107.7739 0001174 116.0215 244.0868 14.79937061 66969
KUIPER-00084            
1 64830U 25151Q   26273.84278734  .00000043  00000+0  34649-4 0  9994
2 64830  51.9004 118.4049 0000777 112.2995 247.8050 14.79928667 65612
KUIPER-00085            
1 64831U 25151R   26273.96297378  .00001559  00000+0  23352-3 0  9994
2 64831  51.9022 100.4660 0000862 115.4651 244.6401 14.79933409 65875
KUIPER-00086            
1 64832U 25151S   26273.95217129  .00001461  00000+0  22053-3 0  9999
2 64832  51.9002 110.4449 0001003 116.2963 243.8103 14.79938623 65731
KUIPER-00087            
1 64833U 25151T   26273.90352742  .00001466  00000+0  22129-3 0  9995
2 64833  51.8991  93.1120 0000698 115.0913 245.0122 14.79925936 65965
KUIPER-00089            
1 64834U 25151U   26273.83059801  .00001526  00000+0  22919-3 0  9992
2 64834  51.9008  98.4598 0000638 109.3442 250.7590 14.79927923 65892
KUIPER-00090            
1 64835U 25151V   26273.70363549  .00001428  00000+0  21630-3 0  9996
2 64835  51.8990  91.5163 0000786 124.7311 235.3725 14.79932225 65973
KUIPER-00091            
1 64836U 25151W   26273.76576608  .00001486  00000+0  22394-3 0  9997
2 64836  51.9002  96.2714 0000998 123.1280 236.9778 14.79936315 65919
KUIPER-00092            
1 64837U 25151X   26273.96027774  .00001446  00000+0  21864-3 0  9992
2 64837  51.8998 102.8990 0000802 107.3721 252.7330 14.79928039 67052
KUIPER-00093            
1 64838U 25151Y   26273.95757353  .00001536  00000+0  23041-3 0  9994
2 64838  51.8995 105.3804 0000845 117.9463 242.1585 14.79928214 65800
KUIPER-00094            
1 64839U 25151Z   26272.85810187  .00001745  00000+0  25776-3 0  9997
2 64839  51.9040  65.3618 0000899 127.9736 232.1308 14.79940272 66276
KUIPER-00081            
1 65132U 25171A   26273.53996144  .00001576  00000+0  23570-3 0  9992
2 65132  51.9013 322.2253 0000320  61.1866 298.9128 14.79925700 63372
KUIPER-00088            
1 65133U 25171B   26273.38601809  .00001732  00000+0  25615-3 0  9993
2 65133  51.9014 340.4052 0000326  82.6531 277.4468 14.79935999 63107
KUIPER-00095            
1 65134U 25171C   26273.81277260  .00002258  00000+0  32514-3 0  9992
2 65134  51.8978 318.5523 0000791  66.2728 293.8317 14.79935228 63444
KUIPER-00096            
1 65135U 25171D   26273.90057876  .00001570  00000+0  23483-3 0  9993
2 65135  51.9009 330.6232 0000251  57.7682 302.3304 14.79936023 63286
KUIPER-00097            
1 65136U 25171E   26273.89791191  .00001475  00000+0  22242-3 0  9993
2 65136  51.9028 333.3071 0000457 101.2891 258.8123 14.79925972 63234
KUIPER-00098            
1 65137U 25171F   26273.89519107  .00000108  00000+0  43227-4 0  9998
2 65137  51.9027 335.6781 0000553  76.3266 283.7758 14.79926801 62559
KUIPER-00099            
1 65138U 25171G   26273.87222652  .00001481  00000+0  22323-3 0  9991
2 65138  51.9033 325.7967 0000284  64.2243 295.8749 14.79928980 63347
KUIPER-00100            
1 65139U 25171H   26273.84115082  .00000056  00000+0  36405-4 0  9991
2 65139  51.9014 323.3977 0000489 144.9440 215.1555 14.79929335 63372
KUIPER-00102            
1 65140U 25171J   26273.83844787  .00000644  00000+0  11341-3 0  9997
2 65140  51.8991 325.8752 0000234  51.8336 308.2647 14.79928399 63334
KUIPER-00103            
1 65141U 25171K   26273.44815552  .00001911  00000+0  27957-3 0  9991
2 65141  51.9006 345.1037 0000229  69.0007 291.0980 14.79937247 63032
KUIPER-00104            
1 65142U 25171L   26273.86682766  .00000701  00000+0  12098-3 0  9993
2 65142  51.9019 330.7750 0000373  72.9271 287.1733 14.79928137 63271
KUIPER-00105            
1 65143U 25171M   26273.89250653  .00000409  00000+0  82588-4 0  9990
2 65143  51.9023 338.2520 0000382  70.9601 289.1402 14.79937994 63175
KUIPER-00106            
1 65144U 25171N   26273.40052352  .00001519  00000+0  22829-3 0  9998
2 65144  51.9019 319.1961 0000372  66.9546 293.1455 14.79925503 63402
KUIPER-00107            
1 65145U 25171P   26273.50620358  .00000028  00000+0  32645-4 0  9999
2 65145  51.9019 322.4025 0000548  87.4341 272.6684 14.79929003 63367
KUIPER-00108            
1 65146U 25171Q   26273.86413622  .00001646  00000+0  24483-3 0  9990
2 65146  51.9037 333.3686 0000293  58.7480 301.3511 14.79933442 63242
KUIPER-00109            
1 65147U 25171R   26273.43057596  .00001576  00000+0  23564-3 0  9999
2 65147  51.9036 330.2276 0000274  65.2042 294.8948 14.79932602 63246
KUIPER-00110            
1 65148U 25171S   26273.45086462  .00001784  00000+0  26293-3 0  9999
2 65148  51.9007 342.6800 0000309  29.8325 330.2655 14.79932942 63061
KUIPER-00111            
1 65149U 25171T   26273.41169038  .00000574  00000+0  10436-3 0  9995
2 65149  51.8986 347.7134 0000534  33.2850 326.8146 14.79928470 62993
KUIPER-00112            
1 65150U 25171U   26273.86952452  .00001560  00000+0  23365-3 0  9997
2 65150  51.9024 328.3295 0000267  70.4548 289.6443 14.79928230 63308
KUIPER-00114            
1 65151U 25171V   26273.40900500  .00000601  00000+0  10788-3 0  9995
2 65151  51.9009 350.3210 0000279  67.4316 292.6676 14.79930423 62955
KUIPER-00115            
1 65152U 25171W   26273.88980506  .00001756  00000+0  25924-3 0  9992
2 65152  51.9004 340.7042 0000466  43.9820 316.1180 14.79934622 63132
KUIPER-00116            
1 65153U 25171X   26273.51300264  .00001793  00000+0  26408-3 0  9999
2 65153  51.9011 347.4025 0000306  77.9811 282.1186 14.79932898 63003
KUIPER-00118            
1 65154U 25171Y   26273.51029156  .00000642  00000+0  11323-3 0  9990
2 65154  51.8984 349.8598 0000338  66.9575 293.1423 14.79928902 62975
KUIPER-00119            
1 65155U 25171Z   26273.86143909 -.00000209  00000+0  15114-5 0  9996
2 65155  51.9037 335.9146 0000288  65.3997 294.6996 14.79927223 63197
KUIPER-00120            
1 65762U 25217A   26273.28789206  .00001989  00000+0  28976-3 0  9996
2 65762  51.8989 228.3120 0000814  67.6954 292.4095 14.79935258 55033
KUIPER-00132            
1 65763U 25217B   26273.77393919  .00010310  00000+0  26681-3 0  9992
2 65763  51.8517  85.5743 0005085 339.2131  20.8648 15.39653549 57053
KUIPER-00133            
1 65764U 25217C   26273.59179932  .00000602  00000+0  10796-3 0  9993
2 65764  51.9023 227.1123 0000761  81.6546 278.4503 14.79929557 55087
KUIPER-00139            
1 65765U 25217D   26273.15413966  .00007603  00000+0  10260-2 0  9997
2 65765  51.8988 196.4664 0001127  89.5061 270.6031 14.79901257 55471
KUIPER-00142            
1 65766U 25217E   26273.03666132  .00001642  00000+0  24433-3 0  9995
2 65766  51.8985 211.9547 0000874  76.1367 283.9693 14.79927633 55243
KUIPER-00145            
1 65767U 25217F   26273.57420698  .00001996  00000+0  29077-3 0  9991
2 65767  51.9001 212.1036 0000892  73.7533 286.3527 14.79928275 55288
KUIPER-00147            
1 65768U 25217G   26273.53765980  .00002002  00000+0  29173-3 0  9990
2 65768  51.8988 214.7361 0000953  67.2270 292.8793 14.79900634 55247
KUIPER-00148            
1 65769U 25217H   26273.48908897  .00000947  00000+0  15325-3 0  9991
2 65769  51.9045 197.5104 0000825  89.2992 270.8065 14.79930481 55486
KUIPER-00150            
1 65770U 25217J   26273.59448780  .00000704  00000+0  12135-3 0  9992
2 65770  51.9003 224.5372 0000860  81.3192 278.7868 14.79930096 55114
KUIPER-00151            
1 65771U 25217K   26273.53502981  .00002128  00000+0  30799-3 0  9999
2 65771  51.9019 217.3016 0000555  75.0049 285.0975 14.79936589 55213
KUIPER-00152            
1 65772U 25217L   26273.24464427  .00000008  00000+0  30125-4 0  9999
2 65772  51.8993 206.0624 0001081  80.2318 279.8766 14.79925698 55348
KUIPER-00153            
1 65773U 25217M   26274.06040120 -.00000116  00000+0  13753-4 0  9990
2 65773  51.9019 197.5435 0001104  93.8935 266.2154 14.79926627 55539
KUIPER-00155            
1 65774U 25217N   26274.02252370  .00001674  00000+0  24859-3 0  9996
2 65774  51.9023 170.1754 0000866 104.6677 255.4381 14.79935109 55913
KUIPER-00156            
1 65775U 25217P   26273.48639847  .00002018  00000+0  29361-3 0  9990
2 65775  51.9025 200.0661 0000873  86.1119 273.9943 14.79932109 55443
KUIPER-00165            
1 65778U 25217S   26273.54312801  .00001099  00000+0  17309-3 0  9995
2 65778  51.9007 209.7428 0000783  94.3385 265.7667 14.79933411 55314
KUIPER-00166            
1 65779U 25217T   26274.06309414  .00001759  00000+0  25964-3 0  9999
2 65779  51.9030 195.0099 0000829  91.4523 268.6535 14.79931570 55562
KUIPER-00167            
1 65780U 25217U   26273.26219776  .00002044  00000+0  29708-3 0  9991
2 65780  51.8958 220.8614 0001020  67.6367 292.4703 14.79937767 55136
KUIPER-00168            
1 65781U 25217V   26273.21356609  .00000067  00000+0  37816-4 0  9997
2 65781  51.8987 203.7081 0001108  80.9052 279.2036 14.79923583 55372
KUIPER-00169            
1 65782U 25217W   26273.54583084  .00000135  00000+0  46694-4 0  9993
2 65782  51.9012 207.2519 0000731  90.6541 269.4505 14.79930675 55350
KUIPER-00170            
1 65783U 25217X   26273.54043206  .00000609  00000+0  10887-3 0  9991
2 65783  51.8982 212.2153 0000945  82.1574 277.9495 14.79931244 55282
KUIPER-00172            
1 65785U 25217Z   26274.06578176  .00001850  00000+0  27158-3 0  9998
2 65785  51.8982 192.4254 0001199  75.1180 284.9915 14.79936248 55602
KUIPER-00173            
1 65786U 25217AA  26273.51206004  .00001756  00000+0  25935-3 0  9992
2 65786  51.9005 207.3893 0000743  78.7310 281.3736 14.79923621 55347
KUIPER-00174            
1 65787U 25217AB  26274.05769757  .00001241  00000+0  19187-3 0  9993
2 65787  51.9016 200.0455 0000915  87.1963 272.9104 14.79923657 55493
KUIPER-00176            
1 65788U 25217AC  26273.56880428  .00001865  00000+0  27361-3 0  9993
2 65788  51.8997 217.1182 0000783  76.3366 283.7683 14.79931935 55217
KUIPER-00101            
1 65947U 25228A   26273.10813299  .00001898  00000+0  27803-3 0  9991
2 65947  51.8979 176.5998 0000980  72.4431 287.6638 14.79918774 53505
KUIPER-00113            
1 65948U 25228B   26273.89014464  .00001723  00000+0  25496-3 0  9998
2 65948  51.8973 168.1646 0001130  88.7919 271.3173 14.79935229 53683
KUIPER-00117            
1 65949U 25228C   26273.04333528  .00001857  00000+0  27254-3 0  9993
2 65949  51.8971 174.4068 0000995  90.6308 269.4768 14.79924921 53520
KUIPER-00121            
1 65950U 25228D   26273.89285398  .00000334  00000+0  72774-4 0  9996
2 65950  51.8998 165.6766 0000848  89.3187 270.7873 14.79928323 53729
KUIPER-00122            
1 65951U 25228E   26274.01712558  .00001720  00000+0  25457-3 0  9990
2 65951  51.8988 175.0933 0000953  91.8192 268.2880 14.79932266 53609
KUIPER-00123            
1 65952U 25228F   26273.03794060  .00001225  00000+0  18976-3 0  9998
2 65952  51.8986 179.4303 0001006  87.7032 272.4046 14.79920123 53457
KUIPER-00124            
1 65953U 25228G   26273.85638740  .00001661  00000+0  24686-3 0  9990
2 65953  51.8989 168.3012 0001127  86.0333 274.0759 14.79932481 53689
KUIPER-00125            
1 65954U 25228H   26273.87256105 -.00000216  00000+0  64401-6 0  9992
2 65954  51.8985 153.2866 0001264 103.8668 256.2436 14.79923411 53897
KUIPER-00126            
1 65955U 25228J   26274.01982506  .00001745  00000+0  25783-3 0  9995
2 65955  51.8989 172.6129 0000880  96.1059 264.0004 14.79933138 53637
KUIPER-00127            
1 65956U 25228K   26274.01102889 -.00000212  00000+0  12209-5 0  9994
2 65956  51.9015 165.1366 0001216  90.4831 269.6271 14.79928150 53745
KUIPER-00128            
1 65957U 25228L   26273.85909864  .00001707  00000+0  25284-3 0  9998
2 65957  51.9013 165.8731 0000841  96.6327 263.4731 14.79931029 53717
KUIPER-00129            
1 65958U 25228M   26273.89824681  .00000042  00000+0  34560-4 0  9995
2 65958  51.8994 160.6779 0001078  85.6370 274.4715 14.79928276 53791
KUIPER-00130            
1 65959U 25228N   26274.06438653  .00001803  00000+0  26547-3 0  9997
2 65959  51.9033 162.4936 0000924  90.5012 269.6056 14.79929522 44079
KUIPER-00134            
1 65960U 25228P   26273.66749294  .00020943  00000+0  55992-3 0  9992
2 65960  51.8706  45.4296 0004711 316.4497  43.6117 15.38016950 55372
KUIPER-00135            
1 65961U 25228Q   26273.89556351  .00001653  00000+0  24574-3 0  9997
2 65961  51.9019 163.2904 0000890  98.1785 261.9278 14.79932785 53754
KUIPER-00136            
1 65962U 25228R   26274.06705721  .00001759  00000+0  25964-3 0  9996
2 65962  51.9012 159.9748 0001155  91.2956 268.8139 14.79931534 53815
KUIPER-00137            
1 65963U 25228S   26273.93471690  .00000448  00000+0  87857-4 0  9991
2 65963  51.9015 158.0761 0001290  89.7358 270.3752 14.79929725 53832
KUIPER-00138            
1 65964U 25228T   26274.03870247  .00001778  00000+0  26217-3 0  9994
2 65964  51.8981 155.0064 0001023  99.3206 260.7872 14.79928688 53888
KUIPER-00140            
1 65965U 25228U   26273.83342437  .00001542  00000+0  23122-3 0  9998
2 65965  51.9002 158.5087 0001054  97.1060 263.0023 14.79931571 53817
KUIPER-00141            
1 65966U 25228V   26274.04141534  .00000006  00000+0  29823-4 0  9997
2 65966  51.9023 152.6725 0000878  98.8542 261.2520 14.79927463 53919
KUIPER-00146            
1 65967U 25228W   26273.93740628  .00001562  00000+0  23378-3 0  9990
2 65967  51.9031 155.6441 0001134  95.1396 264.9696 14.79941096 53866
KUIPER-00149            
1 65968U 25228X   26274.04409573 -.00000299  00000+0 -10260-4 0  9990
2 65968  51.9013 150.0430 0001077  92.5151 267.5935 14.79928393 53950
KUIPER-00154            
1 65969U 25228Y   26274.01302282  .00000205  00000+0  55885-4 0  9994
2 65969  51.8995 147.6613 0000936 107.4737 252.6328 14.79930399 53986
KUIPER-00157            
1 65970U 25228Z   26273.99380812 -.00014447  00000+0 -20621-2 0  9990
2 65970  51.9016 150.2340 0000736  76.3790 283.7253 14.75814452 53946
KUIPER-00144            
1 67133U 25301A   26273.58909467  .00001950  00000+0  28478-3 0  9995
2 67133  51.9010 229.5612 0000861  71.1177 288.9879 14.79925577 44212
KUIPER-00164            
1 67134U 25301B   26273.30548853  .00001772  00000+0  26134-3 0  9993
2 67134  51.9031 243.3377 0000704  59.2620 300.8412 14.79937625 44173
KUIPER-00175            
1 67135U 25301C   26273.89836746  .00003598  00000+0  50088-3 0  9992
2 67135  51.8972 223.1424 0000939  73.0417 287.0648 14.79915593 44407
KUIPER-00179            
1 67136U 25301D   26273.64582802  .00000946  00000+0  15307-3 0  9996
2 67136  51.8981 239.2559 0000665  71.6090 288.4945 14.79933133 44261
KUIPER-00181            
1 67137U 25301E   26273.97000834  .00001658  00000+0  24643-3 0  9997
2 67137  51.9030 250.3945 0000761  49.3022 310.8007 14.79927147 44116
KUIPER-00183            
1 67138U 25301F   26273.15823088  .00001947  00000+0  28434-3 0  9995
2 67138  51.9022 223.9884 0000824  64.0703 296.0345 14.79939621 44420
KUIPER-00184            
1 67139U 25301G   26273.88757416  .00001329  00000+0  20332-3 0  9990
2 67139  51.8989 233.2014 0000803  64.6012 295.5034 14.79933599 44468
KUIPER-00186            
1 67140U 25301H   26273.93622820  .00000076  00000+0  38953-4 0  9995
2 67140  51.9026 250.5537 0000715  59.1685 300.9348 14.79927140 43959
KUIPER-00187            
1 67141U 25301J   26273.93351653  .00001728  00000+0  25562-3 0  9995
2 67141  51.9029 253.0936 0000836  89.4403 270.6656 14.79927168 43913
KUIPER-00188            
1 67142U 25301K   26273.59719945  .00001916  00000+0  28034-3 0  9996
2 67142  51.9026 222.1651 0000807  61.8009 298.3035 14.79926215 44311
KUIPER-00191            
1 67143U 25301L   26273.90786919  .00000310  00000+0  69723-4 0  9995
2 67143  51.9000 245.6783 0000841  61.9439 298.1608 14.79931060 44044
KUIPER-00196            
1 67144U 25301M   26273.21086500 -.00002331  00000+0 -27676-3 0  9996
2 67144  51.8974 206.2078 0000805 101.0792 259.0261 14.79938989 44501
KUIPER-00204            
1 67145U 25301N   26273.90373843  .00005131  00000+0  70135-3 0  9999
2 67145  51.8998 218.1833 0000526  75.0114 285.0906 14.79945487 44514
KUIPER-00210            
1 67146U 25301P   26273.94137356  .00001713  00000+0  25334-3 0  9994
2 67146  51.9001 245.4715 0000880  44.4921 315.6112 14.79982511 44194
KUIPER-00221            
1 67147U 25301Q   26273.96730269  .00001747  00000+0  25806-3 0  9990
2 67147  51.9013 252.8985 0000656  86.0016 274.1022 14.79931044 43921
KUIPER-00232            
1 67148U 25301R   26273.61207382  .00001825  00000+0  26836-3 0  9999
2 67148  51.8993 239.4759 0000733  66.6988 293.4052 14.79931510 44078
KUIPER-00241            
1 67149U 25301S   26273.97270356  .00001712  00000+0  25359-3 0  9994
2 67149  51.9030 247.9100 0000928  63.3185 296.7872 14.79929469 44329
KUIPER-00245            
1 67150U 25301T   26273.96461701  .00000247  00000+0  61348-4 0  9992
2 67150  51.9023 255.4542 0000722  73.4755 286.6287 14.79929727 43889
KUIPER-00246            
1 67151U 25301U   26273.60936642  .00000989  00000+0  15867-3 0  9992
2 67151  51.8991 241.9563 0000748  52.0421 308.0609 14.79936186 44062
KUIPER-00247            
1 67152U 25301V   26273.62015296  .00001931  00000+0  28225-3 0  9998
2 67152  51.8961 231.8495 0000729  66.7858 293.3181 14.79930021 44183
KUIPER-00248            
1 67153U 25301W   26273.57151739  .00000477  00000+0  91632-4 0  9993
2 67153  51.8995 214.7132 0000873  73.0152 287.0906 14.79929970 44587
KUIPER-00249            
1 67154U 25301X   26273.62285141 -.00001402  00000+0 -15489-3 0  9991
2 67154  51.8967 229.4221 0000870  55.1829 304.9215 14.79940819 44215
KUIPER-00250            
1 67155U 25301Y   26273.91056070  .00001846  00000+0  27116-3 0  9991
2 67155  51.8993 243.1000 0000868  65.3153 294.7900 14.79925570 44082
KUIPER-00251            
1 67156U 25301Z   26273.58639994  .00000857  00000+0  14147-3 0  9998
2 67156  51.9003 232.1123 0000784  53.8947 306.2088 14.79929290 44360
KUIPER-00252            
1 67157U 25301AA  26273.92134444  .00000308  00000+0  69423-4 0  9996
2 67157  51.9018 233.0839 0000841  86.4068 273.6991 14.79930981 44191
KUIPER-00261            
1 67158U 25301AB  26273.94432811  .00000681  00000+0  11827-3 0  9996
2 67158  51.9014 243.0470 0000559  54.6604 305.4410 14.79931410 44052
KUIPER-00265            
1 67159U 25301AC  26273.21909263  .00001707  00000+0  25288-3 0  9993
2 67159  51.9009 261.2306 0000564  68.1084 291.9938 14.79925605 43776
KUIPER-00159            
1 67764U 26030A   26273.90230467  .00001537  00000+0  23051-3 0  9991
2 67764  51.9025 336.9475 0001418 349.6019  10.4914 14.79958256 36247
KUIPER-00160            
1 67765U 26030B   26273.82967064  .00001525  00000+0  22905-3 0  9997
2 67765  51.8987 318.5168 0000296 130.8128 229.2860 14.79930216 36496
KUIPER-00177            
1 67766U 26030C   26274.04386229  .00001866  00000+0  27377-3 0  9997
2 67766  51.9021  25.0511 0000516 109.6675 250.4343 14.79928871 35580
KUIPER-00178            
1 67767U 26030D   26273.53738332 -.00000077  00000+0  18897-4 0  9999
2 67767  51.9010  27.2709 0000447 138.3431 221.7566 14.79941855 35512
KUIPER-00180            
1 67768U 26030E   26273.61031853  .00002147  00000+0  31054-3 0  9991
2 67768  51.8979  21.9378 0000170 115.2269 244.8711 14.79935477 35594
KUIPER-00197            
1 67769U 26030F   26273.96952731  .00001056  00000+0  16748-3 0  9998
2 67769  51.9010   0.3690 0000224 100.7294 259.3694 14.79931616 35926
KUIPER-00198            
1 67770U 26030G   26273.98980933  .00001061  00000+0  16813-3 0  9996
2 67770  51.9001  12.7512 0000204 145.1363 214.9613 14.79933081 35753
KUIPER-00199            
1 67771U 26030H   26274.25003472 -.00086736  00000+0 -84333-2 0  9997
2 67771  51.8972 310.9084 0012884  77.1097   5.1820 14.92480313  5423
KUIPER-00200            
1 67772U 26030J   26273.53328847  .00000187  00000+0  53568-4 0  9996
2 67772  51.8983 359.8144 0000393  90.3710 269.7298 14.79929802 35893
KUIPER-00203            
1 67773U 26030K   26274.03847662  .00000414  00000+0  83322-4 0  9998
2 67773  51.9079  30.1631 0000417 125.4873 234.6129 14.79931789 35518
KUIPER-00205            
1 67774U 26030L   26273.53597336  .00001821  00000+0  26784-3 0  9994
2 67774  51.9015 357.2711 0000301  93.0239 267.0758 14.79936150 35930
KUIPER-00208            
1 67775U 26030M   26273.60760909  .00000446  00000+0  87570-4 0  9994
2 67775  51.8991  24.4461 0000649 152.1339 207.9658 14.79932093 35553
KUIPER-00209            
1 67776U 26030N   26273.57655293  .00000411  00000+0  82933-4 0  9990
2 67776  51.9026  22.1876 0000218 148.1628 211.9348 14.79931894 35589
KUIPER-00213            
1 67777U 26030P   26273.88312655  .00000430  00000+0  85353-4 0  9997
2 67777  51.8981  18.2847 0000346  97.1218 262.9783 14.79926004 35668
KUIPER-00214            
1 67778U 26030Q   26273.98712615  .00001830  00000+0  26899-3 0  9993
2 67778  51.9010  15.3655 0000361  97.0958 263.0046 14.79930663 35711
KUIPER-00215            
1 67779U 26030R   26273.56164085  .00001954  00000+0  28525-3 0  9995
2 67779  51.8998   4.5992 0000206  98.5846 261.5140 14.79936644 35836
KUIPER-00218            
1 67780U 26030S   26273.98441517  .00000109  00000+0  43285-4 0  9993
2 67780  51.8980  17.7674 0000182  80.6425 279.4557 14.79931585 35682
KUIPER-00220            
1 67781U 26030T   26273.53867612  .00001700  00000+0  25196-3 0  9991
2 67781  51.8976 354.7613 0000333  83.5038 276.5962 14.79922729 35964
KUIPER-00222            
1 67782U 26030U   26273.55088131  .00002056  00000+0  29861-3 0  9993
2 67782  51.9002  14.8475 0000298 135.3466 224.7521 14.79933110 35688
KUIPER-00223            
1 67783U 26030V   26273.99788057 -.00001810  00000+0 -20848-3 0  9991
2 67783  51.9045   5.1842 0000269  22.1512 337.9462 14.79939263 35866
KUIPER-00225            
1 67784U 26030W   26273.99251793  .00001219  00000+0  18880-3 0  9998
2 67784  51.9011  10.3530 0000240  72.6625 287.4363 14.79933127 35789
KUIPER-00226            
1 67785U 26030X   26273.97220860 -.00001102  00000+0 -11552-3 0  9990
2 67785  51.9022 357.8256 0000978  41.9732 318.1306 14.79935977 35966
KUIPER-00259            
1 67786U 26030Y   26273.55356362  .00001491  00000+0  22453-3 0  9993
2 67786  51.9001  12.1935 0000148 105.7446 254.3532 14.79933753 35725
KUIPER-00260            
1 67787U 26030Z   26273.55626706 -.00001834  00000+0 -21158-3 0  9990
2 67787  51.8997   9.7937 0000128 198.6349 161.4609 14.79949098 35669
KUIPER-00262            
1 67788U 26030AA  26274.06272138 -.00001472  00000+0 -16421-3 0  9999
2 67788  51.9023   7.4732 0000284 113.5167 246.5826 14.79927392 35834
KUIPER-00266            
1 67789U 26030AB  26273.55896040  .00001914  00000+0  27999-3 0  9998
2 67789  51.9015   7.1911 0000375 117.9470 242.1531 14.79933444 35793
KUIPER-00268            
1 67790U 26030AC  26273.52789976  .00000407  00000+0  82378-4 0  9995
2 67790  51.9055   4.8777 0000136 103.2919 256.8059 14.79928880 35823
KUIPER-00270            
1 67791U 26030AD  26273.91009111  .00000662  00000+0  11585-3 0  9999
2 67791  51.8998 353.1287 0000296  71.6286 288.4708 14.79927167 36029
KUIPER-00274            
1 67792U 26030AE  26274.02088899  .00001969  00000+0  28725-3 0  9998
2 67792  51.9039  15.1583 0000295  94.2013 265.8983 14.79929166 35720
KUIPER-00275            
1 67793U 26030AF  26273.43468644  .00000003  00000+0  29417-4 0  9991
2 67793  51.9021 357.7440 0000099 116.8408 243.2564 14.79926736 35916
KUIPER-00276            
1 67794U 26030AG  26273.53058576  .00001843  00000+0  27072-3 0  9999
2 67794  51.8999   2.2938 0000340  86.8575 273.2427 14.79929843 35861
KUIPER-00279            
1 67795U 26030AH  26273.50761329  .00001844  00000+0  27082-3 0  9996
2 67795  51.9045 352.4506 0000251  88.0450 272.0541 14.79934437 35996
KUIPER-00131            
1 68573U 26072A   26273.77386520  .00001560  00000+0  23355-3 0  9996
2 68573  51.9000  88.7480 0000806 119.7166 240.3877 14.79932441 26751
KUIPER-00189            
1 68574U 26072B   26273.93998573  .00000820  00000+0  13654-3 0  9991
2 68574  51.8985  90.4875 0000719 129.3404 230.7622 14.79926415 26740
KUIPER-00192            
1 68575U 26072C   26273.91161539  .00001539  00000+0  23085-3 0  9991
2 68575  51.8999  85.6323 0000871 122.7271 237.3776 14.79936946 26819
KUIPER-00193            
1 68576U 26072D   26273.65228321  .00002241  00000+0  32286-3 0  9990
2 68576  51.9050  76.8330 0000823 131.0960 229.0074 14.79938906 26912
KUIPER-00194            
1 68577U 26072E   26273.88056046  .00001470  00000+0  22187-3 0  9991
2 68577  51.9016  83.2993 0000801 117.2336 242.8708 14.79927191 26844
KUIPER-00229            
1 68578U 26072F   26273.67256534 -.00000037  00000+0  24161-4 0  9997
2 68578  51.9026  89.1988 0000599 120.4779 239.6243 14.79931603 26746
KUIPER-00230            
1 68579U 26072G   26273.65207667  .00001262  00000+0  20967-3 0  9998
2 68579  51.9040  36.6824 0000867  99.9244 260.1815 14.76576621 27471
KUIPER-00231            
1 68580U 26072H   26273.70224004  .00001740  00000+0  25728-3 0  9991
2 68580  51.8984  61.6332 0001678 146.2977 213.8093 14.79929669 27123
KUIPER-00234            
1 68581U 26072J   26273.91430833  .00000000  00000+0  28973-4 0  9998
2 68581  51.8994  83.1092 0000941 124.8983 235.2068 14.79931380 26849
KUIPER-00236            
1 68582U 26072K   26273.82778020  .00001248  00000+0  19282-3 0  9999
2 68582  51.9046  38.5075 0000881 111.2372 248.8685 14.79916263 27466
KUIPER-00244            
1 68583U 26072L   26273.75627846  .00000258  00000+0  62880-4 0  9994
2 68583  51.9003  73.8331 0000693 124.4107 235.6921 14.79929251 26962
KUIPER-00253            
1 68584U 26072M   26273.88864516 -.00000126  00000+0  12453-4 0  9992
2 68584  51.9037  75.7789 0000870 121.3587 238.7461 14.79935768 26944
KUIPER-00254            
1 68585U 26072N   26273.71710872 -.00000172  00000+0  65073-5 0  9998
2 68585  51.9046  79.0349 0000925 112.8111 247.2949 14.79927238 26885
KUIPER-00263            
1 68586U 26072P   26273.66577668  .00001579  00000+0  23611-3 0  9998
2 68586  51.9030  64.3259 0000490 121.9680 238.1331 14.79931154 27084
KUIPER-00269            
1 68587U 26072Q   26273.73059150  .00001626  00000+0  24216-3 0  9993
2 68587  51.9003  66.4437 0000809 129.7102 230.3932 14.79939269 27069
KUIPER-00272            
1 68588U 26072R   26273.87785300  .00001503  00000+0  22619-3 0  9991
2 68588  51.8981  85.7581 0000860 120.1031 240.0017 14.79930378 26806
KUIPER-00285            
1 68589U 26072S   26273.62931273  .00001618  00000+0  24116-3 0  9998
2 68589  51.9068  66.9809 0001282 109.8513 250.2588 14.79938263 27040
KUIPER-00286            
1 68590U 26072T   26273.69953573  .00001628  00000+0  24253-3 0  9997
2 68590  51.9022  64.0944 0000491 101.9569 258.1448 14.79926554 27093
KUIPER-00289            
1 68591U 26072U   26273.69144228  .00001705  00000+0  25263-3 0  9995
2 68591  51.8994  71.6032 0000804 125.7322 234.3716 14.79924344 26988
KUIPER-00290            
1 68592U 26072V   26273.86026700  .00001649  00000+0  24537-3 0  9999
2 68592  51.9025  70.8701 0000603 135.7672 224.3338 14.79921334 27015
KUIPER-00293            
1 68593U 26072W   26273.88325067  .00001379  00000+0  20998-3 0  9997
2 68593  51.8979  80.7334 0001711  92.0959 268.0199 14.79926814 26870
KUIPER-00294            
1 68594U 26072X   26273.69413417  .00000290  00000+0  67045-4 0  9990
2 68594  51.8989  69.0930 0000593 127.1714 232.9303 14.79930499 27029
KUIPER-00296            
1 68595U 26072Y   26273.67925074  .00000382  00000+0  79157-4 0  9995
2 68595  51.9007  51.6794 0000556 118.7627 241.3391 14.79930147 27262
KUIPER-00297            
1 68596U 26072Z   26273.71442035  .00001539  00000+0  23088-3 0  9998
2 68596  51.9002  81.4826 0001234 137.5526 222.5532 14.79930929 26856
KUIPER-00300            
1 68597U 26072AA  26273.88593681  .00001625  00000+0  24213-3 0  9998
2 68597  51.9028  78.2627 0000615 121.2333 238.8690 14.79938138 26918
KUIPER-00301            
1 68598U 26072AB  26273.65995394  .00001605  00000+0  25870-3 0  9999
2 68598  51.9009  49.0430 0002063 236.9262 123.1501 14.76518228 27290
KUIPER-00304            
1 68599U 26072AC  26273.68894527  .00001275  00000+0  21129-3 0  9995
2 68599  51.9011  50.8584 0000697  48.2138 311.8882 14.76633422 27271
KUIPER-00317            
1 68600U 26072AD  26273.86295599  .00001643  00000+0  24448-3 0  9998
2 68600  51.8966  68.3520 0000488 106.6713 253.4303 14.79926374 27040
KUIPER-00320            
1 68601U 26072AE  26273.85756400  .00001606  00000+0  23967-3 0  9995
2 68601  51.9020  73.3970 0000646 117.4759 242.6269 14.79934905 26975
KUIPER-00299            
1 68864U 26095A   26273.95089577  .00001561  00000+0  23372-3 0  9996
2 68864  51.8996 142.9439 0000974 112.0538 248.0528 14.79926965 23275
KUIPER-00353            
1 68865U 26095B   26274.00084185  .00001513  00000+0  22747-3 0  9996
2 68865  51.8997 127.7510 0000811 113.6485 246.4562 14.79930147 23497
KUIPER-00357            
1 68866U 26095C   26274.02651500  .00000282  00000+0  66077-4 0  9997
2 68866  51.9008 135.1500 0001464  93.4906 266.6224 14.79925853 23398
KUIPER-00364            
1 68867U 26095D   26273.92252705 -.00000614  00000+0 -51570-4 0  9993
2 68867  51.9013 138.1380 0001103 109.3207 250.7874 14.79929874 23342
KUIPER-00375            
1 68868U 26095E   26274.03190003  .00001466  00000+0  22130-3 0  9992
2 68868  51.9007 130.1209 0000951 108.0294 252.0772 14.79936926 23461
KUIPER-00433            
1 68869U 26095F   26273.88067285  .00001520  00000+0  22832-3 0  9990
2 68869  51.9004 145.7839 0001228  92.6681 267.4422 14.79929658 23237
KUIPER-00437            
1 68870U 26095G   26274.25003472 -.00106855  00000+0 -14984-1 0  9998
2 68870  51.9009  96.0586 0006205  70.5592 127.7872 14.77682952  4009
KUIPER-00448            
1 68871U 26095H   26273.99275343  .00001614  00000+0  24067-3 0  9997
2 68871  51.9041 135.2968 0001033 121.1133 238.9931 14.79934772 23389
KUIPER-00459            
1 68872U 26095J   26273.83742186  .00001341  00000+0  20485-3 0  9992
2 68872  51.9009 123.5439 0000754 106.0044 254.1001 14.79927757 23539
KUIPER-00468            
1 68873U 26095K   26273.86279917  .00000867  00000+0  15337-3 0  9995
2 68873  51.8978 121.2071 0000501 183.8106 176.2851 14.76634917 23574
KUIPER-00476            
1 68874U 26095L   26273.92649384  .00001445  00000+0  21860-3 0  9993
2 68874  51.9006 103.0015 0000915 118.7588 241.3466 14.79921669 23835
KUIPER-00478            
1 68875U 26095M   26273.96977552  .00001486  00000+0  22394-3 0  9997
2 68875  51.8997 125.3914 0001055 107.2889 252.8189 14.79929877 23526
KUIPER-00480            
1 68876U 26095N   26274.00623837  .00001348  00000+0  20577-3 0  9996
2 68876  51.9034 122.7501 0000708 107.1994 252.9046 14.79927034 23563
KUIPER-00482            
1 68877U 26095P   26273.99541894 -.00000866  00000+0 -84564-4 0  9999
2 68877  51.9011 132.7824 0001670  84.3050 275.8103 14.79935861 23426
KUIPER-00483            
1 68878U 26095Q   26274.04948638  .00000503  00000+0  95059-4 0  9991
2 68878  51.8992 145.0038 0001540  59.0257 301.0857 14.79927608 23251
KUIPER-00488            
1 68879U 26095R   26274.03460744  .00000513  00000+0  96262-4 0  9996
2 68879  51.8997 127.6135 0001203  98.0197 262.0902 14.79927355 23495
KUIPER-00489            
1 68880U 26095S   26273.84011050  .00001489  00000+0  22438-3 0  9994
2 68880  51.8959 120.9504 0001220 106.6480 253.4617 14.79926962 23570
KUIPER-00499            
1 68881U 26095T   26273.86847287  .00001223  00000+0  18941-3 0  9996
2 68881  51.8993 125.8886 0000659 111.1847 248.9186 14.79927442 23506
KUIPER-00500            
1 68882U 26095U   26273.91712048 -.00000127  00000+0  12332-4 0  9991
2 68882  51.9012 143.1275 0000804 102.2030 257.9023 14.79928669 23278
KUIPER-00502            
1 68883U 26095V   26273.86674275  .00004924  00000+0  67406-3 0  9994
2 68883  51.8991 119.6002 0001504 106.2110 253.9018 14.79959022 23593
KUIPER-00503            
1 68884U 26095W   26274.02110624  .00001482  00000+0  22342-3 0  9993
2 68884  51.8981 140.1349 0001131 100.1749 259.9341 14.79937316 23321
KUIPER-00504            
1 68885U 26095X   26274.04679737 -.00000072  00000+0  19546-4 0  9999
2 68885  51.9024 147.5594 0000859  97.8109 262.2951 14.79926074 23224
KUIPER-00505            
1 68886U 26095Y   26274.02381998  .00001563  00000+0  23404-3 0  9999
2 68886  51.9020 137.6610 0000743 104.2812 255.8233 14.79931201 23359
KUIPER-00507            
1 68887U 26095Z   26273.88264953  .00001270  00000+0  19562-3 0  9999
2 68887  51.9002 128.2682 0000919 106.4608 253.6455 14.79936803 23475
KUIPER-00511            
1 68888U 26095AA  26274.00893254  .00000314  00000+0  70231-4 0  9996
2 68888  51.8985 120.3212 0001107 115.5299 244.5778 14.79939968 23599
KUIPER-00512            
1 68889U 26095AB  26273.91980369  .00002434  00000+0  34800-3 0  9996
2 68889  51.9006 140.6248 0000397  80.4007 279.7000 14.79947516 23301
KUIPER-00519            
1 68890U 26095AC  26273.99814201  .00001416  00000+0  21466-3 0  9990
2 68890  51.9016 130.3408 0000679 103.0589 257.0450 14.79936604 23458
KUIPER-00521            
1 68891U 26095AD  26273.99643502  .00001474  00000+0  22228-3 0  9996
2 68891  51.9020 124.0447 0000852 104.3350 255.7707 14.79937518 23545
KUIPER-00524            
1 68892U 26095AE  26274.02921381  .00001398  00000+0  21239-3 0  9992
2 68892  51.8974 132.6079 0001089  97.8990 262.2096 14.79930124 23425
KUIPER-00370            
1 68919U 26098A   26273.51697533  .00001539  00000+0  23080-3 0  9990
2 68919  51.8997 312.2555 0000348  56.0005 304.0991 14.79926151 23082
KUIPER-00380            
1 68920U 26098B   26273.79519308  .00000667  00000+0  11642-3 0  9997
2 68920  51.8983 303.6593 0000319  61.5759 298.5236 14.79932490 23228
KUIPER-00386            
1 68921U 26098C   26273.80937888  .00001519  00000+0  22820-3 0  9994
2 68921  51.8996 306.0942 0000396  54.2329 305.8670 14.79935801 23194
KUIPER-00388            
1 68922U 26098D   26273.37655574  .00001531  00000+0  22987-3 0  9994
2 68922  51.9021 318.1722 0000326  46.6441 313.4548 14.79925811 22983
KUIPER-00405            
1 68923U 26098E   26274.07141589  .00001478  00000+0  22284-3 0  9999
2 68923  51.9026 312.4536 0000728 294.8018  65.2869 14.79925939 23128
KUIPER-00408            
1 68924U 26098F   26274.06261465  .00001543  00000+0  23128-3 0  9996
2 68924  51.8997 304.9031 0000387  56.0340 304.0659 14.79934429 23235
KUIPER-00409            
1 68925U 26098G   26273.83776153  .00001522  00000+0  22859-3 0  9993
2 68925  51.9036 310.9874 0000374  80.1129 279.9876 14.79928539 23126
KUIPER-00410            
1 68926U 26098H   26273.84045271  .00001477  00000+0  22277-3 0  9998
2 68926  51.8982 308.4447 0000105 219.7034 140.3921 14.79926149 23162
KUIPER-00412            
1 68927U 26098J   26273.76414055  .00001497  00000+0  22537-3 0  9991
2 68927  51.9042 301.3236 0000341  71.0185 289.0814 14.79931654 23256
KUIPER-00413            
1 68928U 26098K   26273.37922999 -.00000051  00000+0  22333-4 0  9991
2 68928  51.8995 315.4935 0000191 318.0314  42.0634 14.79928236 23020
KUIPER-00414            
1 68929U 26098L   26273.87492180 -.00000024  00000+0  25900-4 0  9994
2 68929  51.8978 323.3803 0000395 180.7608 179.3354 14.79931383 22951
KUIPER-00415            
1 68930U 26098M   26273.82626203  .00001547  00000+0  23179-3 0  9991
2 68930  51.9018 306.0356 0000390  60.1420 299.9581 14.79936937 23196
KUIPER-00416            
1 68931U 26098N   26273.77643916  .00001393  00000+0  21146-3 0  9997
2 68931  51.9025 297.6077 0000332  50.2591 309.8400 14.79979311 23302
KUIPER-00420            
1 68932U 26098P   26273.76682902  .00001442  00000+0  21817-3 0  9995
2 68932  51.9009 298.7591 0000474  76.3137 283.7878 14.79930298 23298
KUIPER-00421            
1 68933U 26098Q   26273.35623604  .00001576  00000+0  23572-3 0  9993
2 68933  51.9028 305.5607 0000585  85.0323 275.0706 14.79924639 23164
KUIPER-00425            
1 68934U 26098R   26273.82085119  .00001489  00000+0  22437-3 0  9991
2 68934  51.8997 311.0481 0000425  85.9140 274.1871 14.79924786 23122
KUIPER-00430            
1 68935U 26098S   26273.81816306  .00001476  00000+0  22262-3 0  9993
2 68935  51.9039 313.4653 0000385  67.4652 292.6351 14.79935079 23097
KUIPER-00431            
1 68936U 26098T   26273.81547979  .00001502  00000+0  22604-3 0  9991
2 68936  51.9001 316.0593 0000261  36.5401 323.5579 14.79929241 23057
KUIPER-00432            
1 68937U 26098U   26273.82354977  .00001474  00000+0  22233-3 0  9993
2 68937  51.8999 308.4236 0000406  52.8236 307.2764 14.79935391 23160
KUIPER-00434            
1 68938U 26098V   26273.83229863  .00001063  00000+0  18215-3 0  9999
2 68938  51.9012 312.7201 0000935 167.7378 192.3606 14.76400147 23103
KUIPER-00436            
1 68939U 26098W   26273.80396275  .00003135  00000+0  43983-3 0  9991
2 68939  51.9008 311.1214 0000427  59.2122 300.8883 14.79951694 23120
KUIPER-00438            
1 68940U 26098X   26273.80669066  .00001401  00000+0  21273-3 0  9996
2 68940  51.9023 308.6387 0000492  58.5904 301.5106 14.79934859 23156
KUIPER-00439            
1 68941U 26098Y   26273.78980825  .00000573  00000+0  10421-3 0  9995
2 68941  51.9027 308.7057 0000546  72.0442 288.0580 14.79926246 23150
KUIPER-00440            
1 68942U 26098Z   26273.34207737  .00001528  00000+0  22940-3 0  9992
2 68942  51.9032 303.1831 0000697  17.6961 342.4026 14.79925589 23197
KUIPER-00442            
1 68943U 26098AA  26273.33933697  .00001535  00000+0  23033-3 0  9995
2 68943  51.9025 305.7128 0000284   6.2247 353.8718 14.79927534 23152
KUIPER-00446            
1 68944U 26098AB  26273.50549686  .00001434  00000+0  21709-3 0  9992
2 68944  51.9000 307.4581 0001077 326.8447  33.2447 14.79933233 23142
KUIPER-00451            
1 68945U 26098AC  26273.83236421  .00001489  00000+0  22425-3 0  9995
2 68945  51.9002 315.9933 0000233  50.5500 309.5483 14.79929796 23052
KUIPER-00452            
1 68946U 26098AD  26274.04843914  .00003739  00000+0  51947-3 0  9992
2 68946  51.9038 302.5568 0000645 100.5616 259.5420 14.79913224 23266
KUIPER-00453            
1 68947U 26098AE  26274.06800764  .00001451  00000+0  21928-3 0  9996
2 68947  51.8991 299.8855 0000843 182.0325 178.0634 14.79931933 23307
KUIPER-00454            
1 68948U 26098AF  26273.50886529  .00000553  00000+0  10156-3 0  9991
2 68948  51.9006 319.9150 0000735  61.5527 298.5510 14.79921102 22973
KUIPER-00455            
1 68949U 26098AG  26273.52847402 -.00000287  00000+0 -86216-5 0  9999
2 68949  51.9000 317.3428 0000690 173.1919 186.9053 14.79928800 23013
KUIPER-00458            
1 68950U 26098AH  26274.05113156  .00001446  00000+0  21867-3 0  9997
2 68950  51.9017 300.0557 0000728  71.5453 288.5589 14.79925606 23295
KUIPER-00282            
1 69267U 26118A   26274.05921434  .00001477  00000+0  22273-3 0  9994
2 69267  51.8969 292.4702 0000383   5.1541 354.9425 14.79935252 19836
KUIPER-00383            
1 69268U 26118B   26273.74115447  .00001387  00000+0  21088-3 0  9992
2 69268  51.8982 291.3992 0000560  29.3978 330.7016 14.79926026 19826
KUIPER-00527            
1 69269U 26118C   26273.43728784  .00001572  00000+0  23518-3 0  9999
2 69269  51.8986 292.8756 0000473  50.9675 309.1329 14.79924671 19777
KUIPER-00562            
1 69270U 26118D   26274.01935232  .00001496  00000+0  22516-3 0  9996
2 69270  51.9022 282.6193 0000775  62.2338 297.8703 14.79937103 19975
KUIPER-00570            
1 69271U 26118E   26273.76953783  .00001487  00000+0  22403-3 0  9994
2 69271  51.9001 296.3809 0000456  53.8632 306.2372 14.79928229 19749
KUIPER-00572            
1 69272U 26118F   26274.02815681  .00001494  00000+0  22498-3 0  9991
2 69272  51.9009 290.1289 0000517  47.3599 312.7407 14.79925081 19867
KUIPER-00581            
1 69273U 26118G   26273.75264426  .00001476  00000+0  22260-3 0  9993
2 69273  51.9026 296.3580 0000406 288.1869  71.9049 14.79927612 19847
KUIPER-00584            
1 69274U 26118H   26273.80056637  .00001527  00000+0  22937-3 0  9991
2 69274  51.9010 298.7536 0000390  52.0805 308.0193 14.79918656 19727
KUIPER-00587            
1 69275U 26118J   26274.03084417  .00001636  00000+0  24355-3 0  9992
2 69275  51.9012 287.6265 0000529  60.2007 299.9008 14.79925955 19908
KUIPER-00590            
1 69276U 26118K   26273.75534300  .00001458  00000+0  22015-3 0  9995
2 69276  51.9027 293.8568 0000347  40.6478 319.4511 14.79932795 19796
KUIPER-00592            
1 69277U 26118L   26274.07608985 -.00000161  00000+0  78338-5 0  9995
2 69277  51.9042 292.3159 0000349  98.9303 261.1699 14.79927554 19842
KUIPER-00593            
1 69278U 26118M   26273.95992479  .00001492  00000+0  22473-3 0  9990
2 69278  51.8994 275.4454 0000598 215.0553 145.0370 14.79928037 20129
KUIPER-00594            
1 69279U 26118N   26273.75194447  .00001654  00000+0  24593-3 0  9993
2 69279  51.9035 281.3772 0000755  77.2332 282.8715 14.79933810 19962
KUIPER-00595            
1 69280U 26118P   26273.99368646 -.00000280  00000+0 -77150-5 0  9990
2 69280  51.8971 275.2505 0000574 248.6826 111.4075 14.79940449 20109
KUIPER-00596            
1 69281U 26118Q   26274.05383340  .00001488  00000+0  22422-3 0  9996
2 69281  51.9017 297.5296 0000420  49.6724 310.4275 14.79927655 19769
KUIPER-00597            
1 69282U 26118R   26273.72087307  .00001468  00000+0  22161-3 0  9992
2 69282  51.8980 278.9972 0001598  69.7855 290.3279 14.79926231 19991
KUIPER-00599            
1 69283U 26118S   26274.01394440  .00001556  00000+0  23308-3 0  9997
2 69283  51.9014 287.6173 0000505  10.0349 350.0623 14.79940627 19908
KUIPER-00600            
1 69284U 26118T   26274.02475011  .00001500  00000+0  22579-3 0  9991
2 69284  51.8985 277.5667 0001591  64.7606 295.3521 14.79927448 20040
KUIPER-00601            
1 69285U 26118U   26273.77219663  .00002694  00000+0  38213-3 0  9999
2 69285  51.9019 293.7755 0000927  34.0549 326.0473 14.79953454 19790
KUIPER-00602            
1 69286U 26118V   26274.05041225  .00000058  00000+0  36677-4 0  9994
2 69286  51.9010 284.9576 0000702 340.2651  19.8284 14.79930029 19949
KUIPER-00603            
1 69287U 26118W   26273.25425429  .00001657  00000+0  24632-3 0  9991
2 69287  51.9044 291.0705 0000569  67.6659 292.4363 14.79925888 19785
KUIPER-00605            
1 69288U 26118X   26273.78641136  .00001487  00000+0  22404-3 0  9991
2 69288  51.8994 296.1895 0000419  52.6182 307.4818 14.79926365 19765
KUIPER-00606            
1 69289U 26118Y   26274.04773533  .00001365  00000+0  20799-3 0  9999
2 69289  51.9014 287.5535 0000421  41.5292 318.5703 14.79934561 19906
KUIPER-00607            
1 69290U 26118Z   26274.04163417  .00000776  00000+0  13076-3 0  9990
2 69290  51.8981 277.5834 0001792  65.0744 295.0405 14.79935993 20041
KUIPER-00608            
1 69291U 26118AA  26274.05580555 -.00000110  00000+0  14527-4 0  9994
2 69291  51.9001 279.8843 0000675  68.5586 291.5448 14.79928706 20011
KUIPER-00610            
1 69292U 26118AB  26274.01666942  .00001555  00000+0  23288-3 0  9992
2 69292  51.9020 285.1926 0000474  51.7323 308.3682 14.79931711 19931
KUIPER-00613            
1 69293U 26118AC  26274.07340093 -.00000312  00000+0 -11908-4 0  9994
2 69293  51.9017 294.9383 0000506  45.3659 314.7345 14.79926457 19804
KUIPER-00618            
1 69294U 26118AD  26274.05312165  .00000433  00000+0  85862-4 0  9994
2 69294  51.9035 282.5384 0001131 249.9827 110.1014 14.79931287 19979
KUIPER-00620            
1 69295U 26118AE  26274.06731911  .00001781  00000+0  26255-3 0  9997
2 69295  51.9038 284.9814 0000414  77.9675 282.1334 14.79927515 19941
KUIPER-00423            
1 69592U 26140A   26273.94496372  .00001588  00000+0  23733-3 0  9990
2 69592  51.9009 258.0038 0000723  84.9876 275.1169 14.79915557 17357
KUIPER-00428            
1 69593U 26140B   26273.96133475  .00020477  00000+0  54420-3 0  9990
2 69593  51.8792 247.4480 0004427 329.9098  30.1634 15.38218211 17504
KUIPER-00481            
1 69594U 26140C   26274.25003472 -.00008824  00000+0 -11299-2 0  9997
2 69594  51.9000 261.6643 0001521   5.4716 299.1274 14.79932934  5381
KUIPER-00490            
1 69595U 26140D   26273.29270368  .00000296  00000+0  67830-4 0  9998
2 69595  51.9033 270.8488 0000659  55.3088 304.7937 14.79926542 17126
KUIPER-00493            
1 69596U 26140E   26273.99637492  .00001670  00000+0  24806-3 0  9993
2 69596  51.9034 272.7885 0001150 353.9623   6.1325 14.79938007 17155
KUIPER-00496            
1 69597U 26140F   26274.25003472 -.00032973  00000+0 -43071-2 0  9995
2 69597  51.9020 255.4169 0001554  60.3950  73.4086 14.80031397  4867
KUIPER-00513            
1 69598U 26140G   26273.73165320  .00001762  00000+0  26004-3 0  9997
2 69598  51.9001 268.9496 0000507  46.4486 313.6519 14.79933385 17180
KUIPER-00516            
1 69599U 26140H   26274.25003472 -.00069665  00000+0 -88309-2 0  9998
2 69599  51.8955 251.1201 0003124 298.5426 321.6930 14.81656728  5705
KUIPER-00517            
1 69600U 26140J   26274.25003472 -.00031492  00000+0 -22079-2 0  9990
2 69600  51.8916 247.8405 0008402 209.2238 185.4425 15.04565502  5167
KUIPER-00520            
1 69601U 26140K   26274.00657445  .00001065  00000+0  18161-3 0  9998
2 69601  51.9016 269.9606 0000625 281.7794  78.3097 14.76615156 17199
KUIPER-00522            
1 69602U 26140L   26273.65801701  .00001641  00000+0  24427-3 0  9997
2 69602  51.9032 259.2805 0001175  86.9411 273.1686 14.79923033 17315
KUIPER-00528            
1 69603U 26140M   26273.98220454  .00001629  00000+0  24264-3 0  9999
2 69603  51.9027 270.3626 0000527  51.3651 308.7358 14.79926332 17188
KUIPER-00532            
1 69604U 26140N   26274.25003472 -.00007505  00000+0 -95632-3 0  9998
2 69604  51.9016 254.1693 0000831  67.7719 104.0102 14.79944023  5756
KUIPER-00533            
1 69605U 26140P   26273.70058456  .00001525  00000+0  22897-3 0  9997
2 69605  51.9009 266.5980 0000659  47.3355 312.7663 14.79937181 17214
KUIPER-00534            
1 69606U 26140Q   26273.96926387 -.00034688  00000+0 -12197-2 0  9992
2 69606  51.8803 248.9654 0012941 169.1773 190.9491 15.28578455 17486
KUIPER-00537            
1 69607U 26140R   26274.03014272  .00001562  00000+0  23388-3 0  9991
2 69607  51.9015 272.5540 0001191  21.6564 338.4449 14.79932461 17168
KUIPER-00538            
1 69608U 26140S   26273.72895827  .00001689  00000+0  25048-3 0  9995
2 69608  51.9022 271.4112 0000828  40.6187 319.4837 14.79929185 17156
KUIPER-00540            
1 69609U 26140T   26273.55664461  .00008786  00000+0  23774-3 0  9994
2 69609  51.8809 249.2497 0004648 312.7586  47.3009 15.38481822 17445
KUIPER-00541            
1 69610U 26140U   26274.25003472 -.00066449  00000+0 -73527-2 0  9995
2 69610  51.8990 249.0980 0008026 208.0534 158.4753 14.87191803  5286
KUIPER-00542            
1 69611U 26140V   26274.25003472 -.00025149  00000+0 -19003-2 0  9997
2 69611  51.8932 247.7446 0007047 178.5303 155.0064 15.01650260  3507
KUIPER-00543            
1 69612U 26140W   26274.25003472 -.00008441  00000+0 -10795-2 0  9993
2 69612  51.9035 254.1655 0000423 103.4996 248.1217 14.79936542  5345
KUIPER-00544            
1 69613U 26140X   26274.25003472 -.00041794  00000+0 -40659-2 0  9994
2 69613  51.8948 249.4828 0009364 205.9015 120.2933 14.92113835  3799
KUIPER-00546            
1 69614U 26140Y   26273.97864765 -.00001709  00000+0 -19510-3 0  9998
2 69614  51.9005 257.8592 0000654 103.4400 256.6636 14.79948484 17362
KUIPER-00547            
1 69615U 26140Z   26274.25003472 -.01868595  00000+0 -10522+0 0  9996
2 69615  51.8880 246.3448 0009667 180.5293 157.5798 15.16100677  5186
KUIPER-00549            
1 69616U 26140AA  26274.25003472 -.00065718  00000+0 -82693-2 0  9993
2 69616  51.9014 251.6877 0003240 133.4285  15.4989 14.81930982  5805
KUIPER-00550            
1 69617U 26140AB  26274.25003472 -.00050758  00000+0 -60801-2 0  9999
2 69617  51.9007 255.4261 0006862 294.2256 347.2818 14.83819100  3607
KUIPER-00551            
1 69618U 26140AC  26274.25003472 -.02292746  00000+0 -89953-1 0  9995
2 69618  51.8794 245.2682 0010743 184.5077 326.5003 15.28934557  5869
KUIPER-00554            
1 69619U 26140AD  26274.25003472 -.01508638  00000+0 -65866-1 0  9992
2 69619  51.8824 245.6805 0008987 192.8398 115.1181 15.24594773  4091
KUIPER-00555            
1 69620U 26140AE  26274.25003472 -.00702465  00000+0 -25273-1 0  9995
2 69620  51.8849 245.5697 0009374 187.7073 223.4453 15.30578872  5187
KUIPER-00556            
1 69621U 26140AF  26273.67220119  .00001662  00000+0  24689-3 0  9991
2 69621  51.8972 261.7123 0000549  90.1782 269.9244 14.79933946 17284
KUIPER-00557            
1 69622U 26140AG  26274.25003472 -.01980670  00000+0 -10999+0 0  9991
2 69622  51.8860 246.3150 0009532 199.8047 219.7712 15.16791388  5051
KUIPER-00560            
1 69623U 26140AH  26273.95145685  .00014654  00000+0  40501-3 0  9994
2 69623  51.8768 247.3630 0007604 227.0230 133.0120 15.37243953 17506
KUIPER-00561            
1 69624U 26140AJ  26274.00446186  .00001596  00000+0  23827-3 0  9995
2 69624  51.9010 265.2223 0000661  71.9052 288.1982 14.79938174 17261
KUIPER-00564            
1 69625U 26140AK  26273.70328816  .00001643  00000+0  24452-3 0  9999
2 69625  51.8971 264.0580 0000686 101.7817 258.3223 14.79923029 17257
KUIPER-00567            
1 69626U 26140AL  26273.97608987  .00001576  00000+0  23569-3 0  9992
2 69626  51.8974 260.3695 0000915 170.7548 189.3432 14.79925037 17323
KUIPER-00573            
1 69627U 26140AM  26274.00717881  .00005049  00000+0  69099-3 0  9999
2 69627  51.9008 262.7466 0000578  80.0773 280.0254 14.79918023 17297
KUIPER-00258            
1 69763U 26151A   26274.25003472 -.00047954  00000+0 -62467-2 0  9997
2 69763  51.8957 171.6531 0000727  70.8260 345.6759 14.80329394  4647
KUIPER-00526            
1 69764U 26151B   26274.07116910  .00001753  00000+0  25893-3 0  9998
2 69764  51.8990 187.5196 0000958  95.5073 264.5999 14.79930762 13662
KUIPER-00558            
1 69765U 26151C   26274.03738127  .00000588  00000+0  10614-3 0  9995
2 69765  51.8974 187.5904 0000243 205.8274 154.2676 14.79945717 13661
KUIPER-00569            
1 69766U 26151D   26272.97651794  .00001963  00000+0  28648-3 0  9995
2 69766  51.9006 189.7769 0000829  88.6350 271.4708 14.79926126 13542
KUIPER-00589            
1 69767U 26151E   26274.05832620  .00001034  00000+0  17754-3 0  9991
2 69767  51.9009 188.3143 0003165  90.3425 269.7899 14.76548997 13652
KUIPER-00598            
1 69768U 26151F   26274.01174614  .00000154  00000+0  49256-4 0  9995
2 69768  51.9009 180.2145 0000775  95.0580 265.0471 14.79930036 13763
KUIPER-00604            
1 69769U 26151G   26272.97921525  .00000182  00000+0  52937-4 0  9991
2 69769  51.9016 187.2787 0000684  76.3284 283.7755 14.79932152 13575
KUIPER-00609            
1 69770U 26151H   26274.25003472  .00017857  00000+0  23663-2 0  9997
2 69770  51.8993 179.1572 0001328  51.1578  49.4778 14.79913442  1306
KUIPER-00611            
1 69771U 26151J   26274.02592550  .00001741  00000+0  25735-3 0  9991
2 69771  51.8984 182.6303 0001020  87.4771 272.6308 14.79933074 13736
KUIPER-00612            
1 69772U 26151K   26273.46611555  .00006777  00000+0  91749-3 0  9998
2 69772  51.9012 187.6305 0001181 130.6167 229.4898 14.79913379 13612
KUIPER-00614            
1 69773U 26151L   26274.00903937  .00000506  00000+0  95403-4 0  9994
2 69773  51.8981 182.7739 0001058  96.5438 263.5644 14.79932140 13725
KUIPER-00615            
1 69774U 26151M   26273.95299357  .00001850  00000+0  27164-3 0  9993
2 69774  51.9015 187.9091 0000842 121.8373 238.2672 14.79933788 13654
KUIPER-00616            
1 69775U 26151N   26274.00311039  .00008370  00000+0  11260-2 0  9996
2 69775  51.8998 172.7580 0001239 106.8745 253.2353 14.79918658 13861
KUIPER-00617            
1 69776U 26151P   26273.93003195 -.00000079  00000+0  18644-4 0  9993
2 69776  51.9006 178.0760 0000507  96.7324 263.3696 14.79928062 13782
KUIPER-00619            
1 69777U 26151Q   26273.97314935  .00001009  00000+0  17371-3 0  9993
2 69777  51.9011 180.3879 0001027 173.3656 186.7319 14.76597018 13751
KUIPER-00621            
1 69778U 26151R   26273.16492532  .00002033  00000+0  29561-3 0  9997
2 69778  51.9008 186.4549 0000694  90.2522 269.8519 14.79929589 13601
KUIPER-00622            
1 69779U 26151S   26273.50588677  .00001047  00000+0  17945-3 0  9999
2 69779  51.9008 189.1530 0001651  90.1666 269.9484 14.76517723 13594
KUIPER-00623            
1 69780U 26151T   26273.97257914  .00001626  00000+0  24222-3 0  9998
2 69780  51.8976 185.3930 0001035 115.1067 245.0003 14.79933508 13688
KUIPER-00626            
1 69781U 26151U   26273.92733042  .00000464  00000+0  89865-4 0  9999
2 69781  51.8974 180.5587 0000931 120.4185 239.6870 14.79929178 13753
KUIPER-00627            
1 69782U 26151V   26274.03401786  .00001795  00000+0  26437-3 0  9993
2 69782  51.9006 175.1188 0001085 124.4500 235.6565 14.79936780 13837
KUIPER-00629            
1 69783U 26151W   26274.05158720  .00001645  00000+0  24479-3 0  9991
2 69783  51.9014 189.9765 0000893  94.4226 265.6838 14.79934052 13632
KUIPER-00631            
1 69784U 26151X   26274.06847936  .00001748  00000+0  25826-3 0  9998
2 69784  51.9000 189.9601 0000562 107.0945 253.0079 14.79928026 13631
KUIPER-00634            
1 69785U 26151Y   26273.48299721  .00001937  00000+0  28304-3 0  9991
2 69785  51.9001 187.5536 0000845  99.8469 260.2589 14.79928002 13615
KUIPER-00639            
1 69786U 26151Z   26273.93288836  .00007632  00000+0  10272-2 0  9999
2 69786  51.9012 175.5492 0000731  81.4378 278.6668 14.80008524 13820
KUIPER-00641            
1 69787U 26151AA  26273.98066566  .00000572  00000+0  10412-3 0  9992
2 69787  51.9003 177.8573 0001794 141.7974 218.3116 14.79926754 13795
KUIPER-00644            
1 69788U 26151AB  26274.25003472 -.00059478  00000+0 -71562-2 0  9994
2 69788  51.8967 169.2174 0004776 123.2670  72.9241 14.83727293  4703
KUIPER-00646            
1 69789U 26151AC  26274.01444680  .00001898  00000+0  27791-3 0  9996
2 69789  51.8996 177.7915 0000665  92.4027 267.7012 14.79931863 13793
KUIPER-00647            
1 69790U 26151AD  26274.01628500  .00001000  00000+0  17262-3 0  9990
2 69790  51.9002 177.4850 0002442 355.1288   4.9649 14.76545365 13806
KUIPER-00662            
1 69791U 26151AE  26274.03471349 -.00000167  00000+0  71627-5 0  9991
2 69791  51.9016 190.1059 0000986  79.2432 280.8642 14.79930145 13626
