GLOBALSTAR M069         
1 31573U 07020C   26283.29056189 -.00000083  00000+0  89518-4 0  9995
2 31573  52.0029 286.3377 0002021  26.6038 346.9682 12.23475316892893
GLOBALSTAR M072         
1 31574U 07020D   26282.97543441 -.00000045  00000+0  53182-3 0  9997
2 31574  51.9911 154.6476 0001395 131.3409 333.7105 11.91660403888669
GLOBALSTAR M066         
1 32265U 07048C   26282.77145537 -.00000099  00000+0 -40191-4 0  9994
2 32265  51.9574  88.9704 0003800 282.7610  90.6144 12.30390367874337
GLOBALSTAR M079         
1 37188U 10054A   26282.02574321 -.00000081  00000+0  12823-3 0  9999
2 37188  52.0016 122.1285 0000659  96.4698  68.1283 12.62262941736926
GLOBALSTAR M074         
1 37189U 10054B   26283.32080264 -.00000088  00000+0  86362-4 0  9999
2 37189  51.9994 117.4349 0000868  79.1841  92.1721 12.62263596737694
GLOBALSTAR M076         
1 37190U 10054C   26283.26803735 -.00000061  00000+0  23770-3 0  9994
2 37190  52.0009 117.8088 0000644  74.9645  96.5695 12.62264437737408
GLOBALSTAR M077         
1 37191U 10054D   26283.63923829 -.00000077  00000+0  18524-4 0  9992
2 37191  51.9944 246.2603 0003204  30.7562 140.2050 11.67547685734624
GLOBALSTAR M075         
1 37192U 10054E   26283.43936317 -.00000069  00000+0  19387-3 0  9995
2 37192  51.9931 159.2774 0000889  81.9665  89.2478 12.62261182736495
GLOBALSTAR M073         
1 37193U 10054F   26283.20207163 -.00000111  00000+0 -40731-4 0  9998
2 37193  52.0055  74.1834 0000547 107.0226  64.7870 12.62268524738450
GLOBALSTAR M083         
1 37739U 11033A   26283.57651890 -.00000104  00000+0 -38612-6 0  9991
2 37739  51.9882  21.1171 0000261 120.0311 253.8796 12.62269387707521
GLOBALSTAR M088         
1 37740U 11033B   26283.31242078 -.00000091  00000+0  71165-4 0  9991
2 37740  52.0213 288.6279 0000381  68.3157 305.5781 12.62270832703035
GLOBALSTAR M091         
1 37741U 11033C   26283.10284436 -.00000112  00000+0 -43355-4 0  9998
2 37741  51.9989 252.0627 0000383  75.7647   4.6283 12.62265210703795
GLOBALSTAR M085         
1 37742U 11033D   26283.50585189 -.00000089  00000+0  80743-4 0  9996
2 37742  52.0117 202.2284 0000552  78.7472  93.7255 12.62265614704353
GLOBALSTAR M081         
1 37743U 11033E   26283.53191652 -.00000104  00000+0 -12816-5 0  9994
2 37743  51.9950 204.4528 0000629  58.8891 112.5660 12.62266648704506
GLOBALSTAR M089         
1 37744U 11033F   26283.00308115 -.00000079  00000+0  13834-3 0  9990
2 37744  51.9915 160.2012 0001004  63.4134  44.5783 12.62264040705285
GLOBALSTAR M084         
1 38040U 11080A   26282.60259569 -.00000109  00000+0 -28962-4 0  9999
2 38040  52.0033  28.9592 0000494  82.6809 304.6137 12.62264143683210
GLOBALSTAR M080         
1 38041U 11080B   26283.60079874 -.00000110  00000+0 -33699-4 0  9995
2 38041  52.0083  27.6813 0000940 125.0506 248.6167 12.62268647683460
GLOBALSTAR M082         
1 38042U 11080C   26283.45912303 -.00000078  00000+0  14379-3 0  9997
2 38042  52.0103 343.6263 0000429 140.3700 240.7159 12.62262918684158
GLOBALSTAR M092         
1 38043U 11080D   26282.91018913 -.00000097  00000+0  38705-4 0  9993
2 38043  52.0075  75.6958 0000804  98.4570  66.7239 12.62266706682539
GLOBALSTAR M090         
1 38044U 11080E   26283.40464646 -.00000076  00000+0  15360-3 0  9995
2 38044  52.0147 337.7840 0000328 149.3777 223.5226 12.62268298684267
GLOBALSTAR M086         
1 38045U 11080F   26282.90484887 -.00000090  00000+0  75014-4 0  9998
2 38045  51.9918 339.0444 0000750 313.9628 217.0003 12.62289409684145
GLOBALSTAR M097         
1 39072U 13005A   26283.61294392 -.00000121  00000+0 -96013-4 0  9995
2 39072  52.0040 251.9656 0000320  69.3136 290.7765 12.62271649631489
GLOBALSTAR M093         
1 39073U 13005B   26283.58651085 -.00000114  00000+0 -59240-4 0  9991
2 39073  52.0097 245.4407 0000203  46.4503 313.6381 12.62267530631436
GLOBALSTAR M094         
1 39074U 13005C   26283.34891551 -.00000072  00000+0  17587-3 0  9999
2 39074  51.9987 160.1652 0000688  89.6280 270.4666 12.62266154633019
GLOBALSTAR M096         
1 39075U 13005D   26283.52060542 -.00000099  00000+0  26223-4 0  9995
2 39075  52.0068 208.5342 0000537  80.0529 280.0398 12.62264693631955
GLOBALSTAR M078         
1 39076U 13005E   26283.17746586 -.00000094  00000+0  54063-4 0  9994
2 39076  51.9872 293.4360 0001077 140.2230 219.8715 12.62260937630531
GLOBALSTAR M095         
1 39077U 13005F   26283.28312480 -.00000092  00000+0  66165-4 0  9993
2 39077  52.0077 290.8785 0000378 147.0885 213.0005 12.62264983630406
GLOBALSTAR M087         
1 52888U 22064A   26282.82116183 -.00000109  00000+0 -29383-4 0  9995
2 52888  51.9991  73.4542 0000707 118.9800 241.1138 12.62263290205610
