EUTELSAT 174A           
1 28924U 05052A   26278.20873119 -.00000005  00000+0  00000+0 0  9997
2 28924   4.4919  75.0986 0006135 120.5818  67.3554  1.00271503 53433
EUTELSAT 33F            
1 29270U 06032A   26278.18082441  .00000140  00000+0  00000+0 0  9997
2 29270   1.9399  80.8252 0003396 115.6869 275.5521  1.00271158 48414
EUTELSAT HOTBIRD 13C    
1 33459U 08065A   26278.20890185 -.00000297  00000+0  00000+0 0  9998
2 33459   3.2274  77.7857 0003870 126.2244 194.8167  1.00270521 48448
EUTELSAT 36B            
1 36101U 09065A   26278.18429109  .00000096  00000+0  00000+0 0  9993
2 36101   0.7631  80.9901 0005829 115.5851 294.1511  1.00273208 61819
EUTELSAT KA-SAT 9A      
1 37258U 10069A   26278.21086355  .00000045  00000+0  00000+0 0  9993
2 37258   0.0783 355.2181 0005116 174.0839 289.5442  1.00272160 45119
EUTELSAT 7 WEST A       
1 37816U 11051A   26278.26780965 -.00000077  00000+0  00000+0 0  9994
2 37816   0.0672 349.5506 0006491 200.8177 272.6965  1.00271027 54982
EUTELSAT 16A            
1 37836U 11057A   26278.26225199 -.00000024  00000+0  00000+0 0  9997
2 37836   0.1439  70.0156 0005805 124.4766 279.2877  1.00022641  8447
EUTELSAT 21B            
1 38992U 12062B   26278.24981139  .00000114  00000+0  00000+0 0  9998
2 38992   0.0709   8.9022 0002885 181.9433 294.6384  1.00273790 50934
EUTELSAT 70B            
1 39020U 12069A   26278.08655943 -.00000060  00000+0  00000+0 0  9992
2 39020   0.0653   0.6061 0003789 192.4147 282.4294  1.00271473 50616
EUTELSAT 117 WEST A     
1 39122U 13012A   26278.14147346 -.00000029  00000+0  00000+0 0  9999
2 39122   0.0462  40.1743 0002902 155.7309 112.0620  1.00270918 49534
EUTELSAT 7B             
1 39163U 13022A   26277.89239638  .00000088  00000+0  00000+0 0  9996
2 39163   0.0697  10.9242 0002878 103.7107 236.2266  1.00273087 49040
EXPRESS-AT1             
1 39612U 14010A   26278.11851079 -.00000145  00000+0  00000+0 0  9993
2 39612   0.5340  84.0707 0004840  95.7716 314.9316  1.00313949 45929
EXPRESS-AT2             
1 39613U 14010B   26277.71872373  .00000000  00000+0  00000+0 0  9998
2 39613   0.0228 196.2574 0000312  31.9803  99.9099  1.00264120 45594
EUTELSAT 3B             
1 39773U 14030A   26278.26225199  .00000003  00000+0  00000+0 0  9999
2 39773   0.0645   3.6316 0004257 192.0750 275.7580  1.00270665 45175
EUTELSAT 115 WEST B     
1 40425U 15010B   26277.61247190 -.00000040  00000+0  00000+0 0  9999
2 40425   0.0100  57.1779 0000370  64.6905 357.0432  1.00271587 42487
EUTELSAT 8 WEST B       
1 40875U 15039B   26278.26780965 -.00000082  00000+0  00000+0 0  9999
2 40875   0.0687   9.0006 0003628 185.4436 267.9271  1.00271920 40765
EUTELSAT 9B             
1 41310U 16005A   26278.21086355  .00000045  00000+0  00000+0 0  9993
2 41310   0.0602  62.4913 0003475 166.6407 229.6772  1.00270838 39223
EUTELSAT 65 WEST A      
1 41382U 16014A   26278.20102615 -.00000293  00000+0  00000+0 0  9995
2 41382   0.0773 309.1504 0002274 250.3084 181.6166  1.00270083 38625
EUTELSAT 117 WEST B     
1 41589U 16038B   26278.18234861 -.00000029  00000+0  00000+0 0  9993
2 41589   0.0140  46.9856 0000217  65.3003 210.2516  1.00274206 37761
EUTELSAT 172B           
1 42741U 17029B   26278.20838453 -.00000022  00000+0  00000+0 0  9998
2 42741   0.0263 138.5663 0000191 171.7826 310.5940  1.00272086 34854
EUTELSAT 7C             
1 44334U 19034B   26277.26572392  .00000034  00000+0  00000+0 0  9990
2 44334   0.0668 182.2564 0003190 359.1903 294.1846  1.00270396  7921
EUTELSAT 5 WEST B       
1 44624U 19067A   26278.26780965 -.00000059  00000+0  00000+0 0  9994
2 44624   0.0647   7.7141 0003193 190.5697 267.0969  1.00271921 25539
EUTELSAT KONNECT        
1 45027U 20005B   26277.60550032  .00000034  00000+0  00000+0 0  9995
2 45027   0.0686  96.3049 0001976 120.3349  21.8731  1.00265844 25432
EUTELSAT QUANTUM        
1 49056U 21069B   26277.66645569  .00000111  00000+0  00000+0 0  9994
2 49056   0.0306  51.8187 0002364 147.7665 101.4095  1.00271676 19028
EUTELSAT KONNECT VHTS   
1 53765U 22110A   26277.60463365  .00000001  00000+0  00000+0 0  9998
2 53765   0.0559 101.0309 0002351  75.7864  56.8515  1.00268312  7931
EUTELSAT HOTBIRD 13F    
1 54048U 22134A   26277.60662699  .00000072  00000+0  00000+0 0  9998
2 54048   0.0604 286.5976 0001763  59.2863 258.8152  1.00273079 14472
EUTELSAT HOTBIRD 13G    
1 54225U 22146A   26277.13517197  .00000073  00000+0  00000+0 0  9999
2 54225   0.0481 237.1675 0001968 311.9219 245.4205  1.00269158  8556
EUTELSAT 10B            
1 54259U 22157A   26277.53469332  .00000053  00000+0  00000+0 0  9997
2 54259   0.0568  97.8494 0001386  35.3728  82.5399  1.00269310 14129
EUTELSAT 36D            
1 59346U 24059A   26277.53989334  .00000141  00000+0  00000+0 0  9999
2 59346   0.0028 171.6495 0000280  48.4906  23.3421  1.00270415  9243
