EUTELSAT 174A           
1 28924U 05052A   26273.59141832  .00000011  00000+0  00000+0 0  9990
2 28924   4.4791  75.1555 0006216 115.8320 205.2764  1.00270565 53386
EUTELSAT 33F            
1 29270U 06032A   26273.83300095  .00000156  00000+0  00000+0 0  9999
2 29270   1.9273  80.8847 0003470 108.6029 153.0997  1.00269022 48366
EUTELSAT HOTBIRD 13C    
1 33459U 08065A   26273.38888703 -.00000280  00000+0  00000+0 0  9997
2 33459   3.2137  77.8444 0003926 122.0258 259.0014  1.00270383 48407
EUTELSAT 36B            
1 36101U 09065A   26273.97891865  .00000112  00000+0  00000+0 0  9996
2 36101   0.7511  81.0013 0005886 110.7650 220.8709  1.00271496 61765
EUTELSAT KA-SAT 9A      
1 37258U 10069A   26273.54303087  .00000063  00000+0  00000+0 0  9998
2 37258   0.0763 356.1120 0005104 165.2927  52.4027  1.00273420 45067
EUTELSAT 7 WEST A       
1 37816U 11051A   26273.82502758 -.00000060  00000+0  00000+0 0  9995
2 37816   0.0713 338.2966 0006576 208.6685 112.3321  1.00270786 54939
EUTELSAT 16A            
1 37836U 11057A   26273.68584031  .00000023  00000+0  00000+0 0  9999
2 37836   0.1318  69.0377 0005612 115.2491  81.5841  1.00021914  8396
EUTELSAT 21B            
1 38992U 12062B   26273.90206582  .00000130  00000+0  00000+0 0  9996
2 38992   0.0695   0.3489 0002902 181.9758 173.6661  1.00271864 50889
EUTELSAT 70B            
1 39020U 12069A   26273.91168587 -.00000044  00000+0  00000+0 0  9994
2 39020   0.0650 351.2153 0003865 199.0768 218.0930  1.00273458 50568
EUTELSAT 117 WEST A     
1 39122U 13012A   26273.66079354 -.00000012  00000+0  00000+0 0  9996
2 39122   0.0381  41.3414 0003073 157.7335 291.4470  1.00272389 49497
EUTELSAT 7B             
1 39163U 13022A   26273.90093916  .00000104  00000+0  00000+0 0  9990
2 39163   0.0681   3.0133 0003219 111.3202 235.6604  1.00271538 49000
EXPRESS-AT1             
1 39612U 14010A   26273.98444133 -.00000123  00000+0  00000+0 0  9998
2 39612   0.5223  84.1644 0004893  92.0574 265.5828  1.00314487 45871
EXPRESS-AT2             
1 39613U 14010B   26273.91592605  .00000078  00000+0  00000+0 0  9998
2 39613   0.0170 222.7289 0000438 252.2030 280.4747  1.00270763 45550
EUTELSAT 3B             
1 39773U 14030A   26273.89842581  .00000020  00000+0  00000+0 0  9992
2 39773   0.0660 353.4189 0004536 197.1625 145.6252  1.00272817 45120
EUTELSAT 115 WEST B     
1 40425U 15010B   26273.87494781 -.00000025  00000+0  00000+0 0  9996
2 40425   0.0229  40.8991 0000343  67.1413 101.6735  1.00272748 42441
EUTELSAT 8 WEST B       
1 40875U 15039B   26273.89617247 -.00000066  00000+0  00000+0 0  9997
2 40875   0.0672   0.2926 0003602 188.7374 135.2393  1.00271691 40714
EUTELSAT 9B             
1 41310U 16005A   26273.61442668  .00000063  00000+0  00000+0 0  9995
2 41310   0.0508  55.7572 0003353 172.0977  11.7370  1.00273641 39175
EUTELSAT 65 WEST A      
1 41382U 16014A   26273.88481910 -.00000276  00000+0  00000+0 0  9993
2 41382   0.0862 303.0510 0002335 249.6148  70.3328  1.00271732 38585
EUTELSAT 117 WEST B     
1 41589U 16038B   26273.66079354 -.00000011  00000+0  00000+0 0  9996
2 41589   0.0147  61.2960 0000418  32.9555  36.0415  1.00271646 37722
EUTELSAT 172B           
1 42741U 17029B   26273.86056108 -.00000006  00000+0  00000+0 0  9996
2 42741   0.0234 144.7246 0000119  85.4444 261.2682  1.00271064 34811
EUTELSAT 7C             
1 44334U 19034B   26273.11510587  .00000051  00000+0  00000+0 0  9997
2 44334   0.0667 182.4736 0003272 354.8536 239.9987  1.00270589  7880
EUTELSAT 5 WEST B       
1 44624U 19067A   26273.89677914 -.00000042  00000+0  00000+0 0  9999
2 44624   0.0649 358.2172 0003256 195.7569 133.5271  1.00271486 25487
EUTELSAT KONNECT        
1 45027U 20005B   26273.25530889  .00000051  00000+0  00000+0 0  9999
2 45027   0.0673  96.5474 0001848 137.1289 234.4851  1.00269097 25393
EUTELSAT QUANTUM        
1 49056U 21069B   26273.47954076  .00000127  00000+0  00000+0 0  9992
2 49056   0.0038 192.7222 0002441  10.1054  26.7693  1.00272694 18984
EUTELSAT KONNECT VHTS   
1 53765U 22110A   26273.25680647  .00000019  00000+0  00000+0 0  9998
2 53765   0.0539 103.2015 0002476  68.0025 292.9875  1.00267548  7896
EUTELSAT HOTBIRD 13F    
1 54048U 22134A   26273.90033249  .00000087  00000+0  00000+0 0  9996
2 54048   0.0617 284.8858 0002040  69.3751 352.5155  1.00270878 14438
EUTELSAT HOTBIRD 13G    
1 54225U 22146A   26273.90033249  .00000087  00000+0  00000+0 0  9996
2 54225   0.0498 236.9013 0002030 307.2192 162.6592  1.00271046  8521
EUTELSAT 10B            
1 54259U 22157A   26273.89972582  .00000068  00000+0  00000+0 0  9994
2 54259   0.0564  98.4575 0001208  30.1934 214.9446  1.00270233 14082
EUTELSAT 36D            
1 59346U 24059A   26273.69104034  .00000156  00000+0  00000+0 0  9994
2 59346   0.0161 190.0495 0000317  50.0113  54.0419  1.00272600  9208
