KUIPER-00008            
1 63724U 25088A   26258.22474367 -.00000216  00000+0  65461-6 0  9990
2 63724  51.9023 329.8841 0000433 100.7389 259.3623 14.79924205 76115
KUIPER-00009            
1 63725U 25088B   26258.62604644  .00006536  00000+0  43760-3 0  9993
2 63725  51.9040 336.4080 0000409 103.2104 256.8917 15.08023851 76051
KUIPER-00010            
1 63726U 25088C   26258.60157131 -.00000478  00000+0 -33726-4 0  9999
2 63726  51.9033 323.3299 0000425  79.6224 280.4786 14.79927287 75855
KUIPER-00011            
1 63727U 25088D   26258.22207212 -.00000466  00000+0 -32133-4 0  9992
2 63727  51.9036 332.5510 0000294  55.3466 304.7524 14.79926066 75821
KUIPER-00012            
1 63728U 25088E   26258.60965533 -.00000667  00000+0 -58504-4 0  9995
2 63728  51.9022 315.7759 0000333  47.2436 312.8554 14.79924922 76043
KUIPER-00013            
1 63729U 25088F   26258.27071542 -.00000066  00000+0  20360-4 0  9998
2 63729  51.9036 349.7928 0000324  62.2000 297.8995 14.79930321 75644
KUIPER-00014            
1 63730U 25088G   26257.56163926  .00001165  00000+0  18176-3 0  9990
2 63730  51.9038 352.8732 0000325  94.2910 265.8090 14.79927624 75353
KUIPER-00015            
1 63731U 25088H   26258.32745652  .00000966  00000+0  15574-3 0  9995
2 63731  51.9014 359.5325 0000378 113.2162 246.8840 14.79927299 75786
KUIPER-00016            
1 63732U 25088J   26258.30177761  .00001590  00000+0  23746-3 0  9998
2 63732  51.9028 352.1057 0000269 111.0220 249.0771 14.79930774 75424
KUIPER-00018            
1 63733U 25088K   26258.61645444 -.00000326  00000+0 -13781-4 0  9998
2 63733  51.9052 340.7605 0000096 165.2429 194.8536 14.79926684 75616
KUIPER-00019            
1 63734U 25088L   26258.50806558  .00001122  00000+0  17620-3 0  9990
2 63734  51.9024 339.9854 0000212 116.9052 243.1932 14.79926738 75615
KUIPER-00020            
1 63735U 25088M   26258.61375697  .00000985  00000+0  15822-3 0  9996
2 63735  51.9041 343.2681 0000400  84.7000 275.4008 14.79928858 75780
KUIPER-00021            
1 63736U 25088N   26258.24233641  .00000524  00000+0  97753-4 0  9991
2 63736  51.9037 344.8589 0000178 113.0108 247.0873 14.79929014 75563
KUIPER-00023            
1 63737U 25088P   26258.61104488  .00000979  00000+0  15740-3 0  9998
2 63737  51.9027 345.7196 0000522  73.1397 286.9623 14.79924766 75885
KUIPER-00024            
1 63738U 25088Q   26258.62455461 -.00000455  00000+0 -30682-4 0  9994
2 63738  51.9055 333.2741 0000442  84.1487 275.9526 14.79925304 76181
KUIPER-00025            
1 63739U 25088R   26258.51516469 -.00000226  00000+0 -62886-6 0  9998
2 63739  51.9059 341.2389 0000492  89.0495 271.0524 14.79930288 75924
KUIPER-00027            
1 63740U 25088S   26258.62184970  .00000036  00000+0  33727-4 0  9997
2 63740  51.9046 335.7254 0000596  91.7658 268.3373 14.79933571 75746
KUIPER-00028            
1 63741U 25088T   26258.59077527 -.00000360  00000+0 -18237-4 0  9994
2 63741  51.9016 333.3040 0000254 121.7211 238.3776 14.79926107 76181
KUIPER-00029            
1 63742U 25088U   26258.22912267  .00000970  00000+0  15620-3 0  9991
2 63742  51.9048 333.5996 0000018 274.5783  85.5177 14.79923583 75673
KUIPER-00030            
1 63743U 25088V   26258.53813052  .00000854  00000+0  14105-3 0  9996
2 63743  51.9042 351.0530 0000272 103.5844 256.5149 14.79930972 75745
KUIPER-00031            
1 63744U 25088W   26258.52055439 -.00000063  00000+0  20790-4 0  9994
2 63744  51.9026 336.1543 0000326 109.7104 250.3894 14.79930424 75665
KUIPER-00032            
1 63745U 25088X   26258.21959000  .00015785  00000+0  36697-3 0  9996
2 63745  51.8661 183.9492 0005304  76.6684 283.4896 15.42488747 78756
KUIPER-00033            
1 63746U 25088Y   26258.28559111  .00002944  00000+0  41501-3 0  9996
2 63746  51.9019   7.1909 0000370  97.4211 262.6793 14.79934537 75697
KUIPER-00034            
1 63747U 25088Z   26258.59612063  .00001933  00000+0  28233-3 0  9991
2 63747  51.9051 328.3575 0000630  84.2564 275.8470 14.79959570 75945
KUIPER-00035            
1 63748U 25088AA  26258.63672275  .00001378  00000+0  20968-3 0  9998
2 63748  51.9025 353.1409 0000390  94.1076 265.9931 14.79928428 75658
KUIPER-00037            
1 63749U 25088AB  26257.68423922 -.00000054  00000+0  21946-4 0  9995
2 63749  51.9026 356.2139 0000508 100.3113 259.7907 14.79928083 76312
KUIPER-00038            
1 63750U 25088AC  26258.21397322  .00000969  00000+0  15610-3 0  9995
2 63750  51.9039 340.0448 0000573 107.2345 252.8681 14.79920107 75587
KUIPER-00039            
1 64500U 25134A   26258.32159177  .00001456  00000+0  22002-3 0  9992
2 64500  51.9006 114.5664 0000876 104.6513 255.4546 14.79932626 68156
KUIPER-00040            
1 64501U 25134B   26258.61470826  .00002504  00000+0  35731-3 0  9990
2 64501  51.8973 123.3299 0001164 101.6917 258.4177 14.79934250 68054
KUIPER-00041            
1 64502U 25134C   26258.37563950  .00000684  00000+0  11875-3 0  9995
2 64502  51.8994 126.7798 0000845  94.5490 265.5569 14.79928811 67981
KUIPER-00042            
1 64503U 25134D   26257.67196111  .00002411  00000+0  34518-3 0  9998
2 64503  51.8978 124.8673 0000826 109.2718 250.8333 14.79932529 67955
KUIPER-00043            
1 64504U 25134E   26258.62547865  .00002461  00000+0  35170-3 0  9991
2 64504  51.9015 113.1653 0000756 104.4645 255.6402 14.79932305 68207
KUIPER-00044            
1 64505U 25134F   26257.66657474  .00000029  00000+0  32803-4 0  9992
2 64505  51.8968 129.8949 0000901 103.9792 256.1270 14.79928598 67886
KUIPER-00046            
1 64506U 25134G   26258.64845447  .00002219  00000+0  31996-3 0  9995
2 64506  51.8977 123.0250 0000999 100.4245 259.6830 14.79929190 68060
KUIPER-00047            
1 64507U 25134H   26258.57682940  .00002239  00000+0  32274-3 0  9997
2 64507  51.8982  95.8698 0000728 109.2643 250.8398 14.79923264 68437
KUIPER-00048            
1 64508U 25134J   26258.54303049  .00000662  00000+0  11586-3 0  9996
2 64508  51.9000  96.0317 0000839 103.9214 256.1842 14.79919795 68436
KUIPER-00049            
1 64509U 25134K   26258.02308889  .00002767  00000+0  39175-3 0  9999
2 64509  51.8993 110.8035 0000768 106.4219 253.6828 14.79939201 68185
KUIPER-00050            
1 64510U 25134L   26257.83938032  .00002727  00000+0  38658-3 0  9999
2 64510  51.8999  94.1359 0000719 110.4056 249.6983 14.79926911 68402
KUIPER-00051            
1 64511U 25134M   26258.60688378  .00000877  00000+0  14404-3 0  9998
2 64511  51.9012 106.9184 0000780 110.4301 249.6745 14.79934346 68282
KUIPER-00053            
1 64513U 25134P   26258.55196652  .00001544  00000+0  22240-3 0  9992
2 64513  51.8993 101.6253 0002530 105.3082 254.8161 14.81711635 68359
KUIPER-00054            
1 64514U 25134Q   26257.93259078  .00000617  00000+0  10999-3 0  9994
2 64514  51.8984 101.2062 0001019 110.2760 249.8312 14.79928493 68309
KUIPER-00055            
1 64515U 25134R   26257.81501359  .00002882  00000+0  40686-3 0  9996
2 64515  51.9023  54.3759 0000578 110.9475 249.1549 14.79937122 68950
KUIPER-00056            
1 64516U 25134S   26258.02851187  .00002415  00000+0  34565-3 0  9999
2 64516  51.9025 105.8992 0001028 108.2159 251.8915 14.79936924 68253
KUIPER-00057            
1 64517U 25134T   26258.62817663  .00002249  00000+0  32396-3 0  9992
2 64517  51.8986 110.6615 0000796 106.2532 253.8518 14.79933140 68235
KUIPER-00058            
1 64518U 25134U   26258.59980126 -.00000306  00000+0 -11150-4 0  9994
2 64518  51.9007 105.7661 0000835 103.9997 256.1058 14.79926814 68303
KUIPER-00059            
1 64519U 25134V   26258.06494575  .00007506  00000+0  10118-2 0  9993
2 64519  51.8990 103.1637 0000842 119.3106 240.7941 14.79963386 68293
KUIPER-00060            
1 64520U 25134W   26258.30132282 -.00000046  00000+0  22990-4 0  9992
2 64520  51.9012 102.1990 0000962 100.3789 259.7282 14.79927527 68310
KUIPER-00061            
1 64521U 25134X   26258.32698865  .00002706  00000+0  38376-3 0  9997
2 64521  51.8994 109.5266 0000939 110.3546 249.7517 14.79939765 68218
KUIPER-00062            
1 64522U 25134Y   26258.59440359  .00000568  00000+0  10346-3 0  9991
2 64522  51.8938 110.7925 0000962 110.2028 249.9038 14.79930356 68232
KUIPER-00063            
1 64523U 25134Z   26258.65386055  .00002333  00000+0  33488-3 0  9995
2 64523  51.9014 118.1240 0000704 100.2187 259.8855 14.79935697 68139
KUIPER-00064            
1 64524U 25134AA  26258.31888765 -.00004579  00000+0 -57177-3 0  9991
2 64524  51.9041 117.0311 0001286 101.8361 258.2746 14.79948843 68122
KUIPER-00065            
1 64525U 25134AB  26258.65117226  .00002423  00000+0  34675-3 0  9998
2 64525  51.9028 120.7374 0000781 104.6715 255.4335 14.79934968 68082
KUIPER-00066            
1 64526U 25134AC  26258.48219744  .00002691  00000+0  38190-3 0  9991
2 64526  51.9020  58.7492 0000727 140.2265 219.8751 14.79931555 68953
KUIPER-00069            
1 64816U 25151A   26257.73013164  .00000968  00000+0  15591-3 0  9992
2 64816  51.9016 164.7168 0000819  98.1827 261.9228 14.79933520 64750
KUIPER-00070            
1 64817U 25151B   26258.20963242  .00000358  00000+0  76032-4 0  9998
2 64817  51.8996 187.4952 0001157  76.7597 283.3494 14.79928572 64486
KUIPER-00071            
1 64818U 25151C   26258.48245430  .00001905  00000+0  27885-3 0  9991
2 64818  51.9010 183.8356 0000707  94.3272 265.7771 14.79930671 63371
KUIPER-00072            
1 64819U 25151D   26258.47024208  .00001161  00000+0  18132-3 0  9998
2 64819  51.8945 163.8122 0001209  73.3500 286.7595 14.79934411 63650
KUIPER-00073            
1 64820U 25151E   26258.24609550  .00003464  00000+0  48316-3 0  9999
2 64820  51.8996 184.8583 0001015  63.7062 296.4005 14.79933923 64521
KUIPER-00075            
1 64822U 25151G   26258.36972489  .00035088  00000+0  90740-3 0  9993
2 64822  51.8657  16.8431 0002892 217.1446 142.9341 15.38758927 65689
KUIPER-00076            
1 64823U 25151H   26258.05429147  .00000193  00000+0  54304-4 0  9994
2 64823  51.9001 175.7304 0000854  83.3993 276.7066 14.79926533 63451
KUIPER-00077            
1 64824U 25151J   26258.04889622  .00002944  00000+0  41496-3 0  9995
2 64824  51.9018 180.7762 0000956  76.5963 283.5106 14.79932311 63382
KUIPER-00078            
1 64825U 25151K   26258.49053775  .00001732  00000+0  25614-3 0  9995
2 64825  51.8997 176.2954 0001096  85.9590 274.1497 14.79931834 63486
KUIPER-00079            
1 64826U 25151L   26257.77607705  .00002612  00000+0  37150-3 0  9990
2 64826  51.8984 184.4083 0001192  73.3243 286.7850 14.79936632 64507
KUIPER-00080            
1 64827U 25151M   26257.53972111  .00000583  00000+0  10544-3 0  9994
2 64827  51.9000 185.4682 0000810  89.5499 270.5556 14.79929509 63274
KUIPER-00082            
1 64828U 25151N   26258.19474555  .00001406  00000+0  21340-3 0  9998
2 64828  51.8999 170.1331 0000930  87.2734 272.8335 14.79930312 63547
KUIPER-00083            
1 64829U 25151P   26258.18666018  .00000368  00000+0  77303-4 0  9992
2 64829  51.9015 177.6510 0001067  68.2385 291.8690 14.79931699 64626
KUIPER-00084            
1 64830U 25151Q   26258.17586808  .00000690  00000+0  11958-3 0  9992
2 64830  51.9008 187.6832 0000643  96.7915 263.3121 14.79927164 63299
KUIPER-00085            
1 64831U 25151R   26258.16099051  .00000350  00000+0  74945-4 0  9990
2 64831  51.9023 170.3390 0000964  92.4296 267.6777 14.79927201 63539
KUIPER-00086            
1 64832U 25151S   26258.48784258  .00002530  00000+0  36089-3 0  9994
2 64832  51.9015 178.8272 0001020  91.4493 268.6587 14.79923983 63448
KUIPER-00087            
1 64833U 25151T   26257.76363910 -.00011841  00000+0 -15273-2 0  9991
2 64833  51.8996 164.4824 0001902 313.1033  46.9770 14.79921259 63572
KUIPER-00089            
1 64834U 25151U   26258.16364899  .00006298  00000+0  85377-3 0  9995
2 64834  51.8997 167.7424 0000759  94.8879 265.2170 14.79961065 63575
KUIPER-00090            
1 64835U 25151V   26258.44187671  .00003216  00000+0  45069-3 0  9999
2 64835  51.8977 159.0065 0000983  98.2176 261.8898 14.79935318 63713
KUIPER-00091            
1 64836U 25151W   26258.43649007  .00001227  00000+0  19000-3 0  9991
2 64836  51.9001 164.0572 0001055  98.0236 262.0846 14.79933056 63643
KUIPER-00092            
1 64837U 25151X   26258.15828723  .00000383  00000+0  79227-4 0  9995
2 64837  51.8997 172.7769 0000949  80.9062 279.2008 14.79925921 64710
KUIPER-00093            
1 64838U 25151Y   26258.49322377  .00001305  00000+0  20012-3 0  9999
2 64838  51.8980 173.7636 0000959  96.3190 263.7881 14.79930729 63517
KUIPER-00094            
1 64839U 25151Z   26258.60931649  .00002059  00000+0  29900-3 0  9993
2 64839  51.9055 128.3675 0001232  97.0270 263.0832 14.79928491 64167
KUIPER-00081            
1 65132U 25171A   26257.73797586  .00002864  00000+0  40450-3 0  9992
2 65132  51.9016  32.1001 0000517 109.5402 250.5617 14.79934426 61037
KUIPER-00088            
1 65133U 25171B   26258.39439888  .00002985  00000+0  42049-3 0  9994
2 65133  51.9000  46.6968 0000687 105.5577 254.5462 14.79927574 60880
KUIPER-00095            
1 65134U 25171C   26257.74067494  .00002834  00000+0  40056-3 0  9992
2 65134  51.8991  29.6246 0000567 120.2935 239.8083 14.79935596 61067
KUIPER-00096            
1 65135U 25171D   26258.36872094  .00003120  00000+0  43799-3 0  9998
2 65135  51.9001  39.3045 0000552 114.2767 245.8253 14.79938169 60981
KUIPER-00097            
1 65136U 25171E   26258.43358143  .00001380  00000+0  20999-3 0  9994
2 65136  51.9016  41.6866 0000521 113.1192 246.9826 14.79926140 60941
KUIPER-00098            
1 65137U 25171F   26258.43085406  .00002983  00000+0  42012-3 0  9994
2 65137  51.9012  44.0583 0000736 104.4062 255.6982 14.79932345 60267
KUIPER-00099            
1 65138U 25171G   26258.40788477  .00002970  00000+0  41840-3 0  9994
2 65138  51.9032  34.1749 0000478 125.0961 235.0046 14.79940279 61050
KUIPER-00100            
1 65139U 25171H   26258.64693228  .00000833  00000+0  13821-3 0  9994
2 65139  51.9028  30.5828 0000441  88.9825 271.1188 14.79928977 61127
KUIPER-00102            
1 65140U 25171J   26258.37411316  .00000739  00000+0  12600-3 0  9991
2 65140  51.8987  34.2587 0000654 127.5088 232.5934 14.79929235 61041
KUIPER-00103            
1 65141U 25171K   26258.45652921  .00002609  00000+0  37113-3 0  9994
2 65141  51.8995  51.3969 0000495 126.6503 233.4506 14.79934118 60815
KUIPER-00104            
1 65142U 25171L   26258.13236599  .00002527  00000+0  36035-3 0  9990
2 65142  51.9032  40.3474 0000386 103.9442 256.1563 14.79938115 60947
KUIPER-00105            
1 65143U 25171M   26258.42816753  .00002832  00000+0  40028-3 0  9995
2 65143  51.9014  46.6327 0000564 112.7868 247.3154 14.79938056 60887
KUIPER-00106            
1 65144U 25171N   26258.61147493  .00001803  00000+0  26556-3 0  9992
2 65144  51.9002  24.5884 0000959 111.9732 248.1333 14.79924929 61217
KUIPER-00107            
1 65145U 25171P   26258.64962875  .00000557  00000+0  10207-3 0  9996
2 65145  51.9026  28.0958 0000460 104.7953 255.3061 14.79926867 61162
KUIPER-00108            
1 65146U 25171Q   26257.79202960  .00002833  00000+0  40049-3 0  9990
2 65146  51.9032  44.4343 0000547 108.2190 251.8832 14.79929616 60866
KUIPER-00109            
1 65147U 25171R   26258.37141260  .00002668  00000+0  37883-3 0  9999
2 65147  51.9039  36.8150 0000513 100.8269 259.2751 14.79927269 61015
KUIPER-00110            
1 65148U 25171S   26258.12159062  .00002877  00000+0  40623-3 0  9990
2 65148  51.9016  50.4654 0000545 116.3856 243.7163 14.79935076 60795
KUIPER-00111            
1 65149U 25171T   26258.42006531  .00002258  00000+0  32511-3 0  9996
2 65149  51.8978  54.0061 0000581 118.4256 241.6765 14.79926208 60771
KUIPER-00112            
1 65150U 25171U   26257.39223665  .00000682  00000+0  11852-3 0  9996
2 65150  51.9015  41.1880 0000692 122.9336 237.1693 14.79924939 60863
KUIPER-00114            
1 65151U 25171V   26258.41737342  .00002810  00000+0  39734-3 0  9997
2 65151  51.8995  56.6137 0000659 120.9711 239.1316 14.79938794 60738
KUIPER-00115            
1 65152U 25171W   26257.41252101  .00002386  00000+0  34183-3 0  9993
2 65152  51.9007  53.5658 0000622 113.3333 246.7695 14.79933723 60690
KUIPER-00116            
1 65153U 25171X   26258.45384329 -.00000186  00000+0  46008-5 0  9995
2 65153  51.9012  53.9900 0001032 141.3452 218.7585 14.79928354 60770
KUIPER-00118            
1 65154U 25171Y   26258.45112644  .00000187  00000+0  53507-4 0  9996
2 65154  51.8981  56.4512 0000542  74.5559 285.5464 14.79923559 60749
KUIPER-00119            
1 65155U 25171Z   26258.39710590  .00002837  00000+0  40106-3 0  9998
2 65155  51.9018  44.2940 0000657 114.9978 245.1053 14.79927394 60908
KUIPER-00120            
1 65762U 25217A   26258.09367836  .00002129  00000+0  30817-3 0  9993
2 65762  51.8998 295.5041 0000425  74.5456 285.5554 14.79931153 52785
KUIPER-00132            
1 65763U 25217B   26258.45416919  .00026754  00000+0  68095-3 0  9990
2 65763  51.8536 159.9273 0005628 279.3087  80.7263 15.39378230 54691
KUIPER-00133            
1 65764U 25217C   26258.12745832  .00000470  00000+0  90640-4 0  9993
2 65764  51.9052 295.4912 0000628  76.6001 283.5032 14.79930835 52795
KUIPER-00139            
1 65765U 25217D   26257.75730825  .00001955  00000+0  28530-3 0  9995
2 65765  51.8982 264.5546 0000620  49.2851 310.8165 14.79935879 53197
KUIPER-00142            
1 65766U 25217E   26257.36971723  .00000533  00000+0  98953-4 0  9995
2 65766  51.8993 281.2359 0000521  76.6434 283.4586 14.79926440 52925
KUIPER-00145            
1 65767U 25217F   26257.77220353  .00001841  00000+0  27042-3 0  9990
2 65767  51.9006 281.9816 0000461  63.4782 296.6228 14.79931209 52940
KUIPER-00147            
1 65768U 25217G   26258.54608246  .00001885  00000+0  27609-3 0  9995
2 65768  51.8991 281.0325 0000433  31.8307 328.2681 14.79940738 53022
KUIPER-00148            
1 65769U 25217H   26258.49744508  .00001972  00000+0  28759-3 0  9996
2 65769  51.9035 263.7970 0000476  84.9900 275.1117 14.79937484 53265
KUIPER-00150            
1 65770U 25217J   26258.46779768  .00000217  00000+0  57521-4 0  9992
2 65770  51.9013 291.4273 0000577  93.3299 266.7729 14.79928844 52875
KUIPER-00151            
1 65771U 25217K   26258.47589067  .00001852  00000+0  27187-3 0  9995
2 65771  51.9018 283.8897 0000456  72.5485 287.5527 14.79929733 52987
KUIPER-00152            
1 65772U 25217L   26258.45559286  .00000148  00000+0  48371-4 0  9990
2 65772  51.9004 271.4604 0000576  41.7238 318.3768 14.79926043 53150
KUIPER-00153            
1 65773U 25217M   26258.05580088 -.00001125  00000+0 -11855-3 0  9995
2 65773  51.9022 268.3139 0000751  74.5023 285.6022 14.79937645 53160
KUIPER-00155            
1 65774U 25217N   26258.35560127  .00002577  00000+0  36702-3 0  9999
2 65774  51.9016 239.4505 0000656  81.6195 278.4841 14.79926372 53594
KUIPER-00156            
1 65775U 25217P   26258.42723316  .00000579  00000+0  10498-3 0  9993
2 65775  51.9028 266.6552 0000509  73.8483 286.2535 14.79929249 53214
KUIPER-00165            
1 65778U 25217S   26258.55128379 -.00015688  00000+0 -20355-2 0  9999
2 65778  51.8992 276.0365 0000776 140.7369 219.3649 14.79892872 53096
KUIPER-00166            
1 65779U 25217T   26258.39615566  .00002113  00000+0  30618-3 0  9992
2 65779  51.9014 264.2857 0000507  80.7081 279.3939 14.79917455 53244
KUIPER-00167            
1 65780U 25217U   26258.33808737  .00004745  00000+0  65058-3 0  9991
2 65780  51.8971 286.8628 0000365  36.2168 323.8819 14.79958782 52921
KUIPER-00168            
1 65781U 25217V   26257.47911290  .00000467  00000+0  90263-4 0  9999
2 65781  51.9010 273.2852 0000553  56.7081 303.3934 14.79927001 53041
KUIPER-00169            
1 65782U 25217W   26258.41914213  .00000506  00000+0  95364-4 0  9994
2 65782  51.9007 274.1397 0000687 104.1783 255.9256 14.79925848 53111
KUIPER-00170            
1 65783U 25217X   26258.48126522  .00000599  00000+0  10756-3 0  9993
2 65783  51.8998 278.8118 0000591  60.1891 299.9130 14.79923156 53059
KUIPER-00172            
1 65785U 25217Z   26258.06119436  .00000240  00000+0  60475-4 0  9992
2 65785  51.9031 263.1994 0000614  31.2488 328.8511 14.79929480 53237
KUIPER-00173            
1 65786U 25217AA  26258.04772256  .00000317  00000+0  70576-4 0  9994
2 65786  51.8995 275.7744 0000430  52.5202 307.5800 14.79929871 53053
KUIPER-00174            
1 65787U 25217AB  26258.05310039  .00003140  00000+0  44090-3 0  9991
2 65787  51.9013 270.8150 0001187  55.2009 304.9065 14.79916777 53121
KUIPER-00176            
1 65788U 25217AC  26258.10446821  .00001953  00000+0  28512-3 0  9998
2 65788  51.9006 285.5038 0000590  52.1816 307.9200 14.79928841 52927
KUIPER-00101            
1 65947U 25228A   26258.31909202  .00005480  00000+0  74677-3 0  9999
2 65947  51.8986 241.9976 0000664  66.0791 294.0241 14.79959894 51310
KUIPER-00113            
1 65948U 25228B   26258.62834581  .00001255  00000+0  19367-3 0  9992
2 65948  51.8979 235.6535 0000828  76.2847 283.8208 14.79921614 51421
KUIPER-00117            
1 65949U 25228C   26258.38934650  .00002497  00000+0  35650-3 0  9996
2 65949  51.8972 239.2095 0000772  50.4655 309.6375 14.79931262 51359
KUIPER-00121            
1 65950U 25228D   26258.22591722  .00002368  00000+0  33948-3 0  9995
2 65950  51.8984 234.9547 0000762  61.9731 298.1308 14.79935807 51402
KUIPER-00122            
1 65951U 25228E   26258.35019544  .00001144  00000+0  17911-3 0  9990
2 65951  51.8968 244.3756 0001070  42.9680 317.1366 14.79928261 51285
KUIPER-00123            
1 65952U 25228F   26257.97877261  .00002395  00000+0  34307-3 0  9993
2 65952  51.8969 246.0249 0000707  46.0969 314.0052 14.79936751 51229
KUIPER-00124            
1 65953U 25228G   26258.39204756  .00002614  00000+0  37175-3 0  9994
2 65953  51.8976 236.6872 0000809  47.4411 312.6619 14.79929744 51390
KUIPER-00125            
1 65954U 25228H   26258.34070801  .00002778  00000+0  39320-3 0  9997
2 65954  51.9003 221.9673 0000939  69.2682 290.8381 14.79934863 51598
KUIPER-00126            
1 65955U 25228J   26258.21783752  .00002289  00000+0  32917-3 0  9992
2 65955  51.8979 242.4907 0000621  74.4204 285.6826 14.79931069 51292
KUIPER-00127            
1 65956U 25228K   26258.41162262  .00002683  00000+0  38077-3 0  9993
2 65956  51.9004 234.1131 0000600  50.8360 309.2656 14.79938477 51438
KUIPER-00128            
1 65957U 25228L   26258.32722924  .00002474  00000+0  35338-3 0  9996
2 65957  51.8991 234.5533 0000681  66.7543 293.3491 14.79932605 51416
KUIPER-00129            
1 65958U 25228M   26258.36637098  .00002877  00000+0  40624-3 0  9999
2 65958  51.9001 229.3589 0000688  69.8323 290.2714 14.79931390 51492
KUIPER-00130            
1 65959U 25228N   26258.19486596  .00000395  00000+0  80808-4 0  9998
2 65959  51.9011 232.6643 0000783  75.0455 285.0594 14.79925313 41724
KUIPER-00134            
1 65960U 25228P   26257.35718852  .00012383  00000+0  33759-3 0  9992
2 65960  51.8690 124.3686 0003456 247.3422 112.7199 15.37844068 52866
KUIPER-00135            
1 65961U 25228Q   26258.29616200  .00002688  00000+0  38150-3 0  9998
2 65961  51.9014 232.2673 0000609  70.3349 289.7679 14.79928297 51445
KUIPER-00136            
1 65962U 25228R   26258.33258374  .00002809  00000+0  39718-3 0  9994
2 65962  51.9001 229.5521 0000822  46.2959 313.8071 14.79947898 51486
KUIPER-00137            
1 65963U 25228S   26258.60544405  .00001273  00000+0  19595-3 0  9993
2 65963  51.9024 225.8561 0000813  46.6934 313.4096 14.79928464 51562
KUIPER-00138            
1 65964U 25228T   26258.16917609  .00002556  00000+0  36417-3 0  9992
2 65964  51.8970 225.1834 0000761  53.9868 306.1164 14.79935760 51536
KUIPER-00140            
1 65965U 25228U   26257.96390136  .00002402  00000+0  34401-3 0  9991
2 65965  51.8988 228.6856 0000877  67.1391 292.9664 14.79926371 51461
KUIPER-00141            
1 65966U 25228V   26258.30695122  .00002846  00000+0  40224-3 0  9996
2 65966  51.9016 222.2447 0000881  81.7488 278.3574 14.79925945 51582
KUIPER-00146            
1 65967U 25228W   26258.60813036  .00001209  00000+0  18755-3 0  9992
2 65967  51.9020 223.4256 0000851  56.0199 304.0844 14.79937006 51599
KUIPER-00149            
1 65968U 25228X   26258.30963539  .00002851  00000+0  40278-3 0  9993
2 65968  51.8999 219.6187 0000700  70.2557 289.8480 14.79933935 51620
KUIPER-00154            
1 65969U 25228Y   26258.61622459  .00002456  00000+0  35112-3 0  9993
2 65969  51.8994 215.7464 0000714  76.6958 283.4084 14.79925543 51706
KUIPER-00157            
1 65970U 25228Z   26258.58335648 -.00030741  00000+0 -43475-2 0  9992
2 65970  51.9008 217.9992 0001702 124.0845 358.4585 14.76646790  5075
KUIPER-00144            
1 67133U 25301A   26258.59744326  .00001889  00000+0  27667-3 0  9990
2 67133  51.9019 295.8541 0000623  64.5976 295.5051 14.79936332 41996
KUIPER-00164            
1 67134U 25301B   26258.44892638  .00002054  00000+0  29836-3 0  9990
2 67134  51.9043 309.0301 0000393  79.5537 280.5470 14.79928861 41974
KUIPER-00175            
1 67135U 25301C   26258.09637738  .00000495  00000+0  93909-4 0  9990
2 67135  51.9001 293.0227 0000428  50.9993 309.1008 14.79928447 42062
KUIPER-00179            
1 67136U 25301D   26258.51912812  .00001124  00000+0  17643-3 0  9997
2 67136  51.8993 306.1516 0000442  76.0136 284.0875 14.79935704 42026
KUIPER-00181            
1 67137U 25301E   26258.16801729  .00000538  00000+0  99551-4 0  9990
2 67137  51.9032 320.2685 0000316  70.0583 290.0413 14.79932332 41776
KUIPER-00183            
1 67138U 25301F   26258.09908527  .00000257  00000+0  62732-4 0  9996
2 67138  51.9031 290.5796 0000436  45.6655 314.4343 14.79929643 42190
KUIPER-00184            
1 67139U 25301G   26258.08559227  .00000223  00000+0  58270-4 0  9990
2 67139  51.9002 303.0802 0000437  70.6963 289.4046 14.79928144 42127
KUIPER-00186            
1 67140U 25301H   26258.60692724  .00003211  00000+0  44983-3 0  9995
2 67140  51.9034 318.3379 0000477  84.0033 276.0984 14.79954434 41687
KUIPER-00187            
1 67141U 25301J   26258.19909312  .00000603  00000+0  10811-3 0  9999
2 67141  51.9042 322.6685 0000457  84.6551 275.4464 14.79928870 41584
KUIPER-00188            
1 67142U 25301K   26258.47050388  .00000316  00000+0  70416-4 0  9990
2 67142  51.9031 289.0532 0000490  69.7616 290.3399 14.79925226 42073
KUIPER-00191            
1 67143U 25301L   26258.17341726  .00000630  00000+0  11166-3 0  9992
2 67143  51.9016 315.2558 0000365  81.4418 278.6586 14.79929478 41719
KUIPER-00196            
1 67144U 25301M   26258.42183556  .00001284  00000+0  19749-3 0  9997
2 67144  51.8973 271.6101 0000625  86.0173 274.0861 14.79925039 42310
KUIPER-00204            
1 67145U 25301N   26258.37189402  .00002025  00000+0  29464-3 0  9997
2 67145  51.9023 286.8670 0000483  71.7701 288.3314 14.79928965 42218
KUIPER-00210            
1 67146U 25301P   26258.54482268  .00001106  00000+0  17407-3 0  9996
2 67146  51.8994 313.5607 0000432  62.3930 297.7076 14.79927580 41914
KUIPER-00221            
1 67147U 25301Q   26258.16531576  .00002323  00000+0  33361-3 0  9991
2 67147  51.9011 322.7726 0000683  79.4715 280.6325 14.79934362 41585
KUIPER-00232            
1 67148U 25301R   26258.55291276  .00001956  00000+0  28554-3 0  9994
2 67148  51.9000 306.0694 0000469  81.6616 278.4400 14.79932030 41848
KUIPER-00241            
1 67149U 25301S   26258.57589160  .00002013  00000+0  29294-3 0  9996
2 67149  51.9048 315.9906 0000438  79.4398 280.6614 14.79933172 42047
KUIPER-00245            
1 67150U 25301T   26258.56781897  .00000225  00000+0  58498-4 0  9990
2 67150  51.9042 323.5353 0000534  98.5272 261.5751 14.79923013 41608
KUIPER-00246            
1 67151U 25301U   26257.87491424  .00000245  00000+0  61119-4 0  9994
2 67151  51.9018 311.5382 0000426  75.6084 284.4926 14.79928999 41738
KUIPER-00247            
1 67152U 25301V   26258.49345745  .00001801  00000+0  26520-3 0  9993
2 67152  51.8965 298.7470 0000401  82.4718 277.6290 14.79933520 41943
KUIPER-00248            
1 67153U 25301W   26258.44481384  .00002037  00000+0  29611-3 0  9995
2 67153  51.8988 281.6066 0000452  69.8242 290.2769 14.79938636 42348
KUIPER-00249            
1 67154U 25301X   26258.49618072  .00001883  00000+0  27596-3 0  9995
2 67154  51.8996 296.3142 0000401  59.1650 300.9351 14.79929924 41979
KUIPER-00250            
1 67155U 25301Y   26258.58126867  .00002182  00000+0  31519-3 0  9995
2 67155  51.8997 310.8893 0000714  61.5499 298.5536 14.79930270 41817
KUIPER-00251            
1 67156U 25301Z   26258.52724707  .00001932  00000+0  28241-3 0  9997
2 67156  51.9016 298.7048 0000356  94.7414 265.3589 14.79932059 42137
KUIPER-00252            
1 67157U 25301AA  26257.57912284 -.00000027  00000+0  25413-4 0  9995
2 67157  51.9009 305.3475 0000337  66.7698 293.3300 14.79925943 41776
KUIPER-00261            
1 67158U 25301AB  26258.41246990  .00000845  00000+0  13980-3 0  9996
2 67158  51.9041 311.7271 0000369  84.7414 275.3590 14.79930723 41750
KUIPER-00265            
1 67159U 25301AC  26258.56509201  .00002242  00000+0  32303-3 0  9993
2 67159  51.9035 326.0289 0000688  99.1893 260.9147 14.79926611 41600
KUIPER-00159            
1 67764U 26030A   26257.81359856  .00002117  00000+0  33097-3 0  9993
2 67764  51.9021  47.9170 0000224 113.6862 246.4122 14.76576926 33867
KUIPER-00160            
1 67765U 26030B   26258.58335648 -.00070603  00000+0 -83945-2 0  9995
2 67765  51.8985  26.0114 0011957 336.5820  69.6865 14.84257815  4237
KUIPER-00177            
1 67766U 26030C   26258.57951819  .00002395  00000+0  34320-3 0  9994
2 67766  51.9018  93.4353 0000832  90.1684 269.9374 14.79917117 33290
KUIPER-00178            
1 67767U 26030D   26258.54576939  .00002288  00000+0  32896-3 0  9995
2 67767  51.8976  93.5635 0000727 100.4913 259.6131 14.79933691 33292
KUIPER-00180            
1 67768U 26030E   26257.53820409  .00002103  00000+0  30487-3 0  9998
2 67768  51.8987  93.0130 0000729 117.5250 242.5786 14.79926325 33210
KUIPER-00197            
1 67769U 26030F   26258.50519457  .00002563  00000+0  36504-3 0  9991
2 67769  51.8993  68.7524 0000821 121.9540 238.1503 14.79933408 33632
KUIPER-00198            
1 67770U 26030G   26258.52548228  .00002198  00000+0  31731-3 0  9994
2 67770  51.8969  81.1369 0000801 113.1472 246.9575 14.79928387 33465
KUIPER-00199            
1 67771U 26030H   26258.58335648 -.02215164  00000+0 -10527+0 0  9990
2 67771  51.8838  23.3584 0011234  15.6073 322.5691 15.22494787  5193
KUIPER-00200            
1 67772U 26030J   26258.47413713  .00002626  00000+0  37340-3 0  9998
2 67772  51.8973  66.4082 0000595 103.2602 256.8427 14.79926392 33667
KUIPER-00203            
1 67773U 26030K   26258.57413619  .00002198  00000+0  31726-3 0  9991
2 67773  51.9050  98.5378 0001024 105.3091 254.7985 14.79935189 33224
KUIPER-00205            
1 67774U 26030L   26258.47681892  .00002220  00000+0  32016-3 0  9990
2 67774  51.9008  63.8616 0000887 112.5450 247.5606 14.79926645 33703
KUIPER-00208            
1 67775U 26030M   26258.54845750  .00002212  00000+0  31906-3 0  9992
2 67775  51.8967  91.0421 0001343 109.1064 251.0044 14.79935472 33327
KUIPER-00209            
1 67776U 26030N   26257.97715042  .00002595  00000+0  36926-3 0  9990
2 67776  51.8987  91.1691 0000909 116.7507 243.3548 14.79939605 33272
KUIPER-00213            
1 67777U 26030P   26258.55385910  .00001896  00000+0  27769-3 0  9991
2 67777  51.8952  86.0773 0000805 107.8171 252.2879 14.79927909 33395
KUIPER-00214            
1 67778U 26030Q   26258.52279436  .00000962  00000+0  15519-3 0  9997
2 67778  51.8990  83.7481 0000845  94.1535 265.9524 14.79927789 33422
KUIPER-00215            
1 67779U 26030R   26258.50248691  .00000283  00000+0  66072-4 0  9992
2 67779  51.8970  71.1922 0000669 113.8816 246.2216 14.79925205 33608
KUIPER-00218            
1 67780U 26030S   26257.91231723  .00002724  00000+0  38627-3 0  9992
2 67780  51.8970  88.8430 0000784 110.4789 249.6258 14.79930546 33303
KUIPER-00220            
1 67781U 26030T   26258.47952132  .00002853  00000+0  40318-3 0  9992
2 67781  51.8953  61.3576 0000566 113.6898 246.4124 14.79925750 33731
KUIPER-00222            
1 67782U 26030U   26257.81643110  .00002391  00000+0  34260-3 0  9999
2 67782  51.8979  84.4276 0000968 111.5437 248.5629 14.79925832 33357
KUIPER-00223            
1 67783U 26030V   26258.46601857  .00002701  00000+0  38325-3 0  9995
2 67783  51.9003  73.8644 0000774 109.2209 250.8837 14.79917952 33568
KUIPER-00225            
1 67784U 26030W   26258.52817969  .00002486  00000+0  35503-3 0  9991
2 67784  51.8980  78.7363 0000640 111.4906 248.6125 14.79927108 33496
KUIPER-00226            
1 67785U 26030X   26258.58335648 -.00027226  00000+0 -35081-2 0  9998
2 67785  51.8995  65.8812 0002401 315.1497  83.9958 14.80505839  5559
KUIPER-00259            
1 67786U 26030Y   26257.88663642  .00000447  00000+0  87590-4 0  9997
2 67786  51.8977  81.4756 0000753 110.6760 249.4283 14.79926527 33404
KUIPER-00260            
1 67787U 26030Z   26258.49711718  .00000701  00000+0  12093-3 0  9992
2 67787  51.9004  76.3885 0001145 117.8281 242.2798 14.79927943 33434
KUIPER-00262            
1 67788U 26030AA  26257.78803981  .00002289  00000+0  32912-3 0  9993
2 67788  51.9000  79.4386 0001054 112.6111 247.4963 14.79932658 33424
KUIPER-00266            
1 67789U 26030AB  26258.49979966  .00002252  00000+0  32425-3 0  9999
2 67789  51.8987  73.7822 0001003 107.6183 252.4889 14.79937038 33562
KUIPER-00268            
1 67790U 26030AC  26258.46873615  .00002534  00000+0  36135-3 0  9997
2 67790  51.9037  71.4614 0001045 120.1249 239.9818 14.79932336 33595
KUIPER-00270            
1 67791U 26030AD  26258.44574987  .00002702  00000+0  38342-3 0  9995
2 67791  51.8989  61.5125 0000634 100.3894 259.7140 14.79924162 33739
KUIPER-00274            
1 67792U 26030AE  26257.94877306  .00002517  00000+0  35898-3 0  9998
2 67792  51.9016  86.2257 0000661 113.3847 246.7185 14.79933518 33341
KUIPER-00275            
1 67793U 26030AF  26258.44305344  .00002752  00000+0  38996-3 0  9996
2 67793  51.8991  64.0352 0000871 118.5645 241.5405 14.79925129 33694
KUIPER-00276            
1 67794U 26030AG  26258.20130634  .00000375  00000+0  78193-4 0  9992
2 67794  51.8977  70.0812 0001041  94.1842 265.9240 14.79927862 33597
KUIPER-00279            
1 67795U 26030AH  26258.44845539  .00000297  00000+0  68014-4 0  9990
2 67795  51.9028  59.0373 0000830 114.8507 245.2541 14.79927882 33764
KUIPER-00131            
1 68573U 26072A   26258.44458818  .00001888  00000+0  27662-3 0  9991
2 68573  51.9019 156.5334 0000678 116.2914 243.8118 14.79932205 24485
KUIPER-00189            
1 68574U 26072B   26258.13799699  .00002981  00000+0  41994-3 0  9992
2 68574  51.8985 160.3669 0000819  96.7532 263.3524 14.79928614 24405
KUIPER-00192            
1 68575U 26072C   26258.44728281  .00003202  00000+0  44875-3 0  9994
2 68575  51.8993 154.0175 0001026  89.3477 270.7603 14.79936791 24522
KUIPER-00193            
1 68576U 26072D   26258.39054111  .00002968  00000+0  41810-3 0  9997
2 68576  51.9048 144.3147 0001055 101.3200 258.7881 14.79937259 24655
KUIPER-00194            
1 68577U 26072E   26258.14609718  .00002943  00000+0  41486-3 0  9992
2 68577  51.9013 152.8745 0000906  92.6607 267.4459 14.79935972 24516
KUIPER-00229            
1 68578U 26072F   26258.41082194  .00000736  00000+0  12553-3 0  9997
2 68578  51.9018 156.6851 0000871 105.1912 254.9147 14.79932042 24488
KUIPER-00230            
1 68579U 26072G   26258.58335648 -.00023717  00000+0 -25466-2 0  9993
2 68579  51.8980 103.2821 0006172 346.0517 326.9790 14.87905576  1309
KUIPER-00231            
1 68580U 26072H   26258.37296447  .00002882  00000+0  40691-3 0  9991
2 68580  51.8972 129.4251 0002071 103.4546 256.6647 14.79934536 24854
KUIPER-00234            
1 68581U 26072J   26258.11232213  .00003327  00000+0  46512-3 0  9998
2 68581  51.8994 152.9886 0001219  82.6261 277.4840 14.79937435 24508
KUIPER-00236            
1 68582U 26072K   26258.58335648 -.00043224  00000+0 -57908-2 0  9998
2 68582  51.9033 105.7634 0000713  52.1015 117.8020 14.79101935  3847
KUIPER-00244            
1 68583U 26072L   26257.07640156  .00002803  00000+0  39650-3 0  9996
2 68583  51.8994 147.5932 0000972  93.2456 266.8618 14.79937180 24491
KUIPER-00253            
1 68584U 26072M   26258.42430697  .00002484  00000+0  35468-3 0  9992
2 68584  51.9045 144.1586 0000979  96.3569 263.7505 14.79932048 24651
KUIPER-00254            
1 68585U 26072N   26257.98266228  .00000807  00000+0  13487-3 0  9994
2 68585  51.9034 148.6080 0001358  71.4423 288.6687 14.79934195 24554
KUIPER-00263            
1 68586U 26072P   26258.60661304  .00002288  00000+0  32902-3 0  9997
2 68586  51.9003 130.9172 0000714  97.2210 262.8834 14.79937342 24850
KUIPER-00269            
1 68587U 26072Q   26258.06367404  .00002894  00000+0  40839-3 0  9993
2 68587  51.8994 135.7250 0001094  93.6582 266.4506 14.79937116 24746
KUIPER-00272            
1 68588U 26072R   26257.46809627  .00000775  00000+0  13065-3 0  9992
2 68588  51.8994 158.3273 0000997  88.8712 271.2365 14.79928275 24377
KUIPER-00285            
1 68589U 26072S   26258.63769189  .00001149  00000+0  17975-3 0  9991
2 68589  51.9031 133.2703 0001699  66.4548 293.6593 14.79934514 24824
KUIPER-00286            
1 68590U 26072T   26258.64038155  .00002399  00000+0  34359-3 0  9999
2 68590  51.9007 130.6852 0000801 105.6462 254.4589 14.79927871 24862
KUIPER-00289            
1 68591U 26072U   26258.63228372  .00002378  00000+0  34080-3 0  9999
2 68591  51.8981 138.1979 0000991  94.7403 265.3673 14.79930798 24754
KUIPER-00290            
1 68592U 26072V   26258.58335648  .00120484  00000+0  15867-1 0  9998
2 68592  51.9004 138.4177 0001907  53.8093 227.4717 14.79087736  4261
KUIPER-00293            
1 68593U 26072W   26258.14878792  .00001847  00000+0  27122-3 0  9993
2 68593  51.8969 150.3160 0001739  45.7605 314.3500 14.79930232 24545
KUIPER-00294            
1 68594U 26072X   26258.36486567  .00000991  00000+0  15897-3 0  9998
2 68594  51.9001 136.8829 0000717 104.1992 255.9051 14.79931056 24758
KUIPER-00296            
1 68595U 26072Y   26258.01232238  .00001481  00000+0  22330-3 0  9990
2 68595  51.9007 120.9575 0000696 107.9068 252.1971 14.79929121 24949
KUIPER-00297            
1 68596U 26072Z   26258.11502184  .00003319  00000+0  46420-3 0  9990
2 68596  51.8992 150.4653 0001364  99.2599 260.8518 14.79932271 24541
KUIPER-00300            
1 68597U 26072AA  26258.08395982  .00003127  00000+0  43896-3 0  9994
2 68597  51.9023 148.1368 0000827 107.5127 252.5926 14.79934649 24573
KUIPER-00301            
1 68598U 26072AB  26258.63354128  .00001568  00000+0  25363-3 0  9999
2 68598  51.9026 115.1320 0002021 179.9481 180.1481 14.76497871 25079
KUIPER-00304            
1 68599U 26072AC  26258.59602160  .00001563  00000+0  25222-3 0  9996
2 68599  51.9005 117.2531 0000570  20.9509 339.1475 14.76612524 25047
KUIPER-00317            
1 68600U 26072AD  26258.06098110  .00000721  00000+0  12356-3 0  9994
2 68600  51.8989 138.2326 0000857  92.5393 267.5668 14.79927821 24701
KUIPER-00320            
1 68601U 26072AE  26257.98806036  .00002870  00000+0  40528-3 0  9998
2 68601  51.9017 143.5704 0000729  95.1025 265.0021 14.79933957 24627
KUIPER-00299            
1 68864U 26095A   26258.58335648 -.00025575  00000+0 -33433-2 0  9992
2 68864  51.8987 210.8982 0001272  96.8760  59.7549 14.79872171  4044
KUIPER-00353            
1 68865U 26095B   26258.53648327  .00003952  00000+0  54687-3 0  9997
2 68865  51.9003 196.1342 0000862  81.9892 278.1168 14.79948604 21202
KUIPER-00357            
1 68866U 26095C   26258.56217871  .00002776  00000+0  39306-3 0  9991
2 68866  51.9007 203.5301 0000998  49.5187 310.5863 14.79929530 21101
KUIPER-00364            
1 68867U 26095D   26258.59324785  .00000150  00000+0  48761-4 0  9998
2 68867  51.9031 205.9155 0001462  45.4647 314.6435 14.79926237 21072
KUIPER-00375            
1 68868U 26095E   26257.21697570  .00002454  00000+0  35082-3 0  9992
2 68868  51.9005 204.4745 0000814  78.3448 281.7606 14.79929534 20972
KUIPER-00433            
1 68869U 26095F   26258.61892285  .00000861  00000+0  14195-3 0  9990
2 68869  51.8998 213.2701 0001104  46.0016 314.1038 14.79928882 20974
KUIPER-00437            
1 68870U 26095G   26258.58335648 -.01825181  00000+0 -12630+0 0  9994
2 68870  51.8861 166.7369 0008611 271.0963 238.2403 15.08710518  5612
KUIPER-00448            
1 68871U 26095H   26258.24125972  .00001860  00000+0  29624-3 0  9997
2 68871  51.9032 204.7687 0003311  39.2539 320.8662 14.76330553 21057
KUIPER-00459            
1 68872U 26095J   26258.23801918  .00003012  00000+0  42396-3 0  9990
2 68872  51.9028 192.5218 0000791  87.0060 273.0992 14.79932023 21223
KUIPER-00468            
1 68873U 26095K   26258.49921411  .00001530  00000+0  24743-3 0  9999
2 68873  51.8980 188.7951 0000861 164.2702 195.8286 14.76622554 21308
KUIPER-00476            
1 68874U 26095L   26258.58335648  .00004653  00000+0  43566-3 0  9994
2 68874  51.8901 171.3054 0010734 256.2156 129.1430 14.95708542  5642
KUIPER-00478            
1 68875U 26095M   26257.22235957  .00002608  00000+0  37098-3 0  9998
2 68875  51.8995 199.4489 0000884  77.0308 283.0753 14.79929720 21047
KUIPER-00480            
1 68876U 26095N   26258.20424264  .00005561  00000+0  75814-3 0  9998
2 68876  51.9031 192.6219 0000848 104.0406 256.0651 14.79917022 21225
KUIPER-00482            
1 68877U 26095P   26258.26098743  .00000369  00000+0  77378-4 0  9993
2 68877  51.9012 202.3582 0001317  24.2240 335.8785 14.79929657 21094
KUIPER-00483            
1 68878U 26095Q   26257.30184946  .00002622  00000+0  37240-3 0  9996
2 68878  51.8984 219.0600 0001729 329.4761  30.6101 14.79979363 20778
KUIPER-00488            
1 68879U 26095R   26258.57027001  .00001967  00000+0  28698-3 0  9993
2 68879  51.8983 195.9959 0001145  73.2061 286.9027 14.79930634 21206
KUIPER-00489            
1 68880U 26095S   26257.56540987  .00002877  00000+0  40623-3 0  9999
2 68880  51.8972 192.9212 0001104  74.2596 285.8488 14.79931206 21164
KUIPER-00499            
1 68881U 26095T   26258.20155403  .00003027  00000+0  42588-3 0  9997
2 68881  51.9000 195.1673 0001052  63.0457 297.0613 14.79940215 21185
KUIPER-00500            
1 68882U 26095U   26258.31773510  .00001115  00000+0  17533-3 0  9993
2 68882  51.8994 212.1055 0000835  86.1471 273.9587 14.79926359 20962
KUIPER-00502            
1 68883U 26095V   26258.53750012  .00003012  00000+0  42400-3 0  9999
2 68883  51.8996 187.3860 0001271  64.2626 295.8467 14.79929391 21326
KUIPER-00503            
1 68884U 26095W   26258.55677315  .00001897  00000+0  27780-3 0  9999
2 68884  51.8986 208.5195 0000857  64.3091 295.7960 14.79936249 21034
KUIPER-00504            
1 68885U 26095X   26257.90715036  .00002801  00000+0  39626-3 0  9999
2 68885  51.9014 218.9257 0000565  82.2302 277.8724 14.79927793 20832
KUIPER-00505            
1 68886U 26095Y   26258.55947056  .00002765  00000+0  39156-3 0  9998
2 68886  51.9013 206.0420 0000602  86.8788 273.2244 14.79930464 21064
KUIPER-00507            
1 68887U 26095Z   26258.21573394  .00001108  00000+0  17429-3 0  9991
2 68887  51.8984 197.5462 0000791  80.6791 279.4260 14.79926259 21159
KUIPER-00511            
1 68888U 26095AA  26257.19398022  .00002933  00000+0  41355-3 0  9993
2 68888  51.9021 194.6760 0000719  32.9744 327.1263 14.79941237 21102
KUIPER-00512            
1 68889U 26095AB  26258.59055103  .00001679  00000+0  24917-3 0  9990
2 68889  51.9010 208.4064 0000914  72.7247 287.3816 14.79933595 21030
KUIPER-00519            
1 68890U 26095AC  26258.26367020 -.00001614  00000+0 -18269-3 0  9994
2 68890  51.9022 199.9147 0000775 102.9768 257.1281 14.79942905 21126
KUIPER-00521            
1 68891U 26095AD  26258.19445812  .00003142  00000+0  44095-3 0  9995
2 68891  51.9031 193.9168 0000815  93.3343 266.7713 14.79938176 21201
KUIPER-00524            
1 68892U 26095AE  26258.29475452  .00002888  00000+0  40764-3 0  9995
2 68892  51.8977 202.1881 0000923  57.7656 302.3396 14.79935096 21095
KUIPER-00370            
1 68919U 26098A   26258.39028129  .00003089  00000+0  43402-3 0  9990
2 68919  51.9002  19.1452 0000531 118.8244 241.2771 14.79936232 20845
KUIPER-00380            
1 68920U 26098B   26258.60098521  .00000909  00000+0  14823-3 0  9992
2 68920  51.9003  10.8518 0000366  98.5590 261.5413 14.79929828 20978
KUIPER-00386            
1 68921U 26098C   26257.33210136  .00002821  00000+0  39891-3 0  9997
2 68921  51.9014  18.9576 0000428 109.3263 250.7746 14.79931228 20753
KUIPER-00388            
1 68922U 26098D   26258.38492806  .00003211  00000+0  45001-3 0  9994
2 68922  51.9029  24.4614 0000495 115.9025 244.1988 14.79931483 20767
KUIPER-00405            
1 68923U 26098E   26258.33695848  .00000845  00000+0  13986-3 0  9998
2 68923  51.8991  22.0261 0001037 174.4248 185.6726 14.79931710 20792
KUIPER-00408            
1 68924U 26098F   26257.72039090  .00002794  00000+0  39539-3 0  9999
2 68924  51.9003  17.1682 0000488  97.9885 262.1133 14.79927388 20817
KUIPER-00409            
1 68925U 26098G   26258.64352814  .00003527  00000+0  49132-3 0  9999
2 68925  51.9045  18.1696 0000301 359.8237   0.2725 14.79935760 20872
KUIPER-00410            
1 68926U 26098H   26257.36316966  .00002528  00000+0  36047-3 0  9997
2 68926  51.8994  21.3106 0001208 139.1171 220.9882 14.79931599 20725
KUIPER-00412            
1 68927U 26098J   26258.56990628  .00002870  00000+0  40525-3 0  9990
2 68927  51.9042   8.5070 0000601 117.0974 243.0050 14.79935400 21000
KUIPER-00413            
1 68928U 26098K   26258.04995378  .00003286  00000+0  45979-3 0  9991
2 68928  51.9006  23.2792 0000716 157.7101 202.3892 14.79936417 20758
KUIPER-00414            
1 68929U 26098L   26257.39765184  .00002598  00000+0  36972-3 0  9997
2 68929  51.8980  36.2473 0001549 123.4925 236.6186 14.79930577 20519
KUIPER-00415            
1 68930U 26098M   26258.36193125  .00002976  00000+0  41921-3 0  9997
2 68930  51.9034  14.4155 0000524 100.6925 259.4097 14.79937504 20900
KUIPER-00416            
1 68931U 26098N   26258.31229613 -.00001109  00000+0 -11635-3 0  9993
2 68931  51.9030   5.9865 0001160 100.8183 259.2911 14.79952879 21013
KUIPER-00420            
1 68932U 26098P   26257.69471362  .00002788  00000+0  39458-3 0  9999
2 68932  51.9017   9.8277 0000497 106.7078 253.3939 14.79931997 20910
KUIPER-00421            
1 68933U 26098Q   26258.56721403  .00001003  00000+0  16061-3 0  9995
2 68933  51.9039  10.9544 0000470 102.7955 257.3060 14.79930901 20975
KUIPER-00425            
1 68934U 26098R   26258.62666169  .00000015  00000+0  30997-4 0  9997
2 68934  51.9004  18.2370 0000431 111.7329 248.3679 14.79926397 20877
KUIPER-00430            
1 68935U 26098S   26257.34085786  .00007767  00000+0  10462-2 0  9990
2 68935  51.9045  26.3201 0000861 146.1693 213.9324 14.79953870 20656
KUIPER-00431            
1 68936U 26098T   26257.74338060  .00000362  00000+0  76465-4 0  9992
2 68936  51.8990  27.1295 0000719 128.3900 231.7127 14.79925176 20671
KUIPER-00432            
1 68937U 26098U   26258.35922559  .00000356  00000+0  75656-4 0  9997
2 68937  51.9021  16.8060 0000500 102.7944 257.3075 14.79928167 20876
KUIPER-00434            
1 68938U 26098V   26258.33091515  .00000923  00000+0  16190-3 0  9992
2 68938  51.8989  20.8885 0002495  93.7619 266.3627 14.76499614 20816
KUIPER-00436            
1 68939U 26098W   26258.33964407  .00003158  00000+0  44312-3 0  9992
2 68939  51.9007  19.5057 0000611 102.4231 257.6800 14.79928997 20833
KUIPER-00438            
1 68940U 26098X   26258.61245908 -.00002017  00000+0 -23569-3 0  9999
2 68940  51.9045  15.8230 0000540  92.1069 267.9955 14.79930342 20904
KUIPER-00439            
1 68941U 26098Y   26257.78513367 -.00009544  00000+0 -12245-2 0  9994
2 68941  51.9059  19.4721 0000970  68.9740 291.1326 14.79938601 20782
KUIPER-00440            
1 68942U 26098Z   26258.01277985 -.00001135  00000+0 -11991-3 0  9991
2 68942  51.9055  10.9631 0000393 353.9293   6.1665 14.79937618 20927
KUIPER-00442            
1 68943U 26098AA  26258.58335648 -.00015920  00000+0 -20610-2 0  9999
2 68943  51.9019  10.9617 0000684 127.3019  49.2152 14.79999119  5627
KUIPER-00446            
1 68944U 26098AB  26258.58140321  .00001286  00000+0  19767-3 0  9992
2 68944  51.9013  13.4521 0000782 244.2458 115.8423 14.79930493 20931
KUIPER-00451            
1 68945U 26098AC  26257.76025120  .00000441  00000+0  86892-4 0  9997
2 68945  51.9005  27.0644 0000430 122.3152 237.7852 14.79928996 20673
KUIPER-00452            
1 68946U 26098AD  26257.70621891  .00000379  00000+0  78683-4 0  9998
2 68946  51.9035  14.8189 0000559  97.1664 262.9362 14.79928150 20841
KUIPER-00453            
1 68947U 26098AE  26258.33354719  .00001689  00000+0  25049-3 0  9993
2 68947  51.9014   9.4654 0002239 133.5763 226.5386 14.79936148 20970
KUIPER-00454            
1 68948U 26098AF  26258.58335648 -.00025164  00000+0 -32802-2 0  9991
2 68948  51.9005  25.9155 0001122 112.1852 240.5714 14.79983178  5555
KUIPER-00455            
1 68949U 26098AG  26258.06414346  .00002528  00000+0  36053-3 0  9998
2 68949  51.9018  25.7241 0001885 126.3898 233.7239 14.79935825 20725
KUIPER-00458            
1 68950U 26098AH  26257.30372040  .00002645  00000+0  37594-3 0  9991
2 68950  51.9021  14.1091 0000557 100.4645 259.6381 14.79920850 20811
KUIPER-00282            
1 69267U 26118A   26258.32476178  .00003102  00000+0  43567-3 0  9992
2 69267  51.8980   2.0526 0000450 159.4372 200.6609 14.79936626 17507
KUIPER-00383            
1 69268U 26118B   26258.27681248 -.00000023  00000+0  25991-4 0  9995
2 69268  51.8986 359.7872 0000640  86.8950 273.2086 14.79931458 17532
KUIPER-00527            
1 69269U 26118C   26258.58070966  .00002735  00000+0  38755-3 0  9991
2 69269  51.8999 358.5737 0000405  91.8433 268.2575 14.79935849 17574
KUIPER-00562            
1 69270U 26118D   26258.55472924 -.00010373  00000+0 -13333-2 0  9993
2 69270  51.9048 350.9973 0000116 242.6409 117.4542 14.79945056 17680
KUIPER-00570            
1 69271U 26118E   26257.69742400  .00002593  00000+0  36902-3 0  9998
2 69271  51.9016   7.4502 0000383  98.5787 261.5219 14.79937480 17360
KUIPER-00572            
1 69272U 26118F   26258.56381559  .00000740  00000+0  12610-3 0  9992
2 69272  51.9027 358.5104 0000233 103.3986 256.7002 14.79932031 17577
KUIPER-00581            
1 69273U 26118G   26258.28829340  .00003009  00000+0  42347-3 0  9998
2 69273  51.9035   4.7374 0001374 170.5840 189.5148 14.79936505 17550
KUIPER-00584            
1 69274U 26118H   26258.33627085  .00001252  00000+0  19315-3 0  9994
2 69274  51.9041   7.1361 0000451 124.8108 235.2897 14.79930248 17430
KUIPER-00587            
1 69275U 26118J   26258.63404823  .00002784  00000+0  39403-3 0  9992
2 69275  51.9030 355.7104 0000645  87.4747 272.6290 14.79930786 17624
KUIPER-00590            
1 69276U 26118K   26258.02087955  .00001158  00000+0  18093-3 0  9995
2 69276  51.9010   3.4290 0000732 127.8022 232.3007 14.79936005 17469
KUIPER-00592            
1 69277U 26118L   26257.59894567  .00001991  00000+0  29024-3 0  9993
2 69277  51.9041   5.1760 0000548 106.2513 253.8509 14.79918327 17402
KUIPER-00593            
1 69278U 26118M   26258.58335648  .00007054  00000+0  95335-3 0  9998
2 69278  51.8997 343.4437 0001670 148.1968 319.8923 14.79930463  4838
KUIPER-00594            
1 69279U 26118N   26258.62523963  .00002841  00000+0  40159-3 0  9996
2 69279  51.9040 348.2626 0001210  77.8688 282.2410 14.79932683 17721
KUIPER-00595            
1 69280U 26118P   26258.58335648  .00008296  00000+0  11169-2 0  9992
2 69280  51.8988 343.4001 0001232 157.8876 129.9952 14.79897536  5855
KUIPER-00596            
1 69281U 26118Q   26258.58949828  .00000989  00000+0  15872-3 0  9991
2 69281  51.9042   5.9106 0000293  97.4961 262.6035 14.79933052 17476
KUIPER-00597            
1 69282U 26118R   26258.58335648  .00007510  00000+0  10140-2 0  9990
2 69282  51.8986 345.9392 0002027  39.8659 262.9901 14.79891725  4996
KUIPER-00599            
1 69283U 26118S   26258.00937898  .00001447  00000+0  21877-3 0  9996
2 69283  51.9014 358.3889 0000388  97.6540 262.4466 14.79936861 17534
KUIPER-00600            
1 69284U 26118T   26258.62800073  .00002548  00000+0  36313-3 0  9993
2 69284  51.9007 345.6551 0001722  33.2518 326.8552 14.79930509 17765
KUIPER-00601            
1 69285U 26118U   26258.57799835  .00002782  00000+0  39388-3 0  9996
2 69285  51.9035   0.9581 0000532  97.5723 262.5300 14.79922547 17546
KUIPER-00602            
1 69286U 26118V   26258.24843095  .00002762  00000+0  39117-3 0  9997
2 69286  51.9034 354.8300 0000736 174.3412 185.7559 14.79932828 17603
KUIPER-00603            
1 69287U 26118W   26258.53274217  .00002767  00000+0  39174-3 0  9992
2 69287  51.9061 356.1632 0000593 100.6889 259.4141 14.79937219 17603
KUIPER-00605            
1 69288U 26118X   26258.59218172  .00003057  00000+0  42968-3 0  9995
2 69288  51.9002   3.3786 0000400 116.7467 243.3537 14.79941335 17512
KUIPER-00606            
1 69289U 26118Y   26258.31327814  .00001616  00000+0  24098-3 0  9993
2 69289  51.9046 357.1299 0000406 105.3824 254.7183 14.79933693 17574
KUIPER-00607            
1 69290U 26118Z   26258.50977504 -.00002064  00000+0 -24178-3 0  9992
2 69290  51.9025 346.2683 0001263  10.6127 349.4861 14.79943788 17745
KUIPER-00608            
1 69291U 26118AA  26258.52394988 -.00003549  00000+0 -43659-3 0  9998
2 69291  51.9008 348.5653 0001329  69.7962 290.3143 14.79949551 17712
KUIPER-00610            
1 69292U 26118AB  26258.55232660  .00002608  00000+0  37099-3 0  9994
2 69292  51.9037 353.5721 0000340  85.8118 274.2883 14.79934092 17649
KUIPER-00613            
1 69293U 26118AC  26258.27142454  .00001382  00000+0  21029-3 0  9999
2 69293  51.9014   4.8149 0000493 100.4142 259.6876 14.79932959 17464
KUIPER-00618            
1 69294U 26118AD  26258.25113212  .00001164  00000+0  18174-3 0  9993
2 69294  51.9057 352.4122 0001877 162.6463 197.4564 14.79927906 17636
KUIPER-00620            
1 69295U 26118AE  26258.53544853 -.00000309  00000+0 -11528-4 0  9993
2 69295  51.9038 353.6581 0000428  92.6451 267.4560 14.79927392 17642
KUIPER-00423            
1 69592U 26140A   26258.58335648 -.00022318  00000+0 -27404-2 0  9995
2 69592  51.9002 325.7828 0012936 115.0647 152.5280 14.82337503  4553
KUIPER-00428            
1 69593U 26140B   26257.58706262  .00021187  00000+0  57000-3 0  9996
2 69593  51.8806 326.6912 0005644 247.1691 112.8700 15.37812641 14989
KUIPER-00481            
1 69594U 26140C   26258.49796784  .00001295  00000+0  21473-3 0  9999
2 69594  51.9026 331.0307 0001772 323.8003  36.2838 14.76496091 15004
KUIPER-00490            
1 69595U 26140D   26258.50365190  .00002533  00000+0  36114-3 0  9999
2 69595  51.9047 336.2423 0000457  79.2796 280.8218 14.79933753 14938
KUIPER-00493            
1 69596U 26140E   26258.53204244  .00002296  00000+0  33010-3 0  9993
2 69596  51.9044 341.1679 0000573 278.5243  81.5655 14.79932679 14863
KUIPER-00496            
1 69597U 26140F   26258.58335648  .00017771  00000+0  12904-2 0  9994
2 69597  51.8910 325.9146 0008964 265.3258 347.6816 15.03909210  5617
KUIPER-00513            
1 69598U 26140G   26258.19977422  .00002567  00000+0  36563-3 0  9999
2 69598  51.9020 337.6326 0000717 117.1071 242.9965 14.79931281 14882
KUIPER-00516            
1 69599U 26140H   26258.58335648 -.01190079  00000+0 -62067-1 0  9996
2 69599  51.8858 322.4109 0006643 195.3377  46.3986 15.18394688  4362
KUIPER-00517            
1 69600U 26140J   26258.58335648 -.00636408  00000+0 -20626-1 0  9994
2 69600  51.8781 321.4652 0009095 151.6855 158.2715 15.33658292  5569
KUIPER-00520            
1 69601U 26140K   26258.23666311  .00001530  00000+0  24764-3 0  9990
2 69601  51.9039 339.3287 0001085 174.5532 185.5441 14.76601409 14862
KUIPER-00522            
1 69602U 26140L   26258.58335648 -.00020037  00000+0 -21858-2 0  9990
2 69602  51.8992 326.0844 0016764 119.0196  84.2245 14.87067978  5846
KUIPER-00528            
1 69603U 26140M   26258.51786758  .00000809  00000+0  13509-3 0  9994
2 69603  51.9053 338.7423 0000630  91.5471 268.5563 14.79928993 14893
KUIPER-00532            
1 69604U 26140N   26258.58335648  .00014266  00000+0  10804-2 0  9996
2 69604  51.8910 324.4491 0002452 173.4690 168.8139 15.02501050  4460
KUIPER-00533            
1 69605U 26140P   26258.50637718  .00000864  00000+0  14231-3 0  9990
2 69605  51.9021 333.7853 0000384  83.6686 276.4321 14.79930150 14964
KUIPER-00534            
1 69606U 26140Q   26258.58335648  .00041446  00000+0  13694-2 0  9998
2 69606  51.8806 322.4783 0013536 116.9958  66.9009 15.30890016  5551
KUIPER-00537            
1 69607U 26140R   26258.49827459  .00000936  00000+0  15170-3 0  9996
2 69607  51.9004 341.2350 0000570 356.0996   3.9962 14.79932337 14863
KUIPER-00538            
1 69608U 26140S   26258.60242179  .00021208  00000+0  28065-2 0  9991
2 69608  51.9006 338.3014 0000265  60.6867 299.4122 14.79868746 14914
KUIPER-00540            
1 69609U 26140T   26258.61536459  .00010365  00000+0  28069-3 0  9997
2 69609  51.8817 321.5981 0004797 247.9963 112.0515 15.38244240 15147
KUIPER-00541            
1 69610U 26140U   26258.58335648 -.01193985  00000+0 -50459-1 0  9991
2 69610  51.8870 321.5828 0007218 166.9948  80.0760 15.25488502  4165
KUIPER-00542            
1 69611U 26140V   26258.58335648 -.02122499  00000+0 -74829-1 0  9992
2 69611  51.8815 321.3001 0007912 155.7046 227.2493 15.32112356  3865
KUIPER-00543            
1 69612U 26140W   26258.58335648  .00007967  00000+0  65736-3 0  9990
2 69612  51.8961 324.3312 0005298 252.1904  33.4132 14.99795843  5898
KUIPER-00544            
1 69613U 26140X   26258.58335648 -.01180760  00000+0 -52581-1 0  9999
2 69613  51.8806 321.7061 0005305 154.6176  62.2473 15.23741343  5651
KUIPER-00546            
1 69614U 26140Y   26258.58335648 -.00012819  00000+0 -13585-2 0  9990
2 69614  51.8990 326.0963 0020506 112.2692 166.7032 14.87860316  5896
KUIPER-00547            
1 69615U 26140Z   26258.17594260  .00024196  00000+0  67291-3 0  9996
2 69615  51.8823 323.1647 0007532 158.2285 201.9023 15.36688234 15087
KUIPER-00549            
1 69616U 26140AA  26258.58335648 -.01211166  00000+0 -75080-1 0  9996
2 69616  51.8948 322.7409 0005082 232.2544 133.7459 15.12418341  5073
KUIPER-00550            
1 69617U 26140AB  26258.58335648 -.00245417  00000+0 -14659-1 0  9997
2 69617  51.8826 326.5634 0005882 289.6646  63.2558 15.11811048  5840
KUIPER-00551            
1 69618U 26140AC  26258.61521551  .00018679  00000+0  49389-3 0  9998
2 69618  51.8785 320.8342 0011628 133.2057 226.9904 15.38387739 15155
KUIPER-00554            
1 69619U 26140AD  26258.17526854  .00028386  00000+0  77293-3 0  9992
2 69619  51.8776 323.1293 0010461 142.1826 217.9897 15.37230674 15081
KUIPER-00555            
1 69620U 26140AE  26258.00002315  .00045421  00000+0  12344-2 0  9991
2 69620  51.8825 323.9315 0010744 131.8601  15.3824 15.37058990  2682
KUIPER-00556            
1 69621U 26140AF  26258.58335648 -.00022051  00000+0 -28302-2 0  9990
2 69621  51.8977 328.4439 0008725 134.1471  66.4712 14.80525533  3981
KUIPER-00557            
1 69622U 26140AG  26258.44465369  .00027512  00000+0  71761-3 0  9993
2 69622  51.8823 321.9555 0009137 145.7708 214.3870 15.38587511 15124
KUIPER-00560            
1 69623U 26140AH  26258.60790895  .00020155  00000+0  55533-3 0  9992
2 69623  51.8787 321.5239 0007514 173.9369 186.1710 15.37095264 15141
KUIPER-00561            
1 69624U 26140AJ  26258.20250668  .00002660  00000+0  37731-3 0  9999
2 69624  51.9023 335.0975 0000671 114.8281 245.2751 14.79992275 14927
KUIPER-00564            
1 69625U 26140AK  26258.22913985  .00001506  00000+0  24440-3 0  9991
2 69625  51.8993 332.3880 0001934 108.6388 251.4783 14.76577814 14963
KUIPER-00567            
1 69626U 26140AL  26258.58335648  .00026250  00000+0  34569-2 0  9990
2 69626  51.8975 328.4434 0002669 121.4227 260.4700 14.79957002  5688
KUIPER-00573            
1 69627U 26140AM  26258.20514562  .00000865  00000+0  14255-3 0  9999
2 69627  51.9012 332.6219 0000858 105.6358 254.4700 14.79918474 14950
KUIPER-00258            
1 69763U 26151A   26258.58335648 -.00036742  00000+0 -25909-2 0  9991
2 69763  51.8848 242.1097 0010241  37.7446  89.0986 15.04410171  5910
KUIPER-00526            
1 69764U 26151B   26258.47178818  .00002050  00000+0  29784-3 0  9993
2 69764  51.8981 256.5026 0000620  65.8926 294.2101 14.79923640 11350
KUIPER-00558            
1 69765U 26151C   26258.37049938  .00002429  00000+0  34756-3 0  9998
2 69765  51.8974 256.8701 0000571  73.5516 286.5509 14.79930869 11348
KUIPER-00569            
1 69766U 26151D   26258.39007114  .00002303  00000+0  33104-3 0  9998
2 69766  51.9008 254.2755 0000724  42.4921 317.6098 14.79929997 11387
KUIPER-00589            
1 69767U 26151E   26258.49075874  .00001468  00000+0  23925-3 0  9999
2 69767  51.9006 256.7860 0002694  51.9417 308.1787 14.76528753 11352
KUIPER-00598            
1 69768U 26151F   26258.41243501  .00002075  00000+0  30131-3 0  9998
2 69768  51.8997 249.1965 0000680 121.3797 238.7232 14.79910444 11458
KUIPER-00604            
1 69769U 26151G   26258.58335648 -.00025617  00000+0 -33500-2 0  9992
2 69769  51.9009 250.9359 0000724  25.9406 269.8504 14.79859277  3809
KUIPER-00609            
1 69770U 26151H   26257.99453255  .00001699  00000+0  27153-3 0  9993
2 69770  51.9014 250.7327 0002143  21.7239 338.3813 14.76613721 11392
KUIPER-00611            
1 69771U 26151J   26258.42653271  .00002308  00000+0  33174-3 0  9991
2 69771  51.8981 251.6143 0000626  59.4742 300.6282 14.79928763 11426
KUIPER-00612            
1 69772U 26151K   26258.46846028  .00001525  00000+0  24662-3 0  9992
2 69772  51.9007 253.8875 0000730  49.1175 310.9849 14.76639217 11394
KUIPER-00614            
1 69773U 26151L   26258.00448524 -.00000018  00000+0  26661-4 0  9991
2 69773  51.8984 253.5504 0001002  64.0834 296.0232 14.79937348 11350
KUIPER-00615            
1 69774U 26151M   26258.58335648 -.00017692  00000+0 -22989-2 0  9991
2 69774  51.8998 255.8722 0001207 121.7682  23.2526 14.79913621  5067
KUIPER-00616            
1 69775U 26151N   26258.58335648 -.00062995  00000+0 -56309-2 0  9991
2 69775  51.8955 241.5340 0002527 114.6441 202.5028 14.95676710  5791
KUIPER-00617            
1 69776U 26151P   26258.58335648 -.00029302  00000+0 -38343-2 0  9995
2 69776  51.8987 245.9398 0000816 171.6526  95.3620 14.79901108  5783
KUIPER-00619            
1 69777U 26151Q   26258.40610274  .00001622  00000+0  26073-3 0  9999
2 69777  51.9008 248.8630 0001750 142.5608 217.5475 14.76578919 11450
KUIPER-00621            
1 69778U 26151R   26257.29541445  .00007807  00000+0  10513-2 0  9991
2 69778  51.8984 256.6305 0000789 129.5346 230.5687 14.79953912 11255
KUIPER-00622            
1 69779U 26151S   26258.41224056  .00001540  00000+0  24926-3 0  9995
2 69779  51.9002 255.5428 0001016  73.1137 286.9936 14.76562616 11366
KUIPER-00623            
1 69780U 26151T   26258.37320153  .00002208  00000+0  31778-3 0  9992
2 69780  51.8975 254.3774 0001760 101.8493 258.2667 14.80047522 11370
KUIPER-00626            
1 69781U 26151U   26258.39556355  .00011715  00000+0  15638-2 0  9999
2 69781  51.8958 249.2457 0002151  91.7847 268.3361 14.79910614 11459
KUIPER-00627            
1 69782U 26151V   26258.58335648 -.00061761  00000+0 -59594-2 0  9998
2 69782  51.8927 243.8418 0005950  74.1097 168.2585 14.92650362  2783
KUIPER-00629            
1 69783U 26151W   26258.38467579  .00002215  00000+0  31951-3 0  9991
2 69783  51.9016 259.2539 0000636  65.2292 294.8737 14.79930153 11311
KUIPER-00631            
1 69784U 26151X   26258.40154422  .00002125  00000+0  30777-3 0  9990
2 69784  51.9001 259.2385 0000755  80.8143 279.2905 14.79918062 11314
KUIPER-00634            
1 69785U 26151Y   26258.42383804  .00002143  00000+0  30999-3 0  9997
2 69785  51.9000 254.1464 0000881  97.1286 262.9776 14.79933496 11385
KUIPER-00639            
1 69786U 26151Z   26258.58335648 -.00049882  00000+0 -49297-2 0  9991
2 69786  51.8955 243.7165 0012813  34.0961  48.1892 14.91542160  5344
KUIPER-00641            
1 69787U 26151AA  26258.58335648 -.00081941  00000+0 -10279-1 0  9991
2 69787  51.9001 245.9657 0009258  51.9692 295.4631 14.82152424  4624
KUIPER-00644            
1 69788U 26151AB  26258.58335648 -.01074636  00000+0 -66496-1 0  9998
2 69788  51.8842 240.3467 0008927  36.8304 247.1325 15.12087337  5415
KUIPER-00646            
1 69789U 26151AC  26258.58335648 -.00075713  00000+0 -95873-2 0  9997
2 69789  51.8990 246.0435 0002291  47.2920 123.1628 14.81751596  3682
KUIPER-00647            
1 69790U 26151AD  26258.58335648 -.00026164  00000+0 -25724-2 0  9993
2 69790  51.8940 245.7909 0010701  46.1424  74.5482 14.91451449  5913
KUIPER-00662            
1 69791U 26151AE  26258.58335648 -.00019171  00000+0 -24945-2 0  9998
2 69791  51.9001 258.4315 0000107  83.9033 345.3952 14.79907104  4818
