EUTELSAT 174A           
1 28924U 05052A   26277.53169764 -.00000003  00000+0  00000+0 0  9994
2 28924   4.4901  75.1060 0006148 120.1050 183.4260  1.00271331 53428
EUTELSAT 33F            
1 29270U 06032A   26277.18297868  .00000143  00000+0  00000+0 0  9990
2 29270   1.9371  80.8362 0003421 115.0960 275.9267  1.00270602 48404
EUTELSAT HOTBIRD 13C    
1 33459U 08065A   26277.30899258 -.00000295  00000+0  00000+0 0  9996
2 33459   3.2249  77.7967 0003887 125.5505 230.6286  1.00270833 48438
EUTELSAT 36B            
1 36101U 09065A   26277.47151301  .00000098  00000+0  00000+0 0  9992
2 36101   0.7611  80.9902 0005862 115.5146  36.9148  1.00272870 61803
EUTELSAT KA-SAT 9A      
1 37258U 10069A   26277.26572391  .00000047  00000+0  00000+0 0  9999
2 37258   0.0777 354.7208 0005213 167.1286 315.8101  1.00264214 45108
EUTELSAT 7 WEST A       
1 37816U 11051A   26277.31757264 -.00000074  00000+0  00000+0 0  9992
2 37816   0.0678 346.8847 0006516 202.8600 290.3005  1.00270919 54977
EUTELSAT 16A            
1 37836U 11057A   26277.27128178 -.00000015  00000+0  00000+0 0  9996
2 37836   0.1403  69.9328 0005607 119.4493 287.5662  1.00022963  8437
EUTELSAT 21B            
1 38992U 12062B   26277.25196566  .00000116  00000+0  00000+0 0  9992
2 38992   0.0703   7.0158 0002887 181.4922 296.7609  1.00273347 50928
EUTELSAT 70B            
1 39020U 12069A   26277.47549970 -.00000058  00000+0  00000+0 0  9993
2 39020   0.0652 359.4635 0003782 192.6967  62.7065  1.00271433 50602
EUTELSAT 117 WEST A     
1 39122U 13012A   26277.49836483 -.00000028  00000+0  00000+0 0  9992
2 39122   0.0453  39.1621 0002912 156.9035 239.7504  1.00270722 49527
EUTELSAT 7B             
1 39163U 13022A   26277.30530659  .00000090  00000+0  00000+0 0  9992
2 39163   0.0691   9.6651 0002904 105.0485  24.2143  1.00272821 49041
EXPRESS-AT1             
1 39612U 14010A   26277.54830005 -.00000143  00000+0  00000+0 0  9993
2 39612   0.5323  84.0777 0004831  95.1877 109.5839  1.00314012 45918
EXPRESS-AT2             
1 39613U 14010B   26277.11624505  .00000065  00000+0  00000+0 0  9995
2 39613   0.0016 166.3195 0000111 263.8336  40.5293  1.00273124 45592
EUTELSAT 3B             
1 39773U 14030A   26277.31641916  .00000006  00000+0  00000+0 0  9996
2 39773   0.0648   1.3737 0004297 192.5806 296.0828  1.00270645 45169
EUTELSAT 115 WEST B     
1 40425U 15010B   26277.49902707 -.00000040  00000+0  00000+0 0  9997
2 40425   0.0105  54.2735 0000454  55.8052 327.8813  1.00270795 42477
EUTELSAT 8 WEST B       
1 40875U 15039B   26277.24615897 -.00000079  00000+0  00000+0 0  9993
2 40875   0.0681   7.0779 0003621 185.8540 260.6372  1.00271870 40752
EUTELSAT 9B             
1 41310U 16005A   26277.24945233  .00000048  00000+0  00000+0 0  9997
2 41310   0.0575  61.3063 0003412 166.1055 244.3454  1.00270514 39212
EUTELSAT 65 WEST A      
1 41382U 16014A   26277.37737291 -.00000291  00000+0  00000+0 0  9994
2 41382   0.0789 307.7436 0002291 251.2098 244.7993  1.00270354 38624
EUTELSAT 117 WEST B     
1 41589U 16038B   26277.42891935 -.00000026  00000+0  00000+0 0  9997
2 41589   0.0130  43.0924 0000269  25.9839 341.4757  1.00271120 37755
EUTELSAT 172B           
1 42741U 17029B   26276.28394588 -.00000016  00000+0  00000+0 0  9993
2 42741   0.0281 133.9602 0000268 157.7486 354.5368  1.00272399 34834
EUTELSAT 7C             
1 44334U 19034B   26277.26572391  .00000034  00000+0  00000+0 0  9999
2 44334   0.0668 182.2564 0003190 359.1903 294.1846  1.00270396  7921
EUTELSAT 5 WEST B       
1 44624U 19067A   26277.38924631 -.00000056  00000+0  00000+0 0  9993
2 44624   0.0647   5.6009 0003213 192.1839 310.4466  1.00271785 25520
EUTELSAT KONNECT        
1 45027U 20005B   26277.17786532  .00000036  00000+0  00000+0 0  9995
2 45027   0.0691  95.4103 0001736 147.9787 200.7522  1.00268746 25423
EUTELSAT QUANTUM        
1 49056U 21069B   26276.47314005  .00000115  00000+0  00000+0 0  9994
2 49056   0.0076 108.3398 0002375  91.3196  30.5668  1.00271096 19012
EUTELSAT KONNECT VHTS   
1 53765U 22110A   26277.17699866  .00000002  00000+0  00000+0 0  9998
2 53765   0.0547 101.7742 0002154  76.9570 260.5700  1.00265308  7925
EUTELSAT HOTBIRD 13F    
1 54048U 22134A   26275.75353200  .00000079  00000+0  00000+0 0  9994
2 54048   0.0572 286.5368 0001987  64.5181 304.6992  1.00271778 14455
EUTELSAT HOTBIRD 13G    
1 54225U 22146A   26277.13517197  .00000073  00000+0  00000+0 0  9999
2 54225   0.0481 237.1675 0001968 311.9219 245.4205  1.00269158  8556
EUTELSAT 10B            
1 54259U 22157A   26277.26572391  .00000054  00000+0  00000+0 0  9998
2 54259   0.0561  97.7824 0001236  34.4032 346.4827  1.00267793 14121
EUTELSAT 36D            
1 59346U 24059A   26275.06850512  .00000151  00000+0  00000+0 0  9991
2 59346   0.0155 204.9173 0000461  80.7891 145.6385  1.00270886  9216
