EUTELSAT 174A           
1 28924U 05052A   26262.74492457  .00000007  00000+0  00000+0 0  9992
2 28924   4.4515  75.3028 0005999 101.9972 263.5456  1.00274755 53282
EUTELSAT 33F            
1 29270U 06032A   26262.79975166  .00000152  00000+0  00000+0 0  9995
2 29270   1.8989  81.0457 0003361  90.0598 148.6072  1.00271236 48255
EUTELSAT HOTBIRD 13C    
1 33459U 08065A   26262.69722439 -.00000286  00000+0  00000+0 0  9998
2 33459   3.1864  77.9905 0003627 103.3355  17.9938  1.00272540 48294
EUTELSAT 36B            
1 36101U 09065A   26262.72544538  .00000108  00000+0  00000+0 0  9994
2 36101   0.7228  81.1190 0005769  94.6548 134.5150  1.00273259 61651
EUTELSAT KA-SAT 9A      
1 37258U 10069A   26262.70892443  .00000057  00000+0  00000+0 0  9996
2 37258   0.0741 353.8970 0005303 170.8056  98.1351  1.00271358 44958
EUTELSAT 7 WEST A       
1 37816U 11051A   26262.13543632 -.00000064  00000+0  00000+0 0  9997
2 37816   0.0644   3.7581 0006058 172.0989 223.6404  1.00272746 54818
EUTELSAT 16A            
1 37836U 11057A   26262.71031110  .00000100  00000+0  00000+0 0  9992
2 37836   0.1051  65.2710 0005499 113.2996  91.7526  1.00272770  8289
EUTELSAT 21B            
1 38992U 12062B   26262.73410626  .00000126  00000+0  00000+0 0  9996
2 38992   0.0695   1.1717 0002919 174.6264 108.7165  1.00272912 50772
EUTELSAT 70B            
1 39020U 12069A   26262.76016986 -.00000048  00000+0  00000+0 0  9994
2 39020   0.0648 354.7386 0003702 185.1381 162.9578  1.00271162 50451
EUTELSAT 117 WEST A     
1 39122U 13012A   26262.62867565 -.00000017  00000+0  00000+0 0  9994
2 39122   0.0169 275.5731 0002889 257.8838 294.6114  1.00271722 49386
EUTELSAT 7B             
1 39163U 13022A   26262.71031110  .00000100  00000+0  00000+0 0  9991
2 39163   0.0660 353.4022 0004747 111.8609 165.0858  1.00273951 48893
EXPRESS-AT1             
1 39612U 14010A   26262.81066803 -.00000110  00000+0  00000+0 0  9998
2 39612   0.4948  84.4273 0004968  80.4014 201.6554  1.00315795 45766
EXPRESS-AT2             
1 39613U 14010B   26262.71819780  .00000074  00000+0  00000+0 0  9996
2 39613   0.0129 235.8768 0000361 249.3795 187.9322  1.00273154 45446
EUTELSAT 3B             
1 39773U 14030A   26262.82356829  .00000016  00000+0  00000+0 0  9993
2 39773   0.0623 352.8541 0004175 182.4004 123.0686  1.00271332 45011
EUTELSAT 115 WEST B     
1 40425U 15010B   26262.68439765 -.00000029  00000+0  00000+0 0  9998
2 40425   0.0426 354.0482 0000091 270.6537 225.3751  1.00271501 42339
EUTELSAT 8 WEST B       
1 40875U 15039B   26262.70554441 -.00000070  00000+0  00000+0 0  9996
2 40875   0.0674   2.2975 0003642 176.5590  65.7693  1.00271187 40609
EUTELSAT 9B             
1 41310U 16005A   26262.70892443  .00000057  00000+0  00000+0 0  9996
2 41310   0.0455  63.9219 0002428 147.7597  51.1493  1.00271186 39068
EUTELSAT 65 WEST A      
1 41382U 16014A   26262.55171720 -.00000281  00000+0  00000+0 0  9996
2 41382   0.0640 324.2401 0002238 207.9180 319.7347  1.00270948 38475
EUTELSAT 117 WEST B     
1 41589U 16038B   26262.62867637 -.00000016  00000+0  00000+0 0  9994
2 41589   0.0417 348.6305 0000206 277.8050 201.4376  1.00272017 37617
EUTELSAT 172B           
1 42741U 17029B   26262.65712338 -.00000009  00000+0  00000+0 0  9998
2 42741   0.0238 142.0697 0000353 295.8216 329.2477  1.00273659 34695
EUTELSAT 7C             
1 44334U 19034B   26262.63725079  .00000044  00000+0  00000+0 0  9998
2 44334   0.0681 181.8343 0003266 337.4216  75.7018  1.00271630  7786
EUTELSAT 5 WEST B       
1 44624U 19067A   26262.70615110 -.00000046  00000+0  00000+0 0  9991
2 44624   0.0705 332.6231 0003190 201.6128  73.5983  1.00272737 25378
EUTELSAT KONNECT        
1 45027U 20005B   26262.28086365  .00000046  00000+0  00000+0 0  9999
2 45027   0.0631  98.8541 0002015 104.8364 262.8225  1.00275166 25281
EUTELSAT QUANTUM        
1 49056U 21069B   26262.71663779  .00000122  00000+0  00000+0 0  9999
2 49056   0.0189  70.1199 0002306 101.3955 132.8026  1.00272220 18878
EUTELSAT KONNECT VHTS   
1 53765U 22110A   26262.13742968  .00000013  00000+0  00000+0 0  9992
2 53765   0.0554 103.7799 0002855  42.6398 263.8461  1.00271180  7771
EUTELSAT HOTBIRD 13F    
1 54048U 22134A   26262.70970443  .00000083  00000+0  00000+0 0  9994
2 54048   0.0608 289.5266 0001925  77.8932 259.6962  1.00273296 14327
EUTELSAT HOTBIRD 13G    
1 54225U 22146A   26262.70970443  .00000083  00000+0  00000+0 0  9994
2 54225   0.0482 234.7723 0002083 299.2511  93.1007  1.00274177  8416
EUTELSAT 10B            
1 54259U 22157A   26262.56653727  .00000064  00000+0  00000+0 0  9999
2 54259   0.0571 100.7764 0001662   1.1507 110.4835  1.00271067 13970
EUTELSAT 36D            
1 59346U 24059A   26262.21534336  .00000151  00000+0  00000+0 0  9997
2 59346   0.0115 159.8428 0000130 315.2085 356.4780  1.00273241  9092
