QIANFAN-1               
1 60379U 24140A   26280.61036149  .00000035  00000+0  35819-4 0  9991
2 60379  88.9670 268.2399 0019619  73.2862 287.0441 13.51026573107702
QIANFAN-2               
1 60380U 24140B   26280.56518426  .00000045  00000+0  50549-4 0  9998
2 60380  88.9657 268.0436 0014428  50.1262 310.1156 13.51020978107759
QIANFAN-3               
1 60381U 24140C   26280.57354499  .00000030  00000+0  27559-4 0  9997
2 60381  88.9649 268.1526 0015832  60.6544 299.6187 13.51023691107661
QIANFAN-4               
1 60382U 24140D   26280.54875469  .00000039  00000+0  41875-4 0  9996
2 60382  88.9674 268.1281 0014725  52.2715 307.9768 13.51021279107786
QIANFAN-5               
1 60383U 24140E   26280.59789997  .00000045  00000+0  51373-4 0  9993
2 60383  88.9649 268.1742 0017236  70.2495 290.0513 13.51032056107657
QIANFAN-6               
1 60384U 24140F   26280.54459024  .00000041  00000+0  44231-4 0  9995
2 60384  88.9676 268.0074 0014961  57.4039 302.8554 13.51024566107843
QIANFAN-7               
1 60385U 24140G   26280.57586248  .00000188  00000+0  69746-4 0  9998
2 60385  88.9738 258.5384 0016704 130.1089 230.1573 14.27898596113030
QIANFAN-8               
1 60386U 24140H   26280.55292279  .00000045  00000+0  51452-4 0  9992
2 60386  88.9677 268.2474 0018452  58.4432 301.8518 13.51026513107695
QIANFAN-9               
1 60387U 24140J   26280.60227300  .00000044  00000+0  48984-4 0  9997
2 60387  88.9675 268.3116 0018144  58.1483 302.1431 13.51022392107687
QIANFAN-10              
1 60388U 24140K   26280.60636524  .00000037  00000+0  37860-4 0  9993
2 60388  88.9687 267.6904 0016050  38.1609 322.0675 13.51022496107811
QIANFAN-11              
1 60389U 24140L   26280.56943942  .00000030  00000+0  27616-4 0  9995
2 60389  88.9611 268.0559 0016172  58.4886 301.7842 13.51026590107467
QIANFAN-12              
1 60390U 24140M   26280.58996746  .00000045  00000+0  50184-4 0  9991
2 60390  88.9654 268.2271 0015147  65.9103 294.3630 13.51024216107594
QIANFAN-13              
1 60391U 24140N   26280.56112459  .00000047  00000+0  54583-4 0  9990
2 60391  88.9914 268.5194 0015006  68.0330 292.2414 13.51024421107619
QIANFAN-14              
1 60392U 24140P   26280.58589852  .00000037  00000+0  37711-4 0  9991
2 60392  88.9645 268.1981 0018684  67.5983 292.7145 13.51026213107622
QIANFAN-15              
1 60393U 24140Q   26280.59395276  .00000059  00000+0  72694-4 0  9991
2 60393  88.9668 268.2248 0014249  56.4357 303.8152 13.51029128107619
QIANFAN-16              
1 60394U 24140R   26280.58163258  .00000030  00000+0  27161-4 0  9992
2 60394  88.9671 268.3544 0016666  71.2838 289.0121 13.51025570107526
QIANFAN-17              
1 60395U 24140S   26280.57768063  .00000033  00000+0  31722-4 0  9998
2 60395  88.9681 268.4335 0016971  65.6726 294.6195 13.51026285108482
QIANFAN-18              
1 60396U 24140T   26280.55709452  .00000042  00000+0  46180-4 0  9998
2 60396  88.9677 267.9501 0015976  50.5827 309.6736 13.51026454107874
QIANFAN-19              
1 61552U 24185A   26280.54976286  .00000272  00000+0  13447-3 0  9996
2 61552  88.9886  43.7192 0008754  73.0541 287.1605 14.14541033111905
QIANFAN-20              
1 61553U 24185B   26280.38894182  .00000250  00000+0  13589-3 0  9996
2 61553  88.9880  44.3555 0007775 107.5526 252.6508 14.09085589111540
QIANFAN-21              
1 61554U 24185C   26280.57720357  .00000356  00000+0  15169-3 0  9993
2 61554  88.9806  41.9992 0012761 107.9333 252.3252 14.22946838112461
QIANFAN-22              
1 61555U 24185D   26280.59455739  .00000196  00000+0  15807-3 0  9996
2 61555  88.9860  46.5170 0007625 147.8829 212.2808 13.86435246110349
QIANFAN-23              
1 61556U 24185E   26280.59506799  .00000248  00000+0  11720-3 0  9998
2 61556  88.9879  43.3847 0009417  78.9598 281.2649 14.16561467112052
QIANFAN-24              
1 61557U 24185F   26280.60682678  .00000439  00000+0  18428-3 0  9996
2 61557  88.9865  42.3024 0011034  53.3423 306.8782 14.24171729112550
QIANFAN-25              
1 61558U 24185G   26280.55019001  .00000308  00000+0  17854-3 0  9992
2 61558  88.9876  44.3917 0014410 122.0835 238.1749 14.06144415111492
QIANFAN-26              
1 61559U 24185H   26280.57569828  .00000168  00000+0  15501-3 0  9993
2 61559  88.9866  47.5080 0006131 169.6979 190.4314 13.77950920109820
QIANFAN-27              
1 61560U 24185J   26280.57445141  .00000469  00000+0  18475-3 0  9993
2 61560  88.9876  41.9344 0008304  42.9356 317.2485 14.27617188112790
QIANFAN-28              
1 61561U 24185K   26280.59675037  .00000452  00000+0  17473-3 0  9994
2 61561  88.9894  41.9475 0008120  41.0105 319.1699 14.28505567112835
QIANFAN-29              
1 61562U 24185L   26280.57076654  .00000133  00000+0  18704-3 0  9997
2 61562  88.9834  50.4305 0008079 264.1290  95.8941 13.51100136108148
QIANFAN-30              
1 61563U 24185M   26280.54940051  .00000020  00000+0  13341-4 0  9994
2 61563  88.9855  50.0729 0006050 245.2777 114.7744 13.50079140108382
QIANFAN-31              
1 61564U 24185N   26280.60420506  .00000030  00000+0  25072-4 0  9995
2 61564  88.9840  49.3953 0005867 223.9349 136.1340 13.58069302108725
QIANFAN-32              
1 61565U 24185P   26280.57673438  .00000130  00000+0  18338-3 0  9993
2 61565  88.9894  50.2909 0007763 285.9635  74.0661 13.50810388108388
QIANFAN-33              
1 61566U 24185Q   26280.58569597  .00000218  00000+0  14702-3 0  9993
2 61566  88.9864  45.5061 0009722 109.8503 250.3723 13.96762969110873
QIANFAN-34              
1 61567U 24185R   26280.60850418  .00000389  00000+0  24364-3 0  9996
2 61567  88.9841  44.6728 0008037 109.0666 251.1386 14.02534492111241
QIANFAN-35              
1 61568U 24185S   26280.58555440  .00000418  00000+0  16133-3 0  9999
2 61568  88.9875  41.8227 0007232  40.7550 319.4184 14.28373947112835
QIANFAN-36              
1 61569U 24185T   26280.60145889  .00000115  00000+0  14754-3 0  9996
2 61569  88.9830  49.9091 0004768 244.6571 115.4090 13.55650763108416
QIANFAN-37              
1 62238U 24232B   26280.53979947  .00000094  00000+0  12713-3 0  9994
2 62238  89.0168  11.3453 0001492  96.5615 263.5706 13.51033957139515
QIANFAN-38              
1 62239U 24232C   26280.56459138  .00000077  00000+0  10100-3 0  9992
2 62239  89.0174  11.2788 0015789  58.0455 302.2229 13.51032096139572
QIANFAN-39              
1 62240U 24232D   26280.59986810  .00000297  00000+0  11907-3 0  9999
2 62240  89.0144   3.3139 0016734 171.7817 188.3654 14.25572667143967
QIANFAN-40              
1 62241U 24232E   26280.59751161  .00000098  00000+0  13258-3 0  9999
2 62241  89.0201  10.9433 0015082  65.7157 294.5568 13.51032542139945
QIANFAN-41              
1 62242U 24232F   26280.60569329  .00000090  00000+0  12088-3 0  9997
2 62242  89.0172  11.2207 0015084  54.5625 305.6932 13.51033592139602
QIANFAN-42              
1 62243U 24232G   26280.57782270  .00000274  00000+0  11147-3 0  9995
2 62243  89.0142   3.4077 0015296 178.2562 181.8687 14.24659152143914
QIANFAN-43              
1 62244U 24232H   26280.30537364  .00000061  00000+0  75284-4 0  9996
2 62244  89.0177  11.3290 0016780  59.5020 300.7785 13.51020756108178
QIANFAN-44              
1 62245U 24232J   26280.58927145  .00000087  00000+0  11576-3 0  9998
2 62245  89.0175  11.1067 0014926  56.7878 303.4702 13.51033143139680
QIANFAN-45              
1 62246U 24232K   26280.55638885  .00000087  00000+0  11608-3 0  9992
2 62246  89.0179  11.2671 0015573  56.2614 304.0019 13.51031879139603
QIANFAN-46              
1 62247U 24232L   26280.58100017  .00000094  00000+0  12645-3 0  9997
2 62247  89.0175  11.3215 0015775  61.2192 299.0541 13.51032941139565
QIANFAN-47              
1 62248U 24232M   26280.58516774  .00000100  00000+0  13629-3 0  9990
2 62248  89.0171  11.2420 0016175  60.2787 299.9972 13.51032320139594
QIANFAN-48              
1 62249U 24232N   26280.54830551  .00000095  00000+0  12851-3 0  9998
2 62249  89.0174  11.2592 0018482  62.1163 298.1858 13.51026701139590
QIANFAN-49              
1 62250U 24232P   26280.53577989  .00000057  00000+0  70178-4 0  9997
2 62250  89.0174  11.2705 0015434  58.0303 302.2346 13.51021275108183
QIANFAN-50              
1 62251U 24232Q   26280.56043016  .00000078  00000+0  10223-3 0  9997
2 62251  89.0179  11.2925 0017111  58.6912 301.5912 13.51033299108213
QIANFAN-51              
1 62252U 24232R   26280.54402723  .00000094  00000+0  12608-3 0  9997
2 62252  89.0173  11.2697 0014706  63.1667 297.0986 13.51032188108204
QIANFAN-52              
1 62253U 24232S   26280.57277314  .00000088  00000+0  11770-3 0  9999
2 62253  89.0169  11.1287 0016513  55.0324 305.2376 13.51034235108291
QIANFAN-53              
1 62254U 24232T   26280.55231840  .00000091  00000+0  12206-3 0  9991
2 62254  89.0177  11.2579 0015432  56.5709 303.6916 13.51030910108252
QIANFAN-54              
1 62255U 24232U   26280.59338389  .00000084  00000+0  11189-3 0  9993
2 62255  89.0167  10.9058 0004137  99.6462 260.5157 13.51032803139765
QIANFAN-55              
1 62785U 25016A   26280.54551970  .00000025  00000+0  20205-4 0  9995
2 62785  88.9692  72.1809 0016853 199.3242 160.7272 13.51025735 87532
QIANFAN-56              
1 62786U 25016B   26280.56178930  .00000038  00000+0  39474-4 0  9991
2 62786  88.9667  71.9362 0015390 201.5004 158.5503 13.51020999 87587
QIANFAN-57              
1 62787U 25016C   26280.59482952  .00000033  00000+0  32660-4 0  9992
2 62787  88.9697  72.1792 0001895  74.9799 285.1562 13.51028702 87558
QIANFAN-58              
1 62788U 25016D   26280.56606807  .00000044  00000+0  49836-4 0  9992
2 62788  88.9668  71.9231 0013532 192.7656 167.3155 13.51028237 87590
QIANFAN-59              
1 62789U 25016E   26280.59061819  .00000032  00000+0  30817-4 0  9990
2 62789  88.9691  72.0645 0013779 196.7318 163.3380 13.51025585 87599
QIANFAN-60              
1 62790U 25016F   26280.54944883  .00000030  00000+0  28223-4 0  9994
2 62790  88.9672  71.9835 0015420 193.8841 166.1888 13.51022081 87573
QIANFAN-61              
1 62791U 25016G   26280.58240046  .00000027  00000+0  23601-4 0  9990
2 62791  88.9738  72.3448 0014407 192.8758 167.2027 13.51028627 87593
QIANFAN-62              
1 62792U 25016H   26280.58664274  .00000025  00000+0  19595-4 0  9999
2 62792  88.9686  72.0526 0015730 193.6554 166.4173 13.51027972 87587
QIANFAN-63              
1 62793U 25016J   26280.53725013  .00000037  00000+0  38653-4 0  9993
2 62793  88.9693  72.0295 0015638 199.3249 160.7311 13.51023896 87616
QIANFAN-64              
1 62794U 25016K   26280.57831080  .00000033  00000+0  32373-4 0  9999
2 62794  88.9680  71.9593 0013790 191.0661 169.0189 13.51028610 87610
QIANFAN-65              
1 62795U 25016L   26280.57414457  .00000033  00000+0  32166-4 0  9995
2 62795  88.9676  71.9750 0013601 192.7426 167.3383 13.51024686 87592
QIANFAN-66              
1 62796U 25016M   26280.60301771  .00000042  00000+0  46263-4 0  9997
2 62796  88.9696  72.0009 0014815 188.7575 171.3320 13.51020760 87643
QIANFAN-67              
1 62797U 25016N   26280.60709126  .00000040  00000+0  43081-4 0  9997
2 62797  88.9686  71.9967 0014591 195.7597 164.3102 13.51021013 87616
QIANFAN-68              
1 62798U 25016P   26280.59894792  .00000037  00000+0  39115-4 0  9999
2 62798  88.9689  72.0533 0014724 193.6328 166.4427 13.51022939 87596
QIANFAN-69              
1 62799U 25016Q   26280.54123627  .00000030  00000+0  27615-4 0  9992
2 62799  88.9669  71.8653 0015401 195.5122 164.5559 13.51021750 87620
QIANFAN-70              
1 62800U 25016R   26280.55781004  .00000048  00000+0  55034-4 0  9990
2 62800  88.9688  72.0641 0015292 185.5701 174.5283 13.51025253 87586
QIANFAN-71              
1 62801U 25016S   26280.55360321  .00000031  00000+0  28877-4 0  9993
2 62801  88.9683  72.0260 0015211 199.1159 160.9423 13.51027844 87581
QIANFAN-72              
1 62802U 25016T   26280.57014839  .00000042  00000+0  47057-4 0  9999
2 62802  88.9673  72.0085 0018265 207.5465 152.4720 13.51029722 87574
QIANFAN-73              
1 63159U 25046A   26280.59709307  .00000032  00000+0  31119-4 0  9992
2 63159  88.9624 288.9749 0014327 347.6703  12.4096 13.51026021 87768
QIANFAN-74              
1 63160U 25046B   26280.58079652  .00000012  00000+0 -80946-6 0  9999
2 63160  88.9624 288.8666 0001929  98.4799 261.6571 13.51018545 87822
QIANFAN-75              
1 63161U 25046C   26280.56827034  .00000090  00000+0  12087-3 0  9996
2 63161  88.9627 289.1057 0015568 350.8662   9.2204 13.51033658 87698
QIANFAN-76              
1 63162U 25046D   26280.56440383  .00000035  00000+0  35447-4 0  9990
2 63162  88.9627 289.0862 0013099 352.7698   7.3262 13.51018002 87700
QIANFAN-77              
1 63163U 25046E   26280.54124198  .00000085  00000+0  51759-4 0  9991
2 63163  88.9636 284.6313 0013223 221.2673 138.7506 13.96250034 90149
QIANFAN-78              
1 63164U 25046F   26280.60609302  .00000082  00000+0  10814-3 0  9997
2 63164  88.9626 288.9432 0014534 353.7008   6.3958 13.51014229 87789
QIANFAN-79              
1 63165U 25046G   26280.56013246  .00000030  00000+0  28292-4 0  9992
2 63165  88.9629 289.0657 0014225 352.6037   7.4902 13.51021462 87723
QIANFAN-80              
1 63166U 25046H   26280.57653334  .00000088  00000+0  11687-3 0  9994
2 63166  88.9627 288.7627 0013277 358.0696   2.0402 13.51019823 87883
QIANFAN-81              
1 63167U 25046J   26280.55597211  .00000091  00000+0  12287-3 0  9995
2 63167  88.9626 288.8320 0014116 346.3845  13.6924 13.51023813 87839
QIANFAN-82              
1 63168U 25046K   26280.58898095  .00000070  00000+0  89830-4 0  9999
2 63168  88.9626 288.8730 0012247 354.5582   5.5434 13.51022846 87827
QIANFAN-83              
1 63169U 25046L   26280.54980240  .00000062  00000+0  64848-4 0  9993
2 63169  88.9629 288.0642 0012518 320.1839  39.8399 13.62066168 88277
QIANFAN-84              
1 63170U 25046M   26280.54378785  .00000080  00000+0  10535-3 0  9993
2 63170  88.9626 289.0106 0015042 349.6098  10.4740 13.51028200 87749
QIANFAN-85              
1 63171U 25046N   26280.53955022  .00000093  00000+0  12542-3 0  9992
2 63171  88.9626 288.8802 0012757 353.0953   7.0020 13.51023282 87815
QIANFAN-86              
1 63172U 25046P   26280.54773787  .00000088  00000+0  11820-3 0  9992
2 63172  88.9628 288.7485 0010801 359.2469   0.8664 13.51021394 87897
QIANFAN-87              
1 63173U 25046Q   26280.59300844  .00000025  00000+0  19325-4 0  9998
2 63173  88.9625 288.8444 0011138 353.0096   7.0898 13.51020530 87836
QIANFAN-88              
1 63174U 25046R   26280.60948213  .00000096  00000+0  13042-3 0  9996
2 63174  88.9627 288.8045 0011876   1.9683 358.1513 13.51021914 87860
QIANFAN-89              
1 63175U 25046S   26280.57243786  .00000089  00000+0  11940-3 0  9993
2 63175  88.9626 288.9972 0016007 349.1727  10.9077 13.51022537 87755
QIANFAN-90              
1 63176U 25046T   26280.60132946  .00000037  00000+0  38793-4 0  9992
2 63176  88.9627 288.9676 0012903 349.2137  10.8736 13.51020260 87779
QIANFAN-91              
1 66033U 25233A   26280.33737398  .00000085  00000+0  11306-3 0  9990
2 66033  89.0082  31.8644 0001609 104.7406 255.3923 13.51032091 48322
QIANFAN-92              
1 66034U 25233B   26280.34604512  .00000095  00000+0  12855-3 0  9994
2 66034  89.0065  31.8170 0002160  98.7350 261.4046 13.51029577 48320
QIANFAN-93              
1 66035U 25233C   26280.35402962  .00000082  00000+0  10863-3 0  9994
2 66035  89.0090  31.8982 0001633 102.3719 257.7615 13.51041345 48322
QIANFAN-94              
1 66036U 25233D   26280.34156899  .00000090  00000+0  12129-3 0  9995
2 66036  89.0088  31.7990 0001801 107.3471 252.7878 13.51030540 48371
QIANFAN-95              
1 66037U 25233E   26280.34981725  .00000085  00000+0  11275-3 0  9995
2 66037  89.0086  31.3393 0001613 109.4000 250.7326 13.51030423 48629
QIANFAN-96              
1 66038U 25233F   26280.37442523  .00000072  00000+0  93458-4 0  9997
2 66038  89.0083  31.8771 0001561 104.1980 255.9345 13.51031497 48320
QIANFAN-97              
1 66039U 25233G   26280.35788571  .00000056  00000+0  67955-4 0  9997
2 66039  89.0087  31.8664 0001661 102.2277 257.9060 13.51022335 48322
QIANFAN-98              
1 66040U 25233H   26280.36622896  .00000070  00000+0  90253-4 0  9990
2 66040  89.0076  31.5845 0002038 117.2791 242.8568 13.51031742 48470
QIANFAN-99              
1 66041U 25233J   26280.37025864  .00000072  00000+0  92905-4 0  9992
2 66041  89.0087  31.8700 0001818 118.2283 241.9052 13.51021183 48339
QIANFAN-100             
1 66042U 25233K   26280.36196851  .00000085  00000+0  11377-3 0  9994
2 66042  89.0098  31.8103 0001521 103.1678 256.9643 13.51021906 48381
QIANFAN-101             
1 66043U 25233L   26280.36166473  .00000158  00000+0  58990-4 0  9996
2 66043  89.0085  27.7120 0016987 131.3559 228.9100 14.26867959 50620
QIANFAN-102             
1 66044U 25233M   26280.30861948  .00000088  00000+0  11829-3 0  9991
2 66044  89.0084  31.7832 0001792 108.9962 251.1383 13.51031177 48373
QIANFAN-103             
1 66045U 25233N   26280.38683145  .00000079  00000+0  10351-3 0  9990
2 66045  89.0087  31.8736 0001642 103.0118 257.1217 13.51031221 48332
QIANFAN-104             
1 66046U 25233P   26280.39088397  .00000070  00000+0  90503-4 0  9999
2 66046  89.0092  31.7805 0001878 107.7185 252.4171 13.51029114 48381
QIANFAN-105             
1 66047U 25233Q   26280.32513476  .00000073  00000+0  93875-4 0  9992
2 66047  89.0105  31.6451 0001773 105.0230 255.1117 13.51032412 48485
QIANFAN-106             
1 66048U 25233R   26280.32089899  .00000076  00000+0  99857-4 0  9999
2 66048  89.0075  31.8232 0001960 115.8722 244.2632 13.51032748 48320
QIANFAN-107             
1 66049U 25233S   26280.32915237  .00000071  00000+0  90926-4 0  9997
2 66049  89.0089  31.8726 0001678 103.1944 256.9394 13.51031987 48336
QIANFAN-108             
1 66050U 25233T   26280.33332862  .00000080  00000+0  10462-3 0  9993
2 66050  89.0082  31.8520 0001959 114.3485 245.7871 13.51031754 48337
QIANFAN-109             
1 68636U 26075A   26280.56949553  .00000046  00000+0  53160-4 0  9991
2 68636  88.9833 309.5353 0001573  87.7483 272.3848 13.51022114 24966
QIANFAN-110             
1 68637U 26075B   26280.57765485  .00000037  00000+0  39096-4 0  9995
2 68637  88.9833 309.5561 0002084  93.1339 267.0050 13.51022942 24962
QIANFAN-111             
1 68638U 26075C   26280.56554497  .00000047  00000+0  54079-4 0  9993
2 68638  88.9832 309.5160 0002057  93.2604 266.8782 13.51025511 24989
QIANFAN-112             
1 68639U 26075D   26280.52842065  .00000059  00000+0  72980-4 0  9995
2 68639  88.9832 309.5275 0001731  81.8157 278.3191 13.51024829 24973
QIANFAN-113             
1 68640U 26075E   26280.57357595  .00000049  00000+0  57825-4 0  9991
2 68640  88.9837 309.5228 0002030  89.8976 270.2408 13.51021666 24987
QIANFAN-114             
1 68641U 26075F   26280.58178923  .00000035  00000+0  35688-4 0  9997
2 68641  88.9832 309.5357 0002052  93.0747 267.0639 13.51019994 24973
QIANFAN-115             
1 68642U 26075G   26280.53657078  .00000038  00000+0  40467-4 0  9990
2 68642  88.9832 309.5476 0001889  94.3131 265.8236 13.51025756 24965
QIANFAN-116             
1 68643U 26075H   26280.59825472  .00000052  00000+0  62258-4 0  9990
2 68643  88.9825 309.4934 0001881  83.7163 276.4203 13.51026225 24981
QIANFAN-117             
1 68644U 26075J   26280.58603366  .00000043  00000+0  48023-4 0  9990
2 68644  88.9830 309.5156 0001816  89.8846 270.2514 13.51024066 24986
QIANFAN-118             
1 68645U 26075K   26280.54478771  .00000039  00000+0  41269-4 0  9997
2 68645  88.9834 309.5332 0002179  92.9508 267.1893 13.51025776 24973
QIANFAN-119             
1 68646U 26075L   26280.59413608  .00000059  00000+0  73403-4 0  9998
2 68646  88.9835 309.5239 0001639  92.3504 267.7835 13.51021756 24988
QIANFAN-120             
1 68647U 26075M   26280.53246194  .00000044  00000+0  49283-4 0  9990
2 68647  88.9836 309.5171 0001584  94.1627 265.9705 13.51021504 24987
QIANFAN-121             
1 68648U 26075N   26280.55722706  .00000043  00000+0  47176-4 0  9999
2 68648  88.9834 309.5169 0002112  94.0434 266.0959 13.51024879 24987
QIANFAN-122             
1 68649U 26075P   26280.54889621  .00000057  00000+0  69181-4 0  9994
2 68649  88.9832 309.5146 0001751  88.5474 271.5877 13.51028631 24970
QIANFAN-123             
1 68650U 26075Q   26280.59003330  .00000045  00000+0  51702-4 0  9993
2 68650  88.9829 309.4968 0001541  85.0143 275.1185 13.51021372 24967
QIANFAN-124             
1 68651U 26075R   26280.54069873  .00000038  00000+0  40493-4 0  9990
2 68651  88.9832 309.5138 0001705  87.0466 273.0880 13.51027980 24986
QIANFAN-125             
1 68652U 26075S   26280.55311085  .00000057  00000+0  69551-4 0  9994
2 68652  88.9832 309.5144 0002120  93.1141 267.0252 13.51025116 24989
QIANFAN-126             
1 68653U 26075T   26280.56121435  .00000068  00000+0  87277-4 0  9991
2 68653  88.9836 309.4838 0001550  85.8993 274.2335 13.51020913 25008
QIANFAN-127             
1 69073U 26104A   26280.56655736  .00000055  00000+0  65873-4 0  9991
2 69073  88.9894 330.0133 0002392  93.1939 266.9486 13.51030053 20336
QIANFAN-128             
1 69074U 26104B   26280.57472406  .00000069  00000+0  88500-4 0  9991
2 69074  88.9872 330.0324 0002469 104.8372 255.3053 13.51025497 20317
QIANFAN-129             
1 69075U 26104C   26280.59934191  .00000052  00000+0  62405-4 0  9996
2 69075  88.9875 329.9646 0002393 100.3794 259.7627 13.51025624 20351
QIANFAN-130             
1 69076U 26104D   26280.56231834  .00000051  00000+0  60791-4 0  9993
2 69076  88.9877 330.0346 0002207  89.0760 271.0644 13.51023658 20311
QIANFAN-131             
1 69077U 26104E   26280.58301599  .00000061  00000+0  76385-4 0  9999
2 69077  88.9870 329.9918 0002196 104.2494 255.8901 13.51027744 20336
QIANFAN-132             
1 69078U 26104F   26280.57056395  .00000062  00000+0  77074-4 0  9997
2 69078  88.9873 330.0501 0002202  93.3482 266.7921 13.51023971 20302
QIANFAN-133             
1 69079U 26104G   26280.57883473  .00000077  00000+0  10117-3 0  9993
2 69079  88.9876 330.0001 0002352 108.4703 251.6704 13.51022589 20329
QIANFAN-134             
1 69080U 26104H   26280.53352317  .00000058  00000+0  71844-4 0  9993
2 69080  88.9880 330.0318 0002417 105.1237 255.0182 13.51031104 20315
QIANFAN-135             
1 69081U 26104J   26280.58701831  .00000068  00000+0  85992-4 0  9998
2 69081  88.9874 330.0159 0002602 101.2282 258.9162 13.51024310 20327
QIANFAN-136             
1 69082U 26104K   26280.59523061  .00000045  00000+0  51573-4 0  9990
2 69082  88.9876 330.0185 0002344 106.9284 253.2125 13.51021014 20321
QIANFAN-137             
1 69083U 26104L   26280.59120894  .00000060  00000+0  74224-4 0  9993
2 69083  88.9885 329.8972 0002127  95.9919 264.1475 13.51023928 20395
QIANFAN-138             
1 69084U 26104M   26280.54176000  .00000054  00000+0  64821-4 0  9994
2 69084  88.9869 330.0227 0002490  95.9348 264.2087 13.51023656 20314
QIANFAN-139             
1 69085U 26104N   26280.15917279  .00000047  00000+0  53531-4 0  9991
2 69085  88.9872 330.0440 0002311  92.4415 267.7000 13.51032301 20270
QIANFAN-140             
1 69086U 26104P   26280.53764522  .00000059  00000+0  73191-4 0  9992
2 69086  88.9872 330.0090 0002625  99.4166 260.7282 13.51024845 20325
QIANFAN-141             
1 69087U 26104Q   26280.54597160  .00000060  00000+0  74624-4 0  9990
2 69087  88.9869 329.9718 0002519 103.2665 256.8767 13.51022599 20346
QIANFAN-142             
1 69088U 26104R   26280.55411934  .00000049  00000+0  57209-4 0  9993
2 69088  88.9868 329.9700 0002486  96.9992 263.1442 13.51021777 20349
QIANFAN-143             
1 69089U 26104S   26280.55002102  .00000054  00000+0  65125-4 0  9999
2 69089  88.9878 329.9790 0002135 105.1855 254.9533 13.51029241 20345
QIANFAN-144             
1 69090U 26104T   26280.55822375  .00000047  00000+0  54464-4 0  9999
2 69090  88.9877 329.9960 0002422  93.5908 266.5520 13.51022587 20333
QIANFAN-145             
1 69104U 26108A   26279.74780848  .00000088  00000+0  11813-3 0  9991
2 69104  89.0203  10.9247 0001787 114.5375 245.5963 13.51025066 19504
QIANFAN-146             
1 69105U 26108B   26280.59541966  .00000092  00000+0  12437-3 0  9991
2 69105  89.0206  10.6782 0001871 103.5319 256.6040 13.51023244 19717
QIANFAN-147             
1 69106U 26108C   26280.57087441  .00000099  00000+0  13452-3 0  9998
2 69106  89.0206  10.8480 0002054 102.5765 257.5616 13.51028674 19602
QIANFAN-148             
1 69107U 26108D   26279.74379072  .00000097  00000+0  13110-3 0  9999
2 69107  89.0199  10.9188 0002172 108.0395 252.0993 13.51028200 19491
QIANFAN-149             
1 69108U 26108E   26279.75196062  .00000089  00000+0  11993-3 0  9995
2 69108  89.0199  10.9391 0002352 102.1781 257.9634 13.51027578 19495
QIANFAN-150             
1 69109U 26108F   26280.57486024  .00000109  00000+0  15061-3 0  9991
2 69109  89.0204  10.8118 0002334 100.7562 259.3852 13.51021559 19626
QIANFAN-151             
1 69110U 26108G   26280.60376561  .00000090  00000+0  12090-3 0  9999
2 69110  89.0204  10.8325 0001905 109.1212 251.0146 13.51031372 19614
QIANFAN-152             
1 69111U 26108H   26280.58308466  .00000106  00000+0  14608-3 0  9991
2 69111  89.0200  10.8257 0001970  95.5036 264.6340 13.51024122 19621
QIANFAN-153             
1 69112U 26108J   26280.57896488  .00000098  00000+0  13398-3 0  9992
2 69112  89.0196  10.8018 0002162  99.7442 260.3953 13.51025259 19627
QIANFAN-154             
1 69113U 26108K   26280.58726947  .00000101  00000+0  13839-3 0  9991
2 69113  89.0207  10.8517 0002174 102.7295 257.4099 13.51030531 19615
QIANFAN-155             
1 69114U 26108L   26280.59131147  .00000090  00000+0  12040-3 0  9995
2 69114  89.0204  10.8154 0002242  99.7539 260.3866 13.51027271 19625
QIANFAN-156             
1 69115U 26108M   26279.64908886  .00000094  00000+0  12721-3 0  9992
2 69115  89.0218  10.9125 0002073 109.3498 250.7877 13.51022865 19511
QIANFAN-157             
1 69116U 26108N   26280.59962050  .00000092  00000+0  12326-3 0  9991
2 69116  89.0200  10.7385 0002278 107.2665 252.8735 13.51032107 19672
QIANFAN-158             
1 69117U 26108P   26279.72722221  .00000104  00000+0  14326-3 0  9995
2 69117  89.0201  10.8665 0002000 109.1846 250.9521 13.51025219 19534
QIANFAN-159             
1 69118U 26108Q   26279.71902786  .00000094  00000+0  12708-3 0  9991
2 69118  89.0193  10.8721 0001954 107.4208 252.7157 13.51027281 19523
QIANFAN-160             
1 69119U 26108R   26279.73561991  .00000096  00000+0  13002-3 0  9993
2 69119  89.0208  10.9105 0002343  98.3036 261.8381 13.51027332 19514
QIANFAN-161             
1 69120U 26108S   26279.73959593  .00000095  00000+0  12889-3 0  9995
2 69120  89.0215  10.8281 0001960 108.7299 251.4065 13.51025671 19562
QIANFAN-162             
1 69121U 26108T   26279.73138226  .00000098  00000+0  13373-3 0  9990
2 69121  89.0205  10.8523 0001982  98.7020 261.4356 13.51026475 19539
QIANFAN-163             
1 69325U 26121A   26280.43667674  .00000034  00000+0  33552-4 0  9996
2 69325  89.0082 289.3300 0002979 103.5186 256.6297 13.51022087 17329
QIANFAN-164             
1 69326U 26121B   26280.47782834  .00000055  00000+0  67036-4 0  9994
2 69326  89.0080 289.3160 0002476 103.0756 257.0671 13.51022744 17334
QIANFAN-165             
1 69382U 26124A   26279.74687496  .00000085  00000+0  11236-3 0  9998
2 69382  89.0059 350.3915 0002410 116.1241 244.0159 13.51025333 17100
QIANFAN-166             
1 69383U 26124B   26279.75101401  .00000085  00000+0  11305-3 0  9994
2 69383  89.0077 350.4050 0001934 108.8183 251.3178 13.51026021 17102
QIANFAN-167             
1 69384U 26124C   26280.56959457  .00000020  00000+0  13052-4 0  9999
2 69384  89.0050 350.3238 0002259 102.3280 257.8125 13.51019440 17200
QIANFAN-168             
1 69385U 26124D   26280.57378101  .00000077  00000+0  10109-3 0  9993
2 69385  89.0047 350.3027 0001945 115.3959 244.7394 13.51023648 17210
QIANFAN-169             
1 69386U 26124E   26279.68925461  .00000072  00000+0  92970-4 0  9993
2 69386  89.0046 350.3913 0001840 106.1335 254.0019 13.51026701 17091
QIANFAN-170             
1 69387U 26124F   26279.69329042  .00000076  00000+0  98550-4 0  9992
2 69387  89.0064 350.3662 0001760 106.4674 253.6671 13.51029165 17112
QIANFAN-171             
1 69388U 26124G   26279.70155518  .00000080  00000+0  10548-3 0  9995
2 69388  89.0078 350.3803 0002109 101.8288 258.3100 13.51032119 17115
QIANFAN-172             
1 69389U 26124H   26279.69735221  .00000075  00000+0  97513-4 0  9991
2 69389  89.0061 350.3676 0002264 115.7163 244.4222 13.51032662 17118
QIANFAN-173             
1 69390U 26124J   26279.70555839  .00000079  00000+0  10410-3 0  9994
2 69390  89.0050 350.3614 0001805 113.4349 246.6992 13.51025713 17118
QIANFAN-174             
1 69391U 26124K   26279.71789543  .00000074  00000+0  95916-4 0  9997
2 69391  89.0031 350.3144 0002326 103.5147 256.6264 13.51020486 17127
QIANFAN-175             
1 69392U 26124L   26279.72217280  .00000076  00000+0  98852-4 0  9997
2 69392  89.0083 350.3677 0001882 108.1509 251.9848 13.51030630 17123
QIANFAN-176             
1 69393U 26124M   26279.72630622  .00000070  00000+0  89924-4 0  9991
2 69393  89.0044 350.3407 0001896 107.9182 252.2176 13.51024323 17110
QIANFAN-177             
1 69394U 26124N   26279.73440538  .00000071  00000+0  91793-4 0  9996
2 69394  89.0054 350.3301 0002268 105.5198 254.6204 13.51033429 17137
QIANFAN-178             
1 69395U 26124P   26279.73028182  .00000063  00000+0  78577-4 0  9990
2 69395  89.0000 350.2772 0001891 107.0312 253.1046 13.51029284 17149
QIANFAN-179             
1 69396U 26124Q   26279.73853186  .00000077  00000+0  10025-3 0  9999
2 69396  89.0032 350.2999 0001865 107.2661 252.8694 13.51032953 17148
QIANFAN-180             
1 69397U 26124R   26279.74275310  .00000075  00000+0  97673-4 0  9991
2 69397  89.0038 350.3215 0001743 105.3217 254.8127 13.51025098 17132
QIANFAN-181             
1 69398U 26124S   26279.70979974  .00000089  00000+0  11957-3 0  9990
2 69398  89.0061 350.4221 0002185 102.6022 257.5374 13.51027101 17087
QIANFAN-182             
1 69399U 26124T   26280.60252843  .00000080  00000+0  10539-3 0  9997
2 69399  89.0035 350.2982 0001947 108.9283 251.2079 13.51031801 17203
QIANFAN-183             
1 69401U 26125A   26279.74844316  .00000040  00000+0  43860-4 0  9997
2 69401  88.9837 268.6353 0002350  95.6625 264.4794 13.51027960 17009
QIANFAN-184             
1 69402U 26125B   26280.57134923  .00000043  00000+0  48153-4 0  9990
2 69402  88.9888 268.5871 0002223  94.0212 266.1193 13.51029586 17114
QIANFAN-185             
1 69403U 26125C   26280.59610856  .00000041  00000+0  44746-4 0  9999
2 69403  88.9903 268.5271 0002240  96.5308 263.6098 13.51029069 17155
QIANFAN-186             
1 69404U 26125D   26279.75266499  .00000031  00000+0  29091-4 0  9991
2 69404  88.9890 268.6712 0002205  92.6090 267.5314 13.51028416 17001
QIANFAN-187             
1 69405U 26125E   26280.57557300  .00000030  00000+0  27595-4 0  9994
2 69405  88.9891 268.5699 0002411  91.6464 268.4964 13.51029171 17122
QIANFAN-188             
1 69406U 26125F   26280.58362124  .00000040  00000+0  43506-4 0  9995
2 69406  88.9889 268.5685 0002421  95.5390 264.6037 13.51018429 17120
QIANFAN-189             
1 69407U 26125G   26280.59191516  .00000036  00000+0  36718-4 0  9994
2 69407  88.9871 268.5592 0002577  97.9092 262.2352 13.51019434 17116
QIANFAN-190             
1 69408U 26125H   26280.57956444  .00000034  00000+0  34206-4 0  9990
2 69408  88.9873 268.5586 0002157  94.7441 265.3956 13.51019506 17124
QIANFAN-191             
1 69409U 26125J   26280.60421366  .00000040  00000+0  43196-4 0  9990
2 69409  88.9887 268.5705 0002381  95.8943 264.2480 13.51020105 17128
QIANFAN-192             
1 69410U 26125K   26280.58779976  .00000038  00000+0  40627-4 0  9995
2 69410  88.9893 268.5739 0002549  95.9593 264.1849 13.51020039 17126
QIANFAN-193             
1 69411U 26125L   26279.72378065  .00000036  00000+0  36622-4 0  9992
2 69411  88.9871 268.6347 0002331  98.5376 261.6040 13.51027982 17013
QIANFAN-194             
1 69412U 26125M   26280.60841192  .00000030  00000+0  28353-4 0  9994
2 69412  88.9904 268.5646 0002397  95.2114 264.9311 13.51026576 17125
QIANFAN-195             
1 69413U 26125N   26279.72798047  .00000031  00000+0  29467-4 0  9994
2 69413  88.9905 268.6396 0001971  90.0750 270.0627 13.51028321 17023
QIANFAN-196             
1 69414U 26125P   26279.73604116  .00000039  00000+0  41473-4 0  9998
2 69414  88.9910 268.6435 0002031  94.2735 265.8649 13.51020494 17020
QIANFAN-197             
1 69415U 26125Q   26279.74443058  .00000043  00000+0  48095-4 0  9998
2 69415  88.9884 268.6098 0002308  95.3306 264.8109 13.51024119 17027
QIANFAN-198             
1 69416U 26125R   26279.73198464  .00000040  00000+0  42647-4 0  9990
2 69416  88.9878 268.6227 0002399  96.2787 263.8637 13.51028664 17022
QIANFAN-199             
1 69417U 26125S   26279.74029332  .00000051  00000+0  61046-4 0  9995
2 69417  88.9882 268.5727 0002489  91.8808 268.2629 13.51026292 17055
QIANFAN-200             
1 69418U 26125T   26280.60017197  .00000040  00000+0  43349-4 0  9993
2 69418  88.9889 268.5715 0002491  97.1415 263.0020 13.51026838 17128
QIANFAN-201             
1 69800U 26153A   26279.50425035 -.01857756  00000+0 -17257+1 0  9992
2 69800  88.9959 349.7121 0005621 174.2730 185.8506 13.86604976 13285
QIANFAN-202             
1 69801U 26153B   26279.73462390 -.01892658  00000+0 -16212+1 0  9993
2 69801  88.9962 349.6353 0008688 284.9806  75.0405 13.90726418 13330
QIANFAN-203             
1 69802U 26153C   26279.64653323 -.01842194  00000+0 -15684+1 0  9994
2 69802  88.9963 349.6781 0005442 296.2167  63.8448 13.91650322 13319
QIANFAN-204             
1 69803U 26153D   26279.56910324 -.01808812  00000+0 -16053+1 0  9993
2 69803  88.9960 349.6859 0008303 284.1388  75.8862 13.89148128 13308
QIANFAN-205             
1 69804U 26153E   26279.76203843  .00000036  00000+0  17720-4 0  9992
2 69804  88.9965 349.6938 0003545 309.6166  50.4694 13.91480806 13310
QIANFAN-206             
1 69805U 26153F   26279.80522181 -.01837364  00000+0 -16014+1 0  9993
2 69805  88.9961 349.6272 0008039 288.3748  71.6551 13.90271172 13354
QIANFAN-207             
1 69806U 26153G   26279.69266982 -.02056126  00000+0 -18300+1 0  9995
2 69806  88.9958 349.6847 0009258 257.0103 103.0036 13.88829407 13312
QIANFAN-208             
1 69807U 26153H   26279.61195867 -.01866318  00000+0 -17219+1 0  9990
2 69807  88.9957 349.6904 0005412 293.7340  66.3263 13.87025186 13318
QIANFAN-209             
1 69808U 26153J   26279.72948741 -.01897430  00000+0 -17534+1 0  9999
2 69808  88.9964 349.6915 0009165 222.7369 137.3090 13.86312839 13311
QIANFAN-210             
1 69809U 26153K   26279.69928351 -.01863783  00000+0 -17405+1 0  9992
2 69809  88.9961 349.6863 0006434 249.8857 110.1622 13.86309205 13312
QIANFAN-211             
1 69810U 26153L   26280.55197643  .00000305  00000+0  15145-3 0  9995
2 69810  88.9966 349.4986 0005521 273.6335  86.4220 14.14550251 13483
QIANFAN-212             
1 69811U 26153M   26279.69242106 -.01849511  00000+0 -15916+1 0  9990
2 69811  88.9957 349.6469 0009269 300.7978  59.2283 13.91034974 13334
QIANFAN-213             
1 69812U 26153N   26279.67632881  .00000037  00000+0  17971-4 0  9998
2 69812  88.9952 349.6645 0003587 279.2288  80.8481 13.92714777 13323
QIANFAN-214             
1 69813U 26153P   26279.64557086 -.01801313  00000+0 -14314+1 0  9992
2 69813  88.9965 349.6039 0003647 180.1229 179.9947 13.95525740 13350
QIANFAN-215             
1 69814U 26153Q   26280.60388182  .00000318  00000+0  15631-3 0  9999
2 69814  88.9964 349.4109 0005377 285.7476  74.3118 14.15208201 13535
QIANFAN-216             
1 69815U 26153R   26279.65204114 -.01844276  00000+0 -15054+1 0  9993
2 69815  88.9962 349.5858 0008001 180.0427 180.0749 13.94077184 13362
QIANFAN-217             
1 69816U 26153S   26279.58435655 -.01828494  00000+0 -10881+1 0  9999
2 69816  88.9960 349.4623 0016651 167.5872 192.5727 14.11056307 13429
QIANFAN-218             
1 69817U 26153T   26279.73430102 -.01848849  00000+0 -11185+1 0  9993
2 69817  88.9961 349.4510 0001951 126.7831 233.3533 14.10263849 13446
QIANFAN-219             
1 69848U 26155A   26280.56702182  .00000064  00000+0  80229-4 0  9997
2 69848  89.0118  51.9921 0001629 110.8476 249.2849 13.51030454 13048
QIANFAN-220             
1 69849U 26155B   26280.58715941  .00000081  00000+0  10782-3 0  9992
2 69849  89.0124  52.0201 0033257 321.8792  38.0007 13.50936386 13033
QIANFAN-221             
1 69850U 26155C   26279.75155896  .00000037  00000+0  29612-4 0  9992
2 69850  89.0127  51.8078 0029417 329.0224  30.9201 13.67847622 13084
QIANFAN-222             
1 69851U 26155D   26280.60405998  .00000065  00000+0  81741-4 0  9992
2 69851  89.0124  52.0371 0001725 101.1526 258.9819 13.51025945 13027
QIANFAN-223             
1 69852U 26155E   26280.55873177  .00000068  00000+0  87507-4 0  9994
2 69852  89.0123  52.0496 0001800 101.7421 258.3932 13.51032543 13010
QIANFAN-224             
1 69853U 26155F   26280.60813956  .00000067  00000+0  85104-4 0  9990
2 69853  89.0107  51.9847 0001759 103.2234 256.9114 13.51028955 13044
QIANFAN-225             
1 69854U 26155G   26280.53816832  .00000068  00000+0  85976-4 0  9997
2 69854  89.0115  52.0405 0001752 104.4358 255.6988 13.51032638 13014
QIANFAN-226             
1 69855U 26155H   26280.54235179  .00000068  00000+0  87366-4 0  9993
2 69855  89.0117  52.0229 0001707 106.4752 253.6587 13.51033779 13022
QIANFAN-227             
1 69856U 26155J   26279.80423703 -.01887970  00000+0 -32863+1 0  9999
2 69856  89.0111  52.0995 0036283 326.6580  33.2284 13.47794613 12929
QIANFAN-228             
1 69857U 26155K   26279.66061768 -.01921750  00000+0 -33683+1 0  9999
2 69857  89.0118  52.1002 0009320 290.7182  69.2968 13.47673289 12910
QIANFAN-229             
1 69858U 26155L   26280.56287133  .00000061  00000+0  76104-4 0  9996
2 69858  89.0124  51.9942 0001777 101.3190 258.8161 13.51036953 13044
QIANFAN-230             
1 69859U 26155M   26280.59984732  .00000051  00000+0  60911-4 0  9997
2 69859  89.0120  52.0325 0001736 104.5471 255.5873 13.51035119 13025
QIANFAN-231             
1 69860U 26155N   26279.60766147 -.02035818  00000+0 -35178+1 0  9993
2 69860  89.0100  52.0710 0009529 305.5186  54.5075 13.48131288 12926
QIANFAN-232             
1 69861U 26155P   26280.55175824  .00000074  00000+0  97355-4 0  9997
2 69861  89.0113  51.9876 0024692 319.5099  40.4214 13.50453960 13048
QIANFAN-233             
1 69862U 26155Q   26280.57526707  .00000064  00000+0  80434-4 0  9999
2 69862  89.0119  51.9771 0001730 109.3398 250.7940 13.51036186 13055
QIANFAN-234             
1 69863U 26155R   26279.84423190 -.02092540  00000+0 -34424+1 0  9998
2 69863  89.0098  51.9798 0030449 324.2900  35.6214 13.51228086 12995
QIANFAN-235             
1 69864U 26155S   26279.74948086  .00000045  00000+0  30523-4 0  9999
2 69864  89.0124  51.7192 0029034 324.8116  35.1134 13.80577697 13135
QIANFAN-236             
1 69865U 26155T   26279.61999381 -.02025097  00000+0 -34838+1 0  9997
2 69865  89.0120  52.0954 0005364 153.7638 206.3785 13.48406276 12917
QIANFAN-237             
1 69866U 26155U   26280.58759884  .00000026  00000+0  21987-4 0  9994
2 69866  89.0123  51.9633 0001918  94.0151 266.1220 13.51036475 13059
QIANFAN-238             
1 69867U 26155V   26280.59170041  .00000020  00000+0  12009-4 0  9997
2 69867  89.0125  51.9816 0001888  94.4991 265.6376 13.51025019 13055
