QIANFAN-1               
1 60379U 24140A   26259.87304025  .00000023  00000+0  16057-4 0  9996
2 60379  88.9664 270.4040 0019222 127.4564 232.8340 13.51025859104905
QIANFAN-2               
1 60380U 24140B   26259.90185551  .00000016  00000+0  53821-5 0  9996
2 60380  88.9650 270.2027 0014862 102.2837 257.9979 13.51020270104968
QIANFAN-3               
1 60381U 24140C   26259.98431416  .00000026  00000+0  20972-4 0  9990
2 60381  88.9643 270.3056 0015900 113.0161 247.2669 13.51023004104885
QIANFAN-4               
1 60382U 24140D   26259.88543312  .00000008  00000+0 -62746-5 0  9996
2 60382  88.9668 270.2836 0015090 104.4764 255.8062 13.51021041104994
QIANFAN-5               
1 60383U 24140E   26259.86066524  .00000010  00000+0 -27430-5 0  9994
2 60383  88.9642 270.3428 0016960 123.5763 236.7010 13.51031206104853
QIANFAN-6               
1 60384U 24140F   26259.88131409  .00000017  00000+0  76328-5 0  9998
2 60384  88.9670 270.1625 0015152 109.5882 250.6907 13.51024099105055
QIANFAN-7               
1 60385U 24140G   26259.90282137  .00000123  00000+0  43708-4 0  9990
2 60385  88.9719 260.9776 0014111 196.0179 164.0571 14.27892904110084
QIANFAN-8               
1 60386U 24140H   26259.88967590  .00000010  00000+0 -38273-5 0  9999
2 60386  88.9670 270.4024 0018583 112.0304 248.2824 13.51026050104905
QIANFAN-9               
1 60387U 24140J   26259.86489927  .00000016  00000+0  57093-5 0  9997
2 60387  88.9668 270.4747 0018284 111.8519 248.4579 13.51021668104884
QIANFAN-10              
1 60388U 24140K   26259.86900615  .00000022  00000+0  14502-4 0  9994
2 60388  88.9680 269.8510 0016855  91.7564 268.5518 13.51021737105016
QIANFAN-11              
1 60389U 24140L   26259.98022161  .00000011  00000+0 -14731-5 0  9993
2 60389  88.9604 270.2169 0016317 111.0210 249.2688 13.51021032104680
QIANFAN-12              
1 60390U 24140M   26259.92667985  .00000014  00000+0  22481-5 0  9991
2 60390  88.9647 270.3870 0015037 118.0900 242.1774 13.51023631104809
QIANFAN-13              
1 60391U 24140N   26259.89783667  .00000013  00000+0  14986-5 0  9994
2 60391  88.9907 270.6250 0014828 120.1632 240.0991 13.51023684104825
QIANFAN-14              
1 60392U 24140P   26259.92263196  .00000012  00000+0 -11143-5 0  9991
2 60392  88.9639 270.3597 0018490 121.2102 239.0864 13.51018802104836
QIANFAN-15              
1 60393U 24140Q   26259.85668007  .00000020  00000+0  12254-4 0  9995
2 60393  88.9662 270.3893 0014467 108.4469 251.8256 13.51028029104812
QIANFAN-16              
1 60394U 24140R   26259.91836394  .00000021  00000+0  13559-4 0  9999
2 60394  88.9665 270.5107 0016360 124.1792 236.0913 13.51025250104733
QIANFAN-17              
1 60395U 24140S   26259.91438245  .00000023  00000+0  16768-4 0  9990
2 60395  88.9675 270.5875 0016860 118.6778 241.6070 13.51021542105696
QIANFAN-18              
1 60396U 24140T   26259.89381521  .00000009  00000+0 -48610-5 0  9999
2 60396  88.9670 270.1052 0016385 103.4101 256.8878 13.51020921105086
QIANFAN-19              
1 61552U 24185A   26259.89388954  .00000344  00000+0  17192-3 0  9990
2 61552  88.9852  46.0723 0008693 122.7583 237.4443 14.14530166108981
QIANFAN-20              
1 61553U 24185B   26259.86616983  .00000325  00000+0  17925-3 0  9997
2 61553  88.9846  46.6737 0006380 155.0879 205.0614 14.09070739108658
QIANFAN-21              
1 61554U 24185C   26259.90255256  .00000461  00000+0  19872-3 0  9999
2 61554  88.9772  44.4060 0011088 165.8933 194.2570 14.22931307109522
QIANFAN-22              
1 61555U 24185D   26259.88117967  .00000231  00000+0  18785-3 0  9990
2 61555  88.9826  48.7747 0005390 207.8399 152.2485 13.86429348107471
QIANFAN-23              
1 61556U 24185E   26259.89799803  .00000318  00000+0  15250-3 0  9997
2 61556  88.9845  45.7521 0009095 129.9702 230.2287 14.16551942109129
QIANFAN-24              
1 61557U 24185F   26259.87969774  .00000487  00000+0  20501-3 0  9994
2 61557  88.9830  44.7062 0011650 108.2617 251.9844 14.24155085109607
QIANFAN-25              
1 61558U 24185G   26259.91334029  .00000399  00000+0  23428-3 0  9992
2 61558  88.9837  46.7132 0012701 180.7307 179.3859 14.06129048108590
QIANFAN-26              
1 61559U 24185H   26259.88012161  .00000224  00000+0  21047-3 0  9991
2 61559  88.9830  49.7305 0004016 239.1881 120.8891 13.77944250106979
QIANFAN-27              
1 61560U 24185J   26259.89731505  .00000331  00000+0  12857-3 0  9992
2 61560  88.9842  44.3434 0009544  95.9298 264.2984 14.27601349109849
QIANFAN-28              
1 61561U 24185K   26259.86238321  .00000618  00000+0  24081-3 0  9998
2 61561  88.9860  44.3623 0009453  94.3397 265.8878 14.28484557109875
QIANFAN-29              
1 61562U 24185L   26259.90860486  .00000147  00000+0  20885-3 0  9992
2 61562  88.9797  52.5568 0008850 336.0827  23.9912 13.51093506105354
QIANFAN-30              
1 61563U 24185M   26259.87164777  .00000140  00000+0  20201-3 0  9994
2 61563  88.9818  52.1927 0006285 323.1762  36.8956 13.50075425105595
QIANFAN-31              
1 61564U 24185N   26259.90064239  .00000169  00000+0  21742-3 0  9993
2 61564  88.9803  51.5502 0005402 304.6853  55.3792 13.58063732105913
QIANFAN-32              
1 61565U 24185P   26259.91016131  .00000120  00000+0  16817-3 0  9997
2 61565  88.9857  52.4040 0009170 355.0878   5.0182 13.50805885105597
QIANFAN-33              
1 61566U 24185Q   26259.88203679  .00000269  00000+0  18433-3 0  9999
2 61566  88.9828  47.8014 0008150 163.1574 196.9875 13.96751980107983
QIANFAN-34              
1 61567U 24185R   26259.91860404  .00000468  00000+0  29542-3 0  9993
2 61567  88.9808  46.9932 0006359 154.7287 205.4206 14.02519437108349
QIANFAN-35              
1 61568U 24185S   26259.91935017  .00000532  00000+0  20703-3 0  9999
2 61568  88.9840  44.2336 0008562  92.1377 268.0798 14.28356303109888
QIANFAN-36              
1 61569U 24185T   26259.86099377  .00000081  00000+0  99419-4 0  9994
2 61569  88.9795  52.0609 0005047 328.8323  31.2531 13.55647098105607
QIANFAN-37              
1 62238U 24232B   26259.87663684  .00000107  00000+0  14659-3 0  9991
2 62238  89.0154  13.4000 0002023  87.3230 272.8153 13.51030014136723
QIANFAN-38              
1 62239U 24232C   26259.90140463  .00000099  00000+0  13436-3 0  9993
2 62239  89.0161  13.3322 0016488 110.9485 249.3433 13.51028166136784
QIANFAN-39              
1 62240U 24232D   26259.89308199  .00000387  00000+0  15727-3 0  9990
2 62240  89.0140   5.6515 0014187 242.5037 117.4715 14.25560048141012
QIANFAN-40              
1 62241U 24232E   26259.86026297  .00000085  00000+0  11202-3 0  9993
2 62241  89.0189  12.9984 0015524 117.9499 242.3225 13.51028347137142
QIANFAN-41              
1 62242U 24232F   26259.86846889  .00000110  00000+0  15165-3 0  9992
2 62242  89.0159  13.2818 0015892 107.5619 252.7270 13.51029612136800
QIANFAN-42              
1 62243U 24232G   26259.92801788  .00000370  00000+0  15318-3 0  9997
2 62243  89.0139   5.7358 0012882 250.2080 109.7724 14.24647198140972
QIANFAN-43              
1 62244U 24232H   26259.86435872  .00000107  00000+0  14620-3 0  9991
2 62244  89.0163  13.3597 0017425 112.2380 248.0621 13.51029074105417
QIANFAN-44              
1 62245U 24232J   26259.92610196  .00000092  00000+0  12325-3 0  9996
2 62245  89.0162  13.1598 0015648 109.3823 250.9021 13.51029356136895
QIANFAN-45              
1 62246U 24232K   26259.89320015  .00000097  00000+0  13207-3 0  9996
2 62246  89.0165  13.3196 0016310 109.1583 251.1336 13.51028113136817
QIANFAN-46              
1 62247U 24232L   26259.91782496  .00000085  00000+0  11218-3 0  9992
2 62247  89.0162  13.3747 0016350 113.9459 246.3407 13.51029154136772
QIANFAN-47              
1 62248U 24232M   26259.92198218  .00000088  00000+0  11731-3 0  9990
2 62248  89.0157  13.2961 0016772 113.2221 247.0698 13.51028416136806
QIANFAN-48              
1 62249U 24232N   26259.88503234  .00000106  00000+0  14563-3 0  9991
2 62249  89.0161  13.3125 0019022 115.8116 244.5000 13.51022797136802
QIANFAN-49              
1 62250U 24232P   26259.87261171  .00000113  00000+0  15585-3 0  9996
2 62250  89.0160  13.3239 0016117 110.8648 249.4231 13.51029943105396
QIANFAN-50              
1 62251U 24232Q   26259.89726083  .00000104  00000+0  14248-3 0  9992
2 62251  89.0166  13.3448 0017779 112.0823 248.2218 13.51029377105426
QIANFAN-51              
1 62252U 24232R   26259.88083859  .00000100  00000+0  13554-3 0  9994
2 62252  89.0160  13.3233 0015218 115.3265 244.9464 13.51028395105419
QIANFAN-52              
1 62253U 24232S   26259.90962120  .00000106  00000+0  14514-3 0  9998
2 62253  89.0156  13.1831 0017286 108.3566 251.9467 13.51030436105500
QIANFAN-53              
1 62254U 24232T   26259.88911448  .00000093  00000+0  12527-3 0  9990
2 62254  89.0163  13.3107 0016154 109.3936 250.8963 13.51027126105468
QIANFAN-54              
1 62255U 24232U   26259.93020023  .00000102  00000+0  13976-3 0  9997
2 62255  89.0154  12.9606 0003738 130.0316 230.1164 13.51028947136971
QIANFAN-55              
1 62785U 25016A   26259.95629280  .00000047  00000+0  55072-4 0  9990
2 62785  88.9670  74.3267 0015506 263.8235  96.1150 13.51024719 84752
QIANFAN-56              
1 62786U 25016B   26259.89852746  .00000046  00000+0  52340-4 0  9993
2 62786  88.9645  74.0950 0014098 266.9626  92.9912 13.51027929 84794
QIANFAN-57              
1 62787U 25016C   26259.85754907  .00000038  00000+0  40773-4 0  9998
2 62787  88.9675  74.3394 0002486  83.6750 276.4684 13.51027612 84753
QIANFAN-58              
1 62788U 25016D   26259.90281294  .00000037  00000+0  39102-4 0  9992
2 62788  88.9645  74.0817 0012033 258.1913 101.7888 13.51020000 84803
QIANFAN-59              
1 62789U 25016E   26259.85326782  .00000051  00000+0  61182-4 0  9998
2 62789  88.9668  74.2261 0012378 262.7139  97.2605 13.51024395 84792
QIANFAN-60              
1 62790U 25016F   26259.88619491  .00000051  00000+0  60868-4 0  9995
2 62790  88.9650  74.1412 0013948 258.6640 101.2944 13.51027803 84785
QIANFAN-61              
1 62791U 25016G   26259.91915519  .00000048  00000+0  55849-4 0  9999
2 62791  88.9716  74.4888 0012909 257.9177 102.0528 13.51027349 84807
QIANFAN-62              
1 62792U 25016H   26259.92337222  .00000049  00000+0  56861-4 0  9996
2 62792  88.9664  74.2074 0014246 258.2667 101.6886 13.51019780 84799
QIANFAN-63              
1 62793U 25016J   26259.87393455  .00000032  00000+0  31039-4 0  9993
2 62793  88.9670  74.1829 0014293 264.5098  95.4423 13.51022812 84825
QIANFAN-64              
1 62794U 25016K   26259.91506574  .00000043  00000+0  48135-4 0  9994
2 62794  88.9657  74.1154 0012256 256.1532 103.8256 13.51027352 84821
QIANFAN-65              
1 62795U 25016L   26259.91084099  .00000037  00000+0  39140-4 0  9997
2 62795  88.9654  74.1320 0012099 258.0959 101.8836 13.51023479 84809
QIANFAN-66              
1 62796U 25016M   26259.86558863  .00000030  00000+0  27888-4 0  9996
2 62796  88.9673  74.1614 0013223 253.4381 106.5318 13.51019619 84847
QIANFAN-67              
1 62797U 25016N   26259.86969507  .00000031  00000+0  30037-4 0  9999
2 62797  88.9663  74.1593 0013157 261.2762  98.6899 13.51029014 84811
QIANFAN-68              
1 62798U 25016P   26259.93561638  .00000042  00000+0  46405-4 0  9999
2 62798  88.9667  74.2074 0013235 258.6252 101.3413 13.51021804 84804
QIANFAN-69              
1 62799U 25016Q   26259.87791488  .00000035  00000+0  35160-4 0  9999
2 62799  88.9646  74.0238 0013973 260.4646  99.4927 13.51024100 84831
QIANFAN-70              
1 62800U 25016R   26259.89450642  .00000055  00000+0  66909-4 0  9995
2 62800  88.9666  74.2184 0013635 249.4625 110.5063 13.51023685 84795
QIANFAN-71              
1 62801U 25016S   26259.89034850  .00000046  00000+0  52125-4 0  9990
2 62801  88.9660  74.1816 0013868 264.4490  95.5080 13.51026684 84799
QIANFAN-72              
1 62802U 25016T   26259.90690939  .00000035  00000+0  36268-4 0  9997
2 62802  88.9651  74.1661 0017136 272.4646  87.4543 13.51020619 84787
QIANFAN-73              
1 63159U 25046A   26259.93387029  .00000045  00000+0  50298-4 0  9992
2 63159  88.9646 291.1388 0016293  45.9041 314.3447 13.51025199 84973
QIANFAN-74              
1 63160U 25046B   26259.91742975  .00000008  00000+0 -68744-5 0  9993
2 63160  88.9648 291.0302 0001815  96.7662 263.3695 13.51018703 85038
QIANFAN-75              
1 63161U 25046C   26259.90514726  .00000081  00000+0  10649-3 0  9993
2 63161  88.9649 291.2691 0017513  48.8843 311.3817 13.51030623 84904
QIANFAN-76              
1 63162U 25046D   26259.90108007  .00000121  00000+0  16806-3 0  9991
2 63162  88.9649 291.2494 0015025  50.3571 309.8903 13.51022618 84912
QIANFAN-77              
1 63163U 25046E   26259.90171383  .00000086  00000+0  52516-4 0  9998
2 63163  88.9652 286.9627 0012629 295.8212  64.1662 13.96246552 87269
QIANFAN-78              
1 63164U 25046F   26259.86861447  .00000059  00000+0  72544-4 0  9994
2 63164  88.9648 291.1144 0016473  51.5841 308.6786 13.51012123 84988
QIANFAN-79              
1 63165U 25046G   26259.89684007  .00000019  00000+0  10342-4 0  9997
2 63165  88.9651 291.2286 0016138  50.2811 309.9760 13.51021114 84933
QIANFAN-80              
1 63166U 25046H   26259.91332176  .00000050  00000+0  58520-4 0  9993
2 63166  88.9649 290.9261 0015163  54.7237 305.5331 13.51029652 85097
QIANFAN-81              
1 63167U 25046J   26259.89269351  .00000087  00000+0  11644-3 0  9990
2 63167  88.9648 290.9956 0016074  44.7937 315.4509 13.51020383 85040
QIANFAN-82              
1 63168U 25046K   26259.92568947  .00000066  00000+0  82834-4 0  9995
2 63168  88.9648 291.0364 0014143  51.6961 308.5459 13.51020484 85033
QIANFAN-83              
1 63169U 25046L   26259.90699743  .00000028  00000+0  20205-4 0  9995
2 63169  88.9650 290.2663 0014534  23.0262 337.1544 13.62064720 85464
QIANFAN-84              
1 63170U 25046M   26259.88042387 -.00000053  00000+0 -10138-3 0  9993
2 63170  88.9650 291.1737 0017007  47.4085 312.8497 13.51017258 84951
QIANFAN-85              
1 63171U 25046N   26259.87626441  .00000059  00000+0  72669-4 0  9994
2 63171  88.9647 291.0438 0014667  50.4939 309.7506 13.51020602 85028
QIANFAN-86              
1 63172U 25046P   26259.88447837  .00000070  00000+0  89924-4 0  9991
2 63172  88.9650 290.9116 0012669  55.2207 305.0135 13.51025563 85102
QIANFAN-87              
1 63173U 25046Q   26259.92973867  .00000014  00000+0  25342-5 0  9997
2 63173  88.9646 291.0082 0013044  50.3728 309.8572 13.51031988 85042
QIANFAN-88              
1 63174U 25046R   26259.87211583  .00000066  00000+0  82749-4 0  9992
2 63174  88.9649 290.9756 0013700  57.9345 302.3134 13.51029691 85061
QIANFAN-89              
1 63175U 25046S   26259.90914830  .00000057  00000+0  69615-4 0  9999
2 63175  88.9649 291.1606 0017957  47.5150 312.7516 13.51024978 84966
QIANFAN-90              
1 63176U 25046T   26259.86395398  .00000018  00000+0  97846-5 0  9992
2 63176  88.9649 291.1386 0014853  47.3432 312.8969 13.51019841 84972
QIANFAN-91              
1 66033U 25233A   26259.37794195  .00000087  00000+0  11582-3 0  9996
2 66033  89.0048  33.9686 0001811  92.3568 267.7790 13.51029090 45498
QIANFAN-92              
1 66034U 25233B   26258.79391672  .00000076  00000+0  98358-4 0  9990
2 66034  89.0033  33.9840 0001935  99.4251 260.7119 13.51026140 45412
QIANFAN-93              
1 66035U 25233C   26259.09833662  .00000045  00000+0  51628-4 0  9990
2 66035  89.0065  34.0304 0002020  92.6967 267.4415 13.51027172 45453
QIANFAN-94              
1 66036U 25233D   26258.64149397  .00000080  00000+0  10602-3 0  9991
2 66036  89.0055  33.9762 0001804  98.2207 261.9149 13.51027339 45444
QIANFAN-95              
1 66037U 25233E   26259.09411113  .00000079  00000+0  10400-3 0  9994
2 66037  89.0049  33.4715 0001668  91.7798 268.3544 13.51027243 45750
QIANFAN-96              
1 66038U 25233F   26259.34092369  .00000086  00000+0  11441-3 0  9995
2 66038  89.0051  33.9883 0001802  90.4987 269.6371 13.51028600 45481
QIANFAN-97              
1 66039U 25233G   26259.32449090  .00000088  00000+0  11756-3 0  9992
2 66039  89.0054  33.9771 0001831  92.9096 267.2265 13.51028627 45486
QIANFAN-98              
1 66040U 25233H   26259.33272958  .00000092  00000+0  12318-3 0  9992
2 66040  89.0043  33.6972 0001562 110.8464 249.2854 13.51028851 45636
QIANFAN-99              
1 66041U 25233J   26259.33678151  .00000096  00000+0  13031-3 0  9995
2 66041  89.0055  33.9804 0001468 103.0397 257.0918 13.51035307 45497
QIANFAN-100             
1 66042U 25233K   26259.32862080  .00000086  00000+0  11499-3 0  9996
2 66042  89.0066  33.9185 0001848  93.2255 266.9108 13.51019873 45543
QIANFAN-101             
1 66043U 25233L   26259.32305090  .00000346  00000+0  13654-3 0  9994
2 66043  89.0056  30.1092 0014462 197.0969 162.9740 14.26860075 47629
QIANFAN-102             
1 66044U 25233M   26259.34917213  .00000078  00000+0  10294-3 0  9992
2 66044  89.0053  33.8867 0001738  98.8730 261.2618 13.51028164 45541
QIANFAN-103             
1 66045U 25233N   26259.35284761 -.02058763  00000+0 -35562+1 0  9999
2 66045  88.9937  33.9850 0009364 137.9777 222.2093 13.48200120 45491
QIANFAN-104             
1 66046U 25233P   26259.35734377  .00000076  00000+0  98617-4 0  9997
2 66046  89.0060  33.8898 0001809 101.1342 259.0012 13.51026135 45540
QIANFAN-105             
1 66047U 25233Q   26258.32884184  .00000083  00000+0  10995-3 0  9996
2 66047  89.0072  33.8483 0001851  97.4376 262.6985 13.50988459 45516
QIANFAN-106             
1 66048U 25233R   26258.62085953  .00000070  00000+0  89762-4 0  9992
2 66048  89.0041  34.0034 0001570 106.9304 253.2020 13.51029618 45399
QIANFAN-107             
1 66049U 25233S   26258.85128731  .00000106  00000+0  14556-3 0  9998
2 66049  89.0058  34.0272 0001847  94.1694 265.9669 13.51029041 45433
QIANFAN-108             
1 66050U 25233T   26259.37389027  .00000068  00000+0  87099-4 0  9995
2 66050  89.0051  33.9558 0001616 106.8405 253.2923 13.51028687 45504
QIANFAN-109             
1 68636U 26075A   26259.90617224  .00000050  00000+0  58017-4 0  9993
2 68636  88.9869 311.6545 0002153  84.2252 275.9144 13.51020638 22171
QIANFAN-110             
1 68637U 26075B   26259.91435224  .00000055  00000+0  65766-4 0  9997
2 68637  88.9869 311.6752 0002266  97.9718 262.1690 13.51031680 22178
QIANFAN-111             
1 68638U 26075C   26259.90226300  .00000039  00000+0  42062-4 0  9996
2 68638  88.9868 311.6354 0002251  97.5651 262.5756 13.51021047 22197
QIANFAN-112             
1 68639U 26075D   26259.86513948  .00000044  00000+0  49302-4 0  9999
2 68639  88.9867 311.6471 0002379  85.8005 274.3418 13.51023460 22187
QIANFAN-113             
1 68640U 26075E   26259.91024375  .00000064  00000+0  80310-4 0  9994
2 68640  88.9873 311.6413 0002333  95.2437 264.8980 13.51020028 22192
QIANFAN-114             
1 68641U 26075F   26259.91848784  .00000054  00000+0  65281-4 0  9992
2 68641  88.9868 311.6552 0002244  97.1498 262.9909 13.51027689 22189
QIANFAN-115             
1 68642U 26075G   26259.87330312  .00000060  00000+0  74531-4 0  9996
2 68642  88.9868 311.6671 0002122  94.3539 265.7855 13.51024372 22178
QIANFAN-116             
1 68643U 26075H   26259.93499581  .00000044  00000+0  49932-4 0  9997
2 68643  88.9861 311.6144 0002404  89.1139 271.0287 13.51024993 22198
QIANFAN-117             
1 68644U 26075J   26259.92274160  .00000057  00000+0  69248-4 0  9997
2 68644  88.9865 311.6356 0002211  90.6810 269.4595 13.51022812 22198
QIANFAN-118             
1 68645U 26075K   26259.88152139  .00000053  00000+0  63790-4 0  9996
2 68645  88.9871 311.6522 0002330  99.8414 260.3000 13.51024556 22181
QIANFAN-119             
1 68646U 26075L   26259.93080654  .00000049  00000+0  57555-4 0  9992
2 68646  88.9870 311.6429 0002052  87.0874 273.0512 13.51020286 22193
QIANFAN-120             
1 68647U 26075M   26259.86912949  .00000055  00000+0  67296-4 0  9996
2 68647  88.9872 311.6356 0001990  86.6103 273.5276 13.51020112 22195
QIANFAN-121             
1 68648U 26075N   26259.89394677  .00000045  00000+0  51340-4 0  9994
2 68648  88.9870 311.6360 0002243  98.8326 261.3079 13.51023660 22190
QIANFAN-122             
1 68649U 26075P   26259.88567204  .00000056  00000+0  68370-4 0  9995
2 68649  88.9869 311.6339 0002205  88.3376 271.8028 13.51027176 22187
QIANFAN-123             
1 68650U 26075Q   26259.92670065  .00000054  00000+0  64210-4 0  9999
2 68650  88.9865 311.6167 0002196  82.4040 277.7361 13.51020133 22176
QIANFAN-124             
1 68651U 26075R   26259.87746660  .00000056  00000+0  68214-4 0  9999
2 68651  88.9868 311.6332 0002230  87.0698 273.0708 13.51026700 22195
QIANFAN-125             
1 68652U 26075S   26259.88983304  .00000047  00000+0  54069-4 0  9992
2 68652  88.9868 311.6339 0002276  98.4400 261.7009 13.51023752 22192
QIANFAN-126             
1 68653U 26075T   26259.89789266  .00000047  00000+0  54576-4 0  9998
2 68653  88.9872 311.6024 0002173  83.0034 277.1364 13.51029169 22214
QIANFAN-127             
1 69073U 26104A   26259.90334869  .00000025  00000+0  19729-4 0  9992
2 69073  88.9926 332.1204 0002526 104.2634 255.8798 13.51027645 17544
QIANFAN-128             
1 69074U 26104B   26259.91144532  .00000092  00000+0  12418-3 0  9991
2 69074  88.9904 332.1442 0002215 113.5552 246.5832 13.51023417 17529
QIANFAN-129             
1 69075U 26104C   26259.86200227  .00000103  00000+0  14122-3 0  9997
2 69075  88.9907 332.0834 0002312 108.9946 251.1456 13.51023288 17553
QIANFAN-130             
1 69076U 26104D   26259.89901270  .00000085  00000+0  11275-3 0  9992
2 69076  88.9909 332.1454 0002548  98.7520 261.3920 13.51021416 17527
QIANFAN-131             
1 69077U 26104E   26259.91977122  .00000083  00000+0  11048-3 0  9991
2 69077  88.9902 332.1040 0002056 107.1599 252.9777 13.51025512 17546
QIANFAN-132             
1 69078U 26104F   26259.90726234  .00000096  00000+0  12955-3 0  9999
2 69078  88.9904 332.1618 0002419 101.0325 259.1098 13.51021724 17516
QIANFAN-133             
1 69079U 26104G   26259.91561836  .00000082  00000+0  10758-3 0  9990
2 69079  88.9907 332.1111 0001964 112.8387 247.2971 13.51030522 17536
QIANFAN-134             
1 69080U 26104H   26259.87032938  .00000099  00000+0  13437-3 0  9998
2 69080  88.9912 332.1419 0002169 112.6030 247.5351 13.51028868 17520
QIANFAN-135             
1 69081U 26104J   26259.92371975  .00000086  00000+0  11452-3 0  9993
2 69081  88.9905 332.1274 0002407 113.5003 246.6402 13.51021998 17532
QIANFAN-136             
1 69082U 26104K   26259.93200479  .00000099  00000+0  13413-3 0  9998
2 69082  88.9907 332.1295 0002019 113.0271 247.1093 13.51031954 17534
QIANFAN-137             
1 69083U 26104L   26259.92790621  .00000078  00000+0  10248-3 0  9991
2 69083  88.9916 332.0064 0002276 101.1716 258.9691 13.51021644 17602
QIANFAN-138             
1 69084U 26104M   26259.87845350  .00000080  00000+0  10565-3 0  9991
2 69084  88.9901 332.1350 0002515 107.7883 252.3542 13.51021454 17522
QIANFAN-139             
1 69085U 26104N   26259.86630776  .00000103  00000+0  14046-3 0  9999
2 69085  88.9904 332.1180 0002504 102.2469 257.8963 13.51030257 17534
QIANFAN-140             
1 69086U 26104P   26259.87435574  .00000096  00000+0  12937-3 0  9998
2 69086  88.9904 332.1207 0002493 112.4906 247.6510 13.51022604 17533
QIANFAN-141             
1 69087U 26104Q   26259.88264781  .00000081  00000+0  10604-3 0  9993
2 69087  88.9901 332.0842 0002286 113.0610 247.0783 13.51020368 17557
QIANFAN-142             
1 69088U 26104R   26259.89078236  .00000025  00000+0  20274-4 0  9996
2 69088  88.9899 332.0827 0002471 108.4407 251.7013 13.51030815 17551
QIANFAN-143             
1 69089U 26104S   26259.88679947  .00000088  00000+0  11818-3 0  9994
2 69089  88.9910 332.0895 0001994 106.2305 253.9066 13.51027079 17553
QIANFAN-144             
1 69090U 26104T   26259.89490185  .00000024  00000+0  18872-4 0  9990
2 69090  88.9909 332.1069 0002544 105.3241 254.8191 13.51020306 17542
QIANFAN-145             
1 69104U 26108A   26259.89920557  .00000109  00000+0  14985-3 0  9995
2 69104  89.0191  12.8911 0001615 101.7309 258.4023 13.51033807 16828
QIANFAN-146             
1 69105U 26108B   26259.93220464  .00000121  00000+0  16873-3 0  9993
2 69105  89.0193  12.7249 0001978  99.6601 260.4773 13.51039439 16929
QIANFAN-147             
1 69106U 26108C   26259.90762778  .00000114  00000+0  15811-3 0  9993
2 69106  89.0193  12.8947 0002090 103.4624 256.6760 13.51024448 16816
QIANFAN-148             
1 69107U 26108D   26259.89521628  .00000118  00000+0  16370-3 0  9994
2 69107  89.0187  12.8861 0001984 109.6474 250.4892 13.51023980 16815
QIANFAN-149             
1 69108U 26108E   26259.90337841  .00000110  00000+0  15104-3 0  9995
2 69108  89.0187  12.9066 0002275 109.4826 250.6571 13.51023462 16818
QIANFAN-150             
1 69109U 26108F   26259.91157794  .00000104  00000+0  14283-3 0  9994
2 69109  89.0192  12.8588 0002295 108.3222 251.8179 13.51023986 16833
QIANFAN-151             
1 69110U 26108G   26259.86649856  .00000121  00000+0  16873-3 0  9991
2 69110  89.0191  12.8869 0001818 102.6993 257.4361 13.51027143 16810
QIANFAN-152             
1 69111U 26108H   26259.91979270  .00000095  00000+0  12860-3 0  9996
2 69111  89.0187  12.8736 0002260  98.0561 262.0847 13.51028330 16832
QIANFAN-153             
1 69112U 26108J   26259.91568241  .00000097  00000+0  13192-3 0  9990
2 69112  89.0184  12.8505 0002232 104.3294 255.8105 13.51024291 16836
QIANFAN-154             
1 69113U 26108K   26259.92405069  .00000096  00000+0  13021-3 0  9990
2 69113  89.0194  12.8982 0002133 106.3100 253.8286 13.51026263 16823
QIANFAN-155             
1 69114U 26108L   26259.92804410  .00000108  00000+0  14937-3 0  9995
2 69114  89.0191  12.8624 0002263 106.0672 254.0728 13.51023176 16834
QIANFAN-156             
1 69115U 26108M   26259.87452396  .00000108  00000+0  14947-3 0  9993
2 69115  89.0206  12.8685 0001892 107.7028 252.4329 13.51023094 16848
QIANFAN-157             
1 69116U 26108N   26259.86236371  .00000122  00000+0  17047-3 0  9996
2 69116  89.0187  12.7936 0002057 111.4725 248.6646 13.51027812 16879
QIANFAN-158             
1 69117U 26108P   26259.87861766  .00000103  00000+0  14095-3 0  9999
2 69117  89.0189  12.8333 0001852 105.5624 254.5732 13.51023331 16850
QIANFAN-159             
1 69118U 26108Q   26259.87044086  .00000116  00000+0  16082-3 0  9990
2 69118  89.0181  12.8407 0001886 103.4867 256.6494 13.51023082 16848
QIANFAN-160             
1 69119U 26108R   26259.88703409  .00000109  00000+0  15087-3 0  9999
2 69119  89.0196  12.8760 0002382 106.7709 253.3703 13.51023259 16832
QIANFAN-161             
1 69120U 26108S   26259.89098588  .00000108  00000+0  14839-3 0  9990
2 69120  89.0203  12.7921 0001843 104.3210 255.8146 13.51021591 16883
QIANFAN-162             
1 69121U 26108T   26259.88278508  .00000105  00000+0  14473-3 0  9993
2 69121  89.0192  12.8185 0002150  99.6635 260.4759 13.51022486 16856
QIANFAN-163             
1 69325U 26121A   26259.62523410 -.00000008  00000+0 -31134-4 0  9999
2 69325  89.0105 291.4131 0002344 121.8081 238.3299 13.51022057 14518
QIANFAN-164             
1 69326U 26121B   26259.51826219  .00000032  00000+0  30928-4 0  9996
2 69326  89.0104 291.4143 0001996 111.3919 248.7445 13.51021333 14500
QIANFAN-165             
1 69382U 26124A   26259.89826231  .00000118  00000+0  16467-3 0  9992
2 69382  89.0071 352.3846 0001850 120.4033 239.7302 13.51021588 14424
QIANFAN-166             
1 69383U 26124B   26259.90241199  .00000123  00000+0  17144-3 0  9998
2 69383  89.0089 352.3944 0001831 103.2805 256.8550 13.51022149 14427
QIANFAN-167             
1 69384U 26124C   26259.90642634  .00000127  00000+0  17796-3 0  9995
2 69384  89.0063 352.4004 0002206 107.6176 252.5217 13.51031189 14410
QIANFAN-168             
1 69385U 26124D   26259.91046105  .00000125  00000+0  17569-3 0  9994
2 69385  89.0060 352.3800 0001641 106.2396 253.8936 13.51019806 14427
QIANFAN-169             
1 69386U 26124E   26259.91472637  .00000129  00000+0  18054-3 0  9992
2 69386  89.0058 352.3794 0001871  99.5056 260.6307 13.51023070 14425
QIANFAN-170             
1 69387U 26124F   26259.91879814  .00000131  00000+0  18381-3 0  9997
2 69387  89.0076 352.3508 0001822  97.3852 262.7506 13.51025525 14448
QIANFAN-171             
1 69388U 26124G   26259.92710658  .00000132  00000+0  18607-3 0  9991
2 69388  89.0090 352.3621 0002163 104.3584 255.7808 13.51028106 14446
QIANFAN-172             
1 69389U 26124H   26259.92291056  .00000132  00000+0  18518-3 0  9999
2 69389  89.0073 352.3528 0001781 116.3327 243.8007 13.51029127 14440
QIANFAN-173             
1 69390U 26124J   26259.93101517  .00000127  00000+0  17855-3 0  9991
2 69390  89.0062 352.3488 0001642 101.5162 258.6173 13.51022131 14440
QIANFAN-174             
1 69391U 26124K   26259.86936555  .00000120  00000+0  16743-3 0  9990
2 69391  89.0043 352.3131 0002213 109.4862 250.6529 13.51029940 14446
QIANFAN-175             
1 69392U 26124L   26259.87358479  .00000124  00000+0  17399-3 0  9997
2 69392  89.0095 352.3560 0001829 101.5372 258.5985 13.51019984 14441
QIANFAN-176             
1 69393U 26124M   26259.87768150  .00000126  00000+0  17691-3 0  9996
2 69393  89.0056 352.3367 0001844 101.7820 258.3538 13.51020758 14433
QIANFAN-177             
1 69394U 26124N   26259.88591352  .00000131  00000+0  18414-3 0  9996
2 69394  89.0067 352.3241 0002105 109.5061 250.6317 13.51029849 14453
QIANFAN-178             
1 69395U 26124P   26259.88173058  .00000128  00000+0  17957-3 0  9993
2 69395  89.0012 352.2820 0001853 100.9765 259.1595 13.51025752 14463
QIANFAN-179             
1 69396U 26124Q   26259.89003397  .00000133  00000+0  18759-3 0  9990
2 69396  89.0044 352.2983 0001844 100.3783 259.7577 13.51029455 14463
QIANFAN-180             
1 69397U 26124R   26259.89414103  .00000120  00000+0  16796-3 0  9997
2 69397  89.0051 352.3187 0001847  96.3339 263.8022 13.51021704 14452
QIANFAN-181             
1 69398U 26124S   26259.93527648  .00000118  00000+0  16450-3 0  9996
2 69398  89.0073 352.4073 0002170 106.1055 254.0335 13.51023429 14418
QIANFAN-182             
1 69399U 26124T   26259.86527171  .00000116  00000+0  16052-3 0  9996
2 69399  89.0048 352.3855 0001837 103.5164 256.6192 13.51027931 14409
QIANFAN-183             
1 69401U 26125A   26259.89989264  .00000006  00000+0 -94750-5 0  9991
2 69401  88.9832 270.6732 0001992 101.6512 258.4863 13.51027420 14325
QIANFAN-184             
1 69402U 26125B   26259.98220254  .00000025  00000+0  20464-4 0  9999
2 69402  88.9882 270.6904 0001950  97.5133 262.6239 13.51028632 14339
QIANFAN-185             
1 69403U 26125C   26259.78477141 -.00000001  00000+0 -19898-4 0  9992
2 69403  88.9897 270.6500 0001875  99.3879 260.7484 13.51017582 14345
QIANFAN-186             
1 69404U 26125D   26259.90405177  .00000009  00000+0 -47064-5 0  9991
2 69404  88.9885 270.6983 0001997  96.1682 263.9697 13.51008196 14320
QIANFAN-187             
1 69405U 26125E   26259.91222986  .00000015  00000+0  52618-5 0  9995
2 69405  88.9885 270.6802 0002137 100.0753 260.0639 13.51007259 14336
QIANFAN-188             
1 69406U 26125F   26259.92040277  .00000028  00000+0  25377-4 0  9993
2 69406  88.9883 270.6792 0002013 102.9419 257.1957 13.51029343 14334
QIANFAN-189             
1 69407U 26125G   26259.92856552  .00000007  00000+0 -77835-5 0  9990
2 69407  88.9866 270.6735 0002038 108.1991 251.9383 13.51028457 14322
QIANFAN-190             
1 69408U 26125H   26259.91623356  .00000027  00000+0  23121-4 0  9993
2 69408  88.9867 270.6726 0001890  96.3334 263.8032 13.51033300 14335
QIANFAN-191             
1 69409U 26125J   26259.86692602  .00000007  00000+0 -77033-5 0  9999
2 69409  88.9881 270.6893 0001972 102.5397 257.5974 13.51032862 14323
QIANFAN-192             
1 69410U 26125K   26259.92444838  .00000022  00000+0  14917-4 0  9991
2 69410  88.9887 270.6837 0002086 105.8903 254.2478 13.51019614 14339
QIANFAN-193             
1 69411U 26125L   26259.87522948  .00000023  00000+0  16394-4 0  9997
2 69411  88.9866 270.6656 0001882 103.0894 257.0467 13.51027432 14334
QIANFAN-194             
1 69412U 26125M   26259.87109838  .00000021  00000+0  14611-4 0  9995
2 69412  88.9898 270.6797 0002008 102.5693 257.5683 13.51026095 14326
QIANFAN-195             
1 69413U 26125N   26259.95340426  .00000035  00000+0  36269-4 0  9993
2 69413  88.9900 270.6562 0001941  88.8204 271.3169 13.51011727 14352
QIANFAN-196             
1 69414U 26125P   26259.88750210  .00000006  00000+0 -99737-5 0  9991
2 69414  88.9904 270.6667 0001856  92.8453 267.2911 13.51035235 14347
QIANFAN-197             
1 69415U 26125Q   26259.89582424  .00000005  00000+0 -11275-4 0  9992
2 69415  88.9879 270.6381 0001978 100.3400 259.7974 13.51023684 14344
QIANFAN-198             
1 69416U 26125R   26259.88344396  .00000023  00000+0  16493-4 0  9992
2 69416  88.9873 270.6522 0002003 103.1115 257.0260 13.51028131 14341
QIANFAN-199             
1 69417U 26125S   26259.89171733  .00000013  00000+0  16870-5 0  9996
2 69417  88.9877 270.6014 0002203 101.6490 258.4909 13.51025706 14376
QIANFAN-200             
1 69418U 26125T   26259.86286095  .00000008  00000+0 -67385-5 0  9994
2 69418  88.9884 270.6897 0002003 105.9007 254.2365 13.51026167 14320
QIANFAN-201             
1 69800U 26153A   26259.65855347 -.01804561  00000+0 -14275+1 0  9992
2 69800  88.9973 351.8851 0006217  98.0749 262.1134 13.95786514 10518
QIANFAN-202             
1 69801U 26153B   26259.60581050 -.01863271  00000+0 -12955+1 0  9991
2 69801  88.9974 351.8587 0006033 302.6951  57.3647 14.02569572 10516
QIANFAN-203             
1 69802U 26153C   26259.81856744 -.01763874  00000+0 -12096+1 0  9994
2 69802  88.9974 351.8722 0011277 343.5659  16.5154 14.03753801 10536
QIANFAN-204             
1 69803U 26153D   26259.84553569 -.01896056  00000+0 -13417+1 0  9994
2 69803  88.9971 351.8581 0008415 317.9418  42.1115 14.01637901 10548
QIANFAN-205             
1 69804U 26153E   26259.79838408 -.01875490  00000+0 -13718+1 0  9990
2 69804  88.9973 351.8869 0005801  19.3729 340.7670 13.99740370 10526
QIANFAN-206             
1 69805U 26153F   26259.81510000 -.01874388  00000+0 -12632+1 0  9998
2 69805  88.9975 351.8343 0010250 334.8147  25.2533 14.04320048 10558
QIANFAN-207             
1 69806U 26153G   26259.94728184 -.01825437  00000+0 -13236+1 0  9999
2 69806  88.9974 351.8538 0006563 339.1304  20.9607 14.00785520 10559
QIANFAN-208             
1 69807U 26153H   26259.86028297 -.01869836  00000+0 -13702+1 0  9998
2 69807  88.9969 351.8597 0004173  92.2375 267.9282 13.99627549 10554
QIANFAN-209             
1 69808U 26153J   26259.82748969 -.01897062  00000+0 -14054+1 0  9993
2 69808  88.9976 351.8739 0004865  36.3136 323.8371 13.99063867 10539
QIANFAN-210             
1 69809U 26153K   26259.87094917 -.01871014  00000+0 -13554+1 0  9999
2 69809  88.9975 351.8621 0007111   1.5937 358.5263 14.00271340 10545
QIANFAN-211             
1 69810U 26153L   26259.89624893  .00000205  00000+0  99560-4 0  9993
2 69810  88.9980 351.8280 0007105 358.4416   1.6748 14.14539048 10566
QIANFAN-212             
1 69811U 26153M   26259.86772821 -.01822162  00000+0 -12378+1 0  9991
2 69811  88.9973 351.8420 0009734 329.4210  30.6402 14.04431379 10550
QIANFAN-213             
1 69812U 26153N   26259.81396819 -.01849963  00000+0 -12848+1 0  9996
2 69812  88.9974 351.8521 0011014 332.1170  27.9418 14.02583468 10544
QIANFAN-214             
1 69813U 26153P   26259.63650286 -.01869880  00000+0 -12329+1 0  9992
2 69813  88.9973 351.8256 0009087 347.6679  12.4279 14.05533848 10545
QIANFAN-215             
1 69814U 26153Q   26259.81492993 -.01866137  00000+0 -11103+1 0  9993
2 69814  88.9972 351.7583 0007257  68.5539 291.6420 14.11199136 10597
QIANFAN-216             
1 69815U 26153R   26259.29630828 -.01876408  00000+0 -11955+1 0  9994
2 69815  88.9972 351.8490 0006377  75.6830 284.5061 14.07461523 10501
QIANFAN-217             
1 69816U 26153S   26259.86815832  .00000426  00000+0  18389-3 0  9995
2 69816  88.9977 351.7099 0007749  10.2774 349.8575 14.22761772 10621
QIANFAN-218             
1 69817U 26153T   26259.86597975  .00000090  00000+0  34039-4 0  9999
2 69817  88.9981 351.7121 0006357  12.4193 347.7153 14.22316908 10622
QIANFAN-219             
1 69848U 26155A   26259.84023560 -.01970604  00000+0 -31507+1 0  9990
2 69848  89.0074  54.0680 0038953  26.8527 333.4630 13.52676351 10244
QIANFAN-220             
1 69849U 26155B   26259.85683331 -.01847110  00000+0 -29679+1 0  9992
2 69849  89.0085  54.0941 0035115  28.2796 332.0253 13.52830047 10237
QIANFAN-221             
1 69850U 26155C   26259.84269160 -.01943893  00000+0 -21750+1 0  9990
2 69850  89.0078  53.8711 0028117  20.0238 340.2023 13.74874532 10358
QIANFAN-222             
1 69851U 26155D   26259.80346587 -.01810119  00000+0 -29314+1 0  9994
2 69851  89.0081  54.1190 0035711  25.1219 335.1660 13.52233949 10213
QIANFAN-223             
1 69852U 26155E   26259.81201732 -.01787433  00000+0 -31858+1 0  9996
2 69852  89.0080  54.1214 0037213  16.2451 343.9881 13.46017643 10214
QIANFAN-224             
1 69853U 26155F   26259.81121498 -.01876214  00000+0 -30431+1 0  9999
2 69853  89.0064  54.0711 0036370  30.6060 329.7203 13.52284071 10237
QIANFAN-225             
1 69854U 26155G   26259.80953056 -.01832334  00000+0 -29943+1 0  9993
2 69854  89.0075  54.1166 0035450  22.9445 337.3281 13.51715182 10214
QIANFAN-226             
1 69855U 26155H   26259.82206124 -.01882366  00000+0 -30311+1 0  9994
2 69855  89.0072  54.1001 0035379  27.5300 332.7716 13.52774476 10226
QIANFAN-227             
1 69856U 26155J   26259.80278354 -.01906014  00000+0 -33693+1 0  9990
2 69856  89.0073  54.0998 0036284  17.6680 342.5722 13.46844697 10221
QIANFAN-228             
1 69857U 26155K   26259.92294471  .00000015  00000+0  43487-5 0  9992
2 69857  89.0084  54.0819 0036076  21.6932 338.5742 13.57843855 10246
QIANFAN-229             
1 69858U 26155L   26259.75612391 -.01825944  00000+0 -30356+1 0  9994
2 69858  89.0082  54.0751 0036738  22.2151 338.0582 13.50584892 10237
QIANFAN-230             
1 69859U 26155M   26259.64186272 -.01843472  00000+0 -30875+1 0  9999
2 69859  89.0081  54.1289 0035626  19.8392 340.4135 13.50169293 10198
QIANFAN-231             
1 69860U 26155N   26259.95538629  .00000023  00000+0  15511-4 0  9990
2 69860  89.0083  54.0499 0037136  17.5285 342.7143 13.57849172 10268
QIANFAN-232             
1 69861U 26155P   26259.80437186 -.01858632  00000+0 -32757+1 0  9998
2 69861  89.0071  54.0616 0028338  12.0136 348.1683 13.47026527 10243
QIANFAN-233             
1 69862U 26155Q   26259.56168389 -.01826120  00000+0 -29161+1 0  9990
2 69862  89.0079  54.0838 0039391  25.8695 334.4415 13.53108111 10216
QIANFAN-234             
1 69863U 26155R   26259.79866622 -.01825016  00000+0 -26585+1 0  9991
2 69863  89.0074  54.0086 0034994  14.0732 346.1391 13.58969332 10277
QIANFAN-235             
1 69864U 26155S   26259.81153276 -.01897052  00000+0 -17609+1 0  9995
2 69864  89.0081  53.8319 0030008  24.9141 335.3471 13.85860872 10377
QIANFAN-236             
1 69865U 26155T   26259.88447454  .00000042  00000+0  41053-4 0  9993
2 69865  89.0088  54.0772 0034887  20.4245 339.8296 13.57842954 10246
QIANFAN-237             
1 69866U 26155U   26259.79884538 -.01787237  00000+0 -28311+1 0  9991
2 69866  89.0081  54.0468 0034029  25.4553 334.8267 13.53607206 10245
QIANFAN-238             
1 69867U 26155V   26259.80347027 -.01785518  00000+0 -28333+1 0  9995
2 69867  89.0084  54.0647 0025620  26.7273 333.5193 13.53592148 10240
