QIANFAN-1               
1 60379U 24140A   26283.27658435  .00000028  00000+0  25097-4 0  9993
2 60379  88.9672 267.9617 0019552  66.3139 294.0061 13.51026710108068
QIANFAN-2               
1 60380U 24140B   26283.30547921  .00000025  00000+0  19426-4 0  9992
2 60380  88.9659 267.7574 0014259  43.0252 317.2012 13.51021082108120
QIANFAN-3               
1 60381U 24140C   26283.23977296  .00000027  00000+0  23020-4 0  9994
2 60381  88.9651 267.8739 0015704  53.7700 306.4900 13.51023822108028
QIANFAN-4               
1 60382U 24140D   26283.28904921  .00000026  00000+0  21979-4 0  9995
2 60382  88.9676 267.8423 0014570  45.1713 315.0619 13.51021349108154
QIANFAN-5               
1 60383U 24140E   26283.26411185  .00000026  00000+0  21876-4 0  9995
2 60383  88.9650 267.8955 0017151  63.3711 296.9195 13.51032223108019
QIANFAN-6               
1 60384U 24140F   26283.28487835  .00000033  00000+0  32837-4 0  9990
2 60384  88.9678 267.7217 0014829  50.3489 309.8968 13.51024684108213
QIANFAN-7               
1 60385U 24140G   26283.23882214  .00000236  00000+0  89305-4 0  9993
2 60385  88.9741 258.2245 0016944 122.2026 238.0814 14.27899912113416
QIANFAN-8               
1 60386U 24140H   26283.29320631  .00000030  00000+0  27812-4 0  9997
2 60386  88.9678 267.9617 0018321  51.2219 309.0566 13.51026629108063
QIANFAN-9               
1 60387U 24140J   26283.26850289  .00000024  00000+0  18010-4 0  9995
2 60387  88.9676 268.0336 0018016  51.1463 309.1292 13.51022523108047
QIANFAN-10              
1 60388U 24140K   26283.27259416  .00000022  00000+0  15032-4 0  9991
2 60388  88.9689 267.4127 0015850  31.0513 329.1571 13.51022598108177
QIANFAN-11              
1 60389U 24140L   26283.23566149  .00000016  00000+0  53610-5 0  9990
2 60389  88.9613 267.7762 0016037  51.5857 308.6731 13.51026656107829
QIANFAN-12              
1 60390U 24140M   26283.25619485  .00000032  00000+0  31345-4 0  9994
2 60390  88.9655 267.9486 0015049  59.1009 301.1619 13.51024368107952
QIANFAN-13              
1 60391U 24140N   26283.30141374  .00000034  00000+0  34312-4 0  9997
2 60391  88.9915 268.2403 0014908  61.0531 299.2113 13.51024576107980
QIANFAN-14              
1 60392U 24140P   26283.25212169  .00000026  00000+0  21952-4 0  9990
2 60392  88.9647 267.9193 0018594  60.6233 299.6772 13.51026318107985
QIANFAN-15              
1 60393U 24140Q   26283.26016985  .00000041  00000+0  44956-4 0  9996
2 60393  88.9670 267.9467 0014107  49.6010 310.6370 13.51029356107974
QIANFAN-16              
1 60394U 24140R   26283.24785765  .00000030  00000+0  27752-4 0  9997
2 60394  88.9673 268.0763 0016587  64.4276 295.8588 13.51025681107884
QIANFAN-17              
1 60395U 24140S   26283.24390377  .00000024  00000+0  19021-4 0  9992
2 60395  88.9683 268.1556 0016866  58.7735 301.5066 13.51026387108840
QIANFAN-18              
1 60396U 24140T   26283.29737802  .00000024  00000+0  17685-4 0  9990
2 60396  88.9678 267.6645 0015810  43.4055 316.8339 13.51026563108244
QIANFAN-19              
1 61552U 24185A   26283.23784225  .00000317  00000+0  15778-3 0  9994
2 61552  88.9891  43.4137 0008556  66.3907 293.8177 14.14542900112282
QIANFAN-20              
1 61553U 24185B   26283.22944708  .00000293  00000+0  16094-3 0  9993
2 61553  88.9885  44.0352 0007879 100.9362 259.2709 14.09087327111949
QIANFAN-21              
1 61554U 24185C   26283.24941861  .00000439  00000+0  18857-3 0  9994
2 61554  88.9811  41.6887 0012790 100.7980 259.4653 14.22949384112842
QIANFAN-22              
1 61555U 24185D   26283.26491644  .00000109  00000+0  82217-4 0  9992
2 61555  88.9865  46.2265 0007865 141.1301 219.0437 13.86435837110714
QIANFAN-23              
1 61556U 24185E   26283.20867902  .00000336  00000+0  16134-3 0  9997
2 61556  88.9883  43.0863 0009314  72.4783 287.7422 14.16563337112422
QIANFAN-24              
1 61557U 24185F   26283.27674133  .00000576  00000+0  24400-3 0  9998
2 61557  88.9870  41.9933 0010792  45.9305 314.2774 14.24175099112936
QIANFAN-25              
1 61558U 24185G   26283.25431103  .00000328  00000+0  19118-3 0  9990
2 61558  88.9881  44.0881 0014594 114.4334 245.8373 14.06146337111872
QIANFAN-26              
1 61559U 24185H   26283.26248546  .00000149  00000+0  13534-3 0  9996
2 61559  88.9871  47.2200 0006406 162.6820 197.4566 13.77951732110190
QIANFAN-27              
1 61560U 24185J   26283.23792863  .00000483  00000+0  19015-3 0  9992
2 61560  88.9880  41.6247 0008011  35.7229 324.4500 14.27619993113175
QIANFAN-28              
1 61561U 24185K   26283.25857189  .00000616  00000+0  24031-3 0  9990
2 61561  88.9899  41.6381 0007824  33.5608 326.6081 14.28509135113213
QIANFAN-29              
1 61562U 24185L   26283.23684594  .00000157  00000+0  22425-3 0  9992
2 61562  88.9839  50.1567 0008158 254.6639 105.3611 13.51101170108509
QIANFAN-30              
1 61563U 24185M   26283.21749594  .00000031  00000+0  30623-4 0  9994
2 61563  88.9860  49.7999 0006248 235.7474 124.3085 13.50079274108742
QIANFAN-31              
1 61564U 24185N   26283.25661589  .00000014  00000+0  25480-5 0  9993
2 61564  88.9845  49.1197 0006121 214.9714 145.1040 13.58069348109085
QIANFAN-32              
1 61565U 24185P   26283.24338430  .00000147  00000+0  20989-3 0  9993
2 61565  88.9899  50.0188 0007737 276.3311  83.6959 13.50811376108740
QIANFAN-33              
1 61566U 24185Q   26283.23632460  .00000208  00000+0  13970-3 0  9993
2 61566  88.9869  45.2129 0009780 103.4541 256.7727 13.96764215111248
QIANFAN-34              
1 61567U 24185R   26283.17688931  .00000517  00000+0  32673-3 0  9995
2 61567  88.9845  44.3852 0008229 102.6612 257.5489 14.02537317111606
QIANFAN-35              
1 61568U 24185S   26283.24762166  .00000536  00000+0  20854-3 0  9996
2 61568  88.9879  41.5127 0006928  33.5229 326.6403 14.28377035113218
QIANFAN-36              
1 61569U 24185T   26283.25859685  .00000124  00000+0  16160-3 0  9999
2 61569  88.9835  49.6339 0004947 234.4437 125.6256 13.55651389108771
QIANFAN-37              
1 62238U 24232B   26283.28007109  .00000130  00000+0  18283-3 0  9990
2 62238  89.0168  11.0729 0001462  99.3051 260.8266 13.51034630139880
QIANFAN-38              
1 62239U 24232C   26283.23080235  .00000124  00000+0  17264-3 0  9998
2 62239  89.0174  11.0140 0015586  50.9835 309.2701 13.51032752139931
QIANFAN-39              
1 62240U 24232D   26283.26717047  .00000385  00000+0  15658-3 0  9995
2 62240  89.0143   3.0126 0017067 163.4931 196.6822 14.25574822144341
QIANFAN-40              
1 62241U 24232E   26283.26372255  .00000131  00000+0  18436-3 0  9990
2 62241  89.0201  10.6792 0014894  58.7850 301.4759 13.51033150140300
QIANFAN-41              
1 62242U 24232F   26283.27190127  .00000128  00000+0  18005-3 0  9996
2 62242  89.0173  10.9558 0014871  47.5019 312.7386 13.51034235139966
QIANFAN-42              
1 62243U 24232G   26283.24683364  .00000368  00000+0  15203-3 0  9997
2 62243  89.0141   3.1067 0015637 169.8357 190.3155 14.24661204144294
QIANFAN-43              
1 62244U 24232H   26283.19379292  .00000116  00000+0  16040-3 0  9995
2 62244  89.0177  11.0422 0016566  51.8556 308.4085 13.51021411108563
QIANFAN-44              
1 62245U 24232J   26283.25548036  .00000109  00000+0  14930-3 0  9995
2 62245  89.0175  10.8419 0014711  49.7530 310.4905 13.51033741140045
QIANFAN-45              
1 62246U 24232K   26283.22260024  .00000104  00000+0  14199-3 0  9993
2 62246  89.0179  11.0024 0015362  49.1887 311.0594 13.51032424139964
QIANFAN-46              
1 62247U 24232L   26283.24720968  .00000112  00000+0  15521-3 0  9993
2 62247  89.0175  11.0566 0015582  54.2141 306.0456 13.51033540139923
QIANFAN-47              
1 62248U 24232M   26283.25137830  .00000126  00000+0  17627-3 0  9999
2 62248  89.0171  10.9771 0015979  53.2283 307.0332 13.51032970139955
QIANFAN-48              
1 62249U 24232N   26283.28858858  .00000121  00000+0  16800-3 0  9990
2 62249  89.0175  10.9870 0018281  54.7908 305.4951 13.51027353139968
QIANFAN-49              
1 62250U 24232P   26283.27607559  .00000116  00000+0  16124-3 0  9994
2 62250  89.0174  10.9983 0015223  50.9002 309.3500 13.51021267108552
QIANFAN-50              
1 62251U 24232Q   26283.22663854  .00000119  00000+0  16522-3 0  9995
2 62251  89.0179  11.0278 0016905  51.5909 308.6757 13.51033935108571
QIANFAN-51              
1 62252U 24232R   26283.28429996  .00000122  00000+0  17011-3 0  9997
2 62252  89.0173  10.9974 0014511  56.0161 304.2367 13.51032827108576
QIANFAN-52              
1 62253U 24232S   26283.23897957  .00000120  00000+0  16760-3 0  9997
2 62253  89.0169  10.8637 0016299  47.9088 312.3446 13.51034852108656
QIANFAN-53              
1 62254U 24232T   26283.21853166  .00000116  00000+0  16051-3 0  9998
2 62254  89.0177  10.9931 0015219  49.4909 310.7566 13.51031512108615
QIANFAN-54              
1 62255U 24232U   26283.25959650  .00000115  00000+0  15910-3 0  9990
2 62255  89.0167  10.6408 0004107  95.7000 264.4619 13.51033411140127
QIANFAN-55              
1 62785U 25016A   26283.28581328  .00000051  00000+0  60936-4 0  9993
2 62785  88.9697  71.8958 0017125 191.3139 168.7630 13.51026013 87905
QIANFAN-56              
1 62786U 25016B   26283.22802962  .00000063  00000+0  78604-4 0  9992
2 62786  88.9672  71.6580 0015649 193.6391 166.4339 13.51021348 87943
QIANFAN-57              
1 62787U 25016C   26283.26104984  .00000061  00000+0  75871-4 0  9997
2 62787  88.9702  71.9018 0001783  74.7619 285.3730 13.51029031 87913
QIANFAN-58              
1 62788U 25016D   26283.23229371  .00000061  00000+0  75551-4 0  9998
2 62788  88.9673  71.6450 0013793 185.0701 175.0312 13.51028567 87958
QIANFAN-59              
1 62789U 25016E   26283.25684912  .00000060  00000+0  74480-4 0  9996
2 62789  88.9695  71.7870 0014045 188.9639 171.1263 13.51025920 87955
QIANFAN-60              
1 62790U 25016F   26283.28974939  .00000062  00000+0  77700-4 0  9992
2 62790  88.9677  71.6978 0015693 185.9746 174.1220 13.51022431 87940
QIANFAN-61              
1 62791U 25016G   26283.24862567  .00000051  00000+0  60649-4 0  9994
2 62791  88.9742  72.0686 0014672 185.1701 174.9301 13.51028931 87954
QIANFAN-62              
1 62792U 25016H   26283.25286963  .00000059  00000+0  72352-4 0  9998
2 62792  88.9690  71.7750 0016000 185.9342 174.1622 13.51028303 87941
QIANFAN-63              
1 62793U 25016J   26283.20348488  .00000054  00000+0  64601-4 0  9998
2 62793  88.9697  71.7520 0015900 191.5251 168.5538 13.51024195 87975
QIANFAN-64              
1 62794U 25016K   26283.24453580  .00000050  00000+0  58493-4 0  9991
2 62794  88.9684  71.6815 0014055 183.4005 176.7053 13.51028918 87975
QIANFAN-65              
1 62795U 25016L   26283.24037719  .00000051  00000+0  60326-4 0  9993
2 62795  88.9681  71.6971 0013865 185.0451 175.0563 13.51025005 87957
QIANFAN-66              
1 62796U 25016M   26283.26925844  .00000060  00000+0  74626-4 0  9999
2 62796  88.9700  71.7235 0015080 181.1496 178.9623 13.51021120 88001
QIANFAN-67              
1 62797U 25016N   26283.27333131  .00000057  00000+0  70029-4 0  9992
2 62797  88.9690  71.7190 0014853 188.0146 172.0770 13.51021379 87974
QIANFAN-68              
1 62798U 25016P   26283.26518430  .00000059  00000+0  72423-4 0  9991
2 62798  88.9694  71.7757 0014988 185.9259 174.1717 13.51023297 87951
QIANFAN-69              
1 62799U 25016Q   26283.28153744  .00000050  00000+0  58633-4 0  9995
2 62799  88.9673  71.5795 0015674 187.5598 172.5320 13.51022055 87993
QIANFAN-70              
1 62800U 25016R   26283.22404222  .00000070  00000+0  89987-4 0  9990
2 62800  88.9693  71.7865 0015552 177.9937 182.1279 13.51025614 87942
QIANFAN-71              
1 62801U 25016S   26283.29389198  .00000059  00000+0  72673-4 0  9993
2 62801  88.9687  71.7406 0015484 191.0816 168.9997 13.51028169 87952
QIANFAN-72              
1 62802U 25016T   26283.23637210  .00000058  00000+0  71269-4 0  9998
2 62802  88.9678  71.7305 0018521 199.6419 160.4021 13.51030075 87931
QIANFAN-73              
1 63159U 25046A   26283.26331485  .00000028  00000+0  24991-4 0  9992
2 63159  88.9622 288.6953 0014078 339.6358  20.4230 13.51026116 88125
QIANFAN-74              
1 63160U 25046B   26283.24703763  .00000005  00000+0 -11719-4 0  9994
2 63160  88.9624 288.5872 0001949  98.5773 261.5599 13.51018480 88180
QIANFAN-75              
1 63161U 25046C   26283.30853750  .00000096  00000+0  12932-3 0  9990
2 63161  88.9625 288.8185 0015323 342.6983  17.3644 13.51034154 88060
QIANFAN-76              
1 63162U 25046D   26283.30470437 -.00000043  00000+0 -85155-4 0  9990
2 63162  88.9625 288.7989 0012865 344.2939  15.7811 13.51017537 88074
QIANFAN-77              
1 63163U 25046E   26283.26451182  .00000094  00000+0  58132-4 0  9991
2 63163  88.9635 284.3234 0013488 212.0005 148.0354 13.96250583 90523
QIANFAN-78              
1 63164U 25046F   26283.27233764  .00000085  00000+0  11277-3 0  9995
2 63164  88.9624 288.6637 0014282 345.7647  14.3099 13.51014608 88148
QIANFAN-79              
1 63165U 25046G   26283.30042504  .00000012  00000+0 -73550-6 0  9996
2 63165  88.9627 288.7784 0013991 344.1751  15.8961 13.51021450 88092
QIANFAN-80              
1 63166U 25046H   26283.31682918  .00000078  00000+0  10197-3 0  9993
2 63166  88.9625 288.4755 0013010 349.9929  10.0961 13.51020235 88253
QIANFAN-81              
1 63167U 25046J   26283.29625973  .00000099  00000+0  13433-3 0  9998
2 63167  88.9624 288.5448 0013866 338.0902  21.9655 13.51024345 88204
QIANFAN-82              
1 63168U 25046K   26283.25520919  .00000065  00000+0  82739-4 0  9998
2 63168  88.9624 288.5936 0011996 346.6207  13.4624 13.51023200 88180
QIANFAN-83              
1 63169U 25046L   26283.26789369  .00000050  00000+0  48410-4 0  9998
2 63169  88.9627 287.7739 0012327 311.2783  48.7312 13.62066378 88643
QIANFAN-84              
1 63170U 25046M   26283.28406675 -.00000051  00000+0 -98199-4 0  9990
2 63170  88.9625 288.7232 0014830 341.2094  18.8508 13.51027843 88110
QIANFAN-85              
1 63171U 25046N   26283.27983927  .00000088  00000+0  11715-3 0  9996
2 63171  88.9623 288.5929 0012499 344.9041  15.1735 13.51023727 88187
QIANFAN-86              
1 63172U 25046P   26283.28803126  .00000085  00000+0  11361-3 0  9994
2 63172  88.9626 288.4613 0010538 351.1613   8.9351 13.51021866 88262
QIANFAN-87              
1 63173U 25046Q   26283.25924198  .00000010  00000+0 -27797-5 0  9996
2 63173  88.9622 288.5649 0010888 345.0080  15.0747 13.51020542 88197
QIANFAN-88              
1 63174U 25046R   26283.27571222  .00000095  00000+0  12824-3 0  9990
2 63174  88.9625 288.5250 0011619 354.1787   5.9227 13.51022377 88220
QIANFAN-89              
1 63175U 25046S   26283.31272745  .00000087  00000+0  11658-3 0  9999
2 63175  88.9624 288.7100 0015760 340.9828  19.0733 13.51022997 88121
QIANFAN-90              
1 63176U 25046T   26283.26756305  .00000031  00000+0  29316-4 0  9993
2 63176  88.9625 288.6881 0012656 341.1747  18.8935 13.51020346 88130
QIANFAN-91              
1 66033U 25233A   26282.78140344  .00000106  00000+0  14482-3 0  9992
2 66033  89.0085  31.6194 0001630 106.4069 253.7261 13.51032620 48652
QIANFAN-92              
1 66034U 25233B   26282.27164776  .00000087  00000+0  11685-3 0  9992
2 66034  89.0067  31.6237 0002134  98.3238 261.8155 13.51029882 48588
QIANFAN-93              
1 66035U 25233C   26282.27961547  .00000077  00000+0  10105-3 0  9999
2 66035  89.0093  31.7054 0001620 103.6652 256.4680 13.51041653 48588
QIANFAN-94              
1 66036U 25233D   26282.26717031  .00000090  00000+0  12078-3 0  9992
2 66036  89.0091  31.6062 0001805 108.0514 252.0834 13.51030860 48633
QIANFAN-95              
1 66037U 25233E   26282.57166492  .00000090  00000+0  12115-3 0  9998
2 66037  89.0089  31.1167 0001622 111.1149 249.0175 13.51030852 48925
QIANFAN-96              
1 66038U 25233F   26282.74439413  .00000099  00000+0  13413-3 0  9995
2 66038  89.0087  31.6396 0001551 106.4499 253.6823 13.51032016 48643
QIANFAN-97              
1 66039U 25233G   26282.57974663  .00000085  00000+0  11357-3 0  9998
2 66039  89.0091  31.6439 0001637 103.7453 256.3880 13.51022768 48626
QIANFAN-98              
1 66040U 25233H   26282.29182867  .00000078  00000+0  10259-3 0  9998
2 66040  89.0079  31.3914 0002079 117.0681 243.0682 13.51032052 48733
QIANFAN-99              
1 66041U 25233J   26282.74024592  .00000098  00000+0  13328-3 0  9991
2 66041  89.0091  31.6326 0001893 118.4073 241.7269 13.51021668 48659
QIANFAN-100             
1 66042U 25233K   26282.73195439  .00000099  00000+0  13406-3 0  9998
2 66042  89.0102  31.5732 0001497 105.7538 254.3779 13.51022341 48709
QIANFAN-101             
1 66043U 25233L   26282.53564767  .00000171  00000+0  64377-4 0  9996
2 66043  89.0089  27.4647 0017149 125.0284 235.2522 14.26868669 50933
QIANFAN-102             
1 66044U 25233M   26282.75265060  .00000094  00000+0  12768-3 0  9995
2 66044  89.0088  31.5383 0001806 109.9096 250.2250 13.51031660 48708
QIANFAN-103             
1 66045U 25233N   26282.75680090  .00000087  00000+0  11644-3 0  9994
2 66045  89.0091  31.6362 0001645 104.5130 255.6204 13.51031690 48657
QIANFAN-104             
1 66046U 25233P   26282.53867211  .00000081  00000+0  10672-3 0  9997
2 66046  89.0095  31.5655 0001875 108.2891 251.8464 13.51029533 48677
QIANFAN-105             
1 66047U 25233Q   26282.54697931  .00000087  00000+0  11581-3 0  9995
2 66047  89.0108  31.4230 0001785 105.8944 254.2404 13.51032808 48785
QIANFAN-106             
1 66048U 25233R   26282.54274306  .00000080  00000+0  10604-3 0  9991
2 66048  89.0078  31.6004 0001999 115.9345 244.2013 13.51033107 48628
QIANFAN-107             
1 66049U 25233S   26282.69912054  .00000094  00000+0  12681-3 0  9999
2 66049  89.0093  31.6353 0001683 104.6963 255.4375 13.51032457 48659
QIANFAN-108             
1 66050U 25233T   26282.25892835  .00000088  00000+0  11810-3 0  9993
2 66050  89.0085  31.6590 0001999 114.2697 245.8663 13.51032071 48594
QIANFAN-109             
1 68636U 26075A   26283.30979132  .00000043  00000+0  47633-4 0  9997
2 68636  88.9828 309.2537 0001541  89.6174 270.5153 13.51022299 25339
QIANFAN-110             
1 68637U 26075B   26283.31794915  .00000048  00000+0  55588-4 0  9996
2 68637  88.9828 309.2744 0002069  92.5397 267.5991 13.51023103 25337
QIANFAN-111             
1 68638U 26075C   26283.30583387  .00000044  00000+0  49765-4 0  9991
2 68638  88.9828 309.2344 0002043  92.7614 267.3771 13.51025712 25354
QIANFAN-112             
1 68639U 26075D   26283.26871115  .00000039  00000+0  41067-4 0  9997
2 68639  88.9826 309.2457 0001676  82.8522 277.2820 13.51024903 25342
QIANFAN-113             
1 68640U 26075E   26283.31389328  .00000040  00000+0  43851-4 0  9990
2 68640  88.9832 309.2413 0002052  89.7656 270.3730 13.51011942 25350
QIANFAN-114             
1 68641U 26075F   26283.32208954  .00000048  00000+0  55361-4 0  9994
2 68641  88.9827 309.2540 0002038  92.7064 267.4320 13.51020137 25344
QIANFAN-115             
1 68642U 26075G   26283.27685934  .00000043  00000+0  47800-4 0  9990
2 68642  88.9827 309.2659 0001881  94.6503 265.4863 13.51025915 25338
QIANFAN-116             
1 68643U 26075H   26283.26448046  .00000039  00000+0  41249-4 0  9997
2 68643  88.9820 309.2192 0001824  83.8870 276.2489 13.51026321 25345
QIANFAN-117             
1 68644U 26075J   26283.25226367  .00000051  00000+0  60156-4 0  9999
2 68644  88.9825 309.2415 0001789  90.4273 269.7083 13.51024238 25342
QIANFAN-118             
1 68645U 26075K   26283.28507631  .00000046  00000+0  52077-4 0  9996
2 68645  88.9830 309.2517 0002160  92.0703 268.0696 13.51025916 25348
QIANFAN-119             
1 68646U 26075L   26283.26037060  .00000059  00000+0  72234-4 0  9990
2 68646  88.9830 309.2499 0001628  93.9331 266.2006 13.51021974 25348
QIANFAN-120             
1 68647U 26075M   26283.27275912  .00000038  00000+0  39854-4 0  9990
2 68647  88.9831 309.2355 0001577  95.8167 264.3164 13.51021637 25353
QIANFAN-121             
1 68648U 26075N   26283.29751732  .00000043  00000+0  47482-4 0  9994
2 68648  88.9829 309.2353 0002103  93.3505 266.7887 13.51025054 25359
QIANFAN-122             
1 68649U 26075P   26283.28917896  .00000048  00000+0  55734-4 0  9993
2 68649  88.9828 309.2329 0001717  89.3840 270.7508 13.51028778 25349
QIANFAN-123             
1 68650U 26075Q   26283.33033068  .00000048  00000+0  56293-4 0  9992
2 68650  88.9824 309.2150 0001496  86.8965 273.2358 13.51021533 25335
QIANFAN-124             
1 68651U 26075R   26283.28098279  .00000039  00000+0  42489-4 0  9994
2 68651  88.9827 309.2321 0001663  88.1513 271.9829 13.51028104 25350
QIANFAN-125             
1 68652U 26075S   26283.29340072  .00000055  00000+0  66745-4 0  9996
2 68652  88.9827 309.2328 0002105  92.4967 267.6425 13.51025297 25355
QIANFAN-126             
1 68653U 26075T   26283.30151250  .00000066  00000+0  83299-4 0  9992
2 68653  88.9831 309.2022 0001509  87.9061 272.2263 13.51021190 25375
QIANFAN-127             
1 69073U 26104A   26283.30683715  .00000084  00000+0  11168-3 0  9993
2 69073  88.9889 329.7332 0002349  91.5128 268.6293 13.51030388 20707
QIANFAN-128             
1 69074U 26104B   26283.24095131  .00000084  00000+0  11130-3 0  9995
2 69074  88.9867 329.7593 0002479 103.1671 256.9757 13.51025833 20670
QIANFAN-129             
1 69075U 26104C   26283.26556887  .00000088  00000+0  11794-3 0  9998
2 69075  88.9870 329.6916 0002380  98.9986 261.1434 13.51025990 20713
QIANFAN-130             
1 69076U 26104D   26283.30261102  .00000077  00000+0  10084-3 0  9996
2 69076  88.9872 329.7541 0002148  88.0407 272.0990 13.51023972 20683
QIANFAN-131             
1 69077U 26104E   26283.24923873  .00000083  00000+0  10936-3 0  9993
2 69077  88.9865 329.7187 0002206 103.3547 256.7850 13.51028095 20699
QIANFAN-132             
1 69078U 26104F   26283.23679412  .00000087  00000+0  11596-3 0  9997
2 69078  88.9868 329.7771 0002161  92.4266 267.7133 13.51024298 20662
QIANFAN-133             
1 69079U 26104G   26283.24506773  .00000087  00000+0  11621-3 0  9997
2 69079  88.9871 329.7271 0002379 107.1005 253.0407 13.51022940 20684
QIANFAN-134             
1 69080U 26104H   26283.27380090  .00000095  00000+0  12778-3 0  9997
2 69080  88.9875 329.7514 0002434 103.6073 256.5349 13.51031506 20689
QIANFAN-135             
1 69081U 26104J   26283.25324781  .00000080  00000+0  10458-3 0  9998
2 69081  88.9869 329.7429 0002594  99.3915 260.7529 13.51024649 20688
QIANFAN-136             
1 69082U 26104K   26283.26146669  .00000080  00000+0  10593-3 0  9997
2 69082  88.9871 329.7456 0002366 105.6164 254.5249 13.51021370 20684
QIANFAN-137             
1 69083U 26104L   26283.25743919  .00000074  00000+0  96313-4 0  9996
2 69083  88.9880 329.6245 0002100  95.3107 264.8284 13.51024235 20752
QIANFAN-138             
1 69084U 26104M   26283.28205249  .00000084  00000+0  11187-3 0  9995
2 69084  88.9864 329.7420 0002461  94.2864 265.8568 13.51024086 20681
QIANFAN-139             
1 69085U 26104N   26283.26975526  .00000074  00000+0  96397-4 0  9992
2 69085  88.9867 329.7255 0002253  91.2727 268.8682 13.51032683 20698
QIANFAN-140             
1 69086U 26104P   26283.27793545  .00000086  00000+0  11431-3 0  9991
2 69086  88.9867 329.7284 0002609  97.4302 262.7146 13.51025249 20691
QIANFAN-141             
1 69087U 26104Q   26283.28626640  .00000083  00000+0  10947-3 0  9992
2 69087  88.9864 329.6911 0002524 101.4870 258.6565 13.51022991 20710
QIANFAN-142             
1 69088U 26104R   26283.29441578  .00000070  00000+0  90454-4 0  9997
2 69088  88.9863 329.6893 0002468  95.3689 264.7744 13.51022118 20713
QIANFAN-143             
1 69089U 26104S   26283.29030237  .00000073  00000+0  93738-4 0  9995
2 69089  88.9873 329.6986 0002155 104.5164 255.6226 13.51029604 20713
QIANFAN-144             
1 69090U 26104T   26283.29851858  .00000069  00000+0  88638-4 0  9995
2 69090  88.9871 329.7155 0002385  92.0715 268.0709 13.51022897 20700
QIANFAN-145             
1 69104U 26108A   26283.22872444  .00000024  00000+0  17936-4 0  9996
2 69104  89.0204  10.5799 0001856 115.4796 244.6548 13.51022146 19973
QIANFAN-146             
1 69105U 26108B   26283.26165103  .00000134  00000+0  18870-3 0  9997
2 69105  89.0206  10.4142 0001874 104.2622 255.8737 13.51023951 20073
QIANFAN-147             
1 69106U 26108C   26283.23709517  .00000135  00000+0  19074-3 0  9996
2 69106  89.0206  10.5840 0002045 102.3278 257.8103 13.51029358 19969
QIANFAN-148             
1 69107U 26108D   26283.22469106  .00000129  00000+0  18073-3 0  9994
2 69107  89.0199  10.5738 0002199 107.4248 252.7143 13.51029022 19966
QIANFAN-149             
1 69108U 26108E   26283.23286261  .00000131  00000+0  18435-3 0  9990
2 69108  89.0199  10.5943 0002336 100.7742 259.3672 13.51028386 19965
QIANFAN-150             
1 69109U 26108F   26283.24109506  .00000128  00000+0  18022-3 0  9996
2 69109  89.0204  10.5478 0002317  99.6991 260.4422 13.51022191 19983
QIANFAN-151             
1 69110U 26108G   26283.26998111  .00000132  00000+0  18542-3 0  9990
2 69110  89.0204  10.5684 0001929 109.3530 250.7830 13.51032043 19971
QIANFAN-152             
1 69111U 26108H   26283.24931416  .00000133  00000+0  18722-3 0  9995
2 69111  89.0200  10.5615 0001935  95.6446 264.4926 13.51024838 19984
QIANFAN-153             
1 69112U 26108J   26283.24519224  .00000129  00000+0  18178-3 0  9995
2 69112  89.0196  10.5375 0002142  99.1504 260.9889 13.51025944 19985
QIANFAN-154             
1 69113U 26108K   26283.25348642  .00000128  00000+0  18023-3 0  9999
2 69113  89.0207  10.5877 0002169 102.2515 257.8879 13.51031224 19974
QIANFAN-155             
1 69114U 26108L   26283.25753481  .00000130  00000+0  18265-3 0  9992
2 69114  89.0204  10.5513 0002224  99.2126 260.9277 13.51027978 19983
QIANFAN-156             
1 69115U 26108M   26283.27812697  .00000140  00000+0  19773-3 0  9996
2 69115  89.0219  10.5536 0002105 108.8738 251.2642 13.51023756 20003
QIANFAN-157             
1 69116U 26108N   26283.26583454  .00000127  00000+0  17776-3 0  9998
2 69116  89.0200  10.4743 0002297 106.4186 253.7217 13.51032765 20034
QIANFAN-158             
1 69117U 26108P   26282.68969728  .00000128  00000+0  17989-3 0  9993
2 69117  89.0202  10.5730 0002030 109.1613 250.9758 13.51025918 19932
QIANFAN-159             
1 69118U 26108Q   26283.27399246  .00000136  00000+0  19274-3 0  9990
2 69118  89.0194  10.5197 0001972 107.5194 252.6173 13.51028115 20002
QIANFAN-160             
1 69119U 26108R   26283.29058396  .00000127  00000+0  17885-3 0  9997
2 69119  89.0209  10.5586 0002307  96.9354 263.2059 13.51028202 19998
QIANFAN-161             
1 69120U 26108S   26283.29456458  .00000121  00000+0  16853-3 0  9998
2 69120  89.0216  10.4764 0001995 108.9332 251.2036 13.51026488 20041
QIANFAN-162             
1 69121U 26108T   26283.28634867  .00000125  00000+0  17528-3 0  9994
2 69121  89.0205  10.5003 0001952  98.9112 261.2260 13.51027299 20012
QIANFAN-163             
1 69325U 26121A   26283.25103503  .00000012  00000+0  30397-6 0  9997
2 69325  89.0080 289.0480 0003020 100.3049 259.8443 13.51022140 17704
QIANFAN-164             
1 69326U 26121B   26283.29218521  .00000046  00000+0  52923-4 0  9993
2 69326  89.0077 289.0338 0002520 100.8941 259.2494 13.51022955 17718
QIANFAN-165             
1 69382U 26124A   26283.22778314  .00000108  00000+0  14900-3 0  9993
2 69382  89.0055 350.0416 0002480 114.0630 246.0781 13.51025949 17572
QIANFAN-166             
1 69383U 26124B   26283.23192024  .00000100  00000+0  13585-3 0  9993
2 69383  89.0073 350.0557 0001964 109.0454 251.0910 13.51026599 17575
QIANFAN-167             
1 69384U 26124C   26283.23583341  .00000099  00000+0  13502-3 0  9996
2 69384  89.0047 350.0556 0002247 101.3609 258.7795 13.51020004 17567
QIANFAN-168             
1 69385U 26124D   26283.24001193  .00000096  00000+0  12940-3 0  9990
2 69385  89.0044 350.0344 0001996 115.3611 244.7747 13.51024098 17578
QIANFAN-169             
1 69386U 26124E   26283.24422093  .00000098  00000+0  13317-3 0  9998
2 69386  89.0042 350.0335 0001860 106.9356 253.1999 13.51027251 17576
QIANFAN-170             
1 69387U 26124F   26283.24825030  .00000103  00000+0  14158-3 0  9998
2 69387  89.0060 350.0090 0001786 107.8150 252.3196 13.51029735 17595
QIANFAN-171             
1 69388U 26124G   26283.25650723  .00000110  00000+0  15168-3 0  9995
2 69388  89.0074 350.0236 0002098 101.3437 258.7950 13.51032727 17590
QIANFAN-172             
1 69389U 26124H   26283.25230309  .00000113  00000+0  15626-3 0  9992
2 69389  89.0057 350.0104 0002337 114.1957 245.9439 13.51033272 17597
QIANFAN-173             
1 69390U 26124J   26283.26054051  .00000040  00000+0  44097-4 0  9997
2 69390  89.0046 350.0038 0001922 114.6198 245.5153 13.51015149 17596
QIANFAN-174             
1 69391U 26124K   26283.27287787  .00000099  00000+0  13467-3 0  9993
2 69391  89.0026 349.9559 0002317 102.0241 258.1170 13.51021109 17603
QIANFAN-175             
1 69392U 26124L   26283.27712878  .00000103  00000+0  14051-3 0  9994
2 69392  89.0079 350.0112 0001913 108.8997 251.2362 13.51031221 17606
QIANFAN-176             
1 69393U 26124M   26283.28127884  .00000096  00000+0  13014-3 0  9992
2 69393  89.0040 349.9828 0001923 108.4305 251.7056 13.51024867 17597
QIANFAN-177             
1 69394U 26124N   26283.28935416  .00000108  00000+0  14827-3 0  9998
2 69394  89.0050 349.9725 0002277 104.2625 255.8779 13.51033988 17611
QIANFAN-178             
1 69395U 26124P   26283.28524138  .00000104  00000+0  14217-3 0  9993
2 69395  88.9996 349.9177 0001911 107.5241 252.6119 13.51029854 17625
QIANFAN-179             
1 69396U 26124Q   26283.29348187  .00000107  00000+0  14684-3 0  9994
2 69396  89.0028 349.9415 0001888 107.7752 252.3605 13.51033510 17622
QIANFAN-180             
1 69397U 26124R   26283.22366180  .00000099  00000+0  13427-3 0  9995
2 69397  89.0034 349.9709 0001755 106.6112 253.5232 13.51025627 17604
QIANFAN-181             
1 69398U 26124S   26283.26476484  .00000109  00000+0  15012-3 0  9993
2 69398  89.0057 350.0648 0002176 101.7893 258.3502 13.51027748 17569
QIANFAN-182             
1 69399U 26124T   26283.26874309  .00000099  00000+0  13456-3 0  9990
2 69399  89.0032 350.0296 0001974 109.1834 250.9531 13.51032285 17566
QIANFAN-183             
1 69401U 26125A   26283.30340626  .00000020  00000+0  12320-4 0  9994
2 69401  88.9839 268.2705 0002403  93.7342 266.4084 13.51028104 17489
QIANFAN-184             
1 69402U 26125B   26283.23756845  .00000031  00000+0  30035-4 0  9996
2 69402  88.9890 268.3149 0002258  92.9811 267.1599 13.51029726 17479
QIANFAN-185             
1 69403U 26125C   26283.26232879  .00000020  00000+0  11870-4 0  9990
2 69403  88.9905 268.2553 0002287  95.1490 264.9922 13.51029172 17510
QIANFAN-186             
1 69404U 26125D   26283.30762689  .00000008  00000+0 -60379-5 0  9999
2 69404  88.9892 268.3082 0002237  91.2853 268.8554 13.51028508 17481
QIANFAN-187             
1 69405U 26125E   26283.24179311  .00000024  00000+0  17842-4 0  9990
2 69405  88.9893 268.2977 0002431  90.0890 270.0540 13.51029248 17481
QIANFAN-188             
1 69406U 26125F   26283.24986238  .00000035  00000+0  35821-4 0  9994
2 69406  88.9891 268.2962 0002453  93.8343 266.3089 13.51018623 17483
QIANFAN-189             
1 69407U 26125G   26283.25815440  .00000022  00000+0  14797-4 0  9997
2 69407  88.9873 268.2865 0002628  95.7532 264.3919 13.51019548 17477
QIANFAN-190             
1 69408U 26125H   26283.24580356  .00000036  00000+0  36356-4 0  9992
2 69408  88.9875 268.2859 0002195  93.9111 266.2291 13.51019658 17482
QIANFAN-191             
1 69409U 26125J   26283.27045156  .00000021  00000+0  14065-4 0  9997
2 69409  88.9888 268.2982 0002427  94.2083 265.9346 13.51020222 17480
QIANFAN-192             
1 69410U 26125K   26283.25403780  .00000032  00000+0  30723-4 0  9999
2 69410  88.9895 268.3018 0002590  93.9270 266.2178 13.51020193 17480
QIANFAN-193             
1 69411U 26125L   26283.27874387  .00000025  00000+0  19490-4 0  9997
2 69411  88.9873 268.2711 0002399  96.4230 263.7194 13.51028129 17495
QIANFAN-194             
1 69412U 26125M   26283.27463712  .00000026  00000+0  21604-4 0  9995
2 69412  88.9906 268.2928 0002441  93.5366 266.6065 13.51026687 17484
QIANFAN-195             
1 69413U 26125N   26283.28294275  .00000026  00000+0  21513-4 0  9992
2 69413  88.9907 268.2772 0001993  89.9626 270.1754 13.51028449 17508
QIANFAN-196             
1 69414U 26125P   26283.29102410  .00000031  00000+0  29151-4 0  9995
2 69414  88.9912 268.2813 0002082  93.4781 266.6608 13.51020636 17501
QIANFAN-197             
1 69415U 26125Q   26283.29940387  .00000020  00000+0  13060-4 0  9999
2 69415  88.9887 268.2466 0002359  93.3557 266.7864 13.51024243 17507
QIANFAN-198             
1 69416U 26125R   26283.28694619  .00000030  00000+0  27520-4 0  9990
2 69416  88.9881 268.2593 0002454  94.0227 266.1205 13.51028782 17506
QIANFAN-199             
1 69417U 26125S   26283.29526086  .00000029  00000+0  26654-4 0  9999
2 69417  88.9885 268.2095 0002514  89.5496 270.5943 13.51026451 17534
QIANFAN-200             
1 69418U 26125T   26283.26639656  .00000020  00000+0  12272-4 0  9997
2 69418  88.9891 268.2993 0002539  95.2361 264.9080 13.51026955 17483
QIANFAN-201             
1 69800U 26153A   26282.81666152 -.01827159  00000+0 -17661+1 0  9990
2 69800  88.9958 349.3528 0002527 124.0480 236.0930 13.84197786 13743
QIANFAN-202             
1 69801U 26153B   26282.60707626 -.01862082  00000+0 -16874+1 0  9999
2 69801  88.9960 349.3224 0008652 276.8618  83.1569 13.88056428 13733
QIANFAN-203             
1 69802U 26153C   26282.80442454 -.01896569  00000+0 -16795+1 0  9996
2 69802  88.9959 349.3336 0008069 227.5750 132.4741 13.88805644 13752
QIANFAN-204             
1 69803U 26153D   26282.80465504 -.01854938  00000+0 -17257+1 0  9996
2 69803  88.9957 349.3341 0008682 206.1814 153.8920 13.86500080 13752
QIANFAN-205             
1 69804U 26153E   26282.56713384 -.01865904  00000+0 -17704+1 0  9994
2 69804  88.9957 349.3901 0002132 268.6512  91.4415 13.85385997 13705
QIANFAN-206             
1 69805U 26153F   26282.60688836 -.01896410  00000+0 -17146+1 0  9999
2 69805  88.9958 349.3221 0004346 306.6109  53.4662 13.87603961 13748
QIANFAN-207             
1 69806U 26153G   26282.85838099 -.01911259  00000+0 -18024+1 0  9990
2 69806  88.9961 349.3412 0021783 186.8078 173.2800 13.85059286 13751
QIANFAN-208             
1 69807U 26153H   26282.56340792 -.01856684  00000+0 -17723+1 0  9992
2 69807  88.9954 349.3704 0003725  62.4203 297.7345 13.85008387 13722
QIANFAN-209             
1 69808U 26153J   26282.75586955 -.01904608  00000+0 -18536+1 0  9990
2 69808  88.9960 349.3644 0003436 178.5425 181.5755 13.83292771 13733
QIANFAN-210             
1 69809U 26153K   26282.86792409 -.01854921  00000+0 -17886+1 0  9995
2 69809  88.9957 349.3437 0002796 255.3830 104.7031 13.84409631 13754
QIANFAN-211             
1 69810U 26153L   26283.24003949  .00000366  00000+0  18354-3 0  9991
2 69810  88.9963 349.1950 0005589 261.3558  98.6996 14.14552290 13865
QIANFAN-212             
1 69811U 26153M   26282.85184605 -.01907098  00000+0 -17104+1 0  9997
2 69811  88.9954 349.3020 0009415 258.8209 101.1905 13.88078769 13776
QIANFAN-213             
1 69812U 26153N   26282.83890991 -.01918380  00000+0 -17812+1 0  9990
2 69812  88.9961 349.3194 0012436 170.7527 189.3875 13.86058317 13767
QIANFAN-214             
1 69813U 26153P   26282.65092549 -.01841087  00000+0 -15240+1 0  9996
2 69813  88.9962 349.2737 0008825 174.9622 185.1643 13.93259862 13774
QIANFAN-215             
1 69814U 26153Q   26283.29069564  .00000382  00000+0  18965-3 0  9991
2 69814  88.9961 349.1072 0005427 273.3664  86.6902 14.15210368 13912
QIANFAN-216             
1 69815U 26153R   26282.66007059 -.01832840  00000+0 -15498+1 0  9993
2 69815  88.9958 349.2562 0004936 305.1476  54.9236 13.92025526 13780
QIANFAN-217             
1 69816U 26153S   26282.62723161 -.01854720  00000+0 -11543+1 0  9997
2 69816  88.9958 349.1192 0002401 182.8237 177.2934 14.08717259 13850
QIANFAN-218             
1 69817U 26153T   26282.77838506 -.01804213  00000+0 -11461+1 0  9995
2 69817  88.9959 349.1078 0001129 305.4474  54.6604 14.08135997 13874
QIANFAN-219             
1 69848U 26155A   26283.23323918  .00000085  00000+0  11331-3 0  9990
2 69848  89.0122  51.7260 0001675 112.3746 247.7583 13.51030906 13405
QIANFAN-220             
1 69849U 26155B   26283.25355424  .00000092  00000+0  12380-3 0  9993
2 69849  89.0129  51.7542 0033100 313.7945  46.0469 13.50936886 13394
QIANFAN-221             
1 69850U 26155C   26282.82790606  .00000025  00000+0  16348-4 0  9997
2 69850  89.0137  51.4934 0029066 320.3091  39.5941 13.64681355 13507
QIANFAN-222             
1 69851U 26155D   26283.27028623  .00000071  00000+0  90650-4 0  9990
2 69851  89.0129  51.7712 0001727 102.5093 257.6251 13.51026316 13381
QIANFAN-223             
1 69852U 26155E   26283.15088338  .00000079  00000+0  10403-3 0  9992
2 69852  89.0128  51.7910 0001804 102.7748 257.3605 13.51032977 13364
QIANFAN-224             
1 69853U 26155F   26283.20029815  .00000085  00000+0  11307-3 0  9995
2 69853  89.0112  51.7256 0001771 104.3704 255.7643 13.51029396 13392
QIANFAN-225             
1 69854U 26155G   26283.20438131  .00000086  00000+0  11414-3 0  9991
2 69854  89.0120  51.7743 0001767 105.5899 254.5448 13.51033085 13374
QIANFAN-226             
1 69855U 26155H   26283.28262390  .00000082  00000+0  10836-3 0  9995
2 69855  89.0122  51.7493 0001736 107.7745 252.3596 13.51034243 13398
QIANFAN-227             
1 69856U 26155J   26282.84233271 -.02123718  00000+0 -36118+1 0  9997
2 69856  89.0115  51.7957 0016061 308.8204  51.1512 13.49297760 13336
QIANFAN-228             
1 69857U 26155K   26283.21677304  .00000072  00000+0  92646-4 0  9994
2 69857  89.0127  51.7450 0007881 310.7678  49.2788 13.51027945 13393
QIANFAN-229             
1 69858U 26155L   26283.22907577  .00000078  00000+0  10193-3 0  9996
2 69858  89.0129  51.7283 0001779 102.5514 257.5836 13.51037378 13407
QIANFAN-230             
1 69859U 26155M   26283.26605539  .00000069  00000+0  88887-4 0  9990
2 69859  89.0125  51.7665 0001752 105.7891 254.3454 13.51035541 13380
QIANFAN-231             
1 69860U 26155N   26282.56905946 -.01767779  00000+0 -31148+1 0  9994
2 69860  89.0116  51.7779 0004985 240.1044 119.9610 13.46977478 13325
QIANFAN-232             
1 69861U 26155P   26283.21910702  .00000076  00000+0  10020-3 0  9990
2 69861  89.0118  51.7215 0024538 311.2800  48.6237 13.50454412 13404
QIANFAN-233             
1 69862U 26155Q   26283.24147314  .00000087  00000+0  11596-3 0  9996
2 69862  89.0124  51.7110 0001771 110.2434 249.8908 13.51036642 13413
QIANFAN-234             
1 69863U 26155R   26282.72627094 -.01799834  00000+0 -30540+1 0  9992
2 69863  89.0108  51.6898 0035344 312.9315  46.8871 13.49235269 13383
QIANFAN-235             
1 69864U 26155S   26282.87008946 -.02077757  00000+0 -23570+1 0  9997
2 69864  89.0130  51.3933 0028851 303.4404  56.4002 13.74305495 13565
QIANFAN-236             
1 69865U 26155T   26283.32378778  .00000084  00000+0  11211-3 0  9999
2 69865  89.0128  51.7259 0001865  95.4146 264.7218 13.51035879 13413
QIANFAN-237             
1 69866U 26155U   26283.25380396  .00000086  00000+0  11490-3 0  9992
2 69866  89.0128  51.6973 0001881  94.3477 265.7890 13.51037003 13417
QIANFAN-238             
1 69867U 26155V   26283.25792798  .00000073  00000+0  94961-4 0  9997
2 69867  89.0130  51.7156 0001860  94.9279 265.2085 13.51025586 13412
