ORBCOMM FM06            
1 25118U 97084G   26283.54524523  .00001008  00000+0  30911-3 0  9991
2 25118  45.0131 217.2648 0001438 335.7921 193.8170 14.47792272511101
ORBCOMM FM04            
1 25159U 98007C   26283.28069899  .00000686  00000+0  27964-3 0  9998
2 25159 107.9625  46.2991 0038906 127.1347 233.3357 14.35898214493115
ORBCOMM FM19            
1 25415U 98046C   26282.81237620  .00000718  00000+0  27256-3 0  9993
2 25415  44.9941  58.6218 0004944 171.4856 341.4560 14.39670794473291
ORBCOMM FM20            
1 25416U 98046D   26283.05047458  .00000547  00000+0  22501-3 0  9997
2 25416  44.9940  66.6988 0002082 173.6168 186.4707 14.38198284473327
ORBCOMM FM27            
1 25481U 98053G   26283.27627624  .00000661  00000+0  25638-3 0  9991
2 25481  45.0038 148.6369 0001385  62.3951 297.7038 14.39312013466810
ORBCOMM FM32            
1 25982U 99065C   26283.47232258  .00000569  00000+0  23639-3 0  9994
2 25982  45.0165 347.4881 0008058 264.4142  95.5788 14.37268620403679
ORBCOMM FM109           
1 40086U 14040A   26282.67424998  .00000317  00000+0  10319-3 0  9993
2 40086  47.0027 270.1605 0001610 345.9006  14.1834 14.58937339651067
ORBCOMM FM110           
1 41182U 15081D   26282.74394131  .00000448  00000+0  13071-3 0  9993
2 41182  47.0010 179.7251 0003102 251.2362 108.8188 14.58989093574353
ORBCOMM FM118           
1 41183U 15081E   26283.39698259  .00000489  00000+0  13976-3 0  9993
2 41183  47.0033 177.0172 0003410 209.9129 150.1563 14.58837915574559
ORBCOMM FM112           
1 41184U 15081F   26282.85111775  .00000237  00000+0  86203-4 0  9992
2 41184  46.9981  87.9883 0002406   8.4216 351.6710 14.58978734575694
ORBCOMM FM113           
1 41185U 15081G   26283.17360062  .00000299  00000+0  99224-4 0  9999
2 41185  47.0000  86.8942 0001270   0.4373 359.6514 14.58950422575725
ORBCOMM FM108           
1 41187U 15081J   26283.47557172  .00000486  00000+0  13869-3 0  9992
2 41187  47.0064 357.0548 0002071 338.2478  21.8319 14.59001786576914
ORBCOMM FM117           
1 41188U 15081K   26283.51072435  .00000501  00000+0  14193-3 0  9991
2 41188  47.0027 355.4977 0002330 350.6761   9.4082 14.58984385576961
ORBCOMM FM116           
1 41189U 15081L   26282.87480263  .00000239  00000+0  86653-4 0  9991
2 41189  47.0014  88.3035 0001904 228.4283 131.6440 14.58981040575681
