EUTELSAT 174A           
1 28924U 05052A   26254.65096940 -.00000005  00000+0  00000+0 0  9999
2 28924   4.4321  75.4094 0005942  94.9525 228.6269  1.00272354 53191
EUTELSAT 33F            
1 29270U 06032A   26254.58802818  .00000140  00000+0  00000+0 0  9993
2 29270   1.8789  81.1576 0003318  89.9553  64.2753  1.00273674 48174
EUTELSAT HOTBIRD 13C    
1 33459U 08065A   26254.50024539 -.00000298  00000+0  00000+0 0  9998
2 33459   3.1665  78.0992 0003553  99.9106 302.3155  1.00271211 48211
EUTELSAT 36B            
1 36101U 09065A   26254.59149486  .00000096  00000+0  00000+0 0  9999
2 36101   0.7033  81.1783 0005730  87.2099  85.6719  1.00269249 61572
EUTELSAT KA-SAT 9A      
1 37258U 10069A   26254.58326149  .00000045  00000+0  00000+0 0  9995
2 37258   0.0741 351.3695 0005429 181.7234  36.4883  1.00272447 44879
EUTELSAT 7 WEST A       
1 37816U 11051A   26254.36618149 -.00000078  00000+0  00000+0 0  9994
2 37816   0.0642 345.4583 0005971 187.6487 301.7872  1.00271605 54744
EUTELSAT 16A            
1 37836U 11057A   26254.58464816  .00000087  00000+0  00000+0 0  9995
2 37836   0.0859  61.1104 0005525 106.4880  49.4949  1.00269661  8208
EUTELSAT 21B            
1 38992U 12062B   26254.58577484  .00000113  00000+0  00000+0 0  9992
2 38992   0.0699 344.8164 0003075 176.1404  62.1469  1.00269186 50696
EUTELSAT 70B            
1 39020U 12069A   26254.59539487 -.00000060  00000+0  00000+0 0  9996
2 39020   0.0651   0.0171 0003669 171.7462 103.6932  1.00272156 50372
EUTELSAT 117 WEST A     
1 39122U 13012A   26254.62350758 -.00000030  00000+0  00000+0 0  9991
2 39122   0.0464 308.0380 0002813 225.7337 284.5359  1.00272327 49304
EUTELSAT 7B             
1 39163U 13022A   26254.58447483  .00000105  00000+0  00000+0 0  9996
2 39163   0.0701 338.2231 0002156  38.4147 199.7952  1.00455469 48812
EXPRESS-AT1             
1 39612U 14010A   26254.59626154 -.00000109  00000+0  00000+0 0  9993
2 39612   0.4745  84.6028 0004879  81.8233 113.4746  1.00314832 45685
EXPRESS-AT2             
1 39613U 14010B   26254.62481800  .00000062  00000+0  00000+0 0  9992
2 39613   0.0232 248.9726 0000741  38.6887 343.9127  1.00273473 45365
EUTELSAT 3B             
1 39773U 14030A   26254.58204815  .00000003  00000+0  00000+0 0  9990
2 39773   0.0666 357.0740 0004091 173.0522  33.1011  1.00272319 44933
EUTELSAT 115 WEST B     
1 40425U 15010B   26254.62281315 -.00000042  00000+0  00000+0 0  9994
2 40425   0.0259 320.2772 0000235 113.1548  26.5329  1.00272068 42255
EUTELSAT 8 WEST B       
1 40875U 15039B   26254.36600816 -.00000083  00000+0  00000+0 0  9991
2 40875   0.0676 345.0679 0003664 183.3676 305.7620  1.00270829 40525
EUTELSAT 9B             
1 41310U 16005A   26254.58326149  .00000045  00000+0  00000+0 0  9995
2 41310   0.0502  70.0067 0002386 137.5907   1.9683  1.00272577 38985
EUTELSAT 65 WEST A      
1 41382U 16014A   26254.56852809 -.00000293  00000+0  00000+0 0  9995
2 41382   0.0773 310.6730 0002178 215.3593 324.0291  1.00273306 38399
EUTELSAT 117 WEST B     
1 41589U 16038B   26254.62350794 -.00000028  00000+0  00000+0 0  9999
2 41589   0.0409 354.3975 0000075 224.4193 239.2912  1.00270916 37537
EUTELSAT 172B           
1 42741U 17029B   26254.56368183 -.00000023  00000+0  00000+0 0  9990
2 42741   0.0232 140.5666 0000022 337.8562 247.0910  1.00270428 34614
EUTELSAT 7C             
1 44334U 19034B   26254.36895484  .00000031  00000+0  00000+0 0  9993
2 44334   0.0707 180.5661 0003205 337.8090 331.8288  1.00272629  7707
EUTELSAT 5 WEST B       
1 44624U 19067A   26254.58040148 -.00000059  00000+0  00000+0 0  9995
2 44624   0.0818 319.7710 0003115 211.0409  23.7325  1.00271248 25299
EUTELSAT KONNECT        
1 45027U 20005B   26254.36895484  .00000032  00000+0  00000+0 0  9994
2 45027   0.0637  99.8848 0001300  85.8968 304.6388  1.00271705 25204
EUTELSAT QUANTUM        
1 49056U 21069B   26254.59088819  .00000109  00000+0  00000+0 0  9997
2 49056   0.0163  74.6064 0002246  99.8398  76.5797  1.00271816 18795
EUTELSAT KONNECT VHTS   
1 53765U 22110A   26254.36817484 -.00000001  00000+0  00000+0 0  9992
2 53765   0.0569 104.0975 0002855  38.0591 343.4768  1.00270605  7700
EUTELSAT HOTBIRD 13F    
1 54048U 22134A   26254.58404149  .00000070  00000+0  00000+0 0  9992
2 54048   0.0647 293.1749 0001972  69.6228 211.0581  1.00271029 14248
EUTELSAT HOTBIRD 13G    
1 54225U 22146A   26254.58404149  .00000070  00000+0  00000+0 0  9992
2 54225   0.0492 232.2936 0002016 309.0506  32.5054  1.00270920  8338
EUTELSAT 10B            
1 54259U 22157A   26253.22906750  .00000048  00000+0  00000+0 0  9991
2 54259   0.0555 102.2355 0001580   7.7511 331.7742  1.00270556 13877
EUTELSAT 36D            
1 59346U 24059A   26254.51731881  .00000139  00000+0  00000+0 0  9991
2 59346   0.0018 171.6645 0000132 126.1082 274.8729  1.00271468  9012
